{"type":"FeatureCollection","features":[{"type":"Feature","properties":{},"geometry":{"type":"Polygon","coordinates":[[[49.11,41.28],[47.49,42.99],[47.59,43.66],[46.68,44.61],[47.68,45.64],[48.65,45.81],[49.1,46.4],[51.19,47.05],[52.04,46.8],[53.04,46.85],[53.22,46.23],[53.04,45.26],[52.17,45.41],[51.32,45.25],[51.28,44.51],[50.31,44.61],[50.34,44.28],[50.89,44.03],[51.34,43.13],[52.5,42.79],[52.69,42.44],[52.45,42.03],[52.81,41.14],[52.92,41.87],[53.72,42.12],[54.01,41.55],[54.74,40.95],[53.86,40.63],[52.92,40.88],[52.69,40.03],[53.36,39.98],[53.1,39.29],[53.88,38.95],[53.74,37.91],[53.92,37.2],[53.83,36.97],[52.26,36.7],[50.84,36.87],[50.15,37.37],[49.2,37.58],[48.88,38.32],[48.86,38.82],[49.22,39.05],[49.57,40.18],[50.39,40.26],[50.08,40.53],[49.62,40.57],[49.11,41.28]]]}},{"type":"Feature","properties":{},"geometry":{"type":"Polygon","coordinates":[[[180.0,71.52],[178.73,71.1],[178.9,70.78],[180.0,70.83],[180.0,68.96],[178.6,69.4],[175.72,69.88],[173.64,69.82],[170.45,70.1],[170.01,69.65],[170.82,69.01],[169.58,68.69],[167.84,69.58],[165.94,69.47],[164.05,69.67],[162.28,69.64],[160.94,69.44],[159.71,69.72],[159.83,70.45],[159.0,70.87],[157.01,71.03],[152.97,70.84],[150.35,71.61],[149.5,72.2],[140.47,72.85],[139.15,72.42],[139.87,71.49],[138.23,71.63],[137.5,71.35],[135.56,71.66],[133.86,71.39],[132.25,71.84],[131.29,70.79],[129.72,71.19],[128.46,71.98],[129.05,72.4],[128.59,73.04],[126.98,73.57],[123.26,73.74],[123.2,72.97],[119.02,73.12],[118.78,73.59],[115.57,73.75],[113.97,73.59],[113.53,73.34],[113.02,73.98],[112.12,73.79],[109.4,74.18],[110.15,74.48],[113.89,75.33],[114.13,75.85],[113.33,76.22],[111.08,76.71],[108.15,76.72],[107.24,76.48],[106.97,76.97],[104.71,77.13],[106.07,77.37],[104.35,77.7],[101.99,77.29],[101.04,76.86],[100.76,76.43],[98.92,76.45],[96.68,75.92],[95.86,76.14],[93.23,76.05],[92.9,75.77],[90.26,75.64],[88.32,75.14],[87.17,75.12],[86.01,74.46],[86.82,73.94],[84.66,73.81],[82.25,73.85],[80.51,73.65],[80.61,72.58],[81.5,71.75],[79.65,72.32],[77.58,72.27],[75.9,71.87],[76.36,71.15],[75.29,71.34],[75.68,72.3],[75.16,72.86],[74.66,72.83],[74.89,72.12],[73.1,71.45],[74.4,70.63],[73.6,69.63],[73.84,69.07],[74.94,68.99],[74.47,68.33],[75.05,67.76],[74.19,67.28],[73.92,66.79],[72.82,66.53],[72.42,66.17],[71.28,66.32],[73.24,67.74],[73.67,68.41],[72.56,69.02],[72.79,70.39],[72.47,71.09],[71.85,71.41],[72.8,72.22],[72.59,72.78],[69.94,73.04],[69.2,72.84],[68.54,71.93],[66.69,71.03],[66.72,70.71],[67.26,69.93],[66.93,69.45],[68.14,69.36],[68.16,69.14],[69.18,68.62],[68.51,68.09],[64.89,69.23],[63.5,69.55],[60.55,69.85],[60.03,69.52],[61.08,68.94],[59.94,68.28],[58.8,68.88],[57.32,68.47],[55.44,68.44],[54.73,68.1],[53.49,68.2],[54.47,68.81],[53.72,68.86],[48.14,67.52],[47.89,66.88],[46.35,66.67],[45.56,67.01],[45.56,67.57],[46.82,67.69],[46.25,68.25],[43.45,68.57],[44.19,67.95],[43.7,67.35],[44.53,66.76],[43.95,66.07],[43.02,66.42],[42.09,66.48],[39.76,65.5],[40.44,64.76],[39.59,64.52],[37.18,65.14],[36.52,64.78],[37.14,64.33],[37.01,63.85],[34.94,64.41],[34.81,65.9],[33.18,66.63],[33.92,66.76],[38.38,66.0],[40.02,66.27],[41.13,66.79],[41.06,67.46],[40.29,67.93],[36.51,69.06],[33.78,69.3],[32.13,69.91],[31.1,69.56],[30.01,70.19],[31.29,70.45],[28.17,71.19],[26.37,70.99],[24.55,71.03],[23.02,70.2],[21.38,70.26],[19.18,69.82],[14.76,67.81],[10.53,64.49],[8.55,63.45],[5.91,62.61],[4.99,61.97],[5.31,59.66],[5.67,58.59],[7.05,58.08],[8.38,58.31],[10.36,59.47],[11.03,58.86],[11.79,57.44],[12.63,56.31],[12.94,55.36],[14.1,55.41],[14.67,56.2],[15.88,56.1],[16.45,57.04],[16.83,58.72],[17.87,58.95],[18.79,60.08],[17.83,60.64],[17.12,61.34],[17.85,62.75],[21.37,64.41],[21.21,65.03],[22.18,65.72],[23.9,66.01],[25.29,65.53],[25.4,65.11],[22.44,63.82],[21.54,63.19],[21.06,62.61],[21.54,61.71],[21.32,60.72],[22.29,60.39],[22.87,59.85],[26.26,60.42],[28.07,60.5],[29.12,60.03],[27.98,59.48],[26.95,59.45],[25.86,59.61],[23.34,59.19],[23.43,58.61],[24.06,58.26],[24.43,58.38],[24.12,57.03],[23.32,57.01],[22.52,57.75],[21.58,57.41],[21.09,56.78],[21.06,56.03],[21.27,55.19],[19.89,54.87],[19.66,54.43],[18.7,54.44],[18.62,54.68],[17.62,54.85],[14.12,53.76],[13.65,54.08],[12.52,54.47],[11.96,54.2],[10.94,54.01],[10.95,54.36],[9.94,54.6],[9.92,54.98],[9.65,55.47],[10.37,56.19],[10.67,56.08],[10.91,56.46],[10.37,56.61],[10.25,56.89],[10.55,57.22],[10.58,57.73],[9.78,57.45],[9.42,57.17],[8.54,57.11],[8.09,56.54],[8.12,55.52],[8.53,54.96],[8.57,54.4],[8.8,54.02],[8.12,53.53],[7.94,53.75],[7.1,53.69],[6.91,53.48],[6.07,53.51],[4.71,53.09],[3.83,51.62],[3.32,51.35],[1.64,50.95],[1.34,50.13],[-0.99,49.35],[-1.93,49.78],[-1.62,48.64],[-3.3,48.9],[-4.59,48.68],[-4.49,47.96],[-2.96,47.57],[-2.23,47.06],[-1.19,46.01],[-1.38,44.02],[-1.9,43.42],[-4.35,43.4],[-7.98,43.75],[-9.39,43.03],[-8.98,42.59],[-9.03,41.88],[-8.77,40.76],[-9.05,39.76],[-9.45,39.39],[-9.53,38.74],[-9.29,38.36],[-8.84,38.27],[-8.75,37.65],[-8.9,36.87],[-8.38,36.98],[-7.86,36.84],[-7.45,37.1],[-6.52,36.94],[-6.24,36.37],[-5.87,36.03],[-5.38,35.95],[-5.0,36.32],[-4.37,36.68],[-2.15,36.67],[-1.44,37.44],[-0.68,37.64],[-0.47,38.29],[0.11,38.74],[-0.28,39.31],[0.11,40.12],[0.72,40.68],[0.81,41.01],[2.09,41.23],[3.04,41.89],[2.99,42.47],[3.1,43.08],[4.56,43.4],[6.53,43.13],[7.44,43.69],[7.85,43.77],[8.43,44.23],[8.89,44.37],[10.2,43.92],[10.51,42.93],[12.11,41.7],[12.89,41.25],[13.63,41.19],[14.06,40.79],[14.7,40.6],[15.0,40.17],[15.41,40.05],[16.11,38.96],[15.89,38.75],[15.68,37.91],[16.1,37.99],[16.64,38.84],[17.05,38.9],[17.17,39.42],[16.45,39.8],[16.87,40.44],[17.74,40.28],[18.29,39.81],[18.48,40.17],[18.38,40.36],[17.52,40.88],[15.89,41.54],[16.17,41.74],[15.93,41.96],[15.14,41.96],[14.03,42.76],[13.53,43.59],[12.59,44.09],[12.26,44.6],[12.38,44.89],[12.33,45.38],[13.14,45.74],[13.94,45.59],[13.68,45.48],[13.66,45.14],[13.95,44.8],[14.26,45.23],[14.9,45.08],[14.92,44.74],[15.38,44.32],[15.17,44.24],[16.02,43.51],[16.93,43.21],[18.88,42.28],[19.54,41.72],[19.32,40.73],[19.41,40.25],[19.96,39.92],[20.22,39.34],[21.12,38.31],[21.67,36.85],[22.49,36.41],[23.15,36.42],[22.78,37.31],[23.41,37.41],[23.12,37.92],[24.04,37.66],[24.03,38.22],[22.97,38.97],[23.35,39.19],[22.85,39.66],[22.63,40.26],[22.81,40.48],[23.34,39.96],[23.9,39.96],[24.41,40.13],[23.71,40.69],[24.93,40.95],[26.06,40.82],[26.04,40.62],[26.36,40.15],[27.62,41.0],[28.81,41.05],[28.99,41.3],[28.12,41.62],[27.67,42.58],[28.04,43.29],[28.56,43.71],[28.84,44.91],[29.14,44.82],[29.63,45.04],[29.6,45.29],[30.38,46.03],[30.75,46.58],[31.68,46.71],[31.74,46.33],[33.3,46.08],[33.59,45.85],[32.63,45.52],[32.45,45.33],[33.55,45.03],[33.33,44.56],[33.88,44.36],[35.24,44.94],[36.33,45.11],[36.53,45.47],[35.51,45.41],[35.02,45.65],[34.96,46.27],[35.82,46.65],[36.76,46.7],[37.43,47.02],[39.12,47.26],[39.15,47.04],[37.67,46.64],[38.23,46.24],[37.4,45.4],[36.68,45.24],[37.54,44.66],[38.68,44.28],[40.32,43.13],[40.88,43.01],[41.45,42.65],[41.7,41.96],[41.55,41.54],[40.37,41.01],[39.51,41.1],[38.35,40.95],[36.91,41.34],[35.17,42.04],[33.51,42.02],[32.35,41.74],[31.15,41.09],[29.24,41.22],[28.82,40.46],[27.28,40.42],[26.17,39.46],[26.8,38.99],[26.32,38.21],[27.05,37.65],[27.64,36.66],[28.73,36.68],[29.7,36.14],[30.39,36.26],[30.62,36.68],[31.7,36.64],[32.51,36.11],[34.03,36.22],[34.71,36.8],[35.55,36.57],[36.16,36.65],[35.78,36.28],[36.15,35.82],[35.91,35.41],[36.0,34.64],[34.96,32.83],[34.75,32.07],[34.49,31.61],[34.56,31.55],[34.27,31.22],[33.77,30.97],[32.99,31.02],[32.19,31.26],[31.96,30.93],[31.69,31.43],[30.98,31.56],[30.1,31.47],[28.91,30.87],[26.5,31.59],[25.16,31.57],[24.92,31.9],[23.24,32.19],[22.9,32.64],[21.54,32.84],[20.85,32.71],[20.13,32.24],[19.82,31.75],[20.05,30.99],[19.57,30.53],[19.09,30.27],[18.02,30.76],[15.71,31.38],[15.25,32.27],[13.92,32.71],[13.08,32.88],[12.66,32.79],[11.49,33.14],[11.11,33.29],[10.86,33.77],[10.34,33.79],[10.15,34.33],[10.81,34.83],[10.94,35.7],[10.59,35.95],[10.6,36.41],[11.1,36.9],[11.03,37.09],[10.18,36.72],[10.21,37.23],[9.51,37.35],[8.42,36.95],[7.74,36.89],[7.33,37.12],[6.26,37.11],[5.32,36.72],[4.82,36.87],[1.47,36.61],[0.5,36.3],[-0.13,35.89],[-1.21,35.71],[-2.17,35.17],[-3.64,35.4],[-4.59,35.33],[-5.19,35.76],[-5.93,35.76],[-6.91,34.11],[-8.66,33.24],[-9.3,32.56],[-9.81,31.18],[-9.56,29.93],[-10.4,29.1],[-10.9,28.83],[-11.69,28.15],[-12.62,28.04],[-13.14,27.64],[-13.77,26.62],[-14.44,26.25],[-14.8,25.64],[-14.82,25.1],[-15.09,24.52],[-15.43,24.36],[-15.98,23.72],[-16.33,23.02],[-16.26,22.68],[-16.59,22.16],[-16.97,21.89],[-17.06,21.0],[-16.54,20.57],[-16.28,20.09],[-16.38,19.59],[-16.15,18.11],[-16.27,17.17],[-16.55,16.67],[-16.46,16.14],[-16.7,15.62],[-17.19,14.92],[-17.62,14.73],[-17.13,14.37],[-16.71,13.6],[-16.84,13.15],[-16.61,12.17],[-16.31,11.96],[-16.09,11.52],[-15.66,11.46],[-14.84,10.88],[-14.58,10.21],[-14.07,9.89],[-13.25,8.9],[-12.95,7.8],[-12.43,7.26],[-11.44,6.79],[-10.77,6.14],[-9.0,4.83],[-7.97,4.36],[-7.52,4.34],[-5.83,4.99],[-4.65,5.17],[-2.86,4.99],[-1.96,4.71],[1.06,5.93],[2.69,6.26],[4.33,6.27],[5.03,5.61],[5.36,4.89],[5.9,4.26],[6.7,4.24],[7.08,4.46],[7.46,4.41],[8.5,4.77],[8.49,4.5],[8.74,4.35],[8.95,3.9],[9.4,3.73],[9.8,3.07],[9.31,1.16],[9.49,1.01],[8.8,-1.11],[9.41,-2.14],[11.92,-5.04],[12.32,-6.1],[12.23,-6.29],[12.73,-6.93],[13.24,-8.56],[12.88,-9.17],[13.39,-10.37],[13.69,-10.73],[13.63,-12.04],[12.5,-13.55],[11.78,-15.79],[11.64,-16.67],[11.79,-18.07],[12.61,-19.05],[13.35,-20.87],[14.26,-22.11],[14.39,-22.66],[14.41,-23.85],[15.21,-27.09],[15.6,-27.82],[16.35,-28.58],[18.22,-31.66],[18.25,-32.43],[17.93,-32.61],[18.25,-33.28],[18.24,-33.87],[18.38,-34.14],[18.42,-34.0],[18.86,-34.44],[19.19,-34.46],[19.62,-34.82],[20.07,-34.8],[20.69,-34.42],[21.54,-34.26],[22.57,-33.86],[22.99,-33.92],[23.59,-33.79],[24.68,-33.99],[25.17,-33.8],[25.78,-33.94],[25.91,-33.67],[26.42,-33.61],[27.46,-33.23],[28.22,-32.77],[30.06,-31.14],[31.33,-29.4],[32.2,-28.75],[32.46,-28.3],[32.92,-26.22],[32.66,-26.15],[32.57,-25.73],[33.01,-25.36],[35.04,-24.48],[35.46,-24.12],[35.61,-23.71],[35.37,-23.54],[35.53,-23.07],[35.56,-22.09],[35.39,-22.14],[35.18,-21.25],[34.7,-20.5],[34.79,-19.78],[35.2,-19.55],[35.9,-18.84],[36.28,-18.66],[37.41,-17.59],[39.45,-16.72],[40.09,-16.1],[40.78,-14.69],[40.6,-14.2],[40.48,-10.77],[40.32,-10.32],[39.95,-10.1],[39.19,-8.49],[39.19,-7.7],[39.47,-7.1],[39.44,-6.84],[38.8,-6.48],[38.74,-5.91],[39.2,-4.68],[39.6,-4.35],[39.8,-3.68],[40.12,-3.28],[40.26,-2.57],[40.64,-2.5],[40.88,-2.08],[41.59,-1.68],[42.04,-0.92],[43.14,0.29],[46.56,2.86],[47.74,4.22],[48.59,5.34],[49.45,6.8],[50.55,9.2],[50.83,10.28],[51.05,10.64],[51.11,12.02],[50.73,12.02],[50.26,11.68],[49.27,11.43],[48.38,11.38],[46.65,10.82],[45.56,10.7],[44.61,10.44],[44.12,10.45],[43.67,10.86],[43.47,11.28],[42.72,11.74],[43.29,11.97],[43.32,12.39],[41.18,14.49],[39.27,15.92],[38.99,16.84],[38.41,18.0],[37.48,18.61],[37.11,19.81],[36.97,20.84],[37.19,21.02],[36.87,22.0],[35.53,23.1],[35.49,23.75],[35.69,23.93],[34.8,25.03],[34.1,26.14],[32.73,28.71],[32.32,29.76],[32.42,29.85],[33.14,28.42],[33.92,27.65],[34.15,27.82],[34.64,29.1],[34.92,29.5],[34.63,28.06],[35.13,28.06],[36.25,26.57],[36.64,25.83],[36.93,25.6],[37.21,25.08],[37.15,24.86],[37.48,24.29],[38.02,24.08],[38.49,23.69],[39.07,22.58],[39.14,21.29],[39.8,20.34],[40.25,20.17],[40.94,19.49],[41.22,18.67],[41.75,17.83],[42.27,17.47],[42.35,17.08],[42.65,16.77],[42.78,16.35],[42.82,15.91],[42.7,15.72],[42.81,15.26],[42.6,15.21],[42.89,14.8],[43.25,13.77],[43.22,13.22],[43.48,12.64],[44.99,12.7],[45.14,12.95],[45.41,13.03],[45.63,13.29],[46.72,13.4],[47.35,13.59],[47.94,14.01],[48.68,14.0],[49.57,14.71],[52.17,15.6],[52.39,16.38],[53.57,16.71],[54.24,17.05],[54.79,16.95],[55.27,17.23],[55.27,17.63],[55.66,17.88],[56.28,17.88],[56.51,18.09],[56.61,18.57],[57.23,18.95],[57.69,18.94],[57.79,19.07],[57.67,19.74],[57.83,20.24],[58.03,20.48],[58.49,20.43],[58.86,21.11],[59.28,21.43],[59.81,22.31],[59.81,22.53],[59.45,22.66],[58.73,23.57],[57.4,23.88],[56.85,24.24],[56.4,24.92],[56.26,25.71],[56.49,26.31],[56.36,26.4],[54.01,24.12],[52.58,24.18],[51.79,24.02],[51.76,24.29],[51.58,24.25],[51.39,24.63],[51.61,25.22],[51.59,25.8],[51.29,26.11],[51.01,26.01],[50.74,25.48],[50.81,24.75],[50.11,25.94],[50.21,26.28],[50.15,26.69],[49.47,27.11],[49.3,27.46],[48.81,27.69],[48.09,29.31],[48.18,29.53],[47.97,29.98],[48.57,29.93],[48.94,30.32],[49.58,29.99],[50.12,30.15],[51.52,27.87],[52.48,27.58],[53.49,26.81],[54.72,26.48],[55.72,26.96],[56.49,27.14],[56.97,26.97],[57.4,25.74],[61.5,25.08],[66.37,25.43],[67.15,24.66],[67.44,23.94],[68.18,23.69],[69.35,22.84],[69.64,22.45],[69.16,22.09],[70.47,20.88],[71.18,20.76],[72.63,21.36],[72.82,20.42],[72.82,19.21],[73.53,15.99],[74.44,14.62],[74.86,12.74],[75.75,11.31],[76.59,8.9],[77.54,7.97],[77.94,8.25],[78.28,8.93],[79.19,9.22],[78.89,9.55],[79.34,10.31],[79.86,10.36],[79.86,12.06],[80.29,13.01],[80.03,15.14],[80.32,15.9],[80.79,15.95],[82.19,16.56],[82.19,17.02],[83.94,18.3],[85.06,19.48],[86.5,20.15],[87.03,20.74],[86.98,21.5],[88.21,21.7],[88.89,21.69],[89.03,22.06],[89.7,21.86],[89.85,22.04],[90.27,21.84],[90.59,22.39],[90.5,22.81],[91.42,22.77],[91.83,22.18],[92.08,21.19],[92.37,20.67],[93.08,19.86],[93.66,19.73],[93.54,19.37],[94.32,18.21],[94.53,17.28],[94.19,16.04],[95.37,15.71],[97.16,16.93],[97.6,16.1],[98.1,13.64],[98.51,13.12],[98.43,12.03],[98.76,11.44],[98.46,10.68],[98.55,9.93],[98.15,8.35],[98.34,7.79],[98.5,8.38],[99.52,7.34],[99.69,6.85],[100.09,6.46],[100.31,6.04],[100.2,5.31],[100.56,4.77],[100.7,3.94],[101.27,3.27],[101.39,2.76],[103.52,1.23],[104.23,1.29],[104.25,1.63],[103.85,2.52],[103.5,2.79],[103.33,3.73],[103.44,4.18],[103.38,4.86],[102.96,5.52],[101.62,6.74],[101.02,6.86],[100.46,7.43],[100.28,8.3],[99.87,9.21],[99.22,9.24],[99.15,9.96],[100.02,12.31],[100.1,13.41],[100.98,13.41],[100.83,12.63],[101.69,12.65],[102.59,12.19],[103.09,11.15],[103.5,10.63],[104.33,10.49],[105.08,9.92],[104.8,9.24],[105.16,8.6],[106.41,9.53],[107.22,10.36],[108.37,11.01],[109.2,11.67],[109.34,13.43],[108.88,15.28],[108.27,16.08],[107.36,16.7],[105.66,19.06],[105.88,19.75],[106.72,20.7],[108.05,21.55],[108.52,21.72],[109.86,21.4],[109.63,21.01],[109.89,20.28],[110.44,20.34],[110.79,21.4],[111.84,21.55],[113.24,22.05],[113.81,22.55],[114.15,22.22],[114.76,22.67],[115.89,22.78],[118.66,24.55],[119.59,25.74],[121.13,28.14],[121.68,28.23],[122.09,29.83],[121.5,30.14],[121.26,30.68],[121.89,30.95],[121.91,31.69],[120.62,33.38],[120.23,34.36],[119.15,34.91],[119.66,35.61],[120.64,36.11],[121.1,36.65],[122.52,36.93],[122.36,37.45],[121.71,37.48],[120.82,37.87],[119.7,37.16],[118.91,37.45],[118.88,37.9],[118.06,38.06],[117.53,38.74],[118.04,39.2],[119.02,39.25],[119.64,39.9],[120.77,40.59],[121.64,40.95],[122.17,40.42],[121.38,39.75],[121.59,39.36],[121.05,38.9],[122.13,39.17],[122.87,39.64],[124.27,39.93],[124.74,39.66],[125.32,39.55],[125.39,39.39],[125.13,38.85],[125.22,38.67],[124.99,38.55],[124.71,38.11],[125.24,37.86],[125.28,37.67],[125.57,37.75],[125.69,37.94],[126.17,37.75],[126.86,36.89],[126.12,36.73],[126.56,35.68],[126.37,34.93],[126.49,34.39],[127.39,34.48],[128.19,34.89],[129.09,35.08],[129.47,35.63],[129.46,36.78],[129.21,37.43],[128.35,38.61],[127.39,39.21],[127.5,39.32],[127.53,39.76],[127.97,40.03],[128.63,40.19],[129.19,40.66],[129.71,40.88],[129.67,41.6],[129.97,41.94],[130.4,42.28],[130.78,42.22],[130.94,42.55],[132.28,43.28],[132.91,42.8],[133.54,42.81],[134.87,43.4],[138.22,46.31],[138.55,47.0],[140.06,48.45],[140.51,50.05],[140.6,51.24],[141.38,52.24],[141.35,53.09],[139.9,54.19],[138.8,54.25],[138.16,53.76],[137.19,53.98],[136.7,54.6],[135.13,54.73],[142.2,59.04],[145.49,59.34],[148.54,59.16],[149.78,59.66],[151.34,59.5],[151.27,58.78],[155.04,59.15],[154.22,59.76],[156.72,61.43],[159.3,61.77],[160.12,60.54],[162.66,61.64],[163.26,62.47],[164.47,62.55],[163.67,61.14],[161.87,60.34],[158.36,58.06],[156.81,57.83],[156.76,57.36],[155.91,56.77],[155.43,55.38],[156.42,51.7],[156.79,51.01],[158.23,51.94],[158.53,52.96],[160.02,53.2],[160.37,54.34],[162.12,54.86],[161.7,55.29],[162.13,56.12],[163.06,56.16],[163.19,57.62],[162.05,57.84],[162.02,58.24],[163.22,59.21],[163.54,59.87],[164.88,59.73],[165.84,60.16],[166.3,59.79],[168.9,60.57],[170.33,59.88],[170.7,60.34],[173.68,61.65],[174.57,61.77],[177.36,62.52],[179.23,62.3],[179.49,62.57],[179.37,62.98],[178.91,63.25],[178.31,64.08],[177.41,64.61],[178.71,64.53],[180.0,64.98],[180.0,-16.07],[178.6,-16.64],[178.73,-17.01],[180.0,-16.56],[180.0,-84.71],[175.99,-84.16],[173.22,-84.41],[172.28,-84.04],[169.4,-83.83],[168.9,-83.34],[166.6,-83.02],[163.71,-82.4],[161.63,-81.69],[161.12,-81.28],[159.79,-80.95],[160.75,-80.2],[160.92,-79.73],[161.77,-79.16],[163.67,-79.12],[167.0,-78.75],[166.6,-78.32],[164.74,-78.18],[164.27,-77.83],[164.06,-77.46],[163.49,-77.07],[163.57,-76.24],[164.23,-75.46],[165.64,-74.77],[166.09,-74.38],[167.39,-74.17],[167.98,-73.81],[169.29,-73.66],[170.56,-72.44],[171.09,-72.09],[171.21,-71.7],[170.5,-71.4],[167.31,-70.83],[162.69,-70.74],[161.57,-70.58],[160.81,-70.23],[159.67,-69.99],[159.18,-69.6],[156.81,-69.38],[154.28,-68.56],[153.64,-68.89],[152.5,-68.87],[148.84,-68.39],[146.65,-67.9],[146.0,-67.6],[146.2,-67.23],[145.49,-66.92],[143.06,-66.8],[137.46,-66.95],[136.62,-66.78],[135.87,-66.03],[135.7,-65.58],[135.07,-65.31],[135.03,-65.72],[134.76,-66.21],[130.78,-66.43],[128.8,-66.76],[127.0,-66.56],[125.16,-66.72],[123.22,-66.48],[122.32,-66.56],[120.87,-67.19],[119.83,-67.27],[118.58,-67.17],[116.7,-66.66],[115.6,-66.7],[114.39,-66.07],[113.6,-65.88],[112.86,-66.09],[111.74,-66.13],[110.24,-66.7],[108.08,-66.95],[106.18,-66.93],[104.24,-65.97],[102.83,-65.56],[99.72,-67.25],[98.68,-67.11],[95.78,-67.39],[95.02,-67.17],[94.18,-67.11],[93.55,-67.21],[89.67,-67.15],[88.83,-66.95],[87.99,-66.21],[87.48,-66.88],[86.75,-67.15],[85.66,-67.09],[83.78,-67.31],[82.78,-67.21],[81.48,-67.54],[80.94,-67.88],[79.11,-68.33],[78.43,-68.7],[77.64,-69.46],[73.86,-69.87],[73.08,-70.72],[71.91,-71.32],[71.02,-72.09],[69.87,-72.26],[68.71,-72.17],[67.95,-71.85],[68.93,-71.07],[69.07,-70.68],[67.95,-70.7],[67.81,-70.31],[68.6,-69.93],[69.56,-69.68],[69.67,-69.23],[69.71,-68.97],[68.89,-67.93],[66.91,-67.86],[64.05,-67.41],[63.19,-67.82],[62.39,-68.01],[61.43,-67.95],[59.94,-67.41],[58.74,-67.29],[57.26,-66.68],[57.16,-66.25],[56.36,-65.97],[54.53,-65.82],[51.79,-66.25],[50.95,-66.52],[50.75,-66.88],[49.93,-67.11],[48.99,-67.09],[47.44,-67.72],[46.5,-67.6],[44.11,-68.27],[41.96,-68.6],[40.02,-69.11],[39.67,-69.54],[38.65,-69.78],[37.2,-69.17],[36.16,-69.25],[35.3,-69.01],[34.91,-68.66],[33.87,-68.5],[33.3,-68.84],[32.75,-69.38],[31.99,-69.66],[30.03,-69.93],[29.15,-70.21],[27.09,-70.46],[23.67,-70.52],[22.57,-70.7],[21.45,-70.07],[19.26,-69.89],[15.95,-70.03],[15.13,-70.4],[14.73,-70.03],[13.42,-69.97],[12.4,-70.25],[11.95,-70.64],[10.82,-70.83],[9.53,-70.01],[8.49,-70.15],[7.74,-69.89],[7.14,-70.25],[6.27,-70.46],[0.87,-71.3],[-0.23,-71.64],[-0.66,-71.23],[-1.8,-71.17],[-4.34,-71.46],[-5.54,-71.4],[-5.79,-71.03],[-6.87,-70.93],[-7.38,-71.32],[-7.42,-71.7],[-8.61,-71.66],[-9.1,-71.32],[-10.3,-71.27],[-11.02,-71.54],[-11.51,-72.01],[-12.29,-72.4],[-15.45,-73.15],[-16.11,-73.46],[-16.47,-73.87],[-15.41,-74.11],[-15.7,-74.5],[-17.52,-75.13],[-22.46,-76.11],[-25.47,-76.28],[-28.88,-76.67],[-29.78,-77.07],[-32.21,-77.65],[-35.33,-78.12],[-35.78,-78.34],[-35.91,-79.08],[-35.64,-79.46],[-29.69,-79.26],[-29.69,-79.63],[-28.55,-80.34],[-30.1,-80.59],[-38.24,-81.34],[-40.77,-81.36],[-42.16,-81.65],[-42.81,-82.08],[-47.27,-81.71],[-49.76,-81.73],[-53.62,-82.26],[-57.01,-82.87],[-58.22,-83.22],[-59.69,-82.38],[-63.26,-81.75],[-68.19,-81.32],[-73.24,-80.42],[-75.36,-80.26],[-76.63,-79.89],[-76.85,-79.51],[-78.02,-79.18],[-77.93,-78.38],[-76.5,-78.12],[-74.77,-78.22],[-73.66,-77.91],[-74.28,-77.56],[-75.4,-77.28],[-76.93,-77.1],[-77.24,-76.71],[-70.6,-76.63],[-69.8,-76.22],[-65.86,-75.64],[-64.35,-75.26],[-63.3,-74.58],[-61.96,-74.44],[-60.83,-73.7],[-60.69,-73.17],[-61.38,-72.01],[-61.51,-71.09],[-61.81,-70.72],[-62.28,-70.38],[-63.2,-69.23],[-64.78,-68.68],[-65.31,-68.37],[-65.67,-67.95],[-65.51,-67.58],[-63.75,-66.5],[-62.81,-66.43],[-62.12,-66.19],[-62.59,-65.86],[-62.65,-65.48],[-62.51,-65.09],[-62.02,-64.8],[-60.61,-64.31],[-59.79,-64.21],[-59.05,-64.37],[-57.6,-63.86],[-57.22,-63.53],[-57.81,-63.27],[-58.59,-63.39],[-59.89,-63.96],[-61.41,-64.27],[-62.04,-64.58],[-63.0,-64.64],[-64.18,-65.17],[-64.57,-65.6],[-66.06,-66.21],[-67.25,-66.88],[-67.74,-67.33],[-67.43,-68.15],[-67.58,-68.54],[-68.45,-69.33],[-68.54,-69.72],[-68.49,-70.11],[-67.25,-71.64],[-67.13,-72.05],[-67.37,-72.48],[-67.96,-72.79],[-68.94,-73.01],[-72.83,-73.4],[-74.89,-73.87],[-76.22,-73.97],[-76.91,-73.64],[-77.93,-73.42],[-79.3,-73.52],[-80.3,-73.13],[-80.69,-73.48],[-81.47,-73.85],[-82.67,-73.64],[-85.19,-73.48],[-86.01,-73.09],[-87.27,-73.19],[-88.42,-73.01],[-89.23,-72.56],[-90.09,-73.32],[-91.42,-73.4],[-92.44,-73.17],[-96.34,-73.62],[-97.69,-73.56],[-98.12,-73.21],[-99.14,-72.91],[-100.31,-72.75],[-102.92,-72.75],[-103.68,-72.62],[-103.11,-73.73],[-102.55,-74.11],[-101.25,-74.19],[-100.12,-74.87],[-100.65,-75.3],[-103.37,-74.99],[-104.88,-74.95],[-107.56,-75.18],[-108.71,-74.91],[-110.07,-74.79],[-111.26,-74.42],[-112.3,-74.71],[-113.94,-73.71],[-115.02,-74.07],[-116.22,-74.24],[-117.47,-74.03],[-118.68,-74.19],[-119.7,-74.48],[-125.4,-74.52],[-128.24,-74.32],[-130.93,-74.48],[-132.26,-74.3],[-133.75,-74.44],[-135.21,-74.3],[-138.86,-74.97],[-141.64,-75.09],[-144.32,-75.54],[-144.91,-75.2],[-146.2,-75.38],[-146.5,-75.73],[-146.14,-76.11],[-146.1,-76.48],[-147.61,-76.58],[-151.33,-77.4],[-152.92,-77.5],[-153.74,-77.07],[-156.97,-77.3],[-158.37,-76.89],[-158.05,-78.03],[-157.27,-78.38],[-155.98,-78.69],[-155.33,-79.06],[-149.53,-79.36],[-146.77,-79.93],[-146.42,-80.34],[-147.22,-80.67],[-150.65,-81.34],[-152.1,-81.0],[-154.41,-81.16],[-156.84,-81.1],[-155.29,-81.42],[-154.53,-81.77],[-152.86,-82.04],[-152.67,-82.45],[-153.41,-83.24],[-153.59,-83.69],[-150.9,-83.9],[-150.06,-84.3],[-146.83,-84.53],[-142.89,-84.57],[-143.11,-85.04],[-148.53,-85.61],[-150.94,-85.3],[-155.19,-85.1],[-158.07,-85.37],[-161.93,-85.14],[-167.02,-84.57],[-169.95,-83.88],[-172.89,-84.06],[-174.38,-84.53],[-175.93,-84.1],[-177.26,-84.45],[-179.06,-84.14],[-180.0,-84.71],[-180.0,-16.56],[-179.79,-16.02],[-180.0,-16.07],[-180.0,64.98],[-179.43,65.4],[-179.88,65.87],[-178.69,66.11],[-178.9,65.74],[-178.36,65.39],[-177.22,65.52],[-176.21,65.36],[-175.98,64.92],[-174.65,64.63],[-173.89,64.28],[-172.96,64.25],[-172.56,64.46],[-172.53,65.44],[-170.89,65.54],[-169.9,65.98],[-171.86,66.91],[-174.57,67.06],[-174.34,66.34],[-175.01,66.58],[-174.93,67.21],[-177.55,68.2],[-180.0,68.96],[-180.0,70.83],[-178.69,70.89],[-177.66,71.13],[-177.58,71.27],[-179.02,71.56],[-180.0,71.52],[-180.0,90.0],[180.0,90.0],[180.0,71.52]],[[143.6,73.21],[143.48,73.48],[142.06,73.86],[140.81,73.77],[139.86,73.37],[143.6,73.21]],[[145.09,75.56],[141.47,76.09],[138.83,76.14],[137.51,75.95],[136.97,75.26],[138.96,74.61],[140.61,74.85],[144.3,74.82],[145.09,75.56]],[[150.73,75.08],[146.36,75.5],[146.12,75.17],[147.98,74.78],[149.58,74.69],[150.73,75.08]],[[24.72,77.85],[23.28,78.08],[22.88,78.45],[20.81,78.25],[21.42,77.94],[20.73,77.68],[22.49,77.44],[24.72,77.85]],[[18.25,79.7],[16.99,80.05],[15.52,80.02],[15.14,79.67],[13.72,79.66],[13.17,80.01],[10.44,79.65],[11.22,78.87],[13.17,78.02],[14.67,77.74],[13.76,77.38],[15.91,76.77],[17.12,76.81],[17.59,77.64],[18.47,77.83],[19.03,78.56],[21.54,78.96],[18.25,79.7]],[[99.94,78.88],[100.19,79.78],[97.88,80.75],[95.94,81.25],[93.78,81.02],[91.18,80.34],[92.55,80.14],[93.31,79.43],[94.97,79.04],[97.76,78.76],[99.94,78.88]],[[25.45,80.41],[22.92,80.66],[21.91,80.36],[20.46,80.6],[17.37,80.32],[18.46,79.86],[19.9,79.84],[20.08,79.57],[23.02,79.4],[25.92,79.52],[27.41,80.06],[25.45,80.41]],[[-27.1,83.52],[-35.09,83.65],[-38.62,83.55],[-39.9,83.18],[-43.41,83.23],[-46.76,82.63],[-46.9,82.2],[-44.52,81.66],[-50.39,82.44],[-53.04,81.89],[-54.13,82.2],[-57.21,82.19],[-60.28,82.03],[-62.65,81.77],[-62.23,81.32],[-63.69,81.21],[-67.15,80.52],[-68.02,80.12],[-65.32,79.76],[-65.71,79.39],[-73.16,78.43],[-73.3,78.04],[-71.04,77.64],[-66.76,77.38],[-68.78,77.32],[-71.4,77.01],[-68.5,76.06],[-63.39,76.18],[-61.27,76.1],[-58.59,75.52],[-58.6,75.1],[-57.32,74.71],[-55.33,72.96],[-54.72,72.59],[-55.83,71.65],[-55.0,71.41],[-54.0,71.55],[-51.39,70.57],[-53.43,70.84],[-54.36,70.82],[-54.75,70.29],[-54.68,69.61],[-53.46,69.28],[-50.87,69.93],[-51.08,69.15],[-51.48,68.73],[-52.98,68.36],[-53.97,67.19],[-53.3,66.84],[-53.66,66.1],[-52.28,65.18],[-52.14,64.28],[-51.63,63.63],[-49.9,62.38],[-49.23,61.41],[-48.26,60.86],[-46.26,60.85],[-44.79,60.04],[-43.38,60.1],[-42.42,61.9],[-42.82,62.68],[-41.19,63.48],[-40.68,64.14],[-40.67,64.84],[-39.81,65.46],[-36.35,65.98],[-34.2,66.68],[-32.81,67.74],[-31.78,68.12],[-30.67,68.13],[-27.75,68.47],[-22.35,70.13],[-26.36,70.23],[-25.2,70.75],[-25.54,71.43],[-23.54,70.47],[-21.75,70.66],[-22.13,71.47],[-23.44,72.08],[-24.79,72.33],[-24.28,72.6],[-22.3,72.18],[-22.31,72.63],[-23.57,73.31],[-20.76,73.46],[-20.43,73.82],[-21.59,74.22],[-19.37,74.3],[-20.67,75.16],[-19.6,75.25],[-19.83,76.1],[-21.68,76.63],[-20.04,76.94],[-18.47,76.99],[-19.67,77.64],[-19.7,78.75],[-17.73,80.13],[-20.05,80.18],[-16.85,80.35],[-16.29,80.58],[-12.21,81.29],[-12.77,81.72],[-15.77,81.91],[-20.62,81.52],[-23.17,81.15],[-22.07,81.73],[-22.9,82.09],[-24.84,81.79],[-27.86,82.13],[-31.4,82.02],[-31.9,82.2],[-22.69,82.34],[-20.85,82.73],[-27.1,83.52]],[[51.14,80.55],[51.52,80.7],[50.04,80.92],[49.1,80.75],[48.52,80.51],[48.32,80.78],[44.85,80.59],[47.07,80.56],[46.5,80.25],[47.59,80.01],[48.75,80.18],[48.89,80.34],[51.14,80.55]],[[57.54,70.72],[55.62,71.54],[55.42,72.37],[58.48,74.31],[61.58,75.26],[68.18,76.23],[68.85,76.54],[68.16,76.94],[66.21,76.81],[64.5,76.44],[61.17,76.25],[55.63,75.08],[55.9,74.63],[53.51,73.75],[54.43,73.63],[52.44,72.77],[52.48,72.23],[51.46,72.01],[51.6,71.47],[53.41,71.21],[53.68,70.76],[56.94,70.63],[57.54,70.72]],[[-14.51,66.46],[-16.17,66.53],[-17.8,65.99],[-19.06,66.28],[-20.58,65.73],[-22.13,66.41],[-23.65,66.26],[-24.33,65.61],[-22.23,65.38],[-22.18,65.08],[-23.96,64.89],[-21.78,64.4],[-22.76,63.96],[-18.66,63.5],[-14.91,64.36],[-13.61,65.13],[-14.74,65.81],[-14.51,66.46]],[[-90.55,69.5],[-92.41,69.7],[-91.52,70.19],[-92.88,71.32],[-93.89,71.76],[-95.21,71.92],[-96.39,71.19],[-96.47,70.09],[-95.3,69.69],[-94.23,69.07],[-94.68,68.06],[-95.49,68.09],[-96.13,67.29],[-96.12,68.24],[-97.67,68.58],[-98.56,68.4],[-98.44,67.78],[-99.9,67.81],[-101.45,67.65],[-103.22,68.1],[-104.34,68.02],[-105.34,68.56],[-106.15,68.8],[-108.17,68.65],[-108.81,68.31],[-107.79,67.89],[-108.88,67.38],[-109.95,67.98],[-110.8,67.81],[-113.5,67.69],[-115.3,67.9],[-113.9,68.4],[-115.25,68.91],[-116.23,68.84],[-117.6,69.01],[-119.94,69.38],[-121.47,69.8],[-122.68,69.86],[-123.06,69.56],[-124.29,69.4],[-124.42,70.16],[-125.76,69.48],[-127.45,70.38],[-128.14,70.48],[-128.36,70.01],[-129.11,69.78],[-129.79,70.19],[-131.43,69.94],[-132.93,69.51],[-134.41,69.63],[-135.63,69.32],[-136.5,68.9],[-137.55,68.99],[-139.12,69.47],[-143.59,70.15],[-144.92,69.99],[-149.72,70.53],[-150.74,70.43],[-152.27,70.6],[-152.21,70.83],[-153.9,70.89],[-154.34,70.7],[-155.07,71.15],[-156.58,71.36],[-158.12,70.82],[-159.04,70.89],[-161.91,70.33],[-162.93,69.86],[-163.17,69.37],[-164.43,68.92],[-166.2,68.88],[-166.76,68.36],[-165.39,68.04],[-164.43,67.62],[-163.72,67.12],[-162.49,66.74],[-161.68,66.12],[-163.79,66.08],[-163.65,66.58],[-164.47,66.58],[-168.11,65.67],[-166.84,65.09],[-166.43,64.69],[-164.96,64.45],[-163.55,64.56],[-162.76,64.34],[-162.45,64.56],[-160.78,64.79],[-161.52,64.4],[-160.96,64.22],[-160.77,63.77],[-161.53,63.46],[-162.26,63.54],[-163.07,63.06],[-163.75,63.22],[-164.56,63.15],[-164.92,62.63],[-165.73,62.08],[-166.12,61.5],[-165.35,61.07],[-165.35,60.51],[-163.82,59.8],[-162.52,59.99],[-161.87,59.63],[-162.05,59.27],[-161.97,58.67],[-161.35,58.67],[-160.36,59.07],[-159.98,58.57],[-159.71,58.93],[-159.06,58.42],[-158.52,58.79],[-158.19,58.62],[-157.04,58.92],[-157.55,58.33],[-157.72,57.57],[-160.07,56.42],[-160.56,56.01],[-161.8,55.9],[-162.87,55.35],[-164.94,54.57],[-164.79,54.4],[-163.07,54.69],[-160.29,55.64],[-159.6,55.57],[-158.43,55.99],[-158.12,56.46],[-156.56,56.98],[-156.31,57.42],[-154.23,58.15],[-153.29,58.86],[-154.02,59.35],[-152.58,60.06],[-151.9,60.73],[-150.62,61.28],[-150.35,61.03],[-151.41,60.73],[-151.86,59.75],[-151.72,59.16],[-150.61,59.37],[-149.73,59.71],[-148.02,59.98],[-148.22,60.67],[-147.11,60.88],[-145.93,60.46],[-143.96,60.0],[-142.57,60.08],[-139.87,59.54],[-137.8,58.5],[-136.63,58.21],[-134.08,58.12],[-133.54,57.18],[-132.25,56.37],[-131.97,55.5],[-131.09,55.18],[-130.54,54.8],[-130.51,54.29],[-129.31,53.56],[-129.13,52.76],[-127.85,52.33],[-127.99,51.72],[-127.44,50.83],[-125.62,50.42],[-122.84,49.0],[-122.5,48.18],[-122.34,47.36],[-122.59,47.1],[-123.12,48.04],[-124.57,48.38],[-124.69,48.18],[-124.08,46.86],[-123.9,45.52],[-124.14,43.71],[-124.53,42.77],[-124.21,42.0],[-124.18,41.14],[-124.4,40.31],[-123.87,39.77],[-123.73,38.95],[-122.51,37.78],[-122.55,37.55],[-121.71,36.16],[-120.74,35.16],[-120.62,34.61],[-120.37,34.45],[-119.44,34.35],[-119.08,34.08],[-118.52,34.03],[-118.41,33.74],[-117.94,33.62],[-117.3,33.05],[-116.72,31.64],[-115.52,29.56],[-114.93,29.28],[-114.16,28.57],[-114.2,28.12],[-114.57,27.74],[-115.06,27.72],[-114.47,27.14],[-113.85,26.9],[-113.6,26.64],[-113.46,26.77],[-112.3,26.01],[-112.15,25.47],[-112.18,24.74],[-110.95,24.0],[-110.29,23.43],[-110.03,22.82],[-109.85,22.82],[-109.43,23.19],[-109.41,23.36],[-110.17,24.27],[-110.66,24.3],[-110.71,24.83],[-111.28,25.73],[-111.62,26.66],[-112.76,27.78],[-112.96,28.43],[-113.14,28.41],[-113.27,28.75],[-114.67,30.16],[-114.94,31.39],[-114.78,31.8],[-114.21,31.52],[-113.87,31.57],[-113.15,31.17],[-113.16,30.79],[-112.81,30.02],[-112.27,29.27],[-112.23,28.95],[-111.18,27.94],[-110.64,27.86],[-110.39,27.16],[-109.8,26.68],[-109.29,26.44],[-109.44,25.82],[-109.26,25.58],[-108.4,25.17],[-107.92,24.55],[-106.91,23.77],[-106.03,22.77],[-105.27,21.42],[-105.27,21.08],[-105.5,20.82],[-105.4,20.53],[-105.73,20.43],[-105.49,19.95],[-104.99,19.32],[-103.92,18.75],[-103.5,18.29],[-101.92,17.92],[-100.83,17.17],[-96.56,15.65],[-95.25,16.13],[-94.69,16.2],[-93.88,15.94],[-93.36,15.62],[-92.23,14.54],[-91.23,13.93],[-90.61,13.91],[-89.81,13.52],[-89.26,13.46],[-88.48,13.16],[-87.9,13.15],[-87.79,13.38],[-87.49,13.3],[-87.32,12.98],[-87.39,12.91],[-87.56,13.06],[-87.67,12.91],[-85.71,11.09],[-85.94,10.9],[-85.66,10.75],[-85.8,10.13],[-85.66,9.93],[-85.34,9.83],[-85.11,9.56],[-84.91,9.8],[-84.98,10.09],[-84.71,9.91],[-84.65,9.62],[-83.63,9.05],[-83.71,8.66],[-83.51,8.45],[-82.85,8.07],[-82.82,8.29],[-81.72,8.11],[-81.52,7.71],[-81.19,7.65],[-81.06,7.82],[-80.89,7.22],[-80.42,7.27],[-80.0,7.55],[-80.48,8.09],[-80.38,8.3],[-79.76,8.58],[-79.56,8.93],[-79.12,9.0],[-78.62,8.72],[-78.44,8.39],[-78.18,8.32],[-78.43,8.05],[-78.21,7.51],[-77.48,6.69],[-77.32,5.85],[-77.53,5.58],[-77.31,4.67],[-77.5,4.09],[-77.13,3.85],[-77.93,2.7],[-78.43,2.63],[-78.66,2.27],[-78.62,1.77],[-78.99,1.69],[-78.86,1.38],[-80.09,0.77],[-80.02,0.36],[-80.4,-0.28],[-80.58,-0.91],[-80.93,-1.06],[-80.76,-1.97],[-80.97,-2.25],[-80.37,-2.69],[-79.99,-2.22],[-79.77,-2.66],[-80.3,-3.4],[-81.1,-4.04],[-81.41,-4.74],[-80.93,-5.69],[-81.25,-6.14],[-80.54,-6.54],[-79.76,-7.19],[-79.45,-7.93],[-79.04,-8.39],[-77.11,-12.22],[-76.26,-13.53],[-76.42,-13.82],[-76.01,-14.65],[-75.24,-15.27],[-73.44,-16.36],[-71.46,-17.36],[-71.38,-17.77],[-70.37,-18.35],[-70.16,-19.76],[-70.09,-21.39],[-70.91,-27.64],[-71.49,-28.86],[-71.37,-30.1],[-71.67,-30.92],[-71.44,-32.42],[-71.86,-33.91],[-73.17,-37.12],[-73.59,-37.16],[-73.51,-38.28],[-73.22,-39.26],[-73.68,-39.94],[-74.33,-43.22],[-73.7,-43.37],[-73.39,-42.12],[-72.72,-42.38],[-73.24,-44.45],[-74.35,-44.1],[-74.69,-45.76],[-75.64,-46.65],[-74.13,-46.94],[-75.18,-47.71],[-75.61,-48.67],[-75.48,-50.38],[-74.98,-51.04],[-75.26,-51.63],[-74.95,-52.26],[-72.56,-53.53],[-71.43,-53.86],[-71.01,-53.83],[-70.85,-52.9],[-69.46,-52.29],[-68.15,-52.35],[-68.82,-51.77],[-69.14,-50.73],[-68.73,-50.26],[-67.82,-49.87],[-67.17,-48.7],[-65.99,-48.13],[-65.64,-47.24],[-66.6,-47.03],[-67.58,-46.3],[-67.29,-45.55],[-66.51,-45.04],[-65.57,-45.04],[-65.33,-44.5],[-65.18,-43.5],[-64.38,-42.87],[-63.46,-42.56],[-63.76,-42.04],[-64.3,-42.36],[-64.98,-42.06],[-65.12,-41.06],[-64.73,-40.8],[-63.77,-41.17],[-62.75,-41.03],[-62.15,-40.68],[-62.33,-40.17],[-62.13,-39.42],[-62.34,-38.83],[-61.24,-38.93],[-59.23,-38.72],[-57.75,-38.18],[-56.79,-36.9],[-56.74,-36.41],[-57.36,-35.98],[-57.23,-35.29],[-58.5,-34.43],[-58.43,-33.91],[-57.82,-34.46],[-57.14,-34.43],[-56.22,-34.86],[-55.67,-34.75],[-54.94,-34.95],[-53.81,-34.4],[-53.37,-33.77],[-52.71,-33.2],[-52.26,-32.25],[-50.7,-30.98],[-49.59,-29.22],[-48.89,-28.67],[-48.66,-28.19],[-48.47,-27.18],[-48.64,-26.62],[-48.5,-25.88],[-47.65,-24.89],[-46.47,-24.09],[-45.35,-23.8],[-44.65,-23.35],[-43.07,-22.97],[-41.99,-22.97],[-41.75,-22.37],[-40.94,-21.94],[-40.77,-20.9],[-39.76,-19.6],[-39.58,-18.26],[-39.27,-17.87],[-38.88,-15.67],[-38.95,-13.79],[-38.67,-13.06],[-38.42,-13.04],[-37.68,-12.17],[-37.05,-11.04],[-35.13,-9.0],[-34.73,-7.34],[-35.24,-5.46],[-35.6,-5.15],[-36.45,-5.11],[-37.22,-4.82],[-38.5,-3.7],[-39.98,-2.87],[-41.47,-2.91],[-43.42,-2.38],[-44.58,-2.69],[-44.42,-2.14],[-44.91,-1.55],[-47.82,-0.58],[-48.58,-1.24],[-48.62,-0.24],[-50.39,-0.08],[-50.7,0.22],[-49.95,1.05],[-49.97,1.74],[-50.51,1.9],[-51.32,4.2],[-51.66,4.16],[-51.82,4.57],[-52.88,5.41],[-53.96,5.76],[-55.03,6.03],[-55.84,5.95],[-55.95,5.77],[-57.15,5.97],[-58.08,6.81],[-58.45,6.83],[-58.48,7.35],[-59.1,8.0],[-60.15,8.6],[-60.67,8.58],[-60.83,9.38],[-61.59,9.87],[-62.39,9.95],[-62.73,10.42],[-61.88,10.72],[-64.32,10.64],[-64.33,10.39],[-64.89,10.08],[-65.66,10.2],[-66.23,10.65],[-68.19,10.55],[-68.23,10.89],[-68.88,11.44],[-69.58,11.46],[-69.94,12.16],[-70.29,11.85],[-70.16,11.38],[-71.4,10.97],[-71.35,10.21],[-71.04,9.86],[-71.26,9.14],[-71.7,9.07],[-72.07,9.87],[-71.63,10.45],[-71.62,10.97],[-71.95,11.42],[-71.36,11.54],[-71.14,12.11],[-71.4,12.38],[-71.75,12.44],[-72.24,11.96],[-73.41,11.23],[-74.2,11.31],[-74.28,11.1],[-74.91,11.08],[-75.48,10.62],[-75.67,9.44],[-76.09,9.34],[-76.84,8.64],[-77.35,8.67],[-78.06,9.25],[-78.5,9.42],[-79.57,9.61],[-79.91,9.31],[-80.95,8.86],[-81.44,8.79],[-81.71,9.03],[-82.21,9.0],[-82.19,9.21],[-83.4,10.4],[-83.81,11.1],[-83.86,11.37],[-83.65,11.63],[-83.63,12.32],[-83.47,12.42],[-83.52,13.57],[-83.18,14.31],[-83.28,14.68],[-83.15,15.0],[-83.41,15.27],[-84.37,15.84],[-84.98,16.0],[-85.44,15.89],[-86.0,16.01],[-86.44,15.78],[-86.9,15.76],[-87.9,15.86],[-88.12,15.69],[-88.52,15.86],[-88.6,15.71],[-88.93,15.89],[-88.73,16.23],[-88.55,16.27],[-88.36,16.53],[-88.2,17.49],[-88.29,17.64],[-88.11,18.35],[-88.3,18.35],[-88.3,18.5],[-88.09,18.52],[-87.84,18.26],[-87.44,19.47],[-87.62,19.65],[-87.38,20.26],[-86.85,20.85],[-86.81,21.33],[-87.05,21.54],[-88.54,21.49],[-90.28,21.0],[-90.45,20.71],[-90.53,19.87],[-90.77,19.28],[-91.41,18.88],[-92.04,18.7],[-94.43,18.14],[-94.84,18.56],[-95.9,18.83],[-96.29,19.32],[-96.53,19.89],[-97.19,20.64],[-97.39,21.41],[-97.87,22.44],[-97.7,24.27],[-97.14,25.87],[-97.33,26.21],[-97.37,27.38],[-97.14,27.83],[-96.59,28.31],[-95.6,28.74],[-94.69,29.48],[-93.85,29.71],[-93.23,29.78],[-92.5,29.55],[-91.63,29.68],[-90.88,29.15],[-90.15,29.12],[-89.78,29.31],[-89.41,29.16],[-89.22,29.29],[-89.43,29.49],[-89.41,29.89],[-89.6,30.18],[-89.18,30.32],[-88.42,30.38],[-87.53,30.27],[-86.4,30.4],[-85.77,30.15],[-85.11,29.64],[-84.1,30.09],[-83.71,29.94],[-82.93,29.1],[-82.65,28.55],[-82.86,27.89],[-81.71,25.87],[-81.33,25.64],[-81.17,25.2],[-80.68,25.08],[-80.38,25.21],[-80.13,25.82],[-80.06,26.88],[-80.53,28.04],[-80.54,28.47],[-80.98,29.18],[-81.31,30.04],[-81.49,30.73],[-81.34,31.44],[-80.3,32.51],[-79.2,33.16],[-79.06,33.49],[-78.55,33.86],[-78.05,33.93],[-77.4,34.51],[-76.36,34.81],[-75.73,35.55],[-75.97,36.9],[-76.26,36.97],[-76.3,37.92],[-76.96,38.23],[-76.33,38.08],[-76.54,38.72],[-76.35,39.15],[-76.23,38.32],[-75.72,37.94],[-76.03,37.26],[-75.94,37.22],[-75.06,38.4],[-75.08,38.78],[-75.32,38.96],[-75.53,39.5],[-74.98,39.2],[-74.91,38.94],[-74.18,39.71],[-73.96,40.43],[-74.26,40.47],[-73.95,40.75],[-73.98,40.63],[-73.34,40.63],[-71.95,40.93],[-72.24,41.12],[-73.71,40.93],[-72.88,41.22],[-69.97,41.64],[-69.88,41.92],[-70.18,42.15],[-70.08,41.78],[-70.49,41.81],[-70.83,42.34],[-70.81,42.87],[-70.69,43.03],[-70.12,43.68],[-68.03,44.33],[-66.96,44.81],[-67.14,45.14],[-64.43,45.29],[-66.16,44.47],[-66.12,43.62],[-65.36,43.55],[-64.25,44.27],[-63.25,44.67],[-61.04,45.27],[-59.8,45.92],[-60.45,46.28],[-60.52,47.01],[-61.52,45.88],[-63.17,45.74],[-64.47,46.24],[-65.12,48.07],[-64.17,48.74],[-65.06,49.23],[-66.55,49.13],[-68.65,48.3],[-70.26,46.99],[-71.1,46.82],[-68.51,49.07],[-67.24,49.51],[-66.4,50.23],[-63.86,50.29],[-61.72,50.08],[-60.03,50.24],[-58.77,51.06],[-57.13,51.42],[-55.68,52.15],[-55.76,53.27],[-56.16,53.65],[-56.94,53.78],[-57.33,54.63],[-57.98,54.95],[-59.57,55.2],[-60.47,55.78],[-61.8,56.34],[-61.4,56.97],[-64.58,60.34],[-65.25,59.87],[-66.2,58.77],[-67.65,58.21],[-68.37,58.8],[-69.29,58.96],[-69.62,60.22],[-69.59,61.06],[-71.37,61.14],[-71.68,61.53],[-73.84,62.44],[-74.67,62.18],[-77.41,62.55],[-78.11,62.32],[-77.77,60.76],[-77.34,59.85],[-78.52,58.8],[-77.3,58.05],[-76.62,57.2],[-76.54,56.53],[-77.1,55.84],[-78.23,55.14],[-79.83,54.67],[-79.12,54.14],[-78.6,52.56],[-79.14,51.53],[-79.91,51.21],[-81.4,52.16],[-82.12,53.28],[-82.44,54.28],[-82.27,55.15],[-85.01,55.3],[-86.07,55.72],[-87.32,56.0],[-88.04,56.47],[-89.04,56.85],[-90.9,57.28],[-92.3,57.09],[-93.22,58.78],[-94.68,58.95],[-94.63,60.11],[-94.24,60.9],[-93.16,62.02],[-91.93,62.84],[-90.77,62.96],[-90.7,63.61],[-89.91,64.03],[-88.48,64.1],[-87.32,64.78],[-87.03,65.21],[-86.07,66.06],[-85.77,66.56],[-84.74,66.26],[-83.34,66.41],[-81.39,67.11],[-81.26,67.6],[-81.96,68.13],[-81.22,68.67],[-81.28,69.16],[-82.62,69.66],[-85.52,69.88],[-85.58,68.78],[-86.31,67.92],[-87.35,67.2],[-88.32,67.87],[-88.02,68.62],[-89.22,69.26],[-90.55,68.48],[-90.55,69.5]],[[-86.56,73.16],[-85.83,73.8],[-88.41,73.54],[-89.44,73.13],[-90.21,72.24],[-89.89,71.22],[-88.47,71.22],[-89.51,70.76],[-88.68,70.41],[-84.94,69.97],[-81.31,69.74],[-79.49,69.87],[-78.96,70.17],[-78.17,69.83],[-77.29,69.77],[-76.23,69.15],[-76.87,68.89],[-74.84,68.55],[-73.31,68.07],[-72.93,67.73],[-72.65,67.28],[-73.94,66.31],[-74.29,65.81],[-73.96,65.45],[-77.9,65.31],[-78.56,64.57],[-77.71,64.23],[-74.82,64.39],[-74.83,64.68],[-71.89,63.68],[-72.24,63.4],[-71.02,62.91],[-68.88,62.33],[-66.17,61.93],[-66.33,62.28],[-68.78,63.75],[-66.28,62.95],[-65.01,62.67],[-64.67,63.39],[-65.32,64.38],[-65.73,64.65],[-67.09,65.11],[-68.14,65.69],[-68.02,66.26],[-66.72,66.39],[-65.15,65.43],[-63.92,65.0],[-62.16,66.16],[-61.85,66.86],[-63.42,66.93],[-64.86,67.85],[-66.45,68.07],[-68.81,68.72],[-66.97,69.19],[-67.91,70.12],[-68.79,70.53],[-71.2,70.92],[-72.24,71.56],[-74.1,71.33],[-74.23,71.77],[-75.61,72.24],[-77.82,72.75],[-78.77,72.35],[-80.75,72.06],[-80.6,72.72],[-82.32,73.75],[-84.85,73.34],[-85.77,72.53],[-86.56,73.16]],[[-76.34,73.1],[-78.06,73.65],[-80.35,73.76],[-80.83,73.69],[-80.88,73.33],[-79.49,72.74],[-78.39,72.88],[-76.25,72.83],[-76.34,73.1]],[[-81.9,62.71],[-81.88,62.9],[-83.25,62.91],[-83.99,62.45],[-83.77,62.18],[-83.07,62.16],[-81.9,62.71]],[[-79.27,62.16],[-79.52,62.36],[-79.93,62.39],[-80.36,62.02],[-80.1,61.72],[-79.66,61.63],[-79.27,62.16]],[[-85.16,65.66],[-85.88,65.74],[-86.22,64.82],[-86.35,64.04],[-87.22,63.54],[-85.87,63.64],[-85.52,63.05],[-84.1,63.57],[-83.11,64.1],[-82.55,63.65],[-80.99,63.41],[-80.1,63.73],[-80.82,64.06],[-81.55,63.98],[-81.64,64.46],[-84.46,65.37],[-84.98,65.22],[-85.16,65.66]],[[-75.87,67.15],[-75.1,67.58],[-75.11,68.01],[-75.9,68.29],[-76.81,68.15],[-77.24,67.59],[-76.99,67.1],[-75.87,67.15]],[[-100.36,73.84],[-101.54,73.36],[-100.44,72.71],[-102.48,72.83],[-102.5,72.51],[-100.01,71.74],[-99.32,71.36],[-98.36,71.27],[-96.72,71.66],[-96.54,72.56],[-98.05,72.99],[-97.12,73.47],[-97.38,73.76],[-99.16,73.63],[-100.36,73.84]],[[-93.2,72.77],[-92.0,72.97],[-90.51,73.86],[-92.42,74.1],[-94.5,74.13],[-95.5,73.86],[-96.02,73.44],[-96.03,72.94],[-95.41,72.06],[-94.27,72.02],[-93.2,72.77]],[[-120.46,71.4],[-120.46,71.82],[-119.22,72.52],[-115.51,73.48],[-117.56,74.19],[-120.11,74.24],[-121.54,74.45],[-124.92,74.29],[-123.94,73.68],[-124.81,73.02],[-125.93,71.87],[-123.62,71.34],[-123.09,70.9],[-120.46,71.4]],[[-114.17,73.12],[-115.19,73.31],[-117.87,72.71],[-118.56,72.31],[-119.4,71.56],[-117.66,71.3],[-116.11,71.31],[-118.43,70.91],[-117.9,70.54],[-114.35,70.6],[-112.42,70.37],[-113.72,70.19],[-115.13,70.24],[-117.34,69.96],[-116.11,69.17],[-115.22,69.28],[-113.85,69.01],[-113.31,68.54],[-109.0,68.78],[-107.12,69.12],[-105.96,69.18],[-102.43,68.75],[-102.09,69.12],[-102.73,69.5],[-101.09,69.58],[-100.98,70.02],[-104.46,70.99],[-105.4,72.67],[-106.52,73.08],[-107.52,73.24],[-108.4,73.09],[-107.69,72.07],[-108.19,71.65],[-109.01,72.63],[-109.92,72.96],[-111.05,72.45],[-112.44,72.96],[-114.67,72.65],[-114.17,73.12]],[[-104.5,73.42],[-105.26,73.64],[-106.6,73.6],[-106.94,73.46],[-105.38,72.76],[-104.5,73.42]],[[-95.65,69.11],[-96.56,69.68],[-98.22,70.14],[-98.92,69.71],[-99.8,69.4],[-98.43,68.95],[-97.62,69.06],[-96.27,68.76],[-95.65,69.11]],[[-108.21,76.2],[-108.55,76.68],[-109.58,76.79],[-110.5,76.43],[-109.07,75.47],[-110.81,75.55],[-112.59,76.14],[-115.4,76.48],[-116.35,76.2],[-117.71,75.22],[-116.31,75.04],[-111.79,75.16],[-113.87,74.72],[-113.74,74.39],[-112.22,74.42],[-109.7,74.85],[-106.31,75.01],[-105.7,75.48],[-105.88,75.97],[-106.93,76.01],[-107.82,75.85],[-108.21,76.2]],[[-98.5,76.72],[-98.58,76.59],[-99.98,76.65],[-101.49,76.31],[-102.57,76.34],[-102.5,75.56],[-100.86,75.64],[-100.88,75.06],[-99.81,74.9],[-98.16,75.0],[-97.7,75.74],[-97.74,76.26],[-98.5,76.72]],[[-94.68,77.1],[-96.75,77.16],[-97.12,76.75],[-95.96,76.44],[-93.89,76.32],[-92.89,75.88],[-92.77,75.39],[-92.42,74.84],[-88.15,74.39],[-83.23,74.56],[-81.95,74.44],[-80.46,74.66],[-79.83,74.92],[-80.06,75.34],[-81.13,75.71],[-84.79,75.7],[-86.38,75.48],[-89.19,75.61],[-90.97,76.07],[-90.74,76.45],[-91.61,76.78],[-93.57,76.78],[-94.68,77.1]],[[-68.5,83.11],[-72.83,83.23],[-75.72,83.06],[-76.25,83.17],[-79.31,83.13],[-82.42,82.86],[-83.18,82.32],[-84.26,82.6],[-85.5,82.65],[-86.97,82.28],[-91.59,81.89],[-91.37,81.55],[-90.2,81.26],[-89.37,80.86],[-87.6,80.52],[-84.1,80.58],[-81.85,80.46],[-83.41,80.1],[-86.93,80.25],[-86.51,79.74],[-85.09,79.35],[-85.38,79.0],[-87.15,78.76],[-87.96,78.37],[-86.34,78.18],[-84.98,77.54],[-87.65,77.97],[-88.26,77.9],[-87.77,77.18],[-89.62,76.95],[-89.49,76.47],[-86.11,76.3],[-83.17,76.45],[-80.56,76.18],[-77.89,76.78],[-77.91,77.02],[-79.62,76.98],[-79.76,77.21],[-78.36,77.51],[-77.89,77.9],[-76.34,78.18],[-75.39,78.53],[-76.22,79.02],[-75.53,79.2],[-76.91,79.32],[-73.88,79.43],[-73.24,79.63],[-71.18,79.8],[-69.47,80.62],[-65.48,81.51],[-67.66,81.5],[-66.75,81.73],[-64.33,81.93],[-61.89,82.36],[-61.85,82.63],[-63.68,82.9],[-68.5,83.11]],[[-116.2,77.65],[-117.57,77.5],[-119.1,77.51],[-121.16,76.86],[-122.85,76.12],[-121.5,75.9],[-119.9,76.05],[-118.04,76.48],[-117.11,76.53],[-116.34,76.88],[-116.2,77.65]],[[-110.19,77.7],[-109.85,78.0],[-111.26,78.15],[-112.72,78.05],[-113.53,77.73],[-112.05,77.41],[-110.19,77.7]],[[-100.06,78.32],[-100.83,78.8],[-105.49,79.3],[-105.42,78.92],[-104.21,78.68],[-105.18,78.38],[-102.95,78.34],[-101.3,78.02],[-99.67,77.91],[-100.06,78.32]],[[-109.66,78.6],[-111.5,78.85],[-112.53,78.55],[-112.54,78.41],[-110.88,78.41],[-109.66,78.6]],[[-87.02,79.66],[-87.81,80.32],[-91.13,80.72],[-92.41,81.26],[-94.74,81.21],[-94.3,80.98],[-95.32,80.91],[-96.71,80.16],[-96.08,79.71],[-94.97,79.37],[-93.15,79.38],[-93.94,79.11],[-93.95,78.75],[-92.88,78.34],[-90.8,78.22],[-89.04,78.29],[-87.19,79.04],[-85.81,79.34],[-87.02,79.66]],[[-95.83,78.06],[-95.56,78.42],[-96.75,78.77],[-98.63,78.87],[-98.55,78.46],[-98.12,78.08],[-97.31,77.85],[-95.83,78.06]],[[-93.84,77.52],[-93.72,77.63],[-94.42,77.82],[-96.44,77.83],[-96.17,77.56],[-93.84,77.52]],[[-93.61,74.98],[-93.98,75.3],[-94.85,75.65],[-96.29,75.38],[-96.82,74.93],[-95.61,74.67],[-94.16,74.59],[-93.61,74.98]],[[-3.01,58.63],[-4.21,58.55],[-5.01,58.63],[-5.79,57.82],[-6.15,56.79],[-5.64,56.28],[-5.59,55.31],[-5.05,55.78],[-4.72,55.51],[-5.08,55.06],[-4.84,54.79],[-3.63,54.62],[-2.95,53.98],[-3.09,53.4],[-4.58,53.5],[-4.77,52.84],[-4.22,52.3],[-5.27,51.99],[-4.98,51.59],[-3.41,51.43],[-4.31,51.21],[-5.78,50.16],[-5.25,49.96],[-4.54,50.34],[-3.62,50.23],[-2.96,50.7],[-2.49,50.5],[-0.79,50.77],[0.55,50.77],[1.45,51.29],[1.05,51.81],[1.56,52.1],[1.68,52.74],[0.47,52.93],[-0.43,54.46],[-1.11,54.62],[-2.09,55.91],[-3.12,55.97],[-2.22,56.87],[-1.96,57.68],[-4.07,57.55],[-3.01,58.63]],[[-56.13,50.69],[-55.41,51.59],[-55.87,51.63],[-56.74,51.29],[-57.36,50.72],[-58.39,49.13],[-59.23,48.52],[-58.8,48.25],[-59.42,47.9],[-59.27,47.6],[-56.25,47.63],[-55.29,47.39],[-56.0,46.92],[-55.4,46.88],[-54.24,47.75],[-53.96,47.63],[-54.18,46.81],[-53.52,46.62],[-53.07,46.66],[-52.65,47.54],[-53.09,48.69],[-53.79,48.52],[-53.48,49.25],[-54.47,49.56],[-54.94,49.31],[-55.82,49.59],[-55.47,49.94],[-56.14,50.15],[-56.8,49.81],[-56.13,50.69]],[[-63.66,46.55],[-64.01,47.04],[-64.39,46.73],[-64.14,46.39],[-62.87,45.97],[-62.5,46.03],[-62.01,46.44],[-62.94,46.42],[-63.66,46.55]],[[-61.81,49.11],[-61.84,49.29],[-62.86,49.71],[-64.17,49.96],[-64.52,49.87],[-63.59,49.4],[-62.29,49.09],[-61.81,49.11]],[[-6.79,52.26],[-6.03,53.15],[-6.2,53.87],[-5.66,54.55],[-6.73,55.17],[-7.57,55.13],[-9.69,53.88],[-9.17,52.86],[-9.98,51.82],[-8.56,51.67],[-6.79,52.26]],[[-77.0,26.59],[-77.79,27.04],[-77.34,26.53],[-77.36,26.01],[-77.17,25.88],[-77.0,26.59]],[[-77.82,26.58],[-77.85,26.84],[-78.98,26.79],[-78.91,26.42],[-77.82,26.58]],[[-77.53,23.76],[-77.54,24.34],[-77.89,25.17],[-78.19,25.21],[-78.41,24.58],[-78.03,24.29],[-77.78,23.71],[-77.53,23.76]],[[-79.68,22.77],[-80.62,23.11],[-82.27,23.19],[-83.78,22.79],[-84.23,22.57],[-84.45,22.2],[-84.97,21.9],[-84.55,21.8],[-84.05,21.91],[-83.91,22.15],[-83.49,22.17],[-82.78,22.69],[-81.8,22.64],[-82.17,22.39],[-81.82,22.19],[-80.52,22.04],[-80.22,21.83],[-79.28,21.56],[-78.72,21.6],[-78.48,21.03],[-78.14,20.74],[-77.49,20.67],[-77.09,20.41],[-77.76,19.86],[-74.96,19.92],[-74.3,20.05],[-74.18,20.28],[-74.93,20.69],[-75.67,20.74],[-75.6,21.02],[-76.52,21.21],[-78.35,22.51],[-79.28,22.4],[-79.68,22.77]],[[-72.58,19.87],[-73.19,19.92],[-73.42,19.64],[-72.78,19.48],[-72.79,19.1],[-72.33,18.67],[-72.69,18.45],[-74.37,18.66],[-74.46,18.34],[-73.92,18.03],[-73.45,18.22],[-72.37,18.21],[-71.71,18.04],[-71.66,17.76],[-71.4,17.6],[-71.0,18.28],[-70.67,18.43],[-70.52,18.18],[-70.13,18.25],[-69.95,18.43],[-69.16,18.42],[-68.69,18.21],[-68.32,18.61],[-68.81,18.98],[-69.25,19.02],[-69.22,19.31],[-69.77,19.29],[-69.95,19.65],[-70.21,19.62],[-70.81,19.88],[-71.59,19.88],[-71.71,19.71],[-72.58,19.87]],[[-65.59,18.23],[-65.77,18.43],[-66.28,18.51],[-67.1,18.52],[-67.24,18.37],[-67.18,17.95],[-65.85,17.98],[-65.59,18.23]],[[-76.9,17.87],[-76.2,17.89],[-76.37,18.16],[-76.9,18.4],[-77.8,18.52],[-78.22,18.45],[-78.34,18.23],[-77.77,17.86],[-77.21,17.7],[-76.9,17.87]],[[-60.94,10.11],[-60.9,10.86],[-61.1,10.89],[-61.68,10.76],[-61.66,10.37],[-61.95,10.09],[-61.77,10.0],[-60.94,10.11]],[[143.56,-13.76],[143.52,-12.83],[143.16,-12.33],[143.12,-11.91],[142.87,-11.78],[142.8,-11.16],[142.52,-10.67],[142.14,-11.04],[141.69,-12.41],[141.84,-12.74],[141.65,-12.94],[141.52,-13.7],[141.7,-15.04],[140.88,-17.37],[140.22,-17.71],[139.26,-17.37],[139.11,-17.06],[138.59,-16.81],[138.3,-16.81],[137.07,-15.87],[136.3,-15.55],[135.5,-15.0],[135.43,-14.72],[136.08,-13.72],[135.96,-13.32],[136.31,-13.29],[136.69,-12.89],[136.95,-12.35],[136.49,-11.86],[136.26,-12.05],[135.88,-11.96],[135.3,-12.25],[134.68,-11.94],[134.39,-12.04],[133.55,-11.79],[133.02,-11.38],[132.36,-11.13],[131.82,-11.27],[132.56,-11.6],[132.58,-12.11],[131.74,-12.3],[131.22,-12.18],[130.62,-12.54],[130.18,-13.11],[130.34,-13.36],[129.89,-13.62],[129.41,-14.42],[129.62,-14.97],[128.36,-14.87],[127.8,-14.28],[127.07,-13.82],[126.14,-14.1],[126.13,-14.35],[125.69,-14.23],[125.67,-14.51],[125.17,-14.68],[124.93,-15.08],[124.38,-15.57],[124.26,-16.33],[123.82,-16.11],[123.5,-16.6],[123.86,-17.07],[123.43,-17.27],[123.01,-16.41],[122.31,-17.25],[122.24,-18.2],[121.66,-18.71],[121.4,-19.24],[120.86,-19.68],[119.81,-19.98],[119.25,-19.95],[118.99,-20.04],[118.84,-20.26],[118.23,-20.37],[117.44,-20.75],[117.17,-20.62],[116.71,-20.7],[115.95,-21.07],[115.46,-21.5],[114.65,-21.83],[114.23,-22.52],[114.15,-21.76],[113.74,-22.48],[113.84,-23.06],[113.71,-23.56],[113.5,-23.81],[113.39,-24.38],[114.22,-25.79],[114.23,-26.3],[113.94,-25.91],[113.44,-25.62],[113.78,-26.55],[113.34,-26.12],[113.48,-26.54],[114.05,-27.33],[114.17,-28.12],[114.62,-28.52],[114.64,-28.81],[115.04,-29.46],[115.0,-30.03],[115.16,-30.6],[115.69,-31.61],[115.8,-32.21],[115.71,-33.26],[115.55,-33.49],[115.05,-33.62],[115.03,-34.2],[116.63,-35.03],[118.02,-35.06],[119.01,-34.46],[119.3,-34.51],[119.89,-33.98],[121.3,-33.82],[122.18,-34.0],[123.66,-33.89],[124.03,-33.48],[124.22,-32.96],[125.09,-32.73],[126.15,-32.22],[127.1,-32.28],[129.54,-31.59],[131.33,-31.5],[132.29,-31.98],[132.99,-32.01],[134.27,-32.62],[134.09,-32.85],[134.61,-33.22],[135.24,-33.95],[135.21,-34.48],[135.99,-34.89],[136.37,-34.09],[137.0,-33.75],[137.81,-32.9],[137.89,-33.64],[137.5,-34.13],[137.35,-34.71],[136.83,-35.26],[137.72,-35.08],[138.21,-34.38],[138.45,-35.13],[138.12,-35.61],[139.08,-35.73],[139.57,-36.14],[139.99,-37.4],[140.64,-38.02],[143.61,-38.81],[144.49,-38.09],[145.03,-37.9],[144.88,-38.42],[146.32,-39.04],[147.38,-38.22],[148.3,-37.81],[149.42,-37.77],[150.0,-37.43],[150.08,-36.42],[150.33,-35.67],[150.71,-35.17],[151.01,-34.31],[151.71,-33.04],[152.45,-32.55],[152.89,-31.64],[153.09,-30.92],[153.07,-30.35],[153.51,-29.0],[153.57,-28.11],[153.09,-27.26],[153.14,-26.07],[152.86,-25.27],[150.9,-23.46],[150.73,-22.4],[150.48,-22.56],[150.08,-22.12],[149.68,-22.34],[149.29,-21.26],[148.72,-20.63],[148.85,-20.39],[147.47,-19.48],[146.39,-18.96],[146.06,-18.28],[146.16,-17.76],[145.89,-16.91],[145.64,-16.78],[145.49,-16.29],[145.27,-15.43],[145.37,-14.98],[144.56,-14.17],[143.92,-14.55],[143.56,-13.76]],[[167.11,-14.93],[166.63,-14.63],[166.65,-15.39],[166.79,-15.67],[167.0,-15.61],[167.27,-15.74],[167.11,-14.93]],[[167.84,-16.47],[167.22,-15.89],[167.18,-16.16],[167.52,-16.6],[167.84,-16.47]],[[178.37,-17.34],[178.13,-17.5],[177.67,-17.38],[177.29,-17.72],[177.38,-18.16],[177.93,-18.29],[178.55,-18.15],[178.72,-17.63],[178.37,-17.34]],[[167.12,-22.16],[165.02,-20.46],[164.46,-20.12],[164.03,-20.11],[164.17,-20.44],[165.47,-21.68],[166.74,-22.4],[167.12,-22.16]],[[174.61,-36.16],[174.33,-35.27],[173.55,-35.01],[173.01,-34.45],[172.64,-34.53],[173.05,-35.24],[174.32,-36.53],[174.29,-36.71],[174.7,-37.38],[174.74,-38.03],[174.57,-38.8],[173.85,-39.15],[173.82,-39.51],[174.9,-39.91],[175.23,-40.46],[174.65,-41.28],[175.07,-41.43],[175.24,-41.69],[176.01,-41.29],[177.03,-39.88],[176.94,-39.45],[177.21,-39.15],[177.97,-39.17],[178.27,-38.58],[178.52,-37.7],[178.01,-37.58],[177.44,-37.96],[176.76,-37.88],[175.96,-37.56],[175.81,-36.8],[175.36,-36.53],[175.34,-37.21],[174.61,-36.16]],[[173.02,-40.92],[172.8,-40.49],[172.1,-40.96],[171.95,-41.51],[171.57,-41.77],[171.13,-42.51],[170.52,-43.03],[168.95,-43.94],[168.3,-44.12],[167.05,-45.11],[166.51,-45.85],[166.68,-46.22],[167.76,-46.29],[168.41,-46.62],[169.33,-46.64],[170.62,-45.91],[171.45,-44.24],[172.31,-43.87],[173.08,-43.85],[172.71,-43.37],[173.22,-42.97],[174.25,-41.77],[174.25,-41.35],[173.96,-40.93],[173.25,-41.33],[173.02,-40.92]],[[145.4,-40.79],[144.74,-40.7],[144.72,-41.16],[145.3,-42.03],[145.43,-42.69],[146.05,-43.55],[146.87,-43.63],[147.56,-42.94],[147.91,-43.21],[148.02,-42.41],[148.36,-42.06],[148.29,-40.88],[147.69,-40.81],[146.36,-41.14],[145.4,-40.79]],[[50.06,-13.56],[49.81,-12.9],[49.19,-12.04],[48.86,-12.49],[48.85,-13.09],[48.29,-13.78],[47.87,-13.66],[48.01,-14.09],[47.71,-14.59],[46.31,-15.78],[45.87,-15.79],[44.94,-16.18],[44.45,-16.22],[44.31,-16.85],[43.96,-17.41],[44.04,-18.33],[44.46,-19.44],[44.37,-20.07],[43.9,-20.83],[43.89,-21.16],[43.43,-21.34],[43.25,-22.06],[43.35,-22.78],[43.7,-23.57],[43.76,-24.46],[44.04,-24.99],[45.41,-25.6],[47.1,-24.94],[49.44,-17.95],[49.5,-17.11],[49.77,-16.88],[49.86,-16.45],[49.67,-15.71],[49.86,-15.41],[50.2,-16.0],[50.38,-15.71],[50.48,-15.23],[50.22,-14.76],[50.06,-13.56]],[[162.12,-10.48],[161.32,-10.2],[161.7,-10.82],[162.4,-10.83],[162.12,-10.48]],[[134.14,-1.15],[133.99,-0.78],[132.38,-0.37],[131.87,-0.7],[130.52,-0.94],[130.94,-1.43],[131.84,-1.62],[132.23,-2.21],[133.7,-2.21],[133.78,-2.48],[133.07,-2.46],[131.99,-2.82],[132.75,-3.31],[132.76,-3.75],[132.98,-4.11],[133.37,-4.02],[133.66,-3.54],[135.16,-4.46],[135.99,-4.55],[137.93,-5.39],[138.41,-6.23],[138.67,-7.32],[138.04,-7.6],[137.61,-8.41],[138.88,-8.38],[139.13,-8.1],[140.14,-8.3],[141.03,-9.12],[142.07,-9.16],[142.63,-9.33],[143.41,-8.98],[143.29,-8.25],[144.74,-7.63],[146.05,-8.07],[146.57,-8.94],[147.91,-10.13],[149.78,-10.39],[150.03,-10.65],[150.69,-10.58],[150.8,-10.29],[149.74,-9.87],[150.04,-9.68],[149.27,-9.51],[149.31,-9.07],[148.73,-9.1],[148.08,-8.04],[147.19,-7.39],[146.97,-6.72],[147.89,-6.61],[147.65,-6.08],[145.98,-5.47],[145.83,-4.88],[144.58,-3.86],[141.0,-2.6],[139.93,-2.41],[138.33,-1.7],[137.44,-1.7],[136.29,-2.31],[135.46,-3.37],[134.42,-2.77],[134.14,-1.15]],[[153.14,-4.5],[153.02,-3.98],[152.24,-3.24],[150.94,-2.5],[150.66,-2.74],[151.38,-3.04],[152.41,-3.79],[152.83,-4.77],[153.14,-4.5]],[[151.98,-5.48],[152.32,-4.87],[152.34,-4.31],[152.14,-4.15],[151.54,-4.17],[151.65,-4.76],[151.09,-5.11],[150.81,-5.46],[150.24,-5.53],[150.14,-5.0],[150.0,-5.03],[149.85,-5.51],[149.3,-5.58],[148.4,-5.44],[148.32,-5.75],[149.71,-6.32],[150.24,-6.32],[151.3,-5.84],[151.46,-5.56],[151.98,-5.48]],[[155.88,-6.82],[156.02,-6.54],[154.76,-5.34],[154.65,-5.04],[154.51,-5.14],[154.73,-5.9],[155.17,-6.54],[155.6,-6.92],[155.88,-6.82]],[[157.54,-7.35],[156.54,-6.6],[156.49,-6.77],[156.9,-7.18],[157.34,-7.4],[157.54,-7.35]],[[159.88,-8.34],[159.64,-8.02],[158.82,-7.56],[158.36,-7.32],[158.21,-7.42],[159.13,-8.11],[159.92,-8.54],[159.88,-8.34]],[[161.68,-9.6],[161.28,-9.12],[160.92,-8.32],[160.58,-8.32],[160.79,-8.92],[161.53,-9.78],[161.68,-9.6]],[[160.85,-9.87],[160.36,-9.4],[159.7,-9.24],[159.64,-9.64],[159.85,-9.79],[160.85,-9.87]],[[124.44,-10.14],[125.09,-9.39],[126.97,-8.67],[127.34,-8.4],[126.96,-8.27],[125.09,-8.66],[124.97,-8.89],[123.98,-9.29],[123.55,-9.9],[123.46,-10.24],[123.58,-10.36],[124.44,-10.14]],[[120.72,-10.24],[120.78,-9.97],[119.9,-9.36],[118.97,-9.56],[120.3,-10.26],[120.72,-10.24]],[[117.9,-8.1],[117.63,-8.45],[117.08,-8.46],[116.74,-9.03],[117.28,-9.04],[119.13,-8.71],[118.88,-8.28],[118.26,-8.36],[117.9,-8.1]],[[122.9,-8.09],[122.01,-8.46],[121.34,-8.54],[120.72,-8.24],[119.92,-8.44],[119.92,-8.81],[121.25,-8.93],[122.76,-8.65],[122.9,-8.09]],[[108.62,-6.78],[108.49,-6.42],[107.27,-5.95],[106.05,-5.9],[105.37,-6.85],[106.28,-6.92],[106.45,-7.35],[108.28,-7.77],[108.69,-7.64],[111.52,-8.3],[113.46,-8.35],[114.56,-8.75],[115.71,-8.37],[114.48,-7.78],[112.98,-7.59],[112.61,-6.95],[110.76,-6.47],[110.54,-6.88],[108.62,-6.78]],[[134.72,-6.21],[134.73,-5.74],[134.5,-5.45],[134.11,-6.14],[134.21,-6.9],[134.72,-6.21]],[[105.82,-5.85],[105.86,-4.31],[106.11,-3.06],[105.62,-2.43],[104.89,-2.34],[104.54,-1.78],[104.37,-1.08],[104.01,-1.06],[103.44,-0.71],[103.84,0.1],[103.08,0.56],[102.5,1.4],[101.66,2.08],[100.64,2.1],[99.69,3.17],[98.37,4.27],[97.48,5.25],[95.29,5.48],[95.38,4.97],[96.42,3.87],[97.18,3.31],[97.7,2.45],[98.6,1.82],[99.26,0.18],[100.14,-0.65],[101.4,-2.8],[102.58,-4.22],[103.87,-5.04],[104.71,-5.87],[105.82,-5.85]],[[117.88,1.83],[118.05,2.29],[117.31,3.23],[117.88,4.14],[118.62,4.48],[118.44,4.97],[119.11,5.02],[119.18,5.41],[117.69,5.99],[117.64,6.42],[117.13,6.93],[116.73,6.92],[116.22,6.14],[115.45,5.45],[114.6,4.9],[113.0,3.1],[111.37,2.7],[111.17,1.85],[110.4,1.66],[109.66,2.01],[109.07,1.34],[108.95,0.42],[109.09,-0.46],[109.57,-1.31],[110.07,-1.59],[110.22,-2.93],[111.05,-3.05],[111.7,-2.99],[112.07,-3.48],[113.26,-3.12],[113.76,-3.44],[114.47,-3.5],[114.86,-4.11],[116.0,-3.66],[116.15,-4.01],[116.53,-2.48],[116.56,-1.49],[117.52,-0.8],[117.48,0.1],[117.81,0.78],[119.0,0.9],[117.88,1.83]],[[125.24,1.42],[125.07,1.64],[124.08,0.92],[122.93,0.88],[121.67,1.01],[120.89,1.31],[120.04,0.57],[119.32,-1.35],[119.18,-2.15],[118.77,-2.8],[119.08,-3.49],[119.5,-3.49],[119.65,-4.46],[119.37,-5.38],[119.8,-5.67],[120.43,-5.53],[120.31,-2.93],[120.97,-2.63],[120.9,-3.6],[121.62,-4.19],[121.49,-4.57],[121.74,-4.85],[122.72,-4.46],[122.24,-5.28],[122.63,-5.63],[123.16,-5.34],[123.17,-4.68],[122.27,-3.53],[122.45,-3.19],[121.51,-1.9],[122.39,-1.52],[122.82,-0.93],[123.26,-1.08],[123.34,-0.62],[121.48,-0.96],[120.94,-1.41],[120.04,-0.52],[120.18,0.24],[122.72,0.43],[123.69,0.24],[124.44,0.43],[125.24,1.42]],[[128.69,1.13],[128.59,1.54],[128.0,1.63],[127.93,2.17],[127.6,1.81],[127.4,1.01],[127.7,-0.27],[128.1,-0.9],[128.38,-0.78],[127.97,-0.25],[128.12,0.36],[128.64,0.26],[128.69,1.13]],[[130.47,-3.09],[129.37,-2.8],[128.14,-2.84],[127.9,-3.39],[129.99,-3.45],[130.83,-3.86],[130.47,-3.09]],[[127.25,-3.46],[127.0,-3.13],[125.99,-3.18],[126.18,-3.61],[126.87,-3.79],[127.25,-3.46]],[[126.38,8.41],[126.22,9.29],[125.41,9.76],[125.47,8.99],[124.76,8.96],[124.6,8.51],[123.84,8.24],[123.49,8.69],[122.31,8.03],[121.92,7.19],[122.09,6.9],[122.83,7.46],[123.3,7.42],[123.61,7.83],[124.24,7.36],[123.94,6.89],[124.22,6.16],[125.4,5.58],[125.68,6.05],[125.36,6.79],[125.83,7.29],[126.2,6.27],[126.54,7.19],[126.38,8.41]],[[118.5,9.32],[119.03,10.0],[119.69,10.55],[119.51,11.37],[118.99,10.38],[117.66,9.07],[117.17,8.37],[118.5,9.32]],[[121.88,11.89],[122.04,11.42],[122.0,10.44],[122.64,10.74],[123.1,11.17],[123.12,11.58],[122.48,11.58],[121.88,11.89]],[[125.5,12.16],[125.23,12.54],[124.27,12.56],[124.88,11.79],[124.89,11.42],[124.3,11.5],[124.46,10.89],[124.76,10.84],[124.8,10.13],[125.28,10.36],[125.01,11.31],[125.78,11.05],[125.5,12.16]],[[123.98,10.28],[124.08,11.23],[123.34,10.27],[123.5,10.94],[122.95,10.88],[122.84,10.26],[122.38,9.71],[123.0,9.02],[123.98,10.28]],[[121.53,13.07],[121.18,13.43],[120.32,13.47],[121.26,12.21],[121.53,13.07]],[[121.32,18.5],[120.72,18.51],[120.39,17.6],[120.29,16.03],[119.88,16.36],[119.92,15.41],[120.07,14.97],[120.56,14.4],[120.69,14.76],[120.99,14.53],[120.68,14.27],[120.63,13.86],[121.13,13.64],[122.03,13.78],[122.67,13.19],[122.93,13.55],[123.3,13.03],[124.08,12.54],[124.18,13.0],[123.86,13.24],[123.95,13.78],[122.7,14.34],[122.26,14.22],[121.73,14.33],[121.51,15.12],[121.66,15.93],[122.25,16.26],[122.52,17.09],[122.17,17.81],[122.34,18.22],[122.25,18.48],[121.94,18.22],[121.32,18.5]],[[110.34,18.68],[110.57,19.26],[111.01,19.7],[110.79,20.08],[110.21,20.1],[109.12,19.82],[108.63,19.37],[108.66,18.51],[109.48,18.2],[110.34,18.68]],[[70.28,-49.71],[70.56,-49.26],[70.53,-49.06],[69.58,-48.94],[68.94,-48.62],[68.72,-49.24],[68.75,-49.77],[70.28,-49.71]],[[-58.55,-51.1],[-59.15,-51.5],[-60.0,-51.25],[-61.2,-51.85],[-60.7,-52.3],[-59.85,-51.85],[-59.4,-52.2],[-58.05,-51.9],[-57.75,-51.55],[-58.55,-51.1]],[[-68.63,-52.64],[-69.35,-52.52],[-70.27,-52.93],[-70.59,-53.62],[-71.11,-54.07],[-72.43,-53.72],[-73.84,-53.05],[-74.66,-52.84],[-73.29,-53.96],[-71.01,-55.05],[-69.96,-55.2],[-69.23,-55.5],[-68.15,-55.61],[-67.29,-55.3],[-66.96,-54.9],[-66.45,-55.25],[-65.5,-55.2],[-65.05,-54.7],[-66.45,-54.45],[-67.75,-53.85],[-68.63,-52.64]],[[-155.54,19.08],[-154.81,19.51],[-155.22,19.99],[-155.86,20.27],[-155.85,19.98],[-156.07,19.7],[-155.91,19.34],[-155.94,19.06],[-155.69,18.92],[-155.54,19.08]],[[-156.08,20.64],[-156.0,20.76],[-156.26,20.92],[-156.61,21.01],[-156.71,20.93],[-156.41,20.57],[-156.08,20.64]],[[-156.76,21.18],[-157.25,21.22],[-157.33,21.1],[-156.79,21.07],[-156.76,21.18]],[[-157.65,21.32],[-158.03,21.72],[-158.29,21.58],[-158.13,21.31],[-157.65,21.32]],[[-159.35,21.98],[-159.37,22.21],[-159.6,22.24],[-159.8,22.07],[-159.46,21.88],[-159.35,21.98]],[[-123.51,48.51],[-123.92,49.06],[-124.92,49.48],[-125.76,50.3],[-128.36,50.77],[-128.44,50.54],[-128.06,49.99],[-127.03,49.81],[-126.85,49.53],[-125.95,49.18],[-125.66,48.83],[-124.01,48.37],[-123.51,48.51]],[[-132.71,54.04],[-133.18,54.17],[-133.24,53.85],[-133.05,53.41],[-132.55,53.1],[-132.18,52.64],[-131.58,52.18],[-131.18,52.18],[-132.05,52.98],[-131.75,54.12],[-132.71,54.04]],[[-153.01,57.12],[-152.14,57.59],[-152.56,57.9],[-153.23,57.97],[-154.67,57.46],[-154.52,56.99],[-154.01,56.73],[-153.01,57.12]],[[-165.58,59.91],[-165.67,60.29],[-166.47,60.38],[-167.46,60.21],[-166.19,59.75],[-165.58,59.91]],[[-171.73,63.78],[-171.79,63.41],[-171.55,63.32],[-170.67,63.38],[-169.53,62.98],[-168.69,63.3],[-169.68,63.43],[-170.49,63.69],[-171.11,63.59],[-171.73,63.78]],[[105.08,78.31],[105.37,78.71],[102.09,79.35],[101.26,79.23],[99.44,77.92],[105.08,78.31]],[[-68.45,-70.96],[-69.72,-69.25],[-70.25,-68.88],[-71.17,-69.04],[-71.74,-69.51],[-71.78,-70.68],[-72.07,-71.19],[-73.23,-71.15],[-75.01,-71.66],[-74.95,-72.07],[-74.19,-72.37],[-71.9,-72.09],[-72.39,-72.48],[-71.08,-72.5],[-68.78,-72.17],[-68.33,-71.41],[-68.45,-70.96]],[[-98.98,-71.93],[-101.7,-71.72],[-102.33,-71.89],[-101.8,-72.31],[-100.78,-72.5],[-96.2,-72.52],[-96.79,-71.95],[-97.88,-72.07],[-98.98,-71.93]],[[-125.56,-73.48],[-126.56,-73.25],[-127.28,-73.46],[-125.91,-73.74],[-124.03,-73.87],[-125.56,-73.48]],[[-121.21,-73.5],[-122.41,-73.32],[-122.62,-73.66],[-121.62,-74.01],[-120.23,-74.09],[-119.29,-73.83],[-118.72,-73.48],[-119.92,-73.66],[-121.21,-73.5]],[[-159.21,-79.5],[-159.48,-79.05],[-161.25,-78.38],[-163.11,-78.22],[-163.71,-78.6],[-162.44,-79.28],[-161.13,-79.63],[-159.21,-79.5]],[[-45.15,-78.05],[-46.66,-77.83],[-48.66,-78.05],[-50.99,-79.61],[-51.85,-79.95],[-53.99,-80.22],[-54.16,-80.63],[-52.85,-80.97],[-50.48,-81.03],[-46.51,-80.59],[-43.33,-80.03],[-43.49,-79.09],[-43.92,-78.48],[-45.15,-78.05]],[[-59.57,-80.04],[-60.61,-79.63],[-61.88,-80.39],[-66.29,-80.26],[-65.74,-80.59],[-64.49,-80.92],[-62.26,-80.86],[-60.16,-81.0],[-59.57,-80.04]],[[121.18,22.79],[121.95,25.0],[121.5,25.3],[120.69,24.54],[120.11,23.56],[120.22,22.81],[120.75,21.97],[121.18,22.79]],[[140.98,37.14],[140.96,38.17],[141.88,39.18],[141.91,39.99],[141.37,41.38],[140.31,41.2],[139.88,40.56],[140.05,39.44],[139.43,38.22],[137.39,36.83],[136.72,37.3],[135.68,35.53],[134.61,35.73],[132.62,35.43],[131.88,34.75],[130.88,34.23],[130.35,33.6],[129.41,33.3],[129.81,32.61],[130.45,32.32],[130.2,31.42],[130.69,31.03],[131.33,31.45],[132.0,33.15],[130.99,33.89],[132.16,33.9],[133.34,34.38],[135.08,34.6],[135.12,33.85],[135.79,33.46],[137.22,34.61],[138.98,34.67],[140.25,35.14],[140.77,35.84],[140.6,36.34],[140.98,37.14]],[[134.64,34.15],[133.9,34.36],[133.49,33.94],[132.92,34.06],[132.37,33.46],[132.36,32.99],[133.01,32.7],[133.28,33.29],[133.79,33.52],[134.2,33.2],[134.77,33.81],[134.64,34.15]],[[143.91,44.17],[143.14,44.51],[141.97,45.55],[141.67,44.77],[141.38,43.39],[140.31,43.33],[139.82,42.56],[139.96,41.57],[141.07,41.58],[141.61,42.68],[143.18,42.0],[144.06,42.99],[145.54,43.26],[145.32,44.38],[144.61,43.96],[143.91,44.17]],[[143.65,50.75],[143.24,51.76],[143.26,52.74],[142.65,54.37],[142.21,54.23],[142.61,53.76],[141.68,53.3],[141.59,51.94],[142.18,50.95],[142.14,49.62],[141.9,48.86],[142.02,47.78],[141.91,46.81],[142.09,45.97],[142.75,46.74],[143.51,46.14],[143.53,46.84],[142.56,47.86],[143.17,49.31],[144.65,48.98],[143.65,50.75]],[[81.22,6.2],[81.64,6.48],[81.79,7.52],[80.84,9.27],[80.15,9.82],[79.7,8.2],[79.87,6.76],[80.35,5.97],[81.22,6.2]],[[15.52,38.23],[13.74,38.03],[12.57,38.13],[12.43,37.61],[14.34,37.0],[15.1,36.62],[15.31,37.13],[15.16,37.44],[15.52,38.23]],[[23.7,35.71],[23.51,35.28],[24.74,35.08],[24.72,34.92],[26.16,35.0],[26.29,35.3],[25.75,35.18],[25.77,35.35],[24.25,35.37],[23.7,35.71]],[[34.58,35.67],[33.67,35.37],[32.95,35.39],[32.8,35.15],[32.26,35.1],[32.49,34.7],[32.98,34.57],[34.0,34.98],[33.9,35.25],[34.58,35.67]],[[9.21,41.21],[8.71,40.9],[8.16,40.95],[8.39,40.38],[8.43,39.17],[8.81,38.91],[9.21,39.24],[9.67,39.18],[9.81,40.5],[9.21,41.21]],[[9.56,42.15],[9.39,43.01],[8.75,42.63],[8.54,42.26],[8.78,41.58],[9.23,41.38],[9.56,42.15]],[[12.69,55.61],[12.37,56.11],[10.9,55.78],[11.04,55.36],[12.09,54.8],[12.69,55.61]]]}}]}