{"type":"FeatureCollection","features":[{"type":"Feature","properties":{},"geometry":{"type":"MultiPolygon","coordinates":[[[[35.69,-22.51],[35.52,-22.32],[35.61,-22.08],[35.44,-21.89],[35.54,-21.66],[35.37,-21.46],[35.46,-21.23],[35.29,-21.04],[35.38,-20.8],[35.21,-20.61],[34.95,-20.65],[34.77,-20.46],[34.87,-20.22],[35.14,-20.17],[35.23,-19.94],[35.5,-19.89],[35.59,-19.65],[35.86,-19.61],[35.95,-19.37],[36.21,-19.33],[36.31,-19.09],[36.57,-19.04],[36.66,-18.8],[36.49,-18.61],[36.59,-18.37],[36.85,-18.33],[36.94,-18.09],[37.2,-18.04],[37.29,-17.8],[37.55,-17.76],[37.65,-17.52],[37.9,-17.47],[38.07,-17.66],[38.33,-17.62],[38.42,-17.38],[38.68,-17.33],[38.77,-17.09],[39.03,-17.04],[39.12,-16.8],[39.37,-16.76],[39.46,-16.52],[39.72,-16.47],[39.8,-16.23],[39.64,-16.04],[39.72,-15.8],[39.98,-15.75],[40.14,-15.94],[40.4,-15.89],[40.48,-15.65],[40.32,-15.46],[40.4,-15.23],[40.65,-15.18],[40.74,-14.94],[40.57,-14.75],[40.66,-14.51],[40.49,-14.32],[40.58,-14.08],[40.41,-13.89],[40.49,-13.65],[40.75,-13.6],[40.83,-13.36],[40.66,-13.17],[40.75,-12.93],[40.58,-12.74],[40.67,-12.5],[40.5,-12.31],[40.59,-12.07],[40.42,-11.88],[40.51,-11.64],[40.75,-11.6],[40.84,-11.36],[40.67,-11.17],[40.76,-10.93],[40.59,-10.73],[40.68,-10.5],[40.51,-10.3],[40.6,-10.07],[40.43,-9.87],[40.19,-9.92],[40.02,-9.72],[39.77,-9.77],[39.61,-9.57],[39.69,-9.34],[39.53,-9.14],[39.62,-8.9],[39.45,-8.71],[39.54,-8.47],[39.37,-8.28],[39.46,-8.04],[39.71,-8.0],[39.87,-8.2],[40.11,-8.16],[40.2,-7.92],[40.04,-7.73],[39.79,-7.77],[39.63,-7.57],[39.71,-7.34],[39.55,-7.15],[39.63,-6.91],[39.47,-6.72],[39.56,-6.48],[39.8,-6.44],[39.88,-6.21],[39.72,-6.02],[39.81,-5.78],[40.05,-5.74],[40.13,-5.51],[39.97,-5.32],[40.05,-5.09],[39.89,-4.89],[39.98,-4.66],[39.82,-4.47],[39.9,-4.24],[40.14,-4.2],[40.22,-3.97],[40.06,-3.78],[40.15,-3.55],[40.39,-3.51],[40.47,-3.29],[40.31,-3.09],[40.39,-2.87],[40.63,-2.83],[40.71,-2.6],[40.95,-2.57],[41.03,-2.34],[41.27,-2.3],[41.35,-2.08],[41.59,-2.04],[41.67,-1.82],[41.9,-1.78],[41.98,-1.56],[41.82,-1.37],[41.9,-1.15],[42.14,-1.11],[42.22,-0.89],[42.45,-0.86],[42.53,-0.63],[42.76,-0.6],[42.84,-0.38],[43.07,-0.35],[43.15,-0.13],[43.38,-0.09],[43.45,0.13],[43.3,0.31],[43.37,0.53],[43.6,0.56],[43.68,0.78],[43.91,0.81],[43.98,1.03],[44.21,1.06],[44.29,1.27],[44.51,1.31],[44.59,1.52],[44.82,1.55],[44.89,1.76],[45.11,1.79],[45.19,2.01],[45.41,2.04],[45.48,2.25],[45.71,2.28],[45.86,2.1],[46.08,2.12],[46.15,2.34],[46.38,2.36],[46.45,2.57],[46.29,2.76],[46.36,2.97],[46.58,2.99],[46.65,3.2],[46.87,3.23],[46.94,3.44],[47.16,3.46],[47.23,3.67],[47.08,3.85],[47.15,4.05],[47.37,4.08],[47.43,4.28],[47.65,4.31],[47.72,4.51],[47.93,4.54],[48.0,4.74],[47.85,4.92],[47.92,5.12],[48.13,5.14],[48.2,5.34],[48.41,5.37],[48.48,5.57],[48.69,5.59],[48.76,5.79],[48.61,5.96],[48.68,6.16],[48.53,6.34],[48.59,6.53],[48.8,6.55],[48.87,6.75],[48.72,6.92],[48.79,7.12],[49.0,7.14],[49.06,7.33],[49.27,7.35],[49.34,7.54],[49.19,7.72],[48.98,7.7],[48.83,7.87],[48.62,7.85],[48.48,8.02],[48.27,8.01],[48.2,7.81],[47.99,7.79],[47.84,7.97],[47.63,7.95],[47.48,8.12],[47.27,8.1],[47.2,7.91],[46.99,7.89],[46.84,8.06],[46.62,8.04],[46.48,8.22],[46.26,8.2],[46.11,8.37],[45.89,8.35],[45.83,8.16],[45.61,8.14],[45.46,8.31],[45.24,8.29],[45.09,8.47],[44.87,8.45],[44.72,8.62],[44.79,8.82],[44.64,8.99],[44.42,8.97],[44.28,9.14],[44.06,9.12],[43.91,9.3],[43.98,9.49],[43.87,9.67],[43.65,9.65],[43.54,9.83],[43.32,9.81],[43.21,9.98],[42.99,9.97],[42.87,9.77],[42.65,9.75],[42.54,9.93],[42.31,9.9],[42.2,9.71],[41.97,9.68],[41.86,9.86],[41.64,9.84],[41.52,10.02],[41.3,10.0],[41.18,10.18],[40.95,10.16],[40.84,10.34],[40.61,10.32],[40.49,10.5],[40.26,10.48],[40.14,10.66],[40.26,10.87],[40.14,11.05],[39.91,11.03],[39.79,11.22],[39.9,11.42],[39.78,11.61],[39.9,11.81],[39.78,12.0],[39.54,11.98],[39.42,12.17],[39.54,12.37],[39.41,12.56],[39.53,12.77],[39.77,12.79],[39.88,13.0],[39.76,13.19],[39.52,13.17],[39.41,12.96],[39.17,12.94],[39.05,12.73],[38.81,12.71],[38.7,12.5],[38.82,12.31],[38.71,12.1],[38.47,12.08],[38.35,12.27],[38.11,12.25],[37.98,12.43],[38.1,12.64],[38.34,12.67],[38.45,12.88],[38.33,13.07],[38.44,13.28],[38.32,13.47],[38.07,13.45],[37.96,13.24],[37.72,13.21],[37.6,13.0],[37.36,12.98],[37.25,12.77],[37.0,12.75],[36.89,12.53],[37.02,12.34],[36.91,12.13],[36.66,12.11],[36.55,11.9],[36.31,11.88],[36.18,12.06],[35.94,12.04],[35.81,12.23],[35.92,12.44],[36.16,12.46],[36.28,12.68],[36.14,12.87],[35.9,12.84],[35.77,13.03],[35.52,13.01],[35.41,12.79],[35.17,12.77],[35.03,12.96],[34.79,12.94],[34.65,13.13],[34.4,13.1],[34.27,13.29],[34.02,13.27],[33.91,13.05],[33.66,13.02],[33.52,13.21],[33.28,13.19],[33.17,12.97],[32.92,12.95],[32.78,13.14],[32.53,13.11],[32.39,13.3],[32.14,13.27],[32.03,13.05],[31.78,13.03],[31.64,13.22],[31.39,13.19],[31.24,13.38],[30.99,13.35],[30.89,13.13],[30.64,13.1],[30.49,13.29],[30.24,13.27],[30.13,13.05],[29.88,13.02],[29.78,12.8],[29.53,12.77],[29.38,12.96],[29.13,12.93],[29.03,12.7],[28.77,12.67],[28.63,12.86],[28.37,12.83],[28.27,12.61],[28.02,12.58],[27.87,12.77],[27.62,12.74],[27.47,12.93],[27.22,12.89],[27.12,12.67],[26.86,12.64],[26.71,12.83],[26.46,12.8],[26.36,12.57],[26.11,12.54],[25.95,12.73],[25.7,12.69],[25.6,12.47],[25.35,12.44],[25.26,12.22],[25.01,12.18],[24.91,11.96],[24.66,11.93],[24.5,12.11],[24.25,12.08],[24.16,11.86],[23.91,11.82],[23.82,11.6],[23.57,11.57],[23.41,11.75],[23.16,11.71],[23.0,11.9],[23.09,12.12],[22.93,12.31],[22.68,12.27],[22.52,12.46],[22.27,12.42],[22.11,12.61],[21.86,12.57],[21.7,12.75],[21.45,12.72],[21.29,12.9],[21.03,12.86],[20.87,13.05],[20.62,13.01],[20.46,13.2],[20.54,13.42],[20.38,13.61],[20.13,13.57],[19.96,13.76],[19.71,13.72],[19.54,13.9],[19.29,13.86],[19.12,14.05],[18.87,14.01],[18.7,14.19],[18.45,14.15],[18.28,14.34],[18.03,14.29],[17.95,14.07],[17.7,14.02],[17.53,14.21],[17.28,14.17],[17.11,14.35],[16.86,14.31],[16.78,14.08],[16.53,14.04],[16.36,14.22],[16.11,14.18],[15.94,14.36],[15.69,14.32],[15.61,14.09],[15.36,14.04],[15.19,14.23],[14.94,14.18],[14.77,14.36],[14.52,14.32],[14.35,14.5],[14.1,14.45],[14.03,14.23],[13.78,14.18],[13.61,14.36],[13.36,14.31],[13.19,14.49],[12.94,14.45],[12.87,14.22],[12.63,14.17],[12.46,14.35],[12.21,14.31],[12.04,14.48],[11.79,14.44],[11.62,14.61],[11.38,14.57],[11.31,14.34],[11.07,14.29],[10.89,14.47],[10.65,14.42],[10.59,14.19],[10.35,14.14],[10.17,14.32],[9.93,14.27],[9.76,14.45],[9.52,14.4],[9.46,14.17],[9.22,14.12],[9.04,14.3],[8.81,14.25],[8.63,14.42],[8.4,14.37],[8.22,14.54],[7.99,14.49],[7.81,14.67],[7.58,14.61],[7.4,14.79],[7.17,14.73],[7.11,14.51],[6.88,14.46],[6.7,14.63],[6.47,14.58],[6.29,14.75],[6.06,14.7],[6.01,14.47],[5.78,14.42],[5.6,14.59],[5.66,14.81],[5.48,14.98],[5.25,14.93],[5.2,14.7],[4.97,14.65],[4.79,14.82],[4.57,14.77],[4.39,14.93],[4.17,14.88],[3.99,15.05],[3.76,14.99],[3.59,15.16],[3.36,15.1],[3.19,15.27],[2.96,15.21],[2.92,14.99],[2.7,14.94],[2.52,15.1],[2.3,15.04],[2.12,15.21],[1.9,15.15],[1.73,15.32],[1.51,15.26],[1.47,15.04],[1.25,14.98],[1.07,15.14],[0.86,15.09],[0.68,15.25],[0.47,15.19],[0.29,15.35],[0.08,15.29],[-0.1,15.46],[-0.31,15.4],[-0.35,15.18],[-0.56,15.12],[-0.74,15.28],[-0.95,15.22],[-1.12,15.38],[-1.33,15.32],[-1.5,15.48],[-1.71,15.42],[-1.75,15.2],[-1.95,15.14],[-2.13,15.3],[-2.33,15.24],[-2.51,15.4],[-2.71,15.34],[-2.88,15.49],[-3.09,15.43],[-3.26,15.59],[-3.46,15.53],[-3.64,15.64],[-3.85,15.53],[-4.03,15.64],[-4.24,15.54],[-4.42,15.65],[-4.63,15.54],[-4.81,15.65],[-5.02,15.55],[-5.21,15.66],[-5.42,15.55],[-5.6,15.66],[-5.81,15.55],[-6.0,15.66],[-6.21,15.55],[-6.4,15.66],[-6.61,15.55],[-6.8,15.66],[-7.01,15.55],[-7.2,15.66],[-7.42,15.55],[-7.61,15.66],[-7.82,15.55],[-8.01,15.66],[-8.23,15.55],[-8.42,15.66],[-8.63,15.54],[-8.83,15.65],[-8.81,15.88],[-9.01,15.99],[-9.22,15.87],[-9.42,15.98],[-9.63,15.87],[-9.83,15.98],[-10.05,15.86],[-10.25,15.97],[-10.46,15.86],[-10.66,15.97],[-10.88,15.85],[-10.89,15.63],[-11.11,15.51],[-11.31,15.62],[-11.3,15.84],[-11.5,15.95],[-11.72,15.83],[-11.92,15.94],[-12.14,15.82],[-12.34,15.93],[-12.33,16.16],[-12.54,16.27],[-12.76,16.15],[-12.96,16.26],[-13.18,16.14],[-13.39,16.25],[-13.61,16.13],[-13.82,16.23],[-14.03,16.11],[-14.24,16.22],[-14.46,16.1],[-14.67,16.21],[-14.89,16.09],[-15.1,16.19],[-15.32,16.07],[-15.53,16.18],[-15.75,16.05],[-15.97,16.16],[-16.18,16.04],[-16.4,16.14],[-16.61,16.02],[-16.61,15.79],[-16.4,15.68],[-16.4,15.46],[-16.61,15.33],[-16.61,15.11],[-16.83,14.98],[-17.04,15.09],[-17.25,14.96],[-17.25,14.74],[-17.04,14.63],[-17.04,14.41],[-16.82,14.31],[-16.82,14.08],[-16.61,13.98],[-16.61,13.76],[-16.4,13.66],[-16.4,13.43],[-16.61,13.31],[-16.61,13.09],[-16.82,12.97],[-16.82,12.75],[-16.61,12.65],[-16.61,12.43],[-16.4,12.33],[-16.4,12.12],[-16.19,12.02],[-16.19,11.8],[-15.99,11.7],[-15.78,11.82],[-15.58,11.72],[-15.58,11.51],[-15.38,11.41],[-15.17,11.53],[-14.97,11.43],[-14.76,11.55],[-14.56,11.45],[-14.56,11.24],[-14.36,11.14],[-14.37,10.93],[-14.17,10.83],[-13.96,10.94],[-13.77,10.85],[-13.56,10.96],[-13.55,11.18],[-13.35,11.29],[-13.15,11.19],[-12.95,11.31],[-12.94,11.52],[-12.73,11.64],[-12.54,11.54],[-12.33,11.65],[-12.32,11.87],[-12.11,11.98],[-11.92,11.88],[-11.93,11.67],[-11.73,11.57],[-11.53,11.68],[-11.33,11.58],[-11.34,11.37],[-11.15,11.27],[-11.16,11.06],[-10.97,10.96],[-10.98,10.75],[-10.79,10.66],[-10.59,10.77],[-10.4,10.67],[-10.42,10.46],[-10.23,10.37],[-10.02,10.48],[-9.84,10.38],[-9.63,10.49],[-9.45,10.39],[-9.46,10.19],[-9.28,10.09],[-9.08,10.2],[-8.89,10.1],[-8.69,10.21],[-8.51,10.12],[-8.53,9.91],[-8.35,9.82],[-8.15,9.93],[-7.96,9.83],[-7.76,9.94],[-7.59,9.84],[-7.6,9.64],[-7.43,9.54],[-7.23,9.65],[-7.05,9.56],[-6.85,9.66],[-6.67,9.57],[-6.7,9.37],[-6.52,9.27],[-6.32,9.38],[-6.15,9.29],[-5.95,9.39],[-5.78,9.3],[-5.58,9.4],[-5.41,9.31],[-5.43,9.11],[-5.26,9.02],[-5.07,9.12],[-4.9,9.03],[-4.7,9.13],[-4.53,9.04],[-4.34,9.14],[-4.18,8.99],[-3.99,9.04],[-3.83,8.89],[-3.64,8.93],[-3.48,8.78],[-3.29,8.83],[-3.13,8.68],[-2.94,8.72],[-2.91,8.92],[-2.72,8.97],[-2.56,8.81],[-2.36,8.86],[-2.2,8.71],[-2.01,8.75],[-1.84,8.6],[-1.65,8.65],[-1.62,8.85],[-1.42,8.89],[-1.26,8.74],[-1.06,8.78],[-0.9,8.63],[-0.7,8.67],[-0.53,8.52],[-0.34,8.56],[-0.17,8.41],[0.03,8.45],[0.19,8.3],[0.39,8.34],[0.56,8.18],[0.52,7.98],[0.68,7.83],[0.88,7.87],[0.92,8.07],[1.13,8.12],[1.29,7.96],[1.49,8.0],[1.66,7.84],[1.86,7.89],[2.03,7.73],[2.23,7.77],[2.4,7.61],[2.6,7.66],[2.77,7.5],[2.97,7.54],[3.14,7.38],[3.34,7.42],[3.51,7.26],[3.72,7.31],[3.88,7.15],[4.09,7.19],[4.25,7.03],[4.47,7.07],[4.63,6.91],[4.84,6.95],[5.0,6.79],[5.22,6.83],[5.26,7.03],[5.48,7.07],[5.64,6.91],[5.86,6.95],[6.02,6.79],[5.97,6.59],[6.13,6.43],[6.35,6.47],[6.4,6.67],[6.61,6.71],[6.66,6.91],[6.88,6.95],[7.05,6.79],[6.99,6.59],[7.16,6.42],[7.37,6.46],[7.54,6.3],[7.75,6.34],[7.81,6.54],[8.03,6.58],[8.19,6.42],[8.41,6.46],[8.57,6.3],[8.52,6.09],[8.68,5.93],[8.9,5.97],[9.06,5.8],[9.0,5.6],[8.78,5.57],[8.73,5.37],[8.89,5.2],[8.83,5.0],[8.99,4.84],[9.21,4.88],[9.33,4.71],[9.55,4.75],[9.67,4.58],[9.89,4.61],[9.99,4.82],[10.21,4.86],[10.33,4.69],[10.23,4.48],[10.35,4.31],[10.58,4.34],[10.7,4.17],[10.92,4.21],[11.05,4.03],[10.95,3.83],[10.72,3.79],[10.62,3.58],[10.75,3.41],[10.65,3.2],[10.77,3.02],[10.67,2.81],[10.45,2.78],[10.35,2.56],[10.47,2.39],[10.7,2.42],[10.82,2.24],[10.72,2.03],[10.85,1.85],[10.75,1.64],[10.87,1.46],[10.77,1.25],[10.54,1.22],[10.44,1.0],[10.57,0.82],[10.79,0.85],[10.89,1.07],[11.12,1.1],[11.25,0.92],[11.47,0.95],[11.57,1.17],[11.8,1.2],[11.93,1.02],[12.16,1.05],[12.26,1.27],[12.49,1.3],[12.62,1.12],[12.85,1.15],[12.98,0.97],[12.88,0.75],[13.01,0.57],[13.24,0.6],[13.37,0.42],[13.27,0.2],[13.4,0.02],[13.63,0.05],[13.76,-0.14],[14.0,-0.11],[14.1,0.11],[14.33,0.15],[14.43,0.36],[14.67,0.4],[14.8,0.21],[15.04,0.24],[15.14,0.46],[15.37,0.5],[15.51,0.31],[15.75,0.34],[15.88,0.16],[16.12,0.19],[16.26,0.0],[16.16,-0.22],[16.29,-0.41],[16.53,-0.38],[16.67,-0.56],[16.57,-0.79],[16.71,-0.98],[16.95,-0.94],[17.09,-1.14],[16.98,-1.36],[17.12,-1.55],[17.02,-1.77],[16.78,-1.81],[16.68,-2.03],[16.82,-2.22],[16.72,-2.45],[16.47,-2.48],[16.37,-2.7],[16.51,-2.9],[16.41,-3.12],[16.17,-3.15],[16.03,-2.96],[15.79,-2.99],[15.69,-3.21],[15.45,-3.24],[15.31,-3.05],[15.07,-3.08],[14.97,-3.3],[15.1,-3.5],[15.0,-3.72],[15.14,-3.91],[15.38,-3.89],[15.52,-4.08],[15.41,-4.31],[15.55,-4.5],[15.45,-4.73],[15.21,-4.76],[15.1,-4.98],[14.86,-5.01],[14.76,-5.23],[14.9,-5.43],[14.79,-5.66],[14.55,-5.68],[14.45,-5.91],[14.58,-6.11],[14.48,-6.33],[14.24,-6.36],[14.13,-6.58],[13.89,-6.61],[13.79,-6.84],[13.55,-6.86],[13.45,-7.09],[13.58,-7.29],[13.48,-7.51],[13.24,-7.54],[13.13,-7.76],[13.27,-7.96],[13.16,-8.18],[13.3,-8.38],[13.54,-8.36],[13.68,-8.56],[13.57,-8.79],[13.33,-8.81],[13.22,-9.03],[13.36,-9.24],[13.26,-9.46],[13.39,-9.66],[13.29,-9.89],[13.42,-10.09],[13.67,-10.07],[13.8,-10.27],[13.7,-10.5],[13.84,-10.7],[13.73,-10.92],[13.87,-11.13],[13.76,-11.35],[13.9,-11.56],[13.79,-11.78],[13.93,-11.99],[13.83,-12.21],[13.58,-12.23],[13.47,-12.46],[13.23,-12.48],[13.12,-12.7],[12.88,-12.72],[12.77,-12.95],[12.91,-13.15],[12.8,-13.37],[12.56,-13.39],[12.45,-13.62],[12.59,-13.82],[12.48,-14.04],[12.24,-14.06],[12.13,-14.28],[12.27,-14.49],[12.16,-14.71],[12.29,-14.92],[12.19,-15.14],[11.94,-15.15],[11.83,-15.37],[11.97,-15.58],[11.86,-15.8],[11.62,-15.81],[11.51,-16.03],[11.65,-16.24],[11.54,-16.46],[11.67,-16.67],[11.57,-16.89],[11.7,-17.09],[11.59,-17.31],[11.73,-17.52],[11.62,-17.74],[11.76,-17.94],[11.65,-18.16],[11.79,-18.37],[12.04,-18.36],[12.18,-18.56],[12.07,-18.78],[12.21,-18.99],[12.46,-18.98],[12.6,-19.19],[12.49,-19.4],[12.63,-19.61],[12.88,-19.6],[13.02,-19.81],[12.91,-20.02],[13.05,-20.23],[12.94,-20.45],[13.09,-20.66],[13.34,-20.65],[13.48,-20.85],[13.37,-21.07],[13.52,-21.28],[13.77,-21.27],[13.92,-21.47],[13.8,-21.69],[13.95,-21.9],[14.21,-21.89],[14.35,-22.09],[14.24,-22.31],[14.39,-22.52],[14.28,-22.73],[14.42,-22.94],[14.31,-23.15],[14.46,-23.36],[14.35,-23.57],[14.5,-23.78],[14.38,-23.99],[14.53,-24.2],[14.42,-24.41],[14.57,-24.62],[14.83,-24.61],[14.98,-24.82],[14.86,-25.03],[15.01,-25.23],[14.9,-25.44],[15.05,-25.65],[14.94,-25.86],[15.09,-26.06],[14.98,-26.27],[15.13,-26.48],[15.39,-26.47],[15.51,-26.26],[15.77,-26.25],[15.88,-26.04],[15.73,-25.84],[15.84,-25.62],[15.69,-25.42],[15.81,-25.21],[16.07,-25.2],[16.18,-24.98],[16.03,-24.78],[16.14,-24.56],[15.99,-24.36],[16.1,-24.14],[15.95,-23.94],[16.06,-23.72],[16.33,-23.71],[16.44,-23.49],[16.7,-23.48],[16.86,-23.68],[17.12,-23.67],[17.27,-23.88],[17.16,-24.09],[17.32,-24.3],[17.2,-24.52],[17.36,-24.72],[17.25,-24.94],[17.4,-25.14],[17.29,-25.36],[17.44,-25.56],[17.71,-25.55],[17.87,-25.75],[17.75,-25.97],[17.91,-26.17],[18.18,-26.16],[18.29,-25.94],[18.14,-25.74],[18.25,-25.52],[18.52,-25.51],[18.67,-25.71],[18.94,-25.7],[19.1,-25.9],[19.37,-25.88],[19.53,-26.09],[19.8,-26.07],[19.96,-26.27],[20.24,-26.25],[20.4,-26.46],[20.29,-26.67],[20.45,-26.87],[20.72,-26.86],[20.83,-26.64],[21.11,-26.62],[21.22,-26.4],[21.49,-26.38],[21.6,-26.16],[21.88,-26.14],[22.04,-26.34],[22.32,-26.32],[22.43,-26.1],[22.7,-26.08],[22.81,-25.86],[23.09,-25.84],[23.25,-26.04],[23.53,-26.01],[23.64,-25.79],[23.91,-25.77],[24.08,-25.97],[24.36,-25.94],[24.52,-26.14],[24.8,-26.12],[24.97,-26.31],[25.24,-26.29],[25.35,-26.06],[25.63,-26.04],[25.8,-26.23],[26.07,-26.21],[26.24,-26.4],[26.52,-26.37],[26.69,-26.57],[26.97,-26.54],[27.14,-26.73],[27.42,-26.7],[27.59,-26.9],[27.87,-26.87],[28.04,-27.06],[28.32,-27.03],[28.42,-26.8],[28.25,-26.61],[28.36,-26.38],[28.64,-26.35],[28.74,-26.12],[29.02,-26.09],[29.12,-25.86],[29.4,-25.83],[29.51,-25.6],[29.78,-25.57],[29.89,-25.34],[29.71,-25.14],[29.82,-24.91],[30.09,-24.88],[30.27,-25.07],[30.54,-25.03],[30.71,-25.23],[30.61,-25.46],[30.78,-25.65],[30.68,-25.88],[30.85,-26.07],[31.13,-26.03],[31.3,-26.22],[31.2,-26.45],[30.92,-26.49],[30.82,-26.72],[30.99,-26.91],[30.89,-27.13],[31.07,-27.32],[30.96,-27.55],[31.14,-27.74],[31.03,-27.96],[31.21,-28.15],[31.1,-28.37],[31.28,-28.56],[31.18,-28.78],[30.9,-28.82],[30.72,-28.63],[30.44,-28.67],[30.27,-28.48],[29.99,-28.52],[29.88,-28.74],[30.05,-28.93],[30.34,-28.89],[30.51,-29.08],[30.79,-29.04],[30.97,-29.23],[30.86,-29.45],[30.58,-29.49],[30.48,-29.71],[30.19,-29.74],[30.09,-29.96],[30.27,-30.15],[30.16,-30.37],[29.88,-30.4],[29.77,-30.62],[29.95,-30.8],[29.84,-31.02],[29.56,-31.06],[29.45,-31.27],[29.17,-31.3],[29.06,-31.52],[28.77,-31.55],[28.66,-31.77],[28.84,-31.95],[28.73,-32.16],[28.45,-32.2],[28.34,-32.41],[28.05,-32.44],[27.88,-32.25],[27.59,-32.28],[27.48,-32.5],[27.66,-32.68],[27.55,-32.89],[27.26,-32.92],[27.08,-32.73],[26.8,-32.76],[26.62,-32.58],[26.34,-32.6],[26.23,-32.81],[25.94,-32.84],[25.83,-33.05],[25.54,-33.07],[25.37,-32.89],[25.08,-32.91],[24.91,-32.72],[24.62,-32.74],[24.51,-32.95],[24.22,-32.97],[24.11,-33.18],[23.83,-33.2],[23.71,-33.4],[23.43,-33.42],[23.26,-33.24],[22.97,-33.25],[22.86,-33.46],[22.57,-33.48],[22.4,-33.29],[22.12,-33.3],[22.0,-33.51],[21.72,-33.52],[21.55,-33.33],[21.27,-33.35],[21.15,-33.55],[20.87,-33.56],[20.7,-33.37],[20.42,-33.38],[20.3,-33.58],[20.02,-33.6],[19.9,-33.79],[19.62,-33.8],[19.45,-33.61],[19.17,-33.62],[19.01,-33.43],[18.73,-33.44],[18.61,-33.64],[18.77,-33.83],[18.66,-34.03],[18.38,-34.03],[18.26,-34.23],[18.42,-34.42],[18.71,-34.41],[18.87,-34.6],[19.15,-34.59],[19.32,-34.78],[19.6,-34.77],[19.77,-34.96],[20.05,-34.95],[20.17,-34.75],[20.45,-34.74],[20.57,-34.55],[20.85,-34.54],[21.02,-34.72],[21.31,-34.71],[21.42,-34.51],[21.71,-34.5],[21.88,-34.68],[22.17,-34.67],[22.28,-34.47],[22.11,-34.28],[22.23,-34.08],[22.51,-34.07],[22.68,-34.25],[22.97,-34.24],[23.14,-34.42],[23.43,-34.4],[23.54,-34.2],[23.83,-34.18],[24.0,-34.37],[24.29,-34.35],[24.46,-34.53],[24.75,-34.51],[24.87,-34.31],[25.15,-34.28],[25.27,-34.08],[25.55,-34.06],[25.73,-34.24],[26.02,-34.22],[26.13,-34.01],[26.42,-33.99],[26.53,-33.78],[26.82,-33.75],[26.99,-33.93],[27.28,-33.91],[27.39,-33.7],[27.68,-33.67],[27.79,-33.46],[28.08,-33.43],[28.19,-33.22],[28.01,-33.04],[28.12,-32.83],[28.41,-32.8],[28.52,-32.59],[28.8,-32.56],[28.91,-32.35],[29.2,-32.31],[29.3,-32.1],[29.59,-32.07],[29.7,-31.85],[29.98,-31.82],[30.09,-31.6],[30.37,-31.57],[30.48,-31.35],[30.3,-31.17],[30.41,-30.95],[30.69,-30.92],[30.8,-30.7],[31.08,-30.66],[31.18,-30.44],[31.01,-30.26],[31.11,-30.04],[31.39,-30.0],[31.5,-29.78],[31.32,-29.6],[31.42,-29.38],[31.71,-29.34],[31.81,-29.11],[32.09,-29.08],[32.19,-28.85],[32.47,-28.81],[32.57,-28.59],[32.85,-28.55],[32.95,-28.32],[32.78,-28.14],[32.88,-27.91],[32.7,-27.73],[32.81,-27.5],[33.08,-27.46],[33.18,-27.23],[33.01,-27.05],[33.11,-26.82],[32.93,-26.63],[33.03,-26.4],[33.31,-26.36],[33.41,-26.13],[33.24,-25.94],[33.34,-25.71],[33.61,-25.67],[33.71,-25.44],[33.98,-25.4],[34.08,-25.17],[34.35,-25.12],[34.45,-24.89],[34.73,-24.85],[34.9,-25.03],[35.17,-24.99],[35.27,-24.76],[35.54,-24.71],[35.64,-24.48],[35.46,-24.29],[35.56,-24.06],[35.83,-24.01],[35.93,-23.78],[35.75,-23.59],[35.85,-23.36],[35.67,-23.17],[35.77,-22.93],[35.6,-22.74],[35.69,-22.51]],[[31.35,12.16],[31.5,11.97],[31.39,11.75],[31.14,11.72],[31.0,11.91],[31.11,12.13],[31.35,12.16]],[[14.96,-7.78],[15.07,-7.56],[14.93,-7.36],[15.03,-7.13],[15.27,-7.1],[15.38,-6.88],[15.62,-6.85],[15.76,-7.05],[15.66,-7.28],[15.8,-7.48],[15.69,-7.7],[15.83,-7.9],[16.08,-7.88],[16.22,-8.08],[16.12,-8.31],[16.26,-8.51],[16.15,-8.74],[15.91,-8.76],[15.8,-8.99],[15.56,-9.02],[15.42,-8.81],[15.52,-8.59],[15.38,-8.39],[15.48,-8.16],[15.34,-7.96],[15.1,-7.98],[14.96,-7.78]],[[-3.55,14.89],[-3.35,14.95],[-3.18,14.79],[-3.21,14.58],[-3.41,14.52],[-3.58,14.67],[-3.55,14.89]],[[39.6,7.14],[39.83,7.17],[39.99,6.99],[39.91,6.78],[39.68,6.76],[39.52,6.94],[39.6,7.14]]],[[[-121.79,35.93],[-121.5,35.87],[-121.43,35.64],[-121.15,35.58],[-121.08,35.34],[-120.8,35.28],[-120.58,35.45],[-120.64,35.69],[-120.93,35.75],[-121.0,35.98],[-121.28,36.05],[-121.35,36.28],[-121.64,36.34],[-121.71,36.57],[-121.49,36.75],[-121.56,36.98],[-121.85,37.04],[-121.92,37.27],[-122.2,37.33],[-122.42,37.16],[-122.35,36.92],[-122.06,36.87],[-121.99,36.63],[-122.21,36.46],[-122.14,36.23],[-121.86,36.17],[-121.79,35.93]]],[[[13.07,-6.91],[12.83,-6.94],[12.73,-7.16],[12.86,-7.36],[13.1,-7.34],[13.21,-7.11],[13.07,-6.91]]],[[[14.63,-2.09],[14.49,-1.9],[14.26,-1.93],[14.16,-2.15],[14.29,-2.34],[14.19,-2.56],[14.32,-2.75],[14.56,-2.72],[14.66,-2.5],[14.9,-2.47],[15.04,-2.66],[15.27,-2.63],[15.41,-2.83],[15.65,-2.79],[15.75,-2.57],[15.99,-2.54],[16.1,-2.32],[15.96,-2.12],[15.72,-2.15],[15.58,-1.96],[15.34,-1.99],[15.24,-2.22],[15.0,-2.25],[14.87,-2.06],[14.63,-2.09]]],[[[-73.04,40.57],[-72.94,40.79],[-73.15,40.96],[-73.05,41.18],[-73.27,41.35],[-73.59,41.3],[-73.68,41.08],[-74.0,41.03],[-74.1,40.81],[-74.41,40.75],[-74.5,40.54],[-74.81,40.48],[-74.9,40.26],[-75.21,40.21],[-75.3,39.99],[-75.61,39.94],[-75.69,39.72],[-75.48,39.56],[-75.17,39.61],[-75.08,39.83],[-74.78,39.88],[-74.69,40.1],[-74.38,40.15],[-74.16,39.99],[-73.86,40.04],[-73.76,40.26],[-73.98,40.42],[-73.88,40.64],[-73.57,40.69],[-73.35,40.52],[-73.04,40.57]]],[[[-122.13,37.96],[-122.42,38.02],[-122.49,38.25],[-122.78,38.3],[-123.0,38.13],[-122.93,37.9],[-122.64,37.85],[-122.56,37.62],[-122.27,37.56],[-122.06,37.73],[-122.13,37.96]]],[[[-118.67,34.33],[-118.89,34.16],[-118.83,33.92],[-118.55,33.85],[-118.49,33.61],[-118.2,33.53],[-117.98,33.7],[-118.04,33.95],[-118.32,34.02],[-118.39,34.26],[-118.67,34.33]]],[[[47.51,10.89],[47.29,10.87],[47.17,10.68],[47.27,10.5],[47.48,10.52],[47.6,10.71],[47.51,10.89]]],[[[-120.44,34.97],[-120.73,35.04],[-120.95,34.87],[-120.88,34.63],[-120.6,34.56],[-120.53,34.33],[-120.25,34.26],[-120.03,34.43],[-120.09,34.67],[-120.38,34.74],[-120.44,34.97]]]]}}]}