{"type":"FeatureCollection","features":[{"type":"Feature","properties":{},"geometry":{"type":"MultiPolygon","coordinates":[[[[-76.64,-9.55],[-76.87,-9.44],[-76.9,-9.18],[-77.13,-9.08],[-77.34,-9.23],[-77.58,-9.12],[-77.79,-9.27],[-77.76,-9.52],[-77.53,-9.63],[-77.51,-9.88],[-77.27,-9.99],[-77.25,-10.25],[-77.01,-10.35],[-76.99,-10.61],[-76.75,-10.71],[-76.73,-10.97],[-76.94,-11.12],[-76.91,-11.37],[-76.68,-11.48],[-76.65,-11.73],[-76.42,-11.84],[-76.39,-12.09],[-76.15,-12.19],[-76.13,-12.45],[-75.89,-12.55],[-75.87,-12.81],[-75.63,-12.91],[-75.61,-13.16],[-75.37,-13.26],[-75.34,-13.52],[-75.11,-13.62],[-75.08,-13.87],[-74.84,-13.97],[-74.82,-14.23],[-74.58,-14.33],[-74.56,-14.58],[-74.32,-14.68],[-74.11,-14.53],[-73.87,-14.63],[-73.85,-14.88],[-73.61,-14.98],[-73.58,-15.23],[-73.35,-15.32],[-73.14,-15.17],[-72.91,-15.27],[-72.88,-15.52],[-72.64,-15.62],[-72.61,-15.86],[-72.38,-15.96],[-72.17,-15.81],[-71.94,-15.9],[-71.91,-16.15],[-71.68,-16.25],[-71.65,-16.49],[-71.41,-16.59],[-71.38,-16.83],[-71.15,-16.93],[-70.95,-16.78],[-70.71,-16.87],[-70.68,-17.11],[-70.45,-17.21],[-70.42,-17.45],[-70.19,-17.54],[-70.16,-17.78],[-69.92,-17.87],[-69.89,-18.12],[-69.66,-18.21],[-69.63,-18.45],[-69.4,-18.54],[-69.2,-18.38],[-68.97,-18.47],[-68.94,-18.71],[-68.7,-18.8],[-68.5,-18.65],[-68.27,-18.73],[-68.07,-18.58],[-67.84,-18.66],[-67.64,-18.51],[-67.67,-18.27],[-67.48,-18.12],[-67.25,-18.2],[-67.22,-18.44],[-66.99,-18.53],[-66.79,-18.37],[-66.57,-18.46],[-66.37,-18.3],[-66.4,-18.06],[-66.63,-17.98],[-66.66,-17.74],[-66.46,-17.58],[-66.5,-17.34],[-66.3,-17.19],[-66.33,-16.95],[-66.56,-16.86],[-66.75,-17.02],[-66.98,-16.93],[-67.01,-16.69],[-67.24,-16.6],[-67.43,-16.76],[-67.66,-16.67],[-67.69,-16.43],[-67.92,-16.34],[-67.95,-16.1],[-68.18,-16.01],[-68.21,-15.76],[-68.44,-15.67],[-68.47,-15.43],[-68.7,-15.34],[-68.73,-15.09],[-68.96,-15.0],[-68.99,-14.75],[-69.22,-14.66],[-69.25,-14.42],[-69.47,-14.32],[-69.5,-14.07],[-69.73,-13.98],[-69.76,-13.73],[-69.99,-13.64],[-70.19,-13.79],[-70.42,-13.69],[-70.45,-13.45],[-70.68,-13.35],[-70.89,-13.5],[-71.12,-13.4],[-71.15,-13.16],[-71.38,-13.06],[-71.58,-13.21],[-71.81,-13.11],[-71.84,-12.86],[-72.07,-12.76],[-72.28,-12.91],[-72.51,-12.81],[-72.71,-12.97],[-72.95,-12.87],[-73.15,-13.02],[-73.13,-13.27],[-73.33,-13.42],[-73.57,-13.32],[-73.59,-13.07],[-73.83,-12.97],[-73.85,-12.72],[-74.09,-12.61],[-74.12,-12.36],[-74.35,-12.26],[-74.56,-12.41],[-74.79,-12.31],[-74.82,-12.06],[-74.61,-11.9],[-74.64,-11.65],[-74.87,-11.55],[-74.9,-11.3],[-75.13,-11.19],[-75.34,-11.34],[-75.58,-11.24],[-75.6,-10.98],[-75.84,-10.88],[-75.86,-10.63],[-75.65,-10.48],[-75.68,-10.22],[-75.91,-10.12],[-76.12,-10.27],[-76.36,-10.16],[-76.38,-9.91],[-76.17,-9.76],[-76.2,-9.5],[-76.43,-9.4],[-76.64,-9.55]]],[[[144.37,-38.04],[144.07,-38.12],[144.0,-38.37],[144.25,-38.53],[144.55,-38.45],[144.8,-38.62],[145.1,-38.54],[145.16,-38.29],[145.46,-38.2],[145.52,-37.95],[145.28,-37.79],[145.33,-37.54],[145.09,-37.37],[144.79,-37.45],[144.73,-37.7],[144.43,-37.79],[144.37,-38.04]]],[[[-70.77,43.35],[-71.11,43.3],[-71.22,43.08],[-71.0,42.9],[-70.68,42.95],[-70.56,43.17],[-70.77,43.35]]],[[[-78.24,0.37],[-78.45,0.23],[-78.43,-0.01],[-78.63,-0.16],[-78.61,-0.4],[-78.82,-0.55],[-78.79,-0.79],[-79.0,-0.94],[-78.98,-1.19],[-79.18,-1.33],[-79.16,-1.58],[-78.93,-1.69],[-78.91,-1.94],[-79.12,-2.08],[-79.09,-2.33],[-78.86,-2.44],[-78.84,-2.69],[-79.05,-2.84],[-79.03,-3.09],[-78.79,-3.2],[-78.59,-3.05],[-78.61,-2.8],[-78.4,-2.66],[-78.43,-2.41],[-78.22,-2.26],[-78.24,-2.01],[-78.47,-1.9],[-78.49,-1.65],[-78.29,-1.51],[-78.31,-1.26],[-78.1,-1.12],[-78.13,-0.87],[-77.92,-0.73],[-77.95,-0.48],[-77.74,-0.34],[-77.76,-0.09],[-77.99,0.02],[-78.02,0.27],[-78.24,0.37]]],[[[-72.63,41.45],[-72.85,41.62],[-73.17,41.57],[-73.27,41.35],[-73.05,41.18],[-72.74,41.23],[-72.63,41.45]]],[[[-77.36,39.0],[-77.14,38.84],[-76.85,38.9],[-76.77,39.12],[-76.99,39.27],[-77.29,39.22],[-77.36,39.0]]],[[[151.21,-34.25],[151.25,-34.0],[151.0,-33.84],[150.71,-33.94],[150.68,-34.2],[150.92,-34.35],[151.21,-34.25]]],[[[121.32,24.78],[121.55,24.88],[121.59,25.1],[121.4,25.22],[121.17,25.12],[121.13,24.9],[121.32,24.78]]],[[[-73.68,41.08],[-74.0,41.03],[-74.1,40.81],[-73.88,40.64],[-73.57,40.69],[-73.47,40.91],[-73.68,41.08]]],[[[150.77,-35.37],[150.81,-35.12],[150.56,-34.96],[150.27,-35.06],[150.22,-35.32],[149.93,-35.41],[149.89,-35.67],[150.14,-35.83],[150.43,-35.73],[150.47,-35.47],[150.77,-35.37]]],[[[18.26,-34.23],[18.42,-34.42],[18.71,-34.41],[18.82,-34.22],[18.66,-34.03],[18.77,-33.83],[18.61,-33.64],[18.33,-33.65],[18.21,-33.84],[18.38,-34.03],[18.26,-34.23]]],[[[-2.76,53.56],[-2.81,53.35],[-2.52,53.19],[-2.18,53.25],[-2.12,53.47],[-2.41,53.63],[-2.76,53.56]]],[[[-122.06,37.73],[-122.13,37.96],[-122.42,38.02],[-122.49,38.25],[-122.78,38.3],[-123.0,38.13],[-122.93,37.9],[-122.64,37.85],[-122.56,37.62],[-122.27,37.56],[-122.06,37.73]]],[[[-104.74,40.5],[-105.03,40.59],[-105.3,40.46],[-105.26,40.22],[-104.96,40.12],[-104.93,39.88],[-104.63,39.78],[-104.37,39.92],[-104.41,40.16],[-104.7,40.26],[-104.74,40.5]]],[[[-122.5,47.49],[-122.17,47.45],[-121.93,47.61],[-122.01,47.81],[-122.33,47.86],[-122.57,47.69],[-122.5,47.49]]]]}}]}