{"type":"FeatureCollection","features":[{"type":"Feature","properties":{},"geometry":{"type":"MultiPolygon","coordinates":[[[[73.14,40.49],[73.18,40.24],[72.91,40.09],[72.6,40.18],[72.34,40.03],[72.03,40.13],[71.76,39.97],[71.45,40.07],[71.19,39.91],[70.88,40.0],[70.62,39.84],[70.3,39.94],[70.04,39.78],[69.73,39.87],[69.48,39.71],[69.16,39.8],[68.91,39.63],[68.59,39.72],[68.34,39.56],[68.03,39.64],[67.78,39.48],[67.84,39.23],[67.59,39.07],[67.28,39.15],[67.03,38.98],[67.09,38.74],[67.4,38.65],[67.65,38.82],[67.96,38.73],[68.21,38.89],[68.52,38.81],[68.77,38.97],[69.08,38.88],[69.13,38.63],[69.44,38.54],[69.69,38.7],[70.0,38.61],[70.05,38.36],[70.35,38.27],[70.4,38.02],[70.15,37.86],[70.2,37.61],[70.5,37.52],[70.55,37.27],[70.85,37.18],[70.89,36.93],[70.65,36.78],[70.35,36.87],[70.1,36.71],[70.15,36.46],[69.91,36.3],[69.61,36.39],[69.37,36.24],[69.42,35.99],[69.18,35.83],[69.23,35.58],[68.99,35.43],[68.7,35.51],[68.46,35.35],[68.17,35.44],[68.11,35.68],[67.82,35.77],[67.58,35.61],[67.29,35.69],[67.06,35.53],[66.76,35.61],[66.7,35.86],[66.4,35.94],[66.17,35.77],[65.87,35.85],[65.64,35.69],[65.71,35.45],[65.48,35.28],[65.19,35.36],[64.96,35.19],[65.03,34.95],[64.8,34.79],[64.51,34.86],[64.29,34.7],[64.36,34.46],[64.65,34.38],[64.72,34.14],[64.49,33.98],[64.56,33.74],[64.85,33.66],[65.07,33.82],[65.36,33.75],[65.58,33.91],[65.87,33.83],[66.09,33.99],[66.38,33.91],[66.44,33.67],[66.73,33.59],[66.79,33.35],[66.56,33.19],[66.62,32.95],[66.91,32.87],[67.13,33.03],[67.41,32.95],[67.64,33.1],[67.92,33.02],[68.15,33.18],[68.09,33.42],[68.32,33.58],[68.27,33.82],[68.5,33.98],[68.45,34.22],[68.68,34.38],[68.97,34.29],[69.2,34.45],[69.15,34.69],[68.86,34.78],[68.81,35.02],[69.04,35.18],[69.34,35.09],[69.57,35.25],[69.86,35.16],[69.91,34.92],[70.2,34.83],[70.44,34.98],[70.73,34.89],[70.97,35.05],[71.26,34.95],[71.5,35.11],[71.46,35.35],[71.7,35.51],[71.99,35.41],[72.03,35.17],[72.32,35.07],[72.56,35.22],[72.85,35.13],[73.1,35.28],[73.38,35.18],[73.42,34.93],[73.17,34.78],[73.21,34.54],[73.49,34.44],[73.73,34.59],[74.02,34.49],[74.26,34.64],[74.54,34.54],[74.57,34.29],[74.85,34.19],[74.88,33.95],[75.16,33.85],[75.19,33.6],[75.46,33.5],[75.49,33.26],[75.76,33.16],[75.78,32.92],[76.05,32.81],[76.08,32.57],[76.35,32.47],[76.37,32.23],[76.63,32.13],[76.88,32.27],[77.14,32.16],[77.16,31.92],[77.43,31.82],[77.44,31.58],[77.71,31.48],[77.72,31.24],[77.98,31.14],[78.0,30.9],[78.26,30.79],[78.5,30.93],[78.75,30.82],[78.77,30.59],[79.02,30.48],[79.26,30.62],[79.52,30.51],[79.53,30.27],[79.78,30.17],[79.79,29.93],[80.04,29.83],[80.28,29.96],[80.52,29.85],[80.76,29.98],[81.01,29.88],[81.02,29.64],[81.26,29.54],[81.27,29.3],[81.51,29.2],[81.75,29.32],[81.99,29.22],[81.99,28.98],[82.23,28.88],[82.47,29.0],[82.71,28.89],[82.71,28.66],[82.95,28.55],[82.95,28.32],[83.18,28.22],[83.42,28.34],[83.65,28.23],[83.89,28.35],[84.12,28.24],[84.36,28.36],[84.59,28.26],[84.83,28.37],[85.06,28.27],[85.05,28.04],[85.28,27.93],[85.52,28.04],[85.74,27.93],[85.98,28.05],[86.21,27.94],[86.2,27.71],[86.42,27.59],[86.66,27.71],[86.89,27.59],[87.13,27.71],[87.36,27.59],[87.35,27.36],[87.57,27.25],[87.82,27.36],[88.04,27.24],[88.29,27.36],[88.3,27.59],[88.54,27.7],[88.77,27.59],[88.76,27.35],[88.99,27.23],[89.23,27.35],[89.46,27.23],[89.44,26.99],[89.67,26.87],[89.92,26.98],[89.93,27.22],[90.18,27.33],[90.4,27.21],[90.65,27.32],[90.88,27.2],[91.12,27.31],[91.14,27.54],[91.39,27.65],[91.62,27.53],[91.6,27.29],[91.83,27.17],[92.08,27.28],[92.31,27.15],[92.55,27.26],[92.57,27.49],[92.82,27.6],[92.84,27.84],[93.08,27.94],[93.1,28.17],[93.35,28.28],[93.58,28.15],[93.83,28.26],[93.85,28.49],[94.1,28.59],[94.12,28.83],[94.37,28.93],[94.39,29.16],[94.64,29.26],[94.87,29.13],[95.12,29.24],[95.14,29.46],[95.39,29.57],[95.62,29.44],[95.6,29.21],[95.83,29.08],[96.08,29.18],[96.31,29.05],[96.29,28.82],[96.04,28.72],[96.02,28.49],[96.25,28.36],[96.5,28.46],[96.73,28.33],[96.98,28.43],[97.21,28.3],[97.19,28.06],[97.42,27.93],[97.67,28.03],[97.9,27.9],[98.15,27.99],[98.17,28.22],[98.42,28.32],[98.65,28.19],[98.9,28.28],[99.13,28.15],[99.38,28.24],[99.6,28.11],[99.58,27.87],[99.81,27.74],[100.06,27.83],[100.08,28.06],[100.33,28.16],[100.56,28.02],[100.81,28.11],[100.83,28.34],[101.08,28.43],[101.31,28.29],[101.56,28.38],[101.58,28.61],[101.83,28.7],[101.86,28.93],[102.11,29.02],[102.14,29.25],[101.91,29.39],[101.94,29.61],[102.19,29.7],[102.21,29.92],[101.99,30.06],[102.01,30.29],[102.26,30.37],[102.29,30.6],[102.54,30.68],[102.57,30.9],[102.82,30.99],[103.05,30.85],[103.3,30.93],[103.32,31.15],[103.1,31.29],[103.12,31.51],[103.38,31.59],[103.4,31.81],[103.18,31.95],[103.2,32.17],[102.98,32.3],[103.0,32.52],[103.26,32.6],[103.28,32.82],[103.54,32.89],[103.76,32.76],[104.02,32.84],[104.04,33.05],[103.82,33.19],[103.85,33.4],[103.62,33.54],[103.37,33.46],[103.34,33.24],[103.08,33.16],[103.06,32.95],[102.8,32.87],[102.58,33.0],[102.6,33.22],[102.37,33.35],[102.12,33.27],[101.89,33.4],[101.92,33.62],[101.69,33.75],[101.71,33.96],[101.97,34.04],[102.2,33.91],[102.45,33.99],[102.48,34.2],[102.25,34.33],[102.28,34.55],[102.05,34.68],[102.07,34.89],[102.33,34.96],[102.4,35.19],[102.21,35.33],[101.95,35.25],[101.76,35.4],[101.83,35.62],[101.64,35.76],[101.38,35.68],[101.31,35.46],[101.05,35.38],[100.99,35.15],[100.73,35.07],[100.53,35.21],[100.27,35.13],[100.08,35.27],[100.14,35.5],[99.94,35.64],[100.0,35.87],[99.8,36.01],[99.86,36.24],[99.66,36.39],[99.4,36.3],[99.19,36.45],[98.92,36.36],[98.72,36.51],[98.45,36.42],[98.39,36.19],[98.12,36.1],[98.07,35.87],[97.8,35.78],[97.59,35.92],[97.32,35.83],[97.11,35.97],[96.84,35.88],[96.63,36.02],[96.68,36.25],[96.46,36.39],[96.2,36.3],[95.98,36.44],[95.71,36.35],[95.66,36.11],[95.39,36.02],[95.17,36.16],[94.9,36.06],[94.67,36.2],[94.4,36.1],[94.18,36.24],[93.91,36.14],[93.68,36.28],[93.72,36.51],[93.49,36.65],[93.22,36.55],[92.99,36.69],[92.71,36.59],[92.48,36.72],[92.52,36.96],[92.28,37.1],[92.32,37.34],[92.08,37.48],[91.8,37.37],[91.56,37.51],[91.6,37.75],[91.35,37.89],[91.08,37.78],[90.83,37.92],[90.55,37.81],[90.3,37.95],[90.33,38.19],[90.61,38.3],[90.65,38.54],[90.93,38.65],[90.96,38.89],[90.71,39.03],[90.43,38.92],[90.18,39.06],[89.89,38.95],[89.64,39.09],[89.35,38.98],[89.32,38.73],[89.04,38.62],[88.78,38.75],[88.5,38.64],[88.48,38.39],[88.2,38.28],[87.94,38.41],[87.66,38.3],[87.4,38.43],[87.12,38.31],[87.1,38.06],[86.82,37.94],[86.56,38.07],[86.28,37.95],[86.26,37.71],[85.99,37.59],[85.73,37.71],[85.45,37.59],[85.44,37.34],[85.16,37.22],[84.9,37.35],[84.62,37.22],[84.36,37.35],[84.08,37.22],[84.08,36.97],[83.81,36.85],[83.54,36.97],[83.27,36.84],[83.0,36.96],[82.73,36.84],[82.73,36.59],[82.46,36.46],[82.19,36.58],[81.92,36.45],[81.65,36.56],[81.38,36.43],[81.11,36.55],[80.84,36.42],[80.57,36.53],[80.56,36.78],[80.29,36.89],[80.02,36.76],[79.74,36.87],[79.47,36.74],[79.2,36.85],[79.18,37.1],[78.9,37.21],[78.63,37.07],[78.35,37.18],[78.09,37.04],[77.8,37.15],[77.78,37.4],[77.5,37.51],[77.23,37.37],[76.95,37.48],[76.92,37.73],[76.63,37.84],[76.61,38.09],[76.88,38.23],[76.85,38.48],[76.56,38.59],[76.29,38.45],[76.0,38.55],[75.97,38.8],[75.67,38.91],[75.64,39.16],[75.34,39.27],[75.31,39.52],[75.59,39.67],[75.56,39.92],[75.83,40.07],[76.13,39.96],[76.41,40.11],[76.71,40.0],[76.98,40.14],[76.96,40.4],[77.24,40.54],[77.54,40.43],[77.82,40.57],[78.12,40.46],[78.4,40.6],[78.7,40.49],[78.98,40.63],[78.96,40.88],[78.66,41.0],[78.65,41.25],[78.93,41.39],[79.23,41.27],[79.52,41.41],[79.51,41.67],[79.8,41.8],[80.1,41.69],[80.39,41.82],[80.69,41.7],[80.98,41.84],[81.27,41.71],[81.57,41.85],[81.56,42.1],[81.86,42.23],[82.15,42.11],[82.45,42.24],[82.45,42.49],[82.74,42.62],[83.04,42.5],[83.04,42.24],[83.33,42.12],[83.63,42.24],[83.92,42.12],[84.22,42.24],[84.5,42.11],[84.8,42.24],[85.09,42.11],[85.39,42.23],[85.4,42.48],[85.7,42.6],[85.99,42.47],[86.29,42.59],[86.57,42.45],[86.87,42.57],[87.15,42.44],[87.45,42.55],[87.47,42.8],[87.78,42.92],[87.8,43.17],[87.52,43.31],[87.21,43.19],[86.93,43.33],[86.95,43.58],[86.66,43.71],[86.35,43.6],[86.06,43.73],[85.75,43.61],[85.46,43.75],[85.48,44.0],[85.18,44.13],[84.87,44.01],[84.57,44.14],[84.27,44.02],[83.97,44.15],[83.66,44.02],[83.36,44.15],[83.05,44.02],[83.05,43.77],[83.35,43.64],[83.66,43.77],[83.95,43.64],[83.95,43.39],[83.65,43.26],[83.35,43.39],[83.05,43.26],[83.04,43.01],[82.74,42.88],[82.45,43.0],[82.15,42.87],[81.85,43.0],[81.55,42.87],[81.25,42.99],[80.95,42.85],[80.96,42.6],[80.66,42.47],[80.36,42.59],[80.35,42.84],[80.64,42.98],[80.64,43.23],[80.33,43.35],[80.03,43.22],[79.72,43.33],[79.43,43.2],[79.44,42.94],[79.15,42.8],[78.84,42.92],[78.54,42.78],[78.56,42.52],[78.27,42.38],[77.96,42.5],[77.67,42.36],[77.69,42.1],[77.41,41.96],[77.1,42.07],[77.07,42.32],[76.76,42.44],[76.48,42.29],[76.16,42.4],[76.13,42.65],[76.42,42.8],[76.74,42.69],[77.03,42.84],[77.34,42.72],[77.63,42.87],[77.94,42.75],[78.23,42.9],[78.21,43.15],[77.9,43.27],[77.61,43.12],[77.29,43.24],[77.0,43.09],[76.68,43.2],[76.39,43.06],[76.08,43.17],[75.79,43.02],[75.82,42.76],[75.53,42.62],[75.21,42.72],[74.93,42.57],[74.61,42.68],[74.33,42.53],[74.01,42.63],[73.73,42.48],[73.41,42.58],[73.37,42.84],[73.04,42.94],[72.76,42.78],[72.44,42.88],[72.16,42.72],[72.21,42.47],[71.93,42.31],[71.61,42.41],[71.34,42.25],[71.01,42.35],[70.96,42.6],[70.64,42.69],[70.36,42.53],[70.42,42.28],[70.15,42.12],[70.2,41.87],[69.93,41.7],[69.99,41.45],[70.31,41.36],[70.36,41.11],[70.68,41.01],[70.94,41.17],[70.89,41.43],[71.16,41.58],[71.48,41.49],[71.75,41.65],[72.07,41.55],[72.34,41.71],[72.3,41.96],[72.57,42.12],[72.89,42.02],[73.17,42.17],[73.49,42.07],[73.53,41.82],[73.25,41.66],[72.93,41.76],[72.66,41.61],[72.7,41.35],[73.02,41.25],[73.29,41.41],[73.61,41.31],[73.64,41.05],[73.96,40.95],[73.99,40.7],[73.72,40.54],[73.41,40.65],[73.14,40.49]],[[101.89,31.31],[102.14,31.4],[102.37,31.26],[102.34,31.04],[102.09,30.95],[102.06,30.73],[101.81,30.65],[101.58,30.78],[101.61,31.0],[101.86,31.09],[101.89,31.31]]],[[[21.36,40.64],[21.15,40.83],[21.26,41.06],[21.05,41.24],[21.17,41.47],[20.95,41.66],[21.07,41.89],[20.85,42.08],[20.52,42.03],[20.41,41.8],[20.62,41.62],[20.51,41.39],[20.18,41.34],[20.06,41.11],[20.28,40.93],[20.17,40.69],[19.84,40.65],[19.73,40.42],[19.94,40.23],[19.83,40.0],[20.04,39.81],[20.36,39.86],[20.58,39.67],[20.46,39.43],[20.67,39.25],[20.99,39.29],[21.2,39.1],[21.52,39.14],[21.73,38.95],[21.62,38.72],[21.82,38.52],[22.14,38.57],[22.35,38.37],[22.67,38.41],[22.78,38.64],[22.58,38.84],[22.26,38.8],[22.05,38.99],[22.17,39.22],[21.96,39.42],[21.64,39.37],[21.43,39.56],[21.55,39.8],[21.87,39.84],[21.99,40.07],[21.78,40.26],[21.89,40.49],[21.68,40.68],[21.36,40.64]]],[[[10.29,44.24],[10.52,44.08],[10.85,44.15],[10.94,44.38],[10.7,44.54],[10.38,44.47],[10.14,44.63],[9.82,44.55],[9.58,44.71],[9.26,44.63],[9.17,44.4],[9.41,44.25],[9.73,44.32],[9.97,44.17],[10.29,44.24]]],[[[-1.75,43.17],[-1.99,43.33],[-2.28,43.25],[-2.53,43.41],[-2.82,43.33],[-3.07,43.48],[-3.36,43.4],[-3.61,43.56],[-3.91,43.47],[-3.95,43.23],[-4.24,43.15],[-4.5,43.3],[-4.79,43.21],[-5.05,43.37],[-5.35,43.28],[-5.61,43.43],[-5.9,43.34],[-6.16,43.49],[-6.46,43.4],[-6.73,43.55],[-7.02,43.46],[-7.05,43.22],[-7.35,43.12],[-7.38,42.88],[-7.12,42.73],[-7.15,42.49],[-7.44,42.39],[-7.47,42.15],[-7.21,42.0],[-6.92,42.09],[-6.66,41.95],[-6.37,42.04],[-6.33,42.28],[-6.04,42.37],[-6.01,42.62],[-5.71,42.71],[-5.46,42.56],[-5.16,42.65],[-4.91,42.49],[-4.62,42.58],[-4.58,42.82],[-4.28,42.91],[-4.03,42.76],[-3.74,42.84],[-3.49,42.69],[-3.2,42.77],[-2.95,42.61],[-2.66,42.7],[-2.42,42.54],[-2.13,42.62],[-2.08,42.86],[-1.79,42.94],[-1.55,42.78],[-1.6,42.54],[-1.36,42.39],[-1.07,42.46],[-0.84,42.31],[-0.55,42.38],[-0.32,42.22],[-0.03,42.3],[0.2,42.14],[0.48,42.21],[0.71,42.06],[0.99,42.13],[1.22,41.97],[1.5,42.06],[1.73,41.92],[2.02,42.01],[2.08,42.24],[2.37,42.34],[2.43,42.57],[2.2,42.71],[2.26,42.94],[2.02,43.08],[1.73,42.99],[1.5,43.12],[1.21,43.05],[0.98,43.22],[0.7,43.14],[0.47,43.31],[0.18,43.23],[-0.06,43.39],[-0.35,43.32],[-0.4,43.09],[-0.69,43.01],[-0.92,43.17],[-1.21,43.09],[-1.45,43.25],[-1.75,43.17]]],[[[-4.37,33.91],[-4.4,33.66],[-4.18,33.52],[-3.92,33.61],[-3.88,33.86],[-4.11,34.0],[-4.37,33.91]]],[[[10.82,45.61],[11.06,45.46],[11.39,45.53],[11.48,45.75],[11.82,45.82],[12.05,45.66],[12.39,45.73],[12.48,45.96],[12.82,46.02],[12.92,46.25],[13.25,46.31],[13.49,46.15],[13.39,45.93],[13.63,45.76],[13.97,45.83],[14.2,45.66],[14.54,45.73],[14.78,45.56],[14.67,45.33],[14.34,45.27],[14.24,45.05],[13.9,44.98],[13.8,44.76],[14.04,44.59],[14.37,44.65],[14.6,44.49],[14.5,44.26],[14.73,44.09],[14.63,43.86],[14.86,43.69],[15.19,43.75],[15.42,43.58],[15.75,43.64],[15.98,43.47],[15.87,43.24],[16.1,43.06],[16.43,43.12],[16.66,42.94],[16.55,42.71],[16.78,42.54],[17.11,42.59],[17.21,42.82],[17.54,42.88],[17.65,43.11],[17.43,43.28],[17.54,43.51],[17.87,43.56],[18.09,43.39],[17.98,43.16],[18.21,42.98],[18.1,42.75],[18.32,42.57],[18.21,42.34],[18.43,42.16],[18.76,42.21],[18.98,42.03],[19.31,42.08],[19.42,42.31],[19.75,42.35],[19.87,42.58],[20.2,42.63],[20.32,42.86],[20.1,43.04],[20.21,43.27],[19.99,43.45],[19.66,43.4],[19.44,43.58],[19.1,43.53],[18.88,43.71],[18.99,43.94],[18.77,44.12],[18.43,44.07],[18.32,43.84],[17.98,43.79],[17.75,43.97],[17.87,44.19],[17.64,44.37],[17.3,44.32],[17.07,44.49],[16.74,44.44],[16.51,44.61],[16.17,44.55],[15.94,44.72],[15.6,44.66],[15.37,44.83],[15.48,45.06],[15.24,45.23],[15.35,45.45],[15.11,45.62],[15.22,45.85],[14.98,46.01],[15.09,46.23],[15.43,46.29],[15.54,46.52],[15.88,46.57],[15.99,46.8],[16.33,46.85],[16.44,47.07],[16.21,47.24],[16.32,47.46],[16.08,47.62],[16.19,47.84],[15.95,48.01],[15.6,47.95],[15.36,48.11],[15.01,48.05],[14.9,47.83],[14.55,47.77],[14.31,47.93],[13.96,47.87],[13.72,48.03],[13.37,47.97],[13.13,48.12],[12.78,48.06],[12.54,48.21],[12.2,48.14],[12.1,47.92],[11.76,47.86],[11.51,48.01],[11.17,47.94],[10.92,48.09],[10.58,48.02],[10.34,48.17],[10.0,48.09],[9.91,47.87],[9.57,47.8],[9.32,47.95],[8.99,47.87],[8.9,47.65],[8.57,47.57],[8.32,47.72],[8.41,47.94],[8.16,48.08],[7.83,48.0],[7.74,47.78],[7.99,47.64],[7.91,47.41],[7.58,47.34],[7.33,47.48],[7.01,47.4],[6.93,47.17],[6.6,47.09],[6.36,47.23],[6.03,47.15],[5.96,46.93],[6.2,46.78],[6.13,46.56],[5.81,46.48],[5.73,46.25],[5.42,46.16],[5.34,45.94],[5.03,45.85],[4.96,45.63],[4.65,45.54],[4.58,45.31],[4.27,45.22],[4.2,45.0],[3.89,44.91],[3.65,45.05],[3.35,44.96],[3.11,45.1],[3.17,45.32],[2.93,45.46],[2.63,45.37],[2.57,45.14],[2.81,45.01],[2.74,44.78],[2.98,44.64],[2.92,44.41],[3.16,44.27],[3.09,44.04],[2.8,43.95],[2.73,43.72],[2.44,43.63],[2.38,43.4],[2.61,43.26],[2.91,43.35],[2.97,43.58],[3.27,43.67],[3.33,43.9],[3.63,43.99],[3.7,44.22],[4.0,44.31],[4.07,44.54],[4.37,44.63],[4.44,44.86],[4.75,44.94],[4.99,44.8],[4.92,44.57],[5.16,44.43],[5.09,44.2],[5.32,44.05],[5.63,44.14],[5.87,43.99],[6.18,44.07],[6.41,43.93],[6.34,43.69],[6.58,43.54],[6.89,43.63],[6.96,43.86],[7.27,43.94],[7.51,43.79],[7.82,43.87],[7.9,44.1],[8.22,44.17],[8.3,44.4],[8.06,44.56],[7.75,44.48],[7.51,44.63],[7.59,44.86],[7.9,44.94],[7.98,45.17],[7.74,45.31],[7.82,45.54],[8.15,45.62],[8.39,45.47],[8.71,45.55],[8.79,45.78],[9.12,45.85],[9.36,45.7],[9.69,45.78],[9.93,45.62],[10.25,45.7],[10.49,45.54],[10.82,45.61]],[[18.87,42.44],[18.65,42.62],[18.76,42.85],[19.1,42.9],[19.32,42.72],[19.2,42.49],[18.87,42.44]],[[15.73,44.27],[15.63,44.04],[15.29,43.98],[15.06,44.15],[15.17,44.38],[15.5,44.44],[15.73,44.27]]],[[[96.22,48.14],[96.55,48.22],[96.82,48.06],[96.75,47.82],[97.01,47.66],[97.34,47.74],[97.61,47.58],[97.93,47.66],[98.0,47.9],[98.33,47.98],[98.59,47.82],[98.92,47.89],[99.17,47.73],[99.5,47.8],[99.75,47.64],[100.08,47.71],[100.16,47.95],[100.49,48.02],[100.57,48.26],[100.9,48.33],[100.98,48.56],[100.73,48.73],[100.4,48.66],[100.15,48.83],[99.81,48.75],[99.56,48.92],[99.64,49.16],[99.38,49.32],[99.04,49.25],[98.78,49.41],[98.86,49.65],[98.59,49.82],[98.25,49.74],[97.98,49.91],[98.05,50.15],[97.78,50.31],[97.43,50.23],[97.16,50.4],[96.81,50.32],[96.53,50.48],[96.18,50.4],[96.11,50.16],[96.39,50.0],[96.74,50.08],[97.02,49.92],[96.95,49.67],[97.22,49.51],[97.15,49.27],[96.81,49.19],[96.54,49.35],[96.2,49.27],[95.92,49.43],[95.58,49.35],[95.3,49.5],[94.96,49.42],[94.67,49.58],[94.33,49.49],[94.04,49.64],[93.7,49.55],[93.64,49.31],[93.93,49.15],[94.27,49.24],[94.56,49.09],[94.9,49.17],[95.18,49.02],[95.52,49.1],[95.79,48.94],[95.73,48.7],[96.01,48.54],[95.94,48.3],[96.22,48.14]],[[97.62,48.71],[97.96,48.78],[98.22,48.62],[98.15,48.38],[97.81,48.3],[97.55,48.46],[97.62,48.71]]],[[[34.03,37.52],[33.89,37.3],[34.06,37.09],[34.37,37.1],[34.51,37.32],[34.34,37.53],[34.03,37.52]]],[[[92.25,47.05],[91.96,47.2],[92.01,47.45],[91.72,47.6],[91.39,47.5],[91.1,47.65],[91.14,47.9],[91.47,48.0],[91.51,48.24],[91.22,48.39],[91.26,48.64],[90.96,48.79],[91.0,49.04],[91.34,49.14],[91.64,48.99],[91.6,48.74],[91.89,48.59],[92.23,48.69],[92.28,48.94],[91.98,49.09],[92.03,49.34],[92.37,49.43],[92.42,49.68],[92.12,49.83],[92.17,50.08],[91.86,50.23],[91.91,50.48],[92.26,50.57],[92.31,50.82],[92.66,50.91],[92.97,50.76],[93.32,50.85],[93.37,51.09],[93.07,51.25],[92.71,51.16],[92.41,51.31],[92.05,51.22],[92.0,50.97],[91.65,50.88],[91.34,51.03],[90.99,50.93],[90.67,51.08],[90.32,50.98],[90.0,51.13],[90.04,51.38],[90.4,51.48],[90.44,51.73],[90.12,51.88],[89.76,51.78],[89.43,51.93],[89.07,51.82],[88.74,51.97],[88.38,51.87],[88.05,52.01],[87.69,51.9],[87.67,51.65],[87.31,51.54],[86.97,51.69],[86.62,51.58],[86.28,51.72],[85.92,51.6],[85.91,51.35],[85.55,51.24],[85.21,51.37],[84.86,51.26],[84.52,51.39],[84.17,51.27],[83.82,51.41],[83.47,51.28],[83.47,51.03],[83.12,50.91],[83.12,50.65],[83.46,50.52],[83.45,50.27],[83.79,50.14],[84.14,50.26],[84.47,50.12],[84.46,49.87],[84.79,49.74],[84.78,49.48],[85.11,49.35],[85.1,49.09],[84.76,48.97],[84.75,48.72],[85.07,48.59],[85.41,48.7],[85.73,48.57],[86.06,48.68],[86.38,48.55],[86.72,48.66],[87.03,48.52],[87.37,48.63],[87.68,48.49],[87.66,48.24],[87.97,48.1],[88.3,48.21],[88.61,48.06],[88.58,47.81],[88.88,47.67],[89.21,47.78],[89.51,47.63],[89.84,47.74],[90.14,47.59],[90.1,47.34],[90.4,47.19],[90.36,46.94],[90.65,46.8],[90.98,46.9],[91.26,46.75],[91.59,46.85],[91.87,46.7],[91.83,46.45],[92.11,46.3],[92.44,46.4],[92.48,46.65],[92.2,46.8],[92.25,47.05]]],[[[99.23,37.51],[99.44,37.37],[99.71,37.45],[99.92,37.31],[100.19,37.39],[100.25,37.62],[100.52,37.7],[100.59,37.93],[100.39,38.08],[100.11,38.0],[99.91,38.14],[99.97,38.38],[99.76,38.52],[99.49,38.44],[99.27,38.59],[99.34,38.82],[99.12,38.97],[99.19,39.21],[98.97,39.36],[98.69,39.27],[98.47,39.42],[98.19,39.34],[97.97,39.48],[97.68,39.4],[97.46,39.55],[97.18,39.46],[96.95,39.61],[96.67,39.52],[96.44,39.66],[96.15,39.57],[95.92,39.72],[95.63,39.63],[95.58,39.39],[95.3,39.29],[95.06,39.44],[94.78,39.34],[94.73,39.1],[94.97,38.96],[95.25,39.05],[95.48,38.91],[95.43,38.67],[95.15,38.57],[94.92,38.72],[94.63,38.62],[94.59,38.38],[94.82,38.24],[95.1,38.34],[95.33,38.19],[95.28,37.95],[95.51,37.81],[95.46,37.57],[95.68,37.43],[95.96,37.53],[96.18,37.38],[96.46,37.48],[96.68,37.33],[96.95,37.42],[97.17,37.28],[97.44,37.37],[97.5,37.6],[97.77,37.69],[97.99,37.55],[97.93,37.31],[98.14,37.17],[98.42,37.26],[98.63,37.11],[98.9,37.2],[98.96,37.43],[99.23,37.51]],[[96.1,39.33],[96.33,39.19],[96.27,38.95],[95.99,38.86],[95.76,39.0],[95.81,39.24],[96.1,39.33]]],[[[43.88,38.42],[43.58,38.44],[43.43,38.24],[43.14,38.26],[42.99,38.47],[42.7,38.49],[42.55,38.29],[42.69,38.07],[42.99,38.06],[43.13,37.84],[42.98,37.64],[43.12,37.42],[43.41,37.41],[43.56,37.61],[43.85,37.59],[44.0,37.79],[44.3,37.78],[44.45,37.97],[44.31,38.19],[44.46,38.39],[44.75,38.37],[44.91,38.57],[44.77,38.78],[44.48,38.8],[44.34,39.02],[44.49,39.21],[44.35,39.43],[44.06,39.45],[43.92,39.66],[43.62,39.68],[43.48,39.89],[43.63,40.09],[43.49,40.31],[43.64,40.5],[43.94,40.48],[44.09,40.27],[44.39,40.25],[44.54,40.45],[44.85,40.43],[44.99,40.21],[44.83,40.01],[44.97,39.8],[45.27,39.77],[45.4,39.56],[45.7,39.53],[45.84,39.32],[46.14,39.29],[46.3,39.48],[46.17,39.7],[46.33,39.9],[46.2,40.12],[46.36,40.31],[46.23,40.53],[45.92,40.56],[45.78,40.78],[45.47,40.8],[45.33,41.02],[45.03,41.04],[44.88,41.25],[44.58,41.27],[44.43,41.49],[44.6,41.69],[44.45,41.91],[44.61,42.11],[44.93,42.09],[45.07,41.87],[45.38,41.85],[45.55,42.05],[45.86,42.03],[46.0,41.81],[46.32,41.78],[46.46,41.56],[46.77,41.54],[46.91,41.32],[47.22,41.29],[47.36,41.07],[47.67,41.04],[47.8,40.82],[48.11,40.79],[48.29,40.99],[48.6,40.96],[48.78,41.15],[48.65,41.38],[48.34,41.41],[48.2,41.63],[47.89,41.66],[47.75,41.88],[47.93,42.08],[47.79,42.3],[47.47,42.33],[47.33,42.55],[47.02,42.58],[46.87,42.8],[47.05,43.0],[46.91,43.22],[46.59,43.24],[46.41,43.04],[46.09,43.07],[45.92,42.87],[45.6,42.89],[45.45,43.1],[45.14,43.12],[44.97,42.92],[44.65,42.94],[44.5,43.16],[44.19,43.17],[44.04,43.39],[43.72,43.4],[43.57,43.62],[43.25,43.63],[43.1,43.84],[43.26,44.05],[43.1,44.26],[42.78,44.27],[42.62,44.07],[42.31,44.08],[42.15,44.29],[41.83,44.3],[41.67,44.51],[41.36,44.51],[41.2,44.31],[40.89,44.31],[40.73,44.52],[40.4,44.54],[40.24,44.34],[39.92,44.36],[39.76,44.16],[39.43,44.18],[39.27,43.98],[39.44,43.77],[39.76,43.76],[39.93,43.55],[40.25,43.54],[40.41,43.33],[40.73,43.31],[40.89,43.1],[41.21,43.09],[41.37,42.88],[41.68,42.86],[41.84,42.65],[42.15,42.63],[42.3,42.42],[42.61,42.41],[42.77,42.61],[43.08,42.6],[43.23,42.38],[43.54,42.37],[43.69,42.15],[43.53,41.95],[43.22,41.97],[43.07,42.18],[42.76,42.2],[42.61,41.99],[42.3,42.01],[42.14,41.82],[41.83,41.83],[41.67,41.64],[41.83,41.43],[41.67,41.23],[41.36,41.24],[41.21,41.04],[40.9,41.06],[40.74,40.86],[40.43,40.87],[40.28,40.67],[39.97,40.68],[39.81,40.47],[39.97,40.26],[40.28,40.25],[40.44,40.04],[40.75,40.03],[40.9,39.81],[40.75,39.61],[40.9,39.4],[41.2,39.39],[41.36,39.17],[41.66,39.16],[41.81,39.36],[41.66,39.58],[41.81,39.78],[41.66,39.99],[41.82,40.19],[42.12,40.18],[42.27,39.96],[42.12,39.76],[42.27,39.55],[42.57,39.53],[42.72,39.73],[42.57,39.95],[42.73,40.14],[43.03,40.13],[43.18,39.91],[43.02,39.72],[43.17,39.5],[43.01,39.3],[43.16,39.09],[43.45,39.07],[43.6,38.86],[43.89,38.84],[44.03,38.62],[43.88,38.42]],[[41.36,40.42],[41.21,40.63],[41.36,40.83],[41.67,40.82],[41.82,41.01],[42.13,41.0],[42.28,40.79],[42.13,40.59],[41.82,40.6],[41.67,40.4],[41.36,40.42]]],[[[13.16,42.52],[13.07,42.28],[13.3,42.12],[13.2,41.88],[13.43,41.71],[13.75,41.78],[13.97,41.6],[14.3,41.67],[14.39,41.9],[14.17,42.07],[13.84,42.01],[13.62,42.18],[13.71,42.41],[13.49,42.58],[13.58,42.81],[13.35,42.98],[13.03,42.92],[12.93,42.68],[13.16,42.52]]],[[[-4.58,32.44],[-4.8,32.59],[-4.76,32.83],[-4.51,32.93],[-4.47,33.17],[-4.7,33.32],[-4.66,33.56],[-4.89,33.71],[-5.15,33.61],[-5.18,33.36],[-5.44,33.26],[-5.47,33.02],[-5.25,32.87],[-5.28,32.63],[-5.53,32.53],[-5.76,32.67],[-6.02,32.57],[-6.05,32.32],[-6.31,32.22],[-6.33,31.97],[-6.59,31.87],[-6.62,31.62],[-6.87,31.51],[-7.1,31.65],[-7.36,31.55],[-7.38,31.3],[-7.64,31.19],[-7.87,31.33],[-8.12,31.22],[-8.36,31.36],[-8.61,31.25],[-8.63,31.0],[-8.4,30.86],[-8.15,30.97],[-7.92,30.83],[-7.94,30.59],[-7.71,30.45],[-7.46,30.56],[-7.44,30.81],[-7.18,30.91],[-7.16,31.16],[-6.9,31.27],[-6.67,31.13],[-6.42,31.23],[-6.2,31.09],[-5.94,31.2],[-5.91,31.44],[-5.66,31.55],[-5.63,31.79],[-5.37,31.89],[-5.15,31.75],[-4.9,31.85],[-4.86,32.1],[-4.61,32.2],[-4.58,32.44]]],[[[79.31,45.25],[79.0,45.11],[79.02,44.85],[79.34,44.73],[79.35,44.48],[79.67,44.36],[79.97,44.5],[80.29,44.37],[80.59,44.51],[80.9,44.39],[81.21,44.52],[81.2,44.78],[80.89,44.9],[80.88,45.16],[81.19,45.29],[81.51,45.16],[81.82,45.3],[81.81,45.55],[81.5,45.68],[81.18,45.54],[80.87,45.67],[80.55,45.53],[80.56,45.28],[80.26,45.14],[79.94,45.26],[79.63,45.13],[79.31,45.25]]],[[[20.22,49.2],[19.99,49.37],[19.63,49.33],[19.5,49.11],[19.14,49.07],[19.02,48.85],[19.26,48.69],[19.62,48.73],[19.74,48.95],[20.1,48.99],[20.22,49.2]]],[[[23.61,41.98],[23.94,42.01],[24.06,42.24],[23.85,42.43],[23.52,42.39],[23.4,42.17],[23.61,41.98]]],[[[85.64,47.04],[85.33,47.18],[85.0,47.06],[84.99,46.81],[85.3,46.67],[85.63,46.79],[85.64,47.04]]],[[[47.82,37.89],[47.99,38.08],[47.86,38.3],[47.56,38.33],[47.39,38.14],[47.52,37.92],[47.82,37.89]]],[[[89.02,43.62],[89.05,43.87],[88.77,44.01],[88.46,43.9],[88.44,43.65],[88.72,43.51],[89.02,43.62]]],[[[11.55,43.67],[11.78,43.51],[12.11,43.58],[12.2,43.81],[11.97,43.97],[11.64,43.9],[11.55,43.67]]],[[[52.18,35.86],[52.07,36.09],[51.78,36.13],[51.66,36.36],[51.37,36.4],[51.19,36.22],[51.31,35.99],[51.6,35.95],[51.71,35.72],[52.0,35.68],[52.18,35.86]]],[[[100.66,37.32],[100.86,37.17],[101.13,37.25],[101.2,37.48],[101.0,37.63],[100.73,37.55],[100.66,37.32]]],[[[22.52,37.52],[22.32,37.71],[22.44,37.94],[22.23,38.14],[21.91,38.1],[21.8,37.86],[22.0,37.67],[21.89,37.43],[22.09,37.24],[22.41,37.28],[22.52,37.52]]],[[[-3.0,42.38],[-3.28,42.29],[-3.33,42.05],[-3.08,41.9],[-2.8,41.98],[-2.55,41.83],[-2.27,41.91],[-2.22,42.15],[-2.46,42.3],[-2.75,42.22],[-3.0,42.38]]],[[[69.82,34.03],[69.54,34.12],[69.3,33.96],[69.35,33.72],[69.64,33.63],[69.87,33.78],[69.82,34.03]]],[[[-2.02,40.41],[-1.78,40.25],[-1.5,40.33],[-1.46,40.57],[-1.69,40.73],[-1.97,40.65],[-2.02,40.41]]],[[[13.89,49.06],[13.54,49.0],[13.44,48.78],[13.68,48.63],[14.03,48.69],[14.14,48.91],[13.89,49.06]]],[[[39.99,6.99],[39.83,7.17],[39.6,7.14],[39.52,6.94],[39.68,6.76],[39.91,6.78],[39.99,6.99]]],[[[101.94,37.49],[102.13,37.34],[102.4,37.42],[102.47,37.64],[102.28,37.79],[102.01,37.72],[101.94,37.49]]]]}}]}