{"type":"FeatureCollection","features":[{"type":"Feature","properties":{},"geometry":{"type":"MultiPolygon","coordinates":[[[[9.41,48.17],[9.16,48.31],[8.83,48.24],[8.58,48.38],[8.24,48.3],[8.16,48.08],[7.83,48.0],[7.74,47.78],[7.99,47.64],[7.91,47.41],[7.58,47.34],[7.33,47.48],[7.01,47.4],[6.93,47.17],[6.6,47.09],[6.36,47.23],[6.03,47.15],[5.96,46.93],[5.64,46.84],[5.56,46.62],[5.81,46.48],[5.73,46.25],[5.42,46.16],[5.34,45.94],[5.59,45.8],[5.51,45.57],[5.2,45.48],[4.96,45.63],[4.65,45.54],[4.41,45.68],[4.1,45.59],[3.85,45.73],[3.55,45.64],[3.48,45.41],[3.17,45.32],[2.93,45.46],[3.0,45.69],[2.76,45.82],[2.45,45.73],[2.39,45.5],[2.63,45.37],[2.57,45.14],[2.81,45.01],[2.74,44.78],[2.98,44.64],[2.92,44.41],[2.62,44.32],[2.56,44.09],[2.8,43.95],[2.73,43.72],[2.44,43.63],[2.38,43.4],[2.61,43.26],[2.91,43.35],[2.97,43.58],[3.27,43.67],[3.33,43.9],[3.63,43.99],[3.7,44.22],[4.0,44.31],[4.07,44.54],[4.37,44.63],[4.44,44.86],[4.75,44.94],[4.99,44.8],[4.92,44.57],[5.16,44.43],[5.09,44.2],[5.32,44.05],[5.63,44.14],[5.87,43.99],[5.8,43.76],[6.03,43.61],[6.34,43.69],[6.58,43.54],[6.89,43.63],[6.96,43.86],[7.27,43.94],[7.51,43.79],[7.82,43.87],[7.9,44.1],[8.22,44.17],[8.3,44.4],[8.06,44.56],[7.75,44.48],[7.51,44.63],[7.59,44.86],[7.9,44.94],[7.98,45.17],[8.31,45.24],[8.39,45.47],[8.71,45.55],[8.95,45.4],[9.27,45.47],[9.36,45.7],[9.69,45.78],[9.93,45.62],[10.25,45.7],[10.49,45.54],[10.82,45.61],[11.06,45.46],[11.39,45.53],[11.48,45.75],[11.82,45.82],[12.05,45.66],[12.39,45.73],[12.48,45.96],[12.82,46.02],[12.92,46.25],[13.25,46.31],[13.49,46.15],[13.83,46.22],[14.07,46.05],[14.41,46.11],[14.51,46.34],[14.85,46.4],[15.09,46.23],[15.43,46.29],[15.54,46.52],[15.3,46.68],[15.41,46.9],[15.75,46.96],[15.86,47.18],[16.21,47.24],[16.32,47.46],[16.08,47.62],[16.19,47.84],[15.95,48.01],[15.6,47.95],[15.36,48.11],[15.01,48.05],[14.9,47.83],[14.55,47.77],[14.31,47.93],[13.96,47.87],[13.72,48.03],[13.37,47.97],[13.13,48.12],[12.78,48.06],[12.69,47.84],[12.34,47.77],[12.1,47.92],[11.76,47.86],[11.51,48.01],[11.17,47.94],[10.92,48.09],[10.58,48.02],[10.34,48.17],[10.0,48.09],[9.91,47.87],[9.57,47.8],[9.32,47.95],[9.41,48.17]],[[8.74,48.02],[8.99,47.87],[8.9,47.65],[8.57,47.57],[8.32,47.72],[8.41,47.94],[8.74,48.02]]],[[[19.02,49.45],[18.9,49.24],[19.14,49.07],[19.02,48.85],[19.26,48.69],[19.62,48.73],[19.85,48.56],[20.21,48.61],[20.34,48.82],[20.7,48.86],[20.82,49.07],[20.59,49.24],[20.71,49.46],[20.48,49.63],[20.11,49.58],[19.99,49.37],[19.63,49.33],[19.39,49.49],[19.02,49.45]]],[[[6.84,47.76],[7.17,47.84],[7.25,48.07],[7.0,48.21],[6.67,48.12],[6.59,47.9],[6.84,47.76]]],[[[-5.68,42.95],[-5.94,43.1],[-6.23,43.01],[-6.27,42.77],[-6.01,42.62],[-5.71,42.71],[-5.68,42.95]]],[[[-1.5,40.33],[-1.46,40.57],[-1.69,40.73],[-1.97,40.65],[-2.02,40.41],[-1.78,40.25],[-1.5,40.33]]],[[[-3.0,42.38],[-3.28,42.29],[-3.33,42.05],[-3.08,41.9],[-2.8,41.98],[-2.55,41.83],[-2.27,41.91],[-2.22,42.15],[-2.46,42.3],[-2.75,42.22],[-3.0,42.38]]],[[[-4.83,42.97],[-4.58,42.82],[-4.28,42.91],[-4.24,43.15],[-4.5,43.3],[-4.79,43.21],[-5.05,43.37],[-5.35,43.28],[-5.38,43.04],[-5.13,42.89],[-4.83,42.97]]],[[[24.73,48.27],[24.37,48.24],[24.23,48.03],[24.46,47.84],[24.82,47.87],[24.95,48.08],[24.73,48.27]]],[[[9.97,44.17],[10.29,44.24],[10.52,44.08],[10.85,44.15],[10.94,44.38],[10.7,44.54],[10.38,44.47],[10.14,44.63],[9.82,44.55],[9.58,44.71],[9.67,44.94],[9.43,45.09],[9.11,45.02],[9.02,44.79],[9.26,44.63],[9.17,44.4],[9.41,44.25],[9.73,44.32],[9.97,44.17]]],[[[2.02,43.08],[1.73,42.99],[1.5,43.12],[1.21,43.05],[0.98,43.22],[0.7,43.14],[0.47,43.31],[0.18,43.23],[0.12,43.0],[-0.16,42.93],[-0.4,43.09],[-0.69,43.01],[-0.92,43.17],[-1.21,43.09],[-1.26,42.86],[-1.02,42.7],[-1.07,42.46],[-0.84,42.31],[-0.55,42.38],[-0.32,42.22],[-0.03,42.3],[0.2,42.14],[0.48,42.21],[0.71,42.06],[0.99,42.13],[1.22,41.97],[1.5,42.06],[1.73,41.92],[2.02,42.01],[2.25,41.87],[2.54,41.96],[2.6,42.19],[2.89,42.28],[2.95,42.52],[2.72,42.66],[2.78,42.89],[2.55,43.03],[2.26,42.94],[2.02,43.08]]],[[[23.69,48.77],[23.56,48.56],[23.78,48.38],[24.14,48.42],[24.28,48.63],[24.05,48.8],[23.69,48.77]]],[[[13.89,49.06],[13.54,49.0],[13.44,48.78],[13.68,48.63],[14.03,48.69],[14.14,48.91],[13.89,49.06]]]]}}]}