{"type":"FeatureCollection","features":[{"type":"Feature","properties":{},"geometry":{"type":"MultiPolygon","coordinates":[[[[14.31,47.93],[13.96,47.87],[13.72,48.03],[13.37,47.97],[13.27,47.74],[12.93,47.68],[12.69,47.84],[12.34,47.77],[12.1,47.92],[11.76,47.86],[11.51,48.01],[11.17,47.94],[10.92,48.09],[10.58,48.02],[10.49,47.8],[10.15,47.72],[9.91,47.87],[9.57,47.8],[9.48,47.58],[9.15,47.5],[8.9,47.65],[8.57,47.57],[8.48,47.35],[8.15,47.27],[7.91,47.41],[7.58,47.34],[7.33,47.48],[7.01,47.4],[6.93,47.17],[6.6,47.09],[6.53,46.87],[6.2,46.78],[6.13,46.56],[5.81,46.48],[5.73,46.25],[5.42,46.16],[5.34,45.94],[5.59,45.8],[5.51,45.57],[5.2,45.48],[5.13,45.26],[5.37,45.11],[5.3,44.89],[5.54,44.74],[5.47,44.51],[5.7,44.37],[5.63,44.14],[5.87,43.99],[6.18,44.07],[6.41,43.93],[6.73,44.01],[6.96,43.86],[7.27,43.94],[7.51,43.79],[7.82,43.87],[7.9,44.1],[7.67,44.25],[7.75,44.48],[7.51,44.63],[7.59,44.86],[7.35,45.01],[7.43,45.24],[7.74,45.31],[7.82,45.54],[8.15,45.62],[8.23,45.85],[8.55,45.93],[8.79,45.78],[9.12,45.85],[9.36,45.7],[9.69,45.78],[9.93,45.62],[10.25,45.7],[10.49,45.54],[10.82,45.61],[10.91,45.84],[11.24,45.91],[11.48,45.75],[11.82,45.82],[11.91,46.05],[12.24,46.12],[12.34,46.34],[12.68,46.41],[12.92,46.25],[13.25,46.31],[13.49,46.15],[13.83,46.22],[13.93,46.44],[14.27,46.5],[14.51,46.34],[14.85,46.4],[14.96,46.62],[15.3,46.68],[15.41,46.9],[15.75,46.96],[15.86,47.18],[16.21,47.24],[16.32,47.46],[16.08,47.62],[16.19,47.84],[15.95,48.01],[15.6,47.95],[15.36,48.11],[15.01,48.05],[14.9,47.83],[14.55,47.77],[14.31,47.93]]],[[[1.38,42.66],[1.16,42.82],[0.87,42.75],[0.64,42.91],[0.36,42.84],[0.12,43.0],[-0.16,42.93],[-0.21,42.69],[0.02,42.53],[0.3,42.61],[0.53,42.45],[0.82,42.52],[1.05,42.36],[1.33,42.43],[1.56,42.29],[1.85,42.38],[2.08,42.24],[2.37,42.34],[2.43,42.57],[2.2,42.71],[1.91,42.62],[1.67,42.76],[1.38,42.66]]],[[[20.22,49.2],[19.99,49.37],[19.63,49.33],[19.5,49.11],[19.74,48.95],[20.1,48.99],[20.22,49.2]]],[[[8.41,47.94],[8.16,48.08],[7.83,48.0],[7.74,47.78],[7.99,47.64],[8.32,47.72],[8.41,47.94]]]]}}]}