{"type":"FeatureCollection","features":[{"type":"Feature","properties":{},"geometry":{"type":"MultiPolygon","coordinates":[[[[-135.97,56.89],[-135.13,56.54],[-135.26,56.35],[-135.03,56.17],[-135.15,55.97],[-134.57,55.8],[-134.34,55.61],[-134.47,55.43],[-133.89,55.25],[-133.67,55.06],[-133.81,54.87],[-133.02,54.5],[-133.64,54.13],[-133.42,53.95],[-133.47,53.39],[-132.93,53.21],[-132.65,52.65],[-131.79,52.46],[-131.54,51.9],[-130.69,51.69],[-130.6,52.24],[-131.32,52.63],[-131.23,53.18],[-131.43,53.37],[-131.29,53.55],[-131.49,53.74],[-131.35,53.93],[-131.55,54.12],[-131.41,54.3],[-131.06,54.29],[-130.85,54.1],[-130.94,53.54],[-130.4,53.34],[-130.16,52.78],[-129.29,52.56],[-129.1,52.36],[-129.25,52.19],[-128.73,51.98],[-128.55,51.78],[-128.7,51.6],[-128.01,51.2],[-128.64,50.87],[-129.48,51.09],[-129.62,50.92],[-129.44,50.73],[-128.12,50.29],[-127.95,50.09],[-128.18,49.93],[-128.08,49.74],[-127.21,49.86],[-127.26,49.31],[-124.91,48.16],[-124.82,47.96],[-125.06,47.79],[-124.97,47.59],[-124.66,47.56],[-124.57,47.35],[-124.81,47.19],[-124.72,46.99],[-124.41,46.95],[-124.33,46.75],[-124.56,46.58],[-124.08,46.13],[-124.47,45.59],[-124.0,45.13],[-124.23,44.96],[-124.15,44.75],[-124.38,44.58],[-124.3,44.37],[-124.52,44.2],[-124.44,43.99],[-124.67,43.82],[-124.59,43.61],[-125.1,42.66],[-125.02,42.45],[-124.72,42.4],[-124.64,42.19],[-124.87,42.01],[-124.41,41.53],[-124.91,40.57],[-124.47,40.08],[-124.17,40.04],[-124.1,39.81],[-124.32,39.64],[-123.87,39.14],[-124.09,38.97],[-124.02,38.74],[-123.36,38.41],[-123.43,37.78],[-122.64,37.85],[-122.71,37.21],[-122.06,36.87],[-122.14,36.23],[-121.5,35.87],[-121.58,35.23],[-120.95,34.87],[-121.03,34.22],[-120.75,34.15],[-120.34,33.61],[-119.55,33.64],[-119.49,33.4],[-119.71,33.23],[-119.65,32.99],[-119.37,32.92],[-118.99,33.51],[-119.05,33.75],[-118.83,33.92],[-118.55,33.85],[-118.8,32.78],[-118.52,32.71],[-118.14,33.29],[-117.86,33.22],[-117.8,32.98],[-117.52,32.9],[-117.62,32.24],[-117.34,32.17],[-116.95,31.6],[-116.16,31.61],[-116.11,31.37],[-115.5,30.96],[-115.27,31.12],[-115.66,31.7],[-115.44,31.87],[-115.49,32.11],[-116.11,32.52],[-115.99,33.18],[-116.28,33.25],[-116.33,33.5],[-116.11,33.67],[-115.82,33.59],[-115.77,33.34],[-115.48,33.27],[-115.25,33.43],[-115.31,33.68],[-116.62,34.72],[-116.68,34.96],[-116.97,35.03],[-116.86,35.68],[-117.15,35.75],[-117.21,35.99],[-116.98,36.16],[-117.39,36.71],[-116.63,36.97],[-115.99,36.58],[-115.93,36.34],[-116.16,36.18],[-116.11,35.94],[-115.82,35.86],[-115.93,35.22],[-115.3,34.82],[-114.89,35.39],[-115.29,35.95],[-114.88,36.52],[-115.28,37.08],[-114.51,37.33],[-113.68,37.33],[-113.63,37.09],[-113.87,36.93],[-113.81,36.69],[-114.42,35.72],[-114.37,35.47],[-114.08,35.39],[-114.2,34.74],[-113.58,34.34],[-112.85,33.43],[-112.05,33.42],[-111.67,32.83],[-111.9,32.67],[-112.52,33.1],[-112.75,32.93],[-112.89,32.28],[-111.62,31.17],[-111.57,30.92],[-110.33,29.8],[-110.29,29.55],[-109.51,29.52],[-109.47,29.27],[-109.2,29.17],[-109.34,28.51],[-109.07,28.41],[-109.03,28.16],[-108.76,28.06],[-108.72,27.8],[-108.45,27.71],[-108.42,27.45],[-107.24,26.29],[-107.2,26.04],[-106.94,25.94],[-106.9,25.68],[-106.64,25.58],[-106.6,25.32],[-106.34,25.22],[-106.31,24.97],[-105.18,23.79],[-105.14,23.53],[-104.41,23.48],[-104.09,22.86],[-103.84,22.76],[-103.61,22.91],[-103.36,22.8],[-103.33,22.54],[-103.08,22.44],[-102.85,22.59],[-102.6,22.48],[-102.58,22.23],[-101.85,22.16],[-101.56,21.54],[-100.84,21.47],[-100.55,20.86],[-99.84,20.78],[-100.02,20.13],[-99.78,20.02],[-99.56,20.17],[-99.06,19.7],[-98.84,19.84],[-98.14,19.76],[-97.92,19.91],[-97.93,20.16],[-98.43,20.63],[-98.65,20.49],[-98.89,20.6],[-98.91,20.85],[-99.62,20.93],[-99.9,21.55],[-100.14,21.66],[-100.16,21.91],[-99.94,22.05],[-99.69,21.94],[-99.26,22.49],[-99.54,23.11],[-98.84,23.28],[-98.85,23.53],[-99.64,24.38],[-99.44,25.03],[-99.97,25.51],[-99.99,25.77],[-99.75,25.91],[-99.77,26.16],[-100.86,27.38],[-100.67,28.03],[-100.43,28.17],[-100.74,28.79],[-100.5,28.93],[-99.74,28.85],[-99.28,29.38],[-99.02,29.27],[-98.28,29.43],[-98.3,29.68],[-97.61,30.59],[-97.62,30.84],[-98.89,30.92],[-99.36,30.39],[-100.13,30.48],[-100.87,30.31],[-101.43,30.79],[-102.18,30.61],[-102.74,31.08],[-103.5,30.9],[-103.77,31.01],[-104.1,31.62],[-104.68,32.08],[-104.5,32.73],[-105.09,33.19],[-105.12,33.44],[-104.45,34.37],[-104.79,34.97],[-104.32,35.51],[-104.36,35.76],[-103.57,35.94],[-103.38,36.57],[-102.9,37.09],[-102.93,37.33],[-103.21,37.44],[-103.47,37.3],[-103.76,37.41],[-104.43,38.34],[-104.17,38.48],[-104.21,38.72],[-103.4,38.89],[-103.2,39.51],[-103.82,39.95],[-104.37,39.92],[-104.74,40.5],[-103.91,40.67],[-103.95,40.9],[-103.45,41.41],[-103.48,41.64],[-104.35,41.71],[-104.38,41.94],[-104.68,42.04],[-105.25,42.01],[-105.29,42.24],[-104.45,42.41],[-104.15,42.31],[-104.11,42.08],[-103.25,42.01],[-102.98,42.14],[-103.01,42.37],[-103.98,43.14],[-104.82,42.97],[-104.79,42.74],[-105.06,42.61],[-105.7,43.03],[-105.74,43.26],[-106.63,43.31],[-107.02,43.86],[-106.52,44.36],[-106.56,44.58],[-107.23,44.99],[-107.27,45.21],[-107.86,45.17],[-108.54,45.56],[-109.13,45.51],[-108.95,46.09],[-109.27,46.17],[-109.32,46.39],[-108.82,46.88],[-108.87,47.1],[-109.6,47.49],[-109.84,47.34],[-110.17,47.42],[-110.25,47.65],[-111.15,47.65],[-111.09,48.25],[-111.42,48.32],[-111.52,48.55],[-110.7,48.77],[-110.79,49.0],[-111.71,48.99],[-112.25,49.52],[-113.17,49.5],[-113.15,50.1],[-112.9,50.26],[-113.01,50.49],[-112.63,51.03],[-113.2,51.55],[-112.95,51.71],[-112.12,51.35],[-111.87,51.5],[-112.44,52.03],[-112.03,52.58],[-112.14,52.81],[-111.88,52.98],[-110.86,52.99],[-110.76,52.76],[-109.91,52.38],[-108.99,52.61],[-108.62,52.53],[-108.53,52.3],[-107.26,51.57],[-107.19,51.34],[-105.53,51.37],[-105.04,50.8],[-104.04,50.75],[-103.99,50.51],[-103.23,50.08],[-103.18,49.84],[-102.54,49.88],[-101.81,49.43],[-101.51,49.57],[-101.17,49.46],[-101.13,49.22],[-100.42,48.77],[-99.49,48.92],[-99.15,48.81],[-99.12,48.57],[-98.79,48.45],[-99.04,47.85],[-98.37,47.39],[-98.0,46.8],[-97.08,46.68],[-97.06,46.45],[-96.43,45.97],[-96.41,45.74],[-95.51,45.61],[-95.2,45.02],[-94.31,44.88],[-94.01,44.29],[-93.14,44.14],[-93.14,43.91],[-92.56,43.89],[-92.0,43.4],[-91.13,43.47],[-90.59,42.97],[-89.44,42.89],[-89.22,42.29],[-88.39,42.11],[-88.41,41.88],[-88.71,41.79],[-88.73,41.57],[-88.47,41.43],[-87.36,41.33],[-86.74,41.73],[-86.18,41.67],[-85.8,42.21],[-85.49,42.3],[-84.93,42.24],[-84.46,41.71],[-84.16,41.79],[-84.11,42.02],[-83.24,42.03],[-83.19,42.26],[-82.88,42.33],[-81.5,42.03],[-81.57,41.8],[-81.87,41.73],[-81.93,41.5],[-83.31,40.53],[-83.36,40.3],[-84.2,40.3],[-84.91,39.47],[-85.45,39.54],[-85.73,39.46],[-85.77,39.24],[-86.58,39.21],[-86.93,38.69],[-86.69,38.56],[-86.72,38.34],[-86.97,38.24],[-86.75,37.64],[-87.25,37.21],[-87.99,37.38],[-88.5,36.94],[-89.24,37.11],[-89.24,37.34],[-88.99,37.45],[-88.49,37.42],[-88.73,38.02],[-88.47,38.12],[-88.47,38.35],[-88.72,38.49],[-89.74,38.55],[-90.25,38.11],[-90.76,38.6],[-93.62,38.59],[-93.87,38.0],[-94.65,37.89],[-94.64,37.65],[-95.15,37.17],[-94.86,36.57],[-95.11,36.45],[-95.1,36.2],[-95.36,36.08],[-95.35,35.84],[-95.6,35.72],[-95.59,35.47],[-96.32,34.61],[-96.3,34.36],[-96.04,34.24],[-96.26,33.62],[-96.0,33.5],[-95.99,33.25],[-94.93,32.02],[-94.92,31.77],[-95.16,31.64],[-94.89,31.02],[-95.13,30.9],[-95.38,31.02],[-95.86,30.51],[-96.11,30.63],[-96.35,30.5],[-96.07,29.88],[-95.82,29.76],[-93.14,29.91],[-92.64,29.42],[-91.45,29.53],[-90.97,29.03],[-89.79,29.14],[-89.33,28.64],[-88.15,30.19],[-85.85,30.09],[-85.21,29.21],[-84.98,29.31],[-84.97,29.55],[-84.53,29.53],[-84.06,29.97],[-83.65,29.47],[-83.46,28.86],[-82.82,28.7],[-83.31,27.78],[-82.91,27.28],[-82.55,26.3],[-81.93,26.15],[-81.77,25.54],[-81.16,25.39],[-81.18,25.16],[-81.8,25.07],[-82.03,24.73],[-82.45,24.75],[-82.26,24.39],[-80.83,24.43],[-80.58,25.0],[-79.97,25.08],[-80.12,25.67],[-79.68,26.1],[-80.02,26.83],[-79.76,27.39],[-81.21,30.1],[-80.95,30.66],[-81.16,30.8],[-81.14,31.03],[-80.91,31.12],[-80.89,31.36],[-81.1,31.49],[-81.08,31.73],[-80.85,31.82],[-80.83,32.05],[-80.18,32.09],[-79.91,32.64],[-79.26,32.68],[-78.99,33.22],[-78.37,33.76],[-77.64,33.73],[-77.7,34.28],[-77.36,34.53],[-76.15,34.4],[-76.2,34.95],[-75.45,34.91],[-75.09,35.16],[-75.24,36.08],[-75.44,36.23],[-75.36,36.44],[-75.69,36.96],[-75.23,37.43],[-75.44,37.59],[-75.36,37.8],[-74.68,38.11],[-74.59,38.32],[-74.92,38.86],[-74.84,39.07],[-73.74,39.66],[-73.76,40.26],[-73.45,40.31],[-73.35,40.52],[-72.52,40.45],[-71.57,41.2],[-70.53,40.94],[-69.78,41.24],[-69.75,41.84],[-69.95,42.02],[-69.84,42.24],[-70.58,42.55],[-70.01,43.03],[-70.23,43.21],[-70.11,43.43],[-69.77,43.47],[-69.65,43.69],[-68.77,43.59],[-67.7,44.32],[-66.88,44.61],[-66.68,44.42],[-66.82,44.2],[-66.61,44.02],[-66.69,43.4],[-66.49,43.21],[-65.63,43.09],[-65.02,43.54],[-64.2,43.81],[-64.09,44.42],[-63.22,44.28],[-62.07,44.95],[-61.72,44.97],[-61.54,44.77],[-60.69,45.01],[-60.53,45.63],[-59.67,45.86],[-59.49,46.07],[-59.66,46.69],[-60.02,46.68],[-60.2,46.88],[-58.94,47.53],[-58.58,47.53],[-58.4,47.33],[-58.04,47.33],[-57.86,47.54],[-57.5,47.55],[-57.33,47.34],[-56.42,47.55],[-56.26,47.34],[-56.45,47.13],[-56.81,47.13],[-57.0,46.93],[-56.83,46.72],[-55.97,46.52],[-55.24,46.92],[-54.89,46.91],[-54.73,46.71],[-53.41,46.27],[-52.66,46.65],[-52.73,47.27],[-51.96,47.64],[-52.6,48.08],[-52.38,48.28],[-52.53,48.49],[-52.88,48.5],[-53.03,48.72],[-52.82,48.92],[-52.96,49.13],[-53.33,49.14],[-53.48,49.36],[-53.27,49.56],[-53.42,49.77],[-54.32,50.01],[-54.54,49.81],[-54.91,49.81],[-56.18,50.47],[-55.97,50.68],[-55.03,50.45],[-54.81,50.65],[-55.54,51.09],[-54.71,51.5],[-54.88,51.71],[-54.66,51.92],[-55.4,52.37],[-55.18,52.57],[-55.35,52.79],[-55.12,53.0],[-55.3,53.22],[-55.07,53.43],[-55.25,53.65],[-56.89,54.11],[-57.08,54.33],[-56.85,54.54],[-57.05,54.76],[-58.77,55.21],[-58.98,55.42],[-59.42,55.42],[-59.64,55.64],[-59.42,55.86],[-59.64,56.07],[-60.09,56.07],[-60.32,56.29],[-60.1,56.51],[-61.02,56.94],[-60.8,57.16],[-61.04,57.38],[-60.81,57.6],[-61.78,58.02],[-62.26,58.01],[-62.51,58.23],[-62.29,58.45],[-62.55,58.67],[-62.32,58.89],[-63.35,59.31],[-63.13,59.54],[-63.4,59.75],[-63.9,59.74],[-64.19,59.95],[-63.96,60.18],[-64.25,60.39],[-64.02,60.62],[-64.31,60.83],[-64.83,60.82],[-65.05,60.58],[-64.76,60.37],[-64.98,60.14],[-65.49,60.12],[-65.71,59.89],[-65.42,59.68],[-65.63,59.44],[-66.83,59.16],[-67.03,58.92],[-66.74,58.72],[-66.93,58.48],[-67.42,58.45],[-68.5,58.82],[-68.31,59.06],[-68.62,59.27],[-69.12,59.23],[-69.43,59.43],[-69.24,59.67],[-69.56,59.87],[-69.37,60.11],[-69.69,60.31],[-68.79,60.83],[-69.98,61.19],[-71.37,61.31],[-71.72,61.5],[-71.54,61.74],[-72.79,62.09],[-72.61,62.33],[-72.98,62.52],[-74.45,62.6],[-74.61,62.36],[-75.15,62.3],[-77.41,62.72],[-78.62,62.33],[-79.02,62.51],[-80.5,62.52],[-80.61,62.27],[-80.2,62.1],[-80.31,61.85],[-79.91,61.68],[-78.74,62.08],[-78.35,61.9],[-78.48,61.65],[-78.08,61.47],[-78.21,61.22],[-78.73,61.15],[-78.85,60.9],[-77.58,60.61],[-77.71,60.36],[-78.21,60.29],[-78.33,60.04],[-77.96,59.86],[-78.09,59.61],[-78.58,59.54],[-78.69,59.29],[-79.18,59.22],[-79.29,58.97],[-78.92,58.79],[-79.04,58.54],[-77.85,58.26],[-77.97,58.01],[-77.62,57.83],[-77.74,57.58],[-77.4,57.4],[-77.52,57.15],[-77.18,56.97],[-77.3,56.72],[-77.75,56.65],[-78.09,56.83],[-77.98,57.08],[-78.32,57.26],[-78.2,57.51],[-78.55,57.68],[-79.83,57.71],[-79.93,57.46],[-78.77,57.18],[-78.88,56.93],[-79.33,56.86],[-79.68,57.03],[-80.67,56.63],[-80.77,56.37],[-80.42,56.2],[-80.52,55.95],[-80.18,55.78],[-80.27,55.53],[-79.94,55.36],[-79.51,55.44],[-79.41,55.68],[-78.2,55.66],[-78.09,55.9],[-77.65,55.97],[-77.32,55.79],[-77.98,55.23],[-78.42,55.16],[-78.74,55.33],[-79.17,55.26],[-79.28,55.01],[-80.46,55.03],[-80.55,54.78],[-80.22,54.61],[-80.31,54.36],[-79.99,54.19],[-80.08,53.94],[-79.76,53.77],[-79.85,53.52],[-80.76,53.12],[-81.31,53.7],[-81.72,53.62],[-82.05,53.79],[-81.97,54.04],[-82.3,54.2],[-82.22,54.45],[-81.81,54.54],[-81.73,54.79],[-82.06,54.96],[-81.98,55.21],[-82.33,55.37],[-85.06,55.5],[-85.72,56.06],[-86.14,55.97],[-87.3,56.17],[-87.25,56.43],[-87.63,56.58],[-87.58,56.83],[-87.96,56.98],[-89.19,56.91],[-89.94,57.46],[-90.36,57.34],[-92.39,57.52],[-92.38,57.78],[-91.96,57.9],[-91.94,58.15],[-92.76,58.68],[-92.75,58.93],[-94.02,59.07],[-94.02,59.32],[-94.45,59.45],[-94.45,59.71],[-94.02,59.83],[-94.02,60.09],[-94.46,60.22],[-94.46,60.47],[-93.57,60.98],[-93.57,61.24],[-93.11,61.36],[-93.1,61.62],[-92.63,61.74],[-92.62,62.0],[-92.15,62.12],[-92.13,62.37],[-90.69,62.48],[-90.67,62.73],[-90.17,62.85],[-90.14,63.11],[-90.61,63.24],[-90.58,63.5],[-90.07,63.62],[-90.03,63.87],[-88.51,63.95],[-88.46,64.21],[-87.93,64.32],[-87.87,64.57],[-86.72,65.04],[-86.23,64.89],[-86.3,64.63],[-86.85,64.53],[-86.91,64.28],[-87.45,64.17],[-87.51,63.92],[-87.04,63.77],[-87.1,63.51],[-85.66,63.31],[-85.73,63.05],[-85.28,62.9],[-84.15,63.34],[-84.06,63.6],[-83.52,63.69],[-83.43,63.95],[-82.88,64.04],[-82.43,63.87],[-82.53,63.62],[-81.12,63.37],[-79.9,63.78],[-79.77,64.03],[-81.21,64.29],[-81.1,64.55],[-81.55,64.71],[-82.12,64.63],[-82.57,64.79],[-82.47,65.05],[-82.94,65.21],[-83.51,65.12],[-83.98,65.28],[-83.89,65.53],[-83.31,65.62],[-83.21,65.88],[-83.69,66.04],[-83.59,66.29],[-82.28,66.72],[-82.16,66.97],[-81.55,67.05],[-81.42,67.3],[-81.92,67.47],[-82.55,67.38],[-82.66,67.13],[-83.28,67.04],[-83.79,67.2],[-85.53,67.17],[-86.05,67.32],[-85.97,67.57],[-85.35,67.67],[-85.26,67.92],[-85.8,68.07],[-87.12,67.62],[-87.66,67.76],[-87.6,68.01],[-88.15,68.16],[-88.09,68.41],[-87.46,68.52],[-87.39,68.77],[-89.18,68.94],[-89.12,69.19],[-89.71,69.33],[-90.35,69.22],[-90.95,69.35],[-90.91,69.6],[-91.52,69.73],[-94.65,69.6],[-94.64,69.35],[-94.03,69.23],[-94.03,68.98],[-94.63,68.85],[-94.62,68.6],[-94.03,68.48],[-94.03,68.22],[-94.61,68.09],[-96.36,68.19],[-96.39,68.44],[-95.81,68.58],[-95.83,68.83],[-95.24,68.97],[-95.25,69.22],[-95.87,69.33],[-95.89,69.58],[-95.28,69.72],[-95.29,69.97],[-95.93,70.08],[-96.55,69.94],[-96.52,69.69],[-98.35,69.52],[-98.3,69.27],[-98.88,69.13],[-101.89,69.12],[-101.98,69.36],[-101.42,69.52],[-101.5,69.76],[-100.93,69.92],[-101.01,70.16],[-102.44,70.59],[-102.54,70.83],[-104.5,70.84],[-104.62,71.08],[-104.04,71.25],[-104.16,71.49],[-104.87,71.57],[-105.0,71.81],[-104.41,71.97],[-104.53,72.21],[-105.28,72.29],[-105.88,72.12],[-105.73,71.88],[-106.32,71.72],[-107.04,71.79],[-107.2,72.02],[-106.62,72.19],[-106.78,72.43],[-107.53,72.5],[-108.12,72.33],[-108.87,72.39],[-109.43,72.21],[-109.25,71.98],[-109.8,71.8],[-111.79,71.73],[-112.01,71.96],[-110.18,72.27],[-110.38,72.5],[-111.15,72.56],[-112.97,72.24],[-113.73,72.28],[-113.97,72.51],[-113.44,72.7],[-113.69,72.92],[-114.47,72.96],[-116.26,72.62],[-118.08,72.9],[-118.38,73.12],[-119.16,73.14],[-119.62,72.94],[-121.5,73.18],[-121.94,72.98],[-122.71,72.99],[-123.06,73.2],[-122.63,73.4],[-122.99,73.61],[-123.79,73.62],[-124.2,73.41],[-123.84,73.2],[-125.39,72.79],[-125.03,72.58],[-125.4,72.37],[-125.05,72.17],[-125.41,71.96],[-124.01,71.54],[-123.3,71.54],[-122.98,71.32],[-122.28,71.31],[-120.76,71.71],[-120.03,71.69],[-119.6,71.89],[-119.9,72.11],[-119.46,72.3],[-119.77,72.52],[-119.31,72.72],[-118.55,72.7],[-118.26,72.48],[-118.72,72.28],[-118.43,72.06],[-118.87,71.87],[-117.59,71.4],[-118.04,71.2],[-117.77,70.98],[-118.2,70.79],[-117.0,70.31],[-117.42,70.11],[-117.18,69.89],[-117.59,69.7],[-117.35,69.47],[-116.7,69.44],[-116.46,69.21],[-116.87,69.02],[-118.4,69.31],[-118.65,69.53],[-120.34,69.38],[-120.61,69.6],[-122.2,69.85],[-122.49,70.06],[-123.16,70.07],[-123.51,69.87],[-123.21,69.66],[-123.56,69.45],[-124.2,69.46],[-124.5,69.67],[-124.16,69.88],[-124.47,70.09],[-125.13,70.09],[-125.46,69.88],[-125.15,69.67],[-125.47,69.47],[-126.1,69.47],[-126.43,69.67],[-126.11,69.88],[-127.43,70.29],[-127.11,70.5],[-127.46,70.7],[-128.12,70.69],[-128.43,70.48],[-128.08,70.28],[-128.38,70.07],[-129.02,70.06],[-130.39,70.44],[-131.07,70.4],[-131.34,70.18],[-132.92,69.87],[-133.16,69.65],[-135.97,69.8],[-136.18,69.58],[-137.65,69.22],[-138.1,69.37],[-137.92,69.6],[-138.38,69.75],[-141.28,69.81],[-141.78,69.96],[-141.63,70.19],[-142.14,70.33],[-148.8,70.41],[-149.38,70.54],[-149.32,70.77],[-149.92,70.9],[-151.24,70.42],[-152.44,70.9],[-152.42,71.14],[-154.35,71.23],[-154.99,71.1],[-156.34,71.55],[-156.97,71.41],[-156.93,71.17],[-157.55,71.03],[-159.51,71.07],[-160.11,70.92],[-160.03,70.68],[-160.62,70.53],[-162.54,70.54],[-163.11,70.37],[-162.99,70.13],[-163.54,69.97],[-163.42,69.73],[-163.96,69.57],[-163.83,69.33],[-166.66,68.96],[-166.51,68.73],[-167.0,68.55],[-166.85,68.32],[-166.22,68.26],[-166.08,68.02],[-164.73,67.65],[-164.61,67.42],[-164.02,67.35],[-163.91,67.12],[-162.66,66.74],[-162.56,66.51],[-163.03,66.35],[-164.27,66.72],[-166.33,66.52],[-166.77,66.34],[-166.63,66.11],[-168.06,65.82],[-167.92,65.6],[-167.36,65.54],[-167.22,65.31],[-167.63,65.14],[-167.5,64.91],[-166.96,64.86],[-166.83,64.63],[-166.29,64.57],[-166.17,64.35],[-164.29,64.55],[-163.17,64.19],[-161.8,64.43],[-161.3,64.36],[-161.22,64.13],[-162.0,63.6],[-162.49,63.67],[-162.57,63.89],[-163.49,63.8],[-163.4,63.58],[-162.9,63.51],[-162.82,63.29],[-163.23,63.13],[-164.31,63.48],[-165.6,63.22],[-165.5,63.0],[-165.88,62.83],[-165.77,62.61],[-166.15,62.44],[-166.04,62.22],[-166.42,62.06],[-166.31,61.84],[-166.67,61.67],[-166.56,61.45],[-165.52,61.12],[-165.43,60.9],[-167.05,60.68],[-167.4,60.52],[-167.28,60.3],[-167.63,60.13],[-167.51,59.92],[-166.52,59.61],[-165.39,59.88],[-165.49,60.09],[-165.14,60.25],[-164.69,60.2],[-164.61,59.98],[-164.96,59.82],[-164.87,59.61],[-162.09,59.83],[-162.02,59.61],[-162.38,59.46],[-162.31,59.25],[-162.93,58.73],[-162.86,58.52],[-162.11,58.61],[-161.24,58.27],[-160.15,58.49],[-159.31,58.14],[-158.22,58.35],[-157.83,58.27],[-157.8,58.06],[-158.47,57.58],[-158.44,57.38],[-158.78,57.24],[-158.74,57.03],[-160.16,56.89],[-160.49,56.75],[-160.44,56.55],[-160.76,56.4],[-160.72,56.2],[-162.1,56.03],[-162.41,55.89],[-162.35,55.69],[-163.33,55.45],[-163.27,55.25],[-163.57,55.1],[-165.12,54.93],[-165.41,54.39],[-168.72,53.79],[-168.98,53.23],[-170.51,52.97],[-171.87,52.48],[-172.81,52.74],[-173.01,52.55],[-172.83,52.34],[-173.03,52.15],[-174.54,52.63],[-175.32,52.26],[-176.28,52.49],[-177.62,51.92],[-178.6,52.14],[-179.35,51.74],[-179.14,51.53],[-179.32,51.33],[-179.12,51.13],[-178.73,51.13],[-177.42,51.72],[-176.45,51.49],[-175.12,52.05],[-174.74,52.04],[-174.55,51.83],[-173.6,51.99],[-173.42,51.78],[-173.04,51.75],[-172.84,51.94],[-172.47,51.92],[-169.97,52.73],[-169.06,52.45],[-168.28,52.77],[-168.44,52.98],[-168.23,53.16],[-166.12,53.51],[-165.84,54.06],[-164.96,53.76],[-164.68,54.3],[-163.51,54.52],[-162.65,54.2],[-161.85,54.46],[-161.98,54.67],[-161.76,54.83],[-160.43,54.99],[-160.08,54.93],[-160.04,54.73],[-159.03,54.74],[-158.72,54.87],[-158.75,55.07],[-159.49,55.4],[-159.53,55.6],[-157.85,55.87],[-157.58,56.41],[-156.55,56.6],[-156.57,56.8],[-155.89,57.27],[-155.91,57.47],[-155.19,57.52],[-155.18,57.31],[-154.46,56.95],[-154.46,56.74],[-155.49,56.57],[-155.48,56.37],[-154.78,56.01],[-154.1,56.46],[-153.41,56.5],[-153.06,57.02],[-152.0,57.17],[-151.99,57.38],[-151.63,57.49],[-151.61,57.7],[-151.96,57.79],[-151.95,57.99],[-151.58,58.11],[-151.56,58.32],[-151.92,58.41],[-151.9,58.62],[-151.52,58.73],[-151.51,58.94],[-150.38,59.08],[-150.35,59.29],[-149.96,59.4],[-149.2,59.41],[-149.17,59.62],[-148.77,59.73],[-147.65,59.63],[-147.25,59.73],[-147.2,59.94],[-146.03,60.03],[-145.97,60.24],[-145.55,60.34],[-145.21,60.23],[-145.27,60.02],[-144.66,59.59],[-143.77,59.98],[-141.54,59.89],[-141.01,59.45],[-139.88,59.49],[-139.58,59.37],[-139.68,59.17],[-139.41,59.0],[-138.39,58.87],[-137.97,58.32],[-136.96,58.18],[-136.71,58.0],[-136.83,57.81],[-136.58,57.63],[-136.71,57.43],[-136.46,57.25],[-136.58,57.06],[-135.97,56.89]],[[-61.27,46.84],[-61.09,46.64],[-61.26,46.43],[-62.16,46.59],[-62.35,46.79],[-63.23,46.54],[-63.42,46.74],[-63.78,46.71],[-64.02,47.33],[-64.39,47.3],[-64.59,47.5],[-63.9,47.97],[-64.15,48.58],[-63.99,48.81],[-64.2,49.01],[-64.03,49.23],[-61.9,48.7],[-61.17,49.15],[-61.95,49.54],[-62.33,49.53],[-62.54,49.73],[-62.36,49.95],[-61.97,49.97],[-61.77,49.76],[-60.81,50.01],[-60.61,49.8],[-60.23,49.81],[-59.46,50.25],[-58.49,50.47],[-58.29,50.69],[-58.48,50.9],[-58.28,51.11],[-57.28,51.32],[-57.1,51.11],[-57.31,50.9],[-57.7,50.9],[-57.9,50.69],[-57.72,50.48],[-58.5,50.05],[-58.32,49.84],[-58.52,49.63],[-58.34,49.42],[-58.53,49.21],[-58.91,49.2],[-59.66,48.77],[-59.47,48.56],[-59.66,48.35],[-59.48,48.14],[-59.66,47.51],[-60.56,47.28],[-61.27,46.84]],[[-119.11,36.0],[-119.05,35.77],[-119.27,35.6],[-119.56,35.66],[-120.33,36.5],[-120.98,36.86],[-120.89,37.5],[-121.9,38.14],[-121.97,38.37],[-121.75,38.54],[-122.19,39.05],[-121.96,39.22],[-122.04,39.45],[-121.52,39.57],[-121.6,38.94],[-120.94,38.59],[-121.03,37.96],[-120.74,37.9],[-119.95,37.08],[-119.66,37.01],[-119.59,36.78],[-119.3,36.71],[-119.24,36.48],[-118.95,36.41],[-118.89,36.17],[-119.11,36.0]],[[-114.11,42.71],[-114.05,42.48],[-114.3,42.33],[-115.17,42.32],[-115.42,42.16],[-115.36,41.93],[-116.16,41.68],[-116.1,41.45],[-115.24,41.47],[-114.8,42.02],[-114.13,41.64],[-113.57,41.72],[-113.52,41.49],[-112.85,41.11],[-112.8,40.88],[-113.05,40.72],[-112.64,40.17],[-113.08,39.63],[-112.67,39.08],[-112.92,38.92],[-113.22,39.0],[-113.27,39.23],[-114.12,39.23],[-114.17,39.47],[-113.74,40.02],[-113.79,40.25],[-114.65,40.24],[-115.07,40.78],[-115.37,40.85],[-115.8,40.3],[-115.92,39.68],[-116.16,39.51],[-116.83,39.88],[-117.07,39.72],[-117.0,39.49],[-117.78,39.23],[-117.71,38.99],[-118.12,38.43],[-119.5,39.38],[-119.4,40.01],[-120.07,40.36],[-119.98,40.98],[-119.74,41.14],[-119.81,41.37],[-120.49,41.71],[-120.39,42.32],[-120.16,42.49],[-120.61,42.98],[-120.2,43.53],[-119.1,43.75],[-118.4,43.41],[-117.6,43.67],[-116.91,43.33],[-116.35,43.42],[-116.47,42.81],[-115.6,42.84],[-115.54,42.61],[-115.23,42.54],[-114.11,42.71]],[[-87.83,33.69],[-87.61,33.07],[-87.14,33.05],[-86.68,32.54],[-86.45,32.65],[-85.75,32.48],[-85.76,32.24],[-86.46,32.17],[-86.47,31.93],[-86.71,31.82],[-86.72,31.58],[-86.03,31.42],[-86.04,31.18],[-87.89,31.28],[-88.37,30.81],[-88.83,31.31],[-90.98,31.25],[-91.22,31.38],[-90.74,32.35],[-90.02,32.45],[-89.77,33.05],[-89.53,33.16],[-89.29,33.03],[-89.05,33.14],[-89.04,33.39],[-88.8,33.5],[-88.56,33.36],[-88.07,33.82],[-87.83,33.69]],[[-119.84,46.91],[-119.27,47.02],[-119.2,46.81],[-118.48,46.49],[-118.59,45.91],[-120.29,45.59],[-120.37,45.8],[-119.55,46.07],[-119.63,46.28],[-119.38,46.44],[-119.84,46.91]],[[-89.0,36.26],[-89.25,36.39],[-89.25,36.63],[-88.75,36.6],[-88.51,36.0],[-89.01,36.02],[-89.0,36.26]],[[-142.21,61.83],[-144.62,61.91],[-144.55,62.13],[-144.1,62.22],[-143.28,62.19],[-142.47,62.16],[-142.11,62.04],[-142.21,61.83]],[[-141.86,61.7],[-141.42,61.79],[-140.84,61.33],[-139.63,61.36],[-139.1,60.9],[-139.22,60.7],[-140.4,60.67],[-140.5,60.46],[-140.93,60.38],[-141.25,60.5],[-141.15,60.71],[-140.72,60.79],[-140.62,61.0],[-141.72,61.16],[-141.62,61.37],[-141.96,61.49],[-141.86,61.7]],[[-152.98,59.52],[-152.6,59.64],[-152.22,59.55],[-152.23,59.34],[-152.99,59.31],[-152.98,59.52]],[[-98.83,68.88],[-98.21,68.77],[-98.17,68.52],[-98.73,68.38],[-98.68,68.13],[-102.61,67.82],[-103.92,68.24],[-104.02,68.49],[-104.65,68.57],[-104.76,68.81],[-104.24,68.98],[-103.6,68.89],[-103.5,68.65],[-102.88,68.56],[-98.83,68.88]],[[-112.47,68.07],[-110.97,68.37],[-110.34,68.31],[-110.18,68.07],[-111.68,67.78],[-112.29,67.83],[-112.47,68.07]],[[-151.09,63.27],[-150.66,63.16],[-150.69,62.94],[-151.56,62.92],[-151.54,63.15],[-151.09,63.27]],[[-132.53,54.69],[-131.97,54.5],[-132.11,54.31],[-132.46,54.31],[-132.67,54.5],[-132.53,54.69]],[[-79.41,52.68],[-79.81,52.61],[-80.12,52.78],[-80.03,53.03],[-79.63,53.1],[-79.32,52.93],[-79.41,52.68]],[[-107.91,43.9],[-108.49,43.85],[-108.31,44.44],[-108.99,44.84],[-109.03,45.06],[-108.45,45.12],[-108.4,44.89],[-107.37,44.18],[-107.33,43.95],[-107.91,43.9]],[[-145.06,69.27],[-144.44,69.36],[-142.82,69.18],[-142.95,68.95],[-144.66,68.9],[-145.17,69.03],[-145.06,69.27]],[[-113.57,70.76],[-112.88,70.72],[-112.67,70.48],[-113.14,70.3],[-113.82,70.35],[-114.04,70.58],[-113.57,70.76]],[[-65.77,49.33],[-66.0,49.53],[-66.92,49.24],[-67.15,49.44],[-66.45,49.92],[-65.51,50.21],[-64.68,49.83],[-64.84,49.61],[-65.77,49.33]],[[-115.57,38.27],[-115.81,38.1],[-116.1,38.18],[-116.16,38.41],[-115.74,38.97],[-115.45,38.9],[-115.57,38.27]],[[-114.53,69.09],[-114.95,68.9],[-115.59,68.95],[-115.82,69.17],[-115.39,69.36],[-114.74,69.32],[-114.53,69.09]],[[-66.25,45.08],[-65.91,45.11],[-65.71,44.92],[-65.85,44.7],[-66.19,44.67],[-66.4,44.86],[-66.25,45.08]],[[-80.39,52.04],[-80.78,51.96],[-81.09,52.13],[-81.01,52.37],[-80.61,52.45],[-80.3,52.28],[-80.39,52.04]]],[[[-109.01,49.21],[-108.58,49.74],[-108.66,49.97],[-109.62,49.98],[-110.47,49.76],[-110.38,49.53],[-109.44,49.52],[-109.36,49.29],[-109.01,49.21]]],[[[-78.58,27.05],[-79.19,26.99],[-78.86,26.27],[-78.42,26.69],[-77.63,26.61],[-77.47,26.25],[-77.09,26.22],[-77.22,26.8],[-77.79,26.97],[-77.95,27.34],[-78.56,27.28],[-78.58,27.05]]],[[[-78.63,63.26],[-78.22,63.08],[-77.67,63.15],[-77.53,63.4],[-76.97,63.47],[-76.82,63.72],[-77.24,63.9],[-77.8,63.83],[-77.94,63.58],[-78.5,63.51],[-78.63,63.26]]],[[[-73.47,65.43],[-73.28,65.67],[-73.7,65.86],[-73.51,66.11],[-73.94,66.3],[-74.56,66.24],[-74.74,66.0],[-74.31,65.81],[-74.5,65.56],[-75.1,65.51],[-75.27,65.26],[-76.9,65.32],[-77.33,65.5],[-78.66,65.11],[-78.8,64.86],[-78.37,64.68],[-78.51,64.43],[-77.09,64.15],[-75.78,64.52],[-75.37,64.34],[-72.84,64.13],[-72.45,63.93],[-72.64,63.69],[-71.32,63.35],[-71.51,63.11],[-71.14,62.91],[-71.34,62.67],[-70.98,62.47],[-69.68,62.79],[-69.33,62.59],[-69.53,62.35],[-69.19,62.15],[-67.77,62.01],[-67.55,62.25],[-68.78,62.63],[-68.56,62.86],[-68.91,63.07],[-70.39,63.19],[-70.75,63.39],[-70.55,63.63],[-71.87,63.98],[-71.68,64.22],[-72.06,64.42],[-72.65,64.37],[-73.04,64.56],[-72.85,64.8],[-73.25,65.0],[-73.06,65.24],[-73.47,65.43]]],[[[-170.2,57.4],[-170.49,57.23],[-170.37,57.02],[-169.66,57.16],[-169.78,57.36],[-170.2,57.4]]],[[[-169.32,56.54],[-169.43,56.75],[-169.84,56.78],[-170.13,56.62],[-170.01,56.41],[-169.32,56.54]]],[[[-81.14,68.96],[-81.0,69.21],[-81.54,69.37],[-82.22,69.29],[-82.35,69.04],[-81.81,68.88],[-81.14,68.96]]],[[[-82.5,62.44],[-82.4,62.69],[-81.87,62.78],[-81.77,63.03],[-83.17,63.28],[-83.7,63.18],[-83.79,62.93],[-84.32,62.84],[-84.4,62.58],[-83.97,62.42],[-84.05,62.17],[-83.62,62.01],[-82.5,62.44]]],[[[-105.04,44.34],[-105.0,44.12],[-104.7,44.02],[-104.9,43.43],[-103.17,43.53],[-103.54,44.08],[-103.26,44.21],[-103.29,44.44],[-104.19,44.51],[-104.22,44.73],[-104.53,44.83],[-105.39,44.67],[-105.35,44.44],[-105.04,44.34]]],[[[-70.83,65.86],[-70.61,66.1],[-71.02,66.3],[-71.64,66.25],[-71.85,66.01],[-71.44,65.82],[-70.83,65.86]]],[[[-60.51,44.01],[-60.67,43.8],[-60.5,43.61],[-59.67,43.84],[-59.5,44.04],[-59.67,44.24],[-60.0,44.23],[-60.17,44.02],[-60.51,44.01]]],[[[-87.87,32.24],[-87.63,32.35],[-87.62,32.59],[-87.86,32.73],[-88.1,32.62],[-88.1,32.38],[-87.87,32.24]]],[[[-68.26,63.78],[-68.84,63.75],[-69.05,63.51],[-68.7,63.31],[-68.13,63.34],[-67.79,63.13],[-68.01,62.9],[-67.67,62.69],[-67.12,62.72],[-66.89,62.96],[-65.45,62.8],[-64.41,63.28],[-64.73,63.49],[-65.3,63.47],[-65.54,63.24],[-66.1,63.22],[-68.26,63.78]]],[[[-80.89,59.41],[-80.99,59.15],[-80.61,58.98],[-80.13,59.06],[-80.03,59.31],[-80.4,59.49],[-80.3,59.74],[-79.81,59.82],[-79.7,60.07],[-80.08,60.24],[-80.58,60.16],[-80.68,59.91],[-81.17,59.83],[-81.27,59.58],[-80.89,59.41]]],[[[-77.82,24.79],[-78.21,24.83],[-77.89,24.11],[-77.67,24.44],[-77.82,24.79]]],[[[-43.92,60.2],[-44.38,60.25],[-44.71,60.07],[-44.58,59.84],[-43.33,59.91],[-42.99,60.08],[-43.12,60.32],[-42.77,60.5],[-42.89,60.73],[-43.36,60.79],[-43.71,60.61],[-43.58,60.38],[-43.92,60.2]]],[[[-169.41,63.19],[-168.53,63.32],[-168.66,63.54],[-169.18,63.59],[-170.45,63.28],[-170.3,63.06],[-169.41,63.19]]],[[[-79.28,26.07],[-79.49,25.97],[-79.32,25.61],[-79.09,25.94],[-79.28,26.07]]],[[[-84.79,69.17],[-85.45,69.08],[-85.54,68.83],[-86.19,68.72],[-86.27,68.47],[-85.72,68.32],[-84.33,68.77],[-84.23,69.02],[-84.79,69.17]]],[[[-109.85,48.17],[-109.27,48.23],[-109.35,48.46],[-109.69,48.54],[-109.94,48.39],[-109.85,48.17]]],[[[-156.14,55.91],[-156.12,55.71],[-155.45,55.76],[-155.46,55.96],[-155.81,56.04],[-156.14,55.91]]],[[[-44.99,60.55],[-45.13,60.78],[-45.61,60.83],[-45.94,60.65],[-45.79,60.41],[-45.32,60.36],[-44.99,60.55]]],[[[-68.04,59.98],[-67.84,60.22],[-68.15,60.42],[-68.67,60.39],[-68.86,60.15],[-68.55,59.94],[-68.04,59.98]]],[[[179.13,51.32],[179.52,51.33],[179.69,51.53],[179.48,51.73],[179.09,51.73],[178.92,51.53],[179.13,51.32]]],[[[-61.3,47.67],[-61.13,47.89],[-61.32,48.09],[-62.23,47.84],[-62.37,47.21],[-62.18,47.01],[-61.29,47.26],[-61.11,47.47],[-61.3,47.67]]],[[[-65.91,62.33],[-66.23,62.54],[-66.79,62.51],[-67.01,62.28],[-66.68,62.07],[-66.14,62.1],[-65.91,62.33]]],[[[-98.91,24.3],[-98.68,24.44],[-98.69,24.69],[-98.94,24.81],[-99.17,24.66],[-99.16,24.41],[-98.91,24.3]]],[[[-146.61,59.31],[-146.21,59.41],[-146.15,59.62],[-146.9,59.62],[-146.95,59.42],[-146.61,59.31]]],[[[-156.49,55.99],[-156.51,56.19],[-156.86,56.26],[-157.2,56.13],[-157.17,55.93],[-156.49,55.99]]],[[[-81.56,54.12],[-81.23,53.95],[-80.82,54.03],[-80.73,54.28],[-81.06,54.45],[-81.48,54.37],[-81.56,54.12]]],[[[-48.38,61.54],[-48.55,61.78],[-49.06,61.82],[-49.39,61.62],[-49.21,61.39],[-48.71,61.35],[-48.38,61.54]]],[[[-96.64,70.69],[-96.61,70.44],[-95.95,70.33],[-95.32,70.46],[-95.34,70.71],[-96.0,70.82],[-96.64,70.69]]]]}}]}