{"type":"FeatureCollection","features":[{"type":"Feature","properties":{},"geometry":{"type":"MultiPolygon","coordinates":[[[[-75.72,34.85],[-75.45,34.91],[-75.37,35.11],[-75.09,35.16],[-75.01,35.36],[-75.21,35.52],[-75.13,35.72],[-75.33,35.87],[-75.24,36.08],[-75.44,36.23],[-75.36,36.44],[-75.57,36.59],[-75.48,36.8],[-75.69,36.96],[-75.61,37.17],[-75.32,37.22],[-75.23,37.43],[-75.44,37.59],[-75.36,37.8],[-75.56,37.95],[-75.86,37.9],[-75.94,37.69],[-76.23,37.63],[-76.31,37.42],[-76.6,37.37],[-76.68,37.16],[-76.47,37.0],[-76.18,37.06],[-75.98,36.9],[-76.06,36.69],[-76.34,36.64],[-76.55,36.79],[-76.83,36.74],[-76.91,36.53],[-77.19,36.47],[-77.27,36.26],[-77.55,36.21],[-77.62,36.0],[-77.9,35.94],[-77.97,35.73],[-78.25,35.68],[-78.31,35.47],[-78.59,35.41],[-78.66,35.21],[-78.93,35.15],[-79.14,35.29],[-79.41,35.23],[-79.47,35.03],[-79.74,34.97],[-79.95,35.11],[-80.23,35.05],[-80.28,34.84],[-80.55,34.78],[-80.61,34.58],[-80.84,34.49],[-81.05,34.63],[-81.29,34.54],[-81.3,34.31],[-81.54,34.22],[-81.75,34.36],[-81.98,34.27],[-82.0,34.04],[-82.23,33.95],[-82.45,34.09],[-82.68,34.0],[-82.7,33.76],[-82.93,33.67],[-82.95,33.44],[-83.18,33.34],[-83.4,33.48],[-83.64,33.38],[-83.86,33.52],[-84.09,33.42],[-84.1,33.19],[-84.34,33.09],[-84.35,32.85],[-84.59,32.75],[-84.81,32.89],[-85.05,32.79],[-85.27,32.92],[-85.51,32.82],[-85.52,32.58],[-85.75,32.48],[-85.98,32.62],[-86.22,32.51],[-86.45,32.65],[-86.68,32.54],[-86.91,32.67],[-87.15,32.57],[-87.38,32.7],[-87.38,32.94],[-87.61,33.07],[-87.6,33.31],[-87.84,33.45],[-88.08,33.34],[-88.32,33.47],[-88.31,33.71],[-88.07,33.82],[-88.07,34.06],[-88.3,34.19],[-88.3,34.43],[-88.54,34.57],[-88.78,34.46],[-88.79,34.22],[-89.03,34.11],[-89.27,34.24],[-89.27,34.48],[-89.52,34.61],[-89.76,34.5],[-90.01,34.63],[-90.25,34.52],[-90.5,34.65],[-90.75,34.54],[-91.0,34.67],[-91.25,34.56],[-91.5,34.69],[-91.74,34.57],[-92.0,34.7],[-92.24,34.58],[-92.5,34.71],[-92.75,34.59],[-92.74,34.35],[-92.99,34.23],[-93.25,34.36],[-93.5,34.24],[-93.49,33.99],[-93.74,33.87],[-93.99,34.0],[-94.24,33.88],[-94.5,34.0],[-94.75,33.88],[-94.74,33.63],[-94.99,33.51],[-95.25,33.63],[-95.49,33.5],[-95.75,33.63],[-96.0,33.5],[-95.99,33.25],[-96.24,33.12],[-96.5,33.24],[-96.51,33.49],[-96.78,33.61],[-97.02,33.48],[-97.01,33.23],[-97.26,33.1],[-97.24,32.86],[-97.49,32.72],[-97.47,32.48],[-97.21,32.36],[-97.2,32.11],[-97.44,31.98],[-97.43,31.73],[-97.17,31.61],[-97.15,31.36],[-97.4,31.22],[-97.38,30.97],[-97.62,30.84],[-97.61,30.59],[-97.85,30.45],[-97.83,30.2],[-98.08,30.07],[-98.06,29.81],[-98.3,29.68],[-98.28,29.43],[-98.52,29.29],[-98.5,29.04],[-98.25,28.92],[-98.23,28.67],[-98.47,28.53],[-98.45,28.28],[-98.2,28.16],[-98.18,27.91],[-98.42,27.77],[-98.4,27.51],[-98.15,27.4],[-98.13,27.15],[-98.37,27.01],[-98.35,26.75],[-98.58,26.61],[-98.84,26.73],[-99.07,26.59],[-99.05,26.33],[-98.8,26.22],[-98.78,25.96],[-98.53,25.85],[-98.51,25.6],[-98.27,25.48],[-98.25,25.23],[-98.0,25.11],[-97.98,24.86],[-97.74,24.75],[-97.72,24.49],[-97.95,24.35],[-97.94,24.1],[-97.69,23.98],[-97.46,24.12],[-97.48,24.38],[-97.25,24.52],[-97.26,24.77],[-97.51,24.88],[-97.52,25.14],[-97.29,25.28],[-97.3,25.53],[-97.07,25.67],[-97.09,25.92],[-96.85,26.06],[-96.87,26.31],[-97.11,26.43],[-97.13,26.68],[-97.38,26.8],[-97.39,27.05],[-97.16,27.19],[-97.17,27.44],[-96.93,27.58],[-96.95,27.83],[-96.71,27.97],[-96.46,27.85],[-96.22,27.98],[-96.24,28.23],[-96.0,28.37],[-95.75,28.25],[-95.51,28.38],[-95.52,28.63],[-95.29,28.76],[-95.04,28.64],[-94.8,28.77],[-94.81,29.02],[-94.57,29.15],[-94.58,29.4],[-94.34,29.53],[-94.09,29.41],[-93.85,29.54],[-93.61,29.41],[-93.37,29.54],[-93.12,29.42],[-92.89,29.54],[-92.64,29.42],[-92.4,29.54],[-92.16,29.41],[-92.16,29.17],[-91.92,29.04],[-91.68,29.16],[-91.44,29.04],[-91.21,29.16],[-90.97,29.03],[-90.97,28.79],[-90.73,28.66],[-90.5,28.78],[-90.26,28.65],[-90.03,28.77],[-90.03,29.02],[-89.79,29.14],[-89.56,29.01],[-89.56,28.76],[-89.33,28.64],[-89.1,28.75],[-89.09,29.0],[-88.86,29.12],[-88.86,29.36],[-88.62,29.48],[-88.62,29.72],[-88.39,29.84],[-88.38,30.08],[-88.15,30.19],[-87.92,30.06],[-87.68,30.17],[-87.45,30.04],[-87.22,30.15],[-86.99,30.02],[-86.76,30.13],[-86.54,30.0],[-86.31,30.11],[-86.08,29.98],[-85.85,30.09],[-85.63,29.95],[-85.64,29.71],[-85.42,29.58],[-85.43,29.34],[-85.21,29.21],[-84.98,29.31],[-84.97,29.55],[-84.74,29.66],[-84.53,29.53],[-84.3,29.63],[-84.29,29.87],[-84.06,29.97],[-83.85,29.84],[-83.86,29.6],[-83.65,29.47],[-83.66,29.23],[-83.45,29.1],[-83.46,28.86],[-83.25,28.73],[-83.03,28.83],[-82.82,28.7],[-82.84,28.46],[-83.06,28.36],[-83.08,28.12],[-83.3,28.01],[-83.31,27.78],[-83.1,27.64],[-83.12,27.41],[-82.91,27.28],[-82.93,27.04],[-82.72,26.91],[-82.74,26.67],[-82.54,26.54],[-82.55,26.3],[-82.35,26.17],[-82.13,26.28],[-81.93,26.15],[-81.95,25.91],[-81.75,25.78],[-81.77,25.54],[-81.57,25.41],[-81.59,25.18],[-81.8,25.07],[-81.82,24.84],[-82.03,24.73],[-82.23,24.86],[-82.45,24.75],[-82.46,24.52],[-82.26,24.39],[-82.05,24.5],[-81.85,24.37],[-81.64,24.48],[-81.45,24.35],[-81.23,24.45],[-81.04,24.32],[-80.83,24.43],[-80.81,24.66],[-80.6,24.77],[-80.41,24.64],[-80.2,24.74],[-80.18,24.97],[-79.97,25.08],[-79.95,25.31],[-80.14,25.44],[-80.12,25.67],[-79.91,25.77],[-79.89,26.0],[-79.68,26.1],[-79.66,26.33],[-79.85,26.47],[-79.83,26.7],[-80.02,26.83],[-80.0,27.06],[-79.79,27.16],[-79.76,27.39],[-79.96,27.53],[-79.94,27.76],[-80.13,27.89],[-80.11,28.12],[-80.31,28.26],[-80.29,28.49],[-80.49,28.62],[-80.47,28.86],[-80.66,28.99],[-80.64,29.23],[-80.85,29.36],[-80.83,29.59],[-81.03,29.73],[-81.01,29.96],[-81.21,30.1],[-81.19,30.33],[-80.97,30.43],[-80.95,30.66],[-81.16,30.8],[-81.14,31.03],[-80.91,31.12],[-80.89,31.36],[-81.1,31.49],[-81.08,31.73],[-80.85,31.82],[-80.83,32.05],[-80.61,32.14],[-80.4,32.0],[-80.18,32.09],[-80.16,32.32],[-79.93,32.41],[-79.91,32.64],[-79.69,32.73],[-79.48,32.59],[-79.26,32.68],[-79.24,32.91],[-79.01,32.99],[-78.99,33.22],[-78.77,33.31],[-78.7,33.51],[-78.44,33.56],[-78.37,33.76],[-78.11,33.82],[-77.91,33.67],[-77.64,33.73],[-77.57,33.93],[-77.77,34.07],[-77.7,34.28],[-77.43,34.33],[-77.36,34.53],[-77.09,34.59],[-76.89,34.44],[-76.62,34.49],[-76.42,34.35],[-76.15,34.4],[-76.08,34.6],[-76.27,34.75],[-76.2,34.95],[-75.92,35.0],[-75.72,34.85]],[[-88.81,32.77],[-88.57,32.64],[-88.58,32.4],[-88.82,32.29],[-89.05,32.42],[-89.29,32.31],[-89.53,32.44],[-89.53,32.68],[-89.29,32.79],[-89.29,33.03],[-89.53,33.16],[-89.53,33.41],[-89.28,33.52],[-89.04,33.39],[-89.05,33.14],[-88.81,33.01],[-88.81,32.77]]],[[[-118.39,34.26],[-118.67,34.33],[-118.89,34.16],[-119.18,34.23],[-119.24,34.47],[-119.53,34.54],[-119.75,34.37],[-120.03,34.43],[-120.09,34.67],[-120.38,34.74],[-120.44,34.97],[-120.73,35.04],[-120.95,34.87],[-120.88,34.63],[-120.6,34.56],[-120.53,34.33],[-120.25,34.26],[-120.18,34.02],[-119.9,33.95],[-119.84,33.71],[-119.55,33.64],[-119.34,33.82],[-119.05,33.75],[-118.83,33.92],[-118.55,33.85],[-118.49,33.61],[-118.71,33.44],[-118.65,33.19],[-118.87,33.02],[-118.8,32.78],[-118.52,32.71],[-118.3,32.88],[-118.36,33.12],[-118.14,33.29],[-117.86,33.22],[-117.8,32.98],[-117.52,32.9],[-117.46,32.66],[-117.68,32.49],[-117.62,32.24],[-117.34,32.17],[-117.28,31.92],[-117.0,31.85],[-116.95,31.6],[-116.67,31.52],[-116.44,31.69],[-116.5,31.94],[-116.78,32.01],[-116.84,32.26],[-117.12,32.34],[-117.18,32.58],[-116.95,32.75],[-117.01,33.0],[-117.29,33.07],[-117.35,33.31],[-117.64,33.39],[-117.7,33.63],[-117.98,33.7],[-118.04,33.95],[-118.32,34.02],[-118.39,34.26]]],[[[-64.81,32.13],[-64.69,32.31],[-64.43,32.34],[-64.31,32.52],[-64.46,32.68],[-64.73,32.66],[-64.84,32.47],[-65.11,32.44],[-65.22,32.26],[-65.07,32.11],[-64.81,32.13]]],[[[-73.57,40.69],[-73.35,40.52],[-73.04,40.57],[-72.94,40.79],[-72.63,40.84],[-72.42,40.67],[-72.1,40.72],[-72.0,40.93],[-72.21,41.1],[-72.1,41.32],[-72.31,41.49],[-72.63,41.45],[-72.85,41.62],[-73.17,41.57],[-73.27,41.35],[-73.59,41.3],[-73.68,41.08],[-74.0,41.03],[-74.1,40.81],[-74.41,40.75],[-74.5,40.54],[-74.29,40.37],[-74.38,40.15],[-74.16,39.99],[-73.86,40.04],[-73.76,40.26],[-73.98,40.42],[-73.88,40.64],[-73.57,40.69]]],[[[-71.36,41.63],[-71.15,41.46],[-70.83,41.5],[-70.71,41.72],[-70.92,41.89],[-71.24,41.85],[-71.36,41.63]]],[[[-78.65,26.36],[-78.46,26.23],[-78.25,26.33],[-78.07,26.2],[-77.86,26.29],[-77.68,26.16],[-77.7,25.93],[-77.91,25.84],[-77.93,25.61],[-77.75,25.48],[-77.55,25.57],[-77.52,25.8],[-77.32,25.89],[-77.29,26.12],[-77.09,26.22],[-77.06,26.44],[-76.86,26.53],[-76.83,26.76],[-77.01,26.89],[-77.22,26.8],[-77.4,26.93],[-77.37,27.16],[-77.56,27.3],[-77.76,27.2],[-77.95,27.34],[-78.16,27.24],[-78.35,27.38],[-78.56,27.28],[-78.58,27.05],[-78.79,26.96],[-78.98,27.09],[-79.19,26.99],[-79.21,26.76],[-79.02,26.63],[-79.04,26.4],[-79.26,26.3],[-79.28,26.07],[-79.49,25.97],[-79.51,25.74],[-79.32,25.61],[-79.34,25.38],[-79.15,25.25],[-78.95,25.35],[-78.92,25.58],[-79.11,25.71],[-79.09,25.94],[-78.88,26.04],[-78.86,26.27],[-78.65,26.36]]],[[[-88.52,21.75],[-88.74,21.63],[-88.74,21.39],[-88.53,21.27],[-88.31,21.39],[-88.09,21.27],[-87.88,21.39],[-87.67,21.27],[-87.45,21.39],[-87.24,21.27],[-87.02,21.39],[-86.81,21.27],[-86.6,21.39],[-86.59,21.63],[-86.8,21.76],[-87.01,21.64],[-87.22,21.76],[-87.44,21.64],[-87.65,21.76],[-87.87,21.63],[-88.09,21.76],[-88.3,21.63],[-88.52,21.75]]],[[[-78.0,24.92],[-78.21,24.83],[-78.23,24.6],[-78.05,24.47],[-77.85,24.57],[-77.82,24.79],[-78.0,24.92]]],[[[-83.29,24.56],[-83.09,24.43],[-82.88,24.54],[-82.86,24.77],[-83.06,24.9],[-83.28,24.79],[-83.29,24.56]]]]}}]}