{"type":"FeatureCollection","features":[{"type":"Feature","properties":{},"geometry":{"type":"MultiPolygon","coordinates":[[[[95.54,28.52],[95.29,28.42],[95.06,28.55],[94.81,28.44],[94.79,28.21],[94.54,28.11],[94.31,28.24],[94.06,28.13],[94.04,27.9],[93.79,27.79],[93.77,27.56],[93.53,27.45],[93.51,27.22],[93.26,27.11],[93.03,27.24],[93.05,27.48],[92.82,27.6],[92.57,27.49],[92.55,27.26],[92.31,27.15],[92.08,27.28],[91.83,27.17],[91.6,27.29],[91.35,27.18],[91.12,27.31],[90.88,27.2],[90.65,27.32],[90.4,27.21],[90.18,27.33],[89.93,27.22],[89.92,26.98],[89.67,26.87],[89.44,26.99],[89.2,26.88],[88.97,27.0],[88.99,27.23],[88.76,27.35],[88.51,27.24],[88.29,27.36],[88.04,27.24],[87.82,27.36],[87.57,27.25],[87.35,27.36],[87.36,27.59],[87.13,27.71],[86.89,27.59],[86.88,27.36],[86.64,27.25],[86.41,27.36],[86.42,27.59],[86.2,27.71],[85.96,27.59],[85.73,27.7],[85.74,27.93],[85.52,28.04],[85.28,27.93],[85.05,28.04],[85.06,28.27],[84.83,28.37],[84.59,28.26],[84.36,28.36],[84.12,28.24],[83.89,28.35],[83.65,28.23],[83.42,28.34],[83.18,28.22],[82.95,28.32],[82.95,28.55],[82.71,28.66],[82.47,28.54],[82.23,28.64],[82.23,28.88],[81.99,28.98],[81.76,28.86],[81.51,28.96],[81.51,29.2],[81.27,29.3],[81.26,29.54],[81.02,29.64],[80.78,29.51],[80.53,29.62],[80.52,29.85],[80.28,29.96],[80.04,29.83],[79.79,29.93],[79.55,29.8],[79.3,29.91],[79.29,30.14],[79.03,30.25],[79.02,30.48],[78.77,30.59],[78.53,30.45],[78.27,30.56],[78.26,30.79],[78.0,30.9],[77.76,30.76],[77.5,30.86],[77.26,30.73],[77.0,30.83],[76.98,31.07],[77.22,31.2],[77.2,31.44],[76.94,31.54],[76.92,31.78],[76.66,31.89],[76.63,32.13],[76.37,32.23],[76.35,32.47],[76.08,32.57],[75.83,32.43],[75.57,32.53],[75.54,32.77],[75.27,32.87],[75.24,33.12],[74.97,33.22],[74.73,33.07],[74.45,33.17],[74.42,33.41],[74.15,33.51],[74.11,33.76],[73.84,33.85],[73.59,33.71],[73.31,33.8],[73.28,34.05],[73.0,34.14],[72.96,34.39],[72.68,34.48],[72.44,34.33],[72.48,34.09],[72.76,33.99],[72.79,33.75],[72.55,33.6],[72.59,33.36],[72.87,33.26],[72.9,33.02],[72.67,32.87],[72.39,32.96],[72.15,32.82],[72.19,32.57],[72.47,32.48],[72.7,32.63],[72.98,32.53],[73.22,32.68],[73.49,32.59],[73.73,32.73],[74.0,32.64],[74.03,32.39],[74.3,32.3],[74.33,32.06],[74.1,31.91],[74.13,31.67],[74.4,31.57],[74.43,31.34],[74.69,31.24],[74.72,31.0],[74.49,30.86],[74.51,30.62],[74.78,30.52],[74.81,30.29],[74.57,30.14],[74.6,29.91],[74.86,29.81],[74.89,29.58],[75.15,29.48],[75.17,29.25],[75.43,29.15],[75.46,28.92],[75.71,28.82],[75.73,28.59],[75.51,28.45],[75.53,28.22],[75.3,28.08],[75.33,27.85],[75.1,27.71],[75.13,27.48],[74.91,27.34],[74.93,27.12],[75.18,27.02],[75.4,27.16],[75.65,27.07],[75.68,26.84],[75.92,26.74],[76.15,26.88],[76.12,27.11],[76.35,27.24],[76.59,27.15],[76.82,27.28],[77.07,27.18],[77.29,27.32],[77.54,27.22],[77.56,26.99],[77.8,26.89],[78.03,27.03],[78.27,26.93],[78.28,26.7],[78.52,26.6],[78.54,26.38],[78.78,26.28],[79.0,26.41],[79.24,26.31],[79.25,26.08],[79.49,25.99],[79.71,26.11],[79.95,26.01],[79.96,25.79],[80.19,25.69],[80.2,25.47],[80.42,25.36],[80.64,25.49],[80.86,25.38],[80.85,25.15],[80.63,25.02],[80.41,25.13],[80.19,25.0],[80.18,24.77],[79.96,24.65],[79.95,24.41],[80.17,24.3],[80.16,24.07],[79.94,23.94],[79.93,23.71],[80.15,23.6],[80.37,23.73],[80.38,23.96],[80.6,24.09],[80.82,23.98],[80.81,23.74],[80.59,23.61],[80.58,23.38],[80.36,23.25],[80.35,23.02],[80.13,22.89],[80.12,22.65],[80.34,22.54],[80.33,22.31],[80.55,22.19],[80.54,21.95],[80.75,21.84],[80.98,21.96],[80.98,22.2],[81.21,22.33],[81.43,22.21],[81.65,22.34],[81.87,22.22],[82.1,22.35],[82.31,22.23],[82.54,22.35],[82.76,22.24],[82.99,22.36],[83.21,22.24],[83.44,22.37],[83.66,22.25],[83.89,22.37],[84.11,22.25],[84.34,22.37],[84.56,22.25],[84.79,22.37],[85.01,22.25],[85.0,22.01],[85.22,21.89],[85.21,21.65],[85.44,21.52],[85.42,21.28],[85.65,21.16],[85.88,21.28],[85.89,21.52],[86.12,21.64],[86.35,21.52],[86.58,21.64],[86.59,21.88],[86.37,22.0],[86.38,22.25],[86.62,22.37],[86.63,22.61],[86.87,22.73],[87.09,22.61],[87.33,22.72],[87.55,22.6],[87.79,22.72],[88.01,22.59],[88.25,22.71],[88.47,22.58],[88.46,22.34],[88.69,22.21],[88.92,22.33],[89.15,22.2],[89.13,21.96],[88.9,21.84],[88.67,21.97],[88.43,21.85],[88.21,21.98],[87.97,21.86],[87.75,21.99],[87.51,21.87],[87.5,21.62],[87.72,21.5],[87.96,21.61],[88.18,21.49],[88.42,21.61],[88.64,21.48],[88.88,21.59],[89.11,21.47],[89.34,21.58],[89.57,21.45],[89.81,21.57],[89.82,21.81],[90.06,21.93],[90.29,21.8],[90.53,21.91],[90.75,21.78],[91.0,21.9],[91.01,22.14],[91.25,22.26],[91.48,22.13],[91.72,22.24],[91.95,22.11],[91.93,21.86],[91.69,21.75],[91.67,21.5],[91.9,21.37],[91.88,21.12],[92.1,20.99],[92.09,20.74],[92.31,20.6],[92.29,20.36],[92.52,20.22],[92.76,20.33],[92.98,20.2],[92.97,19.95],[93.19,19.81],[93.17,19.56],[93.4,19.42],[93.38,19.17],[93.6,19.04],[93.58,18.78],[93.81,18.65],[94.05,18.76],[94.27,18.62],[94.25,18.37],[94.47,18.23],[94.46,17.97],[94.21,17.86],[94.2,17.61],[94.42,17.47],[94.4,17.22],[94.16,17.1],[94.14,16.85],[94.36,16.71],[94.34,16.46],[94.1,16.34],[94.09,16.09],[94.31,15.95],[94.29,15.69],[94.51,15.55],[94.75,15.66],[94.97,15.52],[95.21,15.63],[95.43,15.49],[95.67,15.6],[95.69,15.86],[95.93,15.97],[95.95,16.22],[96.19,16.33],[96.41,16.19],[96.65,16.3],[96.67,16.55],[96.91,16.66],[97.13,16.52],[97.11,16.26],[97.33,16.12],[97.31,15.87],[97.53,15.72],[97.51,15.47],[97.73,15.32],[97.71,15.07],[97.47,14.96],[97.45,14.7],[97.66,14.56],[97.64,14.3],[97.86,14.15],[97.84,13.9],[97.6,13.79],[97.58,13.53],[97.8,13.39],[97.78,13.13],[97.99,12.99],[97.97,12.73],[97.74,12.62],[97.71,12.36],[97.48,12.25],[97.46,12.0],[97.22,11.89],[97.2,11.63],[97.41,11.48],[97.65,11.59],[97.87,11.45],[97.85,11.19],[97.61,11.08],[97.59,10.82],[97.81,10.68],[97.78,10.42],[97.55,10.31],[97.53,10.05],[97.74,9.91],[97.72,9.65],[97.49,9.54],[97.47,9.28],[97.68,9.13],[97.66,8.88],[97.42,8.77],[97.4,8.51],[97.62,8.36],[97.85,8.47],[98.07,8.33],[98.05,8.07],[98.26,7.93],[98.24,7.67],[98.0,7.56],[97.98,7.3],[98.2,7.16],[98.43,7.27],[98.45,7.52],[98.69,7.63],[98.9,7.49],[98.88,7.23],[99.09,7.09],[99.07,6.83],[98.84,6.72],[98.81,6.46],[99.03,6.32],[99.26,6.43],[99.47,6.28],[99.45,6.03],[99.66,5.88],[99.9,5.99],[100.11,5.84],[100.08,5.59],[99.85,5.48],[99.83,5.23],[100.04,5.08],[100.02,4.83],[100.23,4.68],[100.21,4.43],[100.42,4.28],[100.39,4.03],[100.6,3.88],[100.58,3.63],[100.79,3.49],[100.77,3.23],[100.97,3.09],[100.95,2.84],[101.16,2.69],[101.14,2.44],[100.91,2.33],[100.7,2.48],[100.72,2.73],[100.51,2.87],[100.28,2.76],[100.07,2.91],[100.09,3.16],[99.89,3.3],[99.91,3.56],[99.7,3.7],[99.47,3.59],[99.26,3.73],[99.02,3.62],[98.81,3.77],[98.83,4.02],[98.62,4.17],[98.64,4.42],[98.43,4.57],[98.45,4.82],[98.24,4.97],[98.01,4.86],[97.8,5.0],[97.82,5.26],[97.61,5.4],[97.37,5.29],[97.16,5.43],[96.93,5.32],[96.71,5.47],[96.48,5.36],[96.27,5.5],[96.29,5.76],[96.07,5.9],[95.84,5.79],[95.63,5.93],[95.65,6.19],[95.43,6.34],[95.2,6.22],[95.18,5.97],[94.95,5.86],[94.93,5.6],[95.14,5.46],[95.13,5.2],[95.34,5.06],[95.32,4.8],[95.53,4.66],[95.51,4.4],[95.73,4.26],[95.71,4.0],[95.92,3.86],[96.15,3.97],[96.36,3.83],[96.35,3.57],[96.56,3.43],[96.79,3.54],[97.0,3.4],[96.98,3.14],[97.19,3.0],[97.17,2.75],[97.38,2.6],[97.36,2.35],[97.13,2.24],[96.92,2.38],[96.69,2.27],[96.48,2.42],[96.5,2.67],[96.29,2.81],[96.31,3.07],[96.09,3.21],[95.86,3.1],[95.65,3.24],[95.42,3.13],[95.4,2.88],[95.61,2.74],[95.6,2.48],[95.81,2.34],[96.04,2.45],[96.25,2.31],[96.23,2.05],[96.44,1.91],[96.67,2.02],[96.88,1.88],[97.11,1.99],[97.32,1.85],[97.3,1.59],[97.07,1.48],[97.05,1.23],[97.26,1.09],[97.24,0.84],[97.45,0.7],[97.43,0.45],[97.64,0.31],[97.87,0.42],[97.89,0.67],[98.12,0.77],[98.14,1.03],[97.93,1.17],[97.95,1.42],[97.74,1.56],[97.76,1.81],[97.99,1.92],[98.2,1.78],[98.18,1.53],[98.39,1.39],[98.62,1.49],[98.83,1.35],[98.81,1.1],[99.02,0.96],[99.0,0.71],[98.77,0.6],[98.75,0.35],[98.52,0.24],[98.31,0.38],[98.08,0.27],[98.06,0.02],[98.27,-0.12],[98.25,-0.37],[98.46,-0.51],[98.44,-0.75],[98.64,-0.89],[98.62,-1.14],[98.4,-1.25],[98.37,-1.5],[98.58,-1.64],[98.81,-1.53],[99.02,-1.67],[99.0,-1.91],[99.2,-2.05],[99.43,-1.94],[99.45,-1.7],[99.25,-1.56],[99.27,-1.31],[99.06,-1.17],[99.08,-0.93],[98.87,-0.79],[98.89,-0.54],[98.69,-0.4],[98.71,-0.15],[98.94,-0.04],[98.96,0.21],[99.19,0.32],[99.39,0.18],[99.37,-0.07],[99.58,-0.21],[99.56,-0.46],[99.77,-0.6],[100.0,-0.49],[100.2,-0.63],[100.18,-0.88],[100.39,-1.02],[100.36,-1.27],[100.57,-1.41],[100.55,-1.65],[100.75,-1.79],[100.73,-2.04],[100.94,-2.18],[100.91,-2.42],[101.12,-2.56],[101.1,-2.8],[101.3,-2.94],[101.28,-3.18],[101.48,-3.32],[101.71,-3.21],[101.91,-3.35],[101.89,-3.59],[102.09,-3.72],[102.07,-3.97],[102.27,-4.1],[102.5,-3.99],[102.7,-4.13],[102.68,-4.37],[102.88,-4.5],[103.1,-4.4],[103.3,-4.53],[103.28,-4.77],[103.48,-4.9],[103.7,-4.8],[103.9,-4.93],[103.88,-5.17],[104.08,-5.3],[104.05,-5.53],[104.25,-5.67],[104.48,-5.56],[104.67,-5.69],[104.9,-5.58],[105.1,-5.71],[105.32,-5.61],[105.51,-5.74],[105.74,-5.63],[105.76,-5.4],[105.98,-5.29],[106.01,-5.05],[105.81,-4.92],[105.84,-4.69],[105.64,-4.55],[105.67,-4.32],[105.89,-4.21],[105.91,-3.97],[105.72,-3.84],[105.74,-3.6],[105.96,-3.49],[105.99,-3.25],[106.21,-3.14],[106.24,-2.9],[106.46,-2.8],[106.66,-2.93],[106.88,-2.82],[106.91,-2.58],[106.71,-2.45],[106.49,-2.56],[106.29,-2.42],[106.32,-2.18],[106.12,-2.04],[106.14,-1.8],[105.94,-1.66],[105.97,-1.42],[105.77,-1.28],[105.55,-1.39],[105.52,-1.63],[105.3,-1.74],[105.27,-1.99],[105.47,-2.12],[105.7,-2.01],[105.89,-2.15],[105.87,-2.39],[105.64,-2.5],[105.45,-2.36],[105.22,-2.47],[105.02,-2.34],[105.05,-2.09],[104.85,-1.96],[104.62,-2.06],[104.42,-1.93],[104.45,-1.68],[104.67,-1.58],[104.7,-1.33],[104.49,-1.19],[104.52,-0.95],[104.75,-0.84],[104.77,-0.59],[105.0,-0.49],[105.02,-0.24],[104.82,-0.1],[104.85,0.14],[104.64,0.28],[104.67,0.53],[104.9,0.64],[104.92,0.89],[104.72,1.03],[104.74,1.28],[104.54,1.42],[104.57,1.67],[104.36,1.81],[104.39,2.06],[104.19,2.2],[104.21,2.45],[104.44,2.56],[104.46,2.81],[104.26,2.95],[104.03,2.84],[103.83,2.99],[103.85,3.24],[103.65,3.38],[103.67,3.63],[103.46,3.78],[103.49,4.03],[103.72,4.14],[103.74,4.39],[103.54,4.53],[103.56,4.79],[103.79,4.89],[103.82,5.15],[103.61,5.29],[103.38,5.18],[103.17,5.33],[103.2,5.58],[103.43,5.69],[103.45,5.94],[103.25,6.09],[103.02,5.98],[102.81,6.13],[102.58,6.02],[102.37,6.17],[102.39,6.42],[102.18,6.57],[101.95,6.46],[101.74,6.61],[101.76,6.86],[101.55,7.01],[101.58,7.26],[101.37,7.41],[101.13,7.3],[100.92,7.45],[100.94,7.7],[100.73,7.85],[100.76,8.11],[100.99,8.22],[101.01,8.47],[100.8,8.62],[100.57,8.51],[100.35,8.66],[100.38,8.91],[100.16,9.06],[100.19,9.32],[100.42,9.43],[100.45,9.68],[100.23,9.83],[100.25,10.09],[100.04,10.23],[100.06,10.49],[99.85,10.64],[99.87,10.89],[99.66,11.04],[99.68,11.3],[99.92,11.41],[99.94,11.66],[100.18,11.77],[100.2,12.03],[99.98,12.17],[100.01,12.43],[100.25,12.54],[100.27,12.79],[100.51,12.9],[100.72,12.75],[100.7,12.5],[100.91,12.35],[101.15,12.46],[101.36,12.31],[101.6,12.41],[101.81,12.27],[101.79,12.01],[102.0,11.86],[101.98,11.61],[102.19,11.46],[102.43,11.56],[102.64,11.41],[102.62,11.16],[102.83,11.01],[102.8,10.76],[102.57,10.65],[102.54,10.39],[102.75,10.25],[102.73,9.99],[102.94,9.84],[103.17,9.95],[103.2,10.2],[103.43,10.31],[103.64,10.16],[103.62,9.91],[103.83,9.76],[103.8,9.5],[103.57,9.4],[103.36,9.55],[103.13,9.44],[103.1,9.18],[103.31,9.04],[103.54,9.14],[103.75,8.99],[103.99,9.1],[104.01,9.35],[104.25,9.46],[104.45,9.31],[104.43,9.06],[104.64,8.91],[104.61,8.65],[104.82,8.51],[105.05,8.61],[105.26,8.46],[105.49,8.57],[105.51,8.82],[105.75,8.93],[105.77,9.18],[106.0,9.28],[106.21,9.13],[106.44,9.24],[106.47,9.49],[106.7,9.59],[106.73,9.85],[106.96,9.95],[106.98,10.2],[107.22,10.3],[107.42,10.15],[107.65,10.25],[107.68,10.51],[107.91,10.61],[108.11,10.46],[108.34,10.56],[108.37,10.81],[108.6,10.91],[108.63,11.16],[108.86,11.26],[109.06,11.11],[109.29,11.21],[109.32,11.46],[109.55,11.55],[109.57,11.8],[109.37,11.95],[109.4,12.2],[109.63,12.3],[109.66,12.55],[109.89,12.65],[109.92,12.89],[109.72,13.05],[109.75,13.29],[109.55,13.45],[109.58,13.69],[109.37,13.85],[109.4,14.09],[109.2,14.25],[109.23,14.49],[109.46,14.59],[109.49,14.84],[109.29,14.99],[109.32,15.24],[109.55,15.33],[109.58,15.58],[109.38,15.73],[109.14,15.64],[108.94,15.79],[108.71,15.69],[108.5,15.85],[108.53,16.09],[108.32,16.25],[108.35,16.49],[108.15,16.65],[107.91,16.55],[107.71,16.7],[107.73,16.95],[107.53,17.1],[107.55,17.35],[107.35,17.5],[107.11,17.41],[106.9,17.56],[106.93,17.81],[106.72,17.96],[106.75,18.21],[106.54,18.36],[106.3,18.26],[106.27,18.01],[106.03,17.92],[105.82,18.07],[105.85,18.32],[106.09,18.41],[106.11,18.66],[105.9,18.81],[105.93,19.06],[106.17,19.15],[106.2,19.4],[105.98,19.55],[106.01,19.79],[105.8,19.94],[105.56,19.85],[105.35,20.0],[105.37,20.24],[105.61,20.34],[105.64,20.58],[105.43,20.73],[105.45,20.98],[105.24,21.13],[105.27,21.37],[105.05,21.52],[105.08,21.76],[105.32,21.85],[105.54,21.7],[105.51,21.46],[105.72,21.31],[105.96,21.4],[105.99,21.65],[106.23,21.74],[106.45,21.59],[106.42,21.35],[106.63,21.19],[106.6,20.95],[106.81,20.8],[106.79,20.56],[107.0,20.41],[107.24,20.5],[107.27,20.74],[107.05,20.89],[107.08,21.13],[107.32,21.22],[107.53,21.07],[107.5,20.83],[107.71,20.68],[107.95,20.77],[107.98,21.01],[108.22,21.1],[108.25,21.34],[108.49,21.43],[108.52,21.67],[108.31,21.82],[108.34,22.06],[108.57,22.14],[108.78,21.99],[109.02,22.08],[109.23,21.93],[109.47,22.01],[109.67,21.86],[109.91,21.94],[110.12,21.79],[110.35,21.87],[110.56,21.72],[110.79,21.8],[110.99,21.65],[110.96,21.41],[111.17,21.26],[111.4,21.34],[111.43,21.58],[111.66,21.66],[111.87,21.51],[112.1,21.59],[112.3,21.43],[112.53,21.51],[112.73,21.36],[112.96,21.44],[112.99,21.67],[113.22,21.75],[113.42,21.6],[113.65,21.68],[113.68,21.91],[113.91,21.99],[114.11,21.83],[114.34,21.91],[114.37,22.14],[114.6,22.21],[114.63,22.45],[114.43,22.6],[114.2,22.53],[114.01,22.68],[113.78,22.6],[113.58,22.76],[113.35,22.68],[113.32,22.45],[113.09,22.37],[112.89,22.53],[112.66,22.45],[112.46,22.6],[112.22,22.52],[112.02,22.68],[111.79,22.6],[111.59,22.75],[111.35,22.67],[111.32,22.44],[111.09,22.36],[110.88,22.51],[110.91,22.75],[110.71,22.9],[110.47,22.82],[110.27,22.97],[110.3,23.21],[110.09,23.36],[109.85,23.28],[109.65,23.43],[109.41,23.35],[109.2,23.5],[108.96,23.41],[108.75,23.57],[108.51,23.48],[108.3,23.63],[108.06,23.55],[108.03,23.31],[107.79,23.23],[107.58,23.38],[107.34,23.29],[107.31,23.05],[107.07,22.97],[106.86,23.12],[106.61,23.03],[106.59,22.79],[106.34,22.7],[106.13,22.85],[105.89,22.76],[105.86,22.52],[105.62,22.43],[105.4,22.58],[105.43,22.82],[105.22,22.97],[104.97,22.88],[104.95,22.63],[104.7,22.54],[104.49,22.69],[104.24,22.6],[104.02,22.75],[103.78,22.65],[103.75,22.41],[103.97,22.26],[104.22,22.36],[104.43,22.21],[104.41,21.97],[104.62,21.82],[104.59,21.57],[104.35,21.48],[104.14,21.63],[103.89,21.53],[103.68,21.68],[103.7,21.93],[103.48,22.07],[103.51,22.32],[103.29,22.46],[103.05,22.37],[102.83,22.51],[102.58,22.42],[102.36,22.56],[102.12,22.47],[101.9,22.61],[101.65,22.52],[101.43,22.66],[101.19,22.56],[100.97,22.71],[100.99,22.95],[100.77,23.09],[100.52,23.0],[100.3,23.14],[100.06,23.04],[100.03,22.8],[99.79,22.7],[99.56,22.84],[99.59,23.08],[99.36,23.22],[99.39,23.47],[99.16,23.61],[99.18,23.85],[98.96,23.99],[98.71,23.89],[98.49,24.03],[98.51,24.27],[98.76,24.37],[98.78,24.61],[98.56,24.75],[98.31,24.65],[98.08,24.79],[97.84,24.69],[97.61,24.83],[97.63,25.07],[97.88,25.17],[97.9,25.41],[98.15,25.51],[98.17,25.74],[97.95,25.88],[97.97,26.12],[98.22,26.22],[98.24,26.45],[98.01,26.59],[98.03,26.83],[97.81,26.96],[97.83,27.2],[98.08,27.29],[98.1,27.53],[97.87,27.66],[97.62,27.56],[97.39,27.7],[97.14,27.6],[97.12,27.37],[97.35,27.23],[97.33,27.0],[97.08,26.9],[96.85,27.03],[96.87,27.26],[96.64,27.4],[96.67,27.63],[96.44,27.76],[96.46,28.0],[96.23,28.13],[95.98,28.03],[95.75,28.16],[95.77,28.39],[95.54,28.52]],[[103.71,-0.39],[103.74,-0.15],[103.96,-0.04],[104.17,-0.18],[104.14,-0.42],[104.34,-0.56],[104.32,-0.81],[104.09,-0.92],[103.89,-0.78],[103.66,-0.89],[103.46,-0.75],[103.48,-0.5],[103.71,-0.39]],[[104.21,0.32],[103.99,0.21],[103.78,0.35],[103.81,0.6],[104.04,0.7],[104.24,0.56],[104.21,0.32]],[[102.63,1.94],[102.84,1.8],[102.81,1.55],[103.02,1.41],[102.99,1.16],[102.76,1.05],[102.56,1.19],[102.58,1.44],[102.38,1.59],[102.4,1.84],[102.63,1.94]],[[105.66,18.72],[105.64,18.47],[105.4,18.37],[105.18,18.52],[105.21,18.77],[105.0,18.92],[105.03,19.17],[105.27,19.26],[105.29,19.51],[105.53,19.6],[105.75,19.45],[105.72,19.21],[105.48,19.11],[105.45,18.87],[105.66,18.72]],[[99.8,10.12],[99.78,9.87],[99.55,9.76],[99.33,9.91],[99.35,10.16],[99.59,10.27],[99.8,10.12]],[[95.3,25.7],[95.05,25.6],[94.82,25.73],[94.84,25.97],[95.09,26.07],[95.32,25.94],[95.3,25.7]]],[[[79.84,11.69],[79.85,11.93],[80.06,12.05],[80.07,12.3],[80.28,12.42],[80.29,12.67],[80.5,12.79],[80.51,13.04],[80.73,13.16],[80.73,13.41],[80.52,13.53],[80.53,13.78],[80.32,13.91],[80.33,14.16],[80.54,14.28],[80.55,14.52],[80.34,14.65],[80.35,14.9],[80.14,15.02],[79.92,14.9],[79.91,14.65],[79.7,14.53],[79.49,14.65],[79.27,14.53],[79.07,14.65],[78.85,14.53],[78.65,14.65],[78.43,14.53],[78.23,14.65],[78.02,14.53],[77.81,14.65],[77.81,14.89],[78.02,15.02],[78.03,15.26],[78.24,15.38],[78.25,15.63],[78.04,15.75],[77.83,15.62],[77.62,15.74],[77.41,15.62],[77.2,15.74],[77.0,15.61],[76.99,15.37],[76.78,15.25],[76.58,15.37],[76.58,15.61],[76.79,15.73],[76.79,15.97],[76.59,16.09],[76.38,15.97],[76.18,16.08],[76.18,16.32],[76.39,16.45],[76.39,16.69],[76.19,16.8],[75.98,16.68],[75.78,16.79],[75.78,17.03],[75.58,17.15],[75.37,17.02],[75.17,17.13],[75.17,17.37],[74.97,17.48],[74.97,17.72],[74.77,17.83],[74.57,17.71],[74.36,17.82],[74.37,18.05],[74.17,18.16],[74.17,18.4],[73.97,18.51],[73.76,18.38],[73.76,18.14],[73.56,18.02],[73.56,17.78],[73.76,17.67],[73.76,17.44],[73.56,17.31],[73.36,17.42],[73.36,17.66],[73.16,17.76],[72.97,17.64],[72.97,17.4],[73.16,17.3],[73.16,17.06],[73.36,16.95],[73.56,17.08],[73.76,16.97],[73.76,16.73],[73.96,16.62],[73.96,16.38],[73.76,16.26],[73.56,16.37],[73.56,16.6],[73.36,16.71],[73.16,16.59],[73.16,16.35],[73.36,16.24],[73.36,16.01],[73.56,15.89],[73.56,15.66],[73.75,15.55],[73.75,15.31],[73.95,15.19],[73.95,14.96],[74.15,14.84],[74.15,14.6],[74.34,14.49],[74.34,14.25],[74.54,14.13],[74.54,13.89],[74.34,13.77],[74.34,13.53],[74.54,13.41],[74.54,13.17],[74.73,13.06],[74.73,12.82],[74.93,12.7],[74.93,12.46],[75.13,12.34],[75.13,12.09],[74.92,11.97],[74.92,11.73],[75.12,11.61],[75.32,11.73],[75.52,11.61],[75.52,11.37],[75.72,11.25],[75.72,11.01],[75.51,10.89],[75.51,10.64],[75.71,10.52],[75.71,10.28],[75.91,10.16],[75.9,9.91],[76.1,9.79],[76.1,9.55],[76.3,9.42],[76.3,9.18],[76.5,9.05],[76.49,8.81],[76.69,8.68],[76.69,8.44],[76.89,8.31],[76.89,8.07],[77.09,7.94],[77.29,8.06],[77.49,7.93],[77.7,8.04],[77.9,7.91],[78.1,8.03],[78.11,8.27],[78.31,8.39],[78.32,8.64],[78.53,8.75],[78.53,9.0],[78.74,9.12],[78.94,8.99],[79.15,9.1],[79.36,8.97],[79.57,9.09],[79.78,8.96],[79.77,8.71],[79.56,8.6],[79.55,8.35],[79.34,8.23],[79.34,7.99],[79.54,7.86],[79.54,7.61],[79.74,7.48],[79.73,7.23],[79.52,7.12],[79.52,6.87],[79.72,6.74],[79.72,6.49],[79.92,6.36],[79.92,6.11],[80.12,5.98],[80.11,5.73],[80.32,5.6],[80.53,5.71],[80.73,5.58],[80.94,5.69],[80.95,5.94],[81.16,6.05],[81.37,5.92],[81.58,6.03],[81.59,6.28],[81.81,6.4],[81.81,6.64],[82.03,6.76],[82.04,7.01],[82.25,7.12],[82.26,7.37],[82.05,7.51],[82.06,7.76],[81.85,7.89],[81.86,8.14],[81.65,8.27],[81.66,8.52],[81.45,8.65],[81.46,8.9],[81.25,9.04],[81.26,9.29],[81.05,9.42],[81.05,9.67],[80.85,9.8],[80.63,9.68],[80.43,9.81],[80.43,10.06],[80.22,10.19],[80.23,10.44],[80.02,10.57],[80.03,10.81],[80.24,10.93],[80.25,11.18],[80.04,11.31],[80.05,11.56],[79.84,11.69]],[[79.59,9.83],[79.59,10.08],[79.8,10.2],[80.01,10.07],[80.01,9.82],[79.79,9.7],[79.59,9.83]]],[[[72.19,10.54],[72.38,10.66],[72.38,10.9],[72.19,11.02],[72.0,10.9],[72.0,10.66],[72.19,10.54]]],[[[117.01,7.86],[117.23,7.96],[117.26,8.19],[117.47,8.29],[117.5,8.53],[117.71,8.62],[117.75,8.86],[117.96,8.96],[118.14,8.81],[118.36,8.91],[118.39,9.15],[118.6,9.24],[118.64,9.48],[118.85,9.58],[118.89,9.82],[118.7,9.96],[118.49,9.87],[118.45,9.63],[118.24,9.53],[118.21,9.29],[117.99,9.2],[117.81,9.34],[117.6,9.24],[117.57,9.01],[117.35,8.91],[117.32,8.67],[117.11,8.58],[117.08,8.34],[116.87,8.25],[116.83,8.01],[117.01,7.86]]],[[[28.71,44.07],[28.85,44.29],[28.64,44.48],[28.3,44.46],[28.16,44.25],[28.36,44.05],[28.23,43.84],[28.43,43.64],[28.77,43.66],[28.91,43.88],[28.71,44.07]]],[[[83.95,18.34],[84.17,18.21],[84.4,18.34],[84.41,18.58],[84.19,18.71],[83.96,18.59],[83.95,18.34]]],[[[72.97,19.5],[72.97,19.74],[72.77,19.84],[72.57,19.71],[72.57,19.48],[72.77,19.38],[72.97,19.5]]],[[[110.2,20.68],[110.0,20.84],[110.03,21.08],[109.82,21.23],[109.85,21.47],[109.64,21.62],[109.41,21.53],[109.2,21.69],[108.96,21.6],[108.93,21.36],[109.14,21.21],[109.38,21.3],[109.58,21.14],[109.55,20.9],[109.76,20.75],[109.73,20.51],[109.94,20.36],[109.91,20.12],[109.67,20.03],[109.46,20.18],[109.23,20.1],[109.2,19.85],[108.96,19.77],[108.93,19.52],[109.14,19.37],[109.11,19.13],[108.88,19.04],[108.67,19.19],[108.43,19.1],[108.4,18.86],[108.61,18.7],[108.58,18.46],[108.79,18.31],[109.02,18.4],[109.23,18.24],[109.2,18.0],[109.4,17.85],[109.64,17.94],[109.67,18.18],[109.9,18.27],[110.11,18.12],[110.34,18.21],[110.37,18.45],[110.6,18.54],[110.63,18.78],[110.86,18.87],[110.89,19.11],[111.13,19.2],[111.16,19.44],[111.39,19.52],[111.42,19.76],[111.22,19.91],[111.25,20.15],[111.05,20.31],[110.81,20.22],[110.61,20.38],[110.64,20.62],[110.43,20.77],[110.2,20.68]],[[110.72,19.5],[110.69,19.26],[110.46,19.18],[110.25,19.33],[110.28,19.57],[110.08,19.72],[110.11,19.96],[110.34,20.05],[110.55,19.9],[110.78,19.98],[110.98,19.83],[110.95,19.59],[110.72,19.5]]],[[[55.92,-4.28],[55.7,-4.36],[55.65,-4.57],[55.81,-4.71],[56.03,-4.63],[56.08,-4.42],[55.92,-4.28]]],[[[72.76,7.34],[72.76,7.11],[72.57,6.99],[72.57,6.76],[72.76,6.63],[72.76,6.4],[72.95,6.27],[72.95,6.04],[72.76,5.93],[72.76,5.69],[72.95,5.56],[72.95,5.33],[72.76,5.22],[72.76,4.98],[72.95,4.86],[73.14,4.97],[73.14,5.2],[73.33,5.31],[73.52,5.19],[73.71,5.3],[73.71,5.53],[73.52,5.66],[73.52,5.9],[73.33,6.02],[73.33,6.26],[73.14,6.38],[73.14,6.62],[73.33,6.73],[73.34,6.97],[73.14,7.09],[73.14,7.33],[72.95,7.46],[72.76,7.34]]],[[[82.24,20.06],[82.02,20.18],[81.8,20.05],[81.58,20.17],[81.36,20.05],[81.35,19.8],[81.13,19.68],[80.91,19.8],[80.69,19.67],[80.68,19.43],[80.9,19.31],[80.89,19.07],[81.11,18.95],[81.33,19.07],[81.54,18.95],[81.54,18.71],[81.75,18.59],[81.97,18.71],[82.19,18.59],[82.18,18.34],[81.96,18.22],[81.95,17.98],[81.73,17.85],[81.72,17.61],[81.93,17.48],[82.16,17.61],[82.37,17.48],[82.36,17.24],[82.14,17.11],[82.13,16.87],[81.91,16.74],[81.9,16.5],[82.12,16.37],[82.34,16.49],[82.35,16.74],[82.57,16.86],[82.58,17.11],[82.8,17.23],[82.81,17.48],[82.6,17.61],[82.6,17.85],[82.83,17.97],[83.05,17.85],[83.04,17.6],[83.25,17.48],[83.48,17.6],[83.49,17.85],[83.71,17.97],[83.72,18.22],[83.51,18.34],[83.28,18.22],[83.06,18.34],[83.07,18.59],[83.3,18.71],[83.31,18.96],[83.53,19.08],[83.54,19.33],[83.77,19.45],[83.99,19.33],[83.98,19.08],[84.2,18.96],[84.43,19.08],[84.44,19.32],[84.22,19.45],[84.23,19.69],[84.46,19.82],[84.47,20.06],[84.7,20.18],[84.71,20.43],[84.49,20.55],[84.26,20.43],[84.04,20.55],[83.81,20.43],[83.8,20.18],[83.57,20.06],[83.56,19.82],[83.33,19.69],[83.12,19.82],[82.89,19.69],[82.88,19.45],[82.66,19.33],[82.44,19.45],[82.45,19.69],[82.23,19.81],[82.24,20.06]]],[[[78.29,17.81],[78.28,17.57],[78.07,17.45],[77.86,17.56],[77.87,17.81],[77.66,17.92],[77.45,17.8],[77.24,17.91],[77.03,17.79],[77.03,17.55],[77.23,17.43],[77.44,17.56],[77.65,17.44],[77.65,17.2],[77.43,17.07],[77.43,16.83],[77.64,16.71],[77.85,16.84],[78.06,16.72],[78.27,16.85],[78.48,16.73],[78.69,16.85],[78.7,17.09],[78.49,17.21],[78.49,17.46],[78.71,17.58],[78.71,17.82],[78.5,17.94],[78.29,17.81]]],[[[112.14,16.82],[112.34,16.67],[112.57,16.76],[112.76,16.6],[112.99,16.69],[113.02,16.93],[112.82,17.09],[112.6,17.0],[112.4,17.15],[112.17,17.07],[112.14,16.82]]],[[[87.21,20.52],[87.22,20.77],[87.0,20.9],[87.01,21.14],[87.25,21.26],[87.26,21.5],[87.04,21.63],[86.8,21.51],[86.79,21.27],[86.56,21.15],[86.54,20.9],[86.77,20.78],[86.75,20.53],[86.52,20.41],[86.51,20.16],[86.73,20.04],[86.96,20.16],[86.98,20.4],[87.21,20.52]]],[[[151.0,-33.84],[150.71,-33.94],[150.68,-34.2],[150.92,-34.35],[151.21,-34.25],[151.25,-34.0],[151.0,-33.84]]],[[[116.99,0.22],[117.19,0.3],[117.37,0.15],[117.58,0.23],[117.61,0.47],[117.82,0.55],[117.86,0.79],[118.07,0.87],[118.25,0.72],[118.46,0.8],[118.49,1.04],[118.7,1.13],[118.74,1.37],[118.56,1.52],[118.34,1.43],[118.16,1.59],[118.2,1.83],[118.02,1.98],[118.05,2.22],[117.87,2.37],[117.9,2.61],[117.72,2.76],[117.76,3.0],[117.58,3.15],[117.61,3.39],[117.82,3.48],[117.85,3.72],[118.06,3.81],[118.1,4.05],[118.31,4.14],[118.49,3.98],[118.7,4.07],[118.74,4.31],[118.95,4.4],[118.98,4.65],[118.8,4.8],[118.83,5.04],[119.05,5.13],[119.23,4.98],[119.2,4.74],[119.38,4.58],[119.6,4.67],[119.63,4.92],[119.45,5.07],[119.48,5.31],[119.3,5.46],[119.08,5.37],[118.9,5.52],[118.93,5.76],[118.75,5.91],[118.54,5.82],[118.36,5.97],[118.39,6.21],[118.21,6.36],[118.0,6.27],[117.82,6.41],[117.85,6.65],[117.67,6.8],[117.7,7.04],[117.52,7.19],[117.55,7.43],[117.37,7.57],[117.16,7.48],[116.98,7.62],[116.77,7.53],[116.74,7.29],[116.53,7.19],[116.5,6.95],[116.28,6.86],[116.25,6.62],[116.04,6.52],[116.01,6.28],[115.8,6.19],[115.76,5.94],[115.55,5.85],[115.52,5.61],[115.31,5.51],[115.27,5.27],[115.06,5.17],[114.88,5.31],[114.66,5.21],[114.63,4.97],[114.42,4.87],[114.23,5.01],[114.02,4.91],[113.99,4.67],[113.77,4.57],[113.74,4.33],[113.52,4.23],[113.49,3.99],[113.28,3.88],[113.25,3.64],[113.03,3.54],[113.0,3.3],[112.78,3.2],[112.59,3.34],[112.37,3.23],[112.35,2.99],[112.13,2.89],[111.94,3.03],[111.72,2.93],[111.53,3.07],[111.31,2.96],[111.28,2.72],[111.06,2.62],[111.03,2.37],[111.22,2.23],[111.19,1.99],[110.97,1.88],[110.78,2.02],[110.56,1.92],[110.37,2.06],[110.15,1.95],[109.95,2.09],[109.73,1.99],[109.54,2.13],[109.32,2.03],[109.29,1.78],[109.07,1.67],[109.04,1.43],[108.81,1.32],[108.79,1.08],[108.56,0.97],[108.54,0.73],[108.73,0.59],[108.7,0.35],[108.9,0.21],[108.87,-0.04],[109.07,-0.17],[109.04,-0.42],[109.23,-0.55],[109.2,-0.8],[109.4,-0.93],[109.37,-1.17],[109.56,-1.31],[109.78,-1.2],[109.97,-1.34],[109.95,-1.58],[110.14,-1.71],[110.36,-1.6],[110.38,-1.37],[110.6,-1.26],[110.79,-1.39],[110.76,-1.63],[110.95,-1.77],[111.17,-1.66],[111.36,-1.79],[111.58,-1.69],[111.76,-1.82],[111.98,-1.72],[112.01,-1.48],[112.22,-1.37],[112.25,-1.14],[112.47,-1.03],[112.65,-1.16],[112.87,-1.06],[113.05,-1.19],[113.27,-1.09],[113.3,-0.85],[113.51,-0.75],[113.69,-0.88],[113.91,-0.78],[114.09,-0.91],[114.3,-0.81],[114.33,-0.57],[114.54,-0.47],[114.72,-0.6],[114.93,-0.5],[114.96,-0.26],[115.17,-0.16],[115.35,-0.29],[115.56,-0.19],[115.74,-0.32],[115.95,-0.22],[115.98,0.02],[116.19,0.12],[116.37,-0.03],[116.57,0.05],[116.6,0.29],[116.81,0.37],[116.99,0.22]]],[[[73.51,0.74],[73.32,0.64],[73.13,0.77],[72.94,0.67],[72.94,0.44],[73.13,0.31],[73.1,0.09],[73.29,-0.04],[73.26,-0.25],[73.05,-0.33],[73.02,-0.54],[73.2,-0.67],[73.42,-0.59],[73.45,-0.38],[73.67,-0.3],[73.69,-0.08],[73.51,0.05],[73.51,0.28],[73.7,0.38],[73.7,0.61],[73.51,0.74]]],[[[72.57,4.17],[72.57,3.94],[72.76,3.81],[72.76,3.58],[72.57,3.47],[72.57,3.24],[72.76,3.11],[72.76,2.88],[72.95,2.75],[72.95,2.52],[72.76,2.41],[72.76,2.18],[72.95,2.05],[73.13,2.16],[73.32,2.03],[73.32,1.8],[73.51,1.67],[73.7,1.77],[73.7,2.0],[73.51,2.13],[73.51,2.37],[73.32,2.49],[73.32,2.73],[73.14,2.86],[73.14,3.09],[73.33,3.2],[73.33,3.43],[73.52,3.54],[73.52,3.77],[73.71,3.88],[73.71,4.12],[73.9,4.22],[73.9,4.46],[73.71,4.59],[73.52,4.48],[73.33,4.61],[73.14,4.5],[73.14,4.26],[73.33,4.13],[73.33,3.9],[73.14,3.79],[72.95,3.92],[72.95,4.15],[72.76,4.28],[72.57,4.17]]],[[[108.7,2.2],[108.9,2.06],[109.12,2.17],[109.15,2.41],[109.37,2.52],[109.4,2.76],[109.2,2.9],[109.23,3.15],[109.04,3.29],[108.81,3.19],[108.78,2.94],[108.56,2.84],[108.53,2.59],[108.73,2.45],[108.7,2.2]]],[[[108.8,10.76],[108.77,10.51],[108.97,10.36],[109.2,10.46],[109.23,10.71],[109.03,10.86],[108.8,10.76]]],[[[94.14,7.2],[94.16,7.46],[93.95,7.6],[93.71,7.49],[93.5,7.63],[93.52,7.89],[93.75,8.0],[93.77,8.26],[94.0,8.37],[94.02,8.63],[93.8,8.77],[93.57,8.66],[93.55,8.4],[93.32,8.29],[93.1,8.43],[93.12,8.69],[92.9,8.83],[92.92,9.09],[93.15,9.2],[93.17,9.46],[92.95,9.6],[92.72,9.49],[92.7,9.23],[92.47,9.12],[92.45,8.86],[92.67,8.72],[92.65,8.46],[92.87,8.32],[92.85,8.06],[93.07,7.92],[93.05,7.66],[93.27,7.52],[93.25,7.26],[93.46,7.12],[93.45,6.86],[93.66,6.72],[93.64,6.46],[93.86,6.32],[94.09,6.43],[94.11,6.69],[94.34,6.8],[94.36,7.06],[94.14,7.2]]],[[[73.51,2.83],[73.7,2.71],[73.89,2.81],[73.9,3.05],[73.71,3.17],[73.52,3.07],[73.51,2.83]]],[[[108.08,-3.38],[108.3,-3.28],[108.33,-3.04],[108.13,-2.91],[107.91,-3.01],[107.88,-3.25],[108.08,-3.38]]],[[[72.11,34.67],[71.83,34.77],[71.59,34.62],[71.63,34.37],[71.91,34.28],[72.15,34.43],[72.11,34.67]]],[[[71.74,-5.21],[71.71,-5.44],[71.9,-5.58],[72.13,-5.49],[72.32,-5.63],[72.55,-5.55],[72.58,-5.32],[72.39,-5.18],[72.16,-5.26],[71.97,-5.12],[71.74,-5.21]]],[[[106.41,2.77],[106.44,3.02],[106.66,3.13],[106.69,3.37],[106.49,3.52],[106.26,3.41],[106.06,3.56],[105.83,3.45],[105.81,3.2],[105.58,3.09],[105.55,2.84],[105.76,2.7],[105.98,2.81],[106.18,2.66],[106.41,2.77]]],[[[79.1,16.37],[78.89,16.49],[78.68,16.36],[78.68,16.12],[78.88,16.0],[78.88,15.76],[78.67,15.63],[78.66,15.39],[78.87,15.27],[79.08,15.39],[79.09,15.63],[79.3,15.76],[79.31,16.0],[79.1,16.12],[79.1,16.37]]],[[[106.39,8.73],[106.36,8.48],[106.56,8.33],[106.79,8.44],[106.82,8.69],[107.05,8.79],[107.08,9.04],[106.88,9.19],[106.64,9.09],[106.62,8.84],[106.39,8.73]]],[[[81.23,15.63],[81.45,15.76],[81.45,16.0],[81.67,16.13],[81.68,16.37],[81.47,16.5],[81.25,16.37],[81.24,16.13],[81.02,16.01],[80.81,16.13],[80.59,16.01],[80.38,16.13],[80.16,16.01],[80.15,15.76],[79.94,15.64],[79.93,15.39],[80.14,15.27],[80.36,15.39],[80.37,15.64],[80.58,15.76],[80.79,15.64],[81.01,15.76],[81.23,15.63]]],[[[93.38,12.54],[93.16,12.68],[93.18,12.94],[93.41,13.05],[93.43,13.31],[93.21,13.45],[93.23,13.71],[93.47,13.82],[93.48,14.08],[93.26,14.22],[93.03,14.11],[93.01,13.85],[92.77,13.74],[92.76,13.48],[92.52,13.37],[92.5,13.11],[92.72,12.97],[92.7,12.71],[92.47,12.6],[92.45,12.34],[92.22,12.23],[92.2,11.97],[91.97,11.85],[91.95,11.6],[92.17,11.46],[92.4,11.57],[92.62,11.43],[92.6,11.17],[92.37,11.06],[92.35,10.8],[92.12,10.69],[92.1,10.43],[92.32,10.29],[92.55,10.4],[92.57,10.66],[92.8,10.77],[92.82,11.03],[93.06,11.14],[93.07,11.4],[93.31,11.51],[93.33,11.77],[93.11,11.91],[93.12,12.17],[93.36,12.28],[93.38,12.54]]],[[[107.62,4.05],[107.6,3.8],[107.8,3.65],[107.77,3.41],[107.97,3.26],[108.19,3.37],[108.22,3.62],[108.45,3.72],[108.47,3.97],[108.7,4.07],[108.73,4.32],[108.53,4.47],[108.3,4.36],[108.1,4.51],[108.13,4.76],[107.93,4.9],[107.71,4.8],[107.68,4.55],[107.88,4.4],[107.85,4.15],[107.62,4.05]]],[[[121.55,24.88],[121.74,24.76],[121.97,24.87],[122.01,25.08],[121.82,25.2],[121.59,25.1],[121.4,25.22],[121.17,25.12],[121.13,24.9],[121.32,24.78],[121.55,24.88]]],[[[72.13,-7.02],[72.1,-7.25],[72.3,-7.39],[72.53,-7.3],[72.56,-7.07],[72.36,-6.93],[72.13,-7.02]]],[[[107.28,0.83],[107.47,0.69],[107.7,0.79],[107.72,1.04],[107.53,1.18],[107.3,1.07],[107.28,0.83]]],[[[73.74,11.02],[73.54,10.9],[73.54,10.66],[73.73,10.54],[73.93,10.66],[73.93,10.9],[73.74,11.02]]],[[[108.47,-7.18],[108.26,-7.28],[108.23,-7.51],[108.42,-7.64],[108.64,-7.53],[108.66,-7.3],[108.88,-7.2],[108.91,-6.97],[108.72,-6.84],[108.5,-6.95],[108.47,-7.18]]],[[[85.81,19.8],[86.03,19.68],[86.26,19.8],[86.28,20.04],[86.05,20.17],[85.82,20.05],[85.81,19.8]]],[[[107.1,-6.53],[106.91,-6.4],[106.69,-6.51],[106.49,-6.38],[106.27,-6.49],[106.08,-6.36],[105.86,-6.46],[105.83,-6.7],[106.03,-6.83],[106.25,-6.72],[106.44,-6.85],[106.42,-7.08],[106.61,-7.21],[106.59,-7.44],[106.78,-7.56],[107.0,-7.46],[107.19,-7.58],[107.41,-7.48],[107.6,-7.6],[107.82,-7.49],[107.85,-7.26],[107.65,-7.14],[107.68,-6.91],[107.49,-6.78],[107.51,-6.55],[107.32,-6.42],[107.1,-6.53]]],[[[55.61,-21.13],[55.42,-20.96],[55.17,-21.03],[55.11,-21.27],[55.29,-21.44],[55.54,-21.37],[55.61,-21.13]]],[[[84.31,21.65],[84.53,21.53],[84.76,21.65],[84.77,21.89],[84.55,22.01],[84.32,21.89],[84.31,21.65]]],[[[72.96,11.25],[72.77,11.37],[72.57,11.25],[72.57,11.02],[72.76,10.9],[72.96,11.02],[72.96,11.25]]],[[[85.58,19.68],[85.36,19.81],[85.13,19.69],[85.12,19.44],[85.34,19.32],[85.57,19.44],[85.58,19.68]]],[[[100.44,-2.88],[100.23,-2.74],[100.26,-2.5],[100.05,-2.36],[100.07,-2.11],[99.87,-1.98],[99.64,-2.08],[99.62,-2.33],[99.82,-2.47],[99.8,-2.71],[100.01,-2.85],[99.98,-3.09],[100.19,-3.23],[100.42,-3.12],[100.44,-2.88]]],[[[71.56,33.24],[71.52,33.49],[71.75,33.64],[71.71,33.88],[71.43,33.97],[71.19,33.82],[71.24,33.58],[71.0,33.43],[71.04,33.18],[71.32,33.09],[71.56,33.24]]],[[[94.03,12.11],[94.27,12.23],[94.29,12.48],[94.07,12.63],[93.83,12.51],[93.82,12.26],[94.03,12.11]]],[[[79.25,22.62],[79.03,22.5],[78.82,22.61],[78.6,22.48],[78.59,22.25],[78.81,22.14],[79.02,22.26],[79.24,22.15],[79.46,22.28],[79.46,22.51],[79.25,22.62]]],[[[73.17,18.7],[72.97,18.81],[72.77,18.68],[72.77,18.45],[72.97,18.34],[73.17,18.47],[73.17,18.7]]],[[[149.93,-35.41],[149.89,-35.67],[150.14,-35.83],[150.43,-35.73],[150.47,-35.47],[150.22,-35.32],[149.93,-35.41]]],[[[72.38,10.19],[72.19,10.31],[72.0,10.19],[72.0,9.95],[72.19,9.83],[72.38,9.95],[72.38,10.19]]],[[[120.25,4.95],[120.28,5.19],[120.1,5.34],[119.88,5.25],[119.85,5.01],[120.03,4.86],[120.25,4.95]]],[[[119.39,10.49],[119.2,10.64],[118.99,10.54],[118.95,10.3],[119.14,10.16],[119.35,10.25],[119.39,10.49]]],[[[57.29,-19.96],[57.22,-20.2],[57.41,-20.37],[57.66,-20.3],[57.72,-20.05],[57.53,-19.89],[57.29,-19.96]]],[[[73.54,9.94],[73.73,9.82],[73.93,9.94],[73.93,10.18],[73.73,10.3],[73.54,10.18],[73.54,9.94]]],[[[112.9,15.97],[112.93,16.21],[112.73,16.36],[112.5,16.27],[112.47,16.03],[112.67,15.88],[112.9,15.97]]],[[[71.35,-6.45],[71.12,-6.54],[71.09,-6.77],[71.28,-6.91],[71.51,-6.82],[71.54,-6.59],[71.35,-6.45]]],[[[77.91,25.31],[77.9,25.54],[77.66,25.63],[77.44,25.5],[77.45,25.28],[77.69,25.18],[77.91,25.31]]]]}}]}