{"type":"FeatureCollection","features":[{"type":"Feature","properties":{},"geometry":{"type":"MultiPolygon","coordinates":[[[[-58.35,54.77],[-58.14,54.55],[-58.36,54.34],[-57.53,53.9],[-57.76,53.69],[-57.56,53.47],[-56.5,53.67],[-55.71,53.23],[-55.94,53.02],[-55.76,52.8],[-55.98,52.59],[-55.8,52.37],[-56.02,52.16],[-56.42,52.17],[-56.64,51.96],[-56.46,51.74],[-56.67,51.53],[-57.65,51.75],[-57.86,51.54],[-58.86,51.32],[-59.06,51.11],[-58.87,50.89],[-59.07,50.68],[-59.46,50.67],[-60.24,50.23],[-61.21,50.42],[-61.4,50.2],[-61.79,50.19],[-62.59,50.58],[-63.56,50.32],[-63.77,50.53],[-64.16,50.51],[-64.34,50.28],[-64.73,50.26],[-64.95,50.46],[-65.34,50.43],[-65.51,50.21],[-65.9,50.18],[-66.13,50.38],[-66.52,50.35],[-66.68,50.12],[-67.07,50.09],[-67.22,49.86],[-66.99,49.66],[-67.15,49.44],[-68.15,49.56],[-68.3,49.33],[-69.2,49.03],[-69.34,48.8],[-69.11,48.61],[-69.25,48.38],[-70.13,48.07],[-70.26,47.84],[-70.02,47.65],[-69.66,47.69],[-69.52,47.92],[-67.6,48.75],[-67.45,48.98],[-66.47,48.85],[-65.77,49.33],[-64.79,49.18],[-64.58,48.98],[-64.74,48.76],[-64.53,48.56],[-64.69,48.34],[-65.59,48.06],[-65.81,48.26],[-66.18,48.23],[-66.33,48.01],[-64.96,47.48],[-65.12,47.25],[-64.91,47.06],[-65.06,46.84],[-64.81,46.23],[-63.35,45.91],[-62.09,45.36],[-63.26,44.68],[-64.13,44.83],[-64.24,44.21],[-65.55,43.7],[-66.28,44.05],[-66.13,44.26],[-63.82,45.26],[-63.67,45.48],[-63.86,45.67],[-64.72,45.41],[-64.91,45.6],[-65.26,45.57],[-65.41,45.35],[-65.76,45.33],[-65.96,45.52],[-66.31,45.49],[-66.46,45.27],[-68.25,44.47],[-68.38,44.25],[-69.27,44.36],[-69.4,44.14],[-71.11,43.3],[-71.22,43.08],[-71.0,42.9],[-71.12,42.68],[-70.91,42.51],[-70.92,41.89],[-71.68,41.59],[-72.21,41.1],[-73.05,41.18],[-73.04,40.57],[-73.88,40.64],[-73.86,40.04],[-74.56,39.72],[-74.53,39.13],[-75.35,39.18],[-75.44,38.97],[-74.98,38.06],[-76.18,37.06],[-75.98,36.9],[-75.93,36.33],[-75.24,36.08],[-75.33,35.87],[-75.13,35.72],[-75.49,35.46],[-75.45,34.91],[-76.2,34.95],[-76.15,34.4],[-77.09,34.59],[-77.77,34.07],[-77.11,33.84],[-77.18,33.64],[-76.72,33.55],[-76.4,33.06],[-75.68,33.02],[-75.49,32.88],[-75.57,32.68],[-74.93,32.44],[-74.33,32.73],[-73.88,32.63],[-73.8,32.82],[-73.08,32.77],[-73.0,32.96],[-72.29,32.9],[-71.93,33.13],[-71.49,33.02],[-71.03,33.45],[-70.32,33.38],[-67.95,34.95],[-65.27,36.35],[-65.19,36.91],[-64.06,37.38],[-63.97,37.95],[-63.24,38.2],[-63.16,39.15],[-59.99,40.68],[-59.21,40.52],[-57.63,41.33],[-56.87,41.15],[-55.25,41.94],[-54.49,41.74],[-51.89,42.77],[-51.18,42.49],[-47.92,43.58],[-44.36,44.38],[-43.99,44.97],[-40.56,45.72],[-31.42,47.13],[-30.69,46.72],[-27.87,47.1],[-27.16,46.66],[-26.86,46.81],[-25.89,46.75],[-25.86,46.5],[-24.89,46.44],[-24.86,46.19],[-24.53,46.08],[-24.23,46.22],[-23.55,45.76],[-22.62,45.92],[-22.3,45.81],[-22.28,45.56],[-21.96,45.45],[-21.66,45.58],[-21.34,45.46],[-21.32,45.22],[-20.38,45.11],[-20.37,44.86],[-20.05,44.74],[-18.52,44.88],[-17.9,44.38],[-16.99,44.5],[-16.69,44.37],[-16.69,44.12],[-15.79,43.98],[-15.79,43.73],[-15.49,43.6],[-15.49,43.35],[-15.2,43.22],[-15.2,42.97],[-14.34,42.07],[-14.35,41.82],[-14.64,41.71],[-14.65,41.45],[-14.37,41.32],[-14.67,40.7],[-14.11,40.18],[-14.41,39.56],[-13.87,39.04],[-13.88,38.78],[-14.16,38.67],[-14.17,38.41],[-13.89,38.28],[-13.9,38.02],[-14.18,37.91],[-13.92,37.26],[-14.76,36.39],[-14.51,35.75],[-14.78,35.63],[-14.78,35.38],[-15.59,34.49],[-15.6,34.24],[-16.39,33.34],[-16.39,33.09],[-17.7,32.95],[-17.7,32.69],[-16.91,32.58],[-16.91,32.32],[-17.68,31.42],[-17.41,30.78],[-17.67,30.65],[-17.66,30.4],[-18.41,29.49],[-18.4,29.24],[-18.15,29.12],[-18.14,28.86],[-18.39,28.73],[-18.38,28.47],[-18.13,28.35],[-18.37,27.72],[-17.86,27.22],[-17.38,27.74],[-14.19,27.65],[-13.18,28.89],[-13.17,29.14],[-12.92,29.27],[-12.91,29.52],[-12.66,29.64],[-12.42,29.51],[-12.16,29.63],[-12.15,29.88],[-11.9,30.0],[-11.66,29.87],[-11.14,30.35],[-10.9,30.22],[-10.65,30.34],[-10.63,30.59],[-9.55,31.79],[-9.53,32.04],[-9.27,32.16],[-9.25,32.41],[-8.99,32.52],[-8.97,32.77],[-8.71,32.88],[-8.69,33.13],[-8.43,33.24],[-8.4,33.48],[-8.14,33.59],[-7.9,33.45],[-7.35,33.91],[-7.12,33.77],[-6.85,33.88],[-6.82,34.12],[-5.68,35.27],[-5.64,35.52],[-4.88,35.57],[-4.45,35.03],[-3.89,35.46],[-3.17,35.26],[-2.91,35.35],[-2.87,35.6],[-2.61,35.69],[-2.38,35.54],[-2.12,35.63],[-2.08,35.87],[-1.81,35.96],[-1.6,35.81],[-1.33,35.9],[-1.29,36.14],[-1.02,36.22],[-0.81,36.07],[-0.24,36.48],[-0.02,36.33],[0.72,36.36],[0.61,36.98],[0.39,37.13],[0.76,37.69],[1.52,37.72],[2.24,38.61],[3.02,38.64],[2.92,39.26],[2.19,39.47],[2.58,40.03],[3.38,40.06],[3.77,39.52],[4.06,39.61],[3.96,40.23],[4.76,40.25],[4.83,40.49],[5.12,40.57],[5.35,40.42],[5.65,40.5],[6.08,41.06],[6.91,41.06],[6.99,41.3],[7.29,41.38],[7.52,41.22],[7.82,41.3],[8.28,41.85],[8.59,41.93],[8.52,42.55],[8.83,42.63],[8.91,42.86],[9.23,42.94],[9.46,42.78],[9.38,42.54],[9.76,41.99],[10.47,42.37],[10.7,42.21],[11.02,42.28],[11.1,42.51],[10.73,43.07],[10.82,43.3],[10.44,43.85],[10.52,44.08],[10.29,44.24],[8.3,44.4],[7.82,43.87],[6.96,43.86],[6.89,43.63],[6.19,43.23],[5.42,43.44],[4.57,43.42],[4.34,43.56],[4.41,43.79],[3.87,43.85],[3.8,43.62],[2.78,42.89],[2.72,42.66],[3.13,42.14],[3.06,41.91],[2.25,41.87],[1.85,41.31],[1.05,41.27],[1.0,41.04],[0.72,40.96],[0.67,40.73],[-0.59,39.71],[-0.46,39.08],[0.25,38.85],[0.2,38.61],[-0.56,38.6],[-0.61,38.37],[-0.38,38.21],[-0.75,37.65],[-1.51,37.64],[-1.55,37.4],[-2.44,36.65],[-4.16,36.98],[-4.74,36.54],[-4.97,36.69],[-5.24,36.6],[-5.28,36.35],[-5.55,36.25],[-6.29,36.45],[-6.47,37.09],[-6.93,37.62],[-7.51,37.17],[-8.8,37.4],[-8.48,38.0],[-9.2,38.93],[-9.17,39.18],[-8.58,39.63],[-8.79,40.27],[-8.19,40.72],[-8.17,40.97],[-8.91,41.9],[-8.56,42.49],[-9.08,43.03],[-9.05,43.27],[-8.76,43.37],[-8.48,43.22],[-7.86,43.66],[-4.24,43.15],[-3.61,43.56],[-1.45,43.25],[-1.06,43.8],[-1.31,43.95],[-1.26,44.19],[-0.96,44.26],[-0.91,44.5],[-1.16,44.66],[-1.11,44.89],[-0.81,44.96],[-0.76,45.19],[-1.4,46.13],[-1.35,46.36],[-1.6,46.52],[-1.55,46.75],[-1.81,46.91],[-1.76,47.14],[-2.02,47.3],[-1.97,47.53],[-3.38,47.86],[-4.28,47.86],[-4.79,48.4],[-4.75,48.63],[-3.83,48.63],[-2.39,48.31],[-2.08,48.38],[-2.03,48.61],[-1.13,48.58],[-1.29,49.19],[0.18,49.07],[1.0,49.85],[1.69,50.19],[1.57,50.79],[1.89,50.84],[1.96,51.06],[2.85,51.0],[2.92,51.22],[3.24,51.26],[3.31,51.48],[3.63,51.53],[3.71,51.74],[4.86,52.38],[4.75,52.93],[5.71,52.97],[6.22,53.47],[6.58,53.56],[6.85,53.43],[7.65,53.8],[8.28,53.75],[8.83,54.24],[8.56,54.36],[8.66,54.57],[9.02,54.64],[9.12,54.85],[8.67,55.3],[8.76,55.5],[8.48,55.63],[8.58,55.83],[8.3,55.95],[8.4,56.15],[8.12,56.27],[9.66,57.28],[10.33,57.23],[9.74,56.76],[10.69,56.58],[10.58,56.39],[10.2,56.32],[10.09,56.12],[10.37,55.99],[10.27,55.79],[9.41,55.45],[9.32,55.25],[9.77,54.79],[9.67,54.59],[10.58,54.4],[10.95,54.47],[11.06,54.67],[10.79,54.8],[10.89,55.0],[11.92,55.01],[12.03,55.21],[11.75,55.34],[11.1,55.4],[11.2,55.6],[10.93,55.73],[11.03,55.93],[12.08,55.94],[13.19,56.65],[12.24,56.85],[12.36,57.05],[11.9,57.5],[12.02,57.69],[11.73,57.81],[11.84,58.01],[11.56,58.13],[11.67,58.32],[11.38,58.44],[11.49,58.63],[11.2,58.76],[11.31,58.94],[11.02,59.06],[11.13,59.25],[10.84,59.37],[10.32,59.12],[9.23,59.09],[7.26,58.03],[6.77,58.45],[5.77,58.56],[5.5,58.73],[5.59,58.92],[5.96,58.95],[6.05,59.14],[5.12,59.44],[5.68,59.85],[5.2,60.36],[5.29,60.55],[5.0,60.71],[5.09,60.9],[4.8,61.06],[5.38,61.45],[4.87,61.96],[4.97,62.14],[5.37,62.17],[6.46,62.74],[8.38,63.32],[8.5,63.5],[8.2,63.66],[8.32,63.83],[9.41,63.69],[10.5,64.1],[10.62,64.26],[10.29,64.37],[10.41,64.53],[11.53,64.6],[11.88,65.11],[12.23,65.21],[12.11,65.38],[12.46,65.48],[12.34,65.65],[12.7,65.76],[12.58,65.93],[12.95,66.03],[12.83,66.2],[13.2,66.31],[13.08,66.48],[13.46,66.59],[13.35,66.76],[13.73,66.87],[13.62,67.04],[14.92,67.17],[14.81,67.35],[15.53,67.74],[15.43,67.92],[16.19,68.31],[15.43,68.76],[16.43,68.78],[16.53,68.59],[17.07,68.51],[17.89,68.89],[17.15,69.36],[18.67,69.47],[18.59,69.66],[19.08,69.76],[21.23,69.76],[21.17,69.95],[21.69,70.04],[21.64,70.24],[22.17,70.33],[23.35,69.92],[23.88,70.0],[23.85,70.2],[23.28,70.31],[23.25,70.51],[23.8,70.6],[26.63,70.41],[27.79,70.77],[30.09,70.65],[30.63,70.52],[30.58,70.32],[28.88,70.31],[28.85,70.11],[29.38,69.99],[29.35,69.79],[32.59,69.58],[33.09,69.44],[33.01,69.24],[34.4,69.0],[35.78,69.3],[36.12,69.14],[35.87,68.94],[36.2,68.78],[37.67,68.7],[37.99,68.53],[37.74,68.33],[38.05,68.16],[40.36,67.92],[40.66,67.75],[40.39,67.54],[41.53,67.22],[41.26,67.01],[40.7,66.98],[40.44,66.78],[40.72,66.6],[40.46,66.4],[39.14,66.13],[37.21,66.57],[35.94,66.28],[35.64,66.45],[35.86,66.66],[35.55,66.82],[32.52,67.11],[32.33,66.9],[33.16,66.79],[33.48,66.63],[33.28,66.42],[34.4,66.14],[34.2,65.93],[34.5,65.77],[34.3,65.56],[34.6,65.39],[34.4,65.18],[35.48,64.89],[35.27,64.67],[35.56,64.5],[36.05,64.54],[36.33,64.37],[36.12,64.16],[36.4,63.99],[37.64,63.88],[37.85,64.1],[37.58,64.27],[37.09,64.24],[36.82,64.41],[37.03,64.62],[36.75,64.8],[36.96,65.01],[39.8,64.61],[40.04,64.82],[39.77,65.0],[40.01,65.21],[39.74,65.39],[39.98,65.6],[42.1,66.09],[42.37,66.29],[43.73,66.14],[44.86,66.56],[44.6,66.75],[44.9,66.95],[44.63,67.14],[44.06,67.12],[43.79,67.3],[44.09,67.5],[43.81,67.69],[44.11,67.89],[44.7,67.9],[45.01,68.1],[43.86,68.45],[44.17,68.65],[45.65,68.5],[46.79,68.14],[44.66,67.52],[44.93,67.34],[45.51,67.35],[45.77,67.16],[45.46,66.96],[45.72,66.78],[47.18,66.99],[47.43,66.8],[48.0,66.8],[48.33,67.0],[48.08,67.19],[48.41,67.38],[48.16,67.58],[48.5,67.77],[53.38,68.68],[54.01,68.66],[54.23,68.46],[53.83,68.28],[54.05,68.08],[54.66,68.06],[55.06,68.24],[54.85,68.44],[55.25,68.62],[56.92,68.75],[57.12,68.54],[57.75,68.51],[58.18,68.68],[57.98,68.89],[58.42,69.06],[59.05,69.03],[59.24,68.82],[58.8,68.65],[58.99,68.44],[59.61,68.41],[60.05,68.58],[59.87,68.78],[60.32,68.95],[61.41,69.07],[60.41,69.53],[59.76,69.56],[59.48,69.77],[59.86,69.95],[61.44,69.65],[61.83,69.82],[62.49,69.77],[62.74,69.56],[63.39,69.51],[63.8,69.67],[64.45,69.62],[64.68,69.4],[66.16,69.06],[66.3,68.85],[66.92,68.79],[67.05,68.57],[68.77,68.58],[69.27,68.72],[69.1,68.95],[66.82,69.6],[66.61,69.82],[67.06,69.98],[66.85,70.2],[67.31,70.36],[67.1,70.58],[67.57,70.74],[66.44,71.25],[68.13,71.51],[67.92,71.74],[68.43,71.9],[68.22,72.12],[68.74,72.28],[68.53,72.51],[69.07,72.67],[68.85,72.9],[69.41,73.06],[71.15,72.68],[71.73,72.83],[72.49,72.75],[72.66,72.51],[72.08,72.36],[72.25,72.13],[71.69,71.98],[71.86,71.74],[71.32,71.59],[71.49,71.36],[73.03,70.96],[73.17,70.73],[72.64,70.58],[72.79,70.35],[72.28,70.21],[72.42,69.98],[73.07,69.89],[73.58,70.03],[73.45,70.26],[73.97,70.41],[73.84,70.64],[74.38,70.78],[74.25,71.01],[73.57,71.11],[73.43,71.34],[73.98,71.48],[73.84,71.72],[74.42,71.86],[74.28,72.1],[74.87,72.24],[75.6,72.14],[75.72,71.91],[75.13,71.77],[75.25,71.53],[76.74,71.1],[77.32,71.23],[77.22,71.47],[76.53,71.57],[76.42,71.81],[78.34,71.97],[78.26,72.21],[77.54,72.32],[77.44,72.56],[78.08,72.69],[78.81,72.58],[78.89,72.34],[80.95,72.24],[81.0,72.0],[81.69,71.88],[82.34,72.0],[82.31,72.25],[81.61,72.37],[81.57,72.61],[80.06,73.09],[80.0,73.33],[80.69,73.46],[80.64,73.7],[85.85,73.8],[85.87,74.05],[86.65,74.16],[86.69,74.4],[85.92,74.54],[85.94,74.78],[87.65,75.25],[88.44,75.11],[89.3,75.21],[89.39,75.46],[90.28,75.55],[90.38,75.8],[87.82,75.99],[86.02,75.53],[85.18,75.66],[85.2,75.91],[86.08,76.02],[86.11,76.27],[85.22,76.4],[85.24,76.65],[86.17,76.77],[86.2,77.02],[85.27,77.15],[85.29,77.4],[84.32,77.53],[84.31,77.78],[85.32,77.9],[85.34,78.15],[84.31,78.28],[84.3,78.53],[83.23,78.65],[83.2,78.9],[82.08,79.03],[82.03,79.28],[80.85,79.39],[80.77,79.64],[79.54,79.75],[79.42,80.0],[76.64,80.45],[76.43,80.7],[75.02,80.8],[74.76,81.04],[75.98,81.2],[75.73,81.44],[72.28,81.86],[71.9,82.1],[73.21,82.27],[72.84,82.51],[71.06,82.59],[70.61,82.83],[72.03,83.0],[71.57,83.24],[66.92,83.62],[66.23,83.85],[67.76,84.03],[67.05,84.27],[61.27,84.59],[60.2,84.82],[57.54,84.84],[56.24,85.06],[57.74,85.27],[56.33,85.49],[57.98,85.7],[56.44,85.92],[58.28,86.13],[56.57,86.35],[52.81,86.35],[50.65,86.56],[52.47,86.78],[49.99,86.99],[52.03,87.21],[49.11,87.41],[37.79,87.09],[34.07,87.25],[34.84,87.49],[30.29,87.65],[30.76,87.89],[36.94,87.97],[38.41,88.21],[32.15,88.38],[33.22,88.62],[24.32,88.76],[23.86,89.0],[37.09,89.1],[41.18,89.34],[21.6,89.5],[17.25,89.74],[-36.98,89.72],[-35.92,89.48],[-17.0,89.33],[-21.63,89.1],[-35.33,89.0],[-35.21,88.77],[-26.15,88.63],[-27.42,88.4],[-35.06,88.29],[-35.02,88.06],[-29.08,87.93],[-29.66,87.69],[-34.95,87.59],[-34.93,87.35],[-30.52,87.23],[-30.85,86.99],[-34.89,86.88],[-34.88,86.65],[-31.37,86.53],[-31.58,86.3],[-34.85,86.19],[-34.84,85.96],[-31.93,85.84],[-32.08,85.61],[-34.83,85.5],[-34.82,85.27],[-32.33,85.15],[-32.44,84.92],[-34.81,84.82],[-34.8,84.59],[-32.63,84.47],[-32.71,84.25],[-34.79,84.14],[-34.79,83.91],[-40.55,83.77],[-40.34,83.55],[-42.04,83.41],[-47.57,83.41],[-49.07,83.26],[-48.6,83.04],[-49.99,82.88],[-49.52,82.67],[-47.73,82.61],[-46.34,82.76],[-46.72,82.98],[-45.23,83.13],[-39.96,83.1],[-38.3,83.23],[-38.43,83.45],[-36.64,83.57],[-29.23,83.55],[-27.52,83.41],[-27.77,83.19],[-26.18,83.06],[-26.45,82.84],[-24.98,82.7],[-25.27,82.48],[-28.41,82.54],[-31.76,82.13],[-31.84,81.91],[-33.32,81.81],[-33.36,81.59],[-32.0,81.48],[-32.07,81.26],[-28.14,81.11],[-25.04,81.48],[-24.78,81.69],[-23.23,81.76],[-22.01,81.61],[-22.34,81.4],[-23.83,81.33],[-24.11,81.12],[-22.96,80.98],[-23.25,80.77],[-22.16,80.62],[-20.78,80.68],[-20.44,80.89],[-21.53,81.04],[-21.19,81.25],[-19.7,81.3],[-16.09,81.03],[-16.54,80.82],[-17.97,80.78],[-18.37,80.58],[-17.39,80.42],[-17.78,80.21],[-21.43,80.27],[-21.73,80.06],[-20.75,79.91],[-21.05,79.71],[-24.2,79.68],[-24.28,79.45],[-21.33,79.25],[-21.46,79.02],[-22.49,78.93],[-22.59,78.7],[-24.63,78.29],[-24.69,78.06],[-23.82,77.92],[-23.9,77.69],[-24.8,77.59],[-24.86,77.36],[-24.04,77.22],[-24.1,76.99],[-23.32,76.85],[-23.39,76.62],[-25.11,76.19],[-25.15,75.96],[-22.88,75.78],[-21.17,76.19],[-20.46,76.04],[-20.57,75.81],[-19.89,75.66],[-20.01,75.43],[-21.67,75.03],[-21.76,74.79],[-21.11,74.65],[-21.2,74.42],[-23.32,74.37],[-23.38,74.14],[-21.39,73.95],[-21.48,73.72],[-24.84,73.7],[-24.89,73.47],[-24.25,73.33],[-24.3,73.1],[-24.97,72.99],[-25.01,72.76],[-25.66,72.65],[-25.69,72.41],[-23.84,72.25],[-23.89,72.02],[-23.32,71.88],[-23.37,71.65],[-26.39,71.59],[-26.41,71.35],[-25.82,71.22],[-25.85,70.99],[-27.04,70.52],[-27.05,70.28],[-27.62,70.17],[-27.62,69.93],[-27.07,69.81],[-25.92,70.27],[-23.69,70.23],[-23.16,70.1],[-23.21,69.86],[-24.38,69.42],[-25.46,69.43],[-25.49,69.2],[-26.59,68.73],[-28.17,68.85],[-29.21,68.37],[-31.87,68.44],[-32.37,68.3],[-32.33,68.06],[-32.83,67.92],[-32.77,67.68],[-33.26,67.54],[-33.21,67.3],[-34.7,67.11],[-34.63,66.87],[-35.1,66.72],[-35.03,66.48],[-35.48,66.33],[-36.02,66.43],[-36.47,66.27],[-36.38,66.03],[-36.83,65.88],[-37.99,66.29],[-38.43,66.13],[-38.33,65.89],[-38.76,65.73],[-39.3,65.81],[-39.73,65.65],[-39.62,65.41],[-40.99,65.15],[-40.86,64.91],[-41.27,64.75],[-41.15,64.51],[-41.55,64.34],[-41.42,64.1],[-41.81,63.93],[-41.69,63.69],[-42.07,63.51],[-41.95,63.27],[-42.33,63.1],[-42.2,62.86],[-42.57,62.69],[-42.45,62.45],[-42.81,62.27],[-42.68,62.04],[-43.04,61.86],[-42.92,61.62],[-43.27,61.45],[-43.14,61.21],[-43.49,61.03],[-43.36,60.79],[-43.71,60.61],[-44.18,60.67],[-44.52,60.49],[-44.38,60.25],[-44.71,60.07],[-45.18,60.13],[-45.32,60.36],[-44.99,60.55],[-45.13,60.78],[-45.61,60.83],[-45.75,61.07],[-47.06,60.98],[-47.22,61.22],[-48.38,61.54],[-48.55,61.78],[-49.76,62.09],[-49.95,62.32],[-49.61,62.52],[-49.8,62.75],[-50.33,62.79],[-50.53,63.03],[-50.19,63.22],[-51.15,63.73],[-50.8,63.92],[-51.01,64.16],[-50.67,64.35],[-50.88,64.59],[-52.24,64.89],[-52.48,65.12],[-52.12,65.32],[-52.36,65.55],[-52.95,65.58],[-53.19,65.82],[-52.84,66.02],[-53.09,66.25],[-52.72,66.45],[-52.97,66.68],[-52.6,66.88],[-53.75,67.37],[-53.38,67.57],[-53.65,67.8],[-53.27,68.01],[-53.54,68.24],[-51.01,68.76],[-51.26,68.99],[-50.84,69.18],[-51.1,69.42],[-50.67,69.61],[-50.94,69.84],[-50.5,70.03],[-50.76,70.26],[-50.32,70.45],[-51.6,70.96],[-51.14,71.15],[-51.43,71.38],[-52.19,71.42],[-52.49,71.65],[-54.37,71.94],[-54.82,71.74],[-55.6,71.77],[-55.95,71.99],[-55.51,72.19],[-55.87,72.42],[-55.42,72.62],[-55.78,72.84],[-55.32,73.04],[-55.69,73.26],[-56.54,73.28],[-57.0,73.08],[-56.62,72.86],[-57.06,72.66],[-56.68,72.44],[-57.12,72.23],[-56.75,72.01],[-57.18,71.81],[-56.81,71.59],[-54.92,71.32],[-54.59,71.09],[-55.02,70.89],[-54.7,70.66],[-56.26,70.28],[-55.93,70.06],[-56.32,69.85],[-56.0,69.63],[-56.39,69.42],[-56.07,69.2],[-56.45,68.99],[-58.2,68.81],[-58.56,68.6],[-58.23,68.38],[-58.58,68.16],[-59.25,68.17],[-59.59,67.96],[-59.26,67.73],[-60.57,67.3],[-63.24,67.72],[-63.61,67.94],[-64.28,67.92],[-64.57,67.7],[-64.2,67.49],[-63.54,67.5],[-62.18,67.08],[-62.48,66.85],[-62.14,66.64],[-62.43,66.42],[-62.1,66.2],[-62.39,65.98],[-64.79,65.49],[-65.14,65.7],[-64.87,65.93],[-65.23,66.14],[-65.85,66.12],[-66.22,66.32],[-66.85,66.3],[-67.97,65.8],[-67.6,65.6],[-66.98,65.63],[-66.62,65.42],[-66.86,65.19],[-66.51,64.98],[-65.91,65.0],[-65.56,64.8],[-65.81,64.56],[-64.55,64.16],[-64.8,63.93],[-64.48,63.72],[-64.73,63.49],[-66.1,63.22],[-67.34,63.6],[-67.91,63.57],[-68.13,63.34],[-67.79,63.13],[-68.01,62.9],[-66.79,62.51],[-67.01,62.28],[-67.55,62.25],[-69.68,62.79],[-71.14,62.91],[-71.51,63.11],[-71.32,63.35],[-71.69,63.54],[-73.2,63.64],[-73.38,63.39],[-72.07,63.06],[-72.25,62.82],[-71.89,62.62],[-72.79,62.09],[-71.54,61.74],[-71.72,61.5],[-71.37,61.31],[-71.55,61.06],[-71.21,60.87],[-69.98,61.19],[-69.64,60.99],[-69.83,60.75],[-69.51,60.55],[-69.69,60.31],[-69.37,60.11],[-70.25,59.59],[-69.93,59.39],[-69.43,59.43],[-69.12,59.23],[-69.3,58.99],[-68.99,58.79],[-66.93,58.48],[-66.04,58.98],[-65.55,59.0],[-65.34,59.23],[-65.63,59.44],[-65.42,59.68],[-64.19,59.95],[-63.9,59.74],[-64.13,59.51],[-63.85,59.29],[-64.07,59.06],[-63.79,58.85],[-63.3,58.87],[-63.04,58.65],[-63.26,58.43],[-62.99,58.21],[-62.51,58.23],[-62.26,58.01],[-62.48,57.79],[-61.51,57.37],[-61.73,57.14],[-61.49,56.93],[-61.7,56.7],[-61.46,56.49],[-61.68,56.26],[-61.44,56.05],[-60.99,56.06],[-60.76,55.84],[-60.98,55.62],[-60.75,55.4],[-58.35,54.77]],[[-6.44,53.47],[-6.13,53.32],[-6.17,53.1],[-6.52,53.03],[-6.29,52.43],[-6.94,52.5],[-7.66,52.12],[-8.31,52.18],[-8.34,51.95],[-9.05,51.55],[-10.02,51.75],[-9.62,52.3],[-9.94,52.44],[-9.92,52.67],[-8.91,52.69],[-8.88,52.92],[-9.49,53.43],[-9.46,53.66],[-9.79,53.8],[-9.76,54.02],[-8.73,54.04],[-8.31,54.57],[-8.63,54.71],[-8.6,54.93],[-8.24,55.01],[-8.21,55.23],[-6.16,55.01],[-5.93,54.43],[-6.67,54.06],[-6.44,53.47]],[[55.59,73.84],[56.02,74.03],[55.6,74.24],[56.04,74.43],[55.61,74.64],[56.06,74.83],[55.62,75.05],[57.48,75.41],[58.4,75.38],[58.91,75.57],[58.49,75.79],[59.02,75.98],[65.35,76.54],[66.35,76.48],[67.03,76.65],[66.71,76.88],[67.41,77.06],[68.45,76.99],[68.74,76.76],[68.03,76.59],[68.32,76.35],[67.64,76.18],[65.04,76.13],[64.42,75.95],[64.75,75.73],[64.15,75.55],[60.24,75.32],[59.72,75.13],[60.11,74.91],[59.6,74.73],[58.72,74.76],[58.23,74.57],[58.62,74.36],[56.86,74.01],[57.25,73.8],[56.82,73.61],[57.2,73.4],[56.78,73.22],[55.98,73.24],[55.58,73.05],[55.96,72.84],[54.43,72.49],[54.81,72.28],[54.45,72.1],[55.92,71.67],[55.55,71.49],[55.91,71.28],[55.55,71.1],[55.89,70.9],[56.59,70.87],[56.92,70.67],[56.56,70.49],[52.74,71.16],[52.36,71.36],[52.68,71.55],[52.29,71.74],[51.57,71.75],[51.16,71.94],[52.56,72.32],[53.31,72.31],[53.67,72.5],[53.26,72.7],[53.63,72.89],[53.21,73.09],[54.78,73.46],[54.36,73.67],[54.76,73.86],[55.59,73.84]],[[3.12,53.67],[3.19,53.88],[3.53,53.92],[3.61,54.13],[3.94,54.17],[4.85,54.86],[5.47,54.78],[5.83,54.87],[5.91,55.07],[6.91,55.11],[7.0,55.31],[7.37,55.39],[8.29,55.23],[8.2,55.02],[7.83,54.95],[7.74,54.74],[8.02,54.62],[7.92,54.41],[7.56,54.34],[7.02,53.84],[6.39,53.89],[6.04,53.81],[5.95,53.6],[4.98,53.55],[4.48,53.05],[4.15,53.01],[4.25,52.42],[3.13,51.86],[2.67,51.38],[2.09,51.49],[2.55,51.97],[2.29,52.14],[2.36,52.35],[2.69,52.4],[2.76,52.61],[2.5,52.78],[2.57,52.99],[3.31,53.29],[3.38,53.5],[3.12,53.67]],[[-2.81,53.35],[-3.0,53.94],[-2.65,54.0],[-2.6,54.21],[-3.55,54.46],[-3.09,54.95],[-3.39,55.11],[-4.15,54.77],[-4.82,54.85],[-5.13,55.0],[-5.08,55.22],[-4.31,55.56],[-4.27,55.78],[-5.26,56.01],[-5.21,56.23],[-5.54,56.38],[-6.23,56.46],[-5.77,56.95],[-6.1,57.09],[-6.06,57.31],[-5.26,57.64],[-5.21,57.85],[-5.54,58.0],[-5.5,58.21],[-5.11,58.27],[-5.07,58.48],[-3.64,58.3],[-3.7,58.09],[-4.5,57.77],[-4.55,57.56],[-4.23,57.41],[-3.43,57.73],[-2.42,57.48],[-2.48,57.28],[-2.17,57.12],[-2.22,56.92],[-3.02,56.59],[-3.49,56.11],[-1.85,55.77],[-1.91,55.56],[-1.61,55.4],[-1.67,55.19],[-1.14,54.66],[-1.2,54.45],[-0.28,54.19],[-0.35,53.97],[0.15,53.44],[-0.31,52.95],[0.57,52.69],[1.31,53.01],[1.77,52.47],[1.31,51.98],[0.98,51.93],[0.92,51.71],[0.59,51.66],[0.73,51.06],[-0.19,51.1],[-0.25,50.88],[-0.57,50.82],[-0.84,50.98],[-1.55,50.64],[-2.76,50.82],[-3.04,50.97],[-2.99,51.2],[-2.66,51.27],[-2.6,51.49],[-2.89,51.64],[-4.76,51.9],[-4.71,52.12],[-4.37,52.19],[-3.75,52.11],[-3.7,52.33],[-4.24,52.86],[-4.19,53.08],[-3.55,53.0],[-2.81,53.35]],[[48.88,69.29],[49.51,69.29],[49.77,69.1],[48.78,68.91],[48.52,69.1],[48.88,69.29]],[[-53.58,47.5],[-53.22,47.49],[-53.08,47.28],[-53.29,47.08],[-53.64,47.09],[-53.78,47.3],[-53.58,47.5]],[[-29.25,81.45],[-30.56,81.57],[-30.45,81.79],[-27.6,81.75],[-27.79,81.54],[-29.25,81.45]],[[-58.38,48.16],[-58.54,48.79],[-57.78,49.21],[-57.96,49.42],[-57.76,49.63],[-57.94,49.84],[-57.74,50.05],[-56.8,49.84],[-56.08,49.41],[-55.13,49.61],[-54.96,49.4],[-54.06,49.17],[-53.91,48.95],[-54.12,48.75],[-53.46,48.32],[-53.67,48.12],[-54.02,48.13],[-54.28,47.52],[-55.15,47.74],[-55.35,47.54],[-55.71,47.54],[-56.39,47.96],[-57.3,47.75],[-57.47,47.96],[-57.84,47.96],[-58.03,47.75],[-58.39,47.74],[-58.57,47.95],[-58.38,48.16]],[[-19.61,63.99],[-19.17,64.09],[-19.09,64.32],[-19.47,64.45],[-19.39,64.68],[-20.24,64.71],[-20.31,64.48],[-20.76,64.38],[-21.15,64.51],[-21.09,64.74],[-20.63,64.84],[-20.57,65.07],[-19.71,65.04],[-18.69,65.46],[-16.98,65.36],[-16.6,65.23],[-16.7,65.0],[-16.34,64.86],[-14.71,64.75],[-14.82,64.52],[-15.63,64.58],[-16.64,64.19],[-17.45,64.24],[-17.54,64.01],[-17.98,63.92],[-18.79,63.96],[-18.87,63.73],[-19.31,63.63],[-19.68,63.76],[-19.61,63.99]],[[12.83,79.41],[14.03,79.32],[14.29,79.11],[12.23,79.05],[11.93,79.26],[12.83,79.41]],[[57.98,80.58],[56.53,80.6],[55.81,80.81],[56.58,81.02],[58.11,81.0],[58.78,80.78],[57.98,80.58]],[[-3.79,50.38],[-4.4,50.46],[-4.36,50.69],[-3.65,51.06],[-3.37,50.91],[-3.79,50.38]],[[17.71,78.83],[17.53,79.06],[16.38,79.15],[16.17,79.37],[17.14,79.5],[18.32,79.4],[18.49,79.18],[19.63,79.08],[19.76,78.86],[18.81,78.74],[18.96,78.51],[18.05,78.39],[16.98,78.49],[16.79,78.71],[17.71,78.83]],[[-57.15,50.26],[-57.33,50.48],[-57.13,50.69],[-56.74,50.68],[-56.56,50.47],[-56.77,50.26],[-57.15,50.26]],[[-52.92,70.38],[-53.65,70.41],[-53.96,70.64],[-53.53,70.83],[-52.79,70.8],[-51.48,70.3],[-51.92,70.11],[-52.63,70.15],[-52.92,70.38]],[[1.52,38.82],[1.24,38.73],[1.02,38.87],[1.07,39.11],[1.35,39.2],[1.57,39.06],[1.52,38.82]],[[-56.53,50.89],[-56.71,51.11],[-56.49,51.32],[-56.1,51.31],[-55.93,51.1],[-56.14,50.89],[-56.53,50.89]],[[20.09,80.1],[23.57,80.21],[27.12,80.07],[27.1,79.84],[24.81,79.87],[23.69,79.76],[23.75,79.53],[22.68,79.42],[20.23,79.87],[20.09,80.1]],[[-54.18,69.78],[-53.77,69.98],[-53.06,69.95],[-52.77,69.72],[-53.18,69.52],[-53.88,69.55],[-54.18,69.78]],[[-63.09,49.49],[-62.92,49.71],[-62.54,49.73],[-62.33,49.53],[-62.51,49.31],[-62.89,49.29],[-63.09,49.49]],[[10.62,55.14],[9.96,55.19],[10.07,55.39],[10.44,55.47],[10.72,55.34],[10.62,55.14]]],[[[-56.84,-63.77],[-57.4,-63.82],[-57.61,-64.04],[-57.26,-64.23],[-57.47,-64.46],[-57.11,-64.66],[-56.54,-64.61],[-56.33,-64.38],[-56.69,-64.19],[-56.48,-63.96],[-55.17,-63.64],[-54.25,-63.12],[-54.61,-62.94],[-56.92,-62.71],[-57.87,-63.21],[-56.63,-63.54],[-56.84,-63.77]]],[[[-48.25,82.03],[-46.62,81.97],[-46.13,81.75],[-47.19,81.59],[-46.7,81.37],[-45.2,81.3],[-44.15,81.46],[-44.58,81.68],[-43.46,81.83],[-43.72,82.04],[-45.33,82.12],[-45.65,82.33],[-47.34,82.4],[-48.65,82.24],[-48.25,82.03]]],[[[-82.75,55.29],[-82.33,55.37],[-81.98,55.21],[-82.06,54.96],[-81.73,54.79],[-82.3,54.2],[-81.97,54.04],[-82.05,53.79],[-81.72,53.62],[-81.8,53.37],[-80.76,53.12],[-81.32,52.54],[-81.01,52.37],[-81.09,52.13],[-80.78,51.96],[-80.86,51.71],[-80.56,51.54],[-79.47,51.53],[-79.38,51.77],[-79.69,51.94],[-79.59,52.19],[-79.2,52.26],[-79.1,52.51],[-79.41,52.68],[-79.32,52.93],[-80.35,53.2],[-80.26,53.44],[-79.13,53.42],[-79.03,53.67],[-79.34,53.84],[-79.25,54.09],[-79.57,54.27],[-79.47,54.51],[-79.8,54.69],[-79.7,54.94],[-78.52,54.91],[-77.87,55.48],[-76.88,55.86],[-76.76,56.11],[-77.09,56.29],[-76.97,56.54],[-76.52,56.6],[-76.39,56.85],[-76.73,57.03],[-76.6,57.28],[-76.94,57.46],[-76.82,57.71],[-77.97,58.01],[-77.85,58.26],[-78.21,58.43],[-78.68,58.36],[-79.04,58.54],[-78.92,58.79],[-79.29,58.97],[-79.77,58.89],[-79.87,58.64],[-80.34,58.56],[-80.44,58.31],[-80.91,58.23],[-81.01,57.97],[-81.46,57.89],[-81.56,57.64],[-82.54,57.22],[-82.63,56.96],[-82.27,56.8],[-82.35,56.55],[-82.79,56.46],[-82.87,56.21],[-83.8,55.78],[-83.87,55.52],[-82.75,55.29]],[[-79.93,57.46],[-79.83,57.71],[-79.37,57.79],[-78.2,57.51],[-78.32,57.26],[-78.77,57.18],[-79.93,57.46]],[[-78.86,56.01],[-78.97,55.76],[-79.41,55.68],[-80.52,55.95],[-80.42,56.2],[-79.98,56.28],[-79.88,56.53],[-80.23,56.71],[-80.13,56.96],[-79.68,57.03],[-78.54,56.76],[-78.65,56.51],[-78.31,56.33],[-78.42,56.08],[-78.86,56.01]]],[[[40.47,-69.0],[41.09,-69.07],[41.54,-68.92],[41.37,-68.7],[42.85,-68.47],[42.67,-68.25],[42.07,-68.18],[40.6,-68.4],[40.76,-68.63],[40.31,-68.77],[39.23,-68.84],[39.38,-69.07],[38.91,-69.21],[39.06,-69.44],[38.57,-69.58],[36.3,-69.69],[34.94,-69.27],[34.83,-69.03],[34.23,-68.93],[34.14,-68.7],[31.92,-68.75],[31.98,-68.98],[32.58,-69.09],[33.71,-69.07],[33.8,-69.3],[35.15,-69.73],[35.26,-69.96],[35.9,-70.06],[37.58,-69.87],[39.03,-70.27],[39.53,-70.12],[39.37,-69.89],[39.85,-69.75],[39.69,-69.52],[40.17,-69.37],[40.01,-69.15],[40.47,-69.0]]],[[[29.98,-70.42],[30.62,-70.54],[32.42,-70.39],[32.34,-70.16],[32.9,-70.03],[32.82,-69.79],[33.36,-69.66],[33.27,-69.43],[32.66,-69.32],[32.12,-69.45],[32.19,-69.69],[31.64,-69.81],[31.71,-70.05],[31.14,-70.17],[29.94,-70.18],[28.66,-69.71],[28.08,-69.82],[28.11,-70.06],[28.72,-70.18],[28.76,-70.42],[28.15,-70.54],[26.9,-70.05],[25.07,-70.14],[25.06,-70.38],[25.67,-70.51],[26.91,-70.53],[26.92,-70.77],[26.3,-70.88],[25.03,-70.86],[23.82,-70.34],[21.94,-70.4],[21.35,-70.25],[19.97,-70.68],[19.38,-70.53],[19.47,-70.28],[18.9,-70.13],[17.46,-70.54],[16.89,-70.37],[17.01,-70.13],[16.46,-69.97],[16.58,-69.73],[16.04,-69.57],[15.39,-69.64],[15.25,-69.88],[15.79,-70.05],[15.66,-70.29],[13.74,-70.25],[13.22,-70.08],[13.38,-69.84],[12.86,-69.67],[12.18,-69.73],[12.01,-69.97],[12.53,-70.14],[12.35,-70.38],[11.65,-70.44],[11.13,-70.26],[11.32,-70.03],[9.63,-69.71],[8.94,-69.76],[8.72,-70.0],[6.83,-69.89],[6.59,-70.12],[5.87,-70.16],[5.41,-69.96],[4.69,-70.0],[4.42,-70.22],[3.7,-70.25],[3.25,-70.05],[1.38,-69.89],[0.01,-70.35],[1.61,-70.75],[0.19,-71.22],[-1.78,-71.02],[-2.19,-70.81],[-1.83,-70.59],[-2.22,-70.37],[-1.87,-70.15],[-2.26,-69.94],[-2.99,-69.94],[-4.47,-70.37],[-4.1,-70.59],[-4.48,-70.8],[-4.1,-71.02],[-4.5,-71.24],[-5.28,-71.23],[-5.66,-71.01],[-5.25,-70.79],[-5.61,-70.57],[-5.22,-70.36],[-5.57,-70.13],[-6.32,-70.12],[-6.72,-70.33],[-6.37,-70.56],[-6.78,-70.77],[-8.64,-70.5],[-10.3,-70.88],[-12.31,-71.01],[-12.8,-71.21],[-12.51,-71.45],[-13.02,-71.65],[-12.72,-71.89],[-13.24,-72.08],[-12.95,-72.32],[-14.87,-72.67],[-14.58,-72.91],[-15.16,-73.1],[-17.47,-73.18],[-18.09,-73.37],[-17.84,-73.62],[-16.95,-73.68],[-16.68,-73.92],[-18.88,-74.23],[-18.62,-74.48],[-19.3,-74.66],[-19.05,-74.91],[-21.44,-75.2],[-21.21,-75.45],[-21.97,-75.62],[-26.49,-75.69],[-27.32,-75.85],[-27.19,-76.1],[-26.19,-76.2],[-18.97,-75.84],[-18.24,-75.65],[-18.52,-75.41],[-17.81,-75.22],[-18.09,-74.97],[-17.41,-74.79],[-17.69,-74.54],[-17.04,-74.35],[-16.11,-74.41],[-15.81,-74.65],[-14.86,-74.71],[-14.23,-74.51],[-14.55,-74.27],[-13.95,-74.07],[-14.26,-73.83],[-15.16,-73.78],[-15.46,-73.54],[-14.87,-73.35],[-13.99,-73.39],[-13.42,-73.2],[-13.73,-72.96],[-13.18,-72.76],[-10.95,-72.64],[-10.44,-72.43],[-10.78,-72.2],[-10.28,-71.99],[-10.61,-71.76],[-10.13,-71.55],[-8.18,-71.84],[-6.49,-71.43],[-5.7,-71.45],[-5.32,-71.67],[-3.32,-71.47],[-1.69,-71.9],[-0.88,-71.89],[-0.51,-71.67],[2.51,-71.17],[2.82,-70.94],[3.57,-70.91],[4.04,-71.11],[4.8,-71.08],[5.08,-70.85],[7.06,-70.97],[7.31,-70.74],[9.0,-70.42],[10.74,-70.73],[10.53,-70.97],[11.07,-71.15],[11.8,-71.1],[11.99,-70.86],[13.58,-70.49],[14.13,-70.67],[20.49,-71.07],[21.89,-70.64],[22.49,-70.79],[22.45,-71.03],[23.07,-71.17],[26.94,-71.25],[27.58,-71.14],[27.56,-70.9],[29.43,-70.78],[29.39,-70.54],[29.98,-70.42]],[[-7.64,-71.19],[-8.08,-71.4],[-8.87,-71.38],[-9.2,-71.14],[-8.75,-70.94],[-7.98,-70.96],[-7.64,-71.19]]],[[[25.66,65.42],[25.34,65.56],[25.46,65.78],[25.13,65.92],[23.13,65.96],[23.03,65.75],[21.57,65.08],[21.49,64.87],[21.81,64.73],[21.73,64.52],[21.32,64.44],[20.77,63.93],[21.31,63.45],[22.41,63.47],[22.5,63.68],[24.44,64.63],[24.55,64.85],[24.98,64.92],[25.1,65.13],[25.54,65.21],[25.66,65.42]]],[[[-19.36,-73.73],[-19.59,-73.49],[-20.46,-73.41],[-21.11,-73.59],[-20.9,-73.84],[-21.58,-74.02],[-22.47,-73.94],[-23.17,-74.11],[-22.98,-74.36],[-22.08,-74.44],[-21.87,-74.69],[-20.94,-74.77],[-20.23,-74.59],[-20.46,-74.34],[-19.78,-74.16],[-20.02,-73.91],[-19.36,-73.73]]],[[[-17.38,-72.51],[-18.2,-72.44],[-18.8,-72.63],[-18.57,-72.87],[-17.72,-72.94],[-15.71,-72.62],[-15.98,-72.37],[-16.8,-72.32],[-17.38,-72.51]]],[[[45.68,-67.98],[47.01,-67.69],[47.57,-67.71],[47.8,-67.92],[48.37,-67.94],[48.7,-67.74],[48.47,-67.53],[46.37,-67.05],[46.03,-67.24],[46.24,-67.45],[45.86,-67.61],[42.91,-67.88],[43.09,-68.1],[43.69,-68.17],[45.68,-67.98]]],[[[-44.12,-77.73],[-45.04,-77.57],[-46.17,-77.65],[-46.41,-77.9],[-45.47,-78.07],[-44.31,-77.98],[-44.12,-77.73]]],[[[-54.43,-61.43],[-54.09,-61.61],[-53.58,-61.55],[-53.41,-61.32],[-53.76,-61.15],[-54.26,-61.2],[-55.43,-60.89],[-55.93,-60.94],[-56.11,-61.16],[-54.94,-61.48],[-54.43,-61.43]]],[[[-26.03,-57.14],[-26.09,-56.91],[-26.98,-56.5],[-27.04,-56.27],[-27.79,-56.32],[-27.74,-56.55],[-26.86,-56.96],[-26.8,-57.19],[-26.03,-57.14]]],[[[12.77,45.18],[12.67,44.95],[12.34,44.89],[12.39,44.27],[13.18,44.01],[13.51,44.07],[13.61,44.3],[13.24,44.86],[13.33,45.08],[13.1,45.25],[13.2,45.47],[12.96,45.64],[12.63,45.57],[12.53,45.34],[12.77,45.18]]],[[[98.4,78.53],[98.1,78.29],[98.97,78.11],[98.67,77.87],[101.44,77.56],[101.11,77.32],[100.01,77.26],[99.71,77.02],[100.47,76.84],[102.97,77.18],[103.34,77.42],[104.47,77.47],[104.88,77.71],[104.12,77.9],[104.53,78.14],[107.69,78.01],[108.17,78.25],[105.41,78.62],[104.16,78.57],[103.74,78.34],[100.98,77.99],[100.14,78.17],[100.48,78.42],[99.61,78.6],[99.95,78.84],[102.89,79.2],[103.76,79.01],[105.05,79.05],[105.53,79.29],[102.41,79.63],[101.06,79.57],[100.67,79.33],[99.38,79.27],[99.04,79.02],[95.58,79.05],[94.59,79.22],[94.83,79.46],[93.79,79.63],[92.51,79.54],[91.43,79.69],[91.6,79.94],[92.92,80.03],[93.14,80.28],[91.98,80.44],[89.17,79.99],[89.06,79.74],[90.18,79.59],[90.04,79.34],[91.11,79.19],[90.96,78.94],[97.49,78.71],[98.4,78.53]]],[[[110.01,-66.14],[110.24,-66.38],[109.84,-66.58],[110.07,-66.81],[110.71,-66.85],[111.11,-66.65],[110.87,-66.41],[111.26,-66.21],[111.89,-66.24],[113.27,-65.86],[113.02,-65.63],[112.4,-65.6],[110.01,-66.14]]],[[[59.86,-67.68],[60.1,-67.46],[59.76,-67.26],[59.17,-67.29],[58.92,-67.51],[59.26,-67.71],[59.86,-67.68]]],[[[91.08,77.29],[88.23,77.49],[87.22,77.38],[87.17,77.13],[89.96,76.95],[90.95,77.04],[91.08,77.29]]],[[[-60.07,53.46],[-59.02,53.68],[-58.8,53.9],[-59.01,54.12],[-59.43,54.11],[-59.65,53.9],[-60.07,53.89],[-60.28,53.67],[-60.07,53.46]]],[[[-27.12,-79.73],[-28.43,-79.63],[-28.58,-79.37],[-29.84,-79.27],[-29.95,-79.01],[-35.79,-78.92],[-35.76,-78.66],[-34.63,-78.53],[-34.63,-78.28],[-35.72,-78.15],[-36.82,-78.27],[-36.87,-78.53],[-38.03,-78.64],[-38.1,-78.9],[-36.97,-79.04],[-37.02,-79.29],[-35.84,-79.43],[-35.87,-79.69],[-32.11,-79.81],[-32.04,-80.06],[-33.31,-80.2],[-33.28,-80.45],[-34.62,-80.58],[-38.63,-80.43],[-40.04,-80.54],[-40.18,-80.8],[-41.65,-80.9],[-41.85,-81.15],[-43.4,-81.25],[-43.65,-81.5],[-42.27,-81.66],[-40.66,-81.56],[-40.49,-81.3],[-36.07,-81.22],[-36.03,-80.96],[-34.62,-80.84],[-33.2,-80.96],[-31.83,-80.83],[-31.9,-80.57],[-30.6,-80.43],[-23.88,-80.42],[-22.73,-80.25],[-23.03,-80.0],[-21.94,-79.83],[-22.24,-79.58],[-25.99,-79.57],[-27.12,-79.73]]],[[[-27.06,-59.35],[-27.45,-59.5],[-27.39,-59.73],[-26.93,-59.83],[-26.22,-59.3],[-26.29,-59.07],[-26.74,-58.97],[-27.12,-59.12],[-27.06,-59.35]]],[[[-26.32,-57.52],[-26.68,-57.66],[-26.62,-57.89],[-25.83,-57.84],[-25.89,-57.61],[-26.32,-57.52]]],[[[-13.46,27.77],[-13.71,27.65],[-13.72,27.4],[-13.48,27.27],[-12.98,27.77],[-12.97,28.02],[-13.21,28.14],[-13.45,28.02],[-13.46,27.77]]],[[[-74.56,63.96],[-74.16,63.78],[-73.59,63.83],[-73.41,64.07],[-73.81,64.26],[-74.38,64.21],[-74.56,63.96]]],[[[77.63,80.85],[80.48,80.39],[81.71,80.52],[81.63,80.77],[82.93,80.91],[82.88,81.16],[81.47,81.27],[80.15,81.14],[78.71,81.25],[77.43,81.1],[77.63,80.85]]],[[[-12.72,28.14],[-12.48,28.01],[-12.24,28.13],[-12.22,28.38],[-12.46,28.51],[-12.71,28.39],[-12.72,28.14]]],[[[96.23,80.7],[97.35,80.53],[97.02,80.29],[98.08,80.11],[99.48,80.18],[99.87,80.43],[98.81,80.6],[99.2,80.85],[98.07,81.02],[98.46,81.27],[94.42,81.53],[90.01,81.49],[89.85,81.24],[88.4,81.13],[88.29,80.88],[92.18,80.69],[95.37,81.12],[96.55,80.95],[96.23,80.7]]],[[[73.21,69.66],[72.71,69.52],[72.85,69.29],[72.36,69.15],[72.5,68.92],[73.84,68.51],[74.32,68.65],[74.21,68.88],[74.7,69.02],[74.59,69.25],[73.97,69.34],[73.84,69.57],[73.21,69.66]]],[[[-44.02,-60.82],[-44.42,-60.67],[-44.33,-60.43],[-45.58,-60.22],[-46.62,-60.61],[-46.73,-60.85],[-44.58,-61.15],[-44.1,-61.06],[-44.02,-60.82]]],[[[-25.61,-58.54],[-25.69,-58.31],[-26.49,-58.36],[-26.43,-58.59],[-25.98,-58.69],[-25.61,-58.54]]],[[[-35.75,-54.33],[-35.74,-54.1],[-36.45,-54.09],[-36.8,-53.98],[-36.78,-53.75],[-37.83,-53.62],[-38.58,-54.04],[-38.61,-54.27],[-37.55,-54.41],[-37.57,-54.64],[-37.21,-54.76],[-36.49,-54.77],[-36.5,-55.0],[-36.14,-55.12],[-35.39,-54.67],[-35.39,-54.44],[-35.75,-54.33]]],[[[103.43,-65.81],[103.87,-65.63],[103.7,-65.38],[103.1,-65.32],[102.67,-65.5],[102.82,-65.75],[103.43,-65.81]]],[[[-26.67,39.1],[-27.55,39.16],[-27.58,39.41],[-27.89,39.52],[-28.15,39.36],[-28.12,39.11],[-28.95,38.9],[-29.13,38.24],[-27.14,38.29],[-26.64,38.85],[-26.67,39.1]]],[[[106.83,73.56],[107.36,73.35],[108.23,73.38],[109.86,73.86],[112.15,73.67],[112.58,73.89],[113.49,73.9],[113.93,74.12],[113.46,74.34],[113.92,74.56],[113.43,74.78],[113.9,75.0],[113.4,75.22],[112.41,75.22],[111.95,74.99],[112.47,74.77],[112.02,74.55],[109.73,74.3],[109.34,74.07],[107.17,73.79],[106.83,73.56]]],[[[106.06,-66.3],[106.26,-66.54],[106.89,-66.59],[107.31,-66.4],[107.11,-66.16],[106.49,-66.11],[106.06,-66.3]]],[[[-28.05,-76.26],[-29.04,-76.15],[-29.92,-76.3],[-29.83,-76.56],[-30.75,-76.7],[-31.75,-76.59],[-32.69,-76.73],[-32.65,-76.98],[-33.64,-77.12],[-33.61,-77.37],[-32.57,-77.5],[-31.58,-77.36],[-31.64,-77.1],[-28.71,-76.92],[-28.82,-76.67],[-27.93,-76.51],[-28.05,-76.26]]],[[[97.28,77.55],[96.19,77.48],[95.96,77.23],[93.68,76.82],[93.51,76.57],[91.42,76.15],[91.3,75.9],[92.1,75.74],[93.03,75.83],[93.18,76.08],[94.14,76.16],[94.32,76.41],[95.32,76.49],[97.87,76.22],[98.87,76.29],[99.14,76.53],[98.37,76.71],[98.64,76.95],[97.84,77.13],[98.11,77.38],[97.28,77.55]]],[[[52.03,-65.95],[47.79,-66.9],[48.79,-67.34],[50.23,-67.17],[50.54,-66.97],[50.3,-66.76],[50.6,-66.56],[52.83,-66.16],[53.11,-65.95],[52.85,-65.75],[52.31,-65.75],[52.03,-65.95]]],[[[-15.45,24.28],[-15.69,24.4],[-15.92,24.27],[-15.92,24.03],[-15.69,23.91],[-15.45,24.04],[-15.45,24.28]]],[[[-26.99,71.72],[-26.97,71.95],[-27.59,72.08],[-28.21,71.96],[-28.21,71.72],[-26.99,71.72]]],[[[92.6,78.13],[93.53,77.97],[94.65,78.06],[94.87,78.31],[93.93,78.47],[92.78,78.38],[92.6,78.13]]],[[[-69.92,47.23],[-70.16,47.42],[-70.52,47.38],[-70.65,47.15],[-70.42,46.96],[-70.06,47.0],[-69.92,47.23]]],[[[106.59,76.87],[107.26,76.67],[108.34,76.7],[108.8,76.93],[108.14,77.14],[108.6,77.37],[107.92,77.58],[106.76,77.55],[106.33,77.31],[107.02,77.11],[106.59,76.87]]],[[[-57.75,73.94],[-58.22,73.74],[-57.8,73.52],[-56.94,73.5],[-56.47,73.7],[-56.87,73.93],[-56.39,74.12],[-56.8,74.34],[-57.71,74.36],[-58.18,74.16],[-57.75,73.94]]],[[[-42.69,-78.81],[-42.52,-78.56],[-43.53,-78.4],[-44.73,-78.49],[-44.95,-78.74],[-43.92,-78.91],[-44.14,-79.16],[-43.06,-79.32],[-43.26,-79.57],[-42.13,-79.73],[-40.82,-79.63],[-40.67,-79.38],[-41.79,-79.22],[-41.63,-78.97],[-42.69,-78.81]]],[[[-74.45,62.6],[-74.83,62.79],[-75.38,62.73],[-75.54,62.49],[-75.15,62.3],[-74.61,62.36],[-74.45,62.6]]],[[[54.47,-65.74],[53.93,-65.74],[53.65,-65.95],[53.92,-66.16],[54.47,-66.15],[54.74,-65.94],[54.47,-65.74]]],[[[56.47,-66.74],[56.2,-66.95],[56.51,-67.16],[57.09,-67.14],[57.35,-66.93],[57.04,-66.73],[57.29,-66.51],[56.99,-66.31],[56.43,-66.32],[56.16,-66.54],[56.47,-66.74]]],[[[-31.26,83.23],[-33.05,83.13],[-33.1,82.91],[-29.76,82.88],[-29.6,83.1],[-31.26,83.23]]],[[[-14.96,25.53],[-15.2,25.4],[-15.2,25.15],[-14.97,25.03],[-14.48,25.53],[-14.48,25.78],[-14.72,25.9],[-14.96,25.77],[-14.96,25.53]]],[[[-31.66,39.5],[-30.99,39.07],[-30.73,39.22],[-31.14,39.82],[-31.45,39.91],[-31.71,39.75],[-31.66,39.5]]],[[[-24.77,37.44],[-25.12,38.06],[-25.41,38.17],[-26.24,37.98],[-26.21,37.72],[-25.92,37.62],[-25.88,37.36],[-24.95,36.52],[-24.69,36.67],[-24.71,36.92],[-25.0,37.03],[-25.03,37.29],[-24.77,37.44]]],[[[-28.19,70.53],[-27.61,70.65],[-27.61,70.88],[-28.2,71.01],[-28.78,70.89],[-28.77,70.65],[-28.19,70.53]]],[[[-65.84,68.76],[-66.53,68.74],[-66.82,68.51],[-66.41,68.3],[-65.73,68.32],[-65.44,68.55],[-65.84,68.76]]],[[[-43.92,-80.33],[-42.71,-80.49],[-41.29,-80.39],[-41.13,-80.14],[-42.32,-79.98],[-43.69,-80.08],[-43.92,-80.33]]],[[[-14.46,26.52],[-14.47,26.27],[-14.23,26.15],[-13.74,26.65],[-13.73,26.9],[-13.97,27.02],[-14.21,26.9],[-14.22,26.65],[-14.46,26.52]]],[[[-25.47,16.86],[-25.26,16.99],[-25.29,17.23],[-25.52,17.33],[-25.73,17.19],[-25.71,16.96],[-25.47,16.86]]],[[[-57.38,-62.11],[-57.19,-61.89],[-57.51,-61.7],[-58.02,-61.74],[-58.23,-61.96],[-57.91,-62.15],[-57.38,-62.11]]],[[[105.44,-66.24],[105.26,-66.0],[104.65,-65.94],[104.21,-66.12],[104.38,-66.37],[105.01,-66.43],[105.44,-66.24]]],[[[-9.92,30.19],[-9.67,30.3],[-9.65,30.55],[-9.89,30.68],[-10.14,30.57],[-10.16,30.32],[-9.92,30.19]]],[[[100.39,-66.38],[101.0,-66.45],[101.47,-66.28],[101.32,-66.03],[101.77,-65.85],[101.62,-65.61],[100.3,-65.21],[99.85,-65.38],[99.98,-65.63],[100.57,-65.71],[100.71,-65.96],[100.25,-66.13],[100.39,-66.38]]],[[[20.16,63.21],[20.09,62.99],[20.4,62.86],[20.78,62.94],[20.85,63.15],[20.16,63.21]]],[[[-65.66,69.42],[-66.07,69.63],[-66.8,69.61],[-67.09,69.38],[-66.66,69.17],[-65.95,69.19],[-65.66,69.42]]],[[[12.74,55.87],[12.35,55.8],[12.24,55.61],[12.68,55.14],[13.06,55.2],[13.17,55.4],[12.9,55.53],[13.01,55.73],[12.74,55.87]]],[[[-64.46,32.68],[-65.22,32.26],[-65.07,32.11],[-64.43,32.34],[-64.31,32.52],[-64.46,32.68]]],[[[2.87,-54.5],[3.06,-54.69],[3.47,-54.68],[3.67,-54.48],[3.48,-54.29],[3.07,-54.3],[2.87,-54.5]]]]}}]}