{"type":"FeatureCollection","features":[{"type":"Feature","properties":{},"geometry":{"type":"MultiPolygon","coordinates":[[[[-75.48,36.8],[-73.76,40.26],[-69.78,41.24],[-70.58,42.55],[-69.65,43.69],[-66.88,44.61],[-66.69,43.4],[-65.63,43.09],[-64.09,44.42],[-60.69,45.01],[-59.49,46.07],[-60.2,46.88],[-58.94,47.53],[-56.42,47.55],[-56.83,46.72],[-53.41,46.27],[-51.96,47.64],[-53.42,49.77],[-56.18,50.47],[-54.81,50.65],[-55.54,51.09],[-54.66,51.92],[-55.4,52.37],[-55.25,53.65],[-59.42,55.42],[-61.04,57.38],[-60.83,58.04],[-62.29,58.45],[-64.31,60.83],[-67.52,58.89],[-69.56,59.87],[-67.12,60.48],[-69.25,61.47],[-70.5,61.15],[-74.11,63.1],[-76.47,62.61],[-75.53,64.09],[-73.59,63.83],[-71.89,62.62],[-64.37,61.28],[-64.51,62.16],[-63.47,62.64],[-64.65,63.05],[-63.59,63.52],[-63.71,64.41],[-64.96,64.81],[-62.3,65.1],[-60.23,66.65],[-66.95,68.94],[-65.66,69.42],[-68.94,71.27],[-76.21,72.82],[-74.89,73.35],[-77.39,74.05],[-78.48,73.74],[-77.64,72.93],[-80.55,73.12],[-80.85,73.76],[-79.81,74.07],[-80.29,74.47],[-78.05,75.09],[-79.25,75.65],[-77.79,76.19],[-78.54,76.35],[-76.99,76.88],[-77.49,77.28],[-74.99,77.62],[-75.13,78.24],[-73.15,78.12],[-72.36,77.32],[-74.12,76.82],[-69.66,75.95],[-59.03,75.43],[-59.52,74.81],[-56.54,73.28],[-57.18,71.81],[-54.59,71.09],[-56.26,70.28],[-53.99,69.12],[-54.76,67.19],[-53.59,66.71],[-54.14,65.64],[-50.6,61.93],[-48.04,60.41],[-42.76,59.61],[-43.12,60.32],[-41.96,60.61],[-42.67,61.15],[-41.24,61.84],[-41.7,62.8],[-40.45,63.07],[-39.59,64.28],[-40.34,64.84],[-38.66,65.49],[-36.57,65.16],[-34.04,66.53],[-32.95,66.1],[-32.63,64.41],[-31.14,63.4],[-20.39,61.27],[-13.92,61.5],[-5.94,59.53],[-6.43,59.06],[-5.4,58.62],[-7.67,58.44],[-7.52,57.25],[-8.3,56.89],[-6.76,55.52],[-8.5,55.59],[-9.29,54.99],[-9.02,54.41],[-10.75,54.44],[-10.21,53.03],[-10.97,52.17],[-8.77,51.18],[-5.35,52.2],[-5.77,51.68],[-4.89,51.22],[-6.74,49.69],[-4.86,49.7],[-5.39,48.47],[-4.91,47.7],[-1.3,45.28],[-1.94,43.57],[-8.1,44.05],[-9.63,43.32],[-8.72,41.01],[-9.13,39.67],[-9.96,39.61],[-9.33,37.43],[-6.77,36.74],[-5.94,35.17],[-4.88,35.57],[-5.04,36.2],[-2.26,36.26],[-0.58,37.26],[0.25,38.85],[-0.09,39.63],[3.23,41.53],[3.97,43.25],[6.35,42.85],[8.46,44.02],[9.88,43.94],[10.18,43.16],[8.05,42.01],[11.56,42.18],[12.61,41.11],[14.01,40.96],[10.73,43.07],[10.29,44.24],[8.62,44.48],[9.43,45.09],[12.39,44.27],[13.58,42.81],[13.1,45.25],[15.98,43.47],[15.44,42.95],[16.34,42.25],[18.98,42.03],[19.5,39.3],[21.75,36.53],[23.21,36.5],[22.84,37.55],[21.89,37.43],[22.23,38.14],[23.56,37.2],[24.31,37.51],[24.15,36.61],[25.92,36.57],[25.38,37.84],[24.15,38.36],[24.63,39.29],[23.91,39.64],[24.72,40.59],[25.46,40.23],[25.08,39.55],[26.06,39.64],[25.63,38.3],[27.62,35.85],[28.49,36.36],[28.37,37.22],[26.59,38.39],[27.03,39.72],[26.31,40.09],[28.79,40.07],[29.84,40.77],[27.95,42.35],[28.85,44.29],[32.34,43.6],[36.76,45.05],[41.36,42.47],[41.21,41.46],[39.5,40.9],[41.67,41.23],[41.68,42.86],[37.25,45.25],[39.19,46.79],[39.14,47.62],[34.79,46.47],[34.7,45.47],[35.41,45.07],[34.4,45.07],[34.28,44.46],[33.15,45.66],[33.6,46.27],[30.57,46.81],[27.35,42.94],[28.14,41.09],[22.34,40.76],[22.58,38.84],[23.83,38.33],[23.39,38.06],[21.3,38.67],[19.83,40.0],[20.08,41.76],[15.29,43.98],[14.78,45.56],[13.25,46.31],[11.06,45.46],[8.64,46.15],[7.35,45.01],[8.22,44.17],[6.58,43.54],[5.09,44.2],[5.37,45.11],[8.73,47.2],[15.95,48.01],[15.17,47.07],[15.67,46.13],[16.69,46.3],[15.92,45.34],[17.16,45.96],[18.31,45.72],[18.77,44.75],[21.27,44.66],[22.61,48.67],[18.9,48.04],[17.82,49.09],[18.91,49.83],[24.37,49.81],[28.66,50.84],[29.59,49.73],[33.32,49.03],[34.0,49.42],[33.64,51.13],[34.68,52.55],[39.41,54.68],[40.97,54.32],[42.33,55.39],[47.26,55.8],[50.12,55.28],[49.86,56.15],[51.56,56.07],[52.63,56.86],[51.34,58.0],[52.35,58.37],[51.65,59.25],[52.69,59.62],[51.86,60.08],[52.38,61.1],[51.52,61.55],[52.62,61.92],[51.13,61.97],[51.15,62.99],[48.23,62.43],[48.46,63.64],[46.74,64.24],[48.87,65.63],[49.05,66.41],[48.0,66.8],[48.41,67.38],[52.9,65.96],[54.05,68.08],[58.18,68.68],[60.41,68.16],[61.41,69.07],[60.41,69.53],[61.83,69.82],[68.39,68.22],[69.27,68.72],[67.72,69.91],[68.46,70.45],[67.63,71.35],[71.73,72.83],[72.66,72.51],[71.32,71.59],[72.79,70.35],[71.59,69.46],[73.24,68.6],[71.24,66.81],[68.68,66.53],[72.05,66.05],[73.97,66.59],[75.23,67.87],[72.21,67.08],[75.82,69.05],[77.11,68.62],[76.69,68.26],[77.43,67.7],[78.49,67.71],[76.85,69.32],[73.97,69.34],[75.17,70.45],[73.57,71.11],[73.84,71.72],[78.73,70.78],[79.25,71.15],[78.5,71.49],[76.42,71.81],[78.89,72.34],[82.4,71.52],[81.83,70.92],[84.36,70.9],[83.71,71.51],[84.36,71.87],[80.8,72.97],[87.35,73.77],[85.92,74.54],[86.8,75.14],[98.87,76.29],[96.93,78.22],[101.44,77.56],[99.71,77.02],[100.91,76.41],[104.47,77.47],[105.5,76.84],[111.63,76.76],[113.89,75.44],[105.63,73.29],[113.51,73.46],[113.43,74.78],[115.39,75.22],[114.91,75.88],[115.45,76.1],[113.26,76.99],[108.8,76.93],[106.04,77.75],[108.17,78.25],[105.41,78.62],[105.53,79.29],[99.87,80.43],[103.31,80.78],[103.83,81.02],[102.77,81.21],[103.3,81.45],[109.14,80.26],[115.98,80.97],[115.23,81.63],[116.14,81.85],[115.27,82.07],[116.23,82.29],[115.32,82.51],[116.34,82.73],[115.37,82.95],[116.46,83.16],[115.43,83.38],[116.6,83.6],[115.5,83.82],[116.75,84.04],[115.58,84.26],[116.93,84.47],[115.67,84.69],[117.14,84.91],[115.78,85.13],[117.39,85.34],[115.91,85.56],[117.69,85.77],[116.07,85.99],[118.51,86.63],[116.51,86.85],[119.88,87.49],[117.28,87.71],[122.66,88.34],[118.95,88.56],[125.44,88.76],[120.81,88.98],[148.51,89.8],[-36.98,89.72],[-17.0,89.33],[-35.33,89.0],[-26.15,88.63],[-35.06,88.29],[-29.08,87.93],[-34.95,87.59],[-30.52,87.23],[-34.89,86.88],[-31.37,86.53],[-34.85,86.19],[-31.93,85.84],[-34.83,85.5],[-32.44,84.92],[-36.97,84.47],[-34.79,83.91],[-47.57,83.41],[-53.82,82.38],[-69.64,83.41],[-63.62,82.67],[-64.58,82.47],[-63.54,81.9],[-76.74,79.41],[-75.63,78.63],[-79.39,77.37],[-79.07,76.75],[-91.24,76.94],[-89.59,76.22],[-84.26,76.11],[-88.82,75.85],[-88.09,75.48],[-80.2,75.58],[-79.68,75.18],[-80.99,74.63],[-86.72,74.72],[-81.53,73.92],[-90.9,74.17],[-91.7,74.06],[-91.03,73.44],[-94.04,72.7],[-87.12,73.75],[-86.4,73.61],[-87.39,73.02],[-86.12,72.49],[-87.06,71.9],[-84.52,71.31],[-83.66,71.65],[-85.67,71.85],[-84.69,72.44],[-85.24,72.83],[-82.54,73.59],[-80.44,72.23],[-75.85,72.4],[-74.63,71.39],[-70.77,70.97],[-67.96,69.78],[-69.22,69.29],[-67.65,68.92],[-68.88,68.42],[-66.82,68.51],[-62.14,66.64],[-64.18,65.5],[-67.86,66.48],[-67.84,65.37],[-64.55,64.16],[-65.54,63.24],[-68.84,63.75],[-67.01,62.28],[-71.14,62.91],[-73.04,64.56],[-77.79,64.75],[-73.47,65.43],[-73.94,66.3],[-72.91,66.83],[-71.84,66.69],[-71.44,65.82],[-68.74,66.21],[-78.06,70.66],[-81.82,70.03],[-88.22,70.3],[-85.93,69.48],[-86.9,68.37],[-88.42,69.56],[-90.27,69.72],[-88.84,70.44],[-89.36,71.08],[-87.31,71.16],[-89.85,71.96],[-89.0,72.56],[-91.21,72.22],[-89.95,71.46],[-90.81,70.35],[-93.34,71.85],[-95.42,71.95],[-94.75,72.57],[-95.5,72.93],[-94.78,73.31],[-97.74,73.25],[-96.18,72.55],[-97.47,71.78],[-101.8,72.36],[-99.34,71.1],[-96.73,71.43],[-97.34,71.04],[-96.64,70.69],[-94.03,71.47],[-92.1,70.36],[-92.78,69.73],[-90.35,69.22],[-91.05,68.59],[-88.6,68.8],[-88.09,68.41],[-88.82,67.8],[-87.79,67.26],[-86.05,67.32],[-86.43,67.97],[-85.08,68.42],[-85.45,69.08],[-84.69,69.42],[-85.16,69.82],[-82.65,69.7],[-81.81,68.88],[-82.72,68.29],[-81.55,67.05],[-84.68,66.35],[-86.21,66.81],[-86.87,66.46],[-86.51,65.8],[-87.7,65.34],[-87.33,64.68],[-89.51,63.99],[-85.28,62.9],[-84.15,63.34],[-84.4,62.58],[-83.62,62.01],[-81.45,62.61],[-83.08,63.53],[-79.77,64.03],[-82.94,65.21],[-82.14,65.8],[-82.51,66.22],[-80.3,67.22],[-81.54,68.22],[-80.61,68.8],[-81.0,69.21],[-79.42,68.7],[-80.38,68.13],[-78.07,67.94],[-76.98,66.91],[-73.14,67.26],[-74.81,66.67],[-74.5,65.56],[-78.23,65.85],[-78.8,64.86],[-78.08,64.26],[-79.6,63.36],[-77.41,62.72],[-81.13,62.19],[-79.63,61.25],[-79.27,62.0],[-78.35,61.9],[-78.21,61.22],[-79.47,60.57],[-77.96,59.86],[-79.29,58.97],[-77.18,56.97],[-77.75,56.65],[-80.08,58.13],[-78.77,57.18],[-80.13,56.96],[-80.52,55.95],[-79.94,55.36],[-76.19,56.42],[-77.03,58.14],[-78.45,58.86],[-77.1,59.75],[-77.96,60.79],[-77.18,61.36],[-77.68,62.22],[-73.7,62.22],[-70.35,60.71],[-70.11,59.15],[-68.09,58.18],[-66.16,58.3],[-65.42,59.68],[-64.19,59.95],[-64.07,59.06],[-61.51,57.37],[-61.68,56.26],[-60.76,55.84],[-60.74,54.97],[-58.14,54.55],[-60.07,53.46],[-57.73,54.12],[-55.8,52.37],[-60.82,50.43],[-65.96,50.61],[-69.72,48.76],[-71.14,46.87],[-76.8,46.01],[-77.6,44.78],[-80.15,45.57],[-81.9,44.96],[-80.98,43.86],[-81.89,43.87],[-84.16,41.79],[-79.54,39.96],[-78.79,40.54],[-80.01,42.15],[-77.38,42.91],[-76.15,41.47],[-78.41,40.82],[-78.62,38.54],[-76.49,38.37],[-76.68,37.16],[-75.49,35.46],[-75.48,36.8]],[[-5.68,42.95],[-7.24,41.75],[-6.79,43.07],[-5.68,42.95]],[[-75.8,67.71],[-75.34,67.53],[-76.17,67.22],[-76.93,67.83],[-75.8,67.71]],[[-55.11,73.88],[-59.5,76.47],[-68.26,76.2],[-67.02,76.85],[-67.67,77.04],[-65.66,77.49],[-71.98,78.16],[-63.33,79.33],[-62.85,79.93],[-65.82,80.31],[-59.4,80.51],[-58.61,81.09],[-59.37,81.3],[-58.56,81.48],[-45.2,81.3],[-42.35,82.18],[-34.77,82.14],[-33.32,81.81],[-34.76,81.27],[-28.45,80.45],[-31.67,79.89],[-23.31,79.31],[-22.59,78.7],[-25.62,77.96],[-24.04,77.22],[-25.15,75.96],[-21.67,75.03],[-26.9,73.38],[-25.66,72.65],[-26.35,72.07],[-24.57,71.68],[-29.35,70.52],[-28.18,69.81],[-24.3,69.89],[-27.64,68.73],[-32.98,68.65],[-35.48,66.33],[-39.09,66.46],[-38.33,65.89],[-41.93,65.06],[-41.15,64.51],[-41.95,63.27],[-43.21,62.99],[-42.68,62.04],[-43.14,61.21],[-44.31,60.91],[-48.38,61.54],[-48.4,62.2],[-49.8,62.75],[-49.31,63.38],[-50.25,63.89],[-49.0,64.23],[-50.45,65.88],[-53.09,66.25],[-48.92,66.65],[-49.8,67.59],[-48.82,69.05],[-49.98,69.57],[-49.34,70.18],[-50.4,71.11],[-54.71,72.17],[-54.13,72.79],[-55.69,73.26],[-55.11,73.88]],[[7.83,85.93],[11.82,86.49],[5.01,87.01],[13.04,87.99],[-0.26,88.5],[10.08,89.1],[4.21,89.33],[41.18,89.34],[37.09,89.1],[49.22,88.49],[36.94,87.97],[43.89,87.38],[37.79,87.09],[40.02,86.68],[35.46,86.37],[37.52,85.97],[36.88,85.73],[25.77,84.4],[12.08,83.94],[11.5,84.17],[12.64,84.56],[9.45,84.86],[12.68,85.4],[7.83,85.93]],[[16.34,67.11],[15.74,67.37],[17.7,68.23],[19.72,68.05],[17.94,67.68],[18.6,67.22],[17.26,67.12],[15.83,65.78],[14.24,66.79],[16.34,67.11]],[[55.59,73.84],[59.02,75.98],[68.74,76.76],[61.91,75.87],[55.59,73.45],[55.96,72.84],[54.43,72.49],[54.47,71.71],[55.91,71.28],[55.54,70.71],[52.22,72.13],[55.59,73.84]],[[-61.17,49.15],[-62.36,49.95],[-60.23,49.81],[-57.1,51.11],[-61.26,46.43],[-63.78,46.71],[-64.59,47.5],[-63.9,47.97],[-64.03,49.23],[-62.28,48.68],[-61.17,49.15]],[[34.4,54.16],[32.38,52.25],[29.58,52.01],[30.15,53.14],[29.31,53.49],[30.64,53.7],[29.96,54.23],[34.62,55.0],[35.43,54.65],[34.4,54.16]],[[97.35,80.53],[99.38,79.27],[95.58,79.05],[93.79,79.63],[95.63,80.21],[93.61,80.78],[97.35,80.53]],[[0.18,43.23],[2.02,43.08],[2.37,42.34],[-0.32,42.22],[-1.21,43.09],[0.18,43.23]],[[-74.73,42.76],[-73.95,42.47],[-75.2,41.64],[-76.26,42.7],[-74.73,42.76]],[[-69.02,79.06],[-71.97,78.78],[-72.84,79.56],[-64.81,79.72],[-69.02,79.06]],[[6.59,58.8],[6.97,59.56],[6.05,59.87],[6.99,60.29],[6.63,60.99],[7.21,61.37],[6.25,61.68],[7.34,62.25],[12.43,63.45],[13.52,63.29],[13.88,62.72],[13.18,62.32],[14.41,61.84],[10.89,61.83],[11.15,61.07],[9.81,61.34],[9.24,59.77],[6.59,58.8]],[[-85.05,63.66],[-86.51,63.87],[-85.44,65.75],[-81.77,64.21],[-83.79,64.36],[-85.05,63.66]],[[-65.99,46.98],[-66.46,45.27],[-71.31,44.1],[-72.21,44.82],[-71.86,46.14],[-67.98,48.72],[-64.79,49.18],[-64.69,48.34],[-66.33,48.01],[-65.54,47.64],[-65.99,46.98]],[[36.89,45.65],[35.38,45.47],[35.17,46.07],[37.69,46.63],[37.88,46.03],[36.89,45.65]],[[-75.56,43.66],[-74.6,44.46],[-73.45,44.22],[-74.3,43.03],[-75.56,43.66]],[[-77.9,69.09],[-77.24,68.25],[-78.75,68.78],[-77.9,69.09]],[[-54.18,48.34],[-54.79,47.73],[-58.57,47.95],[-57.74,50.05],[-54.18,48.34]],[[-3.66,36.92],[-6.9,37.87],[-3.5,39.5],[-2.69,41.11],[0.72,40.96],[-1.86,37.07],[-3.66,36.92]],[[102.53,78.29],[101.59,79.15],[104.16,78.57],[102.53,78.29]],[[4.07,44.54],[2.2,43.77],[2.45,45.73],[4.1,45.59],[4.07,44.54]],[[-82.83,62.86],[-82.5,62.44],[-83.45,62.51],[-82.83,62.86]],[[65.74,69.5],[62.64,70.16],[66.44,71.25],[65.74,70.1],[66.82,69.6],[65.74,69.5]]],[[[86.54,-67.34],[99.57,-66.97],[103.6,-66.06],[108.59,-67.17],[112.9,-66.07],[114.95,-66.8],[113.55,-67.2],[114.76,-67.68],[118.47,-67.08],[119.42,-67.74],[125.43,-66.53],[128.4,-67.05],[125.95,-66.07],[116.88,-66.85],[113.38,-65.42],[109.84,-66.58],[106.06,-66.3],[103.38,-64.89],[100.3,-65.21],[99.17,-66.22],[96.79,-65.88],[92.61,-66.61],[91.97,-66.24],[93.56,-66.05],[92.3,-65.34],[90.4,-66.67],[84.9,-66.19],[84.33,-66.57],[84.86,-66.95],[77.91,-67.97],[78.27,-68.62],[76.83,-69.3],[71.43,-70.14],[71.62,-70.79],[70.75,-71.09],[71.29,-71.27],[73.7,-70.59],[73.44,-69.94],[76.52,-70.03],[80.18,-68.08],[86.54,-67.34]]],[[[-26.24,37.98],[-24.69,36.67],[-25.12,38.06],[-26.24,37.98]]],[[[37.2,-70.24],[40.67,-70.05],[40.01,-69.15],[44.09,-68.01],[50.09,-67.98],[54.47,-66.15],[56.55,-67.57],[69.03,-68.37],[69.15,-69.02],[66.86,-70.3],[68.51,-70.62],[65.27,-73.19],[67.96,-73.48],[71.66,-71.68],[67.99,-71.96],[70.04,-71.15],[69.2,-70.56],[71.22,-68.6],[70.59,-67.77],[59.17,-67.29],[56.1,-65.71],[53.13,-65.54],[47.68,-67.3],[42.32,-67.81],[38.57,-69.58],[32.44,-68.62],[31.98,-68.98],[32.66,-69.32],[31.71,-70.05],[26.29,-69.68],[25.07,-70.14],[25.67,-70.75],[25.03,-70.86],[22.05,-69.92],[17.46,-70.54],[16.04,-69.57],[15.25,-69.88],[15.66,-70.29],[12.86,-69.67],[11.65,-70.44],[9.63,-69.71],[1.38,-69.89],[0.01,-70.35],[1.61,-70.75],[0.19,-71.22],[-1.78,-71.02],[-0.73,-70.36],[-2.99,-69.94],[-5.28,-71.23],[-5.22,-70.36],[-6.32,-70.12],[-6.78,-70.77],[-12.31,-71.01],[-13.48,-72.52],[-18.8,-72.63],[-16.02,-73.05],[-18.09,-73.37],[-16.68,-73.92],[-17.31,-74.11],[-22.66,-73.69],[-22.98,-74.36],[-19.05,-74.91],[-22.95,-75.54],[-24.1,-75.2],[-23.71,-74.53],[-25.65,-74.1],[-25.22,-73.43],[-27.91,-72.62],[-27.33,-72.21],[-28.2,-71.86],[-27.73,-71.19],[-29.25,-70.73],[-28.7,-70.33],[-29.45,-69.96],[-29.19,-68.55],[-32.99,-66.6],[-32.56,-65.21],[-35.63,-62.98],[-39.25,-61.68],[-42.46,-61.66],[-45.58,-60.22],[-46.62,-60.61],[-46.44,-61.25],[-48.69,-61.16],[-50.6,-62.07],[-49.86,-63.29],[-53.99,-68.15],[-53.28,-68.77],[-54.43,-69.3],[-53.44,-70.35],[-55.49,-71.61],[-54.71,-72.24],[-56.13,-72.77],[-55.31,-73.4],[-56.85,-73.92],[-56.01,-74.56],[-57.68,-75.08],[-56.24,-76.6],[-58.19,-77.11],[-57.2,-77.75],[-57.65,-77.99],[-55.4,-79.95],[-55.91,-80.18],[-54.94,-80.38],[-55.47,-80.62],[-54.44,-80.82],[-54.98,-81.06],[-53.29,-81.68],[-58.14,-82.24],[-72.02,-80.9],[-63.86,-81.85],[-67.52,-82.28],[-63.66,-82.73],[-64.57,-83.38],[-63.4,-83.6],[-57.51,-83.77],[-56.66,-83.54],[-58.03,-83.34],[-52.62,-82.11],[-43.29,-82.66],[-37.56,-81.34],[-20.19,-80.15],[-19.86,-79.47],[-25.12,-79.16],[-23.79,-78.07],[-34.63,-78.28],[-23.54,-75.96],[-17.65,-76.15],[-14.85,-75.38],[-14.86,-74.71],[-9.54,-73.57],[-9.75,-72.9],[-7.82,-72.07],[-5.32,-71.67],[-2.87,-72.56],[2.97,-71.37],[10.53,-70.97],[25.63,-71.96],[35.26,-69.96],[37.2,-70.24]],[[-44.83,-79.92],[-43.92,-80.33],[-49.81,-80.65],[-51.54,-80.04],[-49.75,-79.73],[-50.03,-79.05],[-47.18,-78.66],[-43.06,-79.32],[-44.83,-79.92]]],[[[-87.07,41.42],[-85.49,42.3],[-85.67,42.9],[-88.3,42.8],[-88.73,41.57],[-87.07,41.42]]],[[[-69.75,-70.57],[-68.3,-71.03],[-68.51,-72.34],[-66.02,-72.36],[-67.58,-71.47],[-67.09,-70.38],[-68.52,-69.94],[-65.95,-69.29],[-67.33,-68.86],[-67.23,-67.57],[-66.24,-67.35],[-65.94,-68.86],[-62.72,-69.47],[-62.88,-71.01],[-61.23,-71.41],[-62.75,-71.88],[-60.9,-72.73],[-62.53,-73.2],[-61.85,-74.3],[-65.09,-75.88],[-71.2,-76.93],[-60.64,-75.16],[-59.05,-74.23],[-60.05,-72.7],[-58.53,-72.21],[-60.32,-71.82],[-60.23,-70.72],[-61.85,-70.32],[-60.57,-69.41],[-63.16,-68.82],[-61.85,-68.36],[-63.89,-68.4],[-64.29,-67.33],[-60.5,-66.79],[-60.43,-65.71],[-61.45,-65.11],[-58.98,-65.42],[-58.86,-64.77],[-56.54,-64.61],[-56.48,-63.96],[-54.25,-63.12],[-56.38,-62.67],[-61.72,-63.42],[-57.51,-61.7],[-62.62,-62.82],[-62.78,-63.88],[-64.45,-64.35],[-64.39,-65.62],[-65.88,-65.0],[-67.14,-66.28],[-69.05,-66.7],[-69.18,-67.55],[-67.92,-67.99],[-68.02,-68.86],[-71.06,-68.59],[-73.84,-69.58],[-71.85,-70.09],[-71.59,-69.23],[-70.49,-69.04],[-69.25,-69.93],[-72.13,-70.95],[-75.41,-70.6],[-75.37,-71.26],[-73.54,-71.56],[-69.75,-70.57]],[[-63.22,-65.16],[-62.31,-65.35],[-62.52,-66.0],[-66.23,-66.92],[-63.22,-65.16]]],[[[31.71,41.71],[30.26,41.43],[31.15,40.84],[34.15,41.98],[33.13,42.38],[31.71,41.71]]],[[[-82.28,53.04],[-81.48,52.05],[-80.3,52.28],[-80.64,51.3],[-79.26,51.11],[-78.4,52.41],[-79.57,54.27],[-78.42,55.16],[-80.46,55.03],[-79.85,53.52],[-81.24,52.79],[-80.99,53.54],[-82.05,53.79],[-82.28,53.04]]],[[[35.31,31.9],[35.76,31.7],[35.1,32.99],[35.92,34.32],[33.88,31.41],[35.31,31.9]]],[[[24.77,34.9],[27.18,35.59],[23.8,35.9],[23.26,35.39],[24.04,34.6],[24.77,34.9]]],[[[32.23,35.06],[32.91,34.22],[34.22,34.93],[34.02,35.57],[33.18,34.67],[33.11,35.54],[32.23,35.06]]],[[[-101.25,70.9],[-104.62,71.08],[-102.25,70.1],[-99.16,70.37],[-101.25,70.9]]],[[[-81.08,29.03],[-80.13,27.89],[-80.83,29.59],[-81.08,29.03]]],[[[155.58,-69.18],[156.04,-68.81],[153.89,-68.13],[155.58,-69.18]]],[[[-62.4,47.63],[-61.82,47.03],[-61.13,47.89],[-62.4,47.63]]],[[[9.04,40.74],[9.53,42.15],[8.82,41.77],[8.51,40.83],[9.04,40.74]]],[[[37.1,41.57],[35.43,42.4],[34.48,41.98],[36.16,41.16],[37.1,41.57]]],[[[-123.87,39.14],[-122.78,38.3],[-123.66,40.16],[-124.7,40.75],[-123.87,39.14]]],[[[116.32,74.77],[114.87,74.56],[115.29,73.45],[120.45,72.91],[127.65,73.68],[125.26,74.28],[120.61,73.35],[116.71,74.1],[116.32,74.77]]],[[[-68.58,-72.78],[-71.77,-73.38],[-67.79,-73.23],[-68.58,-72.78]]],[[[132.33,71.92],[130.56,71.39],[131.51,71.07],[132.33,71.92]]],[[[-53.41,-61.32],[-53.93,-60.74],[-56.11,-61.16],[-55.63,-61.75],[-53.41,-61.32]]],[[[20.12,-34.37],[18.61,-33.64],[17.82,-34.04],[19.37,-35.16],[20.45,-34.74],[20.12,-34.37]]],[[[-90.21,77.29],[-83.95,77.9],[-91.96,78.47],[-93.03,78.12],[-87.98,77.98],[-91.1,77.65],[-90.21,77.29]]],[[[-123.79,49.17],[-124.26,48.09],[-122.1,47.24],[-122.48,49.02],[-123.79,49.17]]],[[[-37.89,-54.29],[-36.14,-55.12],[-35.39,-54.67],[-37.13,-53.63],[-38.58,-54.04],[-37.89,-54.29]]],[[[-83.52,55.36],[-81.81,54.54],[-82.33,55.37],[-83.52,55.36]]],[[[-17.88,27.98],[-14.92,27.77],[-17.9,29.25],[-18.39,28.73],[-18.11,27.34],[-17.88,27.98]]],[[[70.64,-49.29],[71.07,-48.98],[68.91,-48.25],[68.19,-49.22],[68.74,-50.13],[70.73,-49.9],[70.64,-49.29]]],[[[-90.61,63.24],[-92.59,62.76],[-94.47,60.98],[-90.69,62.48],[-90.14,63.11],[-90.61,63.24]]],[[[32.1,36.36],[31.08,37.18],[30.19,36.7],[30.42,36.05],[30.81,36.73],[32.1,36.36]]],[[[14.26,42.3],[17.24,40.9],[16.39,40.32],[16.62,39.49],[17.25,40.25],[18.11,39.52],[18.86,39.85],[18.65,40.69],[16.24,42.02],[14.46,42.77],[14.26,42.3]]],[[[15.33,39.91],[15.97,40.03],[15.09,40.74],[14.23,40.79],[15.33,39.91]]],[[[-16.65,32.96],[-17.7,32.69],[-16.65,32.19],[-15.87,33.34],[-16.65,32.96]]],[[[23.43,-34.4],[24.4,-34.14],[22.63,-33.86],[23.43,-34.4]]],[[[-98.08,68.02],[-98.88,69.13],[-97.76,69.66],[-95.89,69.58],[-96.47,69.19],[-95.81,68.58],[-97.56,68.41],[-96.29,67.44],[-93.43,68.6],[-94.03,69.23],[-93.41,69.61],[-96.61,70.44],[-100.07,69.08],[-100.93,69.92],[-102.72,69.7],[-101.98,69.36],[-102.44,68.96],[-106.94,69.53],[-112.22,68.48],[-108.8,67.71],[-107.66,68.71],[-104.43,68.08],[-100.01,68.83],[-99.39,68.73],[-99.82,68.08],[-102.52,67.57],[-98.08,68.02]]],[[[-8.82,58.23],[-9.27,57.73],[-8.13,57.95],[-8.82,58.23]]],[[[-71.61,-72.94],[-71.18,-71.63],[-76.11,-71.89],[-71.61,-72.94]]],[[[2.92,39.26],[4.47,40.17],[2.58,40.03],[2.19,39.47],[2.92,39.26]]],[[[-96.33,73.77],[-94.82,74.04],[-98.76,74.32],[-96.33,73.77]]],[[[160.48,-69.61],[159.43,-69.65],[161.46,-70.62],[163.62,-70.49],[160.48,-69.61]]],[[[-80.71,58.73],[-81.28,58.4],[-80.44,58.31],[-80.71,58.73]]],[[[1.57,39.06],[1.68,39.53],[1.07,39.11],[1.41,38.35],[1.57,39.06]]],[[[21.66,-34.11],[20.85,-34.54],[22.17,-34.67],[21.66,-34.11]]],[[[135.48,74.19],[134.76,74.03],[135.78,73.68],[137.1,74.26],[135.48,74.19]]],[[[-12.35,-36.99],[-12.98,-37.58],[-12.13,-37.47],[-12.35,-36.99]]],[[[53.98,61.44],[54.33,61.0],[54.8,61.6],[53.98,61.44]]],[[[50.31,65.81],[49.42,65.63],[50.42,65.22],[52.96,65.36],[50.31,65.81]]],[[[37.9,41.35],[37.44,41.15],[38.09,40.72],[39.02,41.12],[37.9,41.35]]],[[[-26.12,-58.22],[-27.24,-58.64],[-25.98,-58.69],[-26.12,-58.22]]],[[[-82.86,80.33],[-81.22,80.64],[-83.76,80.7],[-82.86,80.33]]],[[[-26.98,39.21],[-27.89,39.52],[-29.13,38.24],[-27.14,38.29],[-26.98,39.21]]],[[[-93.19,75.5],[-98.45,76.14],[-97.49,75.8],[-98.19,75.18],[-93.26,74.05],[-92.45,74.42],[-93.23,74.78],[-91.49,75.51],[-93.19,75.5]],[[-94.89,75.49],[-94.04,75.14],[-94.85,74.77],[-96.58,75.46],[-94.89,75.49]]],[[[-104.16,71.49],[-103.68,71.89],[-105.0,71.81],[-104.16,71.49]]],[[[-13.69,28.4],[-13.17,29.14],[-13.65,29.65],[-14.67,28.4],[-13.69,28.4]]],[[[-72.32,-79.12],[-73.13,-79.33],[-72.6,-79.56],[-67.1,-80.08],[-66.42,-80.75],[-57.01,-80.66],[-57.96,-80.46],[-57.74,-79.78],[-60.8,-79.39],[-64.16,-80.09],[-66.97,-79.2],[-66.28,-78.98],[-66.87,-78.32],[-70.79,-78.71],[-69.06,-79.4],[-72.32,-79.12]]],[[[130.52,-66.03],[129.1,-66.35],[129.02,-67.01],[130.03,-67.16],[130.52,-66.03]]],[[[134.45,75.71],[136.54,75.28],[138.04,75.85],[134.45,75.71]]],[[[134.42,-65.92],[131.5,-66.18],[133.88,-66.63],[134.42,-65.92]]],[[[-81.17,59.83],[-80.61,58.98],[-79.43,59.64],[-80.08,60.24],[-81.17,59.83]]],[[[-89.81,65.4],[-88.15,65.74],[-89.73,65.91],[-90.29,65.79],[-89.81,65.4]]],[[[52.05,-46.16],[51.78,-46.76],[52.49,-46.5],[52.05,-46.16]]],[[[146.74,-67.54],[146.13,-67.88],[146.57,-68.26],[147.63,-68.3],[146.74,-67.54]]],[[[29.49,35.99],[29.74,36.45],[28.93,36.61],[29.49,35.99]]],[[[16.32,38.78],[16.02,38.06],[16.85,38.65],[16.32,38.78]]],[[[38.15,-47.17],[37.97,-46.58],[37.15,-47.02],[38.15,-47.17]]],[[[-75.75,-79.92],[-74.84,-79.72],[-75.33,-79.49],[-77.59,-79.63],[-75.75,-79.92]]],[[[-34.67,-54.67],[-35.04,-55.01],[-34.3,-55.01],[-34.67,-54.67]]],[[[-104.72,73.81],[-105.23,73.41],[-103.79,73.49],[-104.72,73.81]]],[[[30.96,-69.46],[31.45,-69.11],[30.31,-69.12],[30.96,-69.46]]],[[[163.36,-75.97],[163.81,-75.58],[162.38,-75.67],[163.36,-75.97]]]]}}]}