{"type":"FeatureCollection","features":[{"type":"Feature","properties":{},"geometry":{"type":"MultiPolygon","coordinates":[[[[18.08,-32.67],[17.68,-32.88],[17.82,-34.04],[19.15,-34.59],[19.37,-35.16],[20.57,-34.55],[22.17,-34.67],[22.23,-34.08],[24.46,-34.53],[25.27,-34.08],[26.88,-34.14],[28.87,-32.95],[28.91,-32.35],[30.37,-31.57],[30.41,-30.95],[31.08,-30.66],[31.42,-29.38],[32.85,-28.55],[32.7,-27.73],[33.18,-27.23],[32.93,-26.63],[33.34,-25.71],[34.08,-25.17],[34.8,-25.27],[35.54,-24.71],[35.93,-23.78],[35.6,-22.74],[36.05,-22.23],[35.9,-21.37],[35.29,-21.04],[35.23,-19.94],[37.28,-18.47],[37.29,-17.8],[39.11,-17.47],[40.48,-16.32],[40.48,-15.65],[41.16,-15.08],[40.66,-13.17],[41.08,-12.65],[40.75,-11.6],[41.09,-10.65],[40.02,-9.72],[39.78,-8.43],[40.2,-7.92],[39.47,-6.72],[40.13,-5.51],[39.82,-4.47],[40.39,-2.87],[42.22,-1.53],[42.22,-0.89],[43.68,0.16],[43.68,0.78],[44.89,1.76],[45.49,1.64],[47.53,3.31],[47.52,3.9],[48.58,4.61],[48.56,5.19],[49.05,5.44],[49.88,7.96],[51.06,9.15],[50.96,10.04],[51.59,10.43],[51.23,10.77],[51.36,12.22],[50.42,11.99],[51.09,11.48],[50.62,10.73],[50.09,11.79],[49.44,11.38],[47.0,11.41],[47.17,10.68],[46.01,11.15],[44.34,10.46],[44.24,11.02],[43.69,11.16],[43.71,12.32],[44.62,12.38],[46.11,13.44],[45.79,13.61],[44.4,12.75],[44.43,13.53],[44.99,13.37],[45.8,14.0],[46.36,13.84],[47.85,14.87],[49.45,14.36],[50.46,14.97],[50.16,15.15],[49.48,14.74],[49.76,15.52],[48.2,15.08],[47.56,15.44],[46.72,14.43],[45.5,14.96],[45.41,15.54],[44.73,15.91],[45.57,16.54],[44.54,17.1],[44.09,17.89],[44.12,19.11],[43.15,19.08],[41.94,21.11],[41.31,20.88],[40.81,21.7],[40.04,21.25],[40.81,20.86],[40.81,20.44],[39.79,20.81],[39.76,23.36],[40.93,24.04],[41.58,23.84],[42.49,24.49],[43.13,24.29],[43.28,25.35],[45.82,25.33],[46.3,24.91],[47.29,24.89],[47.37,24.27],[48.08,23.85],[47.94,21.81],[49.84,20.79],[49.91,20.19],[51.18,19.4],[51.75,19.59],[52.75,18.8],[53.3,18.99],[53.97,18.4],[54.51,18.58],[54.88,18.2],[55.91,18.17],[55.38,17.95],[54.94,17.08],[54.46,17.27],[51.88,16.51],[52.14,15.95],[50.8,15.16],[50.98,14.79],[53.47,16.71],[53.96,16.53],[56.65,17.3],[56.73,17.62],[56.06,17.79],[56.96,18.08],[57.12,18.73],[57.89,18.88],[58.23,20.22],[58.77,19.9],[59.43,20.46],[59.05,20.92],[59.62,21.14],[59.95,22.75],[58.35,24.1],[57.52,23.92],[56.94,24.25],[56.54,25.89],[61.34,24.71],[63.28,25.18],[62.96,25.47],[61.89,25.16],[60.55,25.71],[59.93,25.47],[59.02,26.09],[58.15,25.9],[57.14,26.73],[57.15,27.32],[55.59,27.07],[53.67,28.26],[52.99,28.19],[52.6,29.05],[51.49,28.86],[51.44,29.46],[49.75,30.93],[49.35,32.18],[48.58,32.69],[47.11,32.6],[46.33,33.06],[45.83,33.93],[46.04,35.38],[45.22,35.85],[45.11,36.48],[44.39,36.31],[44.27,36.95],[43.54,36.78],[42.24,37.46],[42.1,38.1],[41.65,38.33],[39.54,38.39],[38.04,37.56],[35.41,37.76],[34.51,37.32],[34.54,36.89],[33.96,36.44],[32.72,36.39],[31.26,36.97],[31.21,37.41],[30.72,37.6],[30.27,37.35],[30.19,36.7],[29.43,36.43],[28.63,37.68],[29.58,37.75],[29.66,38.4],[28.64,38.77],[28.39,39.4],[28.98,39.87],[28.92,40.29],[30.28,39.94],[30.36,40.59],[33.07,41.33],[33.17,41.96],[34.51,41.56],[34.72,40.94],[35.51,41.15],[35.25,40.31],[36.18,40.74],[36.99,40.53],[37.6,40.94],[38.4,40.72],[39.02,41.12],[38.07,41.14],[36.43,41.99],[35.64,41.78],[35.43,42.4],[34.15,41.98],[33.13,42.38],[31.1,41.26],[29.79,41.2],[28.74,41.56],[28.48,42.18],[27.95,42.35],[28.02,42.99],[28.97,43.46],[28.71,44.07],[29.67,44.53],[29.75,45.15],[30.64,44.99],[30.59,45.39],[30.04,45.57],[31.18,46.22],[32.07,46.04],[32.16,45.24],[32.7,45.05],[32.93,44.44],[33.98,44.04],[36.76,45.05],[37.78,44.63],[37.96,44.02],[38.78,44.2],[38.96,43.58],[41.21,42.68],[41.21,41.46],[39.33,41.11],[40.28,40.67],[42.14,41.41],[42.3,42.01],[43.06,41.77],[43.69,42.15],[43.08,42.6],[41.84,42.65],[41.68,43.26],[40.41,43.33],[40.24,43.94],[39.76,44.16],[40.24,44.34],[41.21,43.9],[41.36,44.51],[41.83,44.71],[41.66,45.34],[42.15,45.54],[42.31,44.91],[43.27,44.88],[42.63,44.49],[43.1,44.26],[43.25,43.63],[44.65,42.94],[46.91,43.22],[47.83,42.73],[48.34,41.41],[49.1,41.12],[49.05,40.7],[48.24,40.57],[45.86,42.03],[45.07,41.87],[44.16,42.34],[44.58,41.27],[46.67,40.29],[46.7,38.83],[47.94,39.12],[48.75,38.2],[49.2,36.9],[50.84,36.89],[52.66,36.0],[53.43,36.09],[53.7,36.69],[55.48,37.03],[55.78,37.63],[56.28,37.76],[56.28,38.41],[57.01,38.72],[58.23,37.84],[59.06,37.9],[59.94,37.05],[61.15,36.79],[61.9,37.07],[62.18,37.9],[63.26,38.1],[61.6,39.61],[60.74,39.56],[59.09,40.79],[59.12,41.45],[57.83,42.35],[55.95,42.43],[55.85,42.01],[56.72,41.43],[54.67,41.3],[54.11,41.82],[54.3,42.67],[55.06,43.01],[54.95,43.24],[53.24,44.13],[53.15,43.7],[54.06,43.14],[53.52,43.0],[52.02,44.05],[53.12,44.36],[53.2,44.79],[49.5,46.68],[49.41,47.33],[48.91,47.59],[47.39,48.32],[46.49,48.15],[46.37,48.8],[45.85,49.03],[44.4,48.65],[44.2,48.02],[42.83,48.46],[41.64,47.84],[40.79,48.05],[40.13,47.63],[37.8,48.0],[37.65,47.42],[36.8,47.24],[36.78,47.64],[37.29,47.82],[36.57,48.23],[36.74,48.42],[36.01,48.82],[35.98,49.21],[35.07,49.41],[34.84,49.99],[33.92,50.19],[33.68,50.76],[33.1,50.94],[33.22,51.51],[32.43,51.88],[30.46,51.28],[30.51,50.91],[29.38,49.91],[29.44,49.53],[30.23,49.17],[30.14,48.58],[27.18,47.84],[27.11,48.24],[26.53,48.4],[26.47,47.8],[27.26,47.45],[26.62,47.01],[26.92,45.4],[22.42,45.0],[22.23,45.8],[24.76,45.64],[25.37,46.1],[24.41,47.24],[23.16,47.93],[23.2,48.53],[21.68,49.37],[23.27,49.72],[23.6,49.16],[24.78,48.86],[25.28,49.1],[24.46,49.43],[25.53,50.48],[23.72,50.92],[23.43,52.04],[22.57,52.34],[22.6,52.91],[20.98,53.68],[23.25,54.79],[21.7,55.2],[21.11,56.92],[20.56,56.7],[21.07,55.86],[20.53,55.63],[20.51,55.09],[19.46,55.16],[19.45,54.62],[18.02,55.18],[14.94,54.22],[13.87,54.78],[12.35,54.53],[12.19,54.87],[12.68,55.14],[14.22,55.38],[14.64,54.9],[15.68,54.87],[15.65,55.41],[14.84,55.83],[15.9,55.8],[16.94,56.3],[16.93,56.82],[17.46,57.06],[17.03,58.05],[16.34,58.14],[16.64,57.48],[15.98,57.05],[16.25,56.91],[15.73,56.67],[15.75,56.14],[14.02,56.25],[14.18,55.91],[13.67,55.66],[12.53,57.94],[11.56,58.13],[10.65,59.67],[10.25,59.61],[10.32,59.12],[9.23,59.09],[7.74,58.3],[6.41,58.42],[5.77,59.3],[4.75,59.41],[5.05,58.51],[6.31,58.23],[6.78,57.76],[9.0,58.03],[9.81,58.86],[10.8,58.69],[11.16,58.06],[7.84,57.1],[8.02,56.79],[7.46,56.31],[7.93,55.87],[7.37,55.39],[8.29,55.23],[7.83,54.95],[7.92,54.41],[7.02,53.84],[4.98,53.55],[4.15,53.01],[4.25,52.42],[1.96,51.06],[1.51,51.61],[2.17,52.73],[1.98,53.11],[0.49,53.49],[0.13,54.45],[-0.79,54.72],[-1.43,56.03],[-2.4,56.29],[-1.55,56.81],[-1.74,57.38],[-1.3,57.64],[-3.0,58.0],[-2.5,58.46],[-2.76,58.81],[-1.87,59.32],[-3.31,59.52],[-3.75,59.26],[-3.53,58.71],[-6.51,58.64],[-7.78,57.81],[-7.48,57.46],[-7.93,56.96],[-6.76,55.52],[-8.5,55.59],[-9.29,54.99],[-9.02,54.41],[-10.75,54.44],[-10.44,54.08],[-10.84,53.54],[-10.21,53.03],[-10.97,52.17],[-10.38,51.43],[-8.77,51.18],[-8.03,51.81],[-6.03,52.05],[-5.48,53.25],[-6.01,53.99],[-5.26,54.35],[-4.7,53.83],[-5.09,53.54],[-5.01,52.28],[-5.77,51.68],[-4.85,51.45],[-4.64,50.84],[-5.6,50.85],[-6.74,49.69],[-3.56,50.0],[-2.81,50.59],[-1.34,50.25],[0.93,50.68],[1.12,50.3],[-0.16,50.06],[0.04,49.67],[-0.33,49.39],[-1.39,50.03],[-2.31,50.05],[-3.47,48.93],[-5.35,48.7],[-4.91,47.7],[-3.74,47.55],[-1.91,46.45],[-1.3,45.28],[-1.65,44.97],[-1.65,43.64],[-3.82,43.95],[-4.46,43.54],[-8.1,44.05],[-9.63,43.32],[-8.88,42.14],[-9.22,41.55],[-8.72,41.01],[-9.34,40.31],[-9.13,39.67],[-9.96,39.61],[-9.01,38.04],[-9.33,37.43],[-8.85,36.9],[-6.77,36.74],[-6.18,35.32],[-7.35,33.91],[-8.9,33.51],[-10.03,32.07],[-9.94,29.94],[-10.48,29.21],[-11.21,29.11],[-11.49,28.49],[-12.46,28.51],[-13.45,28.02],[-13.71,27.65],[-13.49,27.02],[-14.21,26.9],[-15.2,25.4],[-14.97,24.78],[-15.68,24.65],[-17.32,22.03],[-17.08,21.43],[-17.54,20.69],[-16.62,20.24],[-16.85,19.64],[-16.17,18.83],[-16.18,17.89],[-16.62,17.41],[-16.61,15.79],[-17.68,14.72],[-16.82,13.64],[-17.02,12.41],[-16.4,11.68],[-16.4,10.82],[-15.58,10.87],[-14.78,10.48],[-14.59,9.97],[-13.99,9.89],[-14.21,9.36],[-13.61,9.29],[-12.91,7.3],[-11.78,6.97],[-10.9,5.95],[-9.81,5.63],[-9.5,4.9],[-7.79,4.08],[-5.22,5.13],[-4.92,4.78],[-4.0,5.16],[-2.83,4.68],[-2.43,4.94],[-2.15,4.46],[-0.61,4.95],[-0.35,5.36],[0.2,5.29],[0.47,5.71],[1.02,5.64],[1.3,6.06],[3.7,6.35],[4.98,5.83],[5.81,3.92],[8.58,4.39],[8.44,2.85],[9.28,3.75],[9.78,2.67],[9.08,1.2],[9.27,-0.16],[8.6,-0.26],[8.54,-1.26],[9.78,-3.12],[11.1,-3.99],[12.01,-5.34],[11.96,-6.4],[13.3,-8.38],[12.5,-9.1],[13.45,-10.52],[13.58,-12.23],[12.85,-12.29],[12.77,-12.95],[12.07,-13.43],[12.27,-14.49],[11.48,-15.61],[11.7,-17.09],[11.24,-17.54],[13.05,-20.23],[12.97,-20.87],[14.39,-22.52],[13.91,-22.96],[14.46,-23.36],[14.01,-24.22],[14.57,-24.62],[14.64,-26.9],[15.2,-27.3],[15.28,-28.12],[15.97,-28.31],[16.59,-29.11],[17.03,-30.71],[18.1,-31.68],[18.08,-32.67]],[[39.2,11.36],[39.55,11.19],[39.44,10.6],[38.73,10.92],[39.2,11.36]],[[32.23,16.85],[31.68,17.22],[32.46,17.3],[32.35,18.57],[33.11,19.07],[33.72,17.84],[32.89,16.7],[32.23,16.85]],[[52.79,27.07],[54.52,25.75],[55.19,25.8],[55.2,25.22],[54.37,25.02],[54.11,25.65],[53.88,25.12],[54.14,24.5],[53.49,24.45],[52.88,25.33],[52.04,24.72],[51.75,26.31],[50.11,26.84],[50.08,27.87],[49.45,27.7],[48.74,28.15],[48.3,29.0],[48.87,29.79],[49.51,29.96],[49.94,29.11],[50.91,28.58],[50.96,27.99],[52.79,27.07]],[[35.86,13.65],[35.92,12.44],[35.21,11.97],[35.14,13.17],[33.8,14.69],[33.75,15.52],[32.95,15.86],[33.8,16.58],[35.24,16.08],[35.31,17.13],[34.77,17.51],[34.77,19.86],[34.22,20.24],[34.16,21.1],[34.55,21.35],[34.98,20.73],[35.08,21.39],[36.15,21.03],[36.52,21.7],[37.08,20.88],[37.02,18.96],[37.56,18.15],[38.58,17.8],[38.72,17.19],[37.86,16.5],[37.9,15.26],[36.9,15.6],[36.94,14.36],[36.48,13.51],[35.86,13.65]],[[11.79,42.02],[11.7,41.78],[12.47,41.52],[12.74,40.71],[14.67,40.44],[14.8,40.03],[15.55,39.73],[15.57,39.08],[14.32,38.84],[14.35,38.19],[13.52,38.24],[13.17,38.83],[11.98,37.92],[12.33,37.33],[14.19,37.05],[14.53,36.45],[15.35,36.39],[15.61,37.77],[16.45,37.7],[16.96,38.23],[16.85,38.65],[17.58,39.0],[17.58,39.65],[16.83,39.96],[17.25,40.25],[17.79,40.12],[18.11,39.52],[19.4,39.72],[19.5,39.3],[20.24,38.97],[20.34,38.54],[19.8,38.02],[20.53,37.69],[21.24,36.68],[22.07,36.57],[22.35,35.95],[23.18,35.83],[23.34,34.96],[24.04,34.6],[24.77,34.9],[25.77,34.57],[26.75,35.33],[27.55,35.18],[27.62,35.85],[28.42,35.69],[28.49,36.36],[30.29,35.83],[31.12,36.75],[32.1,36.36],[32.32,35.72],[33.24,35.76],[31.79,34.82],[32.91,34.22],[34.09,34.7],[34.19,35.36],[35.08,35.82],[34.6,36.02],[33.72,35.56],[33.68,35.99],[34.57,36.45],[35.35,36.26],[35.62,34.31],[35.18,34.08],[35.08,33.43],[34.35,33.18],[34.44,31.87],[33.88,31.41],[32.71,31.35],[31.61,31.94],[30.42,31.86],[29.16,31.1],[27.56,31.85],[25.46,31.63],[25.21,32.27],[24.23,32.61],[23.51,32.3],[23.24,32.93],[21.75,33.41],[19.83,32.23],[19.91,31.11],[18.83,30.48],[18.54,31.11],[15.79,31.75],[15.36,32.8],[11.5,33.34],[11.45,34.01],[10.74,34.29],[11.7,34.74],[11.1,36.17],[11.56,36.72],[11.21,37.3],[9.14,37.7],[8.11,37.0],[6.37,37.42],[5.73,37.02],[4.0,37.4],[2.56,36.73],[1.36,37.01],[0.29,36.65],[-0.07,36.09],[-1.6,35.81],[-2.2,35.15],[-3.09,35.75],[-3.66,35.32],[-4.65,35.42],[-5.04,36.2],[-3.97,36.59],[-2.26,36.26],[-1.33,37.25],[-0.58,37.26],[-0.21,37.82],[-0.38,38.21],[0.25,38.85],[-0.09,39.63],[1.23,40.9],[2.02,40.94],[2.42,41.49],[3.59,41.85],[3.25,42.6],[3.67,43.16],[6.35,42.85],[8.46,44.02],[10.12,43.78],[9.23,42.94],[8.37,42.94],[8.52,42.55],[8.05,42.01],[8.97,41.37],[8.05,41.14],[7.6,40.59],[8.35,40.35],[7.67,39.09],[8.56,38.44],[10.22,39.28],[9.86,39.85],[10.33,40.4],[9.76,41.99],[11.02,42.28],[11.79,42.02]],[[18.73,30.24],[19.99,29.31],[22.03,29.62],[21.37,30.65],[20.68,30.32],[20.0,30.67],[20.5,31.2],[20.32,32.08],[21.43,32.69],[22.12,32.34],[22.83,32.66],[23.1,32.02],[24.08,31.69],[24.79,32.0],[24.86,31.56],[25.53,31.19],[26.72,31.32],[26.79,30.87],[27.44,30.49],[26.62,29.96],[26.56,29.28],[25.69,29.18],[26.16,29.01],[26.4,28.36],[27.15,28.22],[27.85,27.39],[27.96,26.51],[29.76,25.79],[29.36,25.53],[28.3,26.1],[27.9,25.83],[29.41,25.09],[29.51,24.21],[28.61,23.45],[28.77,22.14],[29.41,21.33],[30.17,21.84],[30.6,21.67],[29.84,21.15],[29.06,19.53],[29.15,18.67],[29.73,18.3],[29.66,17.65],[30.23,17.28],[28.4,16.0],[28.44,14.52],[27.72,14.01],[27.06,14.13],[26.25,13.4],[25.59,13.52],[24.44,12.52],[23.03,12.53],[22.8,13.13],[22.2,12.83],[21.06,14.14],[21.42,15.05],[21.27,15.89],[20.68,16.23],[20.61,17.31],[19.75,17.61],[19.06,18.37],[17.67,17.92],[17.06,18.25],[16.46,17.92],[15.59,18.2],[14.84,17.4],[13.82,17.21],[11.06,18.18],[9.25,16.7],[7.81,17.24],[7.45,18.46],[4.62,18.85],[2.04,17.95],[0.77,19.1],[-0.52,18.93],[-0.8,19.71],[-1.6,19.89],[-1.93,20.43],[-3.76,20.54],[-5.11,21.4],[-5.45,22.11],[-7.72,21.01],[-8.3,21.84],[-8.21,22.79],[-7.52,23.13],[-8.17,23.27],[-8.55,24.0],[-8.27,24.59],[-8.66,25.33],[-8.14,26.04],[-8.8,26.43],[-8.09,26.53],[-8.0,27.5],[-7.27,27.83],[-7.96,27.99],[-8.47,27.52],[-8.89,28.03],[-8.6,28.64],[-7.61,29.08],[-8.26,29.74],[-7.71,30.45],[-6.98,30.53],[-7.16,31.16],[-6.42,31.23],[-6.82,32.01],[-6.5,32.6],[-6.71,32.99],[-5.73,32.91],[-6.31,32.22],[-6.11,31.83],[-5.57,32.28],[-4.61,32.2],[-5.25,32.87],[-4.51,32.93],[-3.92,33.61],[-4.07,34.25],[-3.11,34.14],[-2.25,34.91],[-1.55,34.7],[-0.99,35.12],[0.17,34.84],[0.74,35.26],[1.59,34.65],[2.17,35.06],[3.83,34.69],[4.93,35.01],[5.14,34.85],[4.74,34.29],[5.25,33.31],[4.86,32.75],[5.69,32.09],[6.3,32.49],[7.47,32.13],[8.58,32.41],[9.01,32.97],[9.78,32.94],[9.72,33.6],[10.01,33.67],[10.97,32.55],[11.96,32.32],[13.49,32.88],[14.48,32.63],[14.71,31.77],[15.2,31.64],[15.51,31.02],[16.68,31.24],[18.15,30.82],[18.44,30.19],[18.73,30.24]],[[38.98,6.68],[38.75,7.25],[39.3,8.08],[39.53,7.53],[38.98,6.68]],[[37.31,21.75],[36.46,22.99],[35.64,23.38],[36.57,23.65],[35.74,24.04],[34.7,25.51],[35.2,26.41],[34.21,26.58],[34.28,27.68],[35.43,27.3],[37.36,24.12],[38.44,23.74],[38.46,22.88],[38.99,22.48],[38.48,22.02],[39.01,21.62],[38.89,20.98],[39.42,20.16],[40.44,19.79],[41.31,17.96],[42.04,17.59],[41.19,16.93],[41.67,16.14],[42.39,16.18],[42.38,15.38],[41.9,14.95],[42.61,14.99],[42.59,13.8],[40.58,15.06],[40.94,15.69],[40.46,16.48],[39.48,16.41],[38.97,17.2],[39.08,17.83],[38.57,18.22],[38.93,18.87],[37.92,18.81],[37.4,19.19],[37.31,21.75]],[[16.91,41.49],[16.58,41.43],[16.24,42.02],[16.78,42.54],[18.76,42.21],[19.3,40.79],[18.86,40.51],[17.78,40.77],[17.45,41.36],[16.91,41.49]],[[11.57,56.92],[10.4,56.71],[11.01,57.17],[11.57,56.92]],[[13.33,45.08],[13.24,44.86],[15.42,43.58],[15.44,42.95],[16.0,42.83],[16.12,42.43],[14.59,42.37],[14.43,43.4],[12.95,44.17],[12.77,45.18],[13.33,45.08]],[[42.55,10.69],[40.95,10.55],[40.49,10.89],[40.6,12.27],[40.12,12.62],[40.24,13.23],[40.83,13.08],[40.95,12.49],[42.0,12.77],[40.83,13.87],[40.95,14.48],[43.03,12.26],[42.57,11.84],[43.02,11.49],[42.55,10.69]],[[28.7,15.61],[29.43,16.12],[29.61,14.45],[28.8,14.77],[28.7,15.61]],[[30.68,16.69],[30.6,17.53],[31.27,17.39],[31.57,15.51],[30.48,14.76],[30.35,16.01],[29.8,16.38],[30.68,16.69]],[[23.34,43.22],[24.99,42.75],[23.85,42.43],[24.94,42.11],[25.1,41.27],[23.78,41.14],[22.7,41.45],[22.4,42.05],[21.52,42.16],[21.5,41.52],[22.25,41.18],[21.36,40.64],[21.55,39.8],[21.11,39.52],[20.8,40.13],[20.27,40.28],[19.97,42.17],[18.32,42.57],[17.87,43.56],[17.09,43.23],[16.06,44.32],[15.17,44.38],[14.78,45.56],[13.97,45.83],[13.83,46.22],[11.1,46.29],[10.34,45.92],[9.38,46.53],[8.07,46.22],[7.26,45.61],[7.11,44.32],[5.85,44.83],[6.63,45.45],[6.54,46.05],[7.42,46.06],[7.34,46.66],[14.31,47.93],[15.73,47.57],[15.17,47.07],[15.43,46.29],[14.41,46.11],[15.22,45.85],[15.48,45.06],[19.78,44.26],[20.11,43.67],[21.01,43.58],[21.11,43.17],[21.87,42.84],[22.33,43.11],[22.24,43.52],[23.34,43.22]],[[25.48,39.15],[25.56,38.73],[24.51,39.06],[25.48,39.15]],[[29.28,-29.44],[28.72,-29.5],[28.76,-28.87],[29.28,-29.44]],[[25.63,35.44],[23.8,35.9],[23.64,36.77],[24.97,36.48],[25.24,35.84],[25.99,36.14],[26.18,35.94],[25.63,35.44]],[[35.72,45.47],[35.2,45.67],[35.32,46.27],[36.32,46.66],[37.87,46.43],[37.72,45.84],[36.37,45.86],[35.72,45.47]],[[22.86,46.89],[23.66,46.56],[22.61,46.46],[22.51,46.85],[22.86,46.89]],[[43.41,14.05],[43.43,14.84],[42.96,15.21],[43.12,17.03],[42.4,17.4],[42.29,18.01],[41.68,18.19],[41.68,19.01],[40.94,20.23],[41.93,19.86],[41.93,19.03],[43.48,17.25],[43.45,16.04],[44.49,15.5],[44.13,15.28],[43.44,15.64],[43.78,15.06],[43.74,13.48],[43.28,13.45],[43.41,14.05]],[[8.6,34.22],[7.61,34.41],[7.46,34.82],[9.24,34.6],[9.38,34.19],[8.6,34.22]],[[49.14,10.27],[48.78,10.97],[49.11,11.18],[50.35,10.0],[50.08,9.8],[49.14,10.27]],[[32.53,21.4],[33.01,20.36],[32.37,20.08],[31.91,19.18],[31.23,19.33],[31.19,19.76],[31.95,20.26],[31.38,20.65],[31.45,21.31],[32.14,21.15],[32.22,21.81],[32.53,21.4]],[[-8.81,29.02],[-9.08,28.66],[-9.78,28.81],[-8.77,29.51],[-8.81,29.02]],[[25.9,37.67],[24.87,38.0],[24.79,38.43],[26.15,38.13],[26.34,37.93],[25.9,37.67]],[[39.11,9.6],[39.57,9.65],[38.89,9.19],[39.11,9.6]],[[-4.59,34.05],[-4.4,33.66],[-5.38,33.75],[-4.59,34.05]],[[21.31,49.33],[19.85,48.56],[19.02,48.85],[18.9,49.24],[19.87,49.75],[21.31,49.33]],[[45.54,10.37],[46.21,10.79],[46.94,10.29],[46.61,10.08],[45.98,10.4],[45.31,9.98],[45.54,10.37]],[[38.74,16.36],[38.98,16.79],[39.11,16.18],[38.75,15.95],[38.74,16.36]],[[12.02,56.46],[11.85,56.79],[12.52,56.72],[12.02,56.46]],[[-4.04,53.74],[-4.3,54.11],[-3.65,54.03],[-3.45,53.44],[-4.04,53.74]],[[39.55,37.54],[39.55,37.97],[39.85,37.96],[40.0,37.75],[39.55,37.54]],[[43.89,10.42],[43.66,10.02],[42.89,10.52],[43.23,10.74],[43.89,10.42]],[[21.82,38.52],[21.73,38.95],[22.05,38.99],[22.26,38.8],[21.82,38.52]],[[39.07,11.94],[39.54,11.98],[38.84,11.52],[39.07,11.94]]],[[[72.95,6.27],[72.95,4.86],[73.71,5.53],[73.14,6.38],[73.34,6.97],[72.57,6.99],[72.95,6.27]]],[[[44.07,-16.04],[44.16,-17.12],[43.5,-17.7],[44.11,-19.98],[42.86,-22.21],[43.03,-23.03],[43.63,-23.33],[43.21,-23.85],[43.38,-24.67],[44.08,-25.36],[44.76,-25.41],[45.02,-25.97],[46.79,-25.54],[47.44,-24.95],[47.43,-24.32],[48.07,-23.74],[47.81,-23.17],[48.99,-19.46],[49.53,-19.11],[49.81,-18.18],[49.63,-17.37],[50.73,-15.81],[50.0,-12.55],[49.37,-11.84],[48.45,-12.04],[48.47,-12.68],[47.63,-13.3],[47.43,-14.65],[46.49,-15.51],[44.07,-16.04]]],[[[53.14,11.94],[53.73,11.97],[54.4,12.71],[53.85,13.04],[53.34,12.85],[52.86,12.11],[53.14,11.94]]],[[[45.56,-12.87],[44.59,-11.75],[44.03,-12.08],[43.13,-11.38],[43.38,-12.65],[44.35,-12.46],[45.01,-13.21],[45.56,-12.87]]],[[[3.44,40.3],[2.24,39.71],[2.35,39.09],[3.08,38.88],[3.77,39.52],[4.57,39.54],[4.47,40.17],[3.44,40.3]]],[[[48.78,13.96],[49.02,14.35],[48.15,14.31],[47.0,13.49],[47.32,13.31],[48.78,13.96]]],[[[-17.62,27.61],[-17.88,27.98],[-17.63,28.11],[-17.13,27.62],[-16.15,28.14],[-15.66,27.64],[-14.19,27.65],[-13.17,29.14],[-13.9,29.53],[-14.92,28.02],[-16.14,28.9],[-17.14,28.38],[-17.9,29.25],[-18.39,28.73],[-18.13,28.35],[-18.37,27.72],[-17.86,27.22],[-17.62,27.61]]],[[[1.68,38.44],[2.07,39.0],[1.68,39.53],[1.02,38.87],[1.68,38.44]]],[[[47.47,-9.65],[47.32,-10.11],[47.94,-10.2],[47.77,-9.37],[47.47,-9.65]]],[[[73.95,15.19],[74.34,14.25],[74.74,14.5],[73.36,16.71],[73.16,16.35],[73.95,15.19]]],[[[46.68,-9.37],[46.37,-9.0],[45.98,-9.51],[46.54,-9.84],[46.68,-9.37]]],[[[-22.94,15.77],[-22.5,15.8],[-22.32,16.4],[-23.04,17.17],[-22.94,15.77]]],[[[57.22,-20.2],[56.91,-20.52],[57.54,-20.79],[58.16,-20.15],[57.84,-19.57],[57.22,-20.2]]],[[[37.45,17.51],[37.19,17.91],[37.22,17.08],[37.45,17.51]]],[[[73.7,0.61],[73.32,1.1],[72.73,0.35],[73.29,-0.04],[72.8,-0.62],[72.96,-0.97],[73.58,-0.94],[73.7,0.61]]],[[[-28.26,38.19],[-27.14,38.29],[-26.91,38.7],[-28.12,39.11],[-28.6,38.55],[-28.26,38.19]]],[[[-25.41,38.17],[-26.24,37.98],[-25.27,36.89],[-25.0,37.03],[-25.35,37.66],[-25.12,38.06],[-25.41,38.17]]],[[[52.09,12.43],[52.06,12.07],[52.54,11.91],[52.58,12.28],[52.09,12.43]]],[[[53.67,-6.07],[53.95,-5.77],[53.14,-5.14],[53.17,-5.76],[53.67,-6.07]]],[[[72.76,2.88],[72.57,2.54],[73.13,1.69],[73.89,2.11],[73.9,3.05],[73.14,3.56],[73.71,4.12],[72.95,4.62],[72.39,3.83],[72.76,2.88]]],[[[-23.59,15.61],[-24.88,15.28],[-25.07,14.91],[-24.59,14.49],[-23.29,14.59],[-22.91,15.31],[-23.59,15.61]]],[[[115.41,-31.31],[115.75,-31.85],[115.57,-32.34],[115.95,-32.55],[116.16,-31.72],[115.41,-31.31]]],[[[5.37,-1.1],[5.38,-1.49],[5.92,-1.61],[5.91,-1.22],[5.37,-1.1]]],[[[-1.29,59.96],[-1.55,60.31],[-2.01,60.07],[-1.29,59.96]]],[[[55.98,-21.47],[55.92,-20.81],[55.06,-20.62],[55.41,-21.85],[55.98,-21.47]]],[[[-16.13,32.71],[-15.87,33.34],[-16.13,33.47],[-16.65,32.96],[-17.7,32.95],[-16.65,32.19],[-16.13,32.71]]],[[[72.72,-7.45],[72.13,-7.02],[72.46,-7.77],[72.72,-7.45]]],[[[-24.53,16.23],[-23.87,16.4],[-24.14,16.97],[-25.08,17.36],[-25.73,17.19],[-25.45,16.63],[-24.53,16.23]]],[[[34.75,40.52],[33.79,40.5],[33.68,39.86],[34.18,39.66],[34.29,40.3],[34.75,40.52]]],[[[32.26,39.61],[32.22,40.03],[31.71,40.22],[31.25,39.99],[31.76,39.8],[31.98,39.17],[32.44,39.4],[32.26,39.61]]],[[[-122.81,48.3],[-122.4,48.82],[-122.81,49.06],[-123.79,48.41],[-122.57,47.69],[-122.41,48.06],[-122.81,48.3]]],[[[6.94,0.1],[6.59,0.63],[6.19,-0.21],[6.52,-0.35],[6.94,0.1]]],[[[55.49,-3.66],[55.06,-3.81],[55.54,-4.22],[54.89,-4.46],[55.53,-5.01],[56.08,-4.42],[55.87,-3.71],[55.49,-3.66]]],[[[52.51,35.18],[51.24,35.58],[50.55,34.85],[50.95,34.59],[52.51,35.18]]],[[[12.33,35.77],[12.46,35.35],[13.23,35.96],[12.33,35.77]]],[[[75.13,12.82],[74.94,13.42],[74.54,13.41],[74.73,12.82],[75.13,12.82]]],[[[75.72,11.01],[76.12,11.24],[75.53,12.09],[75.32,11.73],[75.72,11.01]]],[[[71.61,-6.13],[71.45,-5.76],[70.96,-6.16],[71.28,-6.91],[71.61,-6.13]]],[[[44.39,40.25],[43.93,40.07],[44.81,39.6],[44.83,40.01],[44.39,40.25]]],[[[17.15,58.74],[16.6,58.51],[17.3,58.42],[17.15,58.74]]],[[[14.44,36.21],[14.13,36.15],[14.25,35.73],[14.65,36.03],[14.44,36.21]]],[[[76.5,9.05],[76.7,9.41],[76.31,9.91],[76.1,9.55],[76.5,9.05]]],[[[50.83,-10.44],[51.2,-10.57],[51.55,-10.07],[51.18,-9.94],[50.83,-10.44]]],[[[-5.81,24.61],[-5.17,24.46],[-4.9,24.8],[-5.55,24.96],[-5.81,24.61]]],[[[72.13,-5.49],[72.58,-5.32],[71.74,-5.21],[72.13,-5.49]]],[[[12.37,36.67],[12.25,37.09],[11.94,37.02],[11.86,36.78],[12.37,36.67]]],[[[18.14,56.97],[19.23,57.43],[17.86,57.63],[18.14,56.97]]],[[[50.72,-9.4],[50.8,-9.81],[51.37,-9.26],[50.63,-9.0],[50.72,-9.4]]],[[[7.08,1.67],[7.53,1.35],[7.85,1.59],[7.4,1.91],[7.08,1.67]]],[[[69.77,21.82],[69.62,21.47],[70.16,20.9],[70.59,20.95],[69.77,21.82]]],[[[33.02,38.35],[33.96,38.38],[33.3,38.79],[32.98,38.78],[33.02,38.35]]]]}}]}