{"type":"FeatureCollection","features":[{"type":"Feature","properties":{},"geometry":{"type":"MultiPolygon","coordinates":[[[[9.31,43.17],[9.23,42.94],[8.91,42.86],[8.83,42.63],[8.52,42.55],[8.44,42.32],[8.13,42.24],[8.05,42.01],[8.28,41.85],[8.21,41.61],[8.43,41.46],[8.74,41.53],[8.97,41.37],[8.89,41.14],[8.58,41.06],[8.36,41.22],[8.05,41.14],[7.97,40.91],[8.2,40.75],[8.12,40.51],[8.35,40.35],[8.27,40.12],[8.5,39.95],[8.42,39.72],[8.65,39.55],[8.57,39.32],[8.27,39.24],[8.19,39.0],[8.42,38.84],[8.71,38.91],[8.79,39.15],[9.09,39.23],[9.31,39.06],[9.62,39.14],[9.7,39.37],[10.0,39.45],[10.08,39.68],[9.86,39.85],[9.94,40.09],[9.72,40.25],[9.8,40.49],[10.11,40.56],[10.19,40.8],[9.96,40.96],[10.05,41.2],[9.82,41.36],[9.51,41.29],[9.28,41.45],[9.36,41.68],[9.67,41.76],[9.76,41.99],[9.53,42.15],[9.61,42.38],[9.92,42.46],[10.15,42.3],[10.47,42.37],[10.7,42.21],[11.02,42.28],[11.24,42.11],[11.56,42.18],[11.79,42.02],[11.7,41.78],[11.93,41.62],[12.25,41.68],[12.47,41.52],[12.38,41.28],[12.61,41.11],[12.52,40.88],[12.74,40.71],[13.05,40.77],[13.28,40.6],[13.59,40.67],[13.82,40.49],[14.13,40.55],[14.36,40.38],[14.67,40.44],[14.89,40.27],[14.8,40.03],[15.02,39.85],[15.33,39.91],[15.55,39.73],[15.45,39.5],[15.67,39.32],[15.57,39.08],[15.79,38.9],[15.69,38.66],[15.38,38.61],[15.16,38.79],[14.85,38.73],[14.75,38.49],[14.44,38.43],[14.35,38.19],[14.04,38.13],[13.82,38.31],[13.52,38.24],[13.3,38.42],[12.99,38.35],[12.9,38.12],[12.59,38.05],[12.38,38.22],[12.07,38.16],[11.98,37.92],[12.2,37.74],[12.51,37.81],[12.72,37.64],[12.64,37.4],[12.85,37.22],[13.15,37.28],[13.37,37.11],[13.67,37.17],[13.89,36.99],[14.19,37.05],[14.41,36.87],[14.32,36.63],[14.53,36.45],[14.83,36.51],[14.93,36.75],[15.23,36.81],[15.33,37.05],[15.11,37.23],[15.21,37.47],[15.52,37.53],[15.61,37.77],[15.93,37.83],[16.14,37.64],[16.45,37.7],[16.55,37.94],[16.34,38.12],[16.44,38.36],[16.75,38.41],[16.85,38.65],[17.17,38.71],[17.27,38.94],[17.58,39.0],[17.69,39.23],[17.47,39.41],[17.58,39.65],[17.36,39.83],[17.04,39.78],[16.83,39.96],[16.93,40.19],[17.25,40.25],[17.47,40.07],[17.79,40.12],[18.0,39.94],[17.9,39.7],[18.11,39.52],[18.43,39.57],[18.54,39.8],[18.86,39.85],[19.07,39.67],[19.4,39.72],[19.61,39.53],[19.5,39.3],[19.71,39.11],[20.03,39.15],[20.24,38.97],[20.13,38.73],[20.34,38.54],[20.23,38.31],[19.91,38.26],[19.8,38.02],[20.01,37.84],[20.33,37.88],[20.53,37.69],[20.42,37.45],[20.63,37.26],[20.94,37.31],[21.15,37.11],[21.04,36.88],[21.24,36.68],[21.55,36.73],[21.75,36.53],[22.07,36.57],[22.27,36.38],[22.16,36.14],[22.35,35.95],[22.67,35.99],[22.86,35.79],[23.18,35.83],[23.37,35.63],[23.26,35.39],[23.45,35.2],[23.34,34.96],[23.53,34.76],[23.84,34.8],[24.04,34.6],[24.34,34.63],[24.46,34.87],[24.77,34.9],[24.96,34.7],[25.27,34.74],[25.46,34.53],[25.77,34.57],[25.89,34.8],[26.2,34.83],[26.32,35.07],[26.63,35.09],[26.75,35.33],[27.06,35.36],[27.24,35.15],[27.55,35.18],[27.68,35.41],[27.49,35.62],[27.62,35.85],[27.93,35.87],[28.11,35.67],[28.42,35.69],[28.55,35.92],[28.37,36.13],[28.49,36.36],[28.81,36.38],[28.99,36.18],[29.3,36.2],[29.49,35.99],[29.8,36.01],[29.98,35.81],[30.29,35.83],[30.42,36.05],[30.73,36.07],[30.86,36.3],[30.68,36.51],[30.81,36.73],[31.12,36.75],[31.3,36.54],[31.62,36.56],[31.79,36.35],[32.1,36.36],[32.28,36.15],[32.14,35.93],[32.32,35.72],[32.63,35.73],[32.76,35.96],[33.07,35.97],[33.24,35.76],[33.11,35.54],[32.8,35.52],[32.67,35.3],[32.36,35.29],[32.23,35.06],[31.92,35.04],[31.79,34.82],[31.96,34.61],[32.27,34.62],[32.44,34.41],[32.74,34.43],[32.91,34.22],[33.21,34.23],[33.35,34.46],[33.65,34.47],[33.79,34.69],[34.09,34.7],[34.22,34.93],[34.06,35.14],[34.19,35.36],[34.5,35.37],[34.63,35.59],[34.94,35.6],[35.08,35.82],[34.91,36.03],[34.6,36.02],[34.47,35.8],[34.16,35.79],[34.02,35.57],[33.72,35.56],[33.55,35.77],[33.68,35.99],[33.99,36.0],[34.13,36.23],[34.43,36.23],[34.57,36.45],[34.88,36.46],[35.05,36.25],[35.35,36.26],[35.52,36.04],[35.38,35.83],[35.54,35.61],[35.41,35.39],[35.57,35.18],[35.43,34.96],[35.59,34.75],[35.46,34.53],[35.62,34.31],[35.48,34.09],[35.18,34.08],[35.05,33.86],[35.21,33.65],[35.08,33.43],[34.78,33.42],[34.64,33.19],[34.81,32.98],[34.67,32.76],[34.83,32.54],[34.7,32.32],[34.41,32.31],[34.27,32.08],[34.44,31.87],[34.73,31.88],[34.89,31.67],[35.18,31.68],[35.31,31.9],[35.61,31.91],[35.74,32.14],[36.03,32.15],[36.17,32.37],[36.46,32.37],[36.62,32.16],[36.91,32.17],[37.04,32.39],[36.89,32.6],[37.02,32.82],[37.32,32.83],[37.45,33.05],[37.75,33.05],[37.88,33.27],[38.18,33.27],[38.31,33.49],[38.16,33.7],[38.3,33.92],[38.15,34.13],[38.29,34.35],[38.58,34.35],[38.72,34.57],[38.57,34.78],[38.71,35.0],[39.01,34.99],[39.15,35.21],[39.45,35.2],[39.59,35.42],[39.88,35.41],[40.03,35.62],[40.32,35.62],[40.47,35.83],[40.76,35.82],[40.91,36.03],[41.2,36.02],[41.35,36.23],[41.2,36.45],[41.35,36.65],[41.64,36.64],[41.79,36.43],[42.08,36.42],[42.23,36.62],[42.52,36.61],[42.67,36.82],[42.53,37.03],[42.68,37.24],[42.53,37.45],[42.24,37.46],[42.09,37.68],[42.24,37.88],[42.1,38.1],[41.8,38.11],[41.65,38.33],[41.35,38.34],[41.2,38.55],[40.9,38.56],[40.75,38.78],[40.45,38.79],[40.3,38.58],[39.99,38.59],[39.84,38.8],[39.99,39.01],[39.83,39.22],[39.53,39.23],[39.38,39.02],[39.07,39.03],[38.91,39.24],[38.6,39.25],[38.45,39.04],[38.14,39.04],[38.0,38.83],[38.16,38.62],[38.01,38.41],[38.17,38.2],[38.48,38.2],[38.62,38.41],[38.93,38.4],[39.08,38.61],[39.38,38.6],[39.54,38.39],[39.39,38.18],[39.09,38.19],[38.94,37.98],[38.64,37.98],[38.49,37.77],[38.18,37.77],[38.02,37.99],[37.72,37.99],[37.57,37.78],[37.27,37.78],[37.1,37.99],[36.79,37.99],[36.65,37.78],[36.34,37.77],[36.18,37.99],[35.87,37.98],[35.72,37.77],[35.41,37.76],[35.27,37.55],[34.96,37.54],[34.82,37.32],[34.51,37.32],[34.37,37.1],[34.06,37.09],[33.89,37.3],[34.03,37.52],[34.34,37.53],[34.48,37.75],[34.79,37.75],[34.93,37.97],[35.24,37.97],[35.39,38.19],[35.7,38.2],[35.84,38.41],[35.67,38.62],[35.82,38.84],[36.13,38.84],[36.27,39.05],[36.11,39.26],[35.79,39.26],[35.62,39.47],[35.77,39.68],[36.08,39.68],[36.25,39.47],[36.57,39.47],[36.71,39.69],[37.03,39.69],[37.17,39.89],[37.01,40.11],[37.16,40.32],[37.47,40.31],[37.64,40.1],[37.95,40.1],[38.1,40.3],[37.94,40.52],[38.09,40.72],[38.4,40.72],[38.56,40.51],[38.88,40.5],[39.03,40.7],[39.34,40.7],[39.5,40.9],[39.81,40.89],[39.97,40.68],[40.28,40.67],[40.43,40.87],[40.74,40.86],[40.9,41.06],[41.21,41.04],[41.36,41.24],[41.67,41.23],[41.82,41.01],[41.67,40.82],[41.82,40.6],[42.13,40.59],[42.28,40.79],[42.13,41.0],[42.29,41.2],[42.59,41.18],[42.75,41.37],[43.06,41.36],[43.21,41.56],[43.52,41.54],[43.67,41.74],[43.98,41.72],[44.13,41.51],[43.97,41.31],[44.11,41.09],[44.42,41.08],[44.56,40.86],[44.87,40.84],[45.01,40.62],[45.31,40.6],[45.47,40.8],[45.78,40.78],[45.92,40.56],[46.23,40.53],[46.36,40.31],[46.2,40.12],[46.33,39.9],[46.64,39.87],[46.77,39.65],[46.6,39.46],[46.3,39.48],[46.14,39.29],[46.27,39.07],[46.57,39.05],[46.7,38.83],[47.0,38.8],[47.17,38.99],[47.47,38.96],[47.6,38.74],[47.9,38.71],[48.07,38.9],[48.37,38.87],[48.5,38.65],[48.33,38.46],[48.45,38.23],[48.75,38.2],[48.88,37.98],[48.71,37.79],[48.83,37.57],[49.13,37.53],[49.25,37.31],[49.54,37.27],[49.72,37.46],[49.6,37.68],[49.77,37.87],[50.07,37.84],[50.25,38.02],[50.13,38.25],[50.31,38.44],[50.18,38.67],[50.37,38.86],[50.24,39.08],[50.43,39.27],[50.73,39.24],[50.92,39.43],[50.8,39.65],[50.98,39.85],[50.86,40.07],[51.05,40.27],[50.92,40.49],[50.61,40.53],[50.48,40.76],[50.67,40.95],[50.55,41.18],[50.23,41.22],[50.1,41.45],[49.78,41.48],[49.65,41.71],[49.34,41.74],[49.2,41.96],[48.88,42.0],[48.75,42.22],[48.43,42.25],[48.29,42.47],[47.97,42.5],[47.83,42.73],[47.51,42.75],[47.37,42.98],[47.05,43.0],[46.91,43.22],[46.59,43.24],[46.44,43.47],[46.12,43.49],[45.98,43.71],[45.65,43.73],[45.5,43.95],[45.18,43.96],[45.03,44.18],[44.71,44.2],[44.56,44.41],[44.73,44.62],[44.57,44.84],[44.25,44.85],[44.09,45.07],[43.77,45.08],[43.61,45.29],[43.28,45.3],[43.12,45.52],[42.8,45.53],[42.64,45.74],[42.31,45.75],[42.15,45.54],[41.82,45.55],[41.66,45.34],[41.34,45.34],[41.18,45.55],[40.86,45.56],[40.7,45.35],[40.38,45.35],[40.23,45.15],[39.9,45.16],[39.74,44.97],[39.41,44.98],[39.24,45.19],[38.91,45.2],[38.75,45.0],[38.42,45.02],[38.25,45.22],[37.92,45.23],[37.76,45.03],[37.43,45.04],[37.25,45.25],[37.41,45.44],[37.74,45.44],[37.9,45.63],[38.24,45.62],[38.4,45.82],[38.22,46.02],[38.38,46.21],[38.21,46.42],[38.37,46.61],[38.71,46.6],[38.87,46.79],[39.19,46.79],[39.34,47.0],[39.17,47.21],[39.32,47.42],[39.14,47.62],[38.81,47.61],[38.66,47.4],[38.34,47.4],[38.18,47.21],[37.83,47.22],[37.67,47.03],[37.33,47.03],[37.17,46.84],[36.83,46.85],[36.64,47.05],[36.3,47.06],[36.14,46.86],[35.8,46.87],[35.64,46.67],[35.29,46.67],[35.14,46.47],[34.79,46.47],[34.64,46.27],[34.82,46.07],[34.67,45.87],[34.86,45.67],[34.7,45.47],[34.36,45.47],[34.21,45.27],[33.87,45.27],[33.68,45.47],[33.34,45.46],[33.15,45.66],[33.3,45.86],[33.64,45.87],[33.79,46.07],[33.6,46.27],[33.26,46.27],[33.1,46.06],[32.76,46.06],[32.56,46.26],[32.22,46.25],[32.02,46.45],[32.17,46.65],[31.97,46.85],[31.62,46.84],[31.47,46.63],[31.67,46.44],[31.52,46.23],[31.72,46.04],[32.07,46.04],[32.26,45.85],[32.11,45.64],[32.31,45.44],[32.16,45.24],[32.35,45.04],[32.7,45.05],[32.89,44.85],[32.74,44.64],[32.93,44.44],[33.27,44.44],[33.46,44.24],[33.79,44.25],[33.98,44.04],[34.31,44.05],[34.46,44.25],[34.8,44.25],[34.95,44.46],[35.29,44.46],[35.44,44.66],[35.78,44.66],[35.93,44.86],[36.27,44.86],[36.42,45.06],[36.76,45.05],[36.93,44.85],[37.27,44.84],[37.44,44.64],[37.78,44.63],[37.95,44.42],[37.79,44.23],[37.96,44.02],[38.29,44.01],[38.45,44.21],[38.78,44.2],[38.95,43.99],[38.79,43.79],[38.96,43.58],[39.28,43.57],[39.45,43.37],[39.77,43.35],[39.93,43.14],[40.25,43.13],[40.41,42.92],[40.73,42.91],[40.89,42.7],[41.21,42.68],[41.36,42.47],[41.21,42.27],[41.36,42.06],[41.21,41.87],[41.36,41.65],[41.21,41.46],[40.9,41.47],[40.74,41.27],[40.43,41.28],[40.27,41.08],[39.96,41.09],[39.8,41.3],[39.49,41.31],[39.33,41.11],[39.02,41.12],[38.86,41.33],[38.54,41.34],[38.39,41.13],[38.07,41.14],[37.9,41.35],[37.59,41.35],[37.42,41.56],[37.1,41.57],[36.93,41.78],[36.6,41.78],[36.43,41.99],[36.11,41.99],[35.96,41.78],[35.64,41.78],[35.46,41.99],[35.61,42.2],[35.43,42.4],[35.1,42.4],[34.96,42.19],[34.63,42.19],[34.48,41.98],[34.15,41.98],[33.97,42.18],[33.64,42.18],[33.46,42.38],[33.13,42.38],[32.99,42.16],[32.66,42.15],[32.51,41.94],[32.18,41.93],[32.04,41.72],[31.71,41.71],[31.57,41.49],[31.24,41.48],[31.1,41.26],[30.77,41.24],[30.58,41.45],[30.26,41.43],[30.12,41.21],[29.79,41.2],[29.6,41.4],[29.27,41.38],[29.07,41.58],[28.74,41.56],[28.54,41.76],[28.68,41.98],[28.48,42.18],[28.15,42.15],[27.95,42.35],[28.08,42.57],[27.88,42.77],[28.02,42.99],[28.36,43.01],[28.49,43.23],[28.83,43.25],[28.97,43.46],[28.77,43.66],[28.91,43.88],[28.71,44.07],[28.85,44.29],[29.19,44.3],[29.33,44.52],[29.67,44.53],[29.81,44.75],[29.61,44.94],[29.75,45.15],[30.1,45.17],[30.3,44.97],[30.64,44.99],[30.79,45.2],[30.59,45.39],[30.24,45.38],[30.04,45.57],[30.19,45.78],[30.53,45.8],[30.68,46.0],[31.03,46.02],[31.18,46.22],[30.97,46.42],[31.12,46.62],[30.92,46.82],[30.57,46.81],[30.42,46.6],[30.63,46.41],[30.48,46.2],[30.13,46.19],[29.98,45.98],[29.64,45.96],[29.49,45.75],[29.14,45.74],[28.94,45.93],[29.08,46.14],[29.43,46.16],[29.58,46.37],[29.37,46.56],[29.52,46.77],[29.31,46.96],[28.96,46.94],[28.75,47.13],[28.89,47.34],[29.25,47.35],[29.45,47.16],[29.81,47.18],[29.96,47.38],[29.75,47.57],[29.9,47.78],[30.25,47.79],[30.4,48.0],[30.19,48.19],[30.34,48.39],[30.7,48.4],[30.91,48.21],[31.27,48.22],[31.47,48.03],[31.83,48.03],[31.98,48.23],[32.34,48.24],[32.49,48.44],[32.85,48.44],[33.0,48.64],[33.36,48.64],[33.56,48.45],[33.92,48.45],[34.07,48.64],[34.43,48.64],[34.62,48.45],[34.98,48.45],[35.14,48.64],[35.49,48.63],[35.68,48.44],[36.03,48.43],[36.2,48.62],[36.55,48.62],[36.71,48.81],[37.06,48.8],[37.21,49.01],[37.54,49.02],[37.73,48.82],[38.06,48.83],[38.21,49.04],[38.54,49.05],[38.7,49.27],[39.04,49.27],[39.19,49.49],[39.54,49.49],[39.7,49.7],[40.04,49.71],[40.21,49.92],[40.56,49.93],[40.74,49.72],[41.09,49.73],[41.26,49.94],[41.08,50.14],[41.25,50.35],[41.6,50.36],[41.78,50.15],[42.14,50.15],[42.32,50.36],[42.68,50.36],[42.86,50.57],[43.22,50.57],[43.41,50.78],[43.77,50.78],[43.96,50.98],[44.33,50.98],[44.52,51.19],[44.89,51.18],[45.09,51.39],[45.47,51.38],[45.67,51.59],[46.05,51.58],[46.25,51.79],[46.63,51.78],[46.8,51.56],[47.18,51.55],[47.39,51.75],[47.78,51.74],[47.99,51.95],[48.38,51.93],[48.54,51.71],[48.92,51.69],[49.15,51.89],[49.53,51.87],[49.76,52.08],[50.15,52.05],[50.38,52.26],[50.78,52.23],[50.93,52.01],[51.32,51.98],[51.56,52.18],[51.95,52.15],[52.2,52.35],[52.59,52.32],[52.84,52.52],[53.24,52.49],[53.38,52.26],[53.78,52.22],[54.03,52.42],[54.43,52.38],[54.57,52.15],[54.97,52.11],[55.22,52.31],[55.09,52.54],[55.35,52.74],[55.75,52.7],[55.89,52.46],[56.29,52.42],[56.42,52.18],[56.82,52.14],[56.95,51.9],[57.34,51.85],[57.47,51.61],[57.86,51.57],[58.13,51.76],[58.01,51.99],[58.28,52.18],[58.68,52.13],[58.96,52.32],[58.84,52.56],[59.12,52.75],[59.52,52.69],[59.64,52.45],[60.04,52.4],[60.33,52.58],[60.21,52.82],[60.5,53.01],[60.91,52.95],[61.2,53.13],[61.09,53.38],[61.38,53.56],[61.79,53.5],[62.1,53.68],[61.99,53.92],[62.29,54.1],[62.71,54.04],[63.01,54.22],[63.43,54.15],[63.74,54.33],[64.16,54.26],[64.48,54.43],[64.38,54.68],[64.7,54.85],[65.12,54.78],[65.44,54.95],[65.86,54.88],[66.19,55.05],[66.61,54.97],[66.94,55.14],[67.36,55.06],[67.7,55.22],[67.62,55.47],[67.96,55.64],[68.38,55.55],[68.72,55.72],[69.15,55.63],[69.49,55.79],[69.92,55.7],[70.27,55.86],[70.69,55.77],[71.04,55.93],[71.46,55.84],[71.82,55.99],[72.24,55.89],[72.6,56.05],[73.02,55.95],[73.38,56.1],[73.8,56.0],[73.85,55.75],[74.26,55.64],[74.63,55.79],[75.04,55.68],[75.41,55.83],[75.81,55.72],[76.18,55.86],[76.59,55.75],[76.96,55.89],[77.37,55.78],[77.74,55.91],[78.15,55.8],[78.17,55.55],[78.57,55.43],[78.94,55.56],[79.34,55.45],[79.72,55.58],[80.11,55.45],[80.12,55.2],[80.51,55.08],[80.89,55.21],[81.27,55.08],[81.28,54.83],[81.66,54.71],[81.67,54.46],[82.04,54.33],[82.04,54.08],[82.42,53.95],[82.79,54.07],[83.15,53.94],[83.53,54.06],[83.53,54.31],[83.16,54.44],[83.16,54.69],[83.54,54.81],[83.55,55.06],[83.17,55.19],[83.17,55.44],[83.56,55.56],[83.56,55.81],[83.18,55.94],[82.79,55.82],[82.41,55.95],[82.41,56.2],[82.02,56.33],[82.01,56.58],[81.62,56.7],[81.61,56.95],[82.01,57.07],[82.0,57.32],[81.6,57.44],[81.59,57.69],[81.19,57.82],[81.18,58.06],[80.76,58.19],[80.75,58.43],[81.16,58.55],[81.15,58.8],[80.73,58.92],[80.72,59.16],[80.29,59.29],[80.28,59.53],[79.85,59.65],[79.83,59.89],[79.39,60.01],[79.37,60.25],[78.93,60.37],[78.9,60.61],[78.45,60.73],[78.03,60.6],[77.58,60.71],[77.54,60.95],[77.08,61.06],[77.05,61.3],[76.58,61.41],[76.54,61.65],[76.07,61.75],[76.03,61.99],[75.55,62.1],[75.12,61.96],[74.64,62.06],[74.59,62.3],[74.1,62.4],[74.04,62.63],[73.55,62.73],[73.12,62.59],[72.62,62.68],[72.55,62.92],[72.05,63.01],[71.98,63.24],[71.47,63.33],[71.4,63.56],[70.88,63.65],[70.8,63.88],[70.28,63.97],[69.85,63.82],[69.33,63.9],[69.23,64.13],[68.7,64.21],[68.61,64.43],[68.07,64.51],[67.97,64.74],[67.43,64.81],[67.0,64.65],[66.46,64.72],[66.34,64.95],[65.8,65.01],[65.67,65.24],[65.12,65.3],[64.7,65.14],[64.15,65.2],[63.73,65.04],[63.18,65.1],[62.77,64.93],[62.22,64.98],[61.81,64.81],[61.26,64.86],[60.87,64.69],[60.32,64.74],[59.93,64.56],[60.09,64.35],[59.71,64.17],[59.17,64.21],[59.01,64.43],[58.46,64.47],[58.3,64.69],[58.68,64.87],[58.51,65.08],[57.95,65.12],[57.78,65.33],[58.16,65.51],[57.99,65.72],[57.42,65.76],[57.04,65.58],[56.48,65.61],[56.1,65.43],[55.55,65.46],[55.18,65.27],[54.63,65.3],[54.43,65.51],[53.87,65.53],[53.52,65.34],[52.96,65.36],[52.75,65.56],[52.2,65.58],[51.98,65.78],[51.42,65.8],[51.08,65.6],[50.53,65.61],[50.31,65.81],[49.75,65.82],[49.52,66.02],[48.96,66.02],[48.72,66.22],[49.05,66.41],[48.81,66.61],[48.24,66.61],[48.0,66.8],[47.43,66.8],[47.18,66.99],[46.6,66.98],[46.29,66.78],[45.72,66.78],[45.46,66.96],[45.77,67.16],[45.51,67.35],[44.93,67.34],[44.66,67.52],[44.97,67.72],[45.55,67.73],[45.87,67.93],[45.6,68.12],[45.01,68.1],[44.7,67.9],[44.11,67.89],[43.81,67.69],[44.09,67.5],[43.79,67.3],[44.06,67.12],[44.63,67.14],[44.9,66.95],[44.6,66.75],[44.04,66.73],[43.75,66.53],[43.19,66.51],[42.92,66.7],[42.37,66.68],[42.09,66.47],[41.55,66.45],[41.28,66.24],[40.74,66.22],[40.49,66.01],[39.95,65.98],[39.71,65.77],[39.98,65.6],[39.74,65.39],[40.01,65.21],[39.77,65.0],[39.26,64.97],[39.03,64.76],[38.52,64.73],[38.25,64.9],[38.48,65.11],[38.2,65.29],[37.69,65.26],[37.4,65.43],[36.9,65.39],[36.68,65.18],[36.18,65.14],[35.89,65.31],[35.39,65.27],[35.1,65.44],[35.3,65.65],[35.01,65.81],[35.21,66.03],[34.91,66.19],[34.4,66.14],[34.1,66.31],[34.3,66.52],[34.82,66.57],[35.12,66.4],[35.64,66.45],[35.94,66.28],[36.46,66.32],[36.76,66.15],[37.28,66.19],[37.57,66.02],[38.09,66.06],[38.38,65.88],[38.9,65.92],[39.14,66.13],[39.67,66.16],[39.92,66.37],[40.46,66.4],[40.72,66.6],[41.27,66.63],[41.54,66.83],[41.26,67.01],[41.53,67.22],[41.24,67.39],[41.52,67.6],[41.23,67.77],[40.66,67.75],[40.36,67.92],[39.8,67.89],[39.49,68.06],[39.76,68.27],[39.45,68.44],[38.88,68.4],[38.57,68.57],[37.99,68.53],[37.67,68.7],[37.1,68.66],[36.78,68.82],[37.02,69.03],[36.7,69.19],[36.12,69.14],[35.78,69.3],[35.2,69.26],[34.72,69.4],[34.15,69.35],[33.66,69.49],[33.09,69.44],[32.59,69.58],[32.66,69.77],[32.15,69.91],[31.57,69.85],[31.51,69.65],[30.95,69.59],[30.43,69.72],[29.87,69.66],[29.35,69.79],[28.79,69.72],[28.76,69.52],[28.21,69.45],[27.68,69.58],[27.14,69.5],[27.13,69.31],[26.6,69.23],[26.6,69.04],[26.08,68.96],[26.08,68.77],[26.59,68.65],[26.58,68.46],[26.08,68.38],[25.57,68.5],[25.07,68.42],[25.08,68.23],[24.6,68.15],[24.09,68.26],[23.61,68.18],[23.63,67.99],[23.16,67.91],[23.19,67.72],[22.72,67.64],[22.22,67.74],[21.76,67.66],[21.8,67.47],[21.35,67.39],[21.26,67.17],[20.82,67.09],[20.73,66.88],[20.3,66.79],[19.95,66.91],[19.52,66.82],[19.45,66.61],[19.8,66.49],[19.72,66.28],[19.31,66.19],[19.24,65.98],[18.83,65.89],[18.76,65.67],[18.36,65.59],[18.02,65.71],[17.63,65.62],[17.57,65.4],[17.19,65.31],[17.14,65.1],[16.75,65.01],[16.71,64.8],[16.34,64.71],[16.29,64.5],[15.93,64.4],[15.6,64.52],[15.24,64.43],[15.2,64.22],[14.85,64.12],[14.82,63.91],[14.47,63.82],[14.15,63.93],[13.81,63.84],[13.78,63.63],[13.33,63.57],[13.2,63.4],[13.52,63.29],[13.39,63.12],[13.7,63.0],[13.57,62.83],[13.88,62.72],[13.75,62.55],[13.31,62.49],[13.18,62.32],[13.49,62.2],[13.36,62.02],[12.18,62.02],[12.06,61.84],[12.37,61.73],[12.24,61.55],[11.81,61.49],[11.51,61.6],[11.63,61.78],[11.32,61.9],[10.89,61.83],[10.77,61.65],[11.08,61.54],[10.96,61.36],[10.54,61.3],[10.23,61.41],[9.81,61.34],[9.7,61.16],[9.28,61.09],[9.18,60.91],[9.48,60.8],[9.37,60.62],[8.96,60.54],[8.85,60.36],[9.16,60.25],[9.05,60.07],[8.64,59.99],[8.54,59.81],[8.14,59.73],[8.04,59.55],[7.64,59.47],[7.54,59.28],[7.15,59.21],[6.88,59.37],[6.97,59.56],[6.7,59.73],[6.33,59.7],[6.05,59.87],[6.15,60.06],[6.52,60.08],[6.62,60.27],[6.34,60.43],[5.96,60.41],[5.67,60.57],[5.77,60.76],[5.48,60.92],[5.57,61.11],[5.96,61.13],[6.06,61.31],[5.77,61.48],[5.86,61.66],[5.57,61.82],[5.67,62.0],[6.06,62.02],[6.16,62.21],[6.55,62.22],[6.66,62.4],[7.05,62.42],[7.16,62.6],[7.55,62.61],[7.66,62.79],[8.05,62.8],[8.16,62.98],[8.56,62.99],[8.67,63.16],[9.07,63.17],[9.18,63.34],[9.58,63.35],[9.9,63.24],[9.78,63.07],[10.1,62.97],[10.54,63.03],[10.66,63.2],[11.1,63.27],[11.22,63.44],[11.67,63.5],[11.79,63.67],[12.24,63.73],[12.37,63.9],[12.05,64.01],[12.18,64.18],[12.51,64.28],[12.53,64.48],[12.2,64.59],[11.86,64.49],[11.53,64.6],[11.53,64.8],[11.2,64.91],[10.87,64.8],[10.87,64.6],[10.41,64.53],[10.29,64.37],[10.62,64.26],[11.07,64.33],[11.4,64.22],[11.27,64.05],[10.05,64.03],[9.93,63.86],[9.53,63.86],[9.41,63.69],[9.01,63.68],[8.72,63.84],[8.32,63.83],[8.2,63.66],[8.5,63.5],[8.38,63.32],[7.98,63.31],[7.87,63.14],[7.47,63.13],[7.37,62.95],[6.97,62.94],[6.86,62.76],[6.46,62.74],[6.36,62.57],[5.96,62.55],[5.86,62.37],[5.46,62.35],[5.37,62.17],[4.97,62.14],[4.87,61.96],[5.17,61.8],[5.08,61.62],[4.69,61.59],[4.59,61.41],[4.89,61.25],[4.8,61.06],[4.41,61.04],[4.32,60.85],[4.62,60.69],[4.53,60.5],[4.82,60.34],[4.73,60.15],[5.02,59.98],[4.93,59.79],[5.21,59.63],[5.12,59.44],[4.75,59.41],[4.66,59.22],[4.94,59.06],[4.85,58.86],[5.13,58.7],[5.05,58.51],[5.32,58.34],[5.68,58.37],[5.95,58.2],[6.31,58.23],[6.58,58.06],[6.49,57.87],[6.78,57.76],[7.16,57.84],[7.45,57.72],[7.84,57.8],[7.93,57.99],[8.32,58.07],[8.61,57.95],[9.0,58.03],[9.1,58.22],[9.5,58.29],[9.6,58.48],[9.31,58.6],[9.41,58.79],[9.81,58.86],[10.11,58.74],[10.51,58.81],[10.8,58.69],[10.69,58.5],[10.98,58.38],[10.87,58.19],[11.16,58.06],[11.05,57.87],[10.65,57.8],[10.36,57.93],[9.97,57.86],[9.87,57.67],[9.48,57.59],[9.37,57.4],[8.99,57.33],[8.7,57.45],[8.31,57.37],[8.22,57.18],[7.84,57.1],[7.74,56.9],[8.02,56.79],[7.93,56.59],[7.55,56.51],[7.46,56.31],[7.74,56.19],[7.65,55.99],[7.93,55.87],[7.83,55.67],[7.46,55.59],[7.37,55.39],[7.65,55.27],[8.02,55.35],[8.29,55.23],[8.2,55.02],[7.83,54.95],[7.74,54.74],[8.02,54.62],[7.92,54.41],[8.2,54.29],[8.1,54.08],[7.74,54.0],[7.47,54.13],[7.11,54.05],[7.02,53.84],[6.66,53.76],[6.39,53.89],[6.04,53.81],[5.95,53.6],[5.6,53.51],[5.33,53.64],[4.98,53.55],[4.9,53.34],[4.56,53.26],[4.48,53.05],[4.15,53.01],[4.07,52.8],[4.33,52.63],[4.25,52.42],[3.93,52.38],[3.85,52.16],[3.53,52.12],[3.45,51.91],[3.13,51.86],[3.06,51.64],[2.74,51.6],[2.67,51.38],[2.35,51.33],[2.28,51.11],[1.96,51.06],[1.7,51.22],[1.77,51.44],[1.51,51.61],[1.57,51.82],[1.9,51.87],[1.97,52.09],[1.7,52.25],[1.77,52.47],[2.1,52.52],[2.17,52.73],[1.91,52.89],[1.98,53.11],[1.71,53.27],[1.37,53.22],[1.1,53.38],[0.76,53.33],[0.49,53.49],[0.56,53.71],[0.28,53.87],[0.34,54.08],[0.06,54.24],[0.13,54.45],[-0.16,54.61],[-0.51,54.56],[-0.79,54.72],[-0.73,54.93],[-1.02,55.09],[-0.96,55.3],[-1.25,55.46],[-1.19,55.67],[-1.49,55.82],[-1.43,56.03],[-1.73,56.19],[-2.09,56.13],[-2.4,56.29],[-2.34,56.5],[-1.98,56.55],[-1.92,56.76],[-1.55,56.81],[-1.49,57.02],[-1.8,57.18],[-1.74,57.38],[-1.37,57.43],[-1.3,57.64],[-1.61,57.79],[-1.99,57.74],[-2.3,57.9],[-2.68,57.84],[-3.0,58.0],[-3.37,57.94],[-3.7,58.09],[-3.64,58.3],[-3.26,58.35],[-3.2,58.56],[-2.82,58.61],[-2.76,58.81],[-2.38,58.87],[-2.32,59.07],[-2.65,59.22],[-3.03,59.17],[-3.09,58.96],[-3.48,58.91],[-3.53,58.71],[-3.91,58.65],[-4.25,58.8],[-4.63,58.74],[-4.68,58.54],[-5.07,58.48],[-5.11,58.27],[-5.5,58.21],[-5.54,58.0],[-5.92,57.94],[-5.97,57.73],[-6.35,57.66],[-6.68,57.81],[-6.64,58.02],[-6.26,58.08],[-6.22,58.29],[-6.56,58.43],[-6.94,58.37],[-6.98,58.16],[-7.36,58.09],[-7.4,57.88],[-7.78,57.81],[-7.82,57.6],[-7.48,57.46],[-7.52,57.25],[-7.89,57.17],[-7.93,56.96],[-7.59,56.82],[-7.22,56.89],[-7.18,57.1],[-6.81,57.17],[-6.47,57.03],[-6.51,56.81],[-6.89,56.75],[-6.93,56.53],[-6.6,56.39],[-6.64,56.17],[-6.31,56.03],[-6.35,55.81],[-6.72,55.74],[-6.76,55.52],[-7.12,55.45],[-7.45,55.6],[-7.81,55.52],[-7.85,55.3],[-8.21,55.23],[-8.54,55.37],[-8.9,55.29],[-8.93,55.07],[-9.29,54.99],[-9.32,54.77],[-8.99,54.63],[-9.02,54.41],[-9.38,54.33],[-9.71,54.47],[-10.06,54.38],[-10.09,54.16],[-10.44,54.08],[-10.47,53.85],[-10.82,53.76],[-10.84,53.54],[-10.51,53.4],[-10.54,53.17],[-10.21,53.03],[-10.24,52.81],[-10.58,52.72],[-10.61,52.49],[-10.95,52.4],[-10.97,52.17],[-10.65,52.03],[-10.67,51.8],[-10.36,51.66],[-10.38,51.43],[-10.07,51.29],[-9.73,51.38],[-9.42,51.24],[-9.08,51.32],[-8.77,51.18],[-8.43,51.27],[-8.4,51.49],[-8.07,51.58],[-8.03,51.81],[-7.69,51.89],[-7.39,51.74],[-7.05,51.82],[-7.01,52.05],[-6.67,52.13],[-6.37,51.98],[-6.03,52.05],[-5.99,52.28],[-5.65,52.35],[-5.61,52.58],[-5.91,52.73],[-5.87,52.95],[-5.52,53.02],[-5.48,53.25],[-5.78,53.4],[-5.74,53.62],[-6.05,53.77],[-6.01,53.99],[-5.66,54.06],[-5.62,54.28],[-5.26,54.35],[-4.95,54.2],[-5.0,53.98],[-4.7,53.83],[-4.74,53.61],[-5.09,53.54],[-5.13,53.32],[-4.83,53.17],[-4.88,52.94],[-5.22,52.87],[-5.26,52.65],[-4.97,52.5],[-5.01,52.28],[-5.35,52.2],[-5.39,51.98],[-5.73,51.9],[-5.77,51.68],[-5.48,51.53],[-5.14,51.6],[-4.85,51.45],[-4.89,51.22],[-4.6,51.07],[-4.64,50.84],[-4.98,50.77],[-5.27,50.92],[-5.6,50.85],[-5.64,50.62],[-5.97,50.54],[-6.01,50.31],[-6.34,50.23],[-6.38,50.0],[-6.7,49.92],[-6.74,49.69],[-6.45,49.54],[-6.12,49.62],[-6.09,49.85],[-5.76,49.93],[-5.47,49.78],[-5.14,49.86],[-4.86,49.7],[-4.53,49.78],[-4.49,50.01],[-4.16,50.08],[-3.88,49.93],[-3.56,50.0],[-3.51,50.23],[-3.18,50.3],[-3.13,50.52],[-2.81,50.59],[-2.53,50.44],[-2.2,50.5],[-1.93,50.35],[-1.61,50.41],[-1.34,50.25],[-1.01,50.32],[-0.96,50.54],[-0.63,50.6],[-0.37,50.44],[-0.04,50.5],[0.22,50.34],[0.54,50.4],[0.6,50.62],[0.93,50.68],[1.18,50.52],[1.12,50.3],[0.8,50.24],[0.74,50.02],[0.42,49.96],[0.16,50.12],[-0.16,50.06],[-0.22,49.84],[0.04,49.67],[-0.02,49.45],[-0.33,49.39],[-0.59,49.55],[-0.91,49.49],[-1.18,49.65],[-1.12,49.87],[-1.39,50.03],[-1.71,49.96],[-1.98,50.12],[-2.31,50.05],[-2.36,49.83],[-2.68,49.76],[-2.73,49.53],[-3.05,49.46],[-3.1,49.23],[-3.42,49.16],[-3.47,48.93],[-3.79,48.86],[-4.06,49.01],[-4.39,48.94],[-4.43,48.71],[-4.75,48.63],[-5.03,48.78],[-5.35,48.7],[-5.39,48.47],[-5.11,48.32],[-5.15,48.09],[-4.87,47.93],[-4.91,47.7],[-4.64,47.55],[-4.33,47.63],[-4.06,47.47],[-3.74,47.55],[-3.47,47.39],[-3.52,47.16],[-3.25,47.0],[-2.94,47.08],[-2.68,46.92],[-2.73,46.69],[-2.47,46.53],[-2.16,46.61],[-1.91,46.45],[-1.96,46.22],[-1.7,46.06],[-1.75,45.83],[-1.5,45.67],[-1.55,45.44],[-1.3,45.28],[-1.35,45.05],[-1.65,44.97],[-1.7,44.74],[-1.45,44.58],[-1.5,44.35],[-1.8,44.27],[-1.85,44.04],[-1.6,43.88],[-1.65,43.64],[-1.94,43.57],[-2.19,43.72],[-2.48,43.64],[-2.73,43.8],[-3.02,43.72],[-3.28,43.88],[-3.57,43.79],[-3.82,43.95],[-4.12,43.86],[-4.16,43.63],[-4.46,43.54],[-4.72,43.69],[-5.01,43.61],[-5.27,43.76],[-5.57,43.67],[-5.83,43.82],[-6.13,43.73],[-6.39,43.88],[-6.69,43.79],[-6.96,43.94],[-7.26,43.85],[-7.53,44.0],[-7.83,43.9],[-8.1,44.05],[-8.4,43.95],[-8.43,43.71],[-8.73,43.61],[-9.0,43.76],[-9.3,43.66],[-9.33,43.42],[-9.63,43.32],[-9.65,43.07],[-9.38,42.93],[-9.4,42.68],[-9.13,42.54],[-9.15,42.29],[-8.88,42.14],[-8.91,41.9],[-9.2,41.8],[-9.22,41.55],[-8.96,41.41],[-8.98,41.16],[-8.72,41.01],[-8.74,40.77],[-9.03,40.67],[-9.06,40.42],[-9.34,40.31],[-9.36,40.07],[-9.1,39.92],[-9.13,39.67],[-9.41,39.57],[-9.67,39.71],[-9.96,39.61],[-9.98,39.36],[-9.72,39.21],[-9.74,38.97],[-9.48,38.82],[-9.5,38.57],[-9.24,38.43],[-9.26,38.18],[-9.01,38.04],[-9.03,37.79],[-9.31,37.68],[-9.33,37.43],[-9.08,37.29],[-9.1,37.04],[-8.85,36.9],[-8.58,37.01],[-8.33,36.86],[-8.05,36.97],[-7.81,36.82],[-7.53,36.93],[-7.51,37.17],[-7.23,37.28],[-6.99,37.13],[-7.02,36.88],[-6.77,36.74],[-6.8,36.49],[-6.56,36.35],[-6.29,36.45],[-6.05,36.3],[-6.08,36.05],[-5.85,35.91],[-5.58,36.01],[-5.55,36.25],[-5.28,36.35],[-5.24,36.6],[-4.97,36.69],[-4.74,36.54],[-4.47,36.64],[-4.43,36.88],[-4.16,36.98],[-3.93,36.83],[-3.66,36.92],[-3.43,36.77],[-3.16,36.86],[-2.93,36.71],[-2.67,36.8],[-2.62,37.05],[-2.36,37.14],[-2.13,36.98],[-1.86,37.07],[-1.82,37.31],[-1.55,37.4],[-1.51,37.64],[-1.24,37.72],[-1.19,37.96],[-0.92,38.05],[-0.88,38.28],[-0.61,38.37],[-0.56,38.6],[-0.29,38.69],[-0.07,38.53],[0.2,38.61],[0.25,38.85],[0.03,39.0],[-0.24,38.92],[-0.46,39.08],[-0.41,39.32],[-0.14,39.4],[-0.09,39.63],[0.18,39.71],[0.24,39.95],[0.51,40.02],[0.56,40.26],[0.84,40.34],[0.89,40.57],[1.17,40.66],[1.23,40.9],[1.51,40.99],[1.74,40.85],[2.02,40.94],[2.08,41.17],[2.36,41.26],[2.42,41.49],[2.71,41.58],[2.94,41.44],[3.23,41.53],[3.29,41.76],[3.59,41.85],[3.65,42.08],[3.42,42.23],[3.48,42.46],[3.25,42.6],[3.31,42.84],[3.61,42.93],[3.67,43.16],[3.97,43.25],[4.21,43.1],[4.51,43.19],[4.74,43.04],[5.04,43.13],[5.28,42.98],[5.58,43.06],[5.82,42.92],[6.12,43.0],[6.35,42.85],[6.66,42.93],[6.74,43.16],[7.05,43.24],[7.12,43.48],[7.43,43.56],[7.67,43.4],[7.98,43.48],[8.06,43.71],[8.37,43.79],[8.46,44.02],[8.77,44.1],[9.01,43.94],[9.33,44.02],[9.56,43.86],[9.88,43.94],[10.12,43.78],[10.03,43.55],[9.71,43.47],[9.63,43.24],[9.31,43.17]],[[-3.7,56.69],[-4.01,56.84],[-4.38,56.78],[-4.43,56.57],[-4.8,56.5],[-5.12,56.65],[-5.07,56.87],[-4.7,56.93],[-4.65,57.14],[-4.28,57.2],[-4.23,57.41],[-3.86,57.47],[-3.54,57.32],[-3.16,57.37],[-2.85,57.22],[-2.9,57.01],[-3.27,56.96],[-3.33,56.75],[-3.7,56.69]],[[42.31,43.66],[42.62,43.65],[42.78,43.44],[43.09,43.43],[43.24,43.21],[43.56,43.2],[43.71,42.99],[44.02,42.97],[44.17,42.76],[44.48,42.74],[44.65,42.94],[44.97,42.92],[45.11,42.7],[45.43,42.69],[45.6,42.89],[45.92,42.87],[46.06,42.65],[46.38,42.62],[46.52,42.4],[46.84,42.38],[47.02,42.58],[47.33,42.55],[47.47,42.33],[47.79,42.3],[47.93,42.08],[47.75,41.88],[47.89,41.66],[48.2,41.63],[48.34,41.41],[48.65,41.38],[48.78,41.15],[48.6,40.96],[48.29,40.99],[48.11,40.79],[47.8,40.82],[47.67,41.04],[47.36,41.07],[47.22,41.29],[46.91,41.32],[46.77,41.54],[46.94,41.74],[46.8,41.96],[46.49,41.98],[46.35,42.2],[46.03,42.23],[45.86,42.03],[45.55,42.05],[45.4,42.27],[45.09,42.29],[44.95,42.5],[44.63,42.52],[44.47,42.32],[44.16,42.34],[44.01,42.55],[43.7,42.57],[43.55,42.78],[43.23,42.8],[43.08,42.6],[42.77,42.61],[42.61,42.82],[42.3,42.83],[42.15,43.04],[41.84,43.05],[41.68,43.26],[41.37,43.28],[41.21,43.49],[41.37,43.69],[41.68,43.68],[41.84,43.47],[42.15,43.46],[42.31,43.66]],[[22.08,65.38],[22.5,65.46],[22.83,65.32],[23.26,65.4],[23.36,65.61],[23.8,65.69],[24.13,65.55],[24.57,65.63],[24.89,65.49],[24.78,65.28],[24.34,65.2],[24.23,64.99],[24.55,64.85],[24.44,64.63],[24.02,64.56],[23.92,64.34],[23.5,64.27],[23.4,64.05],[22.99,63.98],[22.68,64.11],[22.27,64.04],[22.19,63.82],[21.79,63.74],[21.7,63.53],[21.31,63.45],[21.0,63.58],[21.08,63.8],[21.47,63.88],[21.56,64.09],[21.96,64.17],[22.05,64.39],[21.73,64.52],[21.81,64.73],[21.49,64.87],[21.57,65.08],[21.99,65.16],[22.08,65.38]],[[16.12,42.43],[15.79,42.37],[15.57,42.54],[15.24,42.49],[15.14,42.25],[14.81,42.19],[14.59,42.37],[14.69,42.6],[14.46,42.77],[14.56,43.0],[14.33,43.17],[14.43,43.4],[14.2,43.57],[13.87,43.51],[13.64,43.67],[13.74,43.9],[13.51,44.07],[13.18,44.01],[12.95,44.17],[13.04,44.4],[12.81,44.56],[12.9,44.79],[12.67,44.95],[12.77,45.18],[13.1,45.25],[13.33,45.08],[13.24,44.86],[13.47,44.69],[13.8,44.76],[14.04,44.59],[13.94,44.36],[14.17,44.2],[14.5,44.26],[14.73,44.09],[14.63,43.86],[14.86,43.69],[15.19,43.75],[15.42,43.58],[15.32,43.35],[15.54,43.18],[15.44,42.95],[15.67,42.78],[16.0,42.83],[16.22,42.66],[16.12,42.43]],[[-2.83,49.08],[-2.51,49.15],[-2.24,48.99],[-2.29,48.76],[-2.61,48.69],[-2.88,48.85],[-2.83,49.08]],[[16.91,41.49],[16.58,41.43],[16.36,41.61],[16.46,41.84],[16.24,42.02],[16.34,42.25],[16.67,42.31],[16.78,42.54],[17.11,42.59],[17.33,42.42],[17.66,42.47],[17.88,42.29],[18.21,42.34],[18.43,42.16],[18.76,42.21],[18.98,42.03],[18.87,41.8],[19.09,41.62],[18.98,41.39],[19.19,41.2],[19.08,40.97],[19.3,40.79],[19.19,40.55],[18.86,40.51],[18.65,40.69],[18.32,40.64],[18.11,40.82],[17.78,40.77],[17.56,40.95],[17.67,41.18],[17.45,41.36],[17.13,41.31],[16.91,41.49]],[[10.19,46.3],[9.95,46.45],[10.04,46.68],[10.37,46.75],[10.46,46.98],[10.8,47.05],[11.04,46.89],[10.95,46.67],[10.61,46.6],[10.52,46.37],[10.19,46.3]],[[11.74,56.59],[11.85,56.79],[12.24,56.85],[12.52,56.72],[12.41,56.53],[12.02,56.46],[11.74,56.59]],[[7.66,45.92],[7.42,46.06],[7.5,46.29],[7.83,46.37],[8.07,46.22],[7.99,46.0],[7.66,45.92]],[[-4.94,36.94],[-5.17,37.09],[-5.45,36.99],[-5.68,37.14],[-5.96,37.04],[-6.2,37.19],[-6.47,37.09],[-6.71,37.23],[-6.68,37.48],[-6.41,37.58],[-6.38,37.82],[-6.1,37.92],[-5.86,37.78],[-5.58,37.87],[-5.55,38.12],[-5.27,38.21],[-5.03,38.06],[-4.76,38.16],[-4.52,38.01],[-4.25,38.1],[-4.01,37.95],[-4.05,37.71],[-4.32,37.62],[-4.36,37.37],[-4.63,37.28],[-4.67,37.03],[-4.94,36.94]],[[25.63,35.44],[25.32,35.41],[25.12,35.61],[24.81,35.57],[24.62,35.77],[24.31,35.74],[24.11,35.94],[23.8,35.9],[23.6,36.1],[23.72,36.34],[23.52,36.53],[23.64,36.77],[23.95,36.8],[24.15,36.61],[24.47,36.64],[24.66,36.44],[24.97,36.48],[25.17,36.28],[25.05,36.04],[25.24,35.84],[25.55,35.87],[25.67,36.11],[25.99,36.14],[26.18,35.94],[26.06,35.7],[25.75,35.67],[25.63,35.44]],[[25.93,39.41],[25.61,39.38],[25.41,39.58],[25.53,39.81],[25.86,39.84],[26.06,39.64],[25.93,39.41]],[[35.48,64.89],[35.97,64.93],[36.25,64.76],[36.05,64.54],[35.56,64.5],[35.27,64.67],[35.48,64.89]],[[-4.5,57.77],[-4.55,57.56],[-4.93,57.5],[-4.98,57.29],[-5.35,57.22],[-5.68,57.37],[-5.64,57.58],[-5.26,57.64],[-5.21,57.85],[-4.83,57.91],[-4.5,57.77]],[[14.72,55.64],[14.84,55.83],[15.24,55.89],[15.51,55.75],[15.9,55.8],[16.02,56.0],[16.42,56.05],[16.54,56.25],[16.94,56.3],[17.07,56.49],[16.8,56.63],[16.93,56.82],[17.33,56.87],[17.46,57.06],[17.87,57.11],[18.14,56.97],[18.01,56.78],[18.28,56.63],[18.68,56.68],[18.81,56.87],[18.54,57.01],[18.68,57.2],[19.09,57.25],[19.23,57.43],[18.95,57.58],[19.09,57.76],[19.51,57.81],[19.65,57.99],[19.37,58.13],[19.51,58.32],[19.24,58.46],[18.82,58.42],[18.68,58.23],[18.27,58.19],[18.13,58.0],[18.41,57.86],[18.27,57.68],[17.86,57.63],[17.73,57.44],[17.32,57.39],[17.04,57.53],[17.18,57.72],[16.9,57.86],[17.03,58.05],[17.44,58.1],[17.58,58.28],[17.3,58.42],[17.43,58.61],[17.85,58.65],[18.13,58.51],[18.54,58.56],[18.68,58.74],[19.1,58.78],[19.25,58.97],[18.97,59.11],[19.11,59.29],[19.53,59.33],[19.68,59.51],[20.1,59.55],[20.25,59.72],[20.68,59.76],[20.96,59.62],[21.39,59.65],[21.66,59.51],[22.09,59.54],[22.37,59.4],[22.21,59.22],[21.79,59.19],[21.64,59.01],[21.91,58.86],[21.76,58.69],[21.33,58.65],[21.19,58.47],[21.46,58.32],[21.31,58.14],[21.58,57.99],[21.43,57.81],[21.7,57.66],[21.55,57.48],[21.14,57.44],[20.99,57.26],[21.26,57.11],[21.11,56.92],[20.71,56.88],[20.56,56.7],[20.83,56.55],[20.69,56.36],[20.95,56.2],[20.81,56.01],[21.07,55.86],[20.93,55.67],[20.53,55.63],[20.39,55.44],[20.65,55.29],[20.51,55.09],[20.12,55.05],[19.86,55.21],[19.46,55.16],[19.33,54.97],[19.59,54.82],[19.45,54.62],[19.06,54.58],[18.8,54.73],[18.94,54.92],[18.67,55.08],[18.28,55.03],[18.02,55.18],[17.63,55.13],[17.5,54.93],[17.11,54.88],[16.98,54.69],[16.6,54.63],[16.33,54.78],[15.95,54.73],[15.82,54.53],[15.44,54.47],[15.32,54.27],[14.94,54.22],[14.67,54.36],[14.29,54.3],[14.03,54.44],[14.14,54.64],[13.87,54.78],[13.49,54.72],[13.22,54.86],[12.84,54.8],[12.73,54.6],[12.35,54.53],[12.08,54.67],[12.19,54.87],[12.57,54.94],[12.68,55.14],[13.06,55.2],[13.33,55.06],[13.72,55.12],[13.83,55.32],[14.22,55.38],[14.49,55.24],[14.37,55.04],[14.64,54.9],[15.03,54.96],[15.29,54.82],[15.68,54.87],[15.8,55.07],[15.53,55.21],[15.65,55.41],[15.39,55.55],[15.0,55.5],[14.72,55.64]],[[24.71,38.86],[24.51,39.06],[24.63,39.29],[24.96,39.32],[25.16,39.12],[25.48,39.15],[25.68,38.96],[25.56,38.73],[25.23,38.7],[25.04,38.89],[24.71,38.86]],[[10.9,56.98],[11.01,57.17],[11.4,57.24],[11.68,57.11],[11.57,56.92],[11.18,56.85],[11.07,56.65],[10.69,56.58],[10.4,56.71],[10.51,56.91],[10.9,56.98]],[[24.79,38.43],[25.11,38.47],[25.31,38.27],[25.63,38.3],[25.83,38.1],[26.15,38.13],[26.34,37.93],[26.22,37.7],[25.9,37.67],[25.7,37.87],[25.38,37.84],[25.19,38.04],[24.87,38.0],[24.67,38.2],[24.79,38.43]],[[19.48,63.25],[19.85,63.34],[19.92,63.55],[20.3,63.63],[20.62,63.5],[20.54,63.29],[20.16,63.21],[20.09,62.99],[20.4,62.86],[20.33,62.65],[20.63,62.51],[20.56,62.3],[20.86,62.16],[20.78,61.95],[21.08,61.81],[21.01,61.6],[21.3,61.46],[21.22,61.25],[20.86,61.17],[20.79,60.95],[20.44,60.88],[20.29,60.7],[19.85,60.67],[19.7,60.49],[19.27,60.45],[18.98,60.59],[18.55,60.55],[18.26,60.68],[18.4,60.85],[18.11,60.99],[17.67,60.94],[17.38,61.07],[17.52,61.25],[17.96,61.29],[18.1,61.46],[17.81,61.59],[17.95,61.77],[17.66,61.89],[17.8,62.07],[18.15,62.15],[18.21,62.36],[18.56,62.45],[18.62,62.66],[18.98,62.74],[19.04,62.96],[19.41,63.04],[19.48,63.25]],[[-3.65,54.03],[-3.7,53.81],[-3.4,53.65],[-3.45,53.44],[-3.8,53.37],[-4.09,53.52],[-4.04,53.74],[-4.35,53.9],[-4.3,54.11],[-3.95,54.18],[-3.65,54.03]],[[26.42,59.82],[26.15,59.98],[26.26,60.2],[26.64,60.26],[26.91,60.1],[26.8,59.88],[26.42,59.82]],[[35.38,45.47],[35.2,45.67],[35.35,45.87],[35.17,46.07],[35.32,46.27],[35.67,46.27],[35.82,46.47],[36.17,46.46],[36.32,46.66],[36.67,46.65],[36.85,46.45],[37.19,46.45],[37.35,46.64],[37.69,46.63],[37.87,46.43],[37.71,46.23],[37.88,46.03],[37.72,45.84],[37.39,45.84],[37.23,45.65],[36.89,45.65],[36.71,45.86],[36.37,45.86],[36.22,45.66],[35.88,45.67],[35.72,45.47],[35.38,45.47]],[[24.14,57.33],[23.72,57.3],[23.46,57.45],[23.62,57.63],[23.36,57.79],[23.51,57.97],[23.93,58.0],[24.19,57.84],[24.03,57.66],[24.29,57.51],[24.14,57.33]],[[24.56,39.71],[24.35,39.91],[24.48,40.14],[24.8,40.17],[25.0,39.97],[24.88,39.75],[24.56,39.71]],[[25.03,59.79],[25.13,60.01],[25.5,60.07],[25.77,59.92],[25.67,59.7],[25.3,59.64],[25.03,59.79]]],[[[2.34,35.78],[2.39,36.02],[2.18,36.17],[1.91,36.08],[1.85,35.84],[2.07,35.69],[2.34,35.78]]],[[[7.82,35.14],[8.1,35.21],[8.18,35.45],[7.96,35.62],[7.68,35.55],[7.46,35.71],[7.53,35.95],[7.82,36.03],[7.89,36.27],[7.68,36.44],[7.39,36.36],[7.17,36.53],[6.88,36.45],[6.67,36.61],[6.38,36.53],[6.16,36.7],[5.88,36.62],[5.66,36.78],[5.38,36.7],[5.31,36.46],[5.03,36.37],[4.81,36.53],[4.88,36.77],[4.66,36.93],[4.38,36.85],[4.32,36.61],[4.04,36.53],[3.98,36.29],[3.7,36.2],[3.48,36.36],[3.21,36.27],[2.99,36.43],[2.72,36.34],[2.66,36.1],[2.88,35.95],[3.15,36.03],[3.37,35.88],[3.64,35.96],[3.86,35.81],[4.13,35.89],[4.35,35.73],[4.63,35.81],[4.84,35.65],[5.12,35.73],[5.33,35.57],[5.61,35.65],[5.83,35.49],[5.76,35.25],[5.98,35.09],[6.26,35.16],[6.47,35.0],[6.75,35.08],[6.97,34.91],[7.25,34.99],[7.32,35.23],[7.6,35.3],[7.82,35.14]]],[[[44.83,40.01],[44.53,40.03],[44.39,40.25],[44.09,40.27],[43.94,40.48],[44.1,40.68],[43.96,40.9],[43.65,40.91],[43.5,40.71],[43.64,40.5],[43.49,40.31],[43.63,40.09],[43.93,40.07],[44.07,39.86],[44.37,39.84],[44.51,39.62],[44.81,39.6],[44.95,39.38],[44.79,39.19],[44.93,38.97],[45.22,38.95],[45.36,38.73],[45.65,38.71],[45.81,38.9],[45.68,39.12],[45.84,39.32],[45.7,39.53],[45.4,39.56],[45.27,39.77],[44.97,39.8],[44.83,40.01]]],[[[-28.6,38.55],[-28.57,38.29],[-28.26,38.19],[-28.0,38.35],[-28.04,38.6],[-27.78,38.75],[-27.81,39.01],[-28.12,39.11],[-28.38,38.95],[-28.34,38.7],[-28.6,38.55]]],[[[-25.09,37.8],[-25.12,38.06],[-25.41,38.17],[-25.68,38.02],[-25.65,37.76],[-25.35,37.66],[-25.09,37.8]]],[[[84.61,53.66],[84.63,53.91],[84.26,54.04],[83.89,53.93],[83.88,53.68],[84.25,53.54],[84.61,53.66]]],[[[4.12,39.85],[4.41,39.93],[4.47,40.17],[4.25,40.32],[3.96,40.23],[3.89,40.0],[4.12,39.85]]],[[[49.34,67.58],[49.09,67.77],[48.5,67.77],[48.16,67.58],[48.41,67.38],[49.0,67.38],[49.34,67.58]]],[[[1.02,38.87],[1.24,38.73],[1.52,38.82],[1.57,39.06],[1.35,39.2],[1.07,39.11],[1.02,38.87]]],[[[3.61,39.91],[3.38,40.06],[3.09,39.97],[2.87,40.12],[2.58,40.03],[2.53,39.8],[2.24,39.71],[2.19,39.47],[2.41,39.32],[2.69,39.41],[2.92,39.26],[3.2,39.35],[3.26,39.59],[3.54,39.67],[3.61,39.91]]],[[[-26.91,38.7],[-27.21,38.8],[-27.47,38.65],[-27.44,38.4],[-27.14,38.29],[-26.87,38.44],[-26.91,38.7]]],[[[-16.91,32.32],[-16.65,32.19],[-16.39,32.32],[-16.39,32.58],[-16.65,32.71],[-16.65,32.96],[-16.92,33.09],[-17.18,32.96],[-17.17,32.7],[-16.91,32.58],[-16.91,32.32]]],[[[9.5,37.12],[9.29,37.29],[8.99,37.22],[8.91,36.98],[9.13,36.81],[9.43,36.88],[9.5,37.12]]]]}}]}