{"type":"FeatureCollection","features":[{"type":"Feature","properties":{},"geometry":{"type":"MultiPolygon","coordinates":[[[[106.89,-66.59],[107.09,-66.83],[107.73,-66.88],[107.95,-67.12],[108.59,-67.17],[109.01,-66.97],[110.71,-66.85],[111.11,-66.65],[110.87,-66.41],[111.26,-66.21],[111.89,-66.24],[113.27,-65.86],[113.02,-65.63],[112.4,-65.6],[111.03,-65.98],[110.41,-65.94],[110.01,-66.14],[110.24,-66.38],[109.84,-66.58],[109.21,-66.54],[108.79,-66.73],[108.16,-66.69],[107.94,-66.45],[106.49,-66.11],[106.06,-66.3],[106.26,-66.54],[106.89,-66.59]]],[[[-68.64,48.22],[-67.98,48.72],[-67.0,48.59],[-66.31,49.07],[-65.93,49.1],[-65.71,48.91],[-64.79,49.18],[-64.58,48.98],[-64.74,48.76],[-64.53,48.56],[-64.69,48.34],[-65.59,48.06],[-65.81,48.26],[-66.18,48.23],[-66.33,48.01],[-64.96,47.48],[-65.12,47.25],[-64.91,47.06],[-65.01,46.42],[-62.62,45.54],[-62.27,45.56],[-62.11,45.77],[-61.23,45.61],[-61.07,46.23],[-61.8,46.61],[-62.16,46.59],[-62.35,46.79],[-62.18,47.01],[-60.21,47.71],[-60.03,48.34],[-59.66,48.35],[-59.48,47.73],[-61.27,46.84],[-61.09,46.64],[-60.2,46.46],[-60.02,47.09],[-59.12,47.32],[-58.93,47.94],[-59.11,48.15],[-58.36,48.58],[-58.54,48.79],[-58.35,49.0],[-58.53,49.21],[-57.76,49.63],[-57.94,49.84],[-57.74,50.05],[-57.36,50.05],[-57.15,50.26],[-57.33,50.48],[-57.13,50.69],[-57.31,50.9],[-57.7,50.9],[-57.9,50.69],[-57.72,50.48],[-57.92,50.26],[-58.31,50.26],[-58.49,50.47],[-58.29,50.69],[-58.48,50.9],[-57.68,51.33],[-56.71,51.11],[-55.89,51.52],[-54.93,51.29],[-54.71,51.5],[-54.88,51.71],[-54.66,51.92],[-55.4,52.37],[-55.18,52.57],[-55.35,52.79],[-55.12,53.0],[-55.3,53.22],[-55.07,53.43],[-55.25,53.65],[-55.67,53.66],[-55.9,53.45],[-55.71,53.23],[-55.94,53.02],[-55.76,52.8],[-55.98,52.59],[-55.8,52.37],[-56.02,52.16],[-55.84,51.95],[-56.06,51.74],[-57.07,51.54],[-57.25,51.75],[-57.65,51.75],[-57.86,51.54],[-58.26,51.54],[-58.47,51.32],[-59.46,51.1],[-59.65,50.88],[-59.46,50.67],[-60.24,50.23],[-61.21,50.42],[-61.4,50.2],[-61.79,50.19],[-62.59,50.58],[-63.56,50.32],[-63.77,50.53],[-64.16,50.51],[-64.34,50.28],[-64.73,50.26],[-65.57,50.63],[-65.96,50.61],[-66.13,50.38],[-66.52,50.35],[-66.68,50.12],[-67.07,50.09],[-67.22,49.86],[-67.61,49.83],[-67.76,49.6],[-69.72,48.76],[-69.86,48.53],[-69.62,48.34],[-69.76,48.11],[-70.13,48.07],[-70.76,47.56],[-70.42,46.96],[-69.56,47.27],[-69.43,47.5],[-69.66,47.69],[-69.52,47.92],[-68.64,48.22]]],[[[154.3,59.63],[154.23,59.39],[153.39,59.45],[152.44,59.02],[151.71,59.54],[151.77,59.78],[151.37,59.92],[149.65,59.99],[149.2,59.88],[149.17,59.64],[147.88,59.55],[147.86,59.31],[147.43,59.2],[147.42,58.96],[147.82,58.84],[149.91,58.9],[152.76,58.64],[153.71,59.07],[155.35,58.95],[155.43,59.18],[155.89,59.27],[155.97,59.5],[154.76,59.72],[154.84,59.95],[155.86,60.36],[155.95,60.6],[156.43,60.69],[156.53,60.92],[157.01,61.0],[157.11,61.24],[157.61,61.32],[157.71,61.56],[158.21,61.64],[159.48,61.39],[159.36,61.15],[159.73,60.99],[159.6,60.75],[159.97,60.59],[159.85,60.35],[160.2,60.19],[160.69,60.26],[160.82,60.49],[161.3,60.55],[161.65,60.39],[161.52,60.15],[161.04,60.09],[160.91,59.86],[160.43,59.79],[160.31,59.56],[159.84,59.49],[159.72,59.26],[159.26,59.19],[159.15,58.96],[157.59,58.27],[157.5,58.04],[156.27,58.03],[156.18,57.8],[156.53,57.65],[156.45,57.42],[155.51,57.03],[155.44,56.8],[155.78,56.65],[155.7,56.42],[155.29,56.34],[155.21,56.11],[155.55,55.97],[155.0,55.43],[155.58,54.92],[155.05,54.39],[155.61,53.89],[155.52,53.66],[156.01,53.15],[155.92,52.92],[156.59,52.85],[156.68,53.08],[156.2,53.6],[156.29,53.82],[155.76,54.33],[156.3,54.86],[155.73,55.37],[156.29,55.9],[155.96,56.05],[156.04,56.28],[156.45,56.36],[156.53,56.58],[156.2,56.73],[156.28,56.96],[157.74,57.65],[157.84,57.88],[158.28,57.96],[158.38,58.19],[158.83,58.26],[158.93,58.49],[159.38,58.57],[159.5,58.8],[159.95,58.87],[160.07,59.1],[160.53,59.16],[160.66,59.4],[162.34,60.05],[162.49,60.28],[162.14,60.45],[162.28,60.68],[161.93,60.85],[162.07,61.08],[162.57,61.14],[162.72,61.38],[164.08,61.32],[164.25,61.55],[163.9,61.72],[164.06,61.96],[164.58,62.01],[164.75,62.24],[164.4,62.42],[164.57,62.65],[164.21,62.83],[163.67,62.78],[163.51,62.54],[162.98,62.48],[162.82,62.25],[163.18,62.08],[163.03,61.84],[162.51,61.78],[162.37,61.55],[160.59,60.89],[160.22,61.06],[160.35,61.29],[160.85,61.36],[160.99,61.59],[160.62,61.76],[160.75,62.0],[160.37,62.17],[159.86,62.1],[159.47,62.26],[158.96,62.19],[158.84,61.95],[157.43,61.96],[157.32,61.72],[156.82,61.64],[156.72,61.4],[156.23,61.32],[156.13,61.08],[155.65,60.99],[155.56,60.76],[155.08,60.67],[155.0,60.43],[153.99,60.01],[153.92,59.78],[154.3,59.63]],[[150.38,59.24],[149.54,59.27],[149.58,59.51],[150.02,59.61],[150.42,59.48],[150.38,59.24]]],[[[98.21,-66.55],[99.57,-66.97],[100.05,-66.8],[99.91,-66.55],[101.47,-66.28],[101.32,-66.03],[101.77,-65.85],[101.62,-65.61],[102.07,-65.43],[102.67,-65.5],[102.82,-65.75],[102.38,-65.93],[102.53,-66.17],[104.21,-66.12],[104.38,-66.37],[105.01,-66.43],[105.44,-66.24],[105.26,-66.0],[103.87,-65.63],[103.7,-65.38],[104.13,-65.2],[103.96,-64.95],[103.38,-64.89],[101.92,-65.18],[100.3,-65.21],[99.85,-65.38],[99.98,-65.63],[99.52,-65.8],[99.65,-66.05],[99.17,-66.22],[98.57,-66.14],[98.09,-66.3],[96.79,-65.88],[96.31,-66.04],[96.41,-66.29],[95.91,-66.45],[95.32,-66.35],[92.61,-66.61],[92.67,-66.86],[93.27,-66.96],[97.11,-66.63],[97.72,-66.72],[98.21,-66.55]]],[[[180.0,63.14],[179.8,63.31],[179.26,63.31],[178.97,63.11],[179.21,62.9],[178.92,62.69],[177.6,62.9],[177.32,62.69],[176.79,62.69],[176.52,62.47],[175.99,62.47],[175.73,62.25],[172.91,61.55],[171.22,60.85],[171.51,60.66],[172.01,60.68],[172.96,61.14],[175.73,61.84],[175.99,62.05],[176.51,62.06],[176.78,62.27],[177.3,62.28],[177.58,62.48],[179.64,62.07],[179.92,62.27],[179.69,62.48],[179.98,62.68],[179.75,62.89],[180.0,63.14]]],[[[-117.29,33.07],[-117.52,32.9],[-117.46,32.66],[-117.18,32.58],[-116.95,32.75],[-117.01,33.0],[-117.29,33.07]]],[[[-59.25,-82.03],[-61.07,-82.05],[-62.08,-81.84],[-61.3,-81.61],[-62.25,-81.4],[-61.51,-81.17],[-57.6,-80.89],[-57.01,-80.66],[-57.96,-80.46],[-57.39,-80.22],[-58.29,-80.02],[-57.74,-79.78],[-58.6,-79.58],[-62.18,-79.41],[-62.92,-79.2],[-62.31,-78.97],[-63.02,-78.75],[-62.43,-78.53],[-65.0,-78.1],[-64.41,-77.88],[-65.02,-77.66],[-64.45,-77.43],[-65.04,-77.21],[-64.49,-76.99],[-66.7,-76.55],[-66.15,-76.33],[-61.97,-75.86],[-61.52,-75.63],[-62.08,-75.41],[-61.64,-75.18],[-60.64,-75.16],[-60.23,-74.93],[-60.79,-74.72],[-60.38,-74.49],[-59.43,-74.46],[-59.05,-74.23],[-59.6,-74.02],[-59.23,-73.79],[-59.76,-73.58],[-59.39,-73.35],[-59.91,-73.14],[-59.55,-72.91],[-60.05,-72.7],[-59.7,-72.47],[-60.19,-72.26],[-59.84,-72.03],[-60.32,-71.82],[-59.98,-71.59],[-60.44,-71.39],[-60.11,-71.15],[-60.56,-70.95],[-60.23,-70.72],[-61.85,-70.32],[-61.52,-70.1],[-61.93,-69.89],[-61.61,-69.66],[-62.01,-69.45],[-61.69,-69.22],[-62.08,-69.02],[-62.78,-69.03],[-63.16,-68.82],[-62.84,-68.6],[-64.24,-68.19],[-63.92,-67.97],[-64.27,-67.76],[-63.95,-67.54],[-64.29,-67.33],[-63.05,-66.87],[-63.38,-66.67],[-63.09,-66.44],[-62.47,-66.43],[-62.19,-66.2],[-62.52,-66.0],[-64.04,-66.25],[-64.34,-66.47],[-64.02,-66.68],[-64.32,-66.9],[-64.96,-66.91],[-65.27,-67.13],[-64.94,-67.34],[-66.25,-67.78],[-64.92,-68.2],[-65.25,-68.42],[-64.91,-68.64],[-65.25,-68.86],[-64.89,-69.07],[-63.11,-69.26],[-62.72,-69.47],[-63.06,-69.69],[-62.66,-69.91],[-63.0,-70.13],[-62.6,-70.34],[-62.94,-70.57],[-62.53,-70.78],[-62.88,-71.01],[-61.23,-71.41],[-62.75,-71.88],[-61.02,-72.29],[-61.38,-72.52],[-60.9,-72.73],[-61.28,-72.96],[-60.78,-73.17],[-62.45,-73.65],[-61.95,-73.86],[-62.37,-74.09],[-61.85,-74.3],[-63.68,-74.77],[-63.16,-74.99],[-63.62,-75.21],[-64.61,-75.22],[-65.1,-75.44],[-64.59,-75.66],[-65.09,-75.88],[-66.13,-75.89],[-66.66,-76.1],[-71.02,-76.49],[-71.66,-76.7],[-72.74,-76.67],[-73.16,-76.44],[-75.95,-76.56],[-76.31,-76.32],[-77.34,-76.27],[-78.05,-76.46],[-77.72,-76.7],[-78.46,-76.89],[-78.13,-77.13],[-75.53,-77.47],[-75.12,-77.71],[-73.96,-77.75],[-73.51,-77.98],[-74.26,-78.18],[-75.47,-78.14],[-75.88,-77.9],[-79.02,-77.99],[-79.36,-77.75],[-80.49,-77.69],[-81.33,-77.87],[-81.03,-78.11],[-78.31,-78.47],[-77.92,-78.72],[-78.8,-78.9],[-80.05,-78.84],[-80.39,-78.6],[-83.07,-78.22],[-83.97,-78.39],[-83.72,-78.63],[-84.66,-78.8],[-84.42,-79.05],[-81.58,-79.45],[-81.25,-79.69],[-77.59,-79.63],[-77.15,-79.87],[-78.1,-80.06],[-77.66,-80.3],[-76.2,-80.35],[-75.69,-80.59],[-76.69,-80.78],[-76.17,-81.02],[-74.59,-81.07],[-73.99,-81.3],[-69.74,-81.16],[-69.01,-81.39],[-67.33,-81.4],[-66.51,-81.63],[-67.42,-81.84],[-66.56,-82.07],[-67.52,-82.28],[-63.66,-82.73],[-64.63,-82.95],[-63.54,-83.16],[-64.57,-83.38],[-63.4,-83.6],[-57.51,-83.77],[-56.66,-83.54],[-58.03,-83.34],[-57.22,-83.11],[-55.14,-83.07],[-54.45,-82.83],[-55.74,-82.64],[-55.08,-82.4],[-53.19,-82.35],[-52.62,-82.11],[-53.85,-81.92],[-58.14,-82.24],[-59.25,-82.03]],[[-60.81,-82.49],[-58.89,-82.47],[-57.71,-82.67],[-58.48,-82.9],[-60.53,-82.93],[-61.67,-82.72],[-60.81,-82.49]]],[[[-53.42,49.77],[-53.79,49.78],[-54.01,49.58],[-53.85,49.37],[-53.48,49.36],[-53.27,49.56],[-53.42,49.77]]],[[[-174.66,-84.13],[-175.53,-84.35],[-173.98,-84.52],[-171.53,-84.47],[-170.8,-84.24],[-174.66,-84.13]]],[[[167.56,54.31],[168.53,54.61],[168.67,54.82],[167.72,55.13],[166.61,55.22],[166.34,55.39],[166.48,55.6],[166.21,55.77],[165.79,55.72],[165.64,55.51],[165.92,55.34],[165.78,55.12],[166.06,54.96],[165.92,54.74],[167.56,54.31]]],[[[-55.67,49.83],[-55.5,49.62],[-55.13,49.61],[-54.91,49.81],[-55.08,50.03],[-55.46,50.03],[-55.67,49.83]]],[[[160.5,70.96],[159.94,71.14],[155.13,71.33],[154.5,71.49],[152.91,71.04],[152.27,71.19],[152.37,71.45],[151.72,71.6],[151.8,71.86],[151.13,72.01],[151.22,72.26],[150.52,72.41],[149.76,72.3],[149.69,72.05],[148.95,71.93],[148.9,71.68],[150.97,71.5],[150.9,71.24],[151.54,71.09],[151.46,70.84],[152.09,70.68],[154.14,70.73],[154.26,70.98],[155.0,71.07],[155.6,70.91],[159.0,70.82],[159.56,70.64],[159.38,70.39],[159.93,70.22],[159.75,69.97],[160.28,69.79],[160.1,69.55],[160.62,69.37],[161.32,69.43],[161.51,69.68],[160.99,69.86],[161.19,70.11],[160.66,70.29],[160.85,70.53],[162.87,70.48],[163.1,70.72],[162.57,70.91],[162.8,71.15],[162.25,71.34],[160.5,70.96]]],[[[-158.17,62.98],[-158.21,63.2],[-157.79,63.34],[-157.82,63.57],[-158.3,63.65],[-158.73,63.51],[-158.68,63.28],[-160.0,63.07],[-159.94,62.85],[-160.35,62.7],[-160.3,62.48],[-159.83,62.4],[-159.06,62.92],[-158.17,62.98]]],[[[-81.66,-73.08],[-82.28,-73.26],[-82.08,-73.5],[-82.71,-73.68],[-83.55,-73.61],[-83.73,-73.37],[-84.54,-73.29],[-84.7,-73.05],[-86.93,-73.05],[-87.06,-72.81],[-87.82,-72.73],[-87.93,-72.48],[-88.68,-72.39],[-89.33,-72.55],[-89.24,-72.79],[-87.59,-73.21],[-87.47,-73.46],[-85.19,-73.46],[-85.03,-73.7],[-84.2,-73.78],[-84.02,-74.02],[-83.17,-74.09],[-82.51,-73.92],[-81.65,-73.99],[-81.02,-73.81],[-81.24,-73.57],[-80.62,-73.39],[-79.78,-73.45],[-79.54,-73.69],[-77.22,-73.6],[-76.93,-73.84],[-76.05,-73.88],[-75.48,-73.69],[-74.6,-73.72],[-74.28,-73.96],[-73.38,-73.99],[-72.83,-73.79],[-73.17,-73.56],[-72.64,-73.35],[-70.52,-73.63],[-70.02,-73.42],[-67.79,-73.23],[-67.33,-73.01],[-68.96,-72.56],[-68.51,-72.34],[-66.44,-72.58],[-66.02,-72.36],[-66.42,-72.14],[-66.01,-71.92],[-67.58,-71.47],[-67.16,-71.26],[-67.53,-71.04],[-67.13,-70.82],[-67.49,-70.6],[-67.09,-70.38],[-68.52,-69.94],[-67.03,-69.51],[-67.37,-69.29],[-67.0,-69.08],[-67.33,-68.86],[-66.97,-68.65],[-67.29,-68.43],[-66.94,-68.21],[-67.26,-68.0],[-66.91,-67.78],[-67.23,-67.57],[-66.89,-67.35],[-66.24,-67.35],[-65.91,-67.13],[-66.23,-66.92],[-65.91,-66.7],[-65.28,-66.7],[-64.97,-66.48],[-65.28,-66.27],[-64.07,-65.82],[-65.29,-65.42],[-66.79,-65.64],[-67.11,-65.86],[-66.82,-66.07],[-67.14,-66.28],[-68.7,-66.49],[-69.05,-66.7],[-68.76,-66.91],[-69.11,-67.12],[-69.75,-67.11],[-70.11,-67.32],[-69.83,-67.54],[-70.2,-67.75],[-69.91,-67.97],[-68.23,-67.78],[-67.92,-67.99],[-68.28,-68.21],[-67.97,-68.43],[-68.34,-68.64],[-68.02,-68.86],[-68.4,-69.07],[-71.06,-68.59],[-72.56,-68.98],[-72.28,-69.2],[-72.7,-69.41],[-73.4,-69.38],[-73.84,-69.58],[-75.48,-69.29],[-75.94,-69.48],[-75.69,-69.71],[-76.16,-69.91],[-75.91,-70.14],[-76.39,-70.33],[-76.14,-70.56],[-77.87,-70.9],[-77.64,-71.14],[-76.88,-71.18],[-76.63,-71.42],[-75.87,-71.46],[-75.6,-71.69],[-76.11,-71.89],[-75.84,-72.12],[-73.93,-72.42],[-73.62,-72.66],[-72.79,-72.69],[-72.46,-72.92],[-72.98,-73.12],[-73.83,-73.09],[-74.15,-72.86],[-76.09,-72.55],[-76.64,-72.74],[-76.36,-72.98],[-76.92,-73.17],[-77.76,-73.12],[-78.02,-72.89],[-80.24,-72.97],[-80.46,-72.73],[-81.27,-72.67],[-81.86,-72.84],[-81.66,-73.08]],[[-73.73,-71.99],[-74.53,-71.96],[-74.82,-71.73],[-74.32,-71.53],[-72.29,-71.38],[-71.83,-71.18],[-69.84,-71.01],[-69.42,-70.8],[-68.65,-70.81],[-68.3,-71.03],[-68.73,-71.24],[-68.37,-71.47],[-68.8,-71.68],[-68.44,-71.9],[-68.88,-72.12],[-70.98,-72.3],[-71.32,-72.07],[-70.85,-71.86],[-71.18,-71.63],[-71.97,-71.61],[-73.73,-71.99]],[[-74.02,-70.01],[-73.57,-69.81],[-72.86,-69.84],[-72.57,-70.06],[-73.02,-70.27],[-73.75,-70.24],[-74.02,-70.01]],[[-71.59,-69.23],[-71.18,-69.02],[-70.49,-69.04],[-70.19,-69.26],[-70.59,-69.47],[-70.29,-69.69],[-69.57,-69.71],[-69.25,-69.93],[-69.66,-70.14],[-70.39,-70.12],[-70.7,-69.9],[-71.42,-69.88],[-71.71,-69.66],[-71.3,-69.45],[-71.59,-69.23]],[[-72.73,-70.5],[-71.99,-70.52],[-71.68,-70.75],[-72.13,-70.95],[-72.89,-70.93],[-73.18,-70.7],[-72.73,-70.5]]],[[[170.74,-71.65],[170.53,-71.43],[168.28,-70.82],[168.1,-70.6],[167.07,-70.69],[167.24,-70.92],[168.65,-71.26],[168.85,-71.48],[170.32,-71.81],[170.54,-72.03],[170.11,-72.2],[170.33,-72.42],[169.88,-72.58],[170.1,-72.8],[170.78,-72.85],[171.22,-72.68],[170.99,-72.47],[171.42,-72.3],[171.19,-72.08],[171.6,-71.92],[171.37,-71.7],[170.74,-71.65]]],[[[163.49,-70.26],[161.84,-70.24],[161.73,-70.01],[160.48,-69.61],[160.39,-69.37],[159.35,-69.42],[159.43,-69.65],[160.0,-69.75],[160.09,-69.98],[161.36,-70.39],[161.46,-70.62],[160.97,-70.76],[161.07,-70.99],[162.18,-70.93],[162.06,-70.7],[162.55,-70.56],[163.88,-70.94],[164.35,-70.79],[164.21,-70.56],[164.67,-70.41],[164.53,-70.19],[163.94,-70.11],[163.49,-70.26]]],[[[4.33,52.63],[4.25,52.42],[4.52,52.3],[4.86,52.38],[4.94,52.59],[4.33,52.63]]],[[[45.09,-67.92],[47.57,-67.71],[47.8,-67.92],[47.45,-68.11],[47.68,-68.33],[49.18,-68.17],[49.51,-67.97],[49.27,-67.76],[49.6,-67.56],[49.35,-67.35],[49.67,-67.15],[50.23,-67.17],[50.48,-67.37],[51.05,-67.38],[51.36,-67.18],[51.1,-66.97],[50.54,-66.97],[50.3,-66.76],[50.6,-66.56],[51.99,-66.36],[53.11,-65.95],[52.85,-65.75],[52.31,-65.75],[50.36,-66.35],[48.11,-66.7],[47.79,-66.9],[48.01,-67.11],[48.56,-67.13],[48.79,-67.34],[48.47,-67.53],[46.37,-67.05],[46.03,-67.24],[46.24,-67.45],[45.86,-67.61],[43.32,-67.73],[42.91,-67.88],[43.09,-68.1],[43.69,-68.17],[45.09,-67.92]]],[[[-150.02,61.64],[-149.99,61.85],[-150.39,61.96],[-150.82,61.84],[-150.85,61.62],[-150.45,61.52],[-150.48,61.3],[-151.71,61.17],[-151.73,60.95],[-152.14,60.84],[-152.15,60.62],[-152.56,60.5],[-152.57,60.28],[-153.36,59.83],[-153.37,59.61],[-154.14,59.58],[-154.89,59.11],[-154.88,58.9],[-153.75,58.86],[-154.12,58.31],[-154.86,58.27],[-155.22,58.14],[-155.21,57.94],[-156.29,57.76],[-156.28,57.55],[-156.95,57.08],[-156.93,56.88],[-157.97,56.69],[-158.24,56.14],[-158.93,56.08],[-159.25,55.94],[-159.21,55.74],[-157.85,55.87],[-157.58,56.41],[-156.55,56.6],[-156.24,57.14],[-155.56,57.6],[-154.46,56.95],[-154.46,56.74],[-155.13,56.29],[-155.12,56.09],[-154.78,56.01],[-154.1,56.46],[-153.41,56.5],[-153.06,57.02],[-152.0,57.17],[-151.99,57.38],[-151.63,57.49],[-151.61,57.7],[-151.96,57.79],[-151.95,57.99],[-151.58,58.11],[-151.56,58.32],[-151.92,58.41],[-151.9,58.62],[-151.52,58.73],[-151.51,58.94],[-150.38,59.08],[-150.35,59.29],[-149.96,59.4],[-149.2,59.41],[-149.17,59.62],[-148.77,59.73],[-147.65,59.63],[-146.79,60.04],[-145.27,60.02],[-144.66,59.59],[-143.77,59.98],[-143.19,59.55],[-139.88,59.49],[-139.58,59.37],[-139.68,59.17],[-139.41,59.0],[-138.39,58.87],[-137.97,58.32],[-136.96,58.18],[-136.84,58.38],[-137.74,58.72],[-137.62,58.91],[-137.89,59.09],[-138.92,59.22],[-139.36,59.77],[-139.25,59.97],[-139.56,60.09],[-140.5,59.73],[-141.03,60.18],[-144.45,60.21],[-145.07,60.65],[-145.84,60.66],[-145.78,60.87],[-146.14,60.98],[-146.07,61.2],[-146.44,61.31],[-147.35,60.89],[-147.72,61.0],[-147.67,61.21],[-148.47,61.21],[-148.98,60.68],[-148.6,60.57],[-148.65,60.36],[-148.28,60.26],[-148.32,60.05],[-149.86,60.03],[-151.1,59.27],[-151.47,59.36],[-151.04,59.9],[-151.41,60.0],[-151.4,60.21],[-150.56,60.66],[-150.53,60.87],[-149.32,61.0],[-149.28,61.21],[-149.67,61.32],[-149.63,61.53],[-150.02,61.64]],[[-153.39,57.93],[-152.67,57.96],[-152.68,57.76],[-152.32,57.67],[-152.34,57.46],[-153.05,57.43],[-153.76,56.99],[-154.47,57.36],[-154.47,57.56],[-153.4,57.73],[-153.39,57.93]],[[-152.23,59.34],[-152.99,59.31],[-152.98,59.52],[-152.6,59.64],[-152.22,59.55],[-152.23,59.34]]],[[[170.2,-77.61],[170.81,-77.44],[170.38,-77.26],[168.85,-77.38],[169.14,-77.6],[170.2,-77.61]]],[[[28.18,-70.78],[28.82,-70.9],[29.43,-70.78],[29.39,-70.54],[29.98,-70.42],[30.62,-70.54],[32.42,-70.39],[32.34,-70.16],[31.71,-70.05],[29.94,-70.18],[28.66,-69.71],[28.08,-69.82],[28.11,-70.06],[28.72,-70.18],[28.76,-70.42],[28.15,-70.54],[26.9,-70.05],[25.07,-70.14],[25.06,-70.38],[25.67,-70.51],[26.91,-70.53],[26.92,-70.77],[26.3,-70.88],[25.03,-70.86],[23.82,-70.34],[21.94,-70.4],[21.35,-70.25],[19.97,-70.68],[19.38,-70.53],[19.47,-70.28],[18.9,-70.13],[17.46,-70.54],[16.89,-70.37],[17.01,-70.13],[16.46,-69.97],[16.58,-69.73],[16.04,-69.57],[15.39,-69.64],[15.25,-69.88],[15.79,-70.05],[15.66,-70.29],[13.74,-70.25],[13.22,-70.08],[13.38,-69.84],[12.86,-69.67],[12.18,-69.73],[12.01,-69.97],[12.53,-70.14],[12.35,-70.38],[11.65,-70.44],[11.13,-70.26],[11.32,-70.03],[10.81,-69.84],[10.12,-69.9],[9.92,-70.13],[8.02,-70.04],[7.79,-70.27],[7.07,-70.32],[5.41,-69.96],[3.7,-70.25],[3.25,-70.05],[1.38,-69.89],[0.01,-70.35],[0.43,-70.56],[2.23,-70.3],[2.67,-70.51],[2.37,-70.73],[0.53,-71.0],[0.19,-71.22],[-1.78,-71.02],[-2.19,-70.81],[-1.83,-70.59],[-2.22,-70.37],[-4.09,-70.15],[-4.47,-70.37],[-4.1,-70.59],[-4.48,-70.8],[-4.1,-71.02],[-4.5,-71.24],[-5.28,-71.23],[-5.66,-71.01],[-5.25,-70.79],[-5.61,-70.57],[-6.37,-70.56],[-7.98,-70.96],[-7.64,-71.19],[-8.08,-71.4],[-8.87,-71.38],[-9.33,-71.58],[-8.99,-71.81],[-8.18,-71.84],[-6.49,-71.43],[-5.7,-71.45],[-5.32,-71.67],[-3.32,-71.47],[-1.69,-71.9],[-0.88,-71.89],[-0.51,-71.67],[2.51,-71.17],[2.82,-70.94],[3.57,-70.91],[4.04,-71.11],[5.83,-70.82],[6.31,-71.01],[7.06,-70.97],[7.31,-70.74],[9.28,-70.84],[9.5,-70.6],[10.22,-70.55],[10.74,-70.73],[10.53,-70.97],[11.07,-71.15],[11.8,-71.1],[11.99,-70.86],[13.97,-70.9],[14.13,-70.67],[14.83,-70.6],[19.2,-71.01],[26.94,-71.25],[28.18,-70.78]]],[[[162.22,-80.21],[163.15,-80.05],[162.76,-79.85],[161.47,-79.81],[161.13,-79.6],[162.02,-79.45],[161.67,-79.25],[167.68,-78.85],[168.4,-78.68],[167.97,-78.49],[168.67,-78.32],[168.24,-78.13],[168.91,-77.96],[167.54,-77.72],[167.28,-77.5],[167.93,-77.33],[167.67,-77.11],[166.77,-77.06],[166.11,-77.22],[166.35,-77.45],[165.67,-77.61],[163.61,-77.26],[162.9,-77.42],[163.09,-77.64],[164.02,-77.71],[164.24,-77.94],[163.49,-78.1],[163.71,-78.32],[164.69,-78.38],[164.93,-78.61],[160.45,-78.95],[160.62,-79.17],[159.72,-79.33],[159.89,-79.55],[158.95,-79.71],[159.25,-79.91],[160.54,-79.96],[160.89,-80.17],[157.54,-80.41],[157.84,-80.62],[159.22,-80.68],[159.56,-80.89],[161.0,-80.94],[162.03,-80.78],[161.63,-80.58],[162.61,-80.42],[162.22,-80.21]]],[[[174.07,52.18],[174.24,52.4],[174.0,52.59],[174.16,52.8],[173.92,52.99],[172.87,53.13],[172.62,53.32],[172.22,53.29],[172.06,53.08],[172.31,52.89],[172.15,52.68],[172.4,52.49],[174.07,52.18]]],[[[115.67,-66.38],[114.15,-66.12],[113.78,-66.32],[114.95,-66.8],[113.55,-67.2],[113.82,-67.43],[114.48,-67.45],[114.86,-67.24],[116.46,-67.5],[116.82,-67.28],[118.47,-67.08],[119.75,-67.52],[120.41,-67.52],[120.73,-67.3],[123.27,-66.82],[123.56,-66.59],[123.22,-66.38],[122.59,-66.4],[121.36,-66.85],[119.77,-66.65],[119.45,-66.87],[118.8,-66.86],[118.5,-66.64],[117.86,-66.64],[117.52,-66.85],[116.88,-66.85],[115.67,-66.38]]],[[[124.46,-66.35],[124.18,-66.57],[124.53,-66.78],[126.05,-66.51],[126.41,-66.71],[126.14,-66.94],[126.51,-67.14],[127.14,-67.11],[127.52,-67.31],[128.15,-67.28],[128.4,-67.05],[128.02,-66.85],[127.4,-66.88],[127.03,-66.68],[127.28,-66.45],[125.95,-66.07],[124.46,-66.35]]],[[[132.48,-66.32],[132.88,-66.5],[133.48,-66.45],[133.66,-66.21],[134.24,-66.15],[134.42,-65.92],[134.02,-65.73],[132.68,-66.08],[132.29,-65.89],[131.7,-65.94],[131.5,-66.18],[131.89,-66.37],[132.48,-66.32]]],[[[39.53,-70.12],[39.37,-69.89],[39.85,-69.75],[39.69,-69.52],[40.17,-69.37],[40.01,-69.15],[41.54,-68.92],[41.37,-68.7],[42.85,-68.47],[42.67,-68.25],[41.04,-68.25],[40.6,-68.4],[40.76,-68.63],[40.31,-68.77],[39.23,-68.84],[39.38,-69.07],[38.91,-69.21],[39.06,-69.44],[37.44,-69.64],[35.67,-69.59],[35.56,-69.36],[34.94,-69.27],[34.83,-69.03],[33.54,-68.6],[31.92,-68.75],[31.98,-68.98],[32.58,-69.09],[33.71,-69.07],[33.8,-69.3],[35.15,-69.73],[35.26,-69.96],[35.9,-70.06],[37.58,-69.87],[38.22,-69.96],[38.37,-70.19],[39.53,-70.12]]],[[[163.36,-67.09],[163.76,-66.95],[163.65,-66.72],[162.55,-66.32],[162.15,-66.46],[162.25,-66.69],[162.75,-66.78],[162.85,-67.01],[163.36,-67.09]]],[[[129.94,72.14],[130.54,72.32],[130.33,72.57],[130.94,72.74],[130.73,72.99],[128.79,73.38],[128.54,73.62],[127.65,73.68],[127.38,73.93],[126.48,73.98],[126.18,74.23],[125.26,74.28],[124.65,74.08],[122.45,74.4],[121.88,74.2],[122.24,73.96],[121.68,73.76],[122.03,73.52],[121.49,73.32],[120.61,73.35],[120.24,73.58],[119.35,73.61],[118.96,73.84],[116.71,74.1],[116.27,74.33],[116.77,74.54],[116.32,74.77],[115.36,74.78],[114.87,74.56],[115.33,74.33],[114.86,74.12],[115.31,73.89],[114.85,73.67],[115.29,73.45],[117.55,73.65],[117.95,73.42],[118.84,73.4],[119.22,73.17],[121.31,72.88],[123.25,73.25],[122.92,73.49],[123.48,73.69],[125.57,73.35],[126.16,73.55],[127.04,73.49],[127.31,73.25],[129.27,72.88],[129.5,72.63],[128.9,72.45],[129.13,72.2],[128.55,72.02],[128.78,71.77],[129.57,71.71],[129.78,71.46],[129.22,71.28],[129.43,71.03],[131.13,70.65],[131.69,70.82],[131.51,71.07],[132.09,71.24],[131.91,71.49],[132.51,71.67],[134.2,71.25],[134.81,71.42],[139.72,71.5],[140.39,71.65],[140.32,71.9],[139.57,72.01],[139.48,72.27],[141.65,72.45],[141.6,72.7],[142.32,72.84],[143.1,72.73],[143.84,72.86],[143.81,73.12],[144.58,73.25],[144.57,73.51],[143.77,73.63],[143.74,73.89],[142.92,74.01],[142.88,74.27],[142.03,74.39],[141.98,74.65],[144.5,74.8],[144.49,75.06],[145.36,75.19],[146.22,75.06],[146.21,74.8],[147.04,74.66],[147.91,74.78],[147.95,75.04],[147.1,75.18],[147.13,75.44],[148.04,75.56],[148.09,75.81],[145.36,75.96],[144.45,75.83],[144.46,75.57],[143.58,75.44],[143.61,75.18],[139.32,74.98],[137.34,75.44],[137.2,75.69],[138.04,75.85],[137.9,76.11],[138.77,76.26],[139.75,76.15],[139.85,75.9],[142.62,75.82],[143.52,75.95],[143.49,76.21],[142.53,76.33],[142.47,76.59],[137.63,76.62],[136.75,76.46],[136.91,76.2],[136.07,76.04],[135.07,76.13],[134.25,75.97],[134.45,75.71],[135.42,75.63],[135.59,75.37],[136.54,75.28],[136.69,75.02],[137.61,74.93],[137.74,74.67],[139.6,74.21],[139.69,73.95],[138.94,73.8],[139.04,73.55],[138.31,73.39],[138.41,73.14],[139.22,73.03],[139.31,72.78],[138.61,72.63],[138.71,72.37],[138.03,72.22],[138.13,71.96],[137.47,71.81],[136.71,71.9],[134.67,71.67],[132.95,72.09],[130.94,71.82],[130.15,71.89],[129.94,72.14]],[[140.61,73.59],[140.53,73.84],[141.3,73.99],[142.14,73.87],[142.19,73.62],[141.43,73.47],[140.61,73.59]]],[[[138.71,56.92],[137.94,56.87],[137.99,56.64],[137.35,56.14],[137.41,55.91],[138.15,55.95],[138.1,56.18],[138.76,56.69],[138.71,56.92]]],[[[137.03,54.5],[136.7,54.37],[136.76,54.14],[136.44,54.01],[136.5,53.78],[136.88,53.7],[137.46,54.19],[137.84,54.1],[137.9,53.88],[137.57,53.74],[137.62,53.52],[138.0,53.43],[138.6,53.92],[138.55,54.14],[139.59,54.31],[139.97,54.21],[140.0,53.99],[141.17,53.25],[141.19,53.03],[140.87,52.91],[141.27,52.37],[141.62,52.27],[142.26,52.73],[141.86,53.27],[142.19,53.39],[142.17,53.62],[141.11,53.7],[141.08,53.92],[139.89,54.66],[139.85,54.89],[139.47,54.99],[138.84,54.5],[138.46,54.59],[138.41,54.82],[138.74,54.95],[138.7,55.18],[138.31,55.27],[138.26,55.5],[137.13,55.54],[137.07,55.77],[136.66,55.86],[136.33,55.72],[136.39,55.49],[135.33,55.29],[135.4,55.07],[135.08,54.93],[135.15,54.7],[136.58,54.81],[136.97,54.73],[137.03,54.5]],[[137.24,55.09],[137.58,55.23],[137.97,55.14],[138.02,54.91],[137.3,54.86],[137.24,55.09]]],[[[169.42,59.91],[170.67,59.79],[170.88,60.0],[169.81,60.35],[170.02,60.57],[169.72,60.76],[169.22,60.72],[168.92,60.91],[167.05,60.34],[165.92,60.66],[165.43,60.61],[165.26,60.38],[165.58,60.2],[165.42,59.98],[163.31,60.17],[163.16,59.94],[164.3,59.65],[164.15,59.42],[162.87,59.48],[162.73,59.25],[163.06,59.08],[162.92,58.85],[162.46,58.79],[161.74,58.28],[162.06,58.11],[161.93,57.89],[163.01,57.62],[162.87,57.39],[162.43,57.33],[162.31,57.11],[162.61,56.95],[162.49,56.72],[163.94,56.51],[164.08,56.73],[163.78,56.89],[163.05,57.0],[163.76,57.51],[163.45,57.67],[163.59,57.9],[162.51,58.17],[162.65,58.4],[163.87,58.35],[164.63,58.85],[165.09,58.9],[165.25,59.12],[164.94,59.3],[165.09,59.52],[166.36,59.44],[166.53,59.67],[168.34,60.24],[168.53,60.46],[169.02,60.5],[169.32,60.31],[169.13,60.09],[169.42,59.91]]],[[[-122.89,49.26],[-123.22,49.3],[-123.3,49.5],[-123.87,49.37],[-123.38,48.94],[-123.06,48.9],[-122.81,49.06],[-122.89,49.26]]],[[[180.0,52.34],[179.05,52.14],[178.83,52.34],[178.44,52.33],[178.26,52.13],[177.87,52.12],[177.64,52.32],[177.25,52.31],[177.08,52.1],[177.3,51.9],[177.13,51.69],[177.36,51.5],[178.31,51.72],[178.53,51.52],[179.52,51.33],[179.69,51.53],[179.48,51.73],[179.66,51.94],[180.0,51.94],[180.0,52.34]]],[[[-180.0,51.94],[-179.77,52.14],[-179.99,52.35],[-180.0,51.94]]],[[[132.69,81.92],[132.29,82.17],[133.7,82.34],[133.32,82.58],[131.43,82.66],[130.95,82.9],[132.47,83.08],[132.0,83.32],[129.89,83.39],[129.3,83.63],[130.95,83.81],[130.36,84.06],[132.16,84.23],[131.58,84.48],[129.03,84.54],[128.27,84.78],[130.26,84.96],[129.5,85.2],[122.36,85.53],[120.47,85.33],[117.39,85.34],[115.91,85.56],[117.69,85.77],[116.07,85.99],[112.49,85.99],[110.9,85.76],[112.68,85.55],[111.22,85.33],[112.83,85.12],[111.49,84.9],[112.96,84.69],[111.72,84.46],[109.14,84.44],[108.1,84.21],[109.52,84.01],[108.53,83.78],[109.84,83.57],[108.91,83.34],[110.13,83.14],[109.25,82.91],[110.38,82.7],[109.54,82.47],[107.64,82.44],[106.91,82.21],[108.01,82.01],[107.3,81.77],[108.33,81.57],[107.66,81.34],[108.63,81.14],[107.98,80.9],[108.9,80.7],[108.27,80.47],[111.44,80.07],[110.79,79.84],[111.57,79.63],[110.94,79.4],[111.68,79.19],[111.08,78.96],[111.79,78.75],[113.08,78.76],[113.74,78.54],[113.13,78.32],[115.59,77.88],[114.98,77.66],[115.55,77.43],[114.96,77.21],[115.51,76.99],[114.94,76.77],[115.48,76.55],[116.57,76.54],[117.07,76.31],[116.5,76.1],[116.99,75.87],[118.03,75.86],[118.48,75.63],[120.93,75.35],[123.19,75.72],[124.21,75.68],[124.88,75.88],[124.52,76.12],[125.21,76.31],[126.27,76.27],[126.99,76.46],[126.66,76.7],[127.41,76.89],[127.07,77.14],[129.81,77.45],[129.5,77.7],[130.36,77.88],[130.05,78.13],[130.94,78.31],[130.63,78.55],[131.57,78.73],[131.27,78.98],[132.25,79.16],[131.95,79.41],[130.61,79.48],[130.25,79.73],[131.3,79.91],[130.94,80.15],[132.04,80.33],[131.7,80.58],[132.86,80.75],[132.52,81.0],[133.75,81.17],[133.41,81.42],[131.78,81.5],[131.37,81.74],[132.69,81.92]]],[[[163.91,-76.65],[162.36,-76.73],[162.53,-76.96],[163.42,-77.03],[164.11,-76.87],[163.91,-76.65]]],[[[156.04,-68.81],[155.5,-68.71],[155.47,-68.47],[154.39,-68.01],[152.87,-68.14],[152.87,-68.38],[152.36,-68.49],[151.31,-68.49],[151.3,-68.73],[151.83,-68.85],[154.46,-68.72],[155.58,-69.18],[156.08,-69.05],[156.04,-68.81]]],[[[128.61,40.19],[129.03,40.21],[129.01,40.43],[128.79,40.53],[128.61,40.19]]],[[[157.61,51.17],[158.93,51.84],[159.03,52.07],[158.75,52.23],[158.86,52.46],[158.58,52.61],[158.19,52.54],[158.1,52.31],[158.38,52.16],[158.28,51.93],[156.97,51.25],[156.5,51.78],[156.59,52.01],[155.94,52.08],[155.85,51.85],[156.32,51.32],[156.23,51.09],[155.59,51.16],[155.23,51.08],[155.14,50.85],[155.42,50.7],[155.34,50.47],[155.8,49.93],[157.06,50.63],[157.15,50.86],[157.52,50.94],[157.61,51.17]]],[[[165.78,-73.66],[165.96,-73.89],[166.69,-73.95],[167.93,-73.85],[168.43,-73.68],[168.22,-73.46],[168.7,-73.3],[169.4,-73.35],[169.63,-73.57],[169.14,-73.74],[169.37,-73.96],[170.1,-74.01],[170.58,-73.84],[170.34,-73.62],[170.8,-73.45],[170.56,-73.24],[168.96,-72.91],[167.31,-73.18],[167.51,-73.4],[167.01,-73.56],[165.78,-73.66]]],[[[-167.07,53.43],[-167.23,53.64],[-167.01,53.81],[-166.12,53.51],[-165.84,54.06],[-164.96,53.76],[-164.68,54.3],[-163.51,54.52],[-163.15,54.47],[-163.01,54.26],[-162.07,54.3],[-161.76,54.83],[-160.43,54.99],[-159.69,54.67],[-158.72,54.87],[-159.14,55.34],[-159.89,55.67],[-160.48,55.19],[-161.25,55.51],[-161.81,55.03],[-162.84,55.0],[-164.24,54.62],[-165.12,54.93],[-165.41,54.39],[-168.72,53.79],[-168.98,53.23],[-170.51,52.97],[-171.87,52.48],[-172.81,52.74],[-173.01,52.55],[-172.83,52.34],[-173.03,52.15],[-173.97,52.4],[-174.16,52.61],[-175.12,52.45],[-175.32,52.26],[-176.28,52.49],[-177.62,51.92],[-178.6,52.14],[-178.78,51.94],[-179.17,51.94],[-179.35,51.74],[-179.14,51.53],[-179.32,51.33],[-179.12,51.13],[-178.73,51.13],[-177.42,51.72],[-176.45,51.49],[-175.12,52.05],[-174.74,52.04],[-174.55,51.83],[-173.6,51.99],[-173.42,51.78],[-173.04,51.75],[-172.84,51.94],[-172.47,51.92],[-169.97,52.73],[-169.59,52.7],[-169.43,52.49],[-168.48,52.6],[-168.23,53.16],[-167.86,53.12],[-167.07,53.43]]],[[[-63.22,44.28],[-63.07,44.49],[-63.26,44.68],[-63.6,44.66],[-63.75,44.45],[-63.56,44.26],[-63.22,44.28]]],[[[154.22,49.13],[154.49,48.98],[154.84,49.06],[155.36,49.61],[155.09,49.77],[154.11,49.75],[154.03,49.52],[154.3,49.37],[154.22,49.13]]],[[[1.31,51.98],[0.98,51.93],[0.92,51.71],[1.51,51.61],[1.57,51.82],[1.31,51.98]]],[[[74.64,-70.03],[75.31,-69.95],[75.86,-70.11],[76.52,-70.03],[76.63,-69.79],[73.71,-69.46],[72.25,-69.84],[72.1,-70.08],[71.43,-70.14],[71.26,-70.38],[71.79,-70.56],[72.47,-70.49],[72.62,-70.25],[73.3,-70.18],[73.44,-69.94],[74.1,-69.86],[74.64,-70.03]]],[[[79.51,-68.43],[80.78,-67.98],[81.32,-68.13],[81.92,-68.02],[81.96,-67.77],[81.42,-67.63],[79.7,-67.69],[79.64,-67.94],[79.04,-68.03],[78.97,-68.28],[79.51,-68.43]]],[[[164.66,-74.81],[166.55,-74.56],[166.35,-74.33],[164.7,-73.98],[164.14,-74.13],[164.31,-74.36],[163.73,-74.52],[162.39,-74.6],[162.54,-74.83],[161.92,-74.98],[162.07,-75.21],[161.43,-75.36],[161.57,-75.59],[162.38,-75.67],[162.54,-75.9],[161.87,-76.05],[162.03,-76.28],[162.87,-76.35],[163.54,-76.19],[163.36,-75.97],[164.0,-75.81],[163.81,-75.58],[163.02,-75.51],[162.85,-75.28],[164.25,-75.2],[164.84,-75.04],[164.66,-74.81]]],[[[-170.55,-84.86],[-159.15,-85.12],[-156.65,-85.01],[-156.52,-84.77],[-161.04,-84.75],[-163.06,-84.62],[-162.66,-84.38],[-164.51,-84.24],[-169.81,-84.63],[-170.55,-84.86]]],[[[32.82,-69.79],[33.36,-69.66],[33.27,-69.43],[32.12,-69.45],[32.19,-69.69],[32.82,-69.79]]],[[[151.18,76.67],[151.29,76.92],[150.36,77.07],[149.32,76.96],[148.36,77.1],[147.35,76.98],[147.31,76.73],[148.25,76.59],[148.2,76.33],[149.1,76.19],[150.08,76.3],[150.17,76.56],[151.18,76.67]]],[[[-9.69,70.62],[-9.09,70.67],[-8.88,70.89],[-7.28,70.82],[-7.05,71.03],[-7.43,71.2],[-7.2,71.41],[-7.59,71.58],[-8.22,71.53],[-8.44,71.32],[-9.89,71.0],[-10.09,70.78],[-9.69,70.62]]],[[[-48.73,-78.98],[-48.43,-78.73],[-49.37,-78.55],[-50.62,-78.62],[-50.97,-78.87],[-50.03,-79.05],[-48.73,-78.98]]],[[[131.69,42.69],[132.6,42.73],[133.08,42.3],[133.31,42.42],[133.06,42.97],[132.82,43.08],[131.9,43.03],[131.68,42.91],[131.69,42.69]]],[[[153.81,76.2],[153.97,76.46],[153.09,76.61],[152.07,76.51],[151.95,76.26],[152.81,76.1],[153.81,76.2]]],[[[138.66,-66.77],[144.76,-67.21],[145.3,-67.11],[145.37,-66.87],[138.36,-66.36],[135.97,-65.97],[135.4,-66.04],[135.23,-66.28],[135.64,-66.45],[136.22,-66.39],[138.66,-66.77]]],[[[158.79,-69.32],[158.72,-69.09],[158.17,-68.99],[156.63,-69.16],[156.68,-69.39],[157.24,-69.5],[158.79,-69.32]]],[[[-156.12,55.71],[-155.45,55.76],[-155.46,55.96],[-155.81,56.04],[-156.14,55.91],[-156.12,55.71]]],[[[-45.36,-80.42],[-46.51,-80.25],[-47.96,-80.33],[-48.3,-80.58],[-47.14,-80.75],[-45.64,-80.67],[-45.36,-80.42]]],[[[-160.02,56.28],[-160.07,56.48],[-159.04,56.69],[-159.08,56.9],[-160.49,56.75],[-160.44,56.55],[-161.04,56.06],[-160.98,55.86],[-160.62,55.79],[-160.02,56.28]]],[[[69.47,-71.86],[69.27,-72.09],[68.52,-72.14],[67.99,-71.96],[68.21,-71.73],[68.94,-71.68],[69.14,-71.44],[68.62,-71.26],[67.9,-71.32],[67.69,-71.55],[66.97,-71.59],[66.74,-71.82],[67.25,-72.01],[67.03,-72.24],[66.27,-72.28],[66.03,-72.51],[66.56,-72.7],[66.31,-72.92],[66.85,-73.11],[66.6,-73.34],[67.16,-73.52],[67.96,-73.48],[68.19,-73.25],[68.99,-73.2],[69.2,-72.97],[68.64,-72.79],[68.85,-72.56],[69.62,-72.5],[69.82,-72.27],[71.49,-71.92],[71.66,-71.68],[71.11,-71.51],[69.47,-71.86]]],[[[134.47,42.8],[134.47,43.02],[134.0,43.01],[134.0,42.78],[134.24,42.68],[134.47,42.8]]],[[[143.01,56.72],[143.03,56.49],[143.8,56.5],[143.78,56.73],[143.39,56.84],[143.01,56.72]]],[[[69.39,-70.33],[68.9,-70.15],[69.08,-69.91],[69.75,-69.85],[69.92,-69.62],[70.58,-69.56],[70.75,-69.32],[70.26,-69.14],[70.43,-68.9],[69.96,-68.73],[69.32,-68.79],[69.15,-69.02],[69.62,-69.2],[69.44,-69.44],[67.94,-69.78],[67.74,-70.02],[67.07,-70.07],[66.86,-70.3],[68.51,-70.62],[68.31,-70.85],[68.82,-71.03],[69.52,-70.98],[69.71,-70.74],[69.2,-70.56],[69.39,-70.33]]],[[[85.97,-67.47],[87.09,-66.96],[88.78,-67.08],[90.44,-66.92],[90.4,-66.67],[89.82,-66.56],[88.18,-66.71],[85.43,-66.58],[84.3,-67.07],[83.75,-66.93],[83.19,-67.05],[83.16,-67.3],[82.58,-67.41],[82.55,-67.66],[83.1,-67.8],[83.69,-67.69],[83.71,-67.44],[84.28,-67.32],[85.97,-67.47]]],[[[161.58,54.36],[161.86,54.2],[162.79,54.54],[162.91,54.76],[162.63,54.92],[162.75,55.14],[161.35,55.34],[161.24,55.12],[162.22,54.86],[162.1,54.64],[161.01,54.68],[160.89,54.46],[161.58,54.36]]],[[[64.45,-67.65],[67.96,-68.25],[69.37,-67.9],[69.82,-68.07],[70.44,-68.01],[70.59,-67.77],[69.1,-67.48],[67.71,-67.83],[64.27,-67.23],[63.67,-67.27],[63.46,-67.5],[63.85,-67.69],[64.45,-67.65]]],[[[-66.46,45.27],[-67.77,44.73],[-68.85,43.99],[-69.74,44.1],[-70.32,43.61],[-70.11,43.43],[-69.77,43.47],[-69.65,43.69],[-68.77,43.59],[-67.7,44.32],[-66.88,44.61],[-66.68,44.42],[-66.75,43.8],[-66.55,43.61],[-66.22,43.64],[-66.13,44.26],[-63.82,45.26],[-63.67,45.48],[-63.86,45.67],[-64.72,45.41],[-64.91,45.6],[-65.26,45.57],[-65.41,45.35],[-66.31,45.49],[-66.46,45.27]]],[[[23.36,65.61],[23.26,65.4],[24.34,65.2],[24.78,65.28],[24.89,65.49],[23.36,65.61]]],[[[142.04,58.58],[142.02,58.82],[143.25,58.96],[143.23,59.2],[143.65,59.33],[145.33,59.34],[146.16,58.86],[147.02,59.33],[147.03,59.57],[143.2,59.68],[142.78,59.55],[142.8,59.31],[141.56,59.16],[141.59,58.93],[141.19,58.79],[141.22,58.56],[140.48,58.06],[140.52,57.82],[141.32,57.85],[141.29,58.09],[141.68,58.22],[141.65,58.45],[142.04,58.58]]],[[[128.2,40.16],[128.0,40.04],[128.24,39.73],[128.42,40.07],[128.2,40.16]]],[[[-54.81,50.65],[-55.54,51.09],[-55.93,51.1],[-56.14,50.89],[-55.41,50.46],[-55.03,50.45],[-54.81,50.65]]],[[[143.97,52.65],[143.62,52.76],[143.61,52.98],[143.95,53.09],[143.94,53.31],[143.22,53.75],[143.2,53.98],[143.55,54.09],[143.54,54.32],[143.17,54.43],[143.16,54.65],[142.43,54.64],[142.45,54.41],[142.11,54.29],[142.13,54.06],[143.24,53.3],[143.26,53.08],[142.92,52.96],[142.94,52.74],[143.29,52.64],[142.98,52.08],[143.65,52.1],[143.97,52.65]]],[[[-20.57,74.27],[-21.94,74.33],[-22.02,74.09],[-21.39,73.95],[-21.48,73.72],[-20.87,73.57],[-20.17,73.66],[-20.06,73.89],[-20.67,74.04],[-20.57,74.27]]],[[[28.32,60.71],[27.92,60.65],[27.8,60.44],[28.46,60.33],[28.59,60.55],[28.32,60.71]]],[[[158.68,52.84],[159.73,52.82],[159.83,53.05],[160.22,53.12],[160.33,53.34],[160.05,53.5],[160.67,54.01],[160.38,54.17],[160.49,54.39],[159.81,54.48],[159.7,54.26],[159.99,54.1],[159.38,53.59],[159.66,53.43],[159.55,53.21],[158.5,53.22],[158.39,53.0],[158.68,52.84]]],[[[136.07,74.61],[135.32,74.45],[135.48,74.19],[134.76,74.03],[134.92,73.77],[135.78,73.68],[136.5,73.85],[136.36,74.1],[137.1,74.26],[136.97,74.51],[136.07,74.61]]],[[[-62.42,-64.5],[-62.73,-64.3],[-64.15,-64.55],[-64.43,-64.77],[-64.12,-64.97],[-64.41,-65.19],[-64.1,-65.4],[-62.63,-65.15],[-62.31,-65.35],[-61.71,-65.33],[-61.45,-65.11],[-61.78,-64.9],[-62.36,-64.93],[-62.68,-64.72],[-62.42,-64.5]]],[[[-173.36,60.2],[-173.83,60.23],[-174.13,60.05],[-173.97,59.84],[-173.5,59.81],[-171.64,60.29],[-172.41,60.75],[-173.53,61.02],[-173.85,60.84],[-173.68,60.63],[-173.21,60.6],[-173.05,60.39],[-173.36,60.2]]],[[[-0.28,54.19],[-0.35,53.97],[-0.06,53.81],[-0.13,53.6],[0.36,53.06],[0.3,52.85],[0.91,52.74],[0.97,52.95],[0.49,53.49],[0.56,53.71],[0.28,53.87],[0.34,54.08],[-0.28,54.19]]],[[[130.2,41.6],[130.37,42.17],[130.15,42.26],[129.56,41.45],[130.04,40.82],[130.25,40.94],[130.23,41.16],[129.99,41.48],[130.2,41.6]]],[[[164.29,-82.39],[163.74,-82.18],[164.88,-82.01],[164.34,-81.81],[162.73,-81.77],[161.57,-81.93],[162.04,-82.14],[160.81,-82.3],[161.29,-82.51],[163.07,-82.56],[164.29,-82.39]]],[[[-123.54,48.58],[-123.79,48.41],[-123.7,48.21],[-122.57,48.46],[-122.65,48.66],[-122.98,48.7],[-123.54,48.58]]],[[[131.48,42.34],[131.47,42.56],[131.24,42.66],[130.57,42.51],[130.59,42.29],[130.82,42.19],[131.48,42.34]]],[[[147.57,72.47],[147.61,72.72],[146.87,72.86],[144.6,72.74],[144.61,72.48],[145.35,72.35],[147.57,72.47]]],[[[55.58,-66.13],[55.31,-66.35],[55.6,-66.55],[56.16,-66.54],[56.47,-66.74],[55.35,-67.18],[55.65,-67.38],[57.09,-67.14],[57.41,-67.34],[57.99,-67.33],[58.25,-67.11],[57.92,-66.91],[57.35,-66.93],[57.04,-66.73],[57.29,-66.51],[56.99,-66.31],[55.58,-66.13]]],[[[-60.07,53.46],[-59.02,53.68],[-58.8,53.9],[-59.01,54.12],[-59.43,54.11],[-59.65,53.9],[-60.07,53.89],[-60.28,53.67],[-60.07,53.46]]],[[[-156.65,61.39],[-156.68,61.61],[-157.11,61.7],[-157.51,61.56],[-157.48,61.34],[-156.65,61.39]]],[[[129.43,40.46],[129.63,40.58],[129.61,40.8],[129.39,40.89],[129.19,40.77],[129.43,40.46]]],[[[-89.82,-73.19],[-89.9,-72.94],[-90.66,-72.85],[-92.77,-73.03],[-92.73,-73.28],[-91.98,-73.38],[-89.82,-73.19]]],[[[68.29,69.24],[68.74,69.39],[68.56,69.62],[67.91,69.69],[66.38,69.44],[65.74,69.5],[65.52,69.72],[64.87,69.78],[64.45,69.62],[64.68,69.4],[66.16,69.06],[66.3,68.85],[66.92,68.79],[67.05,68.57],[67.66,68.5],[67.78,68.29],[68.39,68.22],[68.88,68.36],[68.77,68.58],[69.27,68.72],[68.29,69.24]]],[[[-10.78,-72.2],[-11.6,-72.16],[-12.11,-72.36],[-11.8,-72.6],[-10.95,-72.64],[-10.44,-72.43],[-10.78,-72.2]]],[[[130.09,-66.5],[130.69,-66.46],[130.91,-66.22],[130.52,-66.03],[129.1,-66.35],[128.87,-66.58],[129.25,-66.78],[129.02,-67.01],[129.41,-67.2],[130.03,-67.16],[130.26,-66.93],[129.87,-66.74],[130.09,-66.5]]],[[[160.7,-81.51],[163.35,-81.4],[162.89,-81.19],[161.4,-81.15],[160.3,-81.3],[160.7,-81.51]]],[[[-170.38,-83.41],[-169.8,-83.18],[-171.16,-83.02],[-170.59,-82.8],[-171.85,-82.64],[-173.67,-82.7],[-174.33,-82.91],[-173.08,-83.08],[-173.76,-83.3],[-172.41,-83.47],[-173.11,-83.69],[-171.66,-83.85],[-169.5,-83.79],[-168.92,-83.56],[-170.38,-83.41]]],[[[-20.97,73.34],[-21.65,73.25],[-21.74,73.02],[-20.47,72.96],[-20.38,73.2],[-20.97,73.34]]],[[[180.0,-83.82],[171.74,-83.46],[170.86,-83.26],[172.0,-83.07],[168.53,-82.65],[165.49,-82.81],[166.14,-83.01],[168.08,-83.04],[168.84,-83.24],[167.58,-83.43],[168.38,-83.63],[170.52,-83.65],[171.45,-83.85],[177.06,-84.04],[178.29,-84.23],[180.0,-84.22],[180.0,-83.82]]],[[[-180.0,-84.22],[-178.35,-84.0],[-180.0,-83.82],[-180.0,-84.22]]],[[[14.79,68.18],[13.83,68.15],[13.95,67.97],[14.48,67.9],[14.9,68.0],[14.79,68.18]]],[[[-72.92,45.99],[-72.57,46.04],[-72.45,46.27],[-72.69,46.45],[-73.04,46.4],[-73.16,46.17],[-72.92,45.99]]],[[[166.47,-70.63],[166.31,-70.4],[165.71,-70.33],[165.27,-70.49],[165.42,-70.71],[166.47,-70.63]]],[[[-49.51,-82.24],[-47.71,-82.17],[-47.31,-81.92],[-48.63,-81.74],[-50.34,-81.81],[-50.83,-82.06],[-49.51,-82.24]]],[[[-169.96,56.99],[-169.66,57.16],[-169.78,57.36],[-170.75,57.64],[-171.2,57.09],[-171.07,56.89],[-169.96,56.99]]],[[[163.77,60.85],[163.42,61.03],[162.92,60.97],[162.77,60.74],[163.12,60.57],[163.61,60.62],[163.77,60.85]]],[[[-58.39,47.74],[-58.58,47.53],[-58.4,47.33],[-58.04,47.33],[-57.86,47.54],[-58.03,47.75],[-58.39,47.74]]],[[[152.43,75.34],[149.83,75.53],[148.91,75.42],[148.85,75.16],[149.68,75.02],[149.61,74.76],[148.73,74.64],[148.68,74.39],[149.47,74.24],[150.33,74.36],[150.41,74.61],[152.31,75.08],[152.43,75.34]]],[[[-14.86,-74.71],[-14.23,-74.51],[-14.55,-74.27],[-15.48,-74.22],[-16.11,-74.41],[-15.81,-74.65],[-14.86,-74.71]]],[[[140.18,57.46],[140.14,57.69],[139.72,57.79],[139.35,57.65],[139.39,57.42],[139.02,57.29],[139.07,57.05],[139.48,56.96],[140.18,57.46]]],[[[-116.95,31.6],[-116.33,31.2],[-116.11,31.37],[-116.5,31.94],[-116.78,32.01],[-117.0,31.85],[-116.95,31.6]]],[[[-86.25,48.14],[-86.6,48.05],[-86.64,47.81],[-86.34,47.66],[-86.0,47.75],[-85.96,47.99],[-86.25,48.14]]],[[[-163.32,-83.54],[-161.65,-83.68],[-159.68,-83.57],[-159.47,-83.34],[-161.1,-83.21],[-160.85,-82.98],[-162.37,-82.85],[-164.16,-82.94],[-164.52,-83.17],[-162.98,-83.31],[-163.32,-83.54]]],[[[54.47,-66.15],[54.74,-65.94],[54.47,-65.74],[53.93,-65.74],[53.65,-65.95],[53.92,-66.16],[54.47,-66.15]]],[[[-60.19,46.05],[-60.01,45.85],[-59.67,45.86],[-59.49,46.07],[-59.66,46.27],[-60.02,46.26],[-60.19,46.05]]],[[[146.13,-67.88],[146.62,-68.02],[146.57,-68.26],[147.07,-68.4],[147.63,-68.3],[147.67,-68.06],[147.17,-67.92],[147.23,-67.68],[146.74,-67.54],[146.19,-67.64],[146.13,-67.88]]],[[[78.27,-68.62],[76.93,-69.05],[76.83,-69.3],[77.38,-69.45],[78.02,-69.36],[78.11,-69.12],[78.74,-69.02],[78.82,-68.78],[78.27,-68.62]]],[[[-23.74,72.72],[-23.68,72.96],[-23.01,73.06],[-22.94,73.29],[-23.57,73.43],[-24.25,73.33],[-24.3,73.1],[-24.97,72.99],[-25.01,72.76],[-23.74,72.72]]],[[[-55.91,-80.18],[-54.94,-80.38],[-55.47,-80.62],[-54.44,-80.82],[-54.98,-81.06],[-53.9,-81.25],[-52.26,-81.2],[-51.79,-80.95],[-52.88,-80.77],[-52.41,-80.52],[-53.45,-80.33],[-52.98,-80.09],[-53.96,-79.9],[-55.4,-79.95],[-55.91,-80.18]]],[[[176.06,52.27],[176.46,52.28],[176.62,52.49],[176.4,52.69],[176.0,52.67],[175.83,52.47],[176.06,52.27]]],[[[135.19,43.38],[134.95,43.49],[134.71,43.37],[134.71,43.14],[135.19,43.16],[135.19,43.38]]],[[[163.67,56.07],[162.66,56.34],[162.24,56.28],[161.58,55.78],[161.88,55.62],[162.83,55.96],[163.54,55.85],[163.67,56.07]]],[[[164.38,-67.25],[163.99,-67.4],[164.1,-67.63],[165.02,-67.56],[164.9,-67.33],[164.38,-67.25]]],[[[62.49,69.77],[62.74,69.56],[63.39,69.51],[63.8,69.67],[63.56,69.89],[62.9,69.94],[62.49,69.77]]],[[[92.86,-65.44],[92.3,-65.34],[91.8,-65.48],[91.85,-65.74],[92.42,-65.84],[92.92,-65.7],[92.86,-65.44]]],[[[-162.41,55.89],[-162.35,55.69],[-161.67,55.77],[-161.72,55.98],[-162.1,56.03],[-162.41,55.89]]],[[[75.23,67.87],[74.14,67.84],[74.21,67.61],[73.27,67.13],[73.35,66.91],[74.4,66.95],[74.34,67.17],[75.29,67.65],[75.23,67.87]]],[[[-44.2,-82.0],[-44.5,-82.25],[-46.3,-82.34],[-46.68,-82.58],[-45.17,-82.75],[-43.29,-82.66],[-43.01,-82.41],[-41.24,-82.31],[-41.04,-82.06],[-42.5,-81.91],[-44.2,-82.0]]],[[[136.42,44.44],[136.68,44.56],[136.68,44.79],[136.18,44.78],[135.92,44.2],[136.42,44.21],[136.42,44.44]]],[[[-163.03,55.6],[-163.33,55.45],[-163.27,55.25],[-162.6,55.34],[-162.66,55.54],[-163.03,55.6]]],[[[-157.17,55.93],[-156.49,55.99],[-156.51,56.19],[-156.86,56.26],[-157.2,56.13],[-157.17,55.93]]],[[[-169.84,56.78],[-170.13,56.62],[-170.01,56.41],[-169.32,56.54],[-169.43,56.75],[-169.84,56.78]]],[[[-56.21,50.05],[-56.01,50.25],[-56.18,50.47],[-56.56,50.47],[-56.77,50.26],[-56.6,50.05],[-56.21,50.05]]],[[[59.76,-67.26],[59.17,-67.29],[58.92,-67.51],[59.26,-67.71],[59.86,-67.68],[60.1,-67.46],[59.76,-67.26]]],[[[70.75,-71.09],[71.29,-71.27],[72.0,-71.2],[72.16,-70.97],[71.62,-70.79],[70.93,-70.86],[70.75,-71.09]]],[[[162.73,69.56],[163.44,69.62],[165.12,69.3],[165.82,69.34],[166.07,69.58],[163.16,70.05],[162.44,69.99],[162.23,69.74],[162.73,69.56]]],[[[29.26,59.85],[29.39,60.07],[29.12,60.23],[28.73,60.17],[28.6,59.96],[29.26,59.85]]],[[[-146.9,59.62],[-146.95,59.42],[-146.61,59.31],[-146.21,59.41],[-146.15,59.62],[-146.9,59.62]]],[[[60.93,-67.21],[60.7,-67.44],[61.06,-67.63],[61.66,-67.6],[62.03,-67.79],[62.63,-67.76],[62.86,-67.54],[62.48,-67.34],[60.93,-67.21]]],[[[144.68,-67.45],[144.12,-67.54],[144.04,-67.78],[144.52,-67.93],[145.09,-67.84],[145.16,-67.59],[144.68,-67.45]]]]}}]}