{"type":"FeatureCollection","features":[{"type":"Feature","properties":{},"geometry":{"type":"MultiPolygon","coordinates":[[[[180.0,-28.69],[179.4,-28.34],[178.77,-28.57],[177.53,-27.86],[176.89,-28.04],[175.65,-27.29],[174.54,-27.49],[174.03,-27.03],[169.39,-27.23],[168.94,-27.73],[165.07,-27.27],[164.59,-27.77],[162.62,-27.99],[162.11,-28.49],[159.87,-28.29],[158.57,-29.12],[155.02,-28.9],[153.59,-28.02],[153.98,-29.08],[153.42,-29.54],[153.6,-30.2],[153.02,-30.67],[153.21,-31.33],[151.04,-33.59],[151.21,-34.25],[150.6,-34.71],[150.77,-35.37],[150.14,-35.83],[150.18,-37.26],[149.49,-37.96],[150.49,-38.84],[151.32,-39.05],[152.0,-40.28],[151.61,-40.88],[152.59,-42.25],[151.88,-42.95],[152.08,-43.6],[151.76,-43.7],[147.89,-43.16],[147.18,-43.58],[146.0,-43.42],[145.53,-42.84],[138.96,-41.81],[137.88,-40.68],[139.12,-39.53],[138.36,-39.24],[138.15,-38.16],[137.12,-37.93],[136.77,-37.33],[137.22,-36.79],[138.02,-36.84],[139.2,-35.66],[136.58,-36.25],[136.69,-35.11],[137.42,-34.5],[136.44,-34.27],[135.83,-35.3],[135.02,-34.58],[134.79,-33.75],[133.96,-33.93],[134.4,-33.39],[133.06,-32.15],[132.44,-32.5],[131.26,-31.66],[130.64,-32.0],[130.03,-31.69],[128.2,-32.03],[127.49,-32.57],[126.91,-32.26],[125.12,-32.54],[124.67,-33.02],[124.01,-32.91],[123.96,-33.52],[123.24,-34.02],[122.24,-34.14],[121.31,-33.65],[119.61,-33.84],[119.5,-34.39],[117.4,-35.13],[115.13,-34.04],[115.16,-33.69],[116.01,-33.42],[116.16,-31.72],[115.0,-30.27],[115.25,-29.16],[114.13,-28.08],[114.35,-27.32],[113.58,-26.77],[114.46,-26.41],[114.47,-25.71],[113.51,-24.47],[113.52,-23.78],[114.06,-23.18],[113.87,-22.0],[114.56,-22.4],[116.76,-20.54],[117.71,-20.7],[118.83,-19.9],[120.68,-19.66],[122.16,-18.14],[121.9,-17.22],[123.16,-15.88],[124.19,-16.0],[124.08,-15.42],[125.37,-14.01],[127.36,-13.62],[128.27,-14.61],[129.11,-14.78],[129.22,-14.11],[130.58,-12.62],[131.51,-12.32],[132.13,-12.55],[132.91,-11.86],[136.11,-12.54],[136.63,-12.14],[136.78,-12.53],[135.67,-13.77],[136.01,-14.29],[135.69,-14.82],[136.47,-15.41],[137.13,-15.41],[138.63,-16.79],[139.19,-16.19],[139.85,-16.17],[140.2,-16.68],[139.86,-17.2],[140.45,-17.41],[141.14,-16.35],[141.03,-15.77],[141.69,-15.74],[142.0,-14.16],[141.66,-13.64],[141.99,-13.1],[141.65,-12.57],[142.25,-11.7],[141.79,-9.44],[140.93,-9.31],[140.0,-8.29],[138.7,-8.08],[138.18,-8.49],[137.88,-7.69],[138.88,-7.11],[138.42,-5.9],[137.05,-4.78],[135.06,-4.56],[133.69,-3.43],[133.17,-3.85],[132.71,-2.62],[133.42,-2.36],[132.12,-2.13],[131.77,-1.55],[130.9,-1.4],[132.21,-0.21],[132.88,-0.2],[133.24,-0.78],[134.11,-0.93],[134.42,-1.76],[134.1,-2.34],[135.47,-3.48],[136.17,-2.06],[135.29,-1.91],[135.14,-1.49],[136.89,-1.8],[137.17,-1.46],[135.22,-0.99],[135.55,-0.4],[134.32,0.33],[134.65,0.92],[133.93,0.66],[131.95,2.29],[130.73,4.44],[129.63,4.49],[129.27,5.06],[125.85,5.6],[122.88,4.41],[122.59,3.83],[121.96,3.81],[122.07,3.16],[120.83,1.75],[120.98,1.35],[124.49,0.87],[124.64,0.46],[123.81,0.61],[123.32,0.19],[121.5,0.64],[121.03,0.22],[120.22,0.37],[120.09,-0.59],[120.82,-1.22],[123.21,-0.54],[122.92,-1.11],[123.48,-1.59],[122.25,-1.36],[121.78,-1.77],[122.64,-4.4],[121.58,-4.56],[121.47,-3.92],[120.88,-3.69],[121.17,-3.13],[120.83,-2.58],[120.37,-2.98],[120.43,-5.41],[119.63,-5.25],[119.77,-4.31],[118.75,-2.9],[119.24,-2.27],[119.58,0.11],[120.33,1.09],[119.93,1.16],[119.43,0.51],[119.1,1.06],[118.39,0.33],[117.86,0.79],[117.63,-0.87],[116.56,-1.51],[116.25,-3.83],[115.49,-3.7],[114.66,-4.12],[114.57,-3.3],[113.0,-3.21],[112.92,-3.91],[111.49,-5.7],[111.62,-6.28],[109.15,-6.63],[108.22,-5.77],[107.76,-6.21],[108.5,-6.95],[110.52,-7.04],[110.98,-6.6],[111.72,-7.09],[112.72,-7.01],[112.82,-7.81],[114.37,-7.86],[114.1,-8.41],[113.18,-8.05],[112.34,-8.47],[112.0,-8.01],[111.55,-8.44],[110.26,-7.6],[107.6,-7.6],[107.02,-7.23],[107.36,-7.94],[110.2,-8.05],[109.45,-9.27],[107.29,-10.32],[105.24,-10.24],[104.24,-11.76],[103.61,-11.84],[102.4,-13.44],[102.55,-13.98],[101.92,-14.06],[101.42,-14.9],[99.89,-15.57],[98.86,-15.41],[98.41,-15.8],[97.57,-15.76],[96.45,-16.43],[95.73,-17.82],[95.81,-19.47],[98.43,-22.71],[98.71,-26.46],[100.84,-29.43],[101.46,-29.48],[101.97,-30.34],[102.59,-30.38],[102.85,-30.92],[104.1,-31.2],[104.84,-31.86],[105.54,-31.82],[106.57,-32.53],[106.55,-33.06],[107.89,-33.83],[107.89,-34.37],[108.54,-34.66],[108.92,-35.45],[108.66,-36.54],[107.99,-36.81],[107.99,-37.39],[110.82,-39.14],[111.62,-39.04],[112.59,-39.73],[114.8,-39.56],[116.73,-40.69],[117.52,-40.55],[118.59,-41.19],[119.38,-41.04],[121.76,-42.1],[121.31,-43.07],[121.98,-43.48],[121.82,-43.68],[119.5,-43.61],[118.31,-44.16],[116.96,-44.09],[116.32,-43.64],[113.98,-43.46],[113.25,-43.8],[109.44,-43.17],[105.3,-44.23],[103.96,-44.0],[102.07,-45.58],[100.53,-45.71],[100.08,-46.27],[99.12,-46.29],[98.64,-46.85],[97.05,-46.93],[96.54,-47.49],[94.93,-47.54],[94.39,-48.08],[92.76,-48.1],[92.18,-48.64],[91.19,-48.59],[88.66,-49.95],[87.65,-49.87],[84.96,-51.15],[83.94,-51.03],[82.54,-51.51],[82.14,-52.12],[77.77,-53.19],[76.4,-54.47],[75.3,-54.51],[71.27,-57.38],[66.31,-59.89],[66.33,-60.54],[63.97,-61.44],[63.94,-62.09],[62.1,-62.67],[62.03,-63.32],[61.32,-63.58],[61.75,-64.19],[60.81,-64.67],[61.25,-65.28],[60.26,-65.76],[60.59,-65.96],[60.36,-66.18],[58.75,-66.67],[59.17,-67.29],[58.92,-67.51],[62.03,-67.79],[63.46,-67.5],[66.91,-68.12],[68.32,-67.78],[69.82,-68.07],[69.66,-68.31],[70.12,-68.49],[69.15,-69.02],[69.62,-69.2],[69.44,-69.44],[66.86,-70.3],[68.51,-70.62],[68.31,-70.85],[68.82,-71.03],[66.74,-71.82],[67.55,-72.42],[66.31,-72.92],[67.16,-73.52],[67.96,-73.48],[68.19,-73.25],[67.64,-73.07],[67.87,-72.84],[71.49,-71.92],[71.66,-71.68],[71.11,-71.51],[72.0,-71.2],[71.79,-70.56],[73.44,-69.94],[75.31,-69.95],[76.19,-69.38],[78.02,-69.36],[78.74,-69.02],[78.35,-68.38],[81.32,-68.13],[84.28,-67.32],[85.97,-67.47],[87.09,-66.96],[89.9,-67.06],[90.93,-66.53],[93.27,-66.96],[98.21,-66.55],[99.57,-66.97],[101.77,-65.85],[105.01,-66.43],[107.94,-66.45],[109.66,-67.01],[110.71,-66.85],[111.26,-66.21],[113.27,-65.86],[113.89,-65.88],[114.04,-66.55],[114.95,-66.8],[113.55,-67.2],[113.82,-67.43],[115.88,-67.05],[120.41,-67.52],[123.56,-66.59],[126.05,-66.51],[127.4,-66.88],[127.14,-67.11],[127.52,-67.31],[128.15,-67.28],[130.91,-66.22],[133.26,-66.03],[144.29,-67.06],[144.68,-67.45],[144.04,-67.78],[145.71,-67.5],[147.07,-68.4],[150.79,-68.37],[152.89,-68.85],[153.91,-68.37],[155.58,-69.18],[157.13,-69.02],[159.35,-69.42],[161.46,-70.62],[164.67,-70.41],[167.07,-70.69],[168.85,-71.48],[170.53,-71.43],[170.54,-72.03],[170.11,-72.2],[170.33,-72.42],[169.65,-72.97],[169.87,-73.18],[167.8,-73.02],[167.01,-73.56],[165.78,-73.66],[165.96,-73.89],[165.05,-74.43],[165.24,-74.66],[163.3,-74.9],[163.47,-75.13],[162.85,-75.28],[163.02,-75.51],[162.38,-75.67],[163.54,-76.19],[162.36,-76.73],[162.53,-76.96],[164.74,-77.55],[167.93,-77.33],[169.14,-77.6],[165.2,-78.0],[166.82,-78.47],[166.08,-78.64],[166.5,-78.83],[161.67,-79.25],[162.02,-79.45],[161.13,-79.6],[161.47,-79.81],[163.15,-80.05],[161.63,-80.58],[162.03,-80.78],[161.0,-80.94],[163.35,-81.4],[162.26,-81.56],[162.73,-81.77],[164.88,-82.01],[163.74,-82.18],[164.29,-82.39],[171.17,-82.87],[172.0,-83.07],[170.86,-83.26],[171.74,-83.46],[180.0,-83.82],[180.0,-28.69]],[[128.83,-3.32],[128.17,-3.33],[128.01,-2.92],[128.67,-2.91],[128.83,-3.32]]],[[[-180.0,-83.82],[-178.35,-84.0],[-179.34,-84.21],[-177.95,-84.39],[-165.48,-84.71],[-163.06,-84.62],[-162.66,-84.38],[-164.51,-84.24],[-164.08,-84.01],[-169.5,-83.79],[-168.92,-83.56],[-173.76,-83.3],[-173.08,-83.08],[-164.52,-83.17],[-161.65,-83.68],[-157.51,-82.99],[-152.49,-82.85],[-155.61,-82.17],[-154.1,-81.81],[-155.42,-81.24],[-148.84,-81.03],[-150.37,-80.48],[-149.21,-80.34],[-149.32,-80.11],[-148.22,-79.96],[-148.35,-79.74],[-156.15,-79.08],[-154.01,-78.16],[-158.83,-78.08],[-157.75,-77.75],[-158.47,-77.2],[-154.0,-77.05],[-152.13,-77.68],[-149.3,-77.71],[-145.89,-77.12],[-147.09,-76.61],[-149.77,-76.38],[-136.54,-75.16],[-135.64,-74.59],[-133.32,-75.04],[-124.39,-74.64],[-122.58,-75.0],[-116.34,-74.74],[-114.01,-74.18],[-113.44,-74.35],[-113.72,-74.58],[-114.89,-74.87],[-114.3,-75.04],[-106.51,-75.49],[-102.98,-75.11],[-101.57,-75.63],[-99.89,-75.66],[-98.96,-75.3],[-101.71,-74.03],[-99.31,-73.46],[-102.2,-73.41],[-102.87,-73.28],[-102.01,-72.93],[-97.78,-72.97],[-96.38,-73.46],[-94.92,-73.44],[-90.51,-73.34],[-89.24,-72.79],[-87.47,-73.46],[-81.65,-73.99],[-80.24,-72.97],[-76.05,-73.88],[-75.48,-73.69],[-75.78,-73.45],[-74.98,-72.82],[-73.83,-73.09],[-74.37,-73.29],[-74.05,-73.52],[-67.79,-73.23],[-67.33,-73.01],[-67.73,-72.79],[-66.02,-72.36],[-66.42,-72.14],[-66.01,-71.92],[-67.58,-71.47],[-67.16,-71.26],[-67.53,-71.04],[-67.09,-70.38],[-68.52,-69.94],[-68.13,-69.72],[-68.46,-69.5],[-67.0,-69.08],[-67.33,-68.86],[-66.97,-68.65],[-67.29,-68.43],[-66.91,-67.78],[-69.18,-67.55],[-67.84,-67.14],[-66.24,-67.35],[-65.91,-67.13],[-66.23,-66.92],[-65.28,-66.7],[-64.97,-66.48],[-65.28,-66.27],[-63.22,-65.16],[-62.31,-65.35],[-62.52,-66.0],[-62.19,-66.2],[-64.04,-66.25],[-64.32,-66.9],[-65.27,-67.13],[-64.94,-67.34],[-66.25,-67.78],[-63.86,-68.84],[-64.19,-69.06],[-63.82,-69.27],[-62.72,-69.47],[-63.0,-70.13],[-61.43,-70.53],[-61.76,-70.76],[-61.33,-70.97],[-61.67,-71.2],[-61.23,-71.41],[-61.58,-71.64],[-61.13,-71.85],[-61.48,-72.08],[-61.02,-72.29],[-61.38,-72.52],[-60.9,-72.73],[-61.28,-72.96],[-60.78,-73.17],[-61.16,-73.4],[-60.52,-74.05],[-62.28,-74.53],[-61.75,-74.74],[-62.18,-74.97],[-63.62,-75.21],[-63.09,-75.43],[-63.56,-75.65],[-69.35,-76.3],[-69.95,-76.51],[-69.47,-76.74],[-70.09,-76.95],[-75.95,-76.56],[-77.03,-77.18],[-76.66,-77.42],[-73.67,-77.31],[-73.24,-77.55],[-73.96,-77.75],[-73.51,-77.98],[-77.05,-77.86],[-78.31,-78.47],[-77.92,-78.72],[-80.96,-79.02],[-77.11,-79.2],[-74.84,-79.72],[-75.75,-79.92],[-75.25,-80.16],[-71.73,-80.47],[-68.56,-80.07],[-73.13,-79.33],[-70.99,-79.15],[-70.24,-78.94],[-70.79,-78.71],[-70.06,-78.5],[-66.87,-78.32],[-66.26,-78.54],[-68.92,-78.96],[-68.32,-79.19],[-64.22,-79.64],[-64.91,-79.87],[-64.16,-80.09],[-64.88,-80.31],[-64.09,-80.53],[-62.56,-80.52],[-61.87,-80.29],[-62.69,-80.08],[-60.59,-79.83],[-59.75,-80.04],[-60.37,-80.28],[-59.49,-80.48],[-60.13,-80.72],[-59.2,-80.92],[-61.51,-81.17],[-67.17,-80.52],[-69.55,-80.72],[-61.3,-81.61],[-62.08,-81.84],[-61.07,-82.05],[-61.89,-82.28],[-60.81,-82.49],[-61.67,-82.72],[-60.53,-82.93],[-61.42,-83.15],[-60.2,-83.36],[-58.03,-83.34],[-57.22,-83.11],[-58.48,-82.9],[-57.71,-82.67],[-52.62,-82.11],[-44.5,-82.25],[-38.85,-80.94],[-36.03,-80.96],[-33.28,-80.45],[-29.2,-80.54],[-26.93,-79.98],[-25.32,-80.33],[-22.73,-80.25],[-24.66,-79.66],[-28.43,-79.63],[-31.16,-78.9],[-32.28,-79.04],[-32.23,-79.29],[-34.63,-79.3],[-34.63,-79.05],[-35.79,-78.92],[-34.63,-78.53],[-35.7,-77.89],[-34.63,-77.76],[-34.63,-77.51],[-31.58,-77.36],[-31.64,-77.1],[-30.68,-76.96],[-30.75,-76.7],[-28.82,-76.67],[-27.19,-76.1],[-18.24,-75.65],[-18.52,-75.41],[-17.81,-75.22],[-18.09,-74.97],[-17.04,-74.35],[-14.23,-74.51],[-14.55,-74.27],[-13.95,-74.07],[-15.46,-73.54],[-13.99,-73.39],[-13.18,-72.76],[-10.44,-72.43],[-10.78,-72.2],[-10.28,-71.99],[-10.61,-71.76],[-9.98,-71.12],[-8.87,-71.38],[-9.33,-71.58],[-8.99,-71.81],[-6.49,-71.43],[-0.88,-71.89],[2.82,-70.94],[7.06,-70.97],[9.0,-70.42],[10.74,-70.73],[10.53,-70.97],[11.07,-71.15],[13.58,-70.49],[20.49,-71.07],[21.89,-70.64],[23.07,-71.17],[26.94,-71.25],[29.98,-70.42],[32.42,-70.39],[33.36,-69.66],[32.66,-69.32],[33.11,-68.96],[35.26,-69.96],[37.58,-69.87],[39.03,-70.27],[39.53,-70.12],[39.37,-69.89],[39.85,-69.75],[40.01,-69.15],[41.54,-68.92],[41.37,-68.7],[42.42,-68.62],[43.09,-68.1],[47.01,-67.69],[48.37,-67.94],[49.27,-67.76],[49.67,-67.15],[51.05,-67.38],[51.36,-67.18],[50.3,-66.76],[53.11,-65.95],[55.29,-65.93],[55.58,-66.13],[55.31,-66.35],[56.47,-66.74],[56.2,-66.95],[56.51,-67.16],[58.25,-67.11],[57.86,-66.49],[56.43,-66.32],[56.1,-65.71],[53.13,-65.54],[48.11,-66.7],[47.68,-67.3],[46.37,-67.05],[45.86,-67.61],[42.32,-67.81],[40.31,-68.77],[37.8,-69.27],[27.86,-67.23],[27.3,-66.64],[25.76,-66.49],[25.27,-65.9],[23.79,-65.72],[21.94,-64.93],[20.48,-64.96],[17.1,-63.51],[15.69,-63.48],[15.0,-62.94],[5.27,-61.9],[4.82,-61.31],[1.95,-60.8],[1.59,-60.21],[-0.39,-59.83],[-1.45,-58.63],[-6.66,-57.51],[-6.82,-56.91],[-7.89,-56.66],[-8.02,-56.06],[-9.04,-55.8],[-9.09,-55.2],[-16.54,-51.76],[-16.37,-50.74],[-15.72,-50.62],[-15.33,-50.04],[-12.43,-49.56],[-12.07,-48.97],[-8.64,-48.24],[-8.32,-47.63],[-7.36,-47.49],[-7.28,-47.07],[-8.29,-46.56],[-10.83,-46.31],[-11.65,-46.65],[-12.5,-46.33],[-13.34,-46.66],[-14.18,-46.33],[-16.22,-46.9],[-17.05,-46.55],[-18.51,-46.95],[-19.31,-46.59],[-21.38,-47.06],[-22.17,-46.68],[-30.55,-47.62],[-31.03,-48.14],[-38.31,-48.29],[-38.82,-48.75],[-40.23,-48.63],[-40.81,-49.05],[-42.3,-48.86],[-47.05,-50.15],[-55.8,-49.17],[-56.12,-48.67],[-57.56,-48.49],[-57.85,-48.0],[-59.83,-47.34],[-60.07,-46.85],[-62.86,-46.58],[-64.94,-45.47],[-64.79,-43.59],[-65.18,-43.35],[-65.47,-45.03],[-67.7,-45.71],[-67.28,-46.94],[-65.68,-47.32],[-65.59,-47.91],[-67.01,-48.35],[-67.24,-48.92],[-67.73,-49.07],[-67.85,-49.85],[-69.46,-50.69],[-69.42,-51.3],[-68.96,-51.55],[-69.16,-51.73],[-68.57,-52.19],[-70.12,-52.24],[-70.43,-52.82],[-71.71,-52.27],[-72.5,-52.59],[-71.91,-53.07],[-72.25,-53.66],[-71.65,-54.13],[-69.58,-54.4],[-69.35,-54.22],[-70.09,-53.84],[-69.27,-53.47],[-70.52,-53.22],[-68.81,-52.74],[-68.84,-53.1],[-67.56,-54.02],[-67.58,-54.39],[-66.39,-54.75],[-67.22,-55.14],[-68.23,-54.96],[-68.49,-55.53],[-68.9,-55.54],[-70.25,-54.96],[-71.3,-55.14],[-71.39,-54.57],[-72.37,-54.06],[-73.33,-54.16],[-73.21,-53.76],[-73.8,-53.27],[-73.55,-52.46],[-75.06,-52.05],[-74.23,-51.74],[-74.79,-51.24],[-74.54,-50.44],[-75.45,-50.5],[-75.55,-50.28],[-74.75,-49.98],[-75.58,-48.79],[-75.32,-47.98],[-74.03,-47.58],[-74.02,-46.96],[-75.36,-46.5],[-74.62,-46.22],[-74.27,-44.42],[-73.77,-44.31],[-73.98,-45.09],[-73.58,-45.38],[-73.28,-44.2],[-72.6,-43.92],[-73.08,-43.42],[-72.41,-43.15],[-72.89,-42.65],[-72.62,-41.49],[-73.55,-41.7],[-73.92,-41.41],[-73.53,-39.89],[-72.9,-39.63],[-73.61,-38.48],[-73.25,-36.99],[-72.65,-36.75],[-72.38,-36.05],[-72.69,-35.58],[-71.33,-33.37],[-71.72,-30.59],[-71.14,-29.71],[-71.44,-29.2],[-70.86,-28.31],[-71.17,-27.78],[-70.41,-26.51],[-70.8,-23.5],[-70.24,-22.57],[-70.53,-22.01],[-70.15,-21.47],[-70.45,-20.9],[-70.06,-20.36],[-70.18,-19.39],[-70.68,-18.97],[-70.54,-18.33],[-71.48,-17.97],[-72.29,-16.7],[-75.37,-15.43],[-76.42,-14.02],[-76.6,-12.24],[-77.29,-12.18],[-77.12,-11.52],[-78.4,-9.97],[-78.24,-9.31],[-80.29,-6.39],[-80.97,-6.32],[-80.8,-5.66],[-81.29,-5.19],[-81.38,-4.17],[-79.91,-3.16],[-80.18,-2.54],[-80.85,-2.47],[-80.94,-1.46],[-79.98,0.25],[-80.26,0.85],[-79.43,1.41],[-79.27,2.04],[-81.01,4.49],[-82.53,4.5],[-82.79,5.09],[-83.45,5.16],[-83.96,6.09],[-86.19,7.11],[-88.76,6.91],[-90.82,5.55],[-91.2,4.56],[-91.83,4.39],[-92.79,2.26],[-93.42,2.08],[-93.18,1.49],[-93.77,0.34],[-93.05,-1.21],[-93.24,-1.85],[-90.89,-5.23],[-91.07,-5.88],[-88.89,-8.95],[-89.08,-9.6],[-85.8,-14.42],[-85.11,-14.5],[-83.27,-17.31],[-82.56,-17.39],[-81.24,-19.18],[-80.88,-23.12],[-81.31,-23.65],[-81.02,-24.23],[-84.32,-30.12],[-85.03,-30.27],[-85.65,-31.54],[-86.37,-31.68],[-87.36,-33.01],[-88.06,-33.17],[-88.84,-34.63],[-88.3,-36.65],[-88.71,-37.4],[-88.4,-37.75],[-89.25,-39.28],[-90.05,-39.44],[-90.51,-40.21],[-91.86,-40.64],[-92.87,-42.18],[-92.22,-42.92],[-92.46,-43.56],[-91.82,-44.04],[-92.06,-44.68],[-91.41,-45.15],[-91.64,-45.8],[-91.29,-46.16],[-92.99,-48.27],[-92.61,-48.89],[-93.2,-49.67],[-94.19,-49.83],[-94.49,-50.48],[-94.13,-50.85],[-95.78,-52.79],[-96.86,-52.93],[-99.12,-55.46],[-101.62,-57.42],[-101.27,-58.05],[-102.52,-58.14],[-103.97,-59.45],[-105.27,-59.52],[-105.82,-60.11],[-105.47,-60.49],[-108.65,-62.25],[-108.72,-62.48],[-107.38,-62.68],[-107.45,-62.92],[-106.08,-63.1],[-105.36,-64.07],[-106.51,-64.73],[-108.03,-64.77],[-112.7,-67.12],[-114.33,-67.1],[-116.69,-68.13],[-118.37,-68.07],[-120.13,-68.78],[-121.82,-68.68],[-124.57,-69.57],[-131.02,-69.67],[-133.38,-70.21],[-136.8,-69.93],[-139.42,-70.37],[-143.78,-70.09],[-146.72,-68.89],[-148.17,-68.93],[-151.83,-67.34],[-153.15,-67.35],[-157.17,-65.32],[-157.04,-64.76],[-158.04,-64.17],[-157.5,-63.68],[-156.39,-63.7],[-156.18,-63.34],[-157.07,-62.98],[-156.95,-62.41],[-159.56,-60.88],[-159.43,-60.57],[-160.16,-60.18],[-159.75,-59.72],[-160.89,-59.29],[-160.75,-58.97],[-161.87,-58.0],[-161.46,-57.53],[-162.13,-57.11],[-161.72,-56.63],[-162.39,-56.2],[-161.99,-55.72],[-162.51,-55.47],[-162.37,-55.13],[-162.89,-54.88],[-162.75,-54.54],[-163.26,-54.29],[-163.13,-53.94],[-164.46,-52.25],[-164.18,-51.53],[-165.03,-51.2],[-164.89,-50.84],[-165.79,-49.71],[-165.65,-49.34],[-166.91,-48.72],[-166.87,-48.12],[-167.66,-47.77],[-168.04,-45.44],[-168.79,-45.07],[-168.74,-44.45],[-169.88,-43.78],[-170.08,-42.46],[-172.71,-40.52],[-172.63,-39.88],[-173.3,-39.49],[-174.04,-35.97],[-174.67,-35.57],[-174.51,-35.17],[-174.92,-34.61],[-174.56,-34.04],[-175.23,-33.4],[-175.14,-32.75],[-178.89,-28.91],[-180.0,-28.69],[-180.0,-83.82]]],[[[-127.02,20.76],[-126.33,19.91],[-125.66,19.94],[-125.29,19.39],[-122.84,18.66],[-122.22,18.91],[-120.49,18.37],[-119.86,18.62],[-117.36,17.79],[-116.27,18.11],[-114.97,17.43],[-113.11,17.46],[-111.36,16.82],[-105.39,17.58],[-104.99,18.13],[-104.06,18.23],[-105.44,20.01],[-105.57,21.03],[-105.19,21.84],[-108.11,25.41],[-109.17,25.8],[-109.02,26.47],[-109.64,27.17],[-110.4,27.2],[-110.26,27.87],[-111.03,27.9],[-112.63,29.61],[-112.49,30.28],[-113.1,30.7],[-112.97,31.36],[-114.93,31.95],[-115.33,31.37],[-114.99,31.04],[-115.11,30.38],[-112.89,28.28],[-113.01,27.61],[-111.17,25.79],[-111.31,25.12],[-110.69,24.43],[-111.97,24.64],[-111.97,26.07],[-112.6,26.76],[-114.49,27.37],[-113.83,27.87],[-113.7,28.54],[-114.68,29.55],[-115.78,29.88],[-115.67,30.54],[-116.28,30.95],[-116.16,31.61],[-117.12,32.34],[-117.01,33.0],[-118.39,34.26],[-120.03,34.43],[-120.73,35.04],[-120.64,35.69],[-121.64,36.34],[-121.56,36.98],[-122.2,37.33],[-122.13,37.96],[-123.51,38.86],[-123.66,40.16],[-124.4,40.7],[-123.66,41.0],[-124.58,42.79],[-123.76,44.5],[-124.23,44.96],[-123.69,45.88],[-124.66,47.56],[-124.5,47.92],[-124.91,48.16],[-124.75,48.52],[-126.3,49.23],[-127.08,48.92],[-127.41,47.64],[-129.36,46.66],[-129.39,46.09],[-130.12,45.77],[-130.26,44.82],[-130.97,44.49],[-131.86,40.83],[-132.52,40.49],[-133.18,38.95],[-134.35,38.06],[-134.87,35.7],[-134.44,35.24],[-134.61,34.45],[-132.65,33.15],[-131.7,29.83],[-130.79,29.24],[-130.25,27.63],[-128.7,26.43],[-129.01,25.19],[-128.51,23.55],[-127.95,23.19],[-128.09,22.14],[-127.02,20.76]],[[-110.13,23.98],[-109.82,23.63],[-110.0,23.22],[-110.61,23.92],[-110.13,23.98]]],[[[109.23,-0.55],[108.82,-0.52],[108.65,-1.97],[109.48,-2.03],[109.95,-1.58],[109.78,-1.2],[109.12,-1.52],[109.23,-0.55]]],[[[57.53,-19.89],[56.98,-20.28],[57.1,-20.69],[58.1,-20.39],[58.03,-19.73],[57.53,-19.89]]],[[[94.46,2.18],[94.96,2.91],[95.61,2.74],[96.54,3.18],[94.93,5.6],[95.18,5.97],[96.04,5.39],[97.61,5.4],[99.02,3.62],[99.53,4.35],[100.21,4.43],[100.48,5.04],[99.92,6.25],[99.26,6.43],[99.54,7.05],[98.05,8.07],[98.39,9.47],[97.98,10.02],[98.32,11.41],[97.93,12.22],[98.45,12.95],[97.84,13.9],[98.12,14.52],[97.51,15.47],[97.79,16.08],[96.91,16.66],[95.95,16.22],[95.43,15.49],[94.09,16.09],[94.47,18.23],[93.79,18.39],[93.19,19.81],[92.5,19.97],[91.69,21.75],[91.0,21.9],[90.5,21.42],[89.34,21.58],[88.85,21.1],[87.01,21.14],[86.96,20.16],[84.89,19.32],[84.4,18.34],[82.81,17.48],[82.34,16.49],[81.47,16.5],[81.01,15.76],[79.94,15.64],[80.28,12.42],[79.64,12.31],[79.82,10.94],[77.7,8.29],[77.09,8.43],[75.91,10.64],[76.12,11.24],[74.93,12.46],[75.13,13.06],[74.54,13.89],[74.74,14.5],[73.36,16.71],[73.56,17.31],[72.97,18.11],[73.17,18.7],[72.57,19.48],[72.54,21.07],[70.67,20.53],[69.85,21.39],[68.91,21.7],[67.57,20.76],[66.48,18.09],[66.81,17.63],[66.37,16.86],[66.43,16.0],[66.98,15.25],[66.81,14.68],[68.47,11.9],[68.29,11.32],[68.85,9.84],[68.87,8.23],[67.84,6.42],[68.02,5.85],[67.68,5.41],[67.69,4.51],[68.23,3.7],[67.94,3.22],[68.83,1.46],[68.55,0.96],[69.02,0.16],[68.25,-0.72],[68.1,-1.58],[68.44,-2.07],[68.14,-2.59],[70.01,-3.96],[70.91,-3.62],[71.93,-3.86],[72.41,-3.46],[73.02,-3.65],[73.49,-3.26],[74.09,-3.44],[74.56,-3.05],[75.17,-3.23],[76.93,-2.33],[77.52,-2.5],[78.52,-1.77],[80.13,-1.67],[83.49,-0.01],[85.18,0.11],[86.29,0.89],[87.35,0.69],[87.81,1.15],[91.06,0.79],[93.33,1.89],[93.99,1.71],[94.46,2.18]],[[81.23,8.54],[81.83,7.14],[80.53,5.96],[79.93,6.85],[80.16,7.46],[79.76,8.22],[80.63,9.43],[81.23,8.54]]],[[[71.45,-5.76],[70.93,-6.39],[71.28,-6.91],[71.77,-6.5],[71.45,-5.76]]],[[[18.26,-34.23],[19.32,-34.78],[19.72,-34.58],[18.21,-33.84],[17.82,-34.04],[18.26,-34.23]]],[[[103.32,6.85],[103.68,8.23],[103.31,9.04],[104.71,9.67],[104.32,10.22],[103.8,9.5],[103.36,9.55],[103.64,10.16],[102.99,10.35],[102.27,12.22],[100.7,12.5],[100.58,13.67],[100.08,13.2],[100.18,11.77],[99.42,10.93],[99.59,10.27],[99.07,9.54],[100.19,9.32],[99.91,8.7],[100.57,8.51],[100.29,7.89],[100.88,6.94],[101.55,7.01],[102.58,6.02],[103.32,6.85]]],[[[143.25,-12.21],[143.69,-13.34],[143.52,-14.26],[144.79,-14.43],[144.22,-14.0],[143.68,-12.27],[143.25,-12.21]]],[[[34.61,-30.97],[33.46,-31.76],[30.16,-32.0],[29.37,-32.5],[29.3,-32.1],[30.37,-31.57],[30.02,-31.2],[28.45,-32.2],[28.41,-32.8],[26.82,-33.75],[26.07,-33.62],[25.55,-34.06],[24.4,-34.14],[23.77,-33.79],[22.63,-33.86],[22.62,-34.84],[23.26,-35.19],[24.41,-35.12],[26.19,-34.4],[28.21,-34.21],[28.86,-34.54],[32.13,-33.95],[32.78,-34.25],[35.17,-33.7],[35.82,-33.99],[38.62,-33.49],[39.01,-32.63],[37.2,-30.95],[36.28,-30.7],[34.61,-30.97]]],[[[100.75,-1.79],[100.2,-0.63],[99.74,-0.85],[100.5,-2.14],[100.17,-3.47],[100.8,-3.64],[101.17,-4.39],[101.41,-4.04],[100.85,-3.15],[101.12,-2.56],[100.75,-1.79]]],[[[-129.07,51.99],[-129.63,52.57],[-129.66,51.29],[-128.97,50.89],[-128.16,51.02],[-129.07,51.99]]],[[[96.88,1.88],[97.36,2.35],[97.17,2.75],[96.5,2.67],[96.88,1.88]]],[[[-59.65,53.9],[-60.07,53.89],[-60.07,53.46],[-58.8,53.9],[-59.65,53.9]]],[[[-92.59,72.71],[-94.03,71.97],[-90.81,70.35],[-91.52,69.73],[-87.9,69.16],[-87.39,68.77],[-88.15,68.16],[-87.12,67.62],[-86.43,67.97],[-86.9,68.37],[-85.54,68.83],[-85.93,69.48],[-85.16,69.82],[-88.84,70.44],[-89.95,71.46],[-91.25,71.97],[-89.63,72.94],[-92.59,72.71]]],[[[109.86,-5.85],[110.45,-6.0],[110.69,-5.66],[110.1,-5.51],[109.86,-5.85]]],[[[-112.04,68.25],[-112.85,68.53],[-114.33,68.21],[-111.68,67.78],[-109.1,68.19],[-109.88,68.49],[-112.04,68.25]]],[[[107.59,-5.85],[105.98,-5.29],[105.51,-5.74],[104.48,-5.56],[104.23,-5.9],[104.6,-6.4],[105.27,-6.08],[105.17,-7.01],[106.0,-7.06],[106.37,-7.54],[106.44,-6.85],[105.83,-6.7],[106.1,-6.13],[107.35,-6.19],[107.59,-5.85]]],[[[62.92,-19.77],[63.58,-20.02],[63.88,-19.68],[63.23,-19.44],[62.92,-19.77]]],[[[-105.11,75.62],[-103.46,75.71],[-104.53,76.02],[-105.28,75.85],[-105.11,75.62]]],[[[56.04,-21.23],[55.73,-20.64],[55.06,-20.62],[55.61,-21.13],[55.41,-21.85],[56.04,-21.23]]],[[[138.19,-35.45],[138.55,-35.13],[138.2,-34.54],[137.84,-34.85],[137.97,-35.27],[137.11,-35.47],[137.82,-35.75],[138.19,-35.45]]],[[[46.73,67.75],[45.51,67.35],[47.18,66.99],[47.57,67.57],[46.73,67.75]]],[[[71.9,-5.58],[72.58,-5.32],[71.32,-5.16],[71.9,-5.58]]],[[[-96.26,23.8],[-97.25,24.52],[-96.81,25.3],[-97.07,25.67],[-97.95,24.35],[-97.84,22.58],[-97.09,21.73],[-97.05,20.97],[-96.19,22.28],[-96.26,23.8]]],[[[-63.63,-41.88],[-63.61,-41.52],[-64.72,-40.81],[-65.11,-40.93],[-65.06,-41.87],[-64.42,-42.14],[-63.63,-41.88]]],[[[96.82,-12.36],[97.26,-12.17],[96.87,-11.7],[96.41,-12.12],[96.82,-12.36]]],[[[-115.39,69.36],[-115.82,69.17],[-115.59,68.95],[-113.68,68.82],[-115.39,69.36]]],[[[108.46,-0.0],[108.9,0.21],[108.06,0.27],[108.46,-0.0]]],[[[51.56,-46.59],[52.09,-46.73],[52.57,-46.3],[52.05,-46.16],[51.56,-46.59]]],[[[105.35,-1.25],[105.2,-0.63],[104.77,-0.59],[105.05,-2.09],[105.52,-1.63],[105.35,-1.25]]],[[[-99.63,76.94],[-96.93,77.36],[-97.99,77.69],[-101.85,77.58],[-103.42,77.03],[-102.3,76.72],[-100.72,77.26],[-99.63,76.94]]],[[[-97.15,74.12],[-95.6,74.15],[-95.62,74.39],[-96.43,74.5],[-97.15,74.12]]],[[[107.1,1.21],[107.55,1.43],[106.71,1.49],[107.1,1.21]]],[[[107.02,0.47],[107.62,0.06],[107.28,0.83],[106.63,0.75],[107.02,0.47]]],[[[98.69,-0.4],[97.83,-0.08],[98.21,-0.86],[98.87,-0.79],[98.69,-0.4]]],[[[103.02,5.98],[103.54,4.53],[103.97,4.5],[103.45,5.94],[103.02,5.98]]],[[[56.03,-4.63],[55.71,-3.58],[55.54,-4.22],[54.89,-4.46],[55.53,-5.01],[56.03,-4.63]]],[[[37.65,-47.09],[38.15,-47.17],[38.16,-46.7],[37.25,-46.84],[37.65,-47.09]]],[[[21.31,-34.71],[22.28,-34.47],[21.37,-34.12],[20.85,-34.54],[21.31,-34.71]]],[[[98.56,0.74],[99.0,0.71],[98.83,1.35],[97.95,1.42],[98.56,0.74]]],[[[38.14,65.68],[39.71,65.77],[39.95,65.98],[39.67,66.16],[38.38,65.88],[36.46,66.32],[35.72,66.07],[36.1,65.52],[38.14,65.68]]],[[[118.83,2.09],[118.26,2.3],[118.02,1.98],[118.59,1.76],[118.83,2.09]]],[[[-17.65,29.13],[-18.15,29.12],[-18.38,28.47],[-17.89,28.49],[-17.65,29.13]]],[[[107.8,-2.16],[107.74,-2.64],[108.79,-2.59],[108.63,-2.21],[107.8,-2.16]]],[[[50.09,-45.94],[50.13,-46.51],[50.64,-46.66],[50.61,-46.09],[50.09,-45.94]]],[[[99.64,-2.08],[99.68,-1.59],[99.18,-2.3],[99.64,-2.08]]],[[[-72.71,77.09],[-72.36,77.32],[-73.1,77.49],[-74.55,77.22],[-72.71,77.09]]],[[[-85.35,75.78],[-84.26,76.11],[-86.03,76.16],[-86.15,75.92],[-85.35,75.78]]],[[[103.7,-4.8],[102.88,-4.5],[103.03,-5.11],[103.83,-5.64],[104.08,-5.3],[103.7,-4.8]]],[[[-102.61,67.82],[-99.22,67.98],[-98.21,68.77],[-102.88,68.56],[-104.24,68.98],[-104.76,68.81],[-104.65,68.57],[-102.61,67.82]]],[[[107.42,-3.7],[107.66,-3.36],[107.16,-2.24],[105.97,-1.42],[106.29,-2.42],[106.91,-2.58],[106.63,-3.17],[107.42,-3.7]]],[[[-61.34,-39.32],[-61.58,-38.94],[-62.05,-39.22],[-61.34,-39.32]]],[[[-123.63,49.53],[-123.79,49.17],[-123.22,49.3],[-123.63,49.53]]],[[[70.99,-49.21],[70.81,-48.84],[69.8,-49.07],[70.99,-49.21]]],[[[102.58,1.44],[102.76,1.05],[103.02,1.41],[102.63,1.94],[102.58,1.44]]],[[[-95.83,68.83],[-96.36,68.19],[-94.03,68.22],[-94.63,68.85],[-95.83,68.83]]],[[[31.01,-30.26],[30.23,-30.77],[31.08,-30.66],[31.01,-30.26]]],[[[70.38,-49.98],[70.82,-49.67],[70.21,-49.6],[70.38,-49.98]]],[[[-9.66,-40.03],[-10.2,-40.2],[-10.07,-40.43],[-9.74,-40.47],[-9.66,-40.03]]],[[[68.58,-48.32],[68.72,-48.7],[69.15,-48.4],[68.58,-48.32]]],[[[101.93,-5.4],[102.31,-5.91],[102.81,-5.22],[102.18,-5.06],[101.93,-5.4]]],[[[-72.63,-51.75],[-72.74,-52.15],[-72.17,-52.01],[-72.63,-51.75]]],[[[13.95,67.97],[14.9,68.0],[14.25,68.26],[13.95,67.97]]],[[[97.8,2.32],[97.32,1.85],[97.51,1.45],[97.99,1.92],[97.8,2.32]]],[[[-87.67,74.38],[-87.76,74.13],[-87.02,74.0],[-82.38,73.83],[-81.36,74.16],[-87.67,74.38]]],[[[68.87,-49.07],[68.19,-49.22],[68.74,-50.13],[69.18,-49.83],[68.87,-49.07]]],[[[72.13,-7.02],[72.27,-7.63],[72.69,-7.68],[72.56,-7.07],[72.13,-7.02]]],[[[54.85,68.44],[55.25,68.62],[55.04,68.82],[54.01,68.66],[54.85,68.44]]],[[[-111.05,75.57],[-109.47,75.7],[-110.63,75.98],[-111.31,75.8],[-111.05,75.57]]],[[[72.99,-52.82],[72.24,-52.99],[73.21,-53.21],[73.43,-53.61],[74.34,-52.95],[72.99,-52.82]]],[[[106.41,2.77],[105.73,2.45],[106.36,2.27],[106.41,2.77]]],[[[-126.94,49.28],[-126.8,49.64],[-127.35,49.5],[-126.94,49.28]]],[[[-158.67,-84.64],[-161.38,-84.99],[-156.65,-85.01],[-156.52,-84.77],[-158.67,-84.64]]],[[[-104.96,77.8],[-103.03,77.89],[-104.27,78.19],[-105.16,78.03],[-104.96,77.8]]],[[[-112.88,70.72],[-114.04,70.58],[-113.14,70.3],[-112.67,70.48],[-112.88,70.72]]],[[[43.77,66.92],[42.92,66.7],[43.75,66.53],[44.04,66.73],[43.77,66.92]]]]}}]}