{"type":"FeatureCollection","features":[{"type":"Feature","properties":{},"geometry":{"type":"MultiPolygon","coordinates":[[[[166.49,-48.43],[166.8,-48.3],[166.47,-47.95],[166.17,-48.33],[166.49,-48.43]]],[[[-80.04,-6.76],[-79.95,-7.78],[-78.42,-9.71],[-78.59,-10.37],[-76.53,-13.0],[-76.87,-14.06],[-76.11,-14.88],[-76.08,-12.96],[-78.14,-10.33],[-77.98,-9.67],[-79.5,-7.74],[-79.34,-7.08],[-80.04,-6.76]]],[[[173.31,-43.79],[172.65,-43.12],[172.17,-43.9],[171.32,-44.1],[170.06,-46.28],[167.64,-46.44],[167.06,-47.2],[167.71,-47.65],[168.01,-47.51],[167.68,-47.16],[167.96,-46.78],[168.61,-47.23],[169.19,-46.71],[170.11,-46.76],[171.26,-46.18],[170.9,-45.6],[171.65,-44.44],[172.8,-44.33],[173.31,-43.79]]],[[[163.27,-70.87],[166.02,-70.78],[166.47,-70.63],[166.31,-70.4],[163.94,-70.11],[162.43,-70.33],[160.39,-69.37],[159.35,-69.42],[161.36,-70.39],[161.07,-70.99],[162.18,-70.93],[162.06,-70.7],[162.55,-70.56],[163.27,-70.87]]],[[[-73.43,-38.32],[-73.25,-36.99],[-72.65,-36.75],[-72.38,-36.05],[-72.66,-35.79],[-72.99,-36.47],[-74.12,-37.16],[-73.78,-38.04],[-74.4,-38.28],[-73.61,-39.07],[-74.29,-41.13],[-73.92,-41.41],[-73.53,-39.89],[-72.9,-39.63],[-73.43,-38.32]]],[[[125.07,-66.33],[116.88,-66.85],[112.4,-65.6],[110.41,-65.94],[109.84,-66.58],[108.79,-66.73],[107.11,-66.16],[105.44,-66.24],[103.87,-65.63],[103.7,-65.38],[104.13,-65.2],[103.38,-64.89],[100.3,-65.21],[99.52,-65.8],[99.65,-66.05],[98.09,-66.3],[96.79,-65.88],[95.91,-66.45],[92.61,-66.61],[91.4,-66.13],[90.4,-66.67],[87.08,-66.71],[86.52,-66.33],[84.9,-66.19],[84.33,-66.57],[84.86,-66.95],[77.91,-67.97],[78.27,-68.62],[76.83,-69.3],[73.06,-69.53],[71.43,-70.14],[71.62,-70.79],[70.75,-71.09],[72.0,-71.2],[73.7,-70.59],[73.44,-69.94],[76.52,-70.03],[80.18,-68.08],[81.92,-68.02],[84.28,-67.32],[85.97,-67.47],[87.09,-66.96],[98.21,-66.55],[99.57,-66.97],[100.67,-66.88],[101.47,-66.28],[103.6,-66.06],[105.19,-66.67],[106.89,-66.59],[108.59,-67.17],[110.71,-66.85],[111.11,-66.65],[110.87,-66.41],[112.27,-66.04],[114.68,-66.57],[114.95,-66.8],[114.58,-67.01],[113.55,-67.2],[114.76,-67.68],[118.47,-67.08],[118.75,-67.74],[119.42,-67.74],[122.63,-66.83],[124.25,-67.01],[126.05,-66.51],[126.51,-67.14],[129.17,-67.44],[130.03,-67.16],[130.26,-66.93],[129.87,-66.74],[130.91,-66.22],[130.52,-66.03],[129.1,-66.35],[129.02,-67.01],[128.4,-67.05],[127.4,-66.88],[126.91,-66.25],[125.07,-66.33]],[[101.77,-65.85],[101.62,-65.61],[102.07,-65.43],[102.82,-65.75],[101.77,-65.85]]],[[[35.44,44.66],[36.76,45.05],[37.78,44.63],[37.96,44.02],[38.78,44.2],[38.96,43.58],[40.73,42.91],[40.73,43.31],[39.44,43.77],[39.26,44.38],[37.43,45.04],[37.72,45.84],[35.2,45.67],[36.32,46.66],[37.69,46.63],[37.88,46.03],[38.22,46.02],[38.37,46.61],[39.19,46.79],[39.17,47.21],[38.34,47.4],[37.17,46.84],[36.3,47.06],[34.79,46.47],[34.7,45.47],[35.41,45.07],[34.4,45.07],[34.28,44.46],[33.76,44.65],[33.87,45.27],[33.15,45.66],[33.79,46.07],[33.6,46.27],[32.76,46.06],[32.02,46.45],[31.97,46.85],[30.57,46.81],[30.48,46.2],[29.49,45.75],[29.61,44.94],[28.58,44.89],[28.78,44.69],[28.16,44.25],[28.43,43.64],[27.35,42.94],[27.48,42.11],[28.01,41.93],[27.88,42.77],[28.83,43.25],[28.91,43.88],[31.33,43.57],[32.44,44.22],[34.31,44.05],[35.44,44.66]]],[[[-159.66,22.4],[-160.93,21.84],[-160.98,21.41],[-160.13,21.78],[-159.06,21.7],[-159.01,22.13],[-159.66,22.4]]],[[[166.07,10.39],[165.68,10.52],[165.84,9.8],[166.46,10.27],[166.07,10.39]]],[[[-72.69,-43.7],[-73.08,-43.42],[-72.41,-43.15],[-72.89,-42.65],[-72.52,-41.71],[-72.89,-41.43],[-74.5,-41.9],[-74.51,-42.51],[-73.93,-42.02],[-73.55,-42.31],[-73.95,-43.25],[-74.62,-42.9],[-75.43,-43.55],[-74.56,-44.36],[-75.79,-44.73],[-74.91,-45.54],[-75.64,-45.81],[-76.02,-47.01],[-74.44,-47.3],[-75.74,-47.7],[-76.14,-48.9],[-75.61,-49.42],[-76.12,-50.39],[-75.24,-50.96],[-75.38,-51.36],[-75.96,-51.49],[-75.41,-51.99],[-75.55,-52.4],[-74.73,-52.73],[-74.76,-53.35],[-73.92,-53.67],[-73.94,-54.3],[-71.46,-54.94],[-71.39,-54.57],[-72.37,-54.06],[-73.33,-54.16],[-73.21,-53.76],[-73.8,-53.27],[-73.55,-52.46],[-75.06,-52.05],[-74.23,-51.74],[-74.79,-51.24],[-74.54,-50.44],[-75.55,-50.28],[-74.75,-49.98],[-75.58,-48.79],[-75.32,-47.98],[-74.24,-47.75],[-73.92,-47.18],[-74.43,-46.68],[-75.36,-46.5],[-74.62,-46.22],[-74.16,-44.03],[-73.67,-43.92],[-73.98,-45.09],[-73.58,-45.38],[-73.28,-44.2],[-72.69,-43.7]]],[[[180.0,-83.82],[171.74,-83.46],[170.86,-83.26],[172.0,-83.07],[171.17,-82.87],[164.29,-82.39],[163.74,-82.18],[164.88,-82.01],[162.73,-81.77],[162.26,-81.56],[163.35,-81.4],[161.0,-80.94],[162.03,-80.78],[161.63,-80.58],[163.15,-80.05],[161.47,-79.81],[161.13,-79.6],[162.02,-79.45],[161.67,-79.25],[167.68,-78.85],[168.4,-78.68],[167.97,-78.49],[168.67,-78.32],[168.24,-78.13],[168.91,-77.96],[168.49,-77.77],[170.2,-77.61],[170.81,-77.44],[170.38,-77.26],[166.77,-77.06],[165.67,-77.61],[163.61,-77.26],[163.42,-77.03],[164.11,-76.87],[163.91,-76.65],[162.36,-76.73],[162.53,-76.96],[161.82,-77.12],[161.99,-77.35],[164.02,-77.71],[164.24,-77.94],[163.49,-78.1],[163.71,-78.32],[164.93,-78.61],[161.12,-78.57],[161.3,-78.79],[160.45,-78.95],[160.62,-79.17],[158.95,-79.71],[159.25,-79.91],[158.27,-80.06],[158.57,-80.27],[157.54,-80.41],[159.56,-80.89],[158.47,-81.04],[158.81,-81.25],[160.7,-81.51],[159.55,-81.67],[159.95,-81.88],[162.04,-82.14],[160.81,-82.3],[161.29,-82.51],[168.08,-83.04],[168.84,-83.24],[167.58,-83.43],[168.38,-83.63],[177.06,-84.04],[178.29,-84.23],[177.13,-84.44],[178.45,-84.63],[180.0,-84.62],[180.0,-83.82]]],[[[-180.0,-84.62],[-166.04,-84.94],[-162.19,-85.46],[-139.39,-85.15],[-140.08,-84.91],[-138.21,-84.73],[-141.8,-84.21],[-140.1,-84.04],[-140.64,-83.81],[-139.08,-83.63],[-139.62,-83.4],[-146.76,-83.6],[-148.88,-83.28],[-143.89,-83.04],[-144.22,-82.81],[-139.7,-82.53],[-140.14,-82.3],[-143.79,-81.95],[-148.07,-82.19],[-151.24,-81.78],[-151.32,-81.55],[-149.99,-81.41],[-142.0,-81.16],[-143.97,-80.64],[-142.89,-80.48],[-143.16,-80.25],[-142.13,-80.08],[-142.4,-79.86],[-148.35,-79.74],[-150.83,-79.11],[-154.03,-79.06],[-153.01,-78.48],[-156.91,-78.08],[-157.68,-77.53],[-154.91,-77.39],[-151.12,-77.99],[-148.2,-78.01],[-144.76,-77.4],[-144.93,-77.18],[-144.13,-77.03],[-145.4,-76.53],[-143.51,-75.62],[-141.56,-75.94],[-135.94,-74.98],[-133.89,-75.23],[-127.89,-74.69],[-125.28,-75.06],[-123.94,-74.83],[-128.19,-74.09],[-130.5,-74.68],[-130.85,-74.48],[-130.35,-74.29],[-131.52,-74.08],[-134.5,-74.82],[-134.8,-74.61],[-134.24,-74.43],[-135.36,-74.2],[-136.22,-74.77],[-139.99,-75.01],[-141.08,-75.56],[-143.0,-75.25],[-146.07,-75.44],[-147.43,-75.95],[-149.05,-76.03],[-149.7,-76.6],[-153.1,-77.14],[-154.85,-76.73],[-159.21,-76.87],[-158.55,-77.42],[-159.62,-77.75],[-155.13,-79.41],[-158.57,-79.76],[-158.47,-79.54],[-161.95,-78.39],[-165.71,-79.11],[-165.97,-79.32],[-164.3,-79.82],[-164.54,-80.04],[-154.05,-80.2],[-151.78,-79.7],[-150.54,-80.02],[-154.07,-80.89],[-157.86,-80.79],[-160.74,-81.24],[-164.54,-81.07],[-166.31,-81.38],[-164.22,-81.89],[-161.36,-81.92],[-161.59,-82.15],[-155.61,-82.17],[-154.13,-82.51],[-157.51,-82.99],[-160.85,-82.98],[-163.5,-82.48],[-167.41,-82.88],[-176.65,-82.57],[-177.39,-82.79],[-176.24,-82.96],[-177.01,-83.17],[-172.41,-83.47],[-173.11,-83.69],[-171.66,-83.85],[-174.66,-84.13],[-180.0,-83.82],[-180.0,-84.62]],[[-161.68,-79.4],[-163.83,-79.37],[-162.47,-79.06],[-161.51,-79.18],[-161.68,-79.4]]],[[[69.1,-67.48],[67.71,-67.83],[64.27,-67.23],[62.86,-67.54],[60.58,-67.02],[59.17,-67.29],[58.25,-67.11],[57.86,-66.49],[53.13,-65.54],[48.11,-66.7],[47.68,-67.3],[46.37,-67.05],[45.86,-67.61],[42.91,-67.88],[43.69,-68.17],[47.57,-67.71],[47.68,-68.33],[48.26,-68.35],[49.18,-68.17],[49.6,-67.56],[51.05,-67.38],[51.45,-66.36],[53.65,-65.95],[56.47,-66.74],[55.35,-67.18],[55.65,-67.38],[57.09,-67.14],[59.26,-67.71],[60.7,-67.44],[63.02,-67.95],[64.45,-67.65],[68.59,-68.19],[69.32,-68.79],[69.15,-69.02],[67.66,-69.37],[67.74,-70.02],[66.86,-70.3],[68.51,-70.62],[67.4,-71.13],[67.9,-71.32],[67.69,-71.55],[66.74,-71.82],[67.25,-72.01],[67.03,-72.24],[66.03,-72.51],[66.56,-72.7],[66.31,-72.92],[65.27,-73.19],[67.16,-73.52],[68.99,-73.2],[69.2,-72.97],[68.64,-72.79],[68.85,-72.56],[71.66,-71.68],[67.99,-71.96],[69.86,-71.39],[70.04,-71.15],[68.9,-70.15],[70.58,-69.56],[70.75,-69.32],[70.26,-69.14],[71.22,-68.6],[70.75,-68.43],[70.59,-67.77],[69.1,-67.48]]],[[[175.96,-36.1],[175.16,-35.81],[174.52,-34.88],[173.76,-34.82],[173.44,-34.23],[172.44,-34.3],[173.02,-35.01],[172.84,-35.65],[174.62,-37.48],[173.6,-39.69],[174.41,-39.73],[175.08,-40.65],[173.44,-40.58],[172.84,-40.14],[171.81,-40.72],[173.31,-41.7],[174.08,-41.25],[173.21,-43.07],[173.77,-43.01],[174.4,-41.59],[175.81,-41.8],[176.22,-41.01],[176.99,-40.79],[177.34,-39.76],[178.08,-39.54],[178.98,-37.57],[178.67,-37.25],[176.69,-37.5],[175.96,-36.1]],[[175.94,-40.92],[175.19,-41.38],[175.57,-40.35],[174.34,-39.25],[175.07,-38.8],[174.73,-38.21],[175.17,-37.67],[174.86,-37.33],[175.06,-36.94],[175.99,-37.95],[177.08,-38.31],[178.27,-37.79],[177.95,-38.82],[176.7,-39.1],[177.06,-39.67],[175.94,-40.92]],[[174.62,-35.62],[174.52,-36.74],[173.32,-35.36],[174.06,-35.17],[174.62,-35.62]]],[[[-78.68,-73.74],[-73.38,-73.99],[-67.79,-73.23],[-67.33,-73.01],[-68.58,-72.78],[-68.96,-72.56],[-68.51,-72.34],[-66.44,-72.58],[-66.01,-71.92],[-67.58,-71.47],[-67.16,-71.26],[-67.53,-71.04],[-67.09,-70.38],[-68.52,-69.94],[-65.95,-69.29],[-67.33,-68.86],[-66.97,-68.65],[-67.29,-68.43],[-66.94,-68.21],[-67.23,-67.57],[-66.24,-67.35],[-65.93,-68.0],[-66.27,-68.21],[-65.93,-68.43],[-66.28,-68.65],[-62.72,-69.47],[-63.0,-70.13],[-62.6,-70.34],[-62.94,-70.57],[-62.53,-70.78],[-62.88,-71.01],[-61.23,-71.41],[-62.75,-71.88],[-61.02,-72.29],[-61.38,-72.52],[-60.9,-72.73],[-61.28,-72.96],[-62.53,-73.2],[-61.95,-73.86],[-62.37,-74.09],[-61.85,-74.3],[-64.64,-74.78],[-65.12,-75.0],[-64.61,-75.22],[-65.1,-75.44],[-64.59,-75.66],[-66.66,-76.1],[-71.66,-76.7],[-78.05,-76.46],[-77.72,-76.7],[-78.46,-76.89],[-78.13,-77.13],[-76.66,-77.42],[-81.33,-77.87],[-78.31,-78.47],[-77.92,-78.72],[-78.8,-78.9],[-83.32,-77.97],[-85.35,-78.06],[-83.72,-78.63],[-84.66,-78.8],[-84.42,-79.05],[-82.88,-79.37],[-77.59,-79.63],[-77.15,-79.87],[-80.52,-80.18],[-80.13,-80.43],[-76.2,-80.35],[-75.69,-80.59],[-76.69,-80.78],[-76.17,-81.02],[-73.99,-81.3],[-67.33,-81.4],[-66.51,-81.63],[-67.42,-81.84],[-66.56,-82.07],[-67.52,-82.28],[-63.66,-82.73],[-64.63,-82.95],[-63.54,-83.16],[-64.57,-83.38],[-63.4,-83.6],[-64.5,-83.82],[-60.83,-84.03],[-57.51,-83.77],[-56.66,-83.54],[-58.03,-83.34],[-55.14,-83.07],[-54.45,-82.83],[-55.74,-82.64],[-52.62,-82.11],[-43.29,-82.66],[-41.24,-82.31],[-41.04,-82.06],[-42.5,-81.91],[-40.49,-81.3],[-36.07,-81.22],[-36.03,-80.96],[-33.2,-80.96],[-30.6,-80.43],[-22.73,-80.25],[-23.03,-80.0],[-21.94,-79.83],[-22.24,-79.58],[-27.12,-79.73],[-29.95,-79.01],[-34.63,-79.05],[-35.79,-78.92],[-35.76,-78.66],[-33.55,-78.15],[-33.57,-77.89],[-31.58,-77.36],[-31.64,-77.1],[-28.71,-76.92],[-28.82,-76.67],[-26.91,-76.61],[-25.35,-76.04],[-18.24,-75.65],[-18.52,-75.41],[-17.81,-75.22],[-18.09,-74.97],[-14.23,-74.51],[-14.55,-74.27],[-13.95,-74.07],[-15.46,-73.54],[-12.0,-73.04],[-12.33,-72.8],[-10.44,-72.43],[-10.78,-72.2],[-10.13,-71.55],[-8.18,-71.84],[-6.49,-71.43],[-3.32,-71.47],[-0.88,-71.89],[2.82,-70.94],[8.04,-70.7],[11.07,-71.15],[12.71,-70.8],[14.53,-71.08],[16.08,-70.69],[26.3,-71.61],[31.2,-70.41],[33.63,-70.37],[34.52,-69.63],[39.03,-70.27],[39.53,-70.12],[39.37,-69.89],[39.85,-69.75],[40.01,-69.15],[42.85,-68.47],[41.04,-68.25],[40.31,-68.77],[39.23,-68.84],[39.06,-69.44],[36.3,-69.69],[34.14,-68.7],[32.44,-68.62],[31.98,-68.98],[32.66,-69.32],[31.14,-70.17],[28.66,-69.71],[28.11,-70.06],[28.76,-70.42],[28.15,-70.54],[26.9,-70.05],[25.07,-70.14],[26.91,-70.53],[26.3,-70.88],[21.35,-70.25],[19.97,-70.68],[18.9,-70.13],[17.46,-70.54],[16.04,-69.57],[15.25,-69.88],[15.79,-70.05],[15.66,-70.29],[13.74,-70.25],[12.86,-69.67],[12.01,-69.97],[12.53,-70.14],[12.35,-70.38],[11.65,-70.44],[10.81,-69.84],[7.07,-70.32],[1.38,-69.89],[0.01,-70.35],[0.43,-70.56],[2.67,-70.51],[0.19,-71.22],[-1.78,-71.02],[-2.19,-70.81],[-1.87,-70.15],[-2.99,-69.94],[-4.47,-70.37],[-4.1,-71.02],[-5.28,-71.23],[-5.66,-71.01],[-5.22,-70.36],[-6.32,-70.12],[-6.78,-70.77],[-9.08,-70.71],[-7.64,-71.19],[-8.08,-71.4],[-10.3,-70.88],[-12.31,-71.01],[-13.02,-71.65],[-12.72,-71.89],[-13.24,-72.08],[-12.95,-72.32],[-16.61,-73.24],[-16.34,-73.49],[-16.95,-73.68],[-16.68,-73.92],[-18.88,-74.23],[-18.62,-74.48],[-19.3,-74.66],[-19.05,-74.91],[-19.75,-75.09],[-19.5,-75.34],[-26.49,-75.69],[-28.05,-76.26],[-29.92,-76.3],[-29.83,-76.56],[-32.69,-76.73],[-32.65,-76.98],[-34.63,-77.76],[-38.03,-78.64],[-38.1,-78.9],[-35.84,-79.43],[-35.87,-79.69],[-32.11,-79.81],[-32.04,-80.06],[-33.31,-80.2],[-33.28,-80.45],[-40.04,-80.54],[-45.6,-81.84],[-50.34,-81.81],[-51.58,-81.63],[-51.1,-81.38],[-47.14,-80.75],[-44.42,-80.84],[-41.29,-80.39],[-41.13,-80.14],[-42.32,-79.98],[-40.67,-79.38],[-41.79,-79.22],[-41.63,-78.97],[-42.69,-78.81],[-42.52,-78.56],[-45.04,-77.57],[-50.19,-77.45],[-50.5,-77.7],[-49.64,-77.88],[-49.95,-78.13],[-52.02,-78.0],[-51.67,-77.76],[-52.93,-77.14],[-52.59,-76.89],[-53.34,-76.7],[-53.01,-76.46],[-53.73,-76.27],[-53.4,-76.02],[-54.09,-75.83],[-53.76,-75.59],[-55.43,-75.44],[-56.08,-75.24],[-55.73,-75.0],[-59.6,-74.02],[-59.23,-73.79],[-59.76,-73.58],[-59.39,-73.35],[-60.05,-72.7],[-58.53,-72.21],[-60.32,-71.82],[-59.98,-71.59],[-60.56,-70.95],[-59.16,-70.46],[-60.78,-70.07],[-60.46,-69.84],[-60.98,-69.2],[-63.16,-68.82],[-62.15,-68.58],[-61.85,-68.36],[-62.22,-68.15],[-64.24,-68.19],[-63.92,-67.97],[-64.29,-67.33],[-62.12,-66.63],[-60.5,-66.79],[-60.24,-66.56],[-60.6,-66.36],[-60.43,-65.71],[-61.38,-65.53],[-61.71,-65.33],[-61.45,-65.11],[-58.98,-65.42],[-58.86,-64.77],[-57.33,-64.89],[-56.54,-64.61],[-56.48,-63.96],[-54.43,-63.36],[-54.25,-63.12],[-54.61,-62.94],[-56.38,-62.67],[-57.87,-63.21],[-59.29,-63.09],[-60.3,-63.56],[-61.72,-63.42],[-62.02,-63.22],[-61.78,-63.0],[-60.38,-63.15],[-57.38,-62.11],[-57.19,-61.89],[-57.51,-61.7],[-62.62,-62.82],[-62.82,-63.46],[-62.52,-63.66],[-64.45,-64.35],[-64.12,-64.97],[-64.41,-65.19],[-65.88,-65.0],[-66.19,-65.64],[-67.71,-65.86],[-68.08,-66.49],[-69.05,-66.7],[-68.76,-66.91],[-70.11,-67.32],[-69.91,-67.97],[-67.97,-68.43],[-68.4,-69.07],[-71.06,-68.59],[-72.56,-68.98],[-72.28,-69.2],[-72.7,-69.41],[-75.48,-69.29],[-76.39,-70.33],[-76.14,-70.56],[-77.87,-70.9],[-75.87,-71.46],[-75.6,-71.69],[-76.11,-71.89],[-75.84,-72.12],[-72.79,-72.69],[-72.46,-72.92],[-72.98,-73.12],[-75.28,-72.59],[-76.09,-72.55],[-76.92,-73.17],[-81.27,-72.67],[-82.71,-73.68],[-84.7,-73.05],[-86.93,-73.05],[-87.93,-72.48],[-92.13,-72.65],[-94.96,-72.22],[-96.29,-71.51],[-100.2,-71.51],[-102.98,-71.94],[-103.08,-72.18],[-101.11,-72.34],[-101.19,-72.58],[-105.54,-72.95],[-105.69,-73.19],[-103.64,-73.38],[-103.76,-73.62],[-103.09,-73.76],[-104.15,-74.34],[-103.45,-74.48],[-103.58,-74.73],[-105.44,-75.16],[-108.58,-75.03],[-110.06,-74.08],[-115.65,-73.67],[-117.62,-73.99],[-121.99,-73.38],[-124.0,-73.64],[-126.79,-73.09],[-128.01,-73.3],[-127.65,-73.5],[-128.1,-73.7],[-127.73,-73.89],[-123.1,-74.41],[-122.58,-75.0],[-117.76,-74.61],[-104.88,-75.55],[-102.98,-75.11],[-101.57,-75.63],[-99.89,-75.66],[-98.08,-74.93],[-98.85,-74.81],[-98.8,-74.56],[-101.09,-74.41],[-101.0,-74.17],[-98.56,-73.34],[-92.73,-73.28],[-91.14,-73.73],[-89.82,-73.19],[-88.15,-73.62],[-85.19,-73.46],[-83.17,-74.09],[-81.65,-73.99],[-80.62,-73.39],[-78.68,-73.74]],[[-62.31,-65.35],[-62.52,-66.0],[-64.04,-66.25],[-64.32,-66.9],[-66.23,-66.92],[-65.28,-66.7],[-64.98,-66.05],[-63.46,-65.81],[-63.22,-65.16],[-62.31,-65.35]],[[-70.05,-71.88],[-72.29,-71.38],[-69.94,-71.44],[-69.5,-71.23],[-69.84,-71.01],[-68.65,-70.81],[-68.37,-71.47],[-68.8,-71.68],[-68.44,-71.9],[-70.05,-71.88]],[[-72.86,-69.84],[-72.57,-70.06],[-73.02,-70.27],[-74.02,-70.01],[-72.86,-69.84]],[[-43.92,-80.33],[-49.81,-80.65],[-51.54,-80.04],[-49.75,-79.73],[-49.39,-79.48],[-50.38,-79.3],[-48.73,-78.98],[-48.43,-78.73],[-49.37,-78.55],[-49.06,-78.31],[-47.85,-78.23],[-46.19,-78.83],[-46.45,-79.08],[-43.06,-79.32],[-44.83,-79.92],[-43.69,-80.08],[-43.92,-80.33]],[[-72.89,-70.93],[-73.18,-70.7],[-72.73,-70.5],[-71.68,-70.75],[-72.89,-70.93]],[[-69.66,-70.14],[-71.42,-69.88],[-71.59,-69.23],[-70.49,-69.04],[-70.29,-69.69],[-69.25,-69.93],[-69.66,-70.14]],[[-60.77,-64.01],[-59.88,-64.18],[-60.69,-64.43],[-61.02,-64.24],[-60.77,-64.01]]],[[[-114.08,50.08],[-113.49,50.17],[-113.34,51.16],[-114.53,50.97],[-114.06,50.68],[-114.08,50.08]]],[[[131.74,26.06],[131.09,26.24],[130.8,25.93],[131.17,25.44],[131.74,26.06]]],[[[16.19,47.84],[16.21,47.24],[15.27,47.29],[15.54,46.52],[16.44,47.07],[17.84,47.29],[18.89,46.21],[19.7,46.52],[20.04,45.95],[20.86,46.26],[21.25,47.53],[22.11,48.42],[21.52,48.56],[20.08,47.79],[18.9,48.04],[18.54,48.59],[17.95,48.71],[17.94,49.3],[17.1,49.58],[15.8,48.98],[15.93,48.61],[15.36,48.11],[16.19,47.84]]],[[[-57.23,-35.17],[-57.34,-34.61],[-56.63,-34.89],[-56.94,-34.42],[-58.51,-34.13],[-58.63,-34.6],[-57.42,-35.26],[-57.55,-35.73],[-56.68,-35.73],[-57.23,-35.17]]],[[[-81.17,-4.02],[-80.09,-3.56],[-80.18,-2.54],[-80.62,-2.58],[-80.35,-3.19],[-81.0,-3.37],[-81.17,-4.02]]],[[[180.0,89.82],[76.77,89.78],[101.71,89.39],[96.75,89.15],[106.9,88.97],[83.46,88.29],[83.59,88.05],[89.46,87.92],[88.92,87.67],[83.76,87.55],[83.83,87.3],[79.6,87.16],[79.99,86.91],[73.99,86.35],[78.32,85.77],[70.43,85.53],[71.16,85.29],[68.0,84.69],[68.72,84.45],[67.05,84.27],[67.76,84.03],[66.23,83.85],[66.92,83.62],[65.52,83.43],[66.19,83.2],[62.94,83.05],[61.75,82.86],[62.49,82.63],[61.39,82.44],[59.57,82.47],[58.76,82.69],[59.83,82.89],[58.98,83.12],[56.0,83.35],[57.09,83.56],[56.05,83.78],[50.38,83.99],[46.5,83.52],[47.79,83.33],[45.09,83.07],[44.46,82.85],[45.69,82.66],[45.07,82.44],[41.1,82.13],[40.66,81.9],[41.82,81.72],[41.38,81.49],[36.03,80.64],[32.21,80.65],[30.68,80.11],[20.8,80.9],[15.46,80.04],[9.64,79.98],[8.74,79.83],[10.38,79.55],[10.72,79.34],[9.86,79.19],[7.02,79.52],[6.59,79.74],[7.45,79.89],[7.01,80.11],[5.18,80.37],[-2.63,79.99],[-3.31,79.81],[-2.68,79.61],[-6.9,78.72],[-6.27,78.53],[-6.8,78.35],[-12.46,77.72],[-12.72,77.5],[-12.07,77.33],[-12.33,77.11],[-15.43,76.49],[-15.62,76.26],[-14.99,76.1],[-15.19,75.88],[-16.98,75.51],[-18.66,76.43],[-17.47,76.96],[-18.18,77.12],[-18.01,77.35],[-15.76,77.94],[-18.25,78.18],[-16.86,78.71],[-17.68,78.86],[-17.47,79.09],[-15.89,79.33],[-17.24,79.85],[-13.72,80.32],[-13.23,80.52],[-14.14,80.69],[-13.64,80.89],[-11.6,81.11],[-12.55,81.29],[-9.73,81.7],[-13.44,82.04],[-17.27,81.77],[-19.19,82.3],[-16.37,82.77],[-26.98,83.86],[-38.71,83.9],[-42.04,83.41],[-47.57,83.41],[-49.99,82.88],[-55.68,83.01],[-53.7,83.56],[-54.4,83.78],[-52.91,83.95],[-53.62,84.16],[-52.0,84.33],[-52.73,84.55],[-50.96,84.72],[-55.33,85.19],[-52.24,85.76],[-53.25,85.98],[-50.82,86.15],[-57.09,86.63],[-54.37,86.81],[-55.91,87.03],[-52.72,87.21],[-54.36,87.44],[-50.5,87.61],[-52.22,87.84],[-47.39,88.01],[-60.47,88.5],[-54.3,88.69],[-58.52,88.91],[-49.12,89.09],[-54.18,89.32],[-35.92,89.48],[-36.98,89.72],[-89.48,89.72],[-111.01,89.32],[-106.9,89.08],[-116.33,88.9],[-112.56,88.67],[-118.68,88.47],[-115.52,88.24],[-120.0,88.04],[-117.32,87.82],[-120.84,87.61],[-118.53,87.39],[-121.43,87.19],[-119.4,86.96],[-126.1,86.76],[-128.0,86.53],[-125.94,86.33],[-131.15,86.08],[-133.36,86.28],[-131.95,86.51],[-134.5,86.7],[-132.97,86.93],[-135.96,87.12],[-134.32,87.36],[-137.94,87.55],[-136.19,87.78],[-144.94,88.38],[-128.9,88.91],[-137.61,89.1],[-131.65,89.34],[-149.07,89.51],[-144.19,89.76],[-180.0,89.82],[-180.0,-90.0],[180.0,-90.0],[180.0,89.82]],[[-28.94,81.88],[-27.6,81.75],[-27.79,81.54],[-30.56,81.57],[-28.94,81.88]]],[[[67.76,66.24],[66.06,66.44],[65.74,66.06],[64.3,65.81],[64.99,65.52],[66.98,65.71],[67.76,66.24]]],[[[146.23,17.13],[145.98,18.17],[145.53,18.26],[145.79,17.22],[146.23,17.13]]],[[[169.34,14.57],[168.78,14.89],[168.44,14.64],[169.01,14.33],[169.34,14.57]]],[[[-77.7,25.93],[-77.93,25.61],[-77.55,25.57],[-76.83,26.76],[-77.56,27.3],[-79.19,26.99],[-79.34,25.38],[-78.95,25.35],[-79.09,25.94],[-78.65,26.36],[-77.86,26.29],[-77.7,25.93]]],[[[-100.61,52.04],[-100.21,51.69],[-100.45,51.07],[-99.43,50.98],[-99.58,49.64],[-98.6,49.54],[-97.86,48.59],[-96.58,48.6],[-96.94,49.2],[-96.64,49.57],[-95.35,50.05],[-97.16,52.14],[-98.22,52.24],[-98.85,51.73],[-100.0,52.56],[-100.61,52.04]]],[[[169.45,-72.14],[170.33,-72.42],[168.35,-72.25],[167.89,-72.41],[168.08,-72.63],[168.96,-72.91],[164.53,-73.75],[164.31,-74.36],[162.39,-74.6],[162.07,-75.21],[161.43,-75.36],[162.54,-75.9],[161.87,-76.05],[162.03,-76.28],[162.87,-76.35],[164.0,-75.81],[162.85,-75.28],[166.55,-74.56],[165.42,-74.04],[168.43,-73.68],[170.58,-73.84],[170.34,-73.62],[170.8,-73.45],[169.65,-72.97],[171.22,-72.68],[170.99,-72.47],[171.6,-71.92],[170.74,-71.65],[170.72,-71.05],[167.07,-70.69],[169.48,-71.54],[169.45,-72.14]]],[[[-97.69,23.98],[-98.12,23.2],[-98.06,22.18],[-97.56,21.7],[-97.75,21.06],[-96.02,18.52],[-95.12,18.57],[-94.65,18.1],[-92.89,18.19],[-92.45,18.71],[-91.58,18.74],[-91.8,19.1],[-92.68,19.07],[-93.11,18.55],[-94.44,18.49],[-94.91,18.96],[-95.81,18.91],[-97.29,21.09],[-97.09,21.73],[-97.6,22.46],[-96.91,22.63],[-96.26,23.8],[-97.03,24.91],[-96.87,26.31],[-97.38,26.8],[-96.95,27.83],[-93.85,29.54],[-92.4,29.54],[-91.44,29.04],[-91.45,29.78],[-94.84,29.77],[-95.35,30.27],[-96.09,30.13],[-95.56,29.39],[-95.77,28.75],[-97.93,27.79],[-98.8,26.22],[-97.74,24.75],[-97.69,23.98]]],[[[-71.74,-17.63],[-71.21,-18.31],[-70.77,-18.24],[-71.59,-16.99],[-74.42,-15.83],[-74.13,-16.43],[-72.74,-16.76],[-72.45,-17.35],[-71.74,-17.63]]],[[[-83.66,10.42],[-83.23,10.45],[-83.71,11.1],[-83.66,10.42]]],[[[-156.64,20.39],[-155.79,18.53],[-154.77,19.09],[-154.76,20.19],[-155.83,20.31],[-155.89,20.97],[-156.64,21.49],[-157.34,21.33],[-158.05,22.27],[-158.58,21.22],[-157.5,21.13],[-157.07,20.21],[-156.64,20.39]],[[-155.46,20.05],[-155.08,19.79],[-155.3,19.15],[-156.05,19.67],[-155.46,20.05]]],[[[30.83,51.29],[29.83,50.51],[30.63,50.15],[31.52,50.36],[31.63,50.93],[32.16,51.13],[31.89,51.69],[30.83,51.29]]],[[[-85.78,10.27],[-85.61,10.85],[-86.22,10.47],[-85.73,9.59],[-84.21,9.36],[-84.47,9.91],[-85.32,9.85],[-85.78,10.27]]],[[[19.15,-34.59],[19.65,-35.15],[20.57,-34.55],[18.82,-34.22],[18.73,-33.44],[17.8,-32.68],[17.82,-34.04],[19.15,-34.59]]],[[[-90.5,-0.28],[-90.74,0.07],[-89.87,0.14],[-89.67,0.53],[-91.21,0.78],[-91.16,-0.2],[-90.68,-0.92],[-91.31,-1.34],[-90.42,-1.78],[-89.81,-0.86],[-89.77,-1.61],[-89.33,-1.57],[-88.95,-0.54],[-90.5,-0.28]]],[[[166.53,9.34],[167.3,9.09],[167.52,8.57],[168.15,9.03],[167.54,9.68],[166.53,9.34]]],[[[-17.87,27.73],[-17.63,28.11],[-16.64,27.63],[-16.15,28.14],[-15.66,27.64],[-14.68,27.65],[-13.69,28.15],[-13.17,29.14],[-13.9,29.53],[-14.92,28.02],[-16.14,28.9],[-17.14,28.38],[-17.9,29.25],[-18.39,28.73],[-18.13,28.35],[-18.37,27.72],[-17.86,27.22],[-17.62,27.61],[-17.87,27.73]]],[[[12.62,44.11],[12.52,43.88],[13.31,43.61],[13.58,42.81],[14.0,43.11],[13.74,43.9],[12.95,44.17],[12.81,44.56],[13.24,44.86],[14.04,44.59],[14.86,43.69],[16.31,43.52],[16.66,42.94],[16.99,43.0],[16.75,43.81],[15.06,44.15],[14.54,45.73],[12.82,46.02],[10.08,45.24],[9.69,45.78],[8.55,45.93],[7.74,45.31],[11.35,44.68],[12.1,45.05],[12.34,44.89],[11.82,44.36],[12.62,44.11]]],[[[2.53,39.8],[2.19,39.47],[2.92,39.26],[4.47,40.17],[3.73,40.38],[2.53,39.8]]],[[[-16.39,32.58],[-15.87,33.09],[-16.13,33.47],[-16.65,32.96],[-17.7,32.95],[-16.65,32.19],[-16.39,32.58]]],[[[21.37,-34.12],[21.02,-34.72],[22.28,-34.47],[21.37,-34.12]]],[[[-71.45,-30.88],[-71.72,-30.59],[-71.14,-29.71],[-71.44,-29.2],[-70.86,-28.31],[-71.14,-28.01],[-71.9,-29.27],[-71.6,-29.79],[-72.19,-30.66],[-71.7,-32.46],[-72.11,-32.95],[-71.8,-33.44],[-72.4,-34.28],[-72.12,-34.55],[-71.33,-33.37],[-71.64,-32.88],[-71.24,-32.38],[-71.45,-30.88]]],[[[-8.64,33.62],[-9.77,32.18],[-9.27,32.16],[-8.43,33.24],[-8.64,33.62]]],[[[146.06,7.9],[145.58,7.73],[146.6,7.15],[146.49,7.81],[146.06,7.9]]],[[[-66.01,18.74],[-67.49,18.66],[-66.51,18.35],[-66.01,18.74]]],[[[-25.01,16.66],[-24.53,16.23],[-23.87,16.4],[-24.14,16.97],[-25.08,17.36],[-25.73,17.19],[-25.45,16.63],[-25.01,16.66]]],[[[-70.06,-20.36],[-70.33,-18.18],[-70.71,-18.73],[-70.54,-20.18],[-70.06,-20.36]]],[[[36.21,55.73],[36.49,55.14],[37.67,54.8],[39.2,54.88],[39.35,55.5],[41.72,56.41],[43.35,56.03],[44.19,56.45],[43.37,56.86],[43.38,57.27],[44.25,57.7],[44.27,58.12],[43.63,58.31],[41.7,57.65],[41.48,58.26],[40.41,58.42],[40.43,58.01],[39.81,57.78],[38.27,58.72],[38.22,59.13],[37.8,59.1],[37.01,58.64],[38.53,58.13],[37.75,57.67],[38.98,57.74],[39.05,56.93],[40.5,56.37],[38.11,56.26],[38.06,56.67],[38.65,56.91],[38.43,57.1],[35.58,57.31],[35.02,57.07],[34.94,56.45],[36.21,55.73]]],[[[52.18,-46.53],[52.49,-46.5],[52.35,-46.13],[51.56,-46.59],[52.18,-46.53]]],[[[-91.34,44.77],[-92.23,44.93],[-93.1,46.02],[-94.31,45.59],[-93.42,44.5],[-91.66,44.43],[-91.34,44.77]]],[[[170.24,9.33],[170.41,9.72],[169.8,9.82],[169.84,8.9],[170.22,8.77],[170.24,9.33]]],[[[-38.61,-54.27],[-36.14,-55.12],[-35.39,-54.67],[-35.74,-54.1],[-37.13,-53.63],[-38.19,-53.72],[-38.61,-54.27]]],[[[-70.32,-23.66],[-70.62,-23.11],[-71.07,-23.18],[-70.95,-24.12],[-70.32,-23.66]]],[[[-66.63,-55.7],[-63.33,-54.83],[-64.78,-54.32],[-65.78,-54.54],[-66.97,-54.19],[-66.96,-53.82],[-68.25,-52.92],[-67.99,-52.0],[-68.5,-51.79],[-68.56,-51.18],[-69.09,-51.33],[-69.16,-51.73],[-68.57,-52.19],[-68.77,-52.37],[-70.12,-52.24],[-70.43,-52.82],[-71.71,-52.27],[-72.5,-52.59],[-71.91,-53.07],[-72.13,-53.88],[-71.16,-54.39],[-69.58,-54.4],[-69.35,-54.22],[-70.09,-53.84],[-69.27,-53.47],[-70.52,-53.22],[-68.81,-52.74],[-68.84,-53.1],[-67.56,-54.02],[-67.58,-54.39],[-66.39,-54.75],[-67.22,-55.14],[-68.23,-54.96],[-68.49,-55.53],[-70.66,-54.96],[-71.53,-55.32],[-71.37,-55.51],[-70.31,-55.34],[-67.71,-56.3],[-66.64,-56.09],[-66.63,-55.7]]],[[[-143.19,61.44],[-142.93,61.11],[-142.4,61.41],[-143.19,61.44]]],[[[141.44,24.4],[141.84,24.1],[141.58,25.06],[140.97,25.51],[141.44,24.4]]],[[[-89.05,13.33],[-88.85,12.99],[-88.24,13.14],[-88.44,13.48],[-89.05,13.33]]],[[[150.76,-68.84],[154.46,-68.72],[156.17,-69.52],[158.79,-69.32],[158.17,-68.99],[156.08,-69.05],[154.39,-68.01],[152.36,-68.49],[150.25,-68.48],[150.76,-68.84]]],[[[70.13,-49.83],[70.73,-49.9],[70.56,-49.52],[69.02,-49.45],[68.63,-48.92],[68.19,-49.22],[68.74,-50.13],[70.13,-49.83]]],[[[153.12,6.86],[152.11,7.2],[151.83,8.02],[151.32,7.62],[152.02,6.71],[152.84,6.54],[153.12,6.86]]],[[[-74.95,-15.13],[-75.66,-14.83],[-75.11,-15.78],[-74.66,-15.73],[-74.95,-15.13]]],[[[169.58,6.36],[169.27,6.14],[170.01,5.9],[169.58,6.36]]],[[[170.12,10.05],[170.29,10.45],[169.67,10.55],[170.12,10.05]]],[[[163.15,-66.64],[162.15,-66.46],[162.85,-67.01],[163.76,-66.95],[163.15,-66.64]]],[[[-106.4,52.02],[-107.51,52.28],[-106.62,51.64],[-106.4,52.02]]],[[[-62.2,17.67],[-62.1,17.06],[-62.58,17.57],[-63.15,17.51],[-62.64,17.97],[-63.1,18.46],[-63.65,18.2],[-63.53,17.41],[-62.72,17.22],[-61.2,15.05],[-61.01,16.39],[-61.87,16.81],[-61.44,17.87],[-62.2,17.67]]],[[[176.06,52.27],[176.62,52.49],[176.0,52.67],[176.06,52.27]]],[[[123.71,71.66],[125.03,71.81],[123.94,72.09],[123.42,71.9],[123.71,71.66]]],[[[7.83,48.81],[7.49,48.73],[7.66,48.37],[8.84,49.04],[8.51,49.76],[9.03,50.27],[8.0,50.04],[8.33,49.33],[7.83,48.81]]],[[[145.95,15.7],[145.42,15.3],[145.72,14.49],[145.95,15.7]]],[[[118.06,39.77],[116.82,40.31],[116.1,39.84],[116.61,39.55],[118.06,39.77]]],[[[24.75,-34.51],[25.15,-34.28],[25.09,-33.9],[22.51,-34.07],[24.75,-34.51]]],[[[73.89,-53.28],[74.34,-52.95],[72.99,-52.82],[73.13,-53.45],[73.89,-53.28]]],[[[-71.17,-27.78],[-70.41,-26.51],[-70.59,-25.13],[-71.16,-26.04],[-70.86,-26.58],[-71.44,-27.48],[-71.17,-27.78]]],[[[-119.53,38.52],[-118.25,38.89],[-117.97,39.92],[-118.63,40.28],[-119.2,39.32],[-119.94,39.9],[-120.46,39.79],[-120.56,39.16],[-119.53,38.52]]],[[[-176.48,-44.59],[-175.93,-44.54],[-175.83,-43.94],[-176.5,-43.53],[-177.27,-43.72],[-176.48,-44.59]]],[[[-60.3,-50.91],[-61.39,-50.99],[-61.51,-51.54],[-62.04,-51.76],[-61.25,-52.08],[-61.2,-52.44],[-59.62,-52.69],[-59.32,-53.23],[-57.37,-51.55],[-57.68,-51.03],[-58.56,-51.3],[-60.3,-50.91]],[[-59.0,-51.89],[-60.12,-51.99],[-60.4,-51.46],[-59.88,-51.23],[-59.59,-51.76],[-58.7,-51.5],[-58.63,-51.86],[-59.0,-51.89]]],[[[-60.68,14.3],[-60.96,14.78],[-61.34,14.68],[-61.22,13.84],[-60.68,14.3]]],[[[-54.8,-35.25],[-54.63,-34.96],[-55.79,-34.69],[-55.48,-35.16],[-54.8,-35.25]]],[[[-44.72,-60.28],[-46.05,-60.3],[-46.73,-60.85],[-44.1,-61.06],[-44.72,-60.28]]],[[[-97.67,15.66],[-96.98,15.34],[-95.66,15.44],[-95.24,15.96],[-94.37,16.02],[-93.48,15.59],[-93.03,14.64],[-92.39,14.56],[-92.17,13.97],[-91.32,13.55],[-90.28,13.73],[-90.49,14.07],[-91.12,13.92],[-91.96,14.35],[-92.18,14.94],[-92.82,15.02],[-93.27,15.97],[-94.16,16.4],[-95.92,16.29],[-96.78,15.73],[-97.7,16.16],[-97.67,15.66]]],[[[3.07,-54.3],[3.06,-54.69],[3.67,-54.48],[3.07,-54.3]]],[[[122.36,19.36],[122.05,20.09],[122.35,20.65],[122.01,21.14],[121.52,20.71],[121.79,19.76],[121.11,19.45],[121.94,19.4],[122.29,18.9],[122.36,19.36]]],[[[180.0,52.34],[177.25,52.31],[176.52,51.88],[179.52,51.33],[180.0,51.53],[180.0,52.34]]],[[[-180.0,51.53],[-179.74,51.74],[-179.99,52.35],[-180.0,51.53]]],[[[171.34,8.38],[171.23,9.1],[170.62,9.2],[171.06,8.71],[170.65,8.29],[171.4,8.03],[171.34,8.38]]],[[[3.8,48.37],[4.19,48.68],[3.62,48.72],[3.8,48.37]]],[[[-64.31,32.52],[-64.73,32.66],[-65.22,32.26],[-64.31,32.52]]],[[[64.63,63.47],[64.23,63.3],[64.87,63.01],[65.56,63.56],[66.49,63.66],[65.73,64.18],[66.03,64.57],[65.49,64.63],[64.79,64.08],[64.63,63.47]]],[[[158.54,6.92],[158.42,7.32],[157.81,7.33],[158.06,6.54],[158.67,6.52],[158.54,6.92]]],[[[145.62,19.83],[145.22,20.15],[145.52,19.36],[145.62,19.83]]],[[[115.85,-35.18],[116.69,-35.25],[115.88,-34.82],[115.85,-35.18]]],[[[136.95,-66.08],[134.65,-66.33],[134.02,-65.73],[131.7,-65.94],[131.5,-66.18],[131.89,-66.37],[143.27,-67.0],[144.12,-67.54],[143.38,-68.12],[143.87,-68.27],[145.09,-67.84],[144.68,-67.45],[145.37,-66.87],[136.95,-66.08]]],[[[-67.35,-49.7],[-67.17,-49.52],[-67.6,-49.28],[-67.85,-49.85],[-67.4,-50.1],[-67.35,-49.7]]],[[[160.91,9.88],[161.24,9.55],[161.0,10.34],[160.91,9.88]]],[[[83.78,63.54],[81.41,64.17],[81.9,63.58],[83.78,63.54]]],[[[162.04,12.03],[162.06,11.46],[162.46,11.33],[162.44,11.9],[162.04,12.03]]],[[[-91.14,19.0],[-90.49,19.88],[-90.71,20.25],[-91.36,19.37],[-91.14,19.0]]],[[[165.44,11.63],[165.75,11.29],[165.59,12.04],[165.44,11.63]]],[[[169.8,-43.36],[168.96,-43.78],[169.84,-43.85],[170.95,-43.27],[171.65,-41.85],[172.44,-41.41],[171.33,-41.51],[170.62,-42.93],[169.8,-43.36]]],[[[-113.76,53.31],[-113.78,52.69],[-112.78,52.72],[-112.48,53.51],[-111.56,53.76],[-113.21,54.26],[-113.36,53.87],[-114.26,53.6],[-113.76,53.31]]],[[[168.04,-28.75],[167.81,-29.13],[168.06,-29.25],[168.3,-29.12],[168.04,-28.75]]],[[[91.8,-65.48],[92.48,-66.1],[93.56,-66.05],[92.86,-65.44],[91.8,-65.48]]],[[[-117.65,46.75],[-118.11,47.23],[-119.99,47.33],[-120.24,47.17],[-119.77,46.7],[-120.59,46.43],[-120.12,45.96],[-120.85,45.48],[-119.02,45.38],[-117.26,46.48],[-117.65,46.75]]],[[[-30.99,39.07],[-30.78,39.48],[-31.14,39.82],[-31.71,39.75],[-30.99,39.07]]],[[[32.01,52.25],[32.06,51.88],[32.59,52.07],[32.01,52.25]]],[[[-116.92,44.37],[-117.67,43.89],[-117.22,43.39],[-116.35,43.42],[-116.47,42.81],[-114.05,42.48],[-114.48,43.01],[-115.35,42.99],[-116.92,44.37]]],[[[-91.78,-0.62],[-91.98,-1.01],[-91.55,-0.98],[-91.37,-0.34],[-91.78,-0.62]]],[[[-80.66,-2.07],[-81.12,-1.86],[-81.29,-2.5],[-80.66,-2.07]]],[[[171.67,6.3],[171.5,5.93],[172.45,5.71],[171.98,6.51],[171.67,6.3]]],[[[-20.46,-74.34],[-19.78,-74.16],[-20.02,-73.91],[-19.36,-73.73],[-19.59,-73.49],[-23.17,-74.11],[-21.87,-74.69],[-20.94,-74.77],[-20.23,-74.59],[-20.46,-74.34]]],[[[-89.83,21.25],[-88.53,21.27],[-88.3,21.63],[-89.83,21.74],[-89.83,21.25]]],[[[148.93,7.72],[149.07,7.31],[149.73,7.3],[149.59,7.72],[148.93,7.72]]],[[[-95.9,41.45],[-96.45,41.46],[-96.69,40.87],[-96.14,40.87],[-95.9,41.45]]],[[[145.53,-42.84],[145.15,-43.17],[145.41,-43.34],[145.73,-43.25],[145.53,-42.84]]],[[[-74.6,48.78],[-75.08,48.48],[-74.45,48.36],[-74.6,48.78]]],[[[140.33,10.12],[139.69,10.36],[139.4,10.02],[139.75,9.44],[140.73,9.79],[140.33,10.12]]],[[[-119.59,36.78],[-118.72,36.58],[-119.5,37.42],[-120.02,37.31],[-119.59,36.78]]],[[[-169.9,16.96],[-169.81,16.32],[-169.06,16.7],[-169.52,17.15],[-169.9,16.96]]],[[[145.99,15.94],[146.28,16.25],[145.94,16.82],[145.36,16.19],[145.99,15.94]]],[[[148.68,-68.33],[148.09,-68.68],[149.16,-68.7],[148.68,-68.33]]],[[[70.64,-49.29],[70.99,-49.21],[70.81,-48.84],[69.64,-48.7],[69.21,-49.0],[70.64,-49.29]]],[[[-27.39,-59.73],[-26.54,-59.68],[-27.06,-59.35],[-27.39,-59.73]]],[[[1.24,38.73],[1.41,38.35],[2.02,38.76],[1.91,39.38],[1.4,39.44],[1.07,39.11],[1.24,38.73]]],[[[14.07,50.08],[15.53,49.73],[16.0,50.0],[15.62,50.53],[14.39,50.72],[14.03,50.66],[14.07,50.08]]],[[[-147.02,62.18],[-144.78,61.49],[-144.26,61.8],[-144.84,62.46],[-143.47,62.74],[-147.23,62.94],[-147.74,62.62],[-147.02,62.18]]],[[[123.5,68.77],[122.9,68.15],[123.81,67.87],[124.64,68.92],[124.4,69.16],[126.04,69.49],[125.81,69.73],[126.3,69.92],[124.1,70.07],[123.63,69.87],[123.89,69.64],[123.44,69.44],[123.5,68.77]]],[[[142.56,26.37],[142.45,26.95],[142.0,27.03],[142.11,26.45],[142.56,26.37]]],[[[154.27,62.33],[154.01,62.96],[154.61,63.3],[154.17,63.45],[152.1,63.07],[152.41,62.43],[154.27,62.33]]],[[[166.28,-50.94],[166.6,-50.8],[166.26,-50.47],[165.63,-51.2],[166.28,-50.94]]],[[[172.25,7.08],[171.83,7.55],[170.82,7.24],[171.02,6.73],[172.25,7.08]]],[[[39.95,62.64],[40.17,62.85],[39.92,63.04],[39.22,62.8],[39.5,62.22],[40.2,62.46],[39.95,62.64]]],[[[-56.32,-36.37],[-57.04,-36.1],[-56.72,-36.56],[-56.32,-36.37]]],[[[-86.63,20.19],[-86.39,21.27],[-86.8,21.76],[-87.04,20.67],[-86.63,20.19]]],[[[-23.04,17.17],[-23.19,16.1],[-22.71,15.67],[-22.57,16.73],[-23.04,17.17]]],[[[29.04,54.92],[29.66,54.76],[30.34,55.17],[28.49,55.62],[28.41,55.08],[29.04,54.92]]],[[[171.94,-34.34],[172.17,-34.2],[171.89,-33.84],[171.67,-34.23],[171.94,-34.34]]],[[[-27.61,70.88],[-28.78,70.89],[-29.33,70.28],[-28.19,70.29],[-27.61,70.88]]],[[[-66.25,17.86],[-65.84,17.58],[-65.53,18.07],[-64.24,18.34],[-64.1,18.69],[-64.53,18.97],[-64.84,18.48],[-65.26,18.76],[-66.28,18.05],[-67.23,18.17],[-67.18,17.79],[-66.25,17.86]]],[[[165.3,8.97],[166.38,8.95],[165.45,9.36],[165.3,8.97]]],[[[167.72,11.21],[168.05,11.45],[167.5,11.75],[166.54,11.61],[166.15,11.17],[166.7,10.87],[167.72,11.21]]],[[[-52.37,5.36],[-53.06,5.6],[-52.53,4.96],[-52.37,5.36]]],[[[50.0,-46.14],[50.64,-46.66],[50.4,-45.92],[50.0,-46.14]]],[[[152.39,8.66],[152.02,8.99],[151.69,8.43],[152.39,8.66]]],[[[-27.33,-56.64],[-26.8,-57.19],[-26.03,-57.14],[-27.04,-56.27],[-27.79,-56.32],[-27.33,-56.64]]],[[[-27.59,72.08],[-28.21,71.72],[-26.99,71.72],[-27.59,72.08]]],[[[7.41,47.7],[7.83,48.0],[7.25,48.07],[7.41,47.7]]],[[[-54.43,-61.43],[-53.58,-61.55],[-53.41,-61.32],[-53.93,-60.74],[-56.11,-61.16],[-54.43,-61.43]]],[[[-29.17,38.49],[-28.83,38.14],[-27.14,38.29],[-26.67,39.1],[-27.89,39.52],[-29.17,38.49]]],[[[-70.33,-21.86],[-70.71,-22.4],[-70.44,-22.72],[-69.88,-21.79],[-70.15,-21.47],[-70.33,-21.86]]],[[[173.68,52.16],[174.63,52.42],[174.56,52.82],[172.62,53.32],[172.06,53.08],[172.4,52.49],[173.68,52.16]]],[[[-100.03,26.28],[-100.26,26.13],[-99.99,25.77],[-99.77,26.16],[-100.03,26.28]]],[[[-25.92,37.62],[-25.24,36.63],[-24.69,36.67],[-25.12,38.06],[-25.98,38.13],[-26.24,37.98],[-25.92,37.62]]],[[[37.15,-47.02],[38.26,-47.0],[37.97,-46.58],[37.15,-47.02]]],[[[-61.54,13.32],[-61.26,12.83],[-60.88,12.92],[-61.15,13.41],[-61.54,13.32]]],[[[-56.19,-34.89],[-56.35,-35.17],[-55.92,-35.17],[-56.19,-34.89]]],[[[-97.83,30.2],[-98.08,30.07],[-97.8,29.7],[-97.58,30.08],[-97.83,30.2]]],[[[-113.29,52.39],[-113.43,52.0],[-112.81,52.1],[-113.29,52.39]]],[[[168.42,7.61],[168.48,7.27],[169.09,7.17],[169.1,7.71],[167.9,8.44],[167.89,7.9],[168.42,7.61]]],[[[158.94,-54.87],[159.33,-54.54],[158.61,-54.53],[158.94,-54.87]]],[[[159.19,-31.84],[159.46,-31.72],[159.22,-31.33],[158.94,-31.7],[159.19,-31.84]]],[[[-115.93,38.58],[-116.16,38.41],[-115.81,38.1],[-115.63,38.5],[-115.93,38.58]]],[[[-91.11,43.7],[-90.8,44.03],[-91.08,44.16],[-91.38,44.06],[-91.11,43.7]]],[[[-110.89,19.72],[-111.44,18.74],[-111.15,18.39],[-110.48,18.62],[-110.89,19.72]]],[[[-23.59,15.61],[-24.65,15.18],[-24.82,14.59],[-23.73,14.56],[-22.89,15.08],[-23.59,15.61]]],[[[146.74,-67.54],[146.13,-67.88],[146.57,-68.26],[147.63,-68.3],[146.74,-67.54]]],[[[-42.06,-23.33],[-41.69,-22.8],[-41.99,-22.49],[-42.35,-23.02],[-42.06,-23.33]]],[[[-81.48,-5.59],[-81.42,-6.35],[-80.67,-7.2],[-80.29,-6.39],[-80.97,-6.32],[-81.06,-5.3],[-81.48,-5.59]]],[[[155.79,7.54],[155.65,7.95],[155.03,7.96],[155.29,7.15],[155.79,7.54]]],[[[5.34,45.94],[4.86,46.22],[5.03,45.85],[4.58,45.31],[5.51,45.57],[5.34,45.94]]],[[[65.37,64.86],[65.67,65.24],[64.7,65.14],[65.37,64.86]]],[[[145.14,13.85],[145.43,14.17],[144.99,14.26],[144.36,13.36],[145.24,13.19],[145.14,13.85]]],[[[19.8,52.44],[19.92,52.07],[20.43,52.32],[19.8,52.44]]],[[[-7.9,33.45],[-7.61,33.81],[-7.85,33.95],[-8.11,33.84],[-7.9,33.45]]],[[[68.91,-48.25],[68.48,-48.55],[69.06,-48.62],[68.91,-48.25]]],[[[-105.75,37.87],[-106.29,37.83],[-105.64,37.14],[-105.42,37.53],[-105.75,37.87]]],[[[-54.19,-34.95],[-54.03,-34.66],[-54.47,-34.67],[-54.19,-34.95]]],[[[169.33,9.75],[169.26,10.12],[168.64,10.22],[168.71,9.85],[169.33,9.75]]],[[[164.9,-67.33],[163.99,-67.4],[164.63,-67.7],[164.9,-67.33]]],[[[-109.66,31.95],[-110.22,32.13],[-109.57,31.44],[-109.38,31.85],[-109.66,31.95]]],[[[9.36,41.68],[9.76,41.99],[9.21,42.08],[9.36,41.68]]],[[[6.9,49.58],[6.48,49.28],[7.07,49.23],[6.9,49.58]]]]}}]}