{"type":"FeatureCollection","features":[{"type":"Feature","properties":{},"geometry":{"type":"MultiPolygon","coordinates":[[[[-90.81,70.35],[-92.03,71.1],[-93.37,71.1],[-92.1,70.36],[-92.78,69.73],[-91.52,69.73],[-90.81,70.35]]],[[[28.64,44.48],[28.3,44.46],[28.23,43.84],[26.32,43.91],[25.71,43.44],[24.36,43.32],[22.48,43.96],[22.51,44.59],[25.0,44.43],[26.92,45.4],[26.61,48.01],[25.81,48.35],[26.45,48.79],[28.48,48.71],[29.14,49.13],[28.86,49.7],[27.1,50.19],[22.91,49.68],[19.76,50.13],[18.78,49.61],[17.82,49.68],[17.94,49.3],[17.35,48.82],[18.18,48.54],[19.01,47.65],[20.43,47.83],[22.01,48.81],[23.29,48.14],[23.25,47.53],[22.41,47.25],[22.51,46.85],[21.91,46.38],[22.23,45.8],[21.63,45.32],[21.85,45.14],[21.39,44.88],[21.37,44.25],[21.02,44.21],[20.7,44.8],[19.9,44.48],[18.2,44.87],[17.97,45.67],[17.16,45.96],[16.78,47.73],[15.95,48.01],[15.82,48.39],[14.55,47.77],[13.72,48.03],[12.93,47.68],[10.49,47.8],[9.64,47.2],[6.77,46.72],[5.3,44.89],[6.41,43.93],[7.51,43.79],[8.22,44.17],[7.51,44.63],[8.39,45.47],[9.69,45.78],[11.06,45.46],[13.25,46.31],[13.63,45.76],[14.78,45.56],[14.93,44.55],[15.5,44.44],[15.85,43.87],[16.75,43.81],[17.77,42.7],[19.2,42.49],[19.31,42.08],[20.08,41.76],[19.52,41.25],[20.28,40.93],[19.84,40.65],[19.83,40.0],[20.58,39.67],[21.3,38.67],[22.35,38.37],[22.78,38.64],[22.7,39.07],[21.96,39.42],[22.52,39.92],[22.22,40.53],[22.79,41.03],[25.1,41.27],[26.16,40.94],[26.15,42.0],[28.08,41.51],[27.88,42.77],[28.83,43.25],[28.71,44.07],[29.33,44.52],[28.64,44.48]]],[[[-121.28,36.05],[-121.71,36.57],[-121.56,36.98],[-122.42,37.16],[-122.06,36.87],[-122.14,36.23],[-120.8,35.28],[-120.64,35.69],[-121.28,36.05]]],[[[180.0,63.14],[179.01,63.52],[179.36,64.15],[179.11,64.36],[180.0,64.57],[179.85,69.48],[172.11,70.52],[169.1,70.41],[166.79,69.63],[163.16,70.05],[161.51,69.68],[160.66,70.29],[160.85,70.53],[162.87,70.48],[163.1,70.72],[162.57,70.91],[154.5,71.49],[152.91,71.04],[151.72,71.6],[150.31,71.64],[151.22,72.26],[150.52,72.41],[143.84,72.86],[144.57,73.51],[141.98,74.65],[144.5,74.8],[144.49,75.06],[145.36,75.19],[147.04,74.66],[150.41,74.61],[152.43,75.34],[148.91,75.42],[147.2,75.95],[144.45,75.83],[142.53,76.33],[134.25,75.97],[139.6,74.21],[139.69,73.95],[138.94,73.8],[139.04,73.55],[140.75,73.07],[140.81,72.82],[138.61,72.63],[138.71,72.37],[137.47,71.81],[130.15,71.89],[129.94,72.14],[130.94,72.74],[130.73,72.99],[126.18,74.23],[122.24,73.96],[121.49,73.32],[117.63,74.09],[113.95,73.68],[113.49,73.9],[113.93,74.12],[113.46,74.34],[113.92,74.56],[113.43,74.78],[113.9,75.0],[113.4,75.22],[115.41,75.66],[114.91,75.88],[115.45,76.1],[113.3,76.55],[113.83,76.77],[113.26,76.99],[110.53,76.74],[108.14,77.14],[108.6,77.37],[107.92,77.58],[104.12,77.9],[108.17,78.25],[105.41,78.62],[105.87,78.85],[105.05,79.05],[105.53,79.29],[104.67,79.49],[101.06,79.57],[99.48,80.18],[97.02,80.29],[99.2,80.85],[97.26,81.44],[91.14,81.09],[90.96,80.84],[92.18,80.69],[90.47,80.09],[91.6,79.94],[91.43,79.69],[92.51,79.54],[92.33,79.29],[97.49,78.71],[98.4,78.53],[98.1,78.29],[98.97,78.11],[98.67,77.87],[101.44,77.56],[100.01,77.26],[99.71,77.02],[100.47,76.84],[100.18,76.59],[97.87,76.22],[97.1,76.4],[97.34,76.64],[98.64,76.95],[94.9,77.15],[91.3,75.9],[88.66,75.85],[87.65,75.25],[85.16,75.17],[84.34,74.56],[82.0,74.44],[81.35,73.83],[79.16,73.68],[79.24,73.44],[77.99,72.93],[75.45,73.72],[74.8,73.57],[74.94,73.33],[72.92,73.13],[70.15,73.84],[69.2,73.29],[69.41,73.06],[68.85,72.9],[69.07,72.67],[68.53,72.51],[68.74,72.28],[68.22,72.12],[68.43,71.9],[66.69,71.64],[66.92,71.42],[66.44,71.25],[66.67,71.03],[65.74,70.1],[66.61,69.82],[66.82,69.6],[66.38,69.44],[61.83,69.82],[59.66,70.54],[57.92,70.43],[57.6,70.64],[57.98,70.82],[55.56,71.87],[55.93,72.06],[55.57,72.27],[57.11,72.61],[56.78,73.22],[57.2,73.4],[58.01,73.38],[58.45,73.56],[58.08,73.77],[61.36,74.66],[61.0,74.88],[61.53,75.06],[62.99,75.19],[62.64,75.42],[63.22,75.6],[69.56,76.05],[69.3,76.28],[70.01,76.45],[69.74,76.69],[70.48,76.85],[69.19,77.16],[59.14,76.38],[58.49,75.79],[54.25,75.27],[54.72,75.06],[54.28,74.87],[54.75,74.26],[53.49,74.08],[53.1,73.88],[53.54,73.68],[51.99,73.3],[52.49,72.71],[51.06,72.33],[51.48,72.14],[51.16,71.94],[51.57,71.75],[51.34,71.18],[59.48,69.77],[59.76,69.56],[58.66,69.43],[57.98,68.89],[56.29,68.77],[54.59,69.22],[47.65,67.96],[46.53,68.32],[46.86,68.52],[46.59,68.7],[43.28,68.81],[42.97,68.61],[43.86,68.45],[44.11,67.89],[42.37,67.06],[41.24,67.39],[41.51,67.98],[41.21,68.15],[38.88,68.4],[38.51,68.94],[37.02,69.03],[36.48,69.55],[35.2,69.26],[31.7,70.25],[30.74,70.92],[28.97,70.91],[27.85,71.37],[26.65,71.01],[24.27,71.49],[23.18,70.91],[21.48,70.83],[21.06,70.34],[18.33,70.24],[18.02,69.76],[19.72,69.47],[17.7,68.23],[18.89,67.68],[21.67,68.03],[24.01,67.67],[24.6,67.19],[25.13,65.92],[22.36,66.02],[20.84,65.13],[21.32,64.44],[20.3,63.63],[21.0,63.58],[21.96,64.17],[21.57,65.08],[23.26,65.4],[24.34,65.2],[23.81,64.91],[23.92,64.34],[22.27,64.04],[20.85,63.15],[21.08,62.81],[22.5,63.68],[23.61,63.7],[24.65,64.27],[24.55,64.85],[26.24,64.34],[26.61,63.62],[26.07,63.33],[26.25,62.97],[25.72,62.69],[25.79,62.1],[24.31,61.25],[24.68,60.52],[23.39,59.89],[23.49,59.31],[22.48,59.07],[22.6,58.75],[21.88,58.36],[23.82,58.33],[24.29,57.51],[23.16,57.09],[22.94,57.76],[22.26,57.88],[21.14,57.44],[21.26,57.11],[20.56,56.7],[21.3,55.17],[21.84,55.4],[21.23,56.58],[21.93,56.99],[21.81,57.33],[22.49,57.21],[22.71,56.53],[24.24,56.99],[24.93,54.55],[27.07,53.95],[28.16,54.36],[33.61,54.5],[36.43,55.54],[37.63,55.21],[43.34,55.61],[44.54,55.2],[45.79,55.61],[46.57,55.18],[50.12,55.28],[53.71,53.54],[54.79,53.67],[54.66,53.24],[55.21,52.97],[55.6,53.59],[54.91,54.1],[55.03,54.52],[56.01,54.87],[57.12,54.32],[56.15,53.98],[56.01,53.55],[56.69,53.04],[55.75,52.7],[56.95,52.57],[56.95,51.9],[57.86,51.57],[58.28,52.18],[60.73,52.53],[61.46,54.22],[62.49,54.52],[62.69,54.94],[63.85,54.99],[64.4,55.58],[69.77,56.2],[70.69,55.77],[74.95,56.18],[75.81,55.72],[78.52,55.93],[81.27,55.08],[80.91,54.46],[83.15,53.94],[83.86,52.92],[84.58,52.91],[85.27,52.38],[84.9,52.01],[83.84,52.16],[82.42,51.68],[81.73,50.92],[82.77,50.53],[83.44,49.76],[84.79,49.74],[85.1,49.09],[84.09,48.73],[86.06,48.68],[86.68,48.15],[88.3,48.21],[90.65,46.8],[91.59,46.85],[92.11,46.3],[93.09,46.6],[92.57,47.15],[91.96,47.2],[91.0,49.04],[91.64,48.99],[91.89,48.59],[92.28,48.94],[92.03,49.34],[92.37,49.43],[95.52,49.1],[95.94,48.3],[96.82,48.06],[96.95,47.42],[97.54,47.34],[97.98,46.78],[99.68,47.4],[101.36,46.25],[101.76,46.55],[101.61,46.95],[100.65,47.62],[101.56,48.46],[100.65,49.37],[101.41,49.74],[102.24,49.46],[104.59,49.87],[104.72,49.47],[105.28,49.35],[105.57,50.66],[106.92,50.86],[107.14,50.06],[107.9,49.75],[107.35,49.26],[106.48,49.33],[106.7,48.54],[106.18,48.03],[107.54,47.22],[108.27,47.54],[109.28,47.28],[109.81,47.77],[111.96,48.04],[112.94,48.74],[112.83,49.52],[114.6,50.15],[114.78,50.67],[115.32,50.82],[117.42,50.0],[117.97,50.14],[118.01,50.49],[119.44,50.39],[121.43,49.49],[121.49,48.95],[120.09,47.86],[119.98,47.19],[120.44,46.97],[121.22,47.58],[121.22,48.45],[121.97,48.72],[121.91,49.26],[123.04,49.49],[123.35,50.0],[125.45,50.28],[125.46,49.73],[126.72,49.19],[127.22,50.03],[128.62,49.81],[129.16,49.35],[128.18,48.78],[128.71,48.32],[129.62,48.35],[129.56,47.81],[130.12,47.89],[130.44,48.56],[132.17,48.04],[132.0,47.71],[132.88,46.08],[132.48,45.41],[132.99,44.77],[133.72,44.69],[133.51,43.44],[134.23,43.36],[134.0,43.01],[132.59,42.95],[131.65,43.35],[130.77,42.86],[130.82,42.19],[131.69,42.69],[132.6,42.73],[133.08,42.3],[133.53,42.77],[134.24,42.68],[135.19,43.16],[135.68,44.08],[136.42,44.21],[136.94,45.14],[137.71,45.27],[140.93,49.1],[140.65,49.65],[141.22,50.09],[140.75,51.26],[141.35,51.71],[142.06,51.3],[141.48,50.64],[141.85,49.67],[141.42,48.41],[141.94,47.94],[141.62,47.59],[141.84,47.01],[140.91,45.97],[141.69,45.6],[140.87,45.5],[141.34,44.79],[141.04,44.44],[141.25,43.85],[139.9,43.05],[139.33,42.12],[140.06,41.75],[139.29,41.42],[140.03,41.28],[139.76,40.94],[139.98,40.58],[140.51,41.03],[141.25,40.88],[141.9,39.78],[141.62,39.43],[141.83,39.06],[142.4,39.75],[141.51,40.99],[141.82,41.57],[141.37,42.3],[142.16,42.39],[143.14,41.87],[144.59,42.87],[145.95,42.9],[146.31,43.49],[147.16,43.55],[146.99,44.17],[147.68,44.85],[148.55,44.9],[149.27,45.57],[150.42,45.47],[151.24,46.38],[150.46,46.82],[149.64,45.91],[147.82,45.57],[147.42,44.99],[146.22,44.58],[145.42,44.75],[144.8,44.3],[142.69,44.87],[142.26,45.83],[142.86,46.28],[143.64,45.91],[144.0,46.49],[142.83,48.28],[143.8,49.08],[144.55,48.24],[145.24,48.92],[143.72,50.79],[144.02,51.34],[143.68,51.66],[145.33,51.34],[148.71,52.39],[149.85,53.35],[149.27,54.27],[150.5,55.25],[152.8,55.59],[155.67,57.49],[155.48,58.1],[156.44,58.5],[156.26,59.12],[156.8,59.43],[156.15,59.97],[156.81,60.53],[156.53,60.92],[157.71,61.56],[159.1,61.55],[160.2,60.19],[161.65,60.39],[157.5,58.04],[156.27,58.03],[156.45,57.42],[155.51,57.03],[155.78,56.65],[155.29,56.34],[155.55,55.97],[155.0,55.43],[155.58,54.92],[155.05,54.39],[156.4,52.39],[155.85,51.85],[156.32,51.32],[155.23,51.08],[155.09,49.77],[154.11,49.75],[154.22,49.13],[153.26,49.11],[153.19,48.87],[154.07,48.66],[158.93,51.84],[158.86,52.46],[160.22,53.12],[160.05,53.5],[160.67,54.01],[160.49,54.39],[161.86,54.2],[162.79,54.54],[162.75,55.14],[161.76,55.4],[161.88,55.62],[163.54,55.85],[164.23,56.34],[163.78,56.89],[163.05,57.0],[163.76,57.51],[163.28,58.07],[162.51,58.17],[162.65,58.4],[163.87,58.35],[165.09,58.9],[165.09,59.52],[166.36,59.44],[168.53,60.46],[169.02,60.5],[169.42,59.91],[170.67,59.79],[171.58,60.25],[171.29,60.44],[171.51,60.66],[177.58,62.48],[179.64,62.07],[180.0,63.14]]],[[[-180.0,64.57],[-178.79,64.96],[-179.03,65.18],[-178.7,65.38],[-176.36,65.31],[-176.13,65.09],[-176.49,64.89],[-175.49,64.43],[-175.83,64.24],[-175.76,63.61],[-172.38,62.59],[-172.39,61.97],[-169.25,60.7],[-167.16,60.9],[-167.05,60.68],[-168.2,60.4],[-166.96,59.66],[-165.74,59.72],[-165.14,60.25],[-164.69,60.2],[-164.87,59.61],[-162.09,59.83],[-162.86,58.52],[-160.15,58.49],[-159.31,58.14],[-158.22,58.35],[-157.8,58.06],[-158.74,57.03],[-160.16,56.89],[-163.57,55.1],[-165.12,54.93],[-165.41,54.39],[-167.17,54.02],[-168.09,54.31],[-168.98,53.23],[-171.87,52.48],[-172.81,52.74],[-173.03,52.15],[-174.54,52.63],[-175.32,52.26],[-176.28,52.49],[-177.62,51.92],[-178.6,52.14],[-179.35,51.74],[-179.12,51.13],[-177.99,51.52],[-177.02,51.3],[-175.12,52.05],[-173.04,51.75],[-169.97,52.73],[-169.06,52.45],[-168.28,52.77],[-168.23,53.16],[-166.12,53.51],[-165.84,54.06],[-164.96,53.76],[-164.68,54.3],[-163.51,54.52],[-162.65,54.2],[-161.85,54.46],[-161.76,54.83],[-159.03,54.74],[-158.75,55.07],[-159.53,55.6],[-157.85,55.87],[-157.58,56.41],[-156.55,56.6],[-155.56,57.6],[-154.46,56.95],[-155.49,56.57],[-154.78,56.01],[-153.41,56.5],[-153.06,57.02],[-152.0,57.17],[-151.61,57.7],[-151.95,57.99],[-151.56,58.32],[-151.9,58.62],[-149.96,59.4],[-139.88,59.49],[-139.41,59.0],[-138.39,58.87],[-137.97,58.32],[-136.71,58.0],[-136.58,57.06],[-135.37,56.72],[-135.15,55.97],[-133.02,54.5],[-133.64,54.13],[-133.47,53.39],[-132.65,52.65],[-131.79,52.46],[-131.54,51.9],[-130.55,51.87],[-131.32,52.63],[-131.55,54.12],[-131.06,54.29],[-130.94,53.54],[-130.16,52.78],[-129.29,52.56],[-128.01,51.2],[-129.62,50.92],[-128.12,50.29],[-128.08,49.74],[-127.21,49.86],[-127.26,49.31],[-126.04,48.65],[-125.16,48.75],[-125.31,48.39],[-124.57,47.35],[-121.93,47.61],[-122.41,48.06],[-122.0,48.58],[-122.48,49.02],[-122.23,49.18],[-121.09,48.66],[-121.44,47.93],[-121.04,47.68],[-120.69,48.41],[-119.85,48.68],[-119.55,49.4],[-118.22,49.2],[-117.35,48.67],[-117.48,48.11],[-115.58,46.97],[-115.77,46.6],[-115.32,46.11],[-116.35,45.5],[-115.16,43.38],[-112.57,43.63],[-110.97,40.39],[-109.86,40.52],[-109.69,41.14],[-110.61,41.39],[-109.79,41.6],[-108.78,40.87],[-108.31,41.4],[-107.44,41.36],[-107.62,40.75],[-106.75,40.7],[-106.08,40.04],[-105.26,40.22],[-105.63,40.79],[-105.14,41.3],[-105.52,41.87],[-105.29,42.24],[-105.97,42.89],[-107.08,42.57],[-106.63,43.31],[-107.02,43.86],[-106.56,44.58],[-107.27,45.21],[-108.81,45.42],[-107.33,43.95],[-108.26,42.7],[-108.93,43.11],[-108.18,43.76],[-108.85,44.16],[-108.67,44.75],[-109.76,45.67],[-108.87,47.1],[-111.15,47.65],[-111.99,48.24],[-111.85,48.62],[-110.94,48.62],[-110.79,49.0],[-112.29,48.91],[-113.62,49.79],[-113.23,50.94],[-113.81,51.45],[-113.68,51.84],[-114.52,52.19],[-114.52,52.81],[-115.51,52.76],[-115.52,53.38],[-116.03,53.66],[-115.78,53.83],[-116.43,54.34],[-115.15,54.57],[-115.03,54.97],[-116.32,54.73],[-116.85,55.01],[-116.49,55.59],[-117.19,56.09],[-116.59,57.48],[-117.32,57.98],[-116.35,58.29],[-117.64,58.43],[-117.59,59.47],[-119.38,59.64],[-119.47,60.27],[-118.1,60.15],[-117.71,60.75],[-116.95,60.89],[-115.22,60.29],[-114.76,60.88],[-112.69,61.07],[-112.3,61.9],[-111.11,62.19],[-109.14,61.91],[-108.42,61.35],[-107.09,61.36],[-106.41,60.79],[-102.84,60.57],[-100.33,63.38],[-98.91,63.56],[-98.05,64.36],[-101.62,66.48],[-101.27,67.13],[-101.93,67.48],[-96.9,67.8],[-95.72,67.32],[-93.43,68.86],[-96.61,70.44],[-99.57,69.48],[-100.21,69.57],[-99.22,70.61],[-100.65,71.05],[-101.76,70.5],[-104.04,71.25],[-103.68,71.89],[-104.53,72.21],[-103.92,72.37],[-104.04,72.61],[-104.94,72.93],[-103.79,73.49],[-103.92,73.73],[-105.69,74.12],[-108.63,73.91],[-109.64,73.32],[-112.36,73.07],[-115.26,73.64],[-115.54,73.86],[-115.0,74.05],[-115.28,74.28],[-116.42,74.53],[-118.65,74.38],[-121.05,74.84],[-124.98,74.62],[-125.41,74.41],[-124.97,74.22],[-125.39,74.01],[-124.96,73.82],[-125.37,73.61],[-125.01,72.99],[-126.14,72.78],[-126.5,72.16],[-124.35,71.75],[-124.01,71.54],[-124.38,71.33],[-123.04,70.91],[-119.03,71.45],[-118.89,70.81],[-117.0,70.31],[-118.51,69.95],[-116.7,69.44],[-116.46,69.21],[-116.87,69.02],[-120.5,70.02],[-124.16,69.88],[-124.44,70.5],[-126.11,69.88],[-126.45,70.5],[-128.48,70.89],[-129.15,70.88],[-129.38,70.26],[-131.07,70.4],[-132.92,69.87],[-135.1,70.08],[-137.65,69.22],[-138.38,69.75],[-141.28,69.81],[-142.14,70.33],[-147.58,70.39],[-148.67,70.89],[-153.7,71.12],[-155.02,71.58],[-157.66,71.51],[-158.84,70.98],[-160.37,71.65],[-162.42,71.66],[-164.31,72.55],[-167.46,72.83],[-170.24,72.58],[-170.8,72.4],[-170.56,72.16],[-172.42,71.83],[-172.17,71.59],[-172.94,70.97],[-172.69,70.74],[-173.18,70.55],[-172.93,70.32],[-173.41,70.12],[-173.17,69.89],[-174.78,69.54],[-174.53,69.31],[-175.66,69.14],[-176.24,68.51],[-180.0,69.38],[-180.0,64.57]]],[[[29.25,36.63],[30.24,36.26],[30.32,36.92],[31.08,37.18],[33.03,36.4],[33.13,37.06],[32.47,37.46],[32.39,38.32],[33.82,40.08],[33.79,40.5],[34.11,40.51],[34.32,39.88],[35.59,39.89],[35.79,39.26],[36.73,39.26],[36.13,38.84],[35.87,37.98],[37.08,38.42],[37.21,39.05],[38.0,38.83],[38.13,39.47],[39.53,38.81],[40.29,39.0],[41.35,38.34],[42.55,38.29],[42.68,37.65],[43.98,36.96],[44.7,37.13],[44.82,36.5],[47.67,34.82],[48.56,35.12],[50.1,34.71],[50.84,35.85],[51.65,35.32],[52.8,35.14],[53.94,35.58],[54.63,35.25],[54.51,36.13],[55.6,35.51],[56.48,36.64],[57.18,36.29],[57.07,35.88],[57.56,35.35],[59.24,35.22],[60.0,34.62],[60.71,34.9],[59.99,36.16],[60.24,36.99],[59.03,37.24],[57.73,38.37],[56.49,38.6],[56.39,38.18],[57.1,37.83],[56.99,37.41],[55.78,37.63],[55.48,37.03],[53.7,36.69],[53.43,36.09],[51.37,36.4],[50.13,37.2],[49.15,36.49],[48.8,38.62],[47.94,39.12],[47.17,38.99],[47.24,39.82],[46.26,40.95],[47.67,41.04],[49.0,40.28],[49.1,41.12],[48.34,41.41],[47.83,42.73],[46.91,43.22],[46.09,43.07],[45.01,43.76],[43.73,43.82],[43.12,45.1],[39.42,44.58],[36.73,45.46],[34.4,45.07],[33.15,45.66],[32.65,45.45],[33.38,45.06],[33.27,44.44],[33.98,44.04],[34.31,44.05],[34.43,44.66],[35.29,44.46],[35.41,45.07],[36.76,45.05],[37.78,44.63],[37.96,44.02],[38.78,44.2],[38.96,43.58],[41.68,42.45],[41.83,41.43],[40.28,40.67],[39.02,41.12],[38.4,40.72],[37.14,40.73],[34.48,41.98],[33.17,41.96],[30.69,40.6],[29.32,40.96],[29.25,40.31],[28.33,39.82],[26.44,40.32],[27.1,39.3],[28.13,38.95],[28.06,38.29],[28.76,37.91],[28.19,37.43],[29.19,37.07],[29.25,36.63]]],[[[-90.36,57.34],[-93.2,57.79],[-92.41,57.01],[-90.8,56.97],[-90.36,57.34]]],[[[165.78,-73.66],[166.69,-73.95],[167.93,-73.85],[168.7,-73.3],[170.8,-73.45],[168.96,-72.91],[165.78,-73.66]]],[[[-180.0,-84.62],[-166.04,-84.94],[-162.19,-85.46],[-162.66,-85.7],[-160.09,-85.84],[-148.68,-85.81],[-148.36,-86.05],[-151.3,-86.19],[-160.48,-86.08],[-164.46,-86.41],[-158.46,-86.93],[-158.86,-87.17],[-154.67,-87.29],[-154.76,-87.54],[-149.71,-87.65],[-149.24,-87.89],[-155.15,-88.27],[-146.78,-88.62],[-156.14,-89.0],[-133.22,-88.92],[-137.01,-88.69],[-130.78,-88.49],[-133.97,-88.27],[-129.43,-88.07],[-139.87,-87.56],[-136.11,-87.38],[-137.61,-87.15],[-134.51,-86.96],[-135.93,-86.73],[-133.3,-86.53],[-146.51,-85.41],[-139.39,-85.15],[-143.14,-84.62],[-141.27,-84.45],[-141.8,-84.21],[-139.08,-83.63],[-139.62,-83.4],[-145.42,-83.21],[-143.89,-83.04],[-144.22,-82.81],[-139.7,-82.53],[-142.19,-82.02],[-146.69,-82.04],[-151.32,-81.55],[-147.28,-81.34],[-144.08,-81.72],[-140.15,-81.44],[-140.53,-81.22],[-139.43,-81.04],[-141.22,-80.76],[-141.54,-80.54],[-140.5,-80.37],[-142.13,-80.08],[-142.4,-79.86],[-141.43,-79.69],[-141.71,-79.47],[-147.3,-79.59],[-149.89,-78.75],[-153.0,-78.7],[-152.07,-78.12],[-155.96,-78.18],[-157.75,-77.75],[-154.91,-77.39],[-150.13,-78.07],[-144.76,-77.4],[-144.93,-77.18],[-144.13,-77.03],[-145.4,-76.53],[-144.06,-76.0],[-146.07,-75.44],[-147.43,-75.95],[-149.05,-76.03],[-150.46,-76.96],[-157.54,-77.09],[-159.62,-77.75],[-155.13,-79.41],[-150.62,-79.8],[-151.63,-80.39],[-148.84,-81.03],[-152.75,-81.22],[-155.33,-80.78],[-158.08,-81.25],[-163.38,-81.2],[-165.46,-81.75],[-161.36,-81.92],[-155.46,-81.47],[-154.09,-81.58],[-155.61,-82.17],[-154.13,-82.51],[-159.47,-83.34],[-162.37,-82.85],[-166.43,-83.26],[-168.76,-82.73],[-173.67,-82.7],[-174.33,-82.91],[-173.08,-83.08],[-173.76,-83.3],[-172.41,-83.47],[-173.11,-83.69],[-167.92,-83.94],[-168.5,-84.17],[-166.79,-84.33],[-167.36,-84.56],[-171.53,-84.47],[-170.8,-84.24],[-172.37,-84.08],[-180.0,-84.22],[-180.0,-84.62]]],[[[180.0,-84.22],[177.13,-84.44],[180.0,-84.62],[180.0,-84.22]]],[[[-101.18,79.95],[-99.83,79.64],[-97.69,80.15],[-99.05,80.46],[-101.18,79.95]]],[[[-130.08,-75.89],[-132.32,-75.66],[-136.01,-76.18],[-138.15,-75.9],[-142.6,-76.7],[-139.93,-77.46],[-133.99,-77.45],[-131.02,-77.91],[-129.27,-77.72],[-128.65,-77.51],[-129.12,-77.31],[-125.34,-76.27],[-128.6,-75.69],[-130.08,-75.89]]],[[[75.79,48.18],[76.08,48.59],[78.76,48.7],[79.47,47.95],[80.13,47.96],[79.41,48.97],[77.72,49.05],[76.96,49.79],[74.22,49.64],[73.94,49.23],[72.95,49.03],[73.4,48.41],[72.42,48.2],[72.22,47.54],[75.79,48.18]]],[[[-94.02,59.07],[-94.44,58.69],[-92.76,58.68],[-93.17,59.06],[-94.02,59.07]]],[[[-94.03,71.47],[-93.34,71.85],[-94.72,71.83],[-94.03,71.47]]],[[[81.53,44.14],[81.83,44.02],[81.53,43.63],[77.56,43.63],[76.39,43.06],[75.12,43.49],[75.34,44.15],[74.39,44.21],[74.14,43.8],[74.86,43.08],[72.76,42.78],[72.07,43.23],[71.56,42.66],[69.87,43.39],[69.6,43.23],[70.04,42.63],[69.34,41.63],[69.72,41.29],[69.57,40.62],[70.46,40.6],[70.94,41.17],[72.12,41.3],[72.83,40.59],[67.65,39.98],[67.21,39.4],[66.9,39.48],[66.19,37.82],[67.04,37.83],[67.46,38.4],[68.02,38.48],[68.69,38.06],[69.49,38.29],[69.8,38.2],[69.4,37.39],[69.81,36.8],[68.83,36.16],[67.29,36.84],[66.87,36.26],[63.93,35.91],[63.63,35.09],[62.39,34.73],[62.76,34.42],[62.69,33.77],[63.84,33.48],[63.69,33.08],[64.05,32.77],[65.42,33.51],[66.46,32.55],[67.75,32.62],[68.15,33.18],[69.09,32.44],[69.83,32.66],[70.2,33.45],[71.24,33.58],[70.87,34.16],[70.01,34.43],[71.83,34.77],[72.96,34.39],[73.31,33.8],[74.11,33.76],[74.45,33.17],[76.05,32.81],[76.92,31.78],[77.14,32.16],[76.59,32.61],[76.79,33.24],[76.5,33.58],[76.73,33.97],[78.02,34.18],[78.34,33.34],[78.83,33.86],[79.62,33.77],[80.36,34.91],[82.46,35.47],[82.19,36.08],[83.0,36.47],[82.19,36.58],[81.12,36.05],[79.73,37.12],[78.35,37.18],[78.03,37.79],[77.19,37.87],[76.24,38.95],[76.46,39.6],[78.17,39.7],[80.11,41.43],[80.99,41.33],[81.57,41.85],[83.62,41.74],[84.22,42.24],[85.67,42.1],[87.78,42.92],[86.66,43.71],[85.75,43.61],[85.18,44.13],[81.83,44.53],[81.51,45.16],[81.81,45.55],[81.17,46.06],[80.55,45.53],[79.29,45.5],[77.49,44.4],[78.15,43.92],[79.38,43.96],[79.97,44.5],[81.53,44.14]],[[82.45,43.26],[82.14,43.64],[82.44,43.77],[83.35,43.64],[82.45,43.26]]],[[[-92.59,62.76],[-95.35,60.47],[-94.9,60.09],[-95.31,59.45],[-94.45,59.45],[-94.02,60.09],[-94.46,60.47],[-91.65,62.5],[-92.1,62.89],[-92.59,62.76]]],[[[9.82,44.55],[9.11,45.02],[9.41,44.25],[11.41,44.06],[12.34,43.41],[12.88,41.82],[14.84,41.55],[14.26,42.3],[13.49,42.58],[13.45,43.21],[11.82,44.36],[9.82,44.55]]],[[[-7.3,41.27],[-7.53,41.66],[-6.69,41.7],[-6.33,42.28],[-5.16,42.65],[-3.82,42.36],[-1.79,42.94],[-0.84,42.31],[0.3,42.61],[0.71,42.06],[1.73,41.92],[2.43,42.57],[2.02,43.08],[0.98,43.22],[0.36,42.84],[-3.61,43.56],[-4.24,43.15],[-7.86,43.66],[-8.48,43.22],[-8.24,42.83],[-8.59,42.24],[-7.88,41.07],[-7.3,41.27]]],[[[70.99,53.12],[69.54,52.98],[68.66,53.41],[67.93,53.33],[67.37,52.74],[69.03,52.15],[70.46,52.3],[70.99,53.12]]],[[[-171.64,60.29],[-173.53,61.02],[-173.85,60.84],[-173.05,60.39],[-174.13,60.05],[-173.5,59.81],[-171.64,60.29]]],[[[68.6,43.49],[68.81,43.91],[68.2,43.83],[68.6,43.49]]],[[[-158.47,-79.54],[-161.19,-78.74],[-164.32,-78.8],[-165.97,-79.32],[-161.17,-80.2],[-158.47,-79.54]]],[[[50.4,69.1],[50.78,69.29],[50.52,69.48],[48.98,69.67],[47.98,69.47],[47.54,68.91],[49.3,68.53],[50.65,68.91],[50.4,69.1]]],[[[15.97,40.03],[16.39,40.32],[16.27,40.73],[15.19,40.97],[15.21,40.33],[15.97,40.03]]],[[[-103.46,75.71],[-104.7,76.25],[-103.92,76.41],[-101.91,76.02],[-100.39,76.56],[-96.79,76.65],[-95.96,77.26],[-95.01,77.39],[-98.21,78.39],[-97.33,79.0],[-100.62,79.03],[-103.3,79.64],[-105.52,79.55],[-107.17,79.0],[-105.57,78.48],[-107.67,77.53],[-105.04,76.71],[-106.39,76.15],[-107.34,76.22],[-107.55,76.45],[-106.79,76.62],[-107.0,76.85],[-108.22,77.13],[-113.09,76.51],[-113.39,76.74],[-112.7,76.92],[-113.01,77.14],[-108.71,77.59],[-108.96,77.81],[-108.15,77.98],[-108.4,78.21],[-107.56,78.38],[-110.39,78.93],[-114.36,78.64],[-115.12,78.45],[-114.73,78.23],[-115.77,77.64],[-120.11,77.69],[-120.73,77.49],[-120.26,77.29],[-124.03,76.25],[-123.56,76.05],[-124.05,75.85],[-122.22,75.46],[-119.87,75.65],[-112.77,74.16],[-109.24,74.6],[-111.7,75.39],[-108.34,75.41],[-109.7,75.93],[-109.0,76.1],[-105.28,75.85],[-105.11,75.62],[-105.84,75.46],[-105.67,75.22],[-107.25,75.12],[-107.93,74.95],[-107.73,74.72],[-103.77,74.84],[-103.05,75.0],[-103.18,75.24],[-101.56,75.31],[-99.66,74.65],[-100.23,74.03],[-98.7,74.08],[-97.07,73.63],[-94.8,73.8],[-94.82,74.04],[-97.2,74.36],[-93.24,74.54],[-96.54,75.22],[-96.58,75.46],[-94.04,75.86],[-97.61,76.28],[-98.45,76.14],[-97.44,75.56],[-98.97,75.04],[-100.89,75.7],[-103.46,75.71]],[[-103.42,77.03],[-101.85,77.58],[-97.99,77.69],[-96.93,77.36],[-98.67,76.85],[-102.3,76.72],[-103.42,77.03]],[[-113.45,76.11],[-112.23,75.84],[-113.79,75.7],[-114.72,75.1],[-115.91,75.35],[-115.02,75.95],[-113.45,76.11]],[[-102.76,78.96],[-99.1,78.02],[-101.08,77.96],[-104.86,78.87],[-105.07,79.1],[-104.11,79.26],[-102.76,78.96]],[[-113.29,74.62],[-113.56,74.84],[-112.95,75.03],[-111.82,74.76],[-113.29,74.62]],[[-104.27,78.19],[-103.03,77.89],[-104.96,77.8],[-105.16,78.03],[-104.27,78.19]]],[[[4.2,45.0],[3.35,44.96],[3.0,45.69],[2.45,45.73],[2.74,44.78],[3.7,44.22],[4.37,44.63],[4.2,45.0]]],[[[-115.49,58.82],[-114.76,58.95],[-114.76,59.59],[-116.25,59.34],[-115.49,58.82]]],[[[114.6,22.21],[114.43,22.6],[113.35,22.68],[113.52,22.3],[114.6,22.21]]],[[[-87.04,63.77],[-87.1,63.51],[-86.11,63.46],[-85.28,62.9],[-84.68,63.25],[-85.51,63.82],[-86.51,63.87],[-85.83,64.48],[-86.3,64.63],[-87.45,64.17],[-87.04,63.77]]],[[[-122.75,-73.8],[-123.14,-74.01],[-122.7,-74.2],[-121.38,-74.36],[-120.15,-74.11],[-122.75,-73.8]]],[[[-124.01,46.71],[-123.86,47.08],[-124.17,47.12],[-124.56,46.58],[-123.92,45.71],[-123.53,46.26],[-124.01,46.71]]],[[[60.04,80.33],[63.2,80.68],[58.78,80.78],[57.98,80.58],[58.63,80.36],[57.86,80.16],[59.84,79.91],[60.63,80.11],[60.04,80.33]]],[[[35.74,32.14],[36.06,31.71],[36.17,32.37],[36.91,32.17],[37.02,32.82],[36.15,32.8],[35.72,32.57],[35.74,32.14]]],[[[164.69,-78.38],[166.42,-78.28],[166.82,-78.47],[166.08,-78.64],[166.5,-78.83],[167.68,-78.85],[168.67,-78.32],[167.13,-78.11],[166.86,-77.89],[167.93,-77.33],[166.77,-77.06],[165.67,-77.61],[165.91,-77.83],[163.49,-78.1],[164.69,-78.38]]],[[[-96.27,73.29],[-97.74,73.25],[-96.18,72.55],[-97.47,71.78],[-99.54,71.84],[-101.15,72.52],[-100.67,73.15],[-99.98,73.3],[-100.94,73.88],[-102.44,73.81],[-102.32,73.57],[-103.53,73.01],[-99.34,71.1],[-96.73,71.43],[-97.34,71.04],[-96.64,70.69],[-95.37,71.21],[-96.1,71.81],[-94.74,72.33],[-95.5,72.93],[-94.78,73.31],[-96.27,73.29]]],[[[14.24,45.05],[14.1,45.44],[13.67,45.15],[14.24,45.05]]],[[[-90.32,65.54],[-88.75,65.37],[-88.15,65.74],[-89.73,65.91],[-90.32,65.54]]],[[[151.95,76.26],[153.97,76.46],[153.09,76.61],[151.95,76.26]]],[[[180.0,52.34],[177.25,52.31],[176.52,51.88],[179.52,51.33],[180.0,51.53],[180.0,52.34]]],[[[-180.0,51.53],[-179.74,51.74],[-179.99,52.35],[-180.0,51.53]]],[[[167.72,55.13],[166.61,55.22],[166.21,55.77],[165.09,55.24],[165.78,55.12],[166.2,54.57],[168.23,54.18],[168.79,54.43],[168.67,54.82],[167.72,55.13]]],[[[-156.64,20.39],[-155.94,20.54],[-155.89,20.97],[-157.34,21.33],[-157.39,20.9],[-156.64,20.39]]],[[[153.36,47.39],[153.24,48.01],[153.65,48.34],[153.04,48.4],[151.37,46.85],[152.22,46.65],[153.36,47.39]]],[[[83.07,46.07],[82.44,45.3],[83.37,45.17],[84.01,45.68],[83.07,46.07]]],[[[-143.0,-75.25],[-143.68,-75.41],[-143.51,-75.62],[-141.56,-75.94],[-139.97,-75.82],[-138.9,-75.26],[-136.88,-75.55],[-135.94,-74.98],[-133.89,-75.23],[-131.9,-74.87],[-135.64,-74.59],[-139.99,-75.01],[-141.08,-75.56],[-143.0,-75.25]]],[[[81.79,47.09],[82.76,47.22],[83.72,46.83],[83.41,47.47],[82.11,47.47],[81.45,47.98],[81.13,47.59],[81.79,47.09]]],[[[-2.75,42.22],[-3.28,42.29],[-3.13,41.66],[-3.78,41.01],[-5.49,40.47],[-4.71,40.26],[-3.58,40.61],[-2.27,41.91],[-2.75,42.22]]],[[[75.15,50.34],[74.78,50.45],[74.5,50.04],[75.19,50.08],[75.15,50.34]]],[[[165.94,-50.6],[165.63,-51.2],[165.96,-51.3],[166.6,-50.8],[165.94,-50.6]]],[[[-124.41,-73.84],[-126.42,-73.29],[-126.9,-73.88],[-125.25,-74.26],[-124.4,-74.24],[-123.98,-74.03],[-124.41,-73.84]]],[[[162.99,-74.44],[161.43,-75.36],[162.54,-75.9],[161.87,-76.05],[162.03,-76.28],[163.54,-76.19],[163.36,-75.97],[164.0,-75.81],[163.02,-75.51],[162.85,-75.28],[163.9,-74.74],[162.99,-74.44]]],[[[168.84,-83.24],[167.58,-83.43],[168.38,-83.63],[171.45,-83.85],[178.15,-83.84],[168.84,-83.24]]],[[[15.0,50.63],[16.23,50.43],[16.61,49.9],[17.69,50.06],[15.96,51.16],[15.0,50.63]]],[[[163.07,-82.56],[164.29,-82.39],[163.74,-82.18],[164.88,-82.01],[164.34,-81.81],[162.73,-81.77],[160.81,-82.3],[163.07,-82.56]]],[[[78.73,74.9],[77.99,74.76],[78.09,74.52],[79.64,74.55],[78.73,74.9]]],[[[67.21,40.57],[66.07,40.39],[67.02,40.15],[67.21,40.57]]],[[[50.22,32.45],[50.44,33.03],[50.05,33.29],[49.84,32.71],[50.22,32.45]]],[[[115.36,74.78],[114.87,74.56],[115.33,74.33],[116.77,74.54],[115.36,74.78]]],[[[-122.27,37.56],[-122.13,37.96],[-122.42,38.02],[-122.64,37.85],[-122.27,37.56]]],[[[170.74,-71.65],[168.1,-70.6],[167.07,-70.69],[170.54,-72.03],[171.6,-71.92],[170.74,-71.65]]],[[[170.1,-72.8],[171.22,-72.68],[170.33,-72.42],[169.88,-72.58],[170.1,-72.8]]],[[[21.72,60.75],[21.44,60.89],[21.95,61.4],[21.74,61.75],[21.08,61.81],[21.3,61.46],[20.79,60.95],[21.29,60.46],[21.72,60.75]]],[[[158.3,-69.46],[158.72,-69.09],[157.68,-69.13],[158.3,-69.46]]],[[[3.72,45.28],[4.1,45.59],[3.55,45.64],[3.72,45.28]]],[[[22.68,56.0],[22.13,55.78],[22.78,55.65],[22.68,56.0]]],[[[68.31,32.46],[68.08,32.3],[68.41,31.98],[68.59,32.37],[68.31,32.46]]],[[[129.58,41.23],[130.01,41.26],[130.37,42.17],[129.93,42.14],[129.58,41.23]]],[[[34.51,37.32],[35.41,37.76],[34.93,37.97],[33.44,37.07],[33.92,36.87],[34.51,37.32]]],[[[36.35,34.55],[35.51,33.66],[35.69,33.01],[36.42,33.24],[36.53,33.9],[36.97,34.12],[36.35,34.55]]],[[[-159.86,21.76],[-159.39,22.38],[-160.08,22.21],[-159.86,21.76]]],[[[-152.88,-80.07],[-154.04,-79.74],[-155.22,-80.09],[-152.88,-80.07]]],[[[164.16,-78.77],[161.3,-78.79],[159.72,-79.33],[161.13,-79.6],[162.02,-79.45],[161.67,-79.25],[164.53,-78.97],[164.16,-78.77]]],[[[72.55,51.06],[73.67,50.76],[73.2,51.37],[72.83,51.47],[72.55,51.06]]],[[[22.76,59.96],[21.93,60.4],[22.25,59.72],[22.76,59.96]]],[[[-124.39,-74.64],[-125.72,-74.87],[-124.38,-75.05],[-123.94,-74.83],[-124.39,-74.64]]],[[[-156.86,56.26],[-157.17,55.93],[-156.49,55.99],[-156.86,56.26]]],[[[-89.81,68.83],[-90.39,68.96],[-91.05,68.59],[-89.81,68.83]]],[[[-170.2,57.4],[-170.75,57.64],[-171.2,57.09],[-169.96,56.99],[-169.78,57.36],[-170.2,57.4]]],[[[162.75,-66.78],[163.04,-66.41],[162.15,-66.46],[162.75,-66.78]]],[[[-85.86,66.16],[-87.14,65.44],[-86.23,64.89],[-85.68,64.99],[-86.01,65.65],[-84.68,66.35],[-85.86,66.16]]],[[[46.19,53.28],[47.02,53.69],[45.83,53.71],[45.62,53.5],[46.19,53.28]]],[[[-91.11,63.13],[-91.13,62.87],[-90.17,62.85],[-90.61,63.24],[-91.11,63.13]]],[[[17.61,46.85],[18.07,47.12],[17.49,47.23],[17.61,46.85]]],[[[-180.0,70.79],[-177.63,70.73],[-177.03,71.37],[-179.27,71.87],[-180.0,71.66],[-180.0,70.79]]],[[[180.0,71.66],[178.26,71.46],[177.81,70.81],[180.0,70.79],[180.0,71.66]]],[[[147.35,76.98],[147.31,76.73],[149.1,76.19],[150.17,76.56],[149.25,76.7],[149.32,76.96],[147.35,76.98]]],[[[168.08,-83.04],[169.26,-82.86],[168.53,-82.65],[165.49,-82.81],[168.08,-83.04]]],[[[32.84,35.09],[32.7,34.86],[33.18,34.67],[33.14,35.1],[32.84,35.09]]],[[[82.65,75.55],[83.47,75.92],[82.59,76.04],[80.98,75.54],[81.88,75.18],[82.65,75.55]]],[[[161.07,-70.99],[163.62,-70.49],[161.84,-70.24],[161.07,-70.99]]],[[[173.27,53.16],[172.22,53.29],[172.4,52.49],[174.07,52.18],[174.8,52.63],[173.27,53.16]]],[[[27.15,41.02],[26.69,40.77],[27.22,40.6],[27.15,41.02]]],[[[14.87,48.43],[15.33,48.71],[14.73,48.81],[14.87,48.43]]],[[[165.24,-74.66],[166.55,-74.56],[165.61,-74.27],[165.05,-74.43],[165.24,-74.66]]],[[[164.9,-67.33],[163.99,-67.4],[164.63,-67.7],[164.9,-67.33]]],[[[136.36,74.1],[137.1,74.26],[136.97,74.51],[136.07,74.61],[134.76,74.03],[135.78,73.68],[136.5,73.85],[136.36,74.1]]],[[[84.7,47.45],[84.03,46.44],[86.26,46.77],[85.67,47.55],[84.7,47.45]]],[[[14.03,48.69],[13.89,49.06],[13.44,48.78],[14.03,48.69]]],[[[78.44,79.61],[76.14,79.56],[77.53,79.22],[78.58,79.36],[78.44,79.61]]],[[[-103.84,44.18],[-104.46,44.38],[-103.78,43.73],[-103.54,44.08],[-103.84,44.18]]],[[[17.73,46.45],[17.85,46.06],[18.31,46.33],[17.73,46.45]]],[[[-123.61,44.88],[-124.23,44.96],[-124.3,44.37],[-123.61,44.88]]],[[[-158.6,72.58],[-157.2,72.63],[-157.99,72.97],[-158.67,72.83],[-158.6,72.58]]],[[[7.0,48.21],[6.59,47.9],[7.17,47.84],[7.0,48.21]]],[[[-89.67,69.58],[-90.27,69.72],[-90.95,69.35],[-89.67,69.58]]],[[[-120.53,34.33],[-120.09,34.67],[-120.73,35.04],[-120.95,34.87],[-120.53,34.33]]],[[[140.42,39.85],[139.71,40.23],[139.93,39.87],[139.65,39.29],[140.13,39.27],[140.42,39.85]]],[[[159.83,-69.28],[159.43,-69.65],[160.48,-69.61],[159.83,-69.28]]],[[[-109.87,49.83],[-110.47,49.76],[-110.04,49.45],[-109.87,49.83]]],[[[22.52,37.52],[22.44,37.94],[21.91,38.1],[22.09,37.24],[22.52,37.52]]],[[[176.0,52.67],[176.06,52.27],[176.62,52.49],[176.0,52.67]]],[[[-109.85,48.17],[-109.27,48.23],[-109.69,48.54],[-109.85,48.17]]],[[[-88.27,67.65],[-87.79,67.26],[-87.12,67.62],[-88.15,68.16],[-88.77,68.05],[-88.27,67.65]]],[[[-89.03,63.84],[-88.46,64.21],[-89.47,64.24],[-89.03,63.84]]],[[[-117.98,33.7],[-118.39,34.26],[-118.89,34.16],[-118.49,33.61],[-117.98,33.7]]]]}}]}