{"type":"FeatureCollection","features":[{"type":"Feature","properties":{},"geometry":{"type":"MultiPolygon","coordinates":[[[[152.55,46.73],[153.36,47.39],[153.24,48.01],[153.65,48.34],[153.04,48.4],[152.63,48.08],[152.76,47.45],[151.43,47.09],[151.63,46.71],[152.55,46.73]]],[[[-123.95,39.37],[-124.02,38.74],[-122.93,37.9],[-122.42,38.02],[-123.51,38.86],[-123.66,40.16],[-124.4,40.7],[-124.91,40.57],[-124.17,40.04],[-124.32,39.64],[-123.95,39.37]]],[[[-21.63,36.7],[-20.44,35.2],[-20.69,34.8],[-20.39,34.17],[-21.13,32.99],[-20.57,32.24],[-19.77,32.13],[-19.49,31.5],[-18.44,31.02],[-18.68,30.37],[-17.9,29.5],[-18.39,28.73],[-18.13,28.35],[-18.37,27.72],[-17.86,27.22],[-17.63,28.11],[-17.13,27.62],[-16.15,28.14],[-15.66,27.64],[-13.95,27.77],[-13.18,28.89],[-13.65,29.65],[-14.92,28.02],[-16.14,28.9],[-17.14,28.38],[-17.65,29.13],[-16.64,29.14],[-15.64,29.66],[-15.38,30.29],[-14.62,30.42],[-14.1,31.43],[-13.33,31.54],[-12.24,33.29],[-11.46,33.39],[-10.02,35.46],[-8.13,36.22],[-7.37,36.04],[-6.8,36.49],[-6.15,35.56],[-7.35,33.91],[-8.9,33.51],[-10.03,32.07],[-9.94,29.94],[-10.48,29.21],[-11.21,29.11],[-11.74,28.37],[-12.46,28.51],[-13.45,28.02],[-13.71,27.65],[-13.49,27.02],[-14.21,26.9],[-15.2,25.4],[-14.97,24.78],[-15.68,24.65],[-16.63,23.15],[-16.4,22.79],[-15.45,24.28],[-14.74,24.42],[-14.72,25.4],[-13.98,26.52],[-13.26,26.65],[-12.48,28.01],[-11.52,27.99],[-10.99,28.73],[-10.0,29.19],[-9.29,29.04],[-7.26,30.17],[-6.31,30.11],[-6.0,30.71],[-5.28,30.78],[-4.68,31.71],[-3.66,32.11],[-2.44,32.35],[-2.05,31.82],[-0.3,32.46],[0.04,33.02],[2.01,33.22],[2.38,33.79],[3.93,34.04],[4.32,34.61],[5.42,34.93],[5.78,34.36],[6.76,34.18],[7.25,34.99],[7.61,34.41],[8.74,34.7],[9.74,34.5],[10.01,33.67],[11.0,33.45],[11.34,32.86],[14.98,32.5],[15.2,31.64],[15.7,31.51],[15.36,32.8],[13.37,33.3],[12.7,32.93],[11.71,33.16],[11.45,34.01],[10.74,34.29],[11.62,34.49],[11.1,36.17],[11.86,36.78],[13.92,36.33],[14.25,35.73],[14.95,36.09],[19.25,34.83],[19.97,35.17],[21.49,34.72],[21.78,34.09],[22.78,33.77],[23.5,34.09],[27.13,32.7],[27.86,32.99],[29.0,32.42],[29.73,32.7],[30.85,32.11],[31.57,32.38],[32.21,31.98],[34.27,32.08],[34.44,31.87],[33.88,31.41],[32.71,31.35],[31.32,31.92],[30.42,31.86],[29.16,31.1],[27.56,31.85],[25.76,31.66],[27.38,30.93],[28.09,31.23],[29.21,30.65],[30.05,31.17],[31.23,31.25],[33.23,30.27],[35.26,30.37],[35.44,29.72],[36.27,30.19],[37.0,29.99],[37.55,30.44],[42.43,30.24],[43.4,30.87],[44.46,30.41],[44.52,32.1],[45.08,32.5],[44.55,32.94],[45.11,33.34],[45.15,34.18],[44.22,35.69],[44.66,35.88],[45.19,35.01],[45.91,35.59],[45.95,33.71],[46.74,33.25],[47.43,33.41],[47.93,32.96],[48.62,33.09],[50.17,32.06],[50.18,31.06],[50.87,31.14],[50.92,30.54],[51.62,30.62],[51.97,29.37],[52.96,28.79],[53.02,29.17],[52.3,29.7],[52.49,30.87],[51.79,30.79],[51.74,31.4],[49.84,32.71],[51.0,33.96],[52.17,33.16],[52.62,33.29],[50.55,34.85],[51.24,35.58],[50.32,36.34],[50.96,36.67],[50.84,36.89],[50.13,37.2],[49.2,36.9],[49.13,37.53],[48.71,37.79],[49.99,39.54],[50.98,39.85],[51.18,41.11],[50.61,41.6],[50.68,42.03],[46.98,44.07],[46.15,43.91],[44.73,44.62],[44.59,45.26],[43.13,45.94],[44.33,46.96],[44.35,47.38],[45.2,47.14],[45.41,47.77],[46.29,47.95],[46.37,48.8],[47.12,49.19],[47.17,49.62],[48.1,49.79],[48.37,50.42],[49.34,50.59],[49.63,51.22],[50.85,51.58],[51.77,51.29],[53.92,51.99],[54.85,51.68],[56.42,52.18],[57.34,51.85],[57.48,52.28],[56.95,52.57],[57.91,52.9],[58.31,52.85],[58.16,52.42],[58.68,52.13],[59.12,52.75],[60.91,52.95],[61.38,53.56],[63.22,53.73],[63.74,54.33],[64.89,54.36],[65.44,54.95],[66.61,54.97],[67.19,55.55],[68.72,55.72],[72.6,56.05],[73.49,55.6],[76.18,55.86],[77.03,55.39],[80.12,55.2],[83.14,52.43],[82.78,52.05],[83.13,51.67],[83.84,52.16],[85.96,52.11],[86.36,52.72],[86.03,53.11],[86.42,53.47],[85.34,53.64],[85.01,54.27],[83.54,54.81],[85.08,55.52],[84.73,56.15],[85.14,56.51],[84.38,57.03],[83.58,56.55],[81.23,56.58],[80.41,57.07],[79.23,56.94],[75.84,58.09],[73.81,57.87],[72.82,58.56],[71.17,58.45],[67.44,59.36],[65.42,59.01],[63.44,59.51],[60.73,59.62],[60.53,59.21],[59.4,58.9],[59.03,58.07],[57.37,58.66],[57.38,59.31],[56.76,59.57],[54.87,59.71],[53.8,59.35],[50.35,59.72],[48.88,59.34],[46.39,59.57],[45.45,59.16],[43.0,59.33],[41.68,58.88],[39.71,59.41],[39.73,59.01],[39.11,58.77],[38.22,59.13],[38.18,59.53],[35.23,59.31],[34.08,58.8],[33.18,59.12],[34.49,59.85],[34.32,60.63],[36.04,60.78],[36.86,61.25],[35.9,61.57],[35.83,61.96],[34.67,62.06],[34.84,61.28],[34.23,61.02],[32.85,61.28],[32.47,61.84],[30.64,62.02],[30.23,62.56],[28.38,62.7],[27.93,63.23],[25.54,63.05],[24.52,62.48],[24.02,62.98],[24.96,64.13],[24.76,64.49],[26.05,64.7],[25.46,65.78],[22.02,66.15],[21.08,65.77],[21.33,65.43],[20.84,65.13],[21.0,64.57],[19.61,63.68],[16.76,63.41],[17.65,62.83],[15.73,62.0],[15.75,61.53],[13.08,60.54],[10.73,61.0],[9.16,60.25],[9.24,59.77],[8.34,59.43],[8.43,58.95],[6.86,58.64],[6.05,59.87],[6.62,60.27],[5.48,60.92],[6.06,61.31],[5.67,62.0],[11.6,63.95],[9.93,63.86],[10.62,64.26],[10.29,64.37],[9.24,64.02],[8.13,64.17],[8.2,63.66],[4.76,62.49],[4.97,62.14],[4.11,61.2],[5.02,59.98],[4.46,59.58],[5.05,58.51],[6.31,58.23],[6.78,57.76],[9.0,58.03],[9.81,58.86],[10.8,58.69],[11.05,57.87],[8.51,57.76],[6.04,56.9],[4.15,58.06],[0.48,57.67],[-0.02,57.22],[-1.49,57.02],[-1.74,57.38],[-1.3,57.64],[-3.0,58.0],[-2.5,58.46],[-2.76,58.81],[-0.58,59.85],[-0.76,60.4],[-0.3,60.64],[-1.28,61.1],[-2.67,60.37],[-1.68,59.92],[-2.2,59.47],[-4.48,59.36],[-3.53,58.71],[-4.97,58.89],[-7.67,58.44],[-7.36,58.09],[-7.78,57.81],[-7.52,57.25],[-8.34,56.67],[-7.3,56.46],[-6.76,55.52],[-8.5,55.59],[-9.29,54.99],[-9.02,54.41],[-10.75,54.44],[-10.44,54.08],[-10.84,53.54],[-10.21,53.03],[-10.97,52.17],[-10.38,51.43],[-8.77,51.18],[-7.69,51.89],[-7.12,51.37],[-7.49,51.06],[-7.36,49.76],[-5.59,49.09],[-3.93,49.7],[-3.05,49.46],[-3.47,48.93],[-5.39,48.47],[-4.91,47.7],[-3.74,47.55],[-1.91,46.45],[-1.3,45.28],[-1.65,44.97],[-1.65,43.64],[-3.82,43.95],[-4.46,43.54],[-8.1,44.05],[-9.63,43.32],[-8.88,42.14],[-9.3,40.81],[-10.97,40.92],[-12.98,40.14],[-14.39,40.31],[-14.97,39.82],[-16.67,39.85],[-17.25,40.36],[-20.99,40.18],[-22.51,41.02],[-26.02,40.82],[-27.12,40.22],[-27.31,39.57],[-28.95,38.9],[-29.13,38.24],[-28.0,38.35],[-25.92,37.62],[-24.95,36.52],[-24.71,36.92],[-25.03,37.29],[-24.21,37.47],[-23.6,36.99],[-22.22,37.19],[-21.63,36.7]],[[20.69,56.36],[20.95,56.2],[20.41,55.98],[20.03,56.99],[19.09,57.25],[19.09,57.76],[19.65,57.99],[19.24,58.46],[18.27,58.19],[18.27,57.68],[16.9,57.86],[17.58,58.28],[17.43,58.61],[18.54,58.56],[19.25,58.97],[19.11,59.29],[20.25,59.72],[22.09,59.54],[22.37,59.4],[21.19,58.47],[21.7,57.66],[20.99,57.26],[21.26,57.11],[20.71,56.88],[20.69,56.36]],[[25.48,39.15],[25.56,38.73],[24.51,39.06],[25.48,39.15]],[[37.69,46.63],[37.72,45.84],[35.2,45.67],[35.32,46.27],[35.82,46.47],[37.69,46.63]],[[-2.2,35.15],[-3.09,35.75],[-3.66,35.32],[-4.65,35.42],[-5.04,36.2],[-4.04,36.1],[-3.47,36.53],[-2.26,36.26],[-1.33,37.25],[-0.58,37.26],[-0.21,37.82],[-0.38,38.21],[0.25,38.85],[-0.09,39.63],[1.23,40.9],[2.02,40.94],[2.42,41.49],[3.59,41.85],[3.25,42.6],[3.67,43.16],[6.35,42.85],[7.28,43.09],[6.6,41.84],[6.91,41.06],[8.35,40.35],[7.67,39.09],[8.86,38.51],[9.66,37.6],[8.85,37.63],[8.11,37.0],[6.37,37.42],[5.73,37.02],[4.0,37.4],[2.56,36.73],[1.36,37.01],[0.29,36.65],[-0.07,36.09],[-1.6,35.81],[-2.2,35.15]],[[34.46,44.25],[36.76,45.05],[37.78,44.63],[37.96,44.02],[38.78,44.2],[38.96,43.58],[41.21,42.68],[41.36,41.65],[40.27,41.08],[38.07,41.14],[36.43,41.99],[35.64,41.78],[35.61,42.2],[35.1,42.4],[34.48,41.98],[33.13,42.38],[31.1,41.26],[28.74,41.56],[27.88,42.77],[28.83,43.25],[28.71,44.07],[29.67,44.53],[29.75,45.15],[30.64,44.99],[30.19,45.78],[31.18,46.22],[32.07,46.04],[32.16,45.24],[32.7,45.05],[32.93,44.44],[33.98,44.04],[34.46,44.25]],[[16.78,42.54],[18.76,42.21],[19.08,40.97],[18.76,40.92],[17.77,42.06],[16.89,42.13],[16.78,42.54]],[[34.43,36.23],[34.88,36.46],[35.52,36.04],[35.08,35.82],[34.43,36.23]],[[24.8,40.17],[24.88,39.75],[24.35,39.91],[24.8,40.17]],[[47.43,41.91],[48.34,41.41],[47.36,41.07],[46.35,42.2],[45.55,42.05],[43.55,42.78],[42.77,42.61],[41.21,43.49],[42.62,43.65],[44.17,42.76],[45.92,42.87],[47.43,41.91]],[[4.59,55.03],[3.99,55.16],[4.49,55.6],[4.31,55.97],[5.52,56.47],[5.78,56.3],[5.35,56.07],[5.52,55.71],[7.18,55.72],[8.29,55.23],[7.83,54.95],[5.02,55.27],[4.59,55.03]],[[-9.18,30.28],[-8.91,30.64],[-8.7,30.25],[-9.5,29.42],[-9.71,29.8],[-9.18,30.28]],[[46.14,39.29],[45.7,39.53],[45.73,39.95],[44.97,39.8],[45.01,40.62],[46.23,40.53],[46.14,39.29]],[[25.53,47.93],[25.4,47.72],[26.19,47.38],[26.21,46.37],[25.29,46.5],[25.12,47.3],[24.32,47.63],[24.37,48.24],[25.53,47.93]],[[44.09,40.27],[44.1,40.68],[44.4,40.66],[44.54,40.45],[44.09,40.27]],[[23.14,45.69],[23.62,45.95],[24.41,45.61],[26.5,45.78],[25.88,45.32],[23.45,45.11],[23.14,45.69]],[[43.98,41.72],[44.11,41.09],[43.65,40.91],[43.52,41.54],[43.98,41.72]],[[40.9,40.64],[40.9,41.06],[41.21,41.04],[41.36,40.83],[40.9,40.64]],[[25.83,38.1],[26.34,37.93],[25.9,37.67],[24.67,38.2],[25.11,38.47],[25.83,38.1]],[[48.85,39.03],[48.97,38.81],[48.5,38.65],[48.54,39.06],[48.85,39.03]],[[22.76,45.04],[22.2,45.18],[22.67,45.44],[22.76,45.04]]],[[[-58.19,-51.26],[-61.39,-50.99],[-61.51,-51.54],[-62.04,-51.76],[-61.25,-52.08],[-61.2,-52.44],[-59.62,-52.69],[-59.32,-53.23],[-58.93,-53.2],[-58.85,-52.63],[-57.94,-52.35],[-58.02,-51.99],[-57.37,-51.55],[-57.68,-51.03],[-58.19,-51.26]]],[[[120.42,40.07],[121.26,40.69],[122.08,40.59],[121.11,39.81],[120.88,38.59],[120.39,38.35],[120.51,37.85],[119.86,37.93],[119.91,37.06],[120.66,37.52],[121.22,37.08],[121.11,37.58],[121.52,37.47],[121.63,36.96],[120.63,36.28],[120.78,35.95],[122.05,36.9],[122.64,36.64],[123.07,37.63],[121.37,37.79],[121.07,38.44],[122.5,39.02],[123.3,38.69],[123.86,39.79],[124.93,39.16],[124.63,37.73],[126.1,37.66],[125.6,37.09],[125.93,36.54],[125.6,36.08],[126.25,35.97],[126.38,35.5],[125.69,35.43],[125.81,34.95],[125.09,34.68],[125.73,34.57],[126.06,33.98],[126.58,34.35],[128.66,34.56],[129.82,35.65],[129.7,37.18],[127.83,39.7],[128.65,39.75],[129.45,40.24],[129.61,40.8],[130.25,40.94],[129.99,41.48],[130.59,42.29],[132.6,42.73],[133.08,42.3],[133.53,42.77],[134.24,42.68],[135.19,43.16],[135.68,44.08],[136.42,44.21],[136.94,45.14],[137.71,45.27],[139.42,47.59],[138.87,47.58],[137.47,45.61],[134.94,44.4],[134.23,43.36],[132.81,43.3],[132.56,43.62],[134.21,44.49],[133.7,45.37],[134.68,45.86],[134.42,46.41],[133.61,46.46],[131.93,45.57],[131.13,44.21],[131.65,43.35],[130.77,42.86],[130.29,43.27],[129.63,43.11],[130.15,42.26],[129.5,42.11],[129.58,41.23],[128.17,40.38],[127.55,40.44],[127.19,39.98],[126.33,40.35],[125.36,40.15],[124.67,40.83],[123.97,40.33],[123.33,40.57],[122.82,40.19],[122.85,40.93],[123.93,41.24],[124.33,42.73],[123.63,43.47],[121.32,41.73],[120.65,41.96],[120.57,40.96],[119.86,40.88],[119.73,40.34],[118.05,40.48],[117.32,40.02],[117.18,40.54],[116.19,40.4],[115.88,39.44],[117.59,39.35],[117.24,38.76],[117.89,38.16],[119.17,37.83],[118.87,37.43],[119.22,36.95],[119.44,38.04],[117.96,38.52],[118.42,38.94],[119.01,38.85],[119.48,39.61],[120.42,40.07]]],[[[172.5,-44.24],[173.31,-43.79],[172.95,-43.22],[176.06,-41.64],[176.22,-41.01],[176.99,-40.79],[177.34,-39.76],[178.08,-39.54],[178.94,-37.33],[177.96,-37.46],[177.38,-37.05],[177.52,-36.41],[176.95,-35.99],[177.09,-35.35],[175.25,-34.69],[174.52,-34.88],[173.18,-34.12],[172.44,-34.3],[171.89,-33.84],[171.43,-34.37],[170.37,-33.93],[169.61,-34.1],[168.28,-33.27],[164.13,-33.34],[162.28,-34.23],[162.54,-34.87],[162.26,-35.25],[163.06,-36.41],[164.44,-37.3],[164.17,-37.94],[165.01,-38.81],[164.74,-39.45],[166.5,-41.42],[166.24,-42.05],[168.08,-43.96],[167.22,-44.37],[166.08,-45.9],[167.39,-47.54],[171.26,-46.18],[170.9,-45.6],[171.65,-44.44],[172.5,-44.24]]],[[[28.43,71.25],[27.25,71.3],[26.64,70.81],[24.93,70.57],[30.09,70.65],[30.58,70.32],[29.35,69.79],[30.95,69.59],[32.15,69.91],[33.5,69.1],[34.82,69.6],[31.7,70.25],[31.29,70.79],[28.97,70.91],[28.43,71.25]]],[[[143.83,-37.95],[144.0,-38.37],[143.7,-38.45],[140.47,-37.86],[139.49,-35.59],[139.13,-35.9],[139.87,-38.0],[140.94,-38.21],[141.33,-38.8],[142.55,-38.51],[142.96,-39.1],[143.51,-39.19],[144.25,-38.53],[145.1,-38.54],[146.29,-39.62],[147.16,-39.61],[147.57,-40.43],[146.89,-40.86],[145.75,-40.7],[145.3,-40.12],[144.43,-40.11],[144.0,-39.53],[143.63,-39.85],[144.06,-40.44],[144.62,-40.53],[144.18,-41.1],[145.15,-43.17],[146.2,-43.83],[147.4,-43.99],[148.48,-43.23],[148.26,-42.82],[148.83,-41.49],[148.35,-40.92],[148.77,-40.33],[148.34,-39.5],[147.52,-39.27],[147.37,-38.6],[148.08,-37.92],[149.75,-38.12],[150.4,-37.67],[150.18,-37.26],[150.52,-36.91],[150.35,-36.24],[150.98,-35.79],[150.81,-35.12],[151.75,-34.31],[151.57,-33.64],[153.42,-31.74],[153.33,-30.31],[153.9,-29.84],[153.69,-29.44],[154.01,-28.82],[153.56,-28.27],[153.86,-27.91],[153.68,-27.26],[152.89,-27.57],[153.51,-28.78],[153.18,-29.39],[153.39,-29.8],[152.81,-30.26],[152.9,-31.69],[151.32,-33.49],[149.98,-33.47],[149.32,-34.18],[149.48,-34.84],[149.15,-35.19],[147.98,-35.57],[148.13,-36.24],[147.29,-36.26],[146.89,-36.85],[146.05,-36.86],[145.33,-37.54],[143.71,-37.28],[143.83,-37.95]]],[[[-124.21,43.35],[-123.68,45.09],[-124.23,44.96],[-124.96,43.05],[-124.58,42.79],[-124.21,43.35]]],[[[124.16,-34.1],[124.52,-33.85],[123.96,-33.52],[122.99,-34.05],[122.45,-33.72],[120.96,-33.89],[122.28,-34.54],[124.16,-34.1]]],[[[134.79,34.27],[135.21,33.57],[135.64,33.55],[135.21,34.48],[135.86,34.79],[134.36,34.96],[134.16,34.62],[134.79,34.27]]],[[[37.52,64.66],[36.75,64.8],[37.46,65.04],[39.8,64.61],[40.8,65.05],[39.74,65.39],[39.98,65.6],[44.86,66.56],[39.92,66.37],[39.67,66.16],[39.95,65.98],[38.48,65.11],[36.61,65.56],[35.39,65.27],[35.1,65.44],[35.3,65.65],[36.02,65.9],[35.64,66.45],[35.86,66.66],[32.52,67.11],[32.33,66.9],[34.4,66.14],[34.2,65.93],[34.88,64.25],[36.12,64.16],[36.47,63.6],[38.39,63.74],[38.57,64.34],[37.52,64.66]]],[[[-41.15,64.51],[-40.22,64.6],[-40.04,65.25],[-40.99,65.15],[-41.15,64.51]]],[[[142.95,44.74],[142.26,45.83],[142.86,46.28],[143.35,45.8],[143.97,46.25],[143.54,47.21],[142.65,46.88],[142.15,47.35],[140.94,46.2],[141.71,45.84],[140.87,45.5],[141.34,44.79],[141.04,44.44],[141.25,43.85],[140.18,43.4],[139.35,42.36],[140.08,41.99],[139.3,41.66],[140.03,41.28],[139.76,40.94],[139.96,40.34],[139.45,39.89],[139.65,39.29],[139.13,38.6],[138.42,38.51],[137.93,37.83],[138.14,37.24],[137.68,37.26],[137.02,38.32],[136.32,37.53],[136.54,36.95],[135.86,35.93],[134.78,35.85],[136.51,35.11],[136.5,34.19],[137.15,34.5],[138.92,34.39],[139.55,33.53],[139.79,33.86],[139.38,34.6],[140.78,34.96],[140.59,35.57],[141.29,35.64],[140.9,36.62],[141.43,37.3],[141.01,38.04],[141.74,38.11],[142.3,38.79],[142.11,39.41],[142.4,39.75],[141.51,40.99],[141.82,41.57],[141.37,42.3],[142.16,42.39],[143.14,41.87],[144.59,42.87],[145.95,42.9],[146.31,43.49],[147.16,43.55],[146.99,44.17],[147.68,44.85],[150.8,45.8],[150.66,46.43],[151.04,46.76],[150.78,46.91],[149.64,45.91],[147.82,45.57],[147.42,44.99],[146.22,44.58],[145.42,44.75],[144.8,44.3],[143.71,44.36],[142.95,44.74]]],[[[-70.22,-31.23],[-70.53,-30.73],[-69.77,-29.49],[-70.07,-28.98],[-69.51,-28.08],[-69.81,-27.56],[-69.07,-26.28],[-69.46,-25.06],[-68.81,-24.84],[-68.12,-23.3],[-68.82,-23.06],[-68.68,-22.44],[-69.18,-22.04],[-68.83,-21.26],[-69.36,-20.62],[-69.22,-19.98],[-70.15,-19.64],[-70.54,-20.18],[-70.15,-21.47],[-71.07,-23.18],[-70.59,-25.13],[-71.44,-27.48],[-71.14,-28.01],[-71.9,-29.27],[-71.6,-29.79],[-72.19,-30.66],[-71.88,-31.17],[-72.29,-31.67],[-73.69,-31.88],[-74.08,-32.59],[-73.77,-33.09],[-74.38,-33.93],[-74.07,-34.42],[-74.89,-35.58],[-75.55,-37.78],[-75.12,-38.3],[-75.41,-38.83],[-74.83,-40.39],[-74.19,-40.74],[-73.83,-41.64],[-74.6,-42.28],[-74.13,-42.8],[-75.43,-43.55],[-74.56,-44.36],[-75.79,-44.73],[-74.91,-45.54],[-75.64,-45.81],[-76.02,-47.01],[-74.98,-47.41],[-75.74,-47.7],[-76.28,-49.3],[-75.75,-49.82],[-76.02,-50.62],[-75.14,-51.19],[-75.96,-51.49],[-75.41,-51.99],[-75.55,-52.4],[-74.73,-52.73],[-74.76,-53.35],[-73.92,-53.67],[-73.94,-54.3],[-72.48,-54.46],[-71.99,-54.72],[-71.94,-55.31],[-71.37,-55.51],[-70.31,-55.34],[-70.19,-55.91],[-69.13,-55.73],[-67.29,-56.29],[-66.64,-56.09],[-66.41,-55.51],[-63.33,-54.83],[-64.78,-54.32],[-65.78,-54.54],[-66.97,-54.19],[-66.96,-53.82],[-68.25,-52.92],[-67.99,-52.0],[-69.01,-50.94],[-68.74,-50.36],[-67.22,-49.92],[-67.06,-48.74],[-65.63,-48.3],[-65.65,-46.94],[-66.81,-46.8],[-67.29,-45.96],[-66.63,-45.27],[-65.06,-45.27],[-64.91,-43.39],[-63.15,-42.68],[-63.63,-41.88],[-64.68,-42.11],[-64.74,-41.17],[-63.61,-41.52],[-62.09,-41.0],[-61.94,-39.41],[-57.42,-38.42],[-56.29,-36.56],[-56.6,-36.1],[-57.27,-36.0],[-56.68,-35.73],[-57.54,-34.7],[-56.12,-35.26],[-55.75,-34.88],[-54.8,-35.25],[-53.99,-34.85],[-54.71,-34.58],[-55.08,-34.97],[-58.31,-34.03],[-58.67,-34.41],[-59.14,-34.14],[-59.44,-34.83],[-57.58,-35.54],[-57.43,-36.28],[-56.76,-36.37],[-57.69,-38.15],[-60.3,-38.95],[-61.93,-38.71],[-62.79,-39.82],[-64.89,-39.68],[-67.02,-38.2],[-66.87,-37.49],[-67.43,-37.01],[-67.38,-35.89],[-67.9,-35.59],[-67.76,-35.05],[-68.56,-34.47],[-68.2,-33.78],[-68.33,-32.95],[-67.66,-32.72],[-68.76,-31.63],[-68.98,-30.13],[-68.1,-28.29],[-68.55,-28.37],[-70.16,-31.66],[-69.85,-32.15],[-70.59,-31.95],[-70.22,-31.23]],[[-70.43,-33.01],[-70.04,-32.51],[-69.48,-33.06],[-69.88,-33.55],[-70.43,-33.01]]],[[[-13.27,65.78],[-14.11,65.86],[-14.59,66.59],[-16.35,66.72],[-17.45,66.32],[-18.15,66.83],[-19.81,66.09],[-23.36,66.67],[-24.92,65.64],[-24.08,65.16],[-24.6,64.58],[-22.46,64.43],[-23.0,63.86],[-18.23,63.24],[-16.48,63.6],[-15.84,64.14],[-14.59,64.16],[-12.85,65.05],[-13.27,65.78]],[[-16.7,65.0],[-16.19,64.27],[-17.81,64.37],[-16.7,65.0]]],[[[-25.98,-58.69],[-25.69,-58.31],[-26.49,-58.36],[-25.98,-58.69]]],[[[23.43,32.73],[21.45,33.37],[19.73,31.98],[20.22,31.83],[21.13,32.65],[22.12,32.34],[22.83,32.66],[23.1,32.02],[24.08,31.69],[24.79,32.0],[25.05,31.36],[25.35,31.39],[25.21,32.27],[24.23,32.61],[23.51,32.3],[23.43,32.73]]],[[[139.06,-34.33],[138.7,-34.65],[138.84,-35.07],[137.82,-35.75],[137.96,-36.17],[139.34,-35.17],[139.06,-34.33]]],[[[-65.11,32.44],[-65.07,32.11],[-64.31,32.52],[-65.11,32.44]]],[[[-36.83,65.88],[-37.8,65.81],[-37.18,65.48],[-36.83,65.88]]],[[[-122.83,44.37],[-122.43,45.71],[-122.98,45.59],[-123.45,44.45],[-122.83,44.37]]],[[[115.05,-33.5],[114.58,-33.98],[115.76,-34.63],[115.85,-35.18],[116.54,-35.42],[117.12,-35.11],[115.01,-33.85],[116.01,-33.42],[116.01,-31.87],[115.19,-32.13],[115.69,-32.52],[115.62,-33.21],[115.05,-33.5]]],[[[40.68,67.37],[41.52,67.6],[40.66,67.75],[40.39,67.54],[40.68,67.37]]],[[[-24.59,16.93],[-25.08,17.36],[-25.73,17.19],[-25.45,16.63],[-24.53,16.23],[-23.89,16.63],[-24.59,16.93]]],[[[-70.36,-17.94],[-70.77,-18.24],[-70.27,-18.67],[-70.36,-17.94]]],[[[120.52,35.73],[119.95,36.17],[120.25,35.5],[120.52,35.73]]],[[[-26.61,-59.45],[-27.45,-59.5],[-26.93,-59.83],[-26.61,-59.45]]],[[[-75.92,-14.47],[-75.37,-15.43],[-74.92,-15.38],[-75.48,-14.42],[-75.92,-14.47]]],[[[-8.86,58.02],[-9.24,57.95],[-8.92,57.6],[-8.09,58.16],[-8.86,58.02]]],[[[-124.34,42.14],[-124.2,42.53],[-124.5,42.58],[-124.87,42.01],[-124.49,41.75],[-124.56,41.14],[-123.88,40.83],[-123.89,41.66],[-124.34,42.14]]],[[[20.5,31.2],[20.01,31.35],[19.52,30.82],[20.0,30.67],[20.5,31.2]]],[[[52.31,32.32],[52.38,32.72],[51.61,33.25],[50.66,32.59],[52.93,30.99],[52.31,32.32]]],[[[-61.84,-64.48],[-60.61,-64.86],[-60.86,-65.08],[-60.52,-65.28],[-59.92,-65.25],[-59.78,-64.6],[-56.54,-64.61],[-56.48,-63.96],[-54.25,-63.12],[-56.92,-62.71],[-59.41,-63.73],[-60.85,-63.59],[-62.73,-64.3],[-64.17,-64.13],[-64.41,-65.19],[-64.1,-65.4],[-63.5,-65.38],[-63.26,-64.74],[-61.84,-64.48]]],[[[133.5,35.65],[132.89,35.32],[134.14,35.3],[133.5,35.65]]],[[[-42.81,62.27],[-43.36,60.79],[-44.52,60.49],[-44.58,59.84],[-42.99,60.08],[-41.83,62.15],[-42.81,62.27]]],[[[48.87,29.79],[49.26,29.97],[48.9,30.2],[48.11,29.84],[48.05,29.01],[48.69,29.18],[48.87,29.79]]],[[[-123.22,47.0],[-122.1,47.24],[-121.76,47.97],[-122.24,48.42],[-121.91,49.14],[-123.22,49.3],[-124.53,50.0],[-124.77,49.27],[-123.54,48.58],[-124.26,48.09],[-122.98,47.94],[-123.22,47.0]]],[[[53.29,32.97],[52.83,32.85],[52.87,32.22],[53.32,32.35],[53.29,32.97]]],[[[-65.89,-65.43],[-66.19,-65.64],[-65.89,-65.85],[-64.98,-66.05],[-64.07,-65.82],[-65.89,-65.43]]],[[[172.96,52.73],[173.52,52.97],[172.87,53.13],[172.96,52.73]]],[[[17.26,31.35],[16.57,31.67],[16.19,31.38],[17.86,30.77],[18.24,31.06],[18.05,31.26],[17.26,31.35]]],[[[21.64,70.24],[23.28,70.31],[22.03,70.93],[21.0,70.54],[21.64,70.24]]],[[[-61.3,-65.96],[-61.57,-66.18],[-61.22,-66.38],[-60.33,-66.13],[-61.3,-65.96]]],[[[37.25,-46.84],[37.65,-47.09],[38.16,-46.7],[37.25,-46.84]]],[[[12.33,35.77],[12.46,35.35],[13.23,35.96],[12.33,35.77]]],[[[137.24,-35.88],[137.11,-35.47],[136.37,-36.07],[137.08,-36.37],[137.38,-36.3],[137.24,-35.88]]],[[[-30.99,39.07],[-30.78,39.48],[-31.14,39.82],[-31.71,39.75],[-30.99,39.07]]],[[[-77.56,0.05],[-77.81,0.41],[-78.45,0.23],[-78.2,-0.12],[-77.56,0.05]]],[[[159.22,-31.33],[158.94,-31.7],[159.19,-31.84],[159.46,-31.72],[159.22,-31.33]]],[[[126.62,33.48],[126.34,33.19],[126.79,33.17],[126.62,33.48]]],[[[104.45,52.4],[104.06,52.98],[102.98,52.82],[103.39,52.24],[104.45,52.4]]],[[[-176.2,-43.62],[-177.27,-43.72],[-176.17,-44.68],[-175.76,-44.17],[-176.2,-43.62]]],[[[51.93,35.27],[52.0,35.68],[51.71,35.72],[51.53,35.54],[51.93,35.27]]],[[[-72.85,41.62],[-74.1,40.81],[-73.04,40.57],[-73.05,41.18],[-72.63,41.45],[-72.85,41.62]]],[[[-62.62,-62.82],[-62.82,-63.46],[-61.97,-63.64],[-61.78,-63.0],[-60.38,-63.15],[-57.19,-61.89],[-60.32,-62.09],[-62.62,-62.82]]],[[[-6.74,61.16],[-6.28,61.42],[-6.6,61.76],[-5.72,62.07],[-5.99,62.6],[-6.79,62.68],[-7.72,62.17],[-6.74,61.16]]],[[[10.13,64.7],[11.2,64.49],[11.88,65.11],[10.13,64.7]]],[[[4.57,39.54],[4.47,40.17],[3.73,40.38],[2.58,40.03],[2.19,39.47],[3.08,38.88],[3.77,39.52],[4.57,39.54]]],[[[-34.1,66.77],[-35.1,66.72],[-34.5,66.39],[-34.1,66.77]]],[[[120.01,-34.38],[119.61,-33.84],[119.5,-34.39],[117.4,-35.13],[117.81,-35.34],[120.01,-34.38]]],[[[53.6,30.06],[52.8,30.21],[53.53,29.68],[53.6,30.06]]],[[[-38.21,-53.94],[-38.61,-54.27],[-36.14,-55.12],[-35.39,-54.67],[-35.74,-54.1],[-37.13,-53.63],[-38.21,-53.94]]],[[[-53.89,46.49],[-53.41,46.27],[-52.66,46.65],[-52.6,48.08],[-53.16,47.9],[-53.29,47.08],[-54.34,47.11],[-54.39,46.7],[-53.89,46.49]]],[[[23.18,70.91],[24.33,70.88],[23.71,71.2],[23.18,70.91]]],[[[-22.81,17.06],[-23.26,17.03],[-22.76,16.37],[-22.81,17.06]]],[[[-26.8,-57.19],[-26.03,-57.14],[-26.51,-56.82],[-26.8,-57.19]]],[[[141.67,48.06],[142.18,47.59],[143.03,47.69],[142.31,48.75],[141.67,48.06]]],[[[-80.75,-33.97],[-80.51,-33.85],[-80.79,-33.54],[-81.0,-33.89],[-80.75,-33.97]]],[[[20.15,69.76],[21.23,69.76],[20.6,70.05],[20.15,69.76]]],[[[85.4,54.64],[86.53,54.72],[86.96,55.32],[85.05,55.02],[85.4,54.64]]],[[[152.3,-30.22],[151.86,-29.66],[151.24,-30.37],[152.0,-30.57],[152.3,-30.22]]],[[[-12.04,-37.03],[-13.09,-37.34],[-12.13,-37.47],[-12.04,-37.03]]],[[[-45.79,60.41],[-44.99,60.55],[-45.61,60.83],[-45.79,60.41]]],[[[166.25,-50.23],[165.28,-50.86],[166.29,-51.17],[166.91,-50.43],[166.25,-50.23]]],[[[37.51,66.4],[36.68,66.53],[36.46,66.32],[36.76,66.15],[38.38,65.88],[39.14,66.13],[37.51,66.4]]],[[[-17.32,21.79],[-16.86,21.8],[-16.63,22.42],[-17.09,22.4],[-17.32,21.79]]],[[[-78.85,-33.37],[-79.05,-33.71],[-78.8,-33.8],[-78.57,-33.67],[-78.85,-33.37]]],[[[105.64,52.14],[105.77,51.74],[106.68,52.28],[105.64,52.14]]],[[[-53.41,-61.32],[-55.43,-60.89],[-56.11,-61.16],[-54.09,-61.61],[-53.41,-61.32]]],[[[40.36,67.92],[40.64,68.12],[40.34,68.3],[39.45,68.44],[37.74,68.33],[40.36,67.92]]],[[[-25.89,-57.61],[-26.68,-57.66],[-26.19,-57.98],[-25.89,-57.61]]],[[[-122.42,37.16],[-122.27,37.56],[-122.56,37.62],[-122.78,37.44],[-122.42,37.16]]],[[[-41.95,63.27],[-42.2,62.86],[-41.33,62.97],[-41.95,63.27]]],[[[19.1,-34.21],[19.01,-33.43],[17.93,-33.85],[17.98,-34.23],[19.77,-34.96],[20.57,-34.55],[19.1,-34.21]]],[[[-12.16,62.81],[-11.6,63.1],[-12.34,63.17],[-12.16,62.81]]],[[[-60.0,44.23],[-60.0,43.83],[-59.5,44.04],[-60.0,44.23]]],[[[1.24,38.73],[1.41,38.35],[2.02,38.76],[1.91,39.38],[1.4,39.44],[1.07,39.11],[1.24,38.73]]],[[[-61.71,-65.33],[-62.58,-65.57],[-61.64,-65.76],[-61.38,-65.53],[-61.71,-65.33]]],[[[-53.22,-34.25],[-53.5,-33.97],[-53.82,-34.56],[-53.22,-34.25]]],[[[-9.74,-40.47],[-9.53,-40.27],[-9.99,-40.0],[-10.07,-40.43],[-9.74,-40.47]]],[[[37.93,68.9],[36.7,69.19],[35.87,68.94],[37.1,68.66],[37.93,68.9]]],[[[166.49,-48.43],[166.8,-48.3],[166.47,-47.95],[166.17,-48.33],[166.49,-48.43]]],[[[-45.47,-61.08],[-44.02,-60.82],[-44.72,-60.28],[-46.05,-60.3],[-46.73,-60.85],[-45.47,-61.08]]],[[[12.34,65.65],[12.83,66.2],[11.97,66.17],[11.74,65.89],[12.34,65.65]]]]}}]}