{"type":"FeatureCollection","features":[{"type":"Feature","properties":{},"geometry":{"type":"MultiPolygon","coordinates":[[[[-180.0,22.17],[-177.02,20.73],[-176.63,20.96],[-176.38,20.97],[-176.25,20.78],[-175.61,21.02],[-175.1,20.64],[-174.72,20.86],[-174.09,20.69],[-173.59,21.12],[-173.33,21.13],[-173.21,20.94],[-172.58,21.17],[-172.1,20.78],[-171.73,20.99],[-171.13,20.77],[-170.76,20.97],[-167.79,18.99],[-167.54,18.98],[-167.43,18.76],[-166.79,18.94],[-165.96,18.26],[-165.31,18.43],[-164.83,17.97],[-164.58,17.96],[-164.43,18.16],[-163.81,17.91],[-163.66,18.11],[-163.4,18.1],[-162.93,17.63],[-162.26,17.79],[-162.15,17.57],[-161.89,17.55],[-161.33,17.94],[-160.7,17.67],[-160.55,17.88],[-160.29,17.85],[-160.18,17.62],[-159.92,17.6],[-158.92,18.17],[-158.29,17.89],[-157.28,18.46],[-156.64,18.18],[-154.77,19.09],[-153.2,19.57],[-152.97,20.21],[-152.27,20.35],[-152.1,20.55],[-152.2,20.79],[-151.6,21.15],[-151.7,21.39],[-151.53,21.59],[-151.26,21.55],[-151.03,22.18],[-150.76,22.15],[-150.59,22.35],[-150.49,23.87],[-149.87,24.22],[-149.98,24.45],[-149.8,24.65],[-149.53,24.61],[-149.36,24.8],[-149.25,26.3],[-149.01,26.91],[-150.26,27.92],[-150.99,27.79],[-151.48,28.27],[-152.22,28.14],[-152.71,28.62],[-152.99,28.65],[-153.16,28.46],[-153.45,28.48],[-153.55,28.7],[-153.83,28.73],[-154.01,28.54],[-154.29,28.57],[-154.4,28.78],[-154.68,28.81],[-154.85,28.62],[-155.52,28.88],[-156.13,28.52],[-156.41,28.54],[-156.52,28.76],[-156.8,28.78],[-156.97,28.58],[-157.64,28.84],[-158.25,28.46],[-158.52,28.48],[-158.64,28.69],[-158.91,28.71],[-159.08,28.51],[-159.35,28.53],[-159.47,28.74],[-159.74,28.76],[-159.9,28.56],[-160.57,28.8],[-161.16,28.42],[-161.44,28.43],[-161.55,28.64],[-161.98,28.45],[-162.64,28.68],[-163.22,28.29],[-163.49,28.29],[-163.61,28.5],[-164.03,28.31],[-164.68,28.53],[-165.25,28.13],[-165.9,28.34],[-166.73,27.94],[-167.95,28.79],[-168.62,28.6],[-169.51,29.25],[-170.19,29.05],[-170.31,29.26],[-170.58,29.26],[-170.72,29.05],[-170.99,29.06],[-171.12,29.27],[-171.39,29.27],[-171.53,29.06],[-171.8,29.06],[-172.34,29.48],[-173.03,29.27],[-173.16,29.48],[-173.44,29.48],[-174.0,29.04],[-174.27,29.04],[-174.41,29.25],[-175.11,29.02],[-175.25,29.23],[-175.53,29.23],[-175.66,29.01],[-175.94,29.0],[-176.09,29.21],[-176.37,29.2],[-176.51,28.98],[-176.79,28.97],[-176.93,29.18],[-177.21,29.17],[-177.77,28.72],[-178.48,28.9],[-179.03,28.44],[-179.31,28.42],[-179.46,28.63],[-180.0,28.38],[-180.0,22.17]]],[[[180.0,28.38],[179.3,27.9],[179.01,27.88],[178.86,28.09],[178.16,27.82],[178.0,28.03],[177.72,28.0],[176.78,27.27],[176.05,27.42],[175.93,27.19],[176.14,26.56],[175.63,26.07],[175.79,25.87],[175.67,25.64],[176.27,25.26],[176.15,25.03],[176.31,24.83],[176.59,24.86],[177.18,24.48],[177.06,24.26],[177.25,23.63],[178.37,23.3],[178.55,22.68],[179.23,22.53],[179.79,22.15],[180.0,22.17],[180.0,28.38]]],[[[175.02,-1.11],[174.69,-1.01],[174.61,-0.42],[174.07,-0.35],[173.99,-0.51],[174.45,-0.74],[174.4,-1.19],[174.73,-1.3],[174.89,-1.71],[175.17,-1.53],[175.02,-1.11]]],[[[154.73,0.86],[155.0,1.19],[154.82,1.35],[154.59,1.26],[154.73,0.86]]],[[[-162.21,6.17],[-162.06,6.37],[-162.17,6.59],[-162.41,6.62],[-162.59,6.0],[-162.14,5.51],[-161.9,5.48],[-161.75,5.68],[-161.85,5.91],[-162.1,5.94],[-162.21,6.17]]],[[[43.78,-20.92],[43.19,-21.27],[43.19,-21.92],[42.94,-21.97],[42.86,-22.21],[43.11,-22.8],[43.03,-23.03],[43.63,-23.33],[43.21,-23.85],[43.47,-24.44],[43.38,-24.67],[43.56,-24.84],[43.81,-24.78],[44.08,-25.36],[44.76,-25.41],[45.02,-25.97],[45.28,-25.91],[45.36,-25.68],[45.61,-25.62],[45.79,-25.79],[46.12,-25.5],[46.79,-25.54],[47.44,-24.95],[47.43,-24.32],[48.07,-23.74],[47.81,-23.17],[48.2,-22.64],[48.03,-22.48],[48.35,-22.18],[48.33,-21.55],[48.57,-21.49],[48.64,-21.26],[48.48,-21.09],[48.79,-20.79],[48.86,-20.56],[48.7,-20.39],[49.08,-19.86],[48.91,-19.69],[48.99,-19.46],[49.53,-19.11],[49.6,-18.87],[49.44,-18.7],[49.81,-18.18],[49.65,-18.01],[49.63,-17.37],[50.16,-17.02],[50.14,-16.38],[50.73,-15.81],[50.0,-12.55],[49.46,-12.25],[49.37,-11.84],[48.84,-12.17],[48.68,-11.99],[48.45,-12.04],[48.47,-12.68],[47.63,-13.3],[47.65,-13.95],[47.41,-14.0],[47.34,-14.24],[47.5,-14.42],[47.43,-14.65],[46.57,-15.28],[46.49,-15.51],[45.85,-15.44],[45.77,-15.67],[45.53,-15.73],[45.37,-15.54],[45.12,-15.6],[44.72,-16.12],[44.07,-16.04],[44.16,-17.12],[43.58,-17.47],[43.5,-17.7],[44.11,-19.98],[43.69,-20.51],[43.86,-20.69],[43.78,-20.92]]],[[[180.0,-83.82],[171.74,-83.46],[170.86,-83.26],[172.0,-83.07],[171.17,-82.87],[164.29,-82.39],[163.74,-82.18],[164.88,-82.01],[164.34,-81.81],[162.73,-81.77],[162.26,-81.56],[163.35,-81.4],[162.89,-81.19],[161.4,-81.15],[161.0,-80.94],[162.03,-80.78],[161.63,-80.58],[162.61,-80.42],[162.22,-80.21],[163.15,-80.05],[162.76,-79.85],[161.47,-79.81],[161.13,-79.6],[162.02,-79.45],[161.67,-79.25],[167.68,-78.85],[168.4,-78.68],[167.97,-78.49],[168.67,-78.32],[168.24,-78.13],[168.91,-77.96],[168.49,-77.77],[170.81,-77.44],[169.47,-77.21],[168.85,-77.38],[167.93,-77.33],[167.67,-77.11],[166.77,-77.06],[166.11,-77.22],[166.35,-77.45],[165.67,-77.61],[163.61,-77.26],[163.42,-77.03],[164.11,-76.87],[163.91,-76.65],[163.05,-76.58],[162.87,-76.35],[163.54,-76.19],[163.36,-75.97],[164.0,-75.81],[163.81,-75.58],[163.02,-75.51],[162.85,-75.28],[164.25,-75.2],[164.84,-75.04],[164.66,-74.81],[166.55,-74.56],[166.35,-74.33],[165.61,-74.27],[165.42,-74.04],[167.93,-73.85],[168.43,-73.68],[168.22,-73.46],[168.7,-73.3],[169.4,-73.35],[169.63,-73.57],[169.14,-73.74],[169.37,-73.96],[170.1,-74.01],[170.58,-73.84],[170.34,-73.62],[170.8,-73.45],[169.65,-72.97],[171.22,-72.68],[170.99,-72.47],[171.42,-72.3],[171.19,-72.08],[171.6,-71.92],[171.37,-71.7],[170.74,-71.65],[170.53,-71.43],[170.94,-71.27],[170.72,-71.05],[169.08,-71.1],[168.1,-70.6],[166.47,-70.63],[166.31,-70.4],[165.71,-70.33],[165.27,-70.49],[163.94,-70.11],[162.43,-70.33],[161.84,-70.24],[161.73,-70.01],[160.48,-69.61],[160.39,-69.37],[158.79,-69.32],[158.72,-69.09],[158.17,-68.99],[156.63,-69.16],[156.08,-69.05],[156.04,-68.81],[155.5,-68.71],[155.47,-68.47],[154.39,-68.01],[152.87,-68.14],[152.87,-68.38],[152.36,-68.49],[148.13,-68.44],[147.63,-68.3],[147.67,-68.06],[147.17,-67.92],[147.23,-67.68],[144.68,-67.45],[144.76,-67.21],[145.3,-67.11],[145.37,-66.87],[144.9,-66.72],[140.35,-66.54],[136.95,-66.08],[136.38,-66.15],[135.97,-65.97],[134.65,-66.33],[132.29,-65.89],[131.7,-65.94],[131.5,-66.18],[129.93,-66.07],[129.71,-66.31],[129.1,-66.35],[128.87,-66.58],[129.25,-66.78],[129.02,-67.01],[127.4,-66.88],[127.03,-66.68],[127.28,-66.45],[125.95,-66.07],[124.46,-66.35],[124.18,-66.57],[122.59,-66.4],[121.36,-66.85],[119.77,-66.65],[118.47,-67.08],[116.88,-66.85],[116.53,-67.06],[115.88,-67.05],[115.59,-66.82],[115.95,-66.61],[115.67,-66.38],[114.15,-66.12],[113.02,-65.63],[110.41,-65.94],[110.01,-66.14],[110.24,-66.38],[109.84,-66.58],[109.21,-66.54],[108.79,-66.73],[108.16,-66.69],[107.94,-66.45],[107.31,-66.4],[107.11,-66.16],[105.44,-66.24],[105.26,-66.0],[103.87,-65.63],[103.7,-65.38],[104.13,-65.2],[103.96,-64.95],[103.38,-64.89],[101.92,-65.18],[100.3,-65.21],[99.85,-65.38],[99.98,-65.63],[99.52,-65.8],[99.65,-66.05],[99.17,-66.22],[98.57,-66.14],[98.09,-66.3],[96.79,-65.88],[96.31,-66.04],[96.41,-66.29],[95.91,-66.45],[89.29,-66.69],[85.43,-66.58],[84.3,-67.07],[83.75,-66.93],[83.19,-67.05],[83.16,-67.3],[82.58,-67.41],[82.55,-67.66],[79.7,-67.69],[79.64,-67.94],[78.35,-68.38],[78.27,-68.62],[77.65,-68.72],[77.56,-68.96],[76.93,-69.05],[76.83,-69.3],[76.19,-69.38],[76.08,-69.63],[75.42,-69.71],[73.71,-69.46],[72.25,-69.84],[72.1,-70.08],[71.43,-70.14],[71.26,-70.38],[71.79,-70.56],[71.62,-70.79],[70.93,-70.86],[70.75,-71.09],[71.29,-71.27],[71.11,-71.51],[69.47,-71.86],[69.27,-72.09],[68.52,-72.14],[67.99,-71.96],[68.21,-71.73],[68.94,-71.68],[69.14,-71.44],[68.62,-71.26],[68.82,-71.03],[69.52,-70.98],[69.71,-70.74],[69.2,-70.56],[69.39,-70.33],[68.9,-70.15],[69.08,-69.91],[70.58,-69.56],[70.75,-69.32],[70.26,-69.14],[70.43,-68.9],[69.96,-68.73],[70.12,-68.49],[69.66,-68.31],[69.82,-68.07],[70.44,-68.01],[70.59,-67.77],[69.1,-67.48],[67.71,-67.83],[64.27,-67.23],[62.86,-67.54],[61.52,-67.18],[60.1,-67.46],[59.76,-67.26],[58.25,-67.11],[57.92,-66.91],[58.18,-66.69],[57.86,-66.49],[56.43,-66.32],[54.47,-65.74],[53.93,-65.74],[53.65,-65.95],[52.31,-65.75],[50.36,-66.35],[48.11,-66.7],[47.79,-66.9],[48.01,-67.11],[48.56,-67.13],[48.79,-67.34],[48.47,-67.53],[46.37,-67.05],[46.03,-67.24],[46.24,-67.45],[45.86,-67.61],[43.32,-67.73],[42.91,-67.88],[43.09,-68.1],[42.67,-68.25],[41.04,-68.25],[40.6,-68.4],[40.76,-68.63],[40.31,-68.77],[39.23,-68.84],[39.38,-69.07],[38.91,-69.21],[39.06,-69.44],[38.57,-69.58],[35.67,-69.59],[35.56,-69.36],[34.23,-68.93],[34.14,-68.7],[32.44,-68.62],[31.92,-68.75],[31.98,-68.98],[32.58,-69.09],[32.66,-69.32],[32.12,-69.45],[32.19,-69.69],[32.82,-69.79],[32.9,-70.03],[29.94,-70.18],[28.66,-69.71],[28.08,-69.82],[28.11,-70.06],[28.72,-70.18],[28.76,-70.42],[28.15,-70.54],[27.53,-70.42],[27.51,-70.18],[25.68,-70.03],[25.07,-70.14],[25.06,-70.38],[26.91,-70.53],[26.92,-70.77],[26.3,-70.88],[25.03,-70.86],[23.82,-70.34],[21.94,-70.4],[21.35,-70.25],[19.97,-70.68],[19.38,-70.53],[19.47,-70.28],[18.9,-70.13],[17.46,-70.54],[16.89,-70.37],[17.01,-70.13],[16.46,-69.97],[16.58,-69.73],[16.04,-69.57],[15.39,-69.64],[15.25,-69.88],[15.79,-70.05],[15.66,-70.29],[13.74,-70.25],[13.22,-70.08],[13.38,-69.84],[12.86,-69.67],[12.18,-69.73],[12.01,-69.97],[12.53,-70.14],[12.35,-70.38],[11.65,-70.44],[11.13,-70.26],[11.32,-70.03],[10.81,-69.84],[10.12,-69.9],[9.92,-70.13],[8.02,-70.04],[7.79,-70.27],[7.07,-70.32],[5.41,-69.96],[3.7,-70.25],[3.25,-70.05],[1.38,-69.89],[0.01,-70.35],[0.43,-70.56],[2.23,-70.3],[2.67,-70.51],[2.37,-70.73],[0.53,-71.0],[0.19,-71.22],[-1.78,-71.02],[-2.19,-70.81],[-1.83,-70.59],[-2.22,-70.37],[-1.87,-70.15],[-2.26,-69.94],[-2.99,-69.94],[-4.47,-70.37],[-4.1,-70.59],[-4.48,-70.8],[-4.1,-71.02],[-4.5,-71.24],[-5.28,-71.23],[-5.66,-71.01],[-5.25,-70.79],[-5.61,-70.57],[-5.22,-70.36],[-5.57,-70.13],[-6.32,-70.12],[-6.72,-70.33],[-6.37,-70.56],[-6.78,-70.77],[-8.64,-70.5],[-10.3,-70.88],[-12.31,-71.01],[-12.8,-71.21],[-12.51,-71.45],[-13.02,-71.65],[-12.72,-71.89],[-13.24,-72.08],[-12.95,-72.32],[-14.87,-72.67],[-14.58,-72.91],[-15.16,-73.1],[-17.47,-73.18],[-18.09,-73.37],[-17.84,-73.62],[-16.95,-73.68],[-16.68,-73.92],[-18.88,-74.23],[-18.62,-74.48],[-19.3,-74.66],[-19.05,-74.91],[-21.44,-75.2],[-21.21,-75.45],[-23.73,-75.71],[-26.49,-75.69],[-27.32,-75.85],[-27.19,-76.1],[-29.92,-76.3],[-29.83,-76.56],[-30.75,-76.7],[-31.75,-76.59],[-32.69,-76.73],[-32.65,-76.98],[-33.64,-77.12],[-34.64,-76.99],[-35.64,-77.12],[-36.62,-76.98],[-36.58,-76.73],[-35.6,-76.6],[-35.58,-76.34],[-36.51,-76.21],[-36.48,-75.95],[-37.38,-75.82],[-37.33,-75.56],[-36.42,-75.44],[-36.39,-75.18],[-37.24,-75.04],[-37.2,-74.79],[-36.33,-74.66],[-36.31,-74.41],[-37.12,-74.27],[-37.08,-74.01],[-37.86,-73.87],[-37.81,-73.62],[-38.57,-73.47],[-38.52,-73.22],[-39.25,-73.07],[-39.19,-72.82],[-38.4,-72.7],[-38.35,-72.45],[-39.06,-72.3],[-39.0,-72.05],[-39.68,-71.9],[-39.61,-71.65],[-40.28,-71.5],[-40.2,-71.24],[-40.85,-71.09],[-40.77,-70.84],[-40.06,-70.73],[-39.99,-70.48],[-40.61,-70.33],[-40.54,-70.07],[-39.86,-69.97],[-39.79,-69.71],[-40.39,-69.56],[-40.32,-69.31],[-40.91,-69.16],[-40.84,-68.91],[-40.19,-68.8],[-40.12,-68.55],[-40.69,-68.4],[-40.62,-68.15],[-41.18,-68.0],[-41.1,-67.75],[-41.64,-67.6],[-41.57,-67.35],[-42.09,-67.19],[-42.01,-66.94],[-42.53,-66.79],[-42.45,-66.54],[-42.95,-66.39],[-42.86,-66.14],[-43.36,-65.98],[-43.27,-65.74],[-43.75,-65.58],[-43.65,-65.33],[-43.09,-65.24],[-43.01,-64.99],[-43.48,-64.84],[-43.39,-64.59],[-42.84,-64.5],[-42.76,-64.25],[-43.22,-64.1],[-43.14,-63.85],[-42.61,-63.76],[-42.53,-63.51],[-42.98,-63.36],[-42.9,-63.12],[-42.39,-63.02],[-42.31,-62.78],[-42.75,-62.63],[-42.68,-62.39],[-43.1,-62.24],[-43.03,-62.0],[-42.53,-61.9],[-42.46,-61.66],[-42.88,-61.51],[-42.81,-61.27],[-44.1,-61.06],[-44.02,-60.82],[-44.42,-60.67],[-44.33,-60.43],[-44.72,-60.28],[-45.19,-60.37],[-45.58,-60.22],[-45.48,-59.98],[-45.86,-59.83],[-46.33,-59.91],[-47.53,-59.67],[-47.42,-59.44],[-45.86,-58.73],[-45.78,-58.5],[-46.13,-58.35],[-46.04,-58.12],[-45.6,-58.04],[-45.52,-57.8],[-45.87,-57.65],[-45.78,-57.42],[-45.35,-57.34],[-45.27,-57.11],[-45.62,-56.96],[-45.53,-56.74],[-45.12,-56.65],[-45.04,-56.43],[-45.37,-56.28],[-44.81,-55.74],[-45.39,-55.23],[-45.32,-55.01],[-45.88,-54.5],[-45.8,-54.27],[-46.5,-54.21],[-47.02,-53.7],[-49.06,-53.47],[-49.44,-53.53],[-49.54,-53.75],[-50.61,-53.72],[-50.72,-53.94],[-51.11,-54.0],[-51.39,-53.85],[-52.29,-54.18],[-52.97,-54.07],[-53.62,-54.56],[-54.7,-54.49],[-55.94,-55.23],[-57.03,-55.14],[-57.76,-55.6],[-58.77,-55.89],[-58.94,-56.1],[-58.68,-56.28],[-58.85,-56.49],[-59.9,-56.76],[-60.08,-56.98],[-59.82,-57.16],[-60.01,-57.37],[-59.75,-57.55],[-59.93,-57.76],[-59.67,-57.95],[-59.86,-58.16],[-59.59,-58.34],[-60.44,-58.8],[-60.17,-58.99],[-60.36,-59.2],[-60.84,-59.23],[-61.04,-59.45],[-60.77,-59.64],[-60.98,-59.85],[-61.46,-59.88],[-61.68,-60.09],[-61.4,-60.28],[-61.62,-60.5],[-62.11,-60.52],[-62.34,-60.74],[-62.06,-60.93],[-62.29,-61.15],[-63.54,-61.4],[-63.78,-61.61],[-63.51,-61.81],[-63.76,-62.03],[-63.48,-62.23],[-64.52,-62.67],[-64.24,-62.87],[-64.5,-63.09],[-64.22,-63.29],[-64.48,-63.5],[-64.19,-63.71],[-64.46,-63.92],[-64.17,-64.13],[-65.3,-64.57],[-65.01,-64.78],[-65.3,-64.99],[-65.88,-65.0],[-66.18,-65.22],[-65.89,-65.43],[-66.19,-65.64],[-67.71,-65.86],[-68.04,-66.07],[-67.75,-66.28],[-68.08,-66.49],[-68.7,-66.49],[-69.05,-66.7],[-68.76,-66.91],[-70.11,-67.32],[-69.83,-67.54],[-70.2,-67.75],[-68.95,-68.2],[-69.33,-68.41],[-69.02,-68.63],[-69.4,-68.84],[-70.09,-68.83],[-70.39,-68.61],[-72.15,-68.78],[-72.56,-68.98],[-72.28,-69.2],[-72.7,-69.41],[-73.4,-69.38],[-73.84,-69.58],[-75.48,-69.29],[-75.94,-69.48],[-75.69,-69.71],[-77.34,-70.06],[-77.11,-70.29],[-77.6,-70.48],[-79.55,-70.57],[-80.06,-70.75],[-79.86,-70.99],[-80.39,-71.17],[-81.13,-71.11],[-81.67,-71.29],[-81.49,-71.53],[-82.05,-71.71],[-81.86,-71.95],[-82.44,-72.12],[-82.25,-72.36],[-82.85,-72.54],[-82.66,-72.78],[-83.28,-72.95],[-84.07,-72.88],[-86.14,-73.14],[-86.93,-73.05],[-87.06,-72.81],[-88.68,-72.39],[-92.13,-72.65],[-92.85,-72.55],[-92.89,-72.3],[-94.96,-72.22],[-94.97,-71.98],[-96.29,-71.51],[-98.27,-71.64],[-101.5,-71.49],[-102.98,-71.94],[-103.08,-72.18],[-102.46,-72.32],[-102.56,-72.56],[-103.29,-72.66],[-103.4,-72.9],[-105.54,-72.95],[-105.69,-73.19],[-103.64,-73.38],[-103.76,-73.62],[-103.09,-73.76],[-103.21,-74.0],[-104.01,-74.1],[-104.15,-74.34],[-103.45,-74.48],[-103.58,-74.73],[-105.44,-75.16],[-108.58,-75.03],[-109.24,-74.87],[-109.03,-74.63],[-109.66,-74.47],[-109.45,-74.24],[-110.06,-74.08],[-112.33,-74.06],[-115.65,-73.67],[-117.62,-73.99],[-118.12,-73.81],[-121.55,-73.56],[-121.99,-73.38],[-124.0,-73.64],[-124.41,-73.45],[-127.58,-73.1],[-128.01,-73.3],[-127.65,-73.5],[-128.1,-73.7],[-127.73,-73.89],[-123.1,-74.41],[-122.64,-74.6],[-123.06,-74.81],[-125.27,-74.66],[-126.96,-74.28],[-130.5,-74.68],[-130.85,-74.48],[-130.35,-74.29],[-130.69,-74.09],[-131.52,-74.08],[-133.4,-74.45],[-133.09,-74.65],[-133.64,-74.84],[-135.64,-74.59],[-137.66,-74.92],[-139.99,-75.01],[-140.63,-75.18],[-140.42,-75.39],[-141.08,-75.56],[-143.0,-75.25],[-146.07,-75.44],[-146.8,-75.59],[-146.68,-75.81],[-147.43,-75.95],[-149.05,-76.03],[-148.97,-76.24],[-149.77,-76.38],[-149.7,-76.6],[-152.25,-76.79],[-152.23,-77.01],[-153.1,-77.14],[-154.85,-76.73],[-159.21,-76.87],[-159.31,-77.09],[-158.47,-77.2],[-158.55,-77.42],[-159.51,-77.53],[-159.62,-77.75],[-158.74,-77.86],[-158.83,-78.08],[-157.91,-78.19],[-157.99,-78.42],[-157.03,-78.52],[-157.1,-78.75],[-156.1,-78.85],[-156.15,-79.08],[-155.1,-79.18],[-155.13,-79.41],[-156.25,-79.53],[-156.31,-79.76],[-158.57,-79.76],[-158.47,-79.54],[-159.5,-79.42],[-159.38,-79.2],[-160.37,-79.08],[-160.24,-78.86],[-161.19,-78.74],[-161.04,-78.51],[-161.95,-78.39],[-164.32,-78.8],[-164.55,-79.02],[-165.71,-79.11],[-165.97,-79.32],[-165.03,-79.46],[-165.28,-79.68],[-164.3,-79.82],[-164.54,-80.04],[-154.05,-80.2],[-152.88,-80.07],[-152.9,-79.84],[-154.04,-79.74],[-154.04,-79.51],[-152.94,-79.38],[-150.62,-79.8],[-150.54,-80.02],[-151.68,-80.16],[-151.63,-80.39],[-152.83,-80.53],[-152.8,-80.76],[-154.07,-80.89],[-157.86,-80.79],[-160.74,-81.24],[-164.54,-81.07],[-165.98,-81.16],[-166.31,-81.38],[-165.14,-81.52],[-165.46,-81.75],[-164.22,-81.89],[-159.82,-81.82],[-158.46,-81.94],[-158.61,-82.17],[-157.16,-82.29],[-154.12,-82.28],[-154.13,-82.51],[-155.73,-82.64],[-155.79,-82.87],[-157.51,-82.99],[-162.37,-82.85],[-166.43,-83.26],[-167.88,-83.11],[-167.41,-82.88],[-168.76,-82.73],[-170.59,-82.8],[-171.85,-82.64],[-176.24,-82.96],[-177.01,-83.17],[-172.41,-83.47],[-173.11,-83.69],[-167.92,-83.94],[-168.5,-84.17],[-166.79,-84.33],[-167.36,-84.56],[-169.81,-84.63],[-171.53,-84.47],[-170.8,-84.24],[-172.37,-84.08],[-177.95,-84.39],[-179.34,-84.21],[-178.35,-84.0],[-180.0,-83.82],[-180.0,-90.0],[180.0,-90.0],[180.0,-83.82]],[[-8.75,-70.94],[-7.98,-70.96],[-7.64,-71.19],[-8.08,-71.4],[-8.87,-71.38],[-9.2,-71.14],[-8.75,-70.94]]],[[[52.38,12.27],[52.09,12.43],[51.97,12.25],[52.34,11.9],[52.66,12.1],[52.38,12.27]]],[[[-180.0,-9.67],[-179.82,-9.26],[-180.0,-9.03],[-180.0,-9.67]]],[[[180.0,-9.03],[179.77,-9.17],[179.68,-9.73],[180.0,-9.67],[180.0,-9.03]]],[[[-136.55,-21.57],[-136.41,-22.2],[-136.16,-22.2],[-136.05,-21.58],[-136.81,-21.15],[-136.93,-21.35],[-136.8,-21.56],[-136.55,-21.57]]],[[[69.15,-48.4],[68.58,-48.32],[68.63,-48.92],[68.29,-48.99],[68.19,-49.22],[68.58,-49.75],[68.49,-49.98],[69.08,-50.06],[69.18,-49.83],[69.53,-49.76],[70.38,-49.98],[70.73,-49.9],[70.82,-49.67],[70.56,-49.52],[71.07,-48.98],[69.3,-48.77],[69.06,-48.62],[69.15,-48.4]]],[[[-114.91,18.34],[-114.66,18.25],[-114.45,18.41],[-114.5,18.66],[-114.75,18.75],[-114.96,18.59],[-114.91,18.34]]],[[[-139.19,-19.18],[-139.44,-19.17],[-139.56,-19.37],[-139.44,-19.59],[-139.19,-19.6],[-139.06,-19.4],[-138.44,-19.63],[-138.32,-19.43],[-138.69,-19.21],[-138.81,-18.99],[-138.69,-18.79],[-139.18,-18.35],[-139.43,-18.34],[-139.56,-18.54],[-139.06,-18.98],[-139.19,-19.18]]],[[[-80.54,-33.63],[-80.79,-33.54],[-81.03,-33.67],[-81.0,-33.89],[-80.51,-33.85],[-80.54,-33.63]]],[[[157.32,-4.75],[156.93,-4.69],[156.89,-4.93],[157.06,-5.08],[157.32,-4.75]]],[[[163.99,-67.4],[164.1,-67.63],[165.02,-67.56],[164.9,-67.33],[164.38,-67.25],[163.99,-67.4]]],[[[141.39,24.17],[141.59,24.02],[141.84,24.1],[141.89,24.32],[141.22,25.58],[140.97,25.51],[140.92,25.29],[141.28,24.77],[141.39,24.17]]],[[[-124.96,-24.49],[-125.04,-24.7],[-124.88,-24.86],[-124.63,-24.8],[-124.55,-24.59],[-124.96,-24.49]]],[[[-130.37,-25.44],[-130.13,-25.43],[-130.16,-25.02],[-130.5,-25.24],[-130.37,-25.44]]],[[[-26.86,-56.96],[-26.8,-57.19],[-26.38,-57.28],[-26.03,-57.14],[-26.09,-56.91],[-26.51,-56.82],[-27.04,-56.27],[-27.79,-56.32],[-27.28,-56.87],[-26.86,-56.96]]],[[[-25.83,-57.84],[-25.89,-57.61],[-26.68,-57.66],[-26.62,-57.89],[-26.19,-57.98],[-25.83,-57.84]]],[[[23.42,76.75],[23.47,76.54],[25.2,76.08],[26.86,76.48],[26.87,76.7],[23.42,76.75]]],[[[-24.53,16.23],[-23.87,16.4],[-24.14,16.97],[-24.82,17.03],[-24.84,17.27],[-25.08,17.36],[-25.73,17.19],[-25.45,16.63],[-25.01,16.66],[-24.53,16.23]]],[[[44.53,80.94],[43.07,80.91],[42.64,80.68],[43.61,80.5],[45.01,80.53],[45.93,80.34],[45.45,80.12],[46.32,79.93],[51.84,79.57],[54.41,79.99],[55.77,79.98],[56.43,79.76],[59.66,79.49],[60.41,79.69],[59.84,79.91],[62.85,80.26],[62.31,80.49],[63.2,80.68],[67.08,80.76],[68.1,80.94],[67.65,81.17],[64.0,81.52],[63.4,81.75],[59.34,82.04],[58.4,81.84],[54.22,81.67],[53.45,81.46],[54.28,81.24],[53.54,81.04],[52.02,81.04],[51.16,81.24],[51.86,81.46],[50.95,81.66],[49.32,81.65],[48.68,81.43],[49.61,81.23],[49.0,81.02],[45.5,80.75],[44.53,80.94]]],[[[-26.74,-58.97],[-27.45,-59.5],[-27.39,-59.73],[-26.93,-59.83],[-26.54,-59.68],[-26.61,-59.45],[-26.22,-59.3],[-26.29,-59.07],[-26.74,-58.97]]],[[[147.79,-1.97],[147.56,-2.06],[147.37,-1.9],[147.41,-1.65],[147.23,-1.49],[146.71,-1.92],[146.52,-1.76],[146.28,-1.85],[146.24,-2.1],[146.43,-2.26],[146.1,-2.84],[146.29,-3.0],[146.81,-2.57],[147.42,-2.8],[147.66,-2.72],[147.7,-2.47],[148.36,-2.45],[148.41,-2.2],[148.22,-2.05],[147.98,-2.13],[147.79,-1.97]]],[[[105.24,-10.24],[105.21,-10.46],[105.58,-10.92],[106.04,-10.49],[106.06,-10.27],[105.87,-10.15],[105.24,-10.24]]],[[[-171.04,57.47],[-170.91,57.26],[-171.2,57.09],[-171.07,56.89],[-169.66,57.16],[-170.32,57.6],[-171.04,57.47]]],[[[94.6,13.62],[94.38,13.76],[94.14,13.65],[94.12,13.4],[94.34,13.25],[94.58,13.36],[94.6,13.62]]],[[[153.91,24.47],[153.66,24.41],[153.61,24.17],[153.8,24.0],[154.05,24.07],[154.11,24.3],[153.91,24.47]]],[[[71.09,-6.77],[71.28,-6.91],[71.77,-6.5],[71.8,-6.27],[71.45,-5.76],[70.96,-6.16],[71.09,-6.77]]],[[[44.67,-12.18],[44.75,-11.94],[44.59,-11.75],[44.03,-12.08],[43.46,-11.75],[43.54,-11.52],[43.37,-11.33],[43.13,-11.38],[43.22,-12.46],[43.38,-12.65],[43.63,-12.6],[43.79,-12.79],[44.35,-12.46],[44.52,-12.65],[44.76,-12.6],[45.01,-13.21],[45.25,-13.16],[45.64,-12.64],[44.67,-12.18]]],[[[-158.9,4.02],[-159.0,4.25],[-159.25,4.29],[-159.8,3.92],[-159.34,3.43],[-159.1,3.4],[-158.9,4.02]]],[[[54.99,-4.81],[55.53,-5.01],[56.03,-4.63],[55.71,-3.58],[55.12,-3.6],[55.22,-3.95],[55.6,-4.01],[55.54,-4.22],[54.95,-4.24],[54.99,-4.81]]],[[[153.58,48.1],[153.65,48.34],[153.38,48.49],[153.04,48.4],[152.97,48.16],[152.63,48.08],[152.56,47.84],[151.43,47.09],[151.37,46.85],[152.22,46.65],[152.55,46.73],[153.02,47.3],[153.36,47.39],[153.24,48.01],[153.58,48.1]]],[[[-171.83,63.8],[-172.36,63.84],[-172.72,63.65],[-172.55,63.43],[-172.02,63.4],[-171.85,63.18],[-170.45,63.28],[-170.3,63.06],[-170.66,62.88],[-170.5,62.66],[-169.13,62.75],[-168.76,62.92],[-168.9,63.15],[-168.53,63.32],[-168.66,63.54],[-169.86,63.86],[-170.01,64.08],[-171.46,63.99],[-171.83,63.8]]],[[[146.28,17.37],[145.93,17.93],[145.98,18.17],[145.78,18.33],[145.53,18.26],[145.79,17.22],[145.99,17.06],[146.23,17.13],[146.28,17.37]]],[[[144.99,-1.63],[145.23,-1.54],[145.28,-1.29],[144.65,-1.06],[144.7,-0.81],[144.51,-0.64],[144.27,-0.73],[143.65,-1.66],[143.85,-1.82],[144.37,-1.39],[144.99,-1.63]]],[[[47.42,-11.17],[47.19,-11.22],[47.12,-11.46],[47.28,-11.64],[47.51,-11.59],[47.42,-11.17]]],[[[-144.59,-27.74],[-144.46,-27.96],[-144.18,-27.98],[-144.03,-27.76],[-144.16,-27.54],[-144.44,-27.53],[-144.59,-27.74]]],[[[137.1,74.26],[136.97,74.51],[136.07,74.61],[135.32,74.45],[135.48,74.19],[134.76,74.03],[134.92,73.77],[135.78,73.68],[136.5,73.85],[136.36,74.1],[137.1,74.26]]],[[[180.0,71.66],[178.26,71.46],[177.85,71.24],[178.22,71.02],[177.81,70.81],[178.17,70.59],[180.0,70.79],[180.0,71.66]]],[[[-180.0,70.79],[-179.57,70.56],[-177.63,70.73],[-177.18,70.94],[-177.49,71.17],[-177.03,71.37],[-178.46,71.85],[-179.27,71.87],[-180.0,71.66],[-180.0,70.79]]],[[[54.25,13.06],[54.13,12.87],[53.65,13.04],[53.34,12.85],[53.3,12.49],[52.86,12.11],[52.94,11.93],[53.26,12.13],[53.73,11.97],[54.16,12.34],[54.63,12.18],[54.71,12.89],[54.25,13.06]]],[[[-42.43,-53.74],[-42.1,-53.88],[-41.73,-53.79],[-41.68,-53.57],[-42.38,-53.52],[-42.43,-53.74]]],[[[5.69,-1.25],[5.58,-1.07],[5.27,-1.31],[5.92,-1.61],[6.02,-1.4],[5.69,-1.25]]],[[[-160.73,-10.1],[-160.82,-9.88],[-161.22,-10.02],[-161.22,-10.64],[-160.97,-10.67],[-160.73,-10.1]]],[[[166.25,-50.23],[166.26,-50.47],[165.28,-50.63],[165.28,-50.86],[165.62,-50.97],[165.63,-51.2],[166.29,-51.17],[166.28,-50.94],[166.91,-50.43],[166.9,-50.2],[166.57,-50.1],[166.25,-50.23]]],[[[180.0,52.34],[179.05,52.14],[178.83,52.34],[178.44,52.33],[178.26,52.13],[177.87,52.12],[177.64,52.32],[177.25,52.31],[177.08,52.1],[177.3,51.9],[177.13,51.69],[177.36,51.5],[178.31,51.72],[178.53,51.52],[179.52,51.33],[180.0,51.53],[180.0,52.34]]],[[[-180.0,51.53],[-179.74,51.74],[-179.95,51.94],[-179.77,52.14],[-179.99,52.35],[-180.0,51.53]]],[[[-138.43,-20.89],[-138.31,-20.68],[-138.69,-20.46],[-138.81,-21.08],[-138.68,-21.3],[-138.43,-21.31],[-138.31,-21.1],[-138.43,-20.89]]],[[[-171.16,-11.12],[-171.1,-11.34],[-170.87,-11.39],[-170.7,-11.22],[-171.05,-10.74],[-171.45,-10.86],[-171.39,-11.08],[-171.16,-11.12]]],[[[48.43,68.72],[48.69,68.53],[50.28,68.72],[50.65,68.91],[50.4,69.1],[50.78,69.29],[49.62,69.67],[48.07,69.85],[47.71,69.66],[47.98,69.47],[47.62,69.28],[47.9,69.1],[47.54,68.91],[47.81,68.72],[48.43,68.72]]],[[[7.73,1.77],[7.4,1.91],[7.08,1.67],[7.75,1.39],[7.73,1.77]]],[[[163.65,-66.72],[163.15,-66.64],[162.45,-66.1],[161.57,-66.14],[161.66,-66.37],[162.75,-66.78],[162.85,-67.01],[163.36,-67.09],[163.76,-66.95],[163.65,-66.72]]],[[[56.98,-20.28],[56.91,-20.52],[57.1,-20.69],[57.35,-20.62],[57.54,-20.79],[57.79,-20.71],[58.16,-20.15],[57.84,-19.57],[56.98,-20.28]]],[[[-80.09,-26.43],[-80.06,-26.67],[-79.59,-26.62],[-79.88,-26.06],[-80.13,-25.96],[-80.36,-26.1],[-80.34,-26.33],[-80.09,-26.43]]],[[[176.76,-1.46],[176.4,-1.05],[175.87,-1.31],[175.96,-1.49],[176.41,-1.4],[176.68,-1.62],[176.76,-1.46]]],[[[93.93,78.47],[92.78,78.38],[92.6,78.13],[93.53,77.97],[94.65,78.06],[94.87,78.31],[93.93,78.47]]],[[[154.13,-4.51],[154.3,-4.66],[154.57,-4.33],[154.39,-4.18],[154.17,-4.27],[154.13,-4.51]]],[[[159.73,-4.4],[159.36,-4.34],[159.31,-4.58],[159.48,-4.72],[159.73,-4.4]]],[[[63.88,-19.68],[63.23,-19.44],[62.97,-19.53],[62.92,-19.77],[63.58,-20.02],[63.83,-19.93],[63.88,-19.68]]],[[[-160.74,4.47],[-160.5,4.44],[-160.35,4.64],[-160.45,4.87],[-160.7,4.9],[-160.85,4.7],[-160.74,4.47]]],[[[-140.43,-9.65],[-139.5,-9.35],[-139.39,-8.6],[-140.0,-8.73],[-140.31,-8.51],[-140.53,-9.06],[-140.43,-9.65]]],[[[-177.95,-28.98],[-178.15,-29.15],[-178.1,-29.39],[-177.84,-29.46],[-177.64,-29.3],[-177.69,-29.06],[-177.95,-28.98]]],[[[-22.91,15.31],[-23.38,15.74],[-23.82,15.71],[-24.22,15.21],[-24.88,15.28],[-25.09,15.14],[-25.07,14.91],[-24.59,14.49],[-23.29,14.59],[-22.89,15.08],[-22.91,15.31]]],[[[-18.57,-72.87],[-17.72,-72.94],[-15.71,-72.62],[-15.98,-72.37],[-18.2,-72.44],[-18.8,-72.63],[-18.57,-72.87]]],[[[167.56,54.31],[168.64,54.22],[168.79,54.43],[168.53,54.61],[168.67,54.82],[168.41,55.0],[166.61,55.22],[166.34,55.39],[166.48,55.6],[166.21,55.77],[165.23,55.46],[165.09,55.24],[165.78,55.12],[166.06,54.96],[165.92,54.74],[166.2,54.57],[167.29,54.49],[167.56,54.31]]],[[[177.19,-5.95],[177.4,-6.18],[177.56,-6.03],[177.53,-5.84],[177.19,-5.95]]],[[[77.02,79.96],[75.73,80.06],[74.65,79.9],[74.89,79.66],[77.53,79.22],[78.58,79.36],[78.44,79.61],[77.2,79.71],[77.02,79.96]]],[[[169.78,11.32],[170.17,11.19],[170.26,11.39],[170.11,11.56],[169.78,11.32]]],[[[3.07,-54.3],[2.87,-54.5],[3.06,-54.69],[3.47,-54.68],[3.67,-54.48],[3.48,-54.29],[3.07,-54.3]]],[[[173.24,0.3],[173.91,0.08],[174.29,0.44],[173.83,0.68],[173.24,0.3]]],[[[56.04,-21.23],[55.73,-20.64],[55.06,-20.62],[55.23,-21.68],[55.41,-21.85],[55.66,-21.78],[56.04,-21.23]]],[[[-78.8,-33.8],[-78.57,-33.67],[-78.59,-33.45],[-78.85,-33.37],[-79.08,-33.5],[-79.05,-33.71],[-78.8,-33.8]]],[[[77.61,-37.37],[77.33,-37.47],[77.3,-37.72],[77.56,-37.85],[77.53,-38.09],[77.79,-38.23],[78.07,-38.12],[78.1,-37.88],[77.61,-37.37]]],[[[-138.33,-17.37],[-138.69,-17.14],[-138.81,-17.34],[-138.69,-17.55],[-138.45,-17.56],[-138.33,-17.37]]],[[[-26.43,-58.59],[-25.98,-58.69],[-25.61,-58.54],[-25.69,-58.31],[-27.3,-58.41],[-27.24,-58.64],[-26.8,-58.74],[-26.43,-58.59]]],[[[-157.05,1.41],[-156.9,1.6],[-157.0,1.83],[-157.6,2.13],[-157.75,1.93],[-157.65,1.7],[-157.05,1.41]]],[[[79.16,80.5],[80.48,80.39],[81.71,80.52],[81.63,80.77],[80.26,80.89],[80.15,81.14],[78.71,81.25],[77.43,81.1],[77.63,80.85],[79.01,80.75],[79.16,80.5]]],[[[-157.67,-9.13],[-157.52,-8.96],[-157.61,-8.74],[-158.4,-9.03],[-158.07,-9.28],[-157.67,-9.13]]],[[[97.24,-12.39],[97.08,-11.83],[96.87,-11.7],[96.41,-12.12],[96.6,-12.46],[97.24,-12.39]]],[[[175.44,-2.09],[175.88,-2.0],[175.88,-1.65],[175.44,-1.75],[175.44,-2.09]]],[[[51.49,-10.3],[51.4,-9.89],[51.18,-9.94],[50.83,-10.44],[50.98,-10.62],[51.49,-10.3]]],[[[-174.57,-4.41],[-174.68,-4.77],[-174.47,-4.8],[-174.31,-4.65],[-174.57,-4.41]]],[[[-172.64,-8.81],[-172.47,-8.65],[-172.75,-8.39],[-172.86,-8.77],[-172.64,-8.81]]],[[[144.62,20.63],[144.58,20.39],[145.02,20.31],[145.07,20.54],[144.87,20.7],[144.62,20.63]]],[[[-157.86,-21.74],[-158.13,-21.7],[-158.3,-21.9],[-158.21,-22.14],[-157.93,-22.18],[-157.76,-21.98],[-157.86,-21.74]]],[[[53.67,-6.07],[53.95,-5.77],[53.58,-5.67],[53.34,-5.1],[53.14,-5.14],[53.17,-5.76],[53.67,-6.07]]],[[[-35.04,-55.01],[-34.67,-55.13],[-34.3,-55.01],[-34.31,-54.78],[-35.03,-54.79],[-35.04,-55.01]]],[[[-172.08,-9.32],[-171.8,-9.58],[-171.58,-8.82],[-171.97,-8.94],[-172.08,-9.32]]],[[[84.33,76.29],[83.43,76.41],[80.79,76.28],[80.85,76.03],[81.74,75.92],[81.79,75.67],[80.98,75.54],[81.04,75.3],[82.74,74.81],[83.53,74.93],[83.52,75.18],[82.68,75.3],[82.65,75.55],[83.49,75.67],[83.47,75.92],[84.33,76.04],[84.33,76.29]]],[[[153.09,76.61],[152.07,76.51],[151.95,76.26],[152.81,76.1],[153.81,76.2],[153.97,76.46],[153.09,76.61]]],[[[33.01,80.04],[35.32,79.96],[35.55,80.19],[34.47,80.34],[34.68,80.57],[33.55,80.73],[30.79,80.34],[30.68,80.11],[33.01,80.04]]],[[[-165.7,-11.54],[-165.63,-11.76],[-165.39,-11.8],[-165.22,-11.62],[-165.3,-11.4],[-165.7,-11.54]]],[[[-138.81,-21.92],[-138.68,-21.72],[-138.81,-21.5],[-139.07,-21.49],[-139.19,-21.7],[-139.07,-22.34],[-138.43,-22.57],[-138.3,-22.36],[-138.81,-21.92]]],[[[110.26,-5.87],[110.45,-6.0],[110.69,-5.66],[109.88,-5.62],[109.86,-5.85],[110.26,-5.87]]],[[[77.99,74.76],[78.09,74.52],[78.91,74.41],[79.64,74.55],[79.56,74.79],[78.73,74.9],[77.99,74.76]]],[[[89.96,76.95],[90.95,77.04],[91.08,77.29],[90.18,77.44],[89.16,77.34],[88.23,77.49],[87.22,77.38],[87.17,77.13],[89.96,76.95]]],[[[-159.76,-21.45],[-159.49,-21.49],[-159.31,-21.3],[-159.4,-21.06],[-160.12,-21.17],[-160.3,-21.36],[-160.2,-21.6],[-159.93,-21.65],[-159.76,-21.45]]],[[[-12.66,-37.62],[-12.45,-37.43],[-12.13,-37.47],[-11.92,-37.27],[-12.04,-37.03],[-12.35,-36.99],[-13.09,-37.34],[-12.98,-37.58],[-12.66,-37.62]]],[[[-170.01,56.41],[-169.32,56.54],[-169.43,56.75],[-169.84,56.78],[-170.13,56.62],[-170.01,56.41]]],[[[142.5,-1.85],[142.7,-2.01],[142.94,-1.92],[143.26,-1.33],[143.07,-1.17],[142.83,-1.26],[142.5,-1.85]]],[[[179.09,-49.49],[178.23,-49.74],[178.29,-49.96],[179.2,-49.93],[179.46,-49.77],[179.41,-49.55],[179.09,-49.49]]],[[[145.37,19.75],[145.33,19.52],[145.77,19.43],[145.66,20.06],[145.22,20.15],[145.17,19.92],[145.37,19.75]]],[[[74.04,-52.8],[72.99,-52.82],[72.91,-53.06],[73.21,-53.21],[73.13,-53.45],[73.43,-53.61],[73.81,-53.52],[73.89,-53.28],[74.26,-53.19],[74.34,-52.95],[74.04,-52.8]]],[[[72.1,-7.25],[72.46,-7.77],[72.69,-7.68],[72.56,-7.07],[72.13,-7.02],[72.1,-7.25]]],[[[71.71,-5.44],[72.32,-5.63],[72.58,-5.32],[71.55,-5.07],[71.29,-5.39],[71.71,-5.44]]],[[[73.61,-0.72],[73.45,-0.38],[73.67,-0.3],[73.88,0.25],[73.32,1.1],[72.73,0.35],[72.89,0.01],[73.29,-0.04],[72.77,-0.84],[73.36,-1.02],[73.61,-0.72]]],[[[52.57,-46.3],[52.05,-46.16],[51.56,-46.59],[52.09,-46.73],[52.57,-46.3]]],[[[-130.5,-23.81],[-130.87,-23.62],[-130.97,-23.83],[-130.83,-24.03],[-130.6,-24.02],[-130.5,-23.81]]],[[[-154.71,-3.94],[-155.29,-3.66],[-155.44,-3.84],[-155.01,-4.31],[-154.61,-4.16],[-154.71,-3.94]]],[[[166.16,-48.09],[166.17,-48.33],[166.49,-48.43],[166.8,-48.3],[166.79,-48.06],[166.47,-47.95],[166.16,-48.09]]],[[[149.32,76.96],[148.36,77.1],[147.35,76.98],[147.31,76.73],[148.25,76.59],[148.2,76.33],[149.1,76.19],[150.08,76.3],[150.17,76.56],[149.25,76.7],[149.32,76.96]]],[[[172.31,52.89],[172.15,52.68],[172.4,52.49],[172.8,52.52],[173.68,52.16],[174.63,52.42],[174.8,52.63],[172.62,53.32],[172.22,53.29],[172.06,53.08],[172.31,52.89]]],[[[166.33,19.45],[166.5,19.27],[166.76,19.31],[166.84,19.54],[166.67,19.72],[166.41,19.68],[166.33,19.45]]],[[[140.79,26.89],[141.04,26.96],[141.09,27.18],[140.88,27.32],[140.63,27.25],[140.59,27.04],[140.79,26.89]]],[[[-135.45,-21.38],[-135.69,-21.38],[-135.81,-21.58],[-135.68,-21.79],[-135.43,-21.8],[-135.32,-21.59],[-135.45,-21.38]]],[[[159.93,-5.38],[159.81,-5.01],[159.43,-4.95],[158.93,-5.59],[159.84,-5.84],[160.09,-5.52],[159.93,-5.38]]],[[[-20.02,-73.91],[-19.36,-73.73],[-19.59,-73.49],[-20.46,-73.41],[-21.11,-73.59],[-20.9,-73.84],[-21.58,-74.02],[-22.47,-73.94],[-23.17,-74.11],[-22.98,-74.36],[-22.08,-74.44],[-21.87,-74.69],[-20.94,-74.77],[-20.23,-74.59],[-20.46,-74.34],[-19.78,-74.16],[-20.02,-73.91]]],[[[-109.33,-26.88],[-109.59,-26.97],[-109.63,-27.19],[-109.41,-27.34],[-109.16,-27.25],[-109.12,-27.03],[-109.33,-26.88]]],[[[-171.97,-4.49],[-172.07,-4.29],[-172.4,-4.42],[-172.09,-4.66],[-171.97,-4.49]]],[[[176.46,52.28],[176.62,52.49],[176.4,52.69],[176.0,52.67],[175.83,52.47],[176.06,52.27],[176.46,52.28]]],[[[169.01,14.33],[169.34,14.57],[169.18,14.75],[168.53,14.85],[168.44,14.64],[169.01,14.33]]],[[[51.0,-9.13],[50.63,-9.0],[50.56,-9.22],[50.8,-9.81],[51.31,-9.49],[51.22,-9.08],[51.0,-9.13]]],[[[-141.13,-21.83],[-141.0,-22.05],[-140.74,-22.06],[-140.22,-21.66],[-140.34,-21.44],[-140.6,-21.43],[-141.13,-21.83]]],[[[82.37,77.53],[81.42,77.4],[81.48,77.15],[82.45,77.03],[83.37,77.16],[83.35,77.41],[82.37,77.53]]],[[[-135.03,-22.84],[-135.27,-22.84],[-135.39,-23.04],[-135.26,-23.25],[-134.25,-23.67],[-134.14,-23.46],[-134.27,-23.26],[-135.03,-22.84]]],[[[-139.44,-20.85],[-139.19,-20.86],[-139.06,-20.65],[-139.19,-20.44],[-139.44,-20.43],[-139.57,-20.63],[-139.44,-20.85]]],[[[-172.26,60.54],[-173.05,60.99],[-173.53,61.02],[-173.85,60.84],[-173.05,60.39],[-174.13,60.05],[-173.97,59.84],[-173.5,59.81],[-172.42,60.14],[-171.95,60.11],[-171.64,60.29],[-171.78,60.5],[-172.26,60.54]]],[[[-150.57,-10.1],[-150.22,-10.34],[-149.83,-10.19],[-150.52,-9.7],[-150.67,-9.88],[-150.57,-10.1]]],[[[-37.83,-53.62],[-38.58,-54.04],[-38.61,-54.27],[-37.55,-54.41],[-37.57,-54.64],[-37.21,-54.76],[-36.49,-54.77],[-36.5,-55.0],[-36.14,-55.12],[-35.39,-54.67],[-35.39,-54.44],[-35.75,-54.33],[-35.74,-54.1],[-36.45,-54.09],[-36.8,-53.98],[-36.78,-53.75],[-37.83,-53.62]]],[[[-155.55,-5.65],[-155.64,-5.44],[-156.03,-5.59],[-155.69,-5.83],[-155.55,-5.65]]],[[[102.56,-5.56],[102.78,-5.46],[102.81,-5.22],[102.61,-5.09],[101.95,-5.17],[102.11,-5.77],[102.54,-5.8],[102.56,-5.56]]],[[[46.6,-8.96],[46.06,-9.28],[45.98,-9.51],[46.54,-9.84],[46.77,-9.79],[46.84,-9.56],[46.6,-8.96]]],[[[176.03,-5.34],[175.9,-5.67],[176.29,-5.94],[176.42,-5.61],[176.03,-5.34]]],[[[176.68,-2.66],[176.89,-2.87],[177.04,-2.72],[176.95,-2.53],[176.68,-2.66]]],[[[169.59,-1.22],[169.77,-1.15],[169.68,-0.79],[169.46,-1.08],[169.59,-1.22]]],[[[-140.85,-7.68],[-140.93,-8.06],[-140.39,-8.31],[-140.31,-7.93],[-140.85,-7.68]]],[[[-139.05,-14.48],[-139.05,-14.88],[-138.82,-14.9],[-138.7,-14.71],[-139.05,-14.48]]],[[[-128.33,-24.54],[-128.1,-24.53],[-128.14,-24.13],[-128.46,-24.34],[-128.33,-24.54]]],[[[145.41,-0.54],[145.37,-0.79],[145.56,-0.95],[145.8,-0.87],[145.84,-0.62],[145.65,-0.45],[145.41,-0.54]]],[[[47.16,-9.93],[47.71,-10.25],[47.94,-10.2],[48.01,-9.97],[47.77,-9.37],[47.23,-9.7],[47.16,-9.93]]],[[[-169.57,16.3],[-169.06,16.7],[-169.17,16.92],[-169.76,17.16],[-169.92,16.53],[-169.81,16.32],[-169.57,16.3]]],[[[-133.87,71.8],[-134.13,71.57],[-133.66,71.41],[-132.95,71.46],[-132.68,71.68],[-133.14,71.85],[-133.87,71.8]]],[[[54.53,-15.94],[54.77,-15.87],[54.83,-15.63],[54.66,-15.47],[54.36,-15.78],[54.53,-15.94]]],[[[-170.99,-4.47],[-171.08,-4.26],[-171.42,-4.39],[-171.1,-4.64],[-170.99,-4.47]]],[[[6.31,-0.38],[6.84,-0.11],[6.8,0.66],[6.18,0.18],[6.31,-0.38]]],[[[59.72,-16.5],[59.47,-16.58],[59.42,-16.82],[59.61,-16.98],[59.85,-16.9],[59.91,-16.66],[59.72,-16.5]]],[[[38.06,-46.87],[38.16,-46.7],[37.97,-46.58],[37.15,-47.02],[37.85,-47.22],[38.15,-47.17],[38.26,-47.0],[38.06,-46.87]]],[[[116.27,74.33],[116.77,74.54],[116.32,74.77],[115.36,74.78],[114.87,74.56],[115.33,74.33],[116.27,74.33]]],[[[178.48,-8.29],[178.64,-8.14],[178.42,-7.9],[178.29,-8.25],[178.48,-8.29]]],[[[-149.57,-23.41],[-149.29,-23.44],[-149.14,-23.23],[-149.25,-23.0],[-149.53,-22.98],[-149.69,-23.18],[-149.57,-23.41]]],[[[159.33,-54.54],[158.61,-54.53],[158.59,-54.75],[158.94,-54.87],[159.31,-54.76],[159.33,-54.54]]],[[[142.0,27.03],[142.11,26.45],[142.56,26.37],[142.45,26.95],[142.0,27.03]]],[[[161.12,-73.6],[159.83,-73.66],[159.94,-73.89],[160.65,-73.98],[161.25,-73.83],[161.12,-73.6]]],[[[-22.8,16.83],[-22.81,17.06],[-23.04,17.17],[-23.26,17.03],[-23.24,16.8],[-23.01,16.7],[-23.19,16.1],[-22.71,15.67],[-22.31,16.16],[-22.32,16.4],[-22.8,16.83]]],[[[-175.76,-44.17],[-176.2,-43.62],[-177.27,-43.72],[-176.48,-44.59],[-175.93,-44.54],[-176.0,-44.31],[-175.76,-44.17]]],[[[-109.23,10.46],[-109.44,10.31],[-109.4,10.07],[-109.16,9.98],[-108.96,10.13],[-109.0,10.37],[-109.23,10.46]]],[[[50.13,-46.51],[50.64,-46.66],[50.73,-46.46],[50.4,-45.92],[50.09,-45.94],[50.0,-46.14],[50.22,-46.31],[50.13,-46.51]]],[[[-139.39,-10.32],[-138.82,-10.18],[-138.82,-9.42],[-139.5,-9.74],[-139.39,-10.32]]],[[[172.67,1.94],[172.85,0.71],[173.19,0.6],[173.1,1.21],[173.49,1.57],[173.44,1.88],[173.74,2.08],[173.4,2.19],[173.31,2.02],[172.75,2.11],[172.67,1.94]]],[[[91.8,-65.48],[91.85,-65.74],[92.42,-65.84],[92.92,-65.7],[92.86,-65.44],[92.3,-65.34],[91.8,-65.48]]],[[[-171.24,-3.09],[-171.26,-3.47],[-170.72,-3.75],[-170.7,-3.37],[-171.24,-3.09]]],[[[56.73,-10.72],[56.79,-10.49],[56.39,-10.42],[56.33,-10.65],[56.5,-10.8],[56.73,-10.72]]],[[[52.59,-7.12],[52.8,-7.07],[52.71,-6.67],[52.44,-6.94],[52.59,-7.12]]],[[[169.09,-52.86],[169.42,-52.72],[169.39,-52.49],[168.72,-52.54],[168.74,-52.77],[169.09,-52.86]]],[[[-160.13,-0.5],[-159.89,-0.53],[-159.74,-0.34],[-159.84,-0.12],[-160.09,-0.09],[-160.23,-0.28],[-160.13,-0.5]]],[[[155.37,-4.45],[155.32,-4.69],[155.49,-4.84],[155.71,-4.75],[155.59,-4.37],[155.37,-4.45]]],[[[176.02,-2.88],[176.23,-2.4],[175.97,-2.18],[175.82,-2.67],[176.02,-2.88]]],[[[-136.62,-18.27],[-136.49,-18.88],[-136.25,-18.89],[-136.14,-18.28],[-136.5,-18.07],[-136.62,-18.27]]],[[[146.12,18.88],[145.67,18.97],[145.63,18.73],[145.83,18.57],[146.07,18.64],[146.12,18.88]]],[[[-146.95,59.42],[-146.21,59.41],[-146.15,59.62],[-146.5,59.72],[-146.9,59.62],[-146.95,59.42]]],[[[166.9,-0.37],[166.86,-0.59],[167.19,-0.65],[167.09,-0.29],[166.9,-0.37]]],[[[154.71,-3.61],[154.97,-3.29],[154.67,-2.74],[154.4,-3.07],[154.71,-3.61]]],[[[53.34,-6.55],[53.25,-6.15],[53.04,-6.19],[52.98,-6.41],[53.34,-6.55]]],[[[-165.51,-10.74],[-165.92,-10.88],[-165.85,-11.1],[-165.61,-11.14],[-165.44,-10.96],[-165.51,-10.74]]],[[[-174.19,-3.92],[-173.87,-3.79],[-173.96,-3.59],[-174.17,-3.55],[-174.19,-3.92]]],[[[176.37,-6.51],[176.53,-6.36],[176.32,-6.13],[176.19,-6.47],[176.37,-6.51]]],[[[-156.14,55.91],[-156.12,55.71],[-155.45,55.76],[-155.46,55.96],[-155.81,56.04],[-156.14,55.91]]],[[[-154.51,-21.76],[-154.79,-21.72],[-154.96,-21.92],[-154.85,-22.16],[-154.58,-22.19],[-154.41,-21.99],[-154.51,-21.76]]],[[[42.91,-16.72],[42.66,-16.78],[42.58,-17.01],[42.75,-17.2],[43.0,-17.15],[43.08,-16.91],[42.91,-16.72]]],[[[-170.95,-9.54],[-171.01,-9.33],[-171.41,-9.45],[-171.12,-9.71],[-170.95,-9.54]]],[[[-178.4,-30.19],[-178.45,-29.95],[-178.7,-29.86],[-178.9,-30.02],[-178.85,-30.26],[-178.6,-30.34],[-178.4,-30.19]]],[[[-147.96,-24.0],[-147.68,-24.02],[-147.53,-23.81],[-147.65,-23.58],[-147.92,-23.56],[-148.08,-23.77],[-147.96,-24.0]]],[[[-157.25,72.87],[-157.99,72.97],[-158.67,72.83],[-158.6,72.58],[-157.87,72.49],[-157.2,72.63],[-157.25,72.87]]],[[[-136.86,-18.26],[-137.23,-18.03],[-137.35,-18.23],[-137.22,-18.44],[-136.98,-18.46],[-136.86,-18.26]]],[[[-176.65,0.42],[-176.64,0.8],[-176.84,0.83],[-176.95,0.66],[-176.65,0.42]]],[[[177.36,-7.1],[177.02,-7.21],[177.04,-7.4],[177.23,-7.44],[177.36,-7.1]]],[[[146.28,16.25],[145.94,16.82],[145.4,16.43],[145.36,16.19],[145.99,15.94],[146.24,16.02],[146.28,16.25]]],[[[-176.36,-0.19],[-176.35,0.19],[-176.55,0.22],[-176.66,0.05],[-176.36,-0.19]]],[[[-136.9,-23.03],[-137.15,-23.02],[-137.27,-23.23],[-137.14,-23.44],[-136.89,-23.45],[-136.77,-23.24],[-136.9,-23.03]]],[[[40.45,-22.28],[40.19,-22.33],[40.1,-22.57],[40.27,-22.75],[40.53,-22.7],[40.62,-22.46],[40.45,-22.28]]],[[[-152.99,-22.83],[-152.88,-23.07],[-152.6,-23.1],[-152.44,-22.9],[-152.55,-22.66],[-152.82,-22.63],[-152.99,-22.83]]],[[[-157.17,55.93],[-156.49,55.99],[-156.51,56.19],[-156.86,56.26],[-157.2,56.13],[-157.17,55.93]]],[[[179.43,-8.32],[179.07,-8.43],[179.1,-8.63],[179.3,-8.67],[179.43,-8.32]]],[[[56.18,-7.18],[56.4,-7.1],[56.29,-6.73],[56.01,-7.04],[56.18,-7.18]]],[[[-171.99,-2.78],[-171.68,-3.02],[-171.56,-2.85],[-171.66,-2.64],[-171.99,-2.78]]],[[[-9.66,-40.03],[-9.99,-40.0],[-10.2,-40.2],[-10.07,-40.43],[-9.74,-40.47],[-9.53,-40.27],[-9.66,-40.03]]],[[[178.74,-7.59],[178.9,-7.44],[178.67,-7.2],[178.54,-7.55],[178.74,-7.59]]]]}}]}