{"type":"FeatureCollection","features":[{"type":"Feature","properties":{},"geometry":{"type":"MultiPolygon","coordinates":[[[[-161.79,67.29],[-162.85,67.21],[-165.74,68.43],[-165.51,69.07],[-166.66,68.96],[-166.51,68.73],[-167.0,68.55],[-162.56,66.51],[-165.3,66.62],[-166.33,66.52],[-166.77,66.34],[-166.63,66.11],[-164.61,66.32],[-160.69,65.58],[-162.12,65.35],[-162.4,64.73],[-163.77,64.49],[-163.17,64.19],[-161.3,64.36],[-161.58,63.75],[-163.08,63.96],[-163.49,63.8],[-162.9,63.51],[-163.23,63.13],[-164.31,63.48],[-165.6,63.22],[-166.67,61.67],[-165.43,60.9],[-167.05,60.68],[-167.63,60.13],[-166.52,59.61],[-165.14,60.25],[-164.69,60.2],[-164.87,59.61],[-162.09,59.83],[-162.66,59.1],[-161.64,58.34],[-160.15,58.49],[-157.8,58.06],[-158.74,57.03],[-160.16,56.89],[-160.72,56.2],[-163.33,55.45],[-163.65,54.73],[-165.12,54.93],[-165.41,54.39],[-168.72,53.79],[-168.98,53.23],[-171.09,52.82],[-171.12,52.43],[-169.39,52.88],[-168.48,52.6],[-168.23,53.16],[-166.12,53.51],[-165.84,54.06],[-164.96,53.76],[-164.68,54.3],[-164.09,54.41],[-162.65,54.2],[-161.85,54.46],[-161.76,54.83],[-160.43,54.99],[-159.03,54.74],[-158.75,55.07],[-159.53,55.6],[-157.85,55.87],[-157.58,56.41],[-156.55,56.6],[-155.56,57.6],[-154.46,56.95],[-155.13,56.29],[-154.78,56.01],[-151.63,57.49],[-151.95,57.99],[-151.56,58.32],[-151.9,58.62],[-151.51,58.94],[-148.77,59.73],[-147.65,59.63],[-145.55,60.34],[-144.66,59.59],[-143.77,59.98],[-139.88,59.49],[-139.41,59.0],[-138.39,58.87],[-137.97,58.32],[-136.71,58.0],[-136.58,57.06],[-135.37,56.72],[-135.15,55.97],[-133.02,54.5],[-133.64,54.13],[-133.47,53.39],[-132.65,52.65],[-131.79,52.46],[-131.54,51.9],[-130.55,51.87],[-131.32,52.63],[-131.55,54.12],[-131.06,54.29],[-130.94,53.54],[-130.16,52.78],[-129.29,52.56],[-128.01,51.2],[-128.64,50.87],[-129.48,51.09],[-129.44,50.73],[-128.12,50.29],[-128.08,49.74],[-127.21,49.86],[-127.26,49.31],[-124.91,48.16],[-125.06,47.79],[-124.08,46.13],[-124.47,45.59],[-124.0,45.13],[-125.1,42.66],[-124.41,41.53],[-124.91,40.57],[-124.17,40.04],[-124.02,38.74],[-123.36,38.41],[-123.43,37.78],[-122.64,37.85],[-122.71,37.21],[-122.06,36.87],[-122.14,36.23],[-121.5,35.87],[-121.58,35.23],[-120.95,34.87],[-121.03,34.22],[-120.34,33.61],[-119.55,33.64],[-119.65,32.99],[-118.55,33.85],[-118.8,32.78],[-117.86,33.22],[-117.52,32.9],[-117.62,32.24],[-116.67,31.52],[-116.77,30.86],[-115.83,30.13],[-115.67,30.54],[-116.28,30.95],[-116.16,31.61],[-116.5,31.94],[-116.28,32.11],[-115.15,31.79],[-115.11,30.38],[-114.51,29.96],[-114.49,31.13],[-114.82,31.46],[-113.15,30.95],[-112.97,31.36],[-113.3,31.7],[-114.14,31.95],[-112.89,32.28],[-111.9,31.26],[-110.79,30.9],[-107.99,31.37],[-107.39,30.93],[-105.31,30.88],[-104.43,30.06],[-103.17,30.29],[-100.52,29.19],[-98.5,29.04],[-97.48,28.57],[-98.15,27.4],[-97.52,25.14],[-96.85,26.06],[-97.39,27.05],[-96.95,27.83],[-94.8,28.77],[-94.58,29.4],[-92.4,29.54],[-90.73,28.66],[-89.79,29.14],[-89.33,28.64],[-88.15,30.19],[-85.85,30.09],[-85.21,29.21],[-84.06,29.97],[-83.46,28.86],[-82.82,28.7],[-83.31,27.78],[-82.55,26.3],[-81.75,25.78],[-81.25,26.93],[-79.85,26.47],[-79.76,27.39],[-81.21,30.1],[-81.08,31.73],[-80.18,32.09],[-79.91,32.64],[-79.26,32.68],[-78.37,33.76],[-77.64,33.73],[-77.36,34.53],[-76.15,34.4],[-76.2,34.95],[-75.09,35.16],[-75.69,36.96],[-75.23,37.43],[-75.36,37.8],[-73.91,38.64],[-73.93,39.23],[-72.82,39.81],[-72.83,40.4],[-72.0,40.93],[-69.78,41.24],[-70.04,42.42],[-69.47,42.89],[-69.56,43.29],[-66.88,44.61],[-66.69,43.4],[-65.63,43.09],[-64.2,43.81],[-64.09,44.42],[-63.22,44.28],[-62.07,44.95],[-61.2,44.79],[-60.53,45.22],[-60.53,45.63],[-59.49,46.07],[-59.66,46.69],[-60.2,46.88],[-58.94,47.53],[-56.42,47.55],[-56.83,46.72],[-55.97,46.52],[-54.89,46.91],[-53.41,46.27],[-52.66,46.65],[-52.73,47.27],[-51.96,47.64],[-53.48,49.36],[-53.42,49.77],[-54.91,49.81],[-56.18,50.47],[-54.81,50.65],[-55.54,51.09],[-54.71,51.5],[-54.66,51.92],[-55.4,52.37],[-55.25,53.65],[-56.89,54.11],[-57.05,54.76],[-59.42,55.42],[-59.64,56.07],[-60.32,56.29],[-60.1,56.95],[-61.78,58.02],[-61.55,58.25],[-61.81,58.46],[-62.55,58.67],[-62.32,58.89],[-62.59,59.11],[-63.35,59.31],[-63.17,59.98],[-64.25,60.39],[-64.02,60.62],[-64.31,60.83],[-65.57,60.56],[-65.79,60.33],[-65.49,60.12],[-66.42,59.63],[-66.13,59.42],[-66.33,59.18],[-68.31,59.06],[-68.74,59.71],[-69.56,59.87],[-69.37,60.11],[-68.04,59.98],[-67.12,60.48],[-68.79,60.83],[-69.25,61.47],[-70.5,61.15],[-70.84,61.35],[-70.66,61.59],[-71.89,61.94],[-71.71,62.18],[-72.07,62.38],[-73.53,62.47],[-74.11,63.1],[-74.67,63.04],[-74.61,62.36],[-78.35,62.83],[-81.13,62.19],[-81.24,61.94],[-80.31,61.85],[-79.63,61.25],[-78.99,61.58],[-79.27,62.0],[-78.35,61.9],[-78.21,61.22],[-79.47,60.57],[-78.59,60.47],[-77.96,59.86],[-79.29,58.97],[-78.79,58.11],[-77.62,57.83],[-77.18,56.97],[-77.75,56.65],[-78.2,57.51],[-80.08,58.13],[-79.83,57.71],[-80.38,57.38],[-80.13,56.96],[-80.77,56.37],[-80.27,55.53],[-79.17,55.26],[-80.46,55.03],[-79.99,54.19],[-80.49,53.86],[-81.06,54.45],[-81.81,54.54],[-82.33,55.37],[-85.06,55.5],[-85.72,56.06],[-87.3,56.17],[-87.96,56.98],[-92.39,57.52],[-91.94,58.15],[-92.75,58.93],[-94.02,59.07],[-94.45,59.45],[-94.02,60.09],[-94.46,60.47],[-94.02,60.85],[-92.13,62.37],[-90.69,62.48],[-90.14,63.11],[-92.59,62.76],[-94.48,61.24],[-95.35,60.47],[-94.9,60.09],[-95.32,59.7],[-94.88,59.32],[-95.28,58.68],[-93.18,58.55],[-93.61,57.92],[-92.81,57.15],[-93.62,56.4],[-90.39,57.09],[-90.02,56.69],[-88.84,56.51],[-88.17,55.71],[-86.98,55.77],[-85.24,54.74],[-83.73,54.61],[-84.27,54.01],[-85.42,53.99],[-86.32,53.29],[-86.08,52.64],[-87.35,51.6],[-88.42,51.54],[-88.13,51.15],[-88.52,50.8],[-91.96,50.97],[-93.32,51.5],[-94.02,52.51],[-93.29,53.24],[-94.38,53.38],[-94.02,54.01],[-95.13,54.14],[-95.52,54.76],[-96.65,54.88],[-97.47,55.62],[-99.66,55.06],[-101.69,55.84],[-104.26,55.55],[-107.1,56.17],[-109.26,57.7],[-108.6,58.91],[-107.46,59.16],[-107.56,59.41],[-109.73,60.44],[-109.62,61.09],[-110.84,61.71],[-110.25,62.29],[-109.39,62.4],[-109.26,63.05],[-112.39,62.79],[-118.75,65.28],[-119.08,65.09],[-118.12,64.61],[-118.45,64.41],[-118.37,63.77],[-120.01,63.45],[-120.22,63.68],[-119.92,63.87],[-120.87,64.34],[-120.57,64.54],[-120.79,64.76],[-119.62,65.12],[-119.74,65.76],[-119.41,65.96],[-118.08,65.67],[-117.73,65.86],[-117.94,66.09],[-120.2,66.21],[-120.34,66.85],[-120.92,66.87],[-122.14,66.49],[-121.33,66.25],[-121.09,66.03],[-121.41,65.84],[-122.76,66.09],[-122.96,66.73],[-123.53,66.74],[-125.25,66.35],[-125.53,66.15],[-125.26,65.94],[-126.07,65.74],[-126.36,66.78],[-129.77,67.17],[-127.88,68.22],[-128.2,68.42],[-129.72,68.6],[-129.84,67.57],[-132.2,67.92],[-132.55,68.11],[-132.32,68.33],[-129.79,69.01],[-130.22,69.62],[-129.94,69.83],[-128.33,69.66],[-128.04,69.87],[-128.38,70.07],[-131.07,70.4],[-133.16,69.65],[-135.97,69.8],[-137.65,69.22],[-138.38,69.75],[-141.28,69.81],[-142.14,70.33],[-148.8,70.41],[-149.92,70.9],[-151.89,70.06],[-153.13,69.33],[-152.57,68.99],[-150.28,69.0],[-149.04,69.46],[-147.34,69.32],[-146.01,69.77],[-139.2,69.45],[-138.74,69.3],[-138.63,68.7],[-136.12,68.38],[-136.31,68.17],[-135.91,68.01],[-136.1,67.79],[-134.94,66.18],[-135.66,65.9],[-136.64,67.14],[-136.46,67.36],[-137.85,67.59],[-137.93,68.18],[-140.46,68.47],[-145.25,67.52],[-147.34,67.57],[-148.03,67.0],[-150.17,66.55],[-150.62,66.9],[-150.05,67.25],[-150.55,67.36],[-152.69,66.87],[-155.8,66.79],[-158.57,67.49],[-160.57,66.89],[-161.79,67.29]],[[-133.99,58.67],[-134.53,58.46],[-134.75,59.23],[-135.66,59.58],[-137.11,59.13],[-136.98,58.76],[-137.48,58.54],[-137.89,59.09],[-137.25,59.51],[-137.52,59.69],[-143.95,60.51],[-144.85,61.28],[-145.78,60.87],[-146.44,61.31],[-148.05,61.32],[-148.94,60.89],[-149.28,61.21],[-148.81,61.54],[-149.93,62.29],[-149.41,62.84],[-149.82,62.95],[-152.46,62.46],[-151.66,61.82],[-152.52,61.15],[-152.15,60.62],[-152.97,59.95],[-154.14,59.79],[-154.53,59.88],[-154.15,60.44],[-154.55,60.74],[-154.16,61.09],[-154.99,61.49],[-154.59,62.06],[-155.03,62.37],[-151.09,63.27],[-150.57,63.83],[-148.78,63.84],[-147.77,64.28],[-146.99,63.82],[-144.75,63.88],[-143.57,63.51],[-142.73,62.5],[-141.1,62.42],[-140.52,61.95],[-139.28,61.98],[-138.57,62.47],[-138.78,62.81],[-138.31,62.89],[-137.78,62.41],[-136.61,62.28],[-136.32,61.51],[-135.34,61.16],[-135.24,60.19],[-134.3,59.83],[-134.35,59.24],[-133.45,58.88],[-133.99,58.67]],[[-77.23,55.12],[-77.32,55.79],[-76.19,56.42],[-76.94,57.46],[-76.22,58.03],[-77.85,58.26],[-78.45,58.86],[-77.1,59.75],[-77.96,60.79],[-77.18,61.36],[-77.82,61.97],[-77.68,62.22],[-74.93,61.86],[-72.79,62.09],[-72.43,61.89],[-72.6,61.65],[-70.35,60.71],[-70.11,59.15],[-68.5,58.82],[-68.09,58.18],[-66.84,58.04],[-65.34,59.23],[-65.63,59.44],[-65.42,59.68],[-63.9,59.74],[-64.07,59.06],[-63.3,58.87],[-63.04,58.65],[-63.26,58.43],[-61.51,57.37],[-61.49,56.93],[-62.38,56.46],[-61.44,56.05],[-61.33,53.43],[-62.79,53.17],[-62.14,52.97],[-61.9,52.33],[-60.66,51.93],[-61.88,51.9],[-63.81,50.96],[-64.83,51.11],[-65.57,50.63],[-66.66,51.21],[-67.38,50.71],[-68.42,50.84],[-69.64,50.07],[-71.31,50.32],[-72.35,49.75],[-72.74,50.36],[-73.4,50.49],[-73.56,51.58],[-76.26,52.99],[-76.33,53.66],[-78.09,54.06],[-78.2,54.73],[-77.23,55.12]],[[-159.94,55.87],[-160.35,56.14],[-160.07,56.48],[-158.67,56.62],[-158.93,56.08],[-159.94,55.87]],[[-64.84,49.61],[-67.15,49.44],[-65.9,50.18],[-64.9,50.03],[-64.84,49.61]],[[-127.86,57.88],[-129.92,58.31],[-129.15,58.69],[-129.42,59.29],[-130.61,58.9],[-131.67,59.09],[-132.23,60.86],[-134.22,61.01],[-134.28,61.99],[-135.29,62.35],[-134.52,62.78],[-133.33,62.62],[-133.43,63.02],[-134.18,63.19],[-133.36,63.62],[-135.85,63.91],[-136.93,63.65],[-137.47,64.14],[-138.82,64.14],[-139.41,64.62],[-140.3,64.68],[-141.1,65.74],[-140.3,66.26],[-140.71,66.4],[-140.58,66.62],[-139.61,66.56],[-139.5,65.98],[-138.18,65.77],[-138.86,65.48],[-138.62,65.13],[-137.43,65.49],[-134.83,65.17],[-134.79,65.78],[-131.17,65.91],[-125.55,64.5],[-125.3,64.29],[-125.56,64.09],[-123.85,63.01],[-124.16,61.99],[-123.25,61.54],[-124.21,61.17],[-124.05,60.14],[-124.72,59.97],[-124.96,59.37],[-123.69,58.91],[-122.95,57.65],[-121.88,57.78],[-121.75,57.16],[-123.66,56.29],[-123.82,56.9],[-124.83,56.76],[-125.02,57.37],[-126.03,57.62],[-126.23,57.43],[-125.43,56.99],[-125.44,56.2],[-126.02,56.04],[-128.0,56.9],[-129.13,56.54],[-131.48,56.96],[-131.39,57.54],[-130.27,57.92],[-127.86,57.88]],[[-150.75,65.98],[-150.31,65.64],[-151.29,65.63],[-150.75,65.98]],[[-59.47,48.98],[-59.48,47.73],[-61.1,47.05],[-61.26,46.43],[-62.35,46.79],[-63.78,46.71],[-64.02,47.33],[-64.59,47.5],[-63.9,47.97],[-64.03,49.23],[-61.9,48.7],[-61.17,49.15],[-62.33,49.53],[-62.36,49.95],[-60.23,49.81],[-58.49,50.47],[-58.28,51.11],[-57.68,51.33],[-57.1,51.11],[-58.5,50.05],[-58.34,49.42],[-59.47,48.98]],[[-158.28,66.09],[-157.84,66.46],[-156.26,66.19],[-158.28,66.09]],[[-118.96,56.49],[-119.94,56.8],[-120.04,57.42],[-121.29,57.53],[-119.71,58.01],[-118.02,57.84],[-117.96,57.21],[-118.63,57.08],[-118.96,56.49]],[[-159.97,64.81],[-160.55,65.12],[-159.7,65.65],[-158.61,65.25],[-159.8,64.13],[-160.36,64.43],[-159.97,64.81]],[[-115.05,58.77],[-116.22,58.7],[-116.98,59.2],[-115.96,59.52],[-115.82,59.93],[-114.0,59.71],[-114.02,59.07],[-115.05,58.77]],[[-147.03,65.28],[-145.5,65.58],[-144.73,65.11],[-142.37,65.13],[-141.69,64.65],[-143.48,63.73],[-144.08,64.42],[-145.4,64.57],[-145.66,65.14],[-147.03,65.28]],[[-120.18,62.62],[-118.81,62.11],[-120.35,61.8],[-120.47,62.43],[-120.18,62.62]],[[-140.16,67.29],[-139.17,67.22],[-139.88,66.92],[-140.3,67.06],[-140.16,67.29]],[[-119.56,59.86],[-117.82,60.34],[-117.19,60.07],[-117.59,59.47],[-119.03,59.19],[-119.65,59.45],[-119.56,59.86]],[[-124.65,51.32],[-122.94,51.16],[-123.65,50.85],[-124.65,51.32]],[[-142.02,64.0],[-140.3,63.9],[-141.75,63.65],[-142.02,64.0]],[[-156.63,57.42],[-156.93,56.88],[-158.34,56.76],[-156.63,57.42]],[[-132.57,59.48],[-132.32,59.28],[-132.89,59.08],[-133.23,59.66],[-132.65,59.87],[-132.57,59.48]],[[-58.83,52.61],[-59.65,52.6],[-59.65,53.46],[-58.38,53.9],[-58.19,53.25],[-58.82,53.04],[-58.83,52.61]],[[-111.85,58.12],[-112.21,57.31],[-113.64,57.09],[-114.2,57.38],[-113.19,57.67],[-113.02,58.08],[-111.85,58.12]],[[-155.61,58.44],[-155.25,58.77],[-155.65,59.07],[-155.28,59.2],[-153.75,58.86],[-154.12,58.31],[-155.57,57.81],[-156.35,58.39],[-155.61,58.44]],[[-132.53,54.69],[-131.97,54.5],[-132.46,54.31],[-132.53,54.69]],[[-132.02,56.77],[-132.62,56.96],[-132.55,57.53],[-133.41,57.91],[-133.35,58.49],[-132.4,58.7],[-132.32,58.31],[-131.46,57.93],[-132.17,57.54],[-132.02,56.77]],[[-154.21,65.11],[-154.71,65.44],[-153.73,65.47],[-154.21,65.11]],[[-66.19,44.67],[-66.25,45.08],[-65.71,44.92],[-66.19,44.67]],[[-123.76,64.25],[-123.24,64.23],[-123.0,64.02],[-123.28,63.82],[-122.32,63.36],[-123.82,63.42],[-124.03,64.05],[-124.78,64.28],[-123.76,64.25]],[[-151.04,59.9],[-149.83,60.24],[-150.69,59.59],[-151.04,59.9]],[[-159.25,59.77],[-160.45,59.77],[-159.81,60.5],[-160.35,61.0],[-159.05,60.78],[-159.39,60.42],[-158.88,59.91],[-159.25,59.77]],[[-126.18,52.39],[-125.15,51.93],[-125.16,51.18],[-126.7,52.23],[-126.18,52.39]],[[-116.85,52.76],[-116.82,52.15],[-117.41,52.04],[-117.45,52.65],[-116.85,52.76]],[[-153.76,56.99],[-154.47,57.56],[-152.67,57.96],[-153.76,56.99]],[[-159.34,66.26],[-159.76,65.88],[-160.36,66.19],[-159.34,66.26]],[[-121.3,60.4],[-119.93,60.31],[-121.36,59.99],[-121.3,60.4]],[[-149.05,60.25],[-149.39,60.57],[-148.6,60.57],[-149.05,60.25]],[[-131.13,58.32],[-131.76,58.51],[-131.19,58.71],[-131.13,58.32]],[[-130.02,55.98],[-130.82,56.38],[-129.68,56.36],[-129.47,56.16],[-130.02,55.98]],[[-122.16,60.87],[-122.21,60.46],[-122.87,60.7],[-122.16,60.87]],[[-162.6,55.34],[-162.17,55.08],[-162.84,55.0],[-162.6,55.34]],[[-118.47,53.19],[-119.58,53.32],[-118.76,53.62],[-118.39,53.58],[-118.47,53.19]]],[[[29.91,59.74],[32.33,60.03],[32.37,60.63],[31.43,60.92],[32.16,61.4],[31.19,61.69],[31.07,62.07],[29.94,62.13],[29.51,62.66],[28.53,62.33],[27.93,63.23],[25.77,63.48],[24.83,63.13],[24.63,63.49],[26.12,64.13],[26.05,64.7],[26.62,64.99],[25.54,65.21],[25.13,65.92],[22.02,66.15],[21.08,65.77],[21.25,65.21],[20.35,64.83],[20.6,64.49],[20.06,63.98],[18.98,63.94],[18.11,63.34],[16.76,63.41],[17.65,62.83],[16.63,62.78],[16.75,62.27],[15.15,61.78],[15.18,61.3],[14.02,61.32],[14.19,61.02],[13.63,60.78],[10.73,61.0],[9.16,60.25],[9.24,59.77],[8.34,59.43],[8.53,59.13],[7.94,58.68],[6.59,58.8],[5.17,61.8],[4.48,61.94],[4.69,61.59],[4.11,61.2],[5.02,59.98],[4.46,59.58],[5.32,58.34],[7.45,57.72],[9.0,58.03],[9.81,58.86],[10.8,58.69],[11.16,58.06],[7.84,57.1],[8.02,56.79],[7.46,56.31],[7.93,55.87],[7.37,55.39],[8.29,55.23],[7.83,54.95],[7.92,54.41],[7.02,53.84],[4.98,53.55],[4.15,53.01],[4.25,52.42],[2.28,51.11],[1.51,51.61],[2.17,52.73],[1.98,53.11],[0.49,53.49],[0.13,54.45],[-0.79,54.72],[-1.43,56.03],[-2.4,56.29],[-1.55,56.81],[-1.74,57.38],[-1.3,57.64],[-3.0,58.0],[-2.5,58.46],[-2.76,58.81],[-0.58,59.85],[-0.76,60.4],[-0.3,60.64],[-0.88,61.14],[-2.67,60.37],[-1.68,59.92],[-2.2,59.47],[-4.48,59.36],[-3.53,58.71],[-4.97,58.89],[-7.67,58.44],[-7.36,58.09],[-7.78,57.81],[-7.52,57.25],[-8.34,56.67],[-7.3,56.46],[-6.76,55.52],[-8.5,55.59],[-9.29,54.99],[-9.02,54.41],[-10.75,54.44],[-10.44,54.08],[-10.84,53.54],[-10.21,53.03],[-10.97,52.17],[-10.38,51.43],[-8.77,51.18],[-8.03,51.81],[-6.03,52.05],[-5.48,53.25],[-6.01,53.99],[-5.26,54.35],[-4.7,53.83],[-5.09,53.54],[-5.01,52.28],[-5.77,51.68],[-4.85,51.45],[-4.64,50.84],[-5.6,50.85],[-6.74,49.69],[-3.56,50.0],[-2.81,50.59],[-1.34,50.25],[-0.63,50.6],[1.18,50.52],[0.74,50.02],[-0.16,50.06],[-0.02,49.45],[-0.91,49.49],[-1.98,50.12],[-3.47,48.93],[-5.35,48.7],[-4.91,47.7],[-3.74,47.55],[-1.91,46.45],[-1.3,45.28],[-1.65,44.97],[-1.65,43.64],[-3.28,43.88],[-3.57,43.79],[-3.36,43.4],[-1.45,43.25],[-0.91,44.5],[-1.11,44.89],[-0.27,44.87],[-0.41,45.5],[-0.05,45.8],[-1.19,47.05],[0.47,46.78],[1.5,47.42],[3.39,47.04],[4.33,47.31],[4.86,46.22],[4.41,45.68],[4.82,45.17],[4.44,44.86],[4.61,44.48],[6.14,45.74],[7.02,45.76],[8.23,46.67],[8.48,46.53],[8.07,46.22],[8.15,45.62],[7.35,45.01],[7.75,44.48],[9.43,45.09],[11.12,44.84],[11.96,45.44],[12.34,44.89],[11.92,44.59],[12.06,44.2],[12.81,44.56],[12.77,45.18],[13.1,45.25],[13.47,44.69],[14.37,44.65],[14.73,44.09],[15.06,44.15],[14.91,45.17],[13.9,44.98],[13.77,45.38],[14.2,45.66],[13.39,45.93],[13.25,46.31],[12.92,46.25],[12.96,45.64],[12.63,45.57],[12.24,46.12],[11.06,45.46],[8.96,46.23],[9.88,47.05],[15.36,48.11],[15.95,48.01],[16.32,47.46],[15.27,47.29],[15.54,46.52],[16.79,47.13],[16.78,47.73],[17.71,48.28],[17.35,48.82],[17.94,49.3],[17.82,49.68],[18.79,50.2],[17.93,50.48],[17.68,51.22],[18.67,52.3],[18.42,53.02],[16.51,53.33],[16.23,54.03],[17.12,54.34],[18.67,53.98],[20.1,54.51],[21.0,54.23],[23.75,54.47],[24.83,54.91],[24.64,55.61],[23.69,55.37],[21.47,55.9],[21.23,56.58],[21.93,56.99],[21.81,57.33],[22.79,57.58],[23.27,56.75],[24.81,57.19],[24.66,58.38],[23.6,58.98],[24.21,59.44],[25.47,59.27],[26.31,59.61],[27.86,59.25],[29.91,59.74]],[[-4.7,56.93],[-4.28,57.2],[-3.27,56.96],[-3.7,56.69],[-4.7,56.93]],[[20.63,62.51],[21.3,61.46],[20.29,60.7],[19.27,60.45],[17.38,61.07],[18.1,61.46],[17.8,62.07],[19.92,63.55],[20.62,63.5],[20.09,62.99],[20.63,62.51]],[[19.65,57.99],[19.24,58.46],[18.27,58.19],[18.41,57.86],[17.73,57.44],[16.9,57.86],[17.58,58.28],[17.43,58.61],[18.54,58.56],[19.25,58.97],[19.11,59.29],[20.25,59.72],[22.37,59.4],[21.19,58.47],[21.7,57.66],[20.56,56.7],[21.07,55.86],[20.53,55.63],[20.51,55.09],[19.46,55.16],[19.45,54.62],[18.02,55.18],[14.94,54.22],[13.87,54.78],[12.08,54.67],[12.68,55.14],[14.22,55.38],[14.64,54.9],[15.68,54.87],[15.65,55.41],[14.84,55.83],[15.9,55.8],[16.94,56.3],[16.93,56.82],[17.46,57.06],[18.68,56.68],[18.68,57.2],[19.23,57.43],[18.95,57.58],[19.65,57.99]],[[12.02,56.46],[11.85,56.79],[12.52,56.72],[12.02,56.46]],[[24.34,65.2],[21.7,63.53],[21.0,63.58],[22.05,64.39],[21.57,65.08],[23.26,65.4],[24.34,65.2]],[[-3.95,54.18],[-3.45,53.44],[-4.35,53.9],[-3.95,54.18]],[[-2.51,49.15],[-2.29,48.76],[-2.88,48.85],[-2.51,49.15]],[[26.26,60.2],[26.91,60.1],[26.42,59.82],[26.26,60.2]],[[11.18,56.85],[10.4,56.71],[11.01,57.17],[11.68,57.11],[11.18,56.85]],[[24.19,57.84],[24.29,57.51],[23.72,57.3],[23.36,57.79],[24.19,57.84]],[[22.03,58.54],[22.72,58.42],[22.14,58.21],[22.03,58.54]],[[16.84,50.32],[17.32,50.59],[17.69,50.06],[16.61,49.9],[16.47,50.27],[16.84,50.32]],[[25.13,60.01],[25.77,59.92],[25.3,59.64],[25.13,60.01]]],[[[-137.14,60.29],[-137.67,60.07],[-137.0,59.91],[-137.14,60.29]]],[[[-30.78,39.48],[-31.71,39.75],[-30.99,39.07],[-30.78,39.48]]],[[[-67.0,63.4],[-68.26,63.78],[-69.05,63.51],[-67.79,63.13],[-68.01,62.9],[-66.79,62.51],[-67.01,62.28],[-70.59,62.95],[-71.34,62.67],[-64.37,61.28],[-64.2,61.95],[-64.51,62.16],[-63.47,62.64],[-64.65,63.05],[-63.59,63.52],[-63.9,63.74],[-63.65,63.96],[-64.55,64.16],[-64.8,63.93],[-64.48,63.72],[-65.54,63.24],[-67.0,63.4]],[[-66.01,62.77],[-65.13,62.59],[-65.91,62.33],[-66.23,62.54],[-66.01,62.77]]],[[[-104.62,71.08],[-102.91,70.19],[-101.67,70.26],[-103.33,71.16],[-104.62,71.08]]],[[[-8.24,42.83],[-8.48,43.22],[-7.86,43.66],[-4.24,43.15],[-3.91,43.47],[-8.1,44.05],[-9.63,43.32],[-8.88,42.14],[-9.22,41.55],[-8.72,41.01],[-9.34,40.31],[-9.13,39.67],[-9.98,39.36],[-8.78,37.65],[-8.48,38.0],[-8.96,38.54],[-8.63,39.14],[-8.87,39.53],[-7.93,40.58],[-8.43,41.12],[-8.08,41.71],[-8.59,42.24],[-8.24,42.83]]],[[[-34.63,66.87],[-35.41,66.09],[-34.89,66.0],[-34.04,66.53],[-34.63,66.87]]],[[[-170.97,63.32],[-169.13,62.75],[-168.53,63.32],[-169.33,63.81],[-171.46,63.99],[-172.02,63.4],[-170.97,63.32]]],[[[-85.66,63.31],[-85.28,62.9],[-83.52,63.69],[-81.12,63.37],[-79.77,64.03],[-81.21,64.29],[-81.43,64.97],[-81.89,65.13],[-83.51,65.12],[-83.6,64.87],[-82.12,64.63],[-82.22,64.38],[-81.77,64.21],[-82.43,63.87],[-83.24,64.45],[-84.51,63.76],[-86.04,63.72],[-86.44,64.12],[-85.83,64.48],[-87.33,64.68],[-89.51,63.99],[-88.51,63.95],[-87.62,63.41],[-85.66,63.31]]],[[[6.12,43.0],[6.66,42.93],[7.12,43.48],[7.98,43.48],[8.77,44.1],[10.12,43.78],[10.41,43.0],[10.82,43.3],[10.29,44.24],[8.62,44.48],[6.19,43.23],[5.25,43.82],[4.17,43.94],[2.78,42.89],[3.06,41.91],[2.25,41.87],[1.91,41.55],[2.08,41.17],[3.59,41.85],[3.25,42.6],[3.67,43.16],[6.12,43.0]]],[[[-43.33,59.91],[-42.77,60.5],[-41.96,60.61],[-42.67,61.15],[-41.49,61.43],[-42.2,61.97],[-41.7,62.8],[-40.45,63.07],[-39.7,64.52],[-40.62,64.43],[-41.06,63.38],[-42.33,63.1],[-43.92,60.2],[-45.18,60.13],[-45.13,60.78],[-47.88,60.84],[-47.88,61.5],[-49.24,62.05],[-50.08,61.89],[-49.39,61.62],[-49.35,60.96],[-48.04,60.41],[-46.75,60.51],[-45.37,59.71],[-43.54,59.49],[-43.33,59.91]]],[[[-80.44,58.31],[-79.77,58.89],[-80.03,59.31],[-79.43,59.64],[-80.08,60.24],[-81.27,59.58],[-80.61,58.98],[-81.28,58.4],[-80.44,58.31]]],[[[166.49,-48.43],[166.8,-48.3],[166.47,-47.95],[166.17,-48.33],[166.49,-48.43]]],[[[-123.26,69.24],[-123.56,69.45],[-123.21,69.66],[-122.2,69.85],[-124.16,69.88],[-124.44,70.5],[-125.11,70.51],[-125.46,69.88],[-127.4,69.88],[-126.43,69.67],[-126.1,69.05],[-123.26,69.24]]],[[[144.25,-38.53],[144.92,-38.12],[145.35,-38.71],[145.71,-38.37],[144.73,-37.7],[144.07,-38.12],[144.25,-38.53]]],[[[171.43,-45.07],[171.65,-44.44],[173.07,-44.18],[173.31,-43.79],[172.95,-43.22],[173.77,-43.01],[174.4,-41.59],[175.81,-41.8],[176.22,-41.01],[176.99,-40.79],[177.34,-39.76],[178.08,-39.54],[178.98,-37.57],[178.67,-37.25],[176.69,-37.5],[176.07,-36.83],[176.26,-36.44],[175.92,-35.86],[175.16,-35.81],[174.52,-34.88],[173.76,-34.82],[173.18,-34.12],[172.44,-34.3],[173.02,-35.01],[172.84,-35.65],[174.66,-37.72],[173.6,-39.69],[174.41,-39.73],[175.08,-40.65],[173.44,-40.58],[172.84,-40.14],[171.81,-40.72],[172.15,-41.31],[171.33,-41.51],[170.62,-42.93],[167.22,-44.37],[166.08,-45.9],[166.41,-46.5],[167.34,-46.58],[167.06,-47.2],[167.71,-47.65],[169.19,-46.71],[170.11,-46.76],[171.26,-46.18],[170.9,-45.6],[171.43,-45.07]],[[170.37,-43.32],[170.7,-43.66],[170.42,-43.8],[170.12,-43.7],[170.37,-43.32]]],[[[-109.44,73.09],[-110.8,72.97],[-111.36,72.79],[-111.15,72.56],[-107.53,72.5],[-109.44,73.09]]],[[[-126.14,72.37],[-126.5,72.16],[-125.06,71.75],[-123.97,71.96],[-126.14,72.37]]],[[[-73.81,64.26],[-74.38,64.21],[-74.56,63.96],[-74.16,63.78],[-72.45,63.93],[-73.81,64.26]]],[[[-23.0,63.86],[-18.23,63.24],[-16.48,63.6],[-15.84,64.14],[-14.59,64.16],[-13.32,64.98],[-14.13,65.05],[-14.82,64.52],[-16.08,64.5],[-16.73,63.96],[-18.51,63.6],[-20.13,63.67],[-20.82,64.15],[-21.66,64.18],[-22.36,64.89],[-21.79,65.46],[-18.43,66.14],[-17.74,65.64],[-16.08,66.35],[-14.35,65.41],[-13.75,65.71],[-13.98,66.08],[-16.35,66.72],[-19.81,66.09],[-21.13,66.26],[-22.21,65.59],[-23.57,65.5],[-23.97,65.86],[-22.58,65.95],[-21.98,66.52],[-23.36,66.67],[-24.92,65.64],[-24.08,65.16],[-24.6,64.58],[-22.46,64.43],[-23.0,63.86]]],[[[12.95,66.03],[13.62,67.04],[14.92,67.17],[16.08,68.49],[14.13,68.44],[14.9,68.0],[14.3,67.43],[12.98,67.29],[11.42,65.18],[10.28,65.03],[10.41,64.53],[11.53,64.6],[12.95,66.03]]],[[[30.74,70.92],[28.97,70.91],[27.85,71.37],[26.65,71.01],[25.46,71.46],[24.31,71.08],[25.5,70.45],[30.09,70.65],[30.58,70.32],[29.35,69.79],[32.59,69.58],[33.5,69.1],[34.82,69.6],[31.7,70.25],[30.74,70.92]]],[[[-107.92,67.16],[-106.86,67.25],[-107.73,67.81],[-106.15,68.07],[-108.15,68.53],[-106.54,68.8],[-104.32,67.83],[-101.93,67.48],[-96.9,67.8],[-95.72,67.32],[-95.16,67.46],[-93.43,68.86],[-95.95,70.33],[-99.04,69.87],[-100.07,69.08],[-100.78,69.42],[-100.28,69.82],[-100.93,69.92],[-102.72,69.7],[-101.98,69.36],[-101.89,69.12],[-102.44,68.96],[-106.94,69.53],[-107.81,68.95],[-112.22,68.48],[-112.85,68.53],[-112.79,69.19],[-113.64,69.47],[-115.39,69.36],[-116.51,69.86],[-113.82,70.35],[-112.26,70.02],[-111.78,70.2],[-111.98,70.43],[-113.79,70.99],[-116.81,70.73],[-116.88,71.37],[-118.87,71.87],[-118.26,72.48],[-118.55,72.7],[-119.77,72.52],[-119.46,72.3],[-120.64,72.12],[-121.17,71.5],[-124.38,71.33],[-122.35,70.9],[-119.03,71.45],[-118.89,70.81],[-117.25,70.53],[-117.0,70.31],[-117.59,69.7],[-116.46,69.21],[-117.51,69.05],[-120.5,70.02],[-121.17,70.04],[-121.54,69.83],[-121.26,69.62],[-117.67,68.63],[-114.95,68.9],[-114.74,68.67],[-115.36,68.07],[-114.34,67.56],[-111.94,67.36],[-110.46,67.66],[-107.92,67.16]],[[-96.99,68.56],[-98.08,68.02],[-98.68,68.13],[-98.21,68.77],[-98.88,69.13],[-97.76,69.66],[-95.89,69.58],[-96.47,69.19],[-95.81,68.58],[-96.99,68.56]],[[-103.92,68.24],[-104.02,68.49],[-103.5,68.65],[-102.35,68.72],[-101.03,68.28],[-100.01,68.83],[-99.33,68.48],[-100.36,67.94],[-103.92,68.24]]],[[[166.34,55.39],[165.78,55.12],[166.2,54.57],[166.75,54.83],[166.34,55.39]]],[[[-65.47,64.35],[-64.63,64.6],[-65.56,64.8],[-65.81,64.56],[-65.47,64.35]]],[[[-176.22,65.73],[-177.17,65.55],[-176.36,65.31],[-176.0,65.51],[-176.22,65.73]]],[[[-26.24,37.98],[-25.24,36.63],[-24.69,36.67],[-25.12,38.06],[-26.24,37.98]]],[[[-76.9,65.32],[-75.1,65.51],[-76.57,65.81],[-77.18,65.75],[-77.33,65.5],[-76.9,65.32]]],[[[36.61,65.56],[35.1,65.44],[35.21,66.03],[35.94,66.28],[35.55,66.82],[32.52,67.11],[32.33,66.9],[34.4,66.14],[34.59,64.42],[36.12,64.16],[36.47,63.6],[38.57,64.34],[37.03,64.62],[36.75,64.8],[36.96,65.01],[39.8,64.61],[40.8,65.05],[39.74,65.39],[39.98,65.6],[42.37,66.29],[44.01,66.35],[42.92,66.7],[41.28,66.24],[39.92,66.37],[39.67,66.16],[39.95,65.98],[38.94,65.53],[39.22,65.36],[38.99,65.15],[36.61,65.56]]],[[[-153.7,71.12],[-156.97,71.41],[-156.24,70.83],[-153.7,70.88],[-152.47,70.42],[-151.82,70.78],[-152.42,71.14],[-153.7,71.12]]],[[[180.0,63.14],[179.26,63.31],[178.97,63.11],[179.21,62.9],[178.11,62.49],[179.69,62.48],[180.0,63.14]]],[[[-77.64,65.0],[-78.66,65.11],[-78.8,64.86],[-77.8,63.83],[-78.63,63.26],[-77.26,62.97],[-76.01,63.35],[-75.86,63.6],[-76.26,63.78],[-77.24,63.9],[-77.64,65.0]]],[[[-144.55,62.13],[-144.84,62.46],[-144.3,62.77],[-144.68,62.89],[-146.38,62.93],[-147.41,62.29],[-145.58,61.51],[-144.34,61.58],[-144.55,62.13]]],[[[-7.72,62.17],[-6.74,61.16],[-6.28,61.42],[-6.6,61.76],[-5.67,62.26],[-6.37,62.74],[-7.72,62.17]]],[[[-89.81,65.4],[-88.15,65.74],[-89.73,65.91],[-90.29,65.79],[-89.81,65.4]]],[[[-125.38,73.2],[-123.84,73.2],[-124.16,73.82],[-123.73,74.03],[-124.12,74.24],[-123.68,74.44],[-125.41,74.41],[-124.97,74.22],[-125.39,74.01],[-124.96,73.82],[-125.38,73.2]]],[[[-33.63,66.92],[-32.63,66.96],[-32.24,67.58],[-33.26,67.54],[-33.63,66.92]]],[[[17.25,69.17],[16.53,68.59],[17.89,68.89],[17.25,69.17]]],[[[37.42,55.4],[38.57,55.46],[38.72,56.09],[36.93,56.19],[36.82,55.57],[37.42,55.4]]],[[[174.0,52.59],[173.92,52.99],[173.27,53.16],[172.71,52.92],[173.36,52.76],[173.68,52.16],[174.24,52.4],[174.0,52.59]]],[[[-171.95,65.29],[-171.57,65.47],[-171.75,65.7],[-172.71,65.55],[-173.08,64.09],[-172.17,64.25],[-171.95,65.29]]],[[[9.58,63.35],[11.6,63.95],[9.93,63.86],[10.62,64.26],[10.29,64.37],[9.24,64.02],[8.13,64.17],[8.2,63.66],[4.67,62.31],[7.05,62.42],[7.66,62.79],[7.47,63.13],[8.56,62.99],[8.5,63.5],[9.58,63.35]]],[[[-113.15,73.11],[-114.45,73.6],[-115.79,73.45],[-114.47,72.96],[-113.15,73.11]]],[[[-65.07,32.11],[-64.31,32.52],[-64.73,32.66],[-65.07,32.11]]],[[[-142.75,61.53],[-144.06,61.26],[-142.49,61.2],[-142.75,61.53]]],[[[-128.25,60.47],[-130.05,60.88],[-129.89,59.69],[-127.52,59.06],[-126.04,59.62],[-128.25,60.47]]],[[[-157.55,71.03],[-160.11,70.92],[-159.37,70.59],[-157.51,70.79],[-157.55,71.03]]],[[[147.13,-43.83],[148.31,-42.58],[147.72,-42.5],[146.59,-43.5],[145.79,-43.01],[146.2,-43.83],[147.13,-43.83]]],[[[-37.7,65.57],[-35.78,65.7],[-36.38,66.03],[-39.3,65.81],[-39.62,65.41],[-40.99,65.15],[-39.4,64.93],[-38.66,65.49],[-37.7,65.57]]],[[[9.23,42.94],[8.83,42.63],[9.38,42.54],[9.23,42.94]]],[[[-87.7,65.34],[-87.76,65.08],[-86.23,64.89],[-85.6,65.24],[-86.01,65.65],[-84.95,65.59],[-84.55,65.18],[-82.51,66.22],[-84.28,65.94],[-85.19,66.51],[-86.29,66.56],[-86.87,66.46],[-86.51,65.8],[-87.7,65.34]]],[[[-175.93,-44.54],[-175.76,-44.17],[-176.2,-43.62],[-177.27,-43.72],[-176.48,-44.59],[-175.93,-44.54]]],[[[40.66,67.75],[40.39,67.54],[40.68,67.37],[41.52,67.6],[40.66,67.75]]],[[[-175.12,52.05],[-173.04,51.75],[-173.03,52.15],[-174.54,52.63],[-176.46,51.9],[-177.44,52.12],[-178.19,51.73],[-176.45,51.49],[-175.12,52.05]]],[[[-60.17,44.02],[-60.51,44.01],[-60.5,43.61],[-59.5,44.04],[-60.17,44.02]]],[[[-61.82,47.03],[-61.11,47.47],[-61.32,48.09],[-62.4,47.63],[-62.37,47.21],[-61.82,47.03]]],[[[-81.45,62.61],[-82.2,63.2],[-83.17,63.28],[-84.4,62.58],[-84.05,62.17],[-82.69,61.93],[-81.45,62.61]],[[-82.5,62.44],[-83.45,62.51],[-82.83,62.86],[-82.5,62.44]]],[[[-127.43,70.29],[-127.11,70.5],[-127.46,70.7],[-128.43,70.48],[-127.43,70.29]]],[[[-171.31,66.52],[-170.36,66.02],[-169.37,66.16],[-171.88,67.21],[-172.92,67.06],[-171.31,66.52]]],[[[-86.98,68.12],[-88.15,68.16],[-88.82,67.8],[-87.79,67.26],[-86.51,67.72],[-86.43,67.97],[-86.98,68.12]]],[[[-112.45,30.03],[-112.82,30.61],[-113.33,30.54],[-112.95,29.95],[-112.45,30.03]]],[[[-27.7,38.24],[-26.87,38.44],[-26.67,39.1],[-27.89,39.52],[-29.17,38.49],[-28.83,38.14],[-27.7,38.24]]],[[[165.94,-50.6],[165.63,-51.2],[165.96,-51.3],[166.6,-50.8],[165.94,-50.6]]],[[[-169.78,57.36],[-170.49,57.23],[-169.96,56.99],[-169.78,57.36]]],[[[158.98,-54.42],[158.59,-54.75],[159.31,-54.76],[158.98,-54.42]]],[[[-49.95,62.32],[-49.61,62.52],[-49.8,62.75],[-50.53,63.03],[-51.4,62.86],[-49.95,62.32]]],[[[36.78,68.82],[37.93,68.9],[36.7,69.19],[35.87,68.94],[36.78,68.82]]],[[[39.45,68.44],[37.74,68.33],[40.36,67.92],[40.64,68.12],[40.34,68.3],[39.45,68.44]]],[[[-71.69,63.54],[-72.44,63.25],[-71.51,63.11],[-71.32,63.35],[-71.69,63.54]]],[[[175.73,62.25],[174.95,62.03],[175.73,61.84],[177.58,62.48],[176.79,62.69],[175.73,62.25]]],[[[-172.57,60.35],[-171.95,60.11],[-171.78,60.5],[-173.05,60.99],[-173.85,60.84],[-172.57,60.35]]],[[[162.49,56.72],[163.35,56.84],[162.87,57.39],[162.43,57.33],[162.49,56.72]]],[[[-165.35,64.68],[-166.0,64.97],[-165.7,65.36],[-167.07,65.94],[-168.06,65.82],[-167.92,65.6],[-168.33,65.42],[-166.17,64.35],[-164.29,64.55],[-165.35,64.68]]],[[[-156.86,56.26],[-157.17,55.93],[-156.49,55.99],[-156.86,56.26]]],[[[169.72,60.76],[169.02,60.5],[169.81,60.35],[170.02,60.57],[169.72,60.76]]],[[[-76.1,64.03],[-75.37,64.34],[-76.36,64.46],[-76.52,64.21],[-76.1,64.03]]],[[[-131.6,62.06],[-132.5,62.05],[-131.07,61.67],[-131.14,62.07],[-131.6,62.06]]],[[[-163.83,69.33],[-164.36,69.17],[-163.6,68.86],[-162.22,69.82],[-163.54,69.97],[-163.83,69.33]]],[[[38.86,66.3],[37.21,66.57],[36.46,66.32],[38.38,65.88],[39.14,66.13],[38.86,66.3]]],[[[179.09,51.73],[177.64,52.32],[177.08,52.1],[179.13,51.32],[179.69,51.53],[179.09,51.73]]],[[[-169.84,56.78],[-170.01,56.41],[-169.32,56.54],[-169.84,56.78]]],[[[-78.62,26.59],[-78.0,26.88],[-78.79,26.96],[-79.04,26.4],[-78.62,26.59]]],[[[-65.14,65.7],[-65.75,65.68],[-66.01,65.44],[-65.66,65.24],[-63.77,64.85],[-62.9,65.09],[-65.14,65.7]]],[[[-51.82,63.33],[-50.94,63.49],[-51.7,63.76],[-52.03,63.56],[-51.82,63.33]]],[[[13.08,43.78],[12.95,44.17],[12.62,44.11],[12.52,43.88],[13.08,43.78]]],[[[178.5,63.94],[178.2,63.73],[178.46,63.53],[179.31,63.73],[178.5,63.94]]],[[[-104.87,71.57],[-103.56,71.65],[-104.41,71.97],[-105.0,71.81],[-104.87,71.57]]],[[[21.17,69.95],[21.64,70.24],[20.53,70.25],[21.17,69.95]]],[[[-16.91,32.58],[-16.65,32.96],[-16.92,33.09],[-17.18,32.96],[-16.91,32.58]]],[[[172.17,61.31],[171.94,61.09],[172.23,60.9],[172.96,61.14],[172.17,61.31]]]]}}]}