{"type":"FeatureCollection","features":[{"type":"Feature","properties":{},"geometry":{"type":"MultiPolygon","coordinates":[[[[-74.44,5.27],[-74.24,5.4],[-74.26,5.63],[-74.07,5.76],[-74.09,6.0],[-73.9,6.13],[-73.92,6.36],[-73.73,6.49],[-73.75,6.72],[-73.56,6.85],[-73.34,6.74],[-73.14,6.87],[-73.17,7.1],[-73.39,7.21],[-73.41,7.44],[-73.22,7.56],[-73.25,7.79],[-73.47,7.9],[-73.49,8.13],[-73.3,8.25],[-73.32,8.48],[-73.54,8.58],[-73.57,8.81],[-73.37,8.93],[-73.16,8.83],[-73.13,8.6],[-72.91,8.5],[-72.89,8.27],[-72.67,8.16],[-72.64,7.94],[-72.42,7.83],[-72.23,7.95],[-72.26,8.18],[-72.07,8.3],[-71.85,8.2],[-71.66,8.32],[-71.69,8.55],[-71.5,8.67],[-71.52,8.9],[-71.33,9.02],[-71.12,8.91],[-70.93,9.03],[-70.95,9.26],[-70.77,9.38],[-70.79,9.6],[-70.61,9.72],[-70.63,9.94],[-70.85,10.04],[-70.87,10.27],[-71.09,10.37],[-71.11,10.59],[-70.93,10.71],[-70.71,10.6],[-70.53,10.72],[-70.55,10.94],[-70.77,11.04],[-70.79,11.26],[-71.01,11.37],[-71.19,11.25],[-71.17,11.03],[-71.36,10.92],[-71.57,11.02],[-71.6,11.24],[-71.81,11.34],[-72.0,11.23],[-72.21,11.33],[-72.24,11.55],[-72.46,11.65],[-72.65,11.54],[-72.86,11.64],[-73.05,11.53],[-73.03,11.31],[-72.81,11.2],[-72.62,11.32],[-72.4,11.22],[-72.38,11.0],[-72.16,10.89],[-72.14,10.67],[-72.33,10.55],[-72.3,10.33],[-72.49,10.21],[-72.47,9.99],[-72.66,9.87],[-72.63,9.65],[-72.82,9.52],[-73.04,9.63],[-73.23,9.51],[-73.45,9.61],[-73.48,9.84],[-73.28,9.96],[-73.31,10.18],[-73.12,10.3],[-73.14,10.52],[-73.36,10.63],[-73.55,10.51],[-73.53,10.29],[-73.72,10.17],[-73.94,10.27],[-73.96,10.49],[-74.18,10.6],[-74.2,10.82],[-74.42,10.92],[-74.45,11.14],[-74.66,11.25],[-74.86,11.13],[-74.83,10.91],[-75.03,10.79],[-75.25,10.89],[-75.44,10.77],[-75.42,10.55],[-75.61,10.42],[-75.59,10.2],[-75.79,10.08],[-75.76,9.85],[-75.96,9.73],[-75.93,9.5],[-76.13,9.38],[-76.11,9.15],[-76.3,9.03],[-76.53,9.13],[-76.72,9.01],[-76.7,8.78],[-76.9,8.65],[-77.12,8.75],[-77.32,8.63],[-77.54,8.73],[-77.56,8.96],[-77.78,9.06],[-77.81,9.29],[-78.03,9.4],[-78.23,9.27],[-78.21,9.04],[-78.41,8.91],[-78.63,9.02],[-78.83,8.89],[-78.81,8.66],[-79.01,8.53],[-78.99,8.3],[-78.76,8.2],[-78.74,7.97],[-78.52,7.86],[-78.5,7.63],[-78.27,7.53],[-78.25,7.29],[-78.03,7.19],[-78.0,6.95],[-77.78,6.85],[-77.76,6.61],[-77.53,6.51],[-77.51,6.27],[-77.71,6.14],[-77.69,5.91],[-77.46,5.8],[-77.44,5.56],[-77.64,5.43],[-77.62,5.19],[-77.39,5.09],[-77.37,4.85],[-77.57,4.71],[-77.55,4.48],[-77.75,4.34],[-77.73,4.1],[-77.5,3.99],[-77.48,3.75],[-77.68,3.62],[-77.66,3.38],[-77.86,3.24],[-77.84,3.0],[-78.04,2.86],[-78.27,2.97],[-78.47,2.83],[-78.45,2.59],[-78.65,2.45],[-78.63,2.21],[-78.84,2.07],[-78.81,1.82],[-79.02,1.68],[-79.0,1.44],[-79.2,1.3],[-79.18,1.05],[-79.38,0.91],[-79.36,0.67],[-79.13,0.56],[-78.93,0.7],[-78.95,0.94],[-78.75,1.08],[-78.52,0.98],[-78.49,0.73],[-78.27,0.62],[-78.06,0.76],[-78.08,1.01],[-77.88,1.15],[-77.9,1.39],[-77.7,1.53],[-77.47,1.42],[-77.27,1.56],[-77.29,1.81],[-77.52,1.91],[-77.54,2.16],[-77.77,2.27],[-77.79,2.51],[-77.59,2.65],[-77.36,2.54],[-77.16,2.68],[-77.18,2.92],[-76.98,3.06],[-77.01,3.3],[-76.8,3.43],[-76.83,3.67],[-76.63,3.81],[-76.65,4.05],[-76.45,4.18],[-76.47,4.42],[-76.27,4.56],[-76.3,4.8],[-76.52,4.9],[-76.54,5.14],[-76.34,5.27],[-76.37,5.51],[-76.17,5.64],[-76.19,5.88],[-76.42,5.98],[-76.44,6.22],[-76.24,6.35],[-76.26,6.58],[-76.49,6.69],[-76.51,6.92],[-76.31,7.05],[-76.34,7.28],[-76.14,7.41],[-75.92,7.31],[-75.72,7.44],[-75.5,7.33],[-75.47,7.1],[-75.25,6.99],[-75.05,7.12],[-74.83,7.01],[-74.81,6.78],[-75.0,6.65],[-74.98,6.42],[-74.76,6.31],[-74.73,6.08],[-74.93,5.95],[-74.9,5.71],[-75.1,5.58],[-75.08,5.35],[-74.86,5.24],[-74.83,5.0],[-75.03,4.87],[-75.0,4.63],[-75.2,4.5],[-75.18,4.26],[-75.38,4.13],[-75.35,3.89],[-75.55,3.76],[-75.53,3.52],[-75.73,3.38],[-75.7,3.14],[-75.48,3.03],[-75.45,2.79],[-75.65,2.66],[-75.63,2.41],[-75.4,2.31],[-75.2,2.44],[-75.23,2.68],[-75.03,2.82],[-75.05,3.06],[-74.85,3.2],[-74.88,3.44],[-74.68,3.57],[-74.71,3.81],[-74.51,3.94],[-74.53,4.18],[-74.33,4.32],[-74.36,4.55],[-74.58,4.66],[-74.61,4.9],[-74.41,5.03],[-74.44,5.27]],[[-71.65,10.02],[-71.68,10.24],[-71.49,10.36],[-71.28,10.25],[-71.25,10.03],[-71.44,9.91],[-71.41,9.69],[-71.2,9.59],[-71.17,9.36],[-71.36,9.24],[-71.57,9.35],[-71.6,9.57],[-71.82,9.68],[-71.84,9.9],[-71.65,10.02]]],[[[-64.86,-35.67],[-64.83,-35.86],[-65.03,-36.01],[-65.0,-36.2],[-64.76,-36.25],[-64.72,-36.44],[-64.93,-36.58],[-64.89,-36.78],[-64.66,-36.82],[-64.62,-37.01],[-64.83,-37.15],[-64.79,-37.34],[-64.55,-37.39],[-64.52,-37.57],[-64.72,-37.72],[-64.69,-37.9],[-64.89,-38.05],[-64.78,-38.25],[-64.92,-38.4],[-65.16,-38.36],[-65.3,-38.52],[-65.54,-38.47],[-65.68,-38.63],[-65.57,-38.83],[-65.71,-38.99],[-65.96,-38.95],[-66.1,-39.1],[-66.0,-39.31],[-66.14,-39.47],[-66.03,-39.67],[-65.78,-39.71],[-65.67,-39.92],[-65.81,-40.08],[-65.7,-40.28],[-65.85,-40.44],[-65.74,-40.65],[-65.48,-40.69],[-65.37,-40.89],[-65.51,-41.05],[-65.4,-41.26],[-65.14,-41.3],[-65.0,-41.13],[-64.74,-41.17],[-64.6,-41.01],[-64.35,-41.05],[-64.24,-41.25],[-63.98,-41.28],[-63.84,-41.12],[-63.59,-41.15],[-63.48,-41.35],[-63.22,-41.39],[-63.09,-41.22],[-62.84,-41.26],[-62.71,-41.09],[-62.46,-41.13],[-62.33,-40.96],[-62.09,-41.0],[-61.96,-40.83],[-62.08,-40.64],[-61.95,-40.48],[-62.07,-40.28],[-61.95,-40.12],[-62.07,-39.93],[-61.94,-39.77],[-62.06,-39.57],[-61.94,-39.41],[-61.7,-39.45],[-61.58,-39.29],[-61.34,-39.32],[-61.22,-39.17],[-60.99,-39.2],[-60.87,-39.04],[-60.64,-39.07],[-60.52,-39.26],[-60.29,-39.29],[-60.18,-39.13],[-59.95,-39.16],[-59.84,-39.01],[-59.61,-39.04],[-59.5,-38.88],[-58.86,-38.79],[-58.67,-38.65],[-58.04,-38.55],[-57.85,-38.41],[-57.61,-38.5],[-57.42,-38.42],[-57.45,-38.24],[-57.25,-38.16],[-57.29,-37.98],[-57.09,-37.9],[-57.13,-37.72],[-56.93,-37.63],[-56.97,-37.45],[-56.77,-37.37],[-56.81,-37.19],[-56.61,-37.1],[-56.65,-36.92],[-56.45,-36.83],[-56.49,-36.65],[-56.29,-36.56],[-56.32,-36.37],[-56.56,-36.28],[-56.6,-36.1],[-57.27,-36.0],[-57.31,-35.82],[-57.11,-35.73],[-56.88,-35.82],[-56.68,-35.73],[-56.71,-35.54],[-56.95,-35.45],[-56.99,-35.26],[-57.23,-35.17],[-57.26,-34.98],[-57.5,-34.89],[-57.54,-34.7],[-57.34,-34.61],[-57.1,-34.7],[-57.06,-34.89],[-56.83,-34.98],[-56.63,-34.89],[-56.39,-34.98],[-56.35,-35.17],[-56.12,-35.26],[-55.92,-35.17],[-55.95,-34.98],[-55.75,-34.88],[-55.52,-34.97],[-55.48,-35.16],[-55.24,-35.25],[-55.04,-35.16],[-54.8,-35.25],[-54.59,-35.15],[-54.63,-34.96],[-54.43,-34.86],[-54.19,-34.95],[-53.99,-34.85],[-54.03,-34.66],[-53.82,-34.56],[-53.58,-34.65],[-53.38,-34.54],[-53.42,-34.35],[-53.22,-34.25],[-53.26,-34.06],[-53.05,-33.95],[-53.09,-33.76],[-52.89,-33.65],[-52.93,-33.46],[-52.73,-33.35],[-52.48,-33.44],[-52.28,-33.33],[-52.32,-33.14],[-52.12,-33.03],[-52.16,-32.83],[-51.95,-32.72],[-51.99,-32.52],[-51.79,-32.41],[-51.83,-32.21],[-51.63,-32.1],[-51.67,-31.9],[-51.47,-31.79],[-51.22,-31.87],[-51.02,-31.76],[-51.06,-31.56],[-50.85,-31.44],[-50.61,-31.53],[-50.4,-31.41],[-50.44,-31.21],[-50.24,-31.09],[-50.28,-30.89],[-50.08,-30.77],[-50.12,-30.56],[-49.91,-30.44],[-49.96,-30.24],[-49.75,-30.12],[-49.79,-29.91],[-49.59,-29.79],[-49.63,-29.58],[-49.43,-29.46],[-49.47,-29.25],[-49.26,-29.12],[-49.02,-29.21],[-48.81,-29.08],[-48.85,-28.87],[-48.65,-28.75],[-48.69,-28.53],[-48.49,-28.41],[-48.53,-28.19],[-48.32,-28.06],[-48.37,-27.85],[-48.16,-27.72],[-48.21,-27.5],[-48.0,-27.37],[-48.04,-27.16],[-48.29,-27.07],[-48.33,-26.85],[-48.58,-26.77],[-48.62,-26.55],[-48.42,-26.41],[-48.46,-26.2],[-48.26,-26.06],[-48.3,-25.84],[-48.1,-25.71],[-48.14,-25.49],[-47.93,-25.35],[-47.69,-25.44],[-47.48,-25.3],[-47.53,-25.08],[-47.32,-24.94],[-47.36,-24.72],[-47.16,-24.58],[-46.91,-24.67],[-46.71,-24.53],[-46.75,-24.3],[-46.55,-24.16],[-46.3,-24.25],[-46.09,-24.11],[-45.85,-24.19],[-45.8,-24.42],[-45.55,-24.5],[-45.35,-24.36],[-45.39,-24.14],[-45.19,-23.99],[-44.94,-24.08],[-44.74,-23.94],[-44.78,-23.71],[-44.58,-23.57],[-44.33,-23.65],[-44.12,-23.5],[-44.17,-23.28],[-43.96,-23.13],[-43.71,-23.21],[-43.51,-23.07],[-43.26,-23.15],[-43.21,-23.38],[-42.97,-23.46],[-42.76,-23.31],[-42.51,-23.39],[-42.31,-23.25],[-42.06,-23.33],[-41.85,-23.18],[-41.9,-22.95],[-41.69,-22.8],[-41.74,-22.57],[-41.54,-22.42],[-41.29,-22.5],[-41.08,-22.35],[-40.83,-22.43],[-40.63,-22.28],[-40.68,-22.05],[-40.92,-21.97],[-40.97,-21.74],[-40.77,-21.59],[-40.81,-21.35],[-40.61,-21.2],[-40.65,-20.97],[-40.45,-20.81],[-40.2,-20.89],[-40.0,-20.74],[-40.05,-20.51],[-39.84,-20.35],[-39.89,-20.12],[-39.69,-19.96],[-39.73,-19.72],[-39.53,-19.57],[-39.58,-19.33],[-39.37,-19.17],[-39.42,-18.94],[-39.67,-18.86],[-39.71,-18.62],[-39.51,-18.46],[-39.56,-18.22],[-39.36,-18.06],[-39.11,-18.14],[-38.91,-17.99],[-38.66,-18.07],[-38.46,-17.91],[-38.5,-17.67],[-38.75,-17.59],[-38.8,-17.35],[-39.04,-17.27],[-39.09,-17.02],[-38.89,-16.86],[-38.93,-16.62],[-38.73,-16.46],[-38.78,-16.22],[-38.58,-16.06],[-38.62,-15.82],[-38.87,-15.73],[-38.92,-15.49],[-38.72,-15.33],[-38.76,-15.08],[-39.01,-15.0],[-39.05,-14.76],[-38.85,-14.59],[-38.9,-14.35],[-38.7,-14.19],[-38.74,-13.94],[-38.54,-13.78],[-38.59,-13.53],[-38.39,-13.37],[-38.44,-13.12],[-38.24,-12.95],[-37.99,-13.04],[-37.79,-12.87],[-37.84,-12.63],[-37.64,-12.46],[-37.68,-12.21],[-37.49,-12.05],[-37.53,-11.8],[-37.33,-11.64],[-37.09,-11.72],[-36.89,-11.55],[-36.94,-11.3],[-36.74,-11.14],[-36.79,-10.89],[-36.59,-10.72],[-36.34,-10.81],[-36.15,-10.64],[-36.19,-10.39],[-36.0,-10.23],[-35.75,-10.31],[-35.56,-10.14],[-35.6,-9.89],[-35.41,-9.73],[-35.45,-9.48],[-35.26,-9.31],[-35.02,-9.39],[-34.82,-9.23],[-34.87,-8.98],[-34.67,-8.81],[-34.72,-8.56],[-34.52,-8.4],[-34.57,-8.15],[-34.37,-7.98],[-34.42,-7.73],[-34.66,-7.64],[-34.71,-7.39],[-34.51,-7.23],[-34.56,-6.98],[-34.8,-6.89],[-34.84,-6.64],[-34.65,-6.47],[-34.7,-6.22],[-34.94,-6.14],[-34.98,-5.89],[-34.79,-5.72],[-34.83,-5.47],[-35.07,-5.38],[-35.12,-5.13],[-35.36,-5.05],[-35.41,-4.79],[-35.65,-4.71],[-35.84,-4.87],[-36.08,-4.79],[-36.28,-4.95],[-36.52,-4.87],[-36.56,-4.61],[-36.81,-4.53],[-37.0,-4.69],[-37.24,-4.61],[-37.29,-4.35],[-37.53,-4.27],[-37.58,-4.01],[-37.82,-3.93],[-37.86,-3.67],[-38.1,-3.58],[-38.3,-3.75],[-38.54,-3.66],[-38.59,-3.41],[-38.83,-3.32],[-38.87,-3.07],[-39.12,-2.98],[-39.16,-2.73],[-39.4,-2.64],[-39.6,-2.8],[-39.84,-2.71],[-39.89,-2.46],[-40.13,-2.37],[-40.33,-2.54],[-40.57,-2.45],[-40.77,-2.61],[-41.01,-2.52],[-41.21,-2.69],[-41.45,-2.6],[-41.65,-2.77],[-41.89,-2.68],[-41.93,-2.42],[-42.18,-2.33],[-42.37,-2.5],[-42.62,-2.41],[-42.66,-2.16],[-42.9,-2.07],[-43.1,-2.23],[-43.34,-2.14],[-43.54,-2.31],[-43.78,-2.22],[-43.98,-2.38],[-44.22,-2.29],[-44.26,-2.04],[-44.07,-1.87],[-44.11,-1.62],[-44.35,-1.53],[-44.39,-1.28],[-44.63,-1.19],[-44.68,-0.94],[-44.92,-0.85],[-45.11,-1.01],[-45.35,-0.92],[-45.55,-1.09],[-45.79,-1.0],[-45.84,-0.75],[-46.07,-0.66],[-46.27,-0.82],[-46.51,-0.73],[-46.55,-0.48],[-46.79,-0.39],[-46.99,-0.55],[-47.23,-0.47],[-47.27,-0.21],[-47.51,-0.13],[-47.71,-0.29],[-47.94,-0.2],[-48.14,-0.36],[-48.38,-0.28],[-48.42,-0.03],[-48.66,0.06],[-48.85,-0.1],[-49.09,-0.01],[-49.13,0.24],[-49.37,0.33],[-49.41,0.58],[-49.64,0.66],[-49.68,0.91],[-49.49,1.08],[-49.53,1.32],[-49.76,1.41],[-49.81,1.66],[-50.04,1.75],[-50.08,1.99],[-50.31,2.08],[-50.35,2.33],[-50.59,2.41],[-50.63,2.66],[-50.86,2.75],[-50.9,2.99],[-50.71,3.15],[-50.75,3.4],[-50.98,3.48],[-51.02,3.73],[-50.83,3.89],[-50.87,4.14],[-51.1,4.22],[-51.14,4.46],[-51.37,4.55],[-51.41,4.79],[-51.64,4.87],[-51.83,4.71],[-52.07,4.79],[-52.1,5.04],[-52.33,5.12],[-52.37,5.36],[-52.6,5.44],[-52.64,5.68],[-52.87,5.76],[-53.06,5.6],[-53.29,5.68],[-53.33,5.92],[-53.56,6.0],[-53.75,5.84],[-53.98,5.92],[-54.01,6.16],[-54.24,6.24],[-54.43,6.08],[-54.66,6.16],[-54.85,6.0],[-55.07,6.08],[-55.11,6.32],[-55.33,6.39],[-55.52,6.23],[-55.75,6.31],[-55.93,6.15],[-56.16,6.23],[-56.34,6.07],[-56.57,6.15],[-56.75,5.99],[-56.97,6.06],[-57.01,6.3],[-57.23,6.38],[-57.27,6.61],[-57.49,6.69],[-57.52,6.92],[-57.74,7.0],[-57.93,6.84],[-58.15,6.91],[-58.18,7.14],[-58.4,7.22],[-58.43,7.45],[-58.25,7.61],[-58.28,7.84],[-58.5,7.91],[-58.68,7.76],[-58.9,7.83],[-58.93,8.06],[-59.15,8.13],[-59.18,8.36],[-59.4,8.43],[-59.43,8.66],[-59.65,8.73],[-59.83,8.57],[-60.04,8.64],[-60.08,8.87],[-60.29,8.94],[-60.47,8.78],[-60.68,8.85],[-60.71,9.08],[-60.53,9.23],[-60.57,9.46],[-60.78,9.52],[-60.81,9.75],[-61.02,9.82],[-61.05,10.04],[-60.88,10.2],[-60.91,10.42],[-60.73,10.57],[-60.76,10.8],[-60.58,10.95],[-60.62,11.17],[-60.44,11.33],[-60.47,11.55],[-60.68,11.61],[-60.86,11.46],[-60.83,11.24],[-61.01,11.08],[-61.22,11.15],[-61.39,10.99],[-61.6,11.05],[-61.78,10.9],[-61.99,10.96],[-62.16,10.81],[-62.37,10.87],[-62.54,10.71],[-62.75,10.78],[-62.92,10.62],[-62.89,10.4],[-63.06,10.25],[-63.03,10.03],[-63.21,9.87],[-63.41,9.94],[-63.58,9.78],[-63.79,9.85],[-63.96,9.69],[-63.93,9.47],[-64.1,9.32],[-64.3,9.38],[-64.33,9.6],[-64.53,9.66],[-64.56,9.88],[-64.39,10.04],[-64.42,10.25],[-64.25,10.41],[-64.05,10.34],[-63.88,10.5],[-63.68,10.44],[-63.5,10.59],[-63.3,10.53],[-63.13,10.68],[-63.16,10.9],[-63.36,10.96],[-63.53,10.81],[-63.74,10.87],[-63.91,10.72],[-64.11,10.78],[-64.14,10.99],[-64.34,11.06],[-64.51,10.9],[-64.48,10.69],[-64.65,10.53],[-64.62,10.31],[-64.79,10.16],[-64.99,10.22],[-65.16,10.07],[-65.37,10.17],[-65.39,10.39],[-65.6,10.49],[-65.78,10.38],[-65.98,10.49],[-66.01,10.7],[-66.22,10.81],[-66.39,10.7],[-66.6,10.8],[-66.78,10.69],[-66.98,10.8],[-67.16,10.69],[-67.37,10.79],[-67.55,10.68],[-67.76,10.78],[-67.94,10.67],[-68.15,10.78],[-68.18,10.99],[-68.39,11.1],[-68.57,10.99],[-68.78,11.09],[-68.81,11.31],[-69.02,11.41],[-69.2,11.3],[-69.18,11.08],[-68.96,10.98],[-68.94,10.76],[-68.73,10.65],[-68.7,10.44],[-68.49,10.33],[-68.31,10.44],[-68.1,10.34],[-67.91,10.45],[-67.7,10.35],[-67.52,10.46],[-67.32,10.36],[-67.14,10.47],[-66.93,10.36],[-66.75,10.48],[-66.54,10.37],[-66.51,10.15],[-66.31,10.05],[-66.13,10.16],[-65.92,10.06],[-65.75,10.17],[-65.54,10.06],[-65.51,9.84],[-65.69,9.73],[-65.89,9.84],[-66.07,9.73],[-66.28,9.83],[-66.46,9.72],[-66.66,9.82],[-66.84,9.71],[-67.05,9.81],[-67.23,9.7],[-67.44,9.81],[-67.62,9.69],[-67.83,9.8],[-68.01,9.68],[-68.22,9.79],[-68.4,9.67],[-68.61,9.78],[-68.8,9.66],[-69.01,9.77],[-69.19,9.65],[-69.17,9.43],[-69.35,9.31],[-69.56,9.41],[-69.75,9.3],[-69.72,9.07],[-69.91,8.95],[-70.12,9.06],[-70.31,8.94],[-70.28,8.72],[-70.47,8.6],[-70.69,8.7],[-70.87,8.58],[-70.85,8.35],[-71.04,8.23],[-71.01,8.01],[-71.2,7.88],[-71.42,7.99],[-71.61,7.87],[-71.82,7.97],[-72.01,7.85],[-71.99,7.62],[-72.18,7.49],[-72.15,7.26],[-72.35,7.14],[-72.32,6.91],[-72.1,6.8],[-72.07,6.57],[-71.86,6.47],[-71.83,6.23],[-72.02,6.11],[-71.99,5.87],[-72.19,5.75],[-72.16,5.51],[-72.35,5.38],[-72.57,5.49],[-72.77,5.36],[-72.74,5.12],[-72.94,5.0],[-73.16,5.1],[-73.35,4.97],[-73.33,4.73],[-73.52,4.6],[-73.5,4.37],[-73.69,4.23],[-73.67,4.0],[-73.86,3.86],[-73.84,3.62],[-74.04,3.49],[-74.26,3.6],[-74.46,3.46],[-74.43,3.22],[-74.63,3.09],[-74.61,2.85],[-74.8,2.71],[-74.78,2.47],[-74.98,2.34],[-74.95,2.09],[-75.15,1.96],[-75.38,2.06],[-75.58,1.93],[-75.8,2.03],[-76.01,1.9],[-75.98,1.65],[-76.18,1.51],[-76.16,1.27],[-76.36,1.13],[-76.59,1.24],[-76.79,1.1],[-76.77,0.85],[-76.97,0.72],[-77.2,0.82],[-77.4,0.68],[-77.38,0.44],[-77.58,0.3],[-77.56,0.05],[-77.76,-0.09],[-77.74,-0.34],[-77.51,-0.45],[-77.49,-0.7],[-77.69,-0.84],[-77.92,-0.73],[-78.13,-0.87],[-78.1,-1.12],[-78.31,-1.26],[-78.29,-1.51],[-78.06,-1.62],[-78.03,-1.87],[-77.81,-1.98],[-77.78,-2.23],[-77.99,-2.37],[-77.96,-2.62],[-77.73,-2.73],[-77.71,-2.98],[-77.92,-3.13],[-77.89,-3.38],[-78.1,-3.52],[-78.08,-3.78],[-77.85,-3.89],[-77.82,-4.14],[-78.03,-4.28],[-78.01,-4.54],[-78.22,-4.68],[-78.19,-4.93],[-77.96,-5.04],[-77.75,-4.9],[-77.52,-5.01],[-77.5,-5.26],[-77.26,-5.37],[-77.24,-5.62],[-77.01,-5.73],[-76.8,-5.58],[-76.57,-5.69],[-76.55,-5.94],[-76.75,-6.09],[-76.73,-6.34],[-76.94,-6.49],[-76.91,-6.75],[-76.68,-6.85],[-76.65,-7.11],[-76.86,-7.25],[-76.84,-7.51],[-76.6,-7.62],[-76.4,-7.47],[-76.16,-7.57],[-76.14,-7.83],[-75.91,-7.94],[-75.88,-8.19],[-75.65,-8.3],[-75.62,-8.55],[-75.83,-8.7],[-75.81,-8.95],[-75.57,-9.06],[-75.55,-9.31],[-75.75,-9.46],[-75.73,-9.71],[-75.5,-9.82],[-75.47,-10.07],[-75.24,-10.18],[-75.21,-10.43],[-74.98,-10.54],[-74.95,-10.79],[-74.72,-10.89],[-74.51,-10.74],[-74.54,-10.49],[-74.33,-10.34],[-74.1,-10.44],[-74.07,-10.7],[-74.28,-10.85],[-74.25,-11.1],[-74.46,-11.25],[-74.43,-11.5],[-74.2,-11.6],[-74.17,-11.86],[-73.94,-11.96],[-73.73,-11.81],[-73.76,-11.56],[-73.55,-11.41],[-73.32,-11.51],[-73.29,-11.76],[-73.5,-11.91],[-73.47,-12.16],[-73.24,-12.26],[-73.21,-12.51],[-72.97,-12.62],[-72.77,-12.46],[-72.54,-12.56],[-72.33,-12.41],[-72.1,-12.51],[-72.07,-12.76],[-71.84,-12.86],[-71.81,-13.11],[-71.58,-13.21],[-71.38,-13.06],[-71.15,-13.16],[-71.12,-13.4],[-70.89,-13.5],[-70.68,-13.35],[-70.45,-13.45],[-70.42,-13.69],[-70.19,-13.79],[-69.99,-13.64],[-69.76,-13.73],[-69.73,-13.98],[-69.5,-14.07],[-69.47,-14.32],[-69.25,-14.42],[-69.05,-14.26],[-68.82,-14.36],[-68.79,-14.6],[-68.99,-14.75],[-68.96,-15.0],[-68.73,-15.09],[-68.7,-15.34],[-68.47,-15.43],[-68.44,-15.67],[-68.21,-15.76],[-68.18,-16.01],[-67.95,-16.1],[-67.92,-16.34],[-67.69,-16.43],[-67.5,-16.27],[-67.27,-16.36],[-67.07,-16.21],[-66.85,-16.3],[-66.82,-16.54],[-66.59,-16.62],[-66.4,-16.47],[-66.17,-16.56],[-66.14,-16.8],[-65.91,-16.88],[-65.88,-17.12],[-65.66,-17.21],[-65.47,-17.05],[-65.24,-17.14],[-65.21,-17.37],[-64.99,-17.46],[-64.96,-17.69],[-64.73,-17.78],[-64.54,-17.62],[-64.32,-17.7],[-64.29,-17.94],[-64.07,-18.02],[-64.03,-18.25],[-63.81,-18.33],[-63.78,-18.57],[-63.97,-18.72],[-63.94,-18.96],[-64.13,-19.11],[-64.09,-19.35],[-63.87,-19.42],[-63.84,-19.66],[-64.03,-19.81],[-63.99,-20.05],[-63.77,-20.12],[-63.74,-20.35],[-63.52,-20.43],[-63.48,-20.66],[-63.67,-20.82],[-63.9,-20.74],[-64.09,-20.9],[-64.05,-21.13],[-63.83,-21.2],[-63.8,-21.43],[-63.57,-21.5],[-63.54,-21.73],[-63.73,-21.89],[-63.7,-22.12],[-63.89,-22.27],[-63.86,-22.5],[-64.05,-22.66],[-64.01,-22.89],[-64.21,-23.04],[-64.17,-23.27],[-64.37,-23.42],[-64.33,-23.65],[-64.11,-23.72],[-64.07,-23.95],[-63.85,-24.02],[-63.81,-24.24],[-64.01,-24.4],[-63.97,-24.62],[-63.75,-24.69],[-63.71,-24.91],[-63.91,-25.07],[-63.87,-25.29],[-64.07,-25.44],[-64.03,-25.67],[-63.81,-25.73],[-63.77,-25.95],[-63.97,-26.11],[-63.93,-26.33],[-64.13,-26.48],[-64.09,-26.7],[-64.29,-26.86],[-64.25,-27.08],[-64.03,-27.14],[-63.99,-27.36],[-64.19,-27.51],[-64.15,-27.73],[-63.93,-27.79],[-63.89,-28.01],[-64.09,-28.16],[-64.05,-28.38],[-64.25,-28.53],[-64.22,-28.74],[-63.99,-28.8],[-63.95,-29.02],[-63.72,-29.08],[-63.69,-29.29],[-63.46,-29.35],[-63.42,-29.56],[-63.62,-29.71],[-63.59,-29.92],[-63.36,-29.98],[-63.32,-30.19],[-63.52,-30.34],[-63.48,-30.55],[-63.68,-30.7],[-63.64,-30.91],[-63.41,-30.97],[-63.38,-31.17],[-63.58,-31.32],[-63.54,-31.53],[-63.31,-31.58],[-63.28,-31.79],[-63.47,-31.94],[-63.44,-32.14],[-63.21,-32.19],[-63.17,-32.4],[-63.37,-32.55],[-63.6,-32.5],[-63.8,-32.65],[-63.76,-32.85],[-63.53,-32.9],[-63.5,-33.1],[-63.7,-33.25],[-63.66,-33.45],[-63.86,-33.6],[-64.09,-33.55],[-64.29,-33.7],[-64.26,-33.9],[-64.46,-34.05],[-64.7,-34.0],[-64.9,-34.15],[-64.87,-34.34],[-65.07,-34.49],[-65.03,-34.69],[-64.8,-34.74],[-64.76,-34.94],[-64.97,-35.08],[-64.93,-35.28],[-65.14,-35.43],[-65.1,-35.62],[-64.86,-35.67]],[[-45.22,-13.74],[-45.27,-13.49],[-45.51,-13.4],[-45.71,-13.56],[-45.67,-13.81],[-45.87,-13.96],[-46.11,-13.87],[-46.16,-13.63],[-46.4,-13.53],[-46.44,-13.29],[-46.24,-13.13],[-46.29,-12.88],[-46.08,-12.72],[-46.13,-12.47],[-46.37,-12.38],[-46.41,-12.13],[-46.66,-12.04],[-46.7,-11.79],[-46.94,-11.7],[-46.98,-11.45],[-47.23,-11.36],[-47.27,-11.11],[-47.51,-11.02],[-47.55,-10.77],[-47.8,-10.67],[-47.84,-10.42],[-48.08,-10.33],[-48.12,-10.08],[-48.36,-9.99],[-48.4,-9.74],[-48.2,-9.58],[-48.25,-9.33],[-48.05,-9.17],[-48.09,-8.91],[-48.33,-8.82],[-48.53,-8.98],[-48.77,-8.89],[-48.81,-8.64],[-48.61,-8.48],[-48.65,-8.23],[-48.89,-8.13],[-48.93,-7.88],[-48.73,-7.72],[-48.78,-7.47],[-49.01,-7.38],[-49.06,-7.13],[-48.86,-6.97],[-48.9,-6.71],[-49.14,-6.62],[-49.18,-6.37],[-48.98,-6.21],[-49.02,-5.95],[-48.82,-5.79],[-48.87,-5.54],[-48.67,-5.38],[-48.71,-5.13],[-48.95,-5.04],[-48.99,-4.78],[-49.23,-4.69],[-49.27,-4.44],[-49.07,-4.28],[-49.11,-4.02],[-49.35,-3.93],[-49.39,-3.68],[-49.19,-3.52],[-48.95,-3.61],[-48.76,-3.45],[-48.8,-3.2],[-48.6,-3.03],[-48.36,-3.12],[-48.17,-2.96],[-47.93,-3.05],[-47.73,-2.89],[-47.77,-2.63],[-47.57,-2.47],[-47.61,-2.22],[-47.42,-2.05],[-47.46,-1.8],[-47.26,-1.64],[-47.3,-1.39],[-47.1,-1.22],[-46.87,-1.31],[-46.67,-1.15],[-46.43,-1.24],[-46.39,-1.49],[-46.15,-1.58],[-45.95,-1.41],[-45.71,-1.5],[-45.67,-1.76],[-45.43,-1.85],[-45.38,-2.1],[-45.58,-2.26],[-45.54,-2.52],[-45.3,-2.61],[-45.26,-2.86],[-45.01,-2.95],[-44.97,-3.2],[-45.17,-3.37],[-45.41,-3.28],[-45.61,-3.44],[-45.57,-3.7],[-45.33,-3.79],[-45.28,-4.04],[-45.04,-4.13],[-45.0,-4.38],[-44.76,-4.47],[-44.56,-4.31],[-44.6,-4.05],[-44.4,-3.89],[-44.45,-3.64],[-44.25,-3.47],[-44.0,-3.56],[-43.96,-3.82],[-43.72,-3.9],[-43.52,-3.74],[-43.28,-3.83],[-43.24,-4.08],[-42.99,-4.17],[-42.95,-4.43],[-42.71,-4.52],[-42.51,-4.35],[-42.27,-4.44],[-42.22,-4.7],[-41.98,-4.78],[-41.78,-4.62],[-41.82,-4.37],[-41.63,-4.2],[-41.38,-4.29],[-41.18,-4.12],[-41.23,-3.87],[-41.47,-3.78],[-41.51,-3.53],[-41.32,-3.36],[-41.07,-3.45],[-41.03,-3.7],[-40.79,-3.79],[-40.74,-4.05],[-40.5,-4.14],[-40.46,-4.39],[-40.65,-4.56],[-40.61,-4.81],[-40.81,-4.97],[-40.76,-5.23],[-40.52,-5.32],[-40.48,-5.57],[-40.23,-5.66],[-40.03,-5.49],[-40.08,-5.24],[-40.32,-5.15],[-40.37,-4.9],[-40.17,-4.73],[-39.93,-4.82],[-39.88,-5.07],[-39.64,-5.16],[-39.59,-5.42],[-39.79,-5.58],[-39.75,-5.84],[-39.95,-6.0],[-39.9,-6.25],[-39.66,-6.34],[-39.61,-6.6],[-39.37,-6.68],[-39.32,-6.94],[-39.08,-7.02],[-39.04,-7.28],[-38.79,-7.36],[-38.59,-7.2],[-38.35,-7.28],[-38.31,-7.54],[-38.06,-7.62],[-37.86,-7.46],[-37.62,-7.54],[-37.42,-7.38],[-37.18,-7.46],[-36.98,-7.3],[-37.03,-7.05],[-36.83,-6.88],[-36.59,-6.97],[-36.4,-6.8],[-36.44,-6.55],[-36.25,-6.38],[-36.0,-6.47],[-35.96,-6.72],[-36.15,-6.88],[-36.11,-7.14],[-36.3,-7.3],[-36.55,-7.22],[-36.74,-7.38],[-36.7,-7.64],[-36.45,-7.72],[-36.41,-7.97],[-36.17,-8.06],[-36.12,-8.31],[-36.32,-8.47],[-36.27,-8.73],[-36.47,-8.89],[-36.42,-9.14],[-36.62,-9.31],[-36.86,-9.22],[-36.91,-8.97],[-36.71,-8.81],[-36.76,-8.56],[-37.0,-8.47],[-37.2,-8.64],[-37.15,-8.89],[-37.35,-9.05],[-37.59,-8.97],[-37.64,-8.72],[-37.44,-8.55],[-37.49,-8.3],[-37.73,-8.21],[-37.93,-8.38],[-38.17,-8.29],[-38.22,-8.04],[-38.46,-7.96],[-38.66,-8.12],[-38.61,-8.37],[-38.81,-8.54],[-38.76,-8.79],[-38.52,-8.88],[-38.48,-9.13],[-38.67,-9.29],[-38.63,-9.55],[-38.38,-9.63],[-38.34,-9.88],[-38.54,-10.05],[-38.49,-10.3],[-38.25,-10.38],[-38.2,-10.63],[-38.4,-10.8],[-38.65,-10.71],[-38.85,-10.88],[-38.8,-11.13],[-38.56,-11.21],[-38.51,-11.46],[-38.71,-11.63],[-38.66,-11.88],[-38.86,-12.04],[-38.82,-12.29],[-39.02,-12.45],[-38.97,-12.7],[-39.17,-12.87],[-39.13,-13.11],[-39.33,-13.28],[-39.28,-13.53],[-39.48,-13.69],[-39.44,-13.93],[-39.64,-14.1],[-39.59,-14.34],[-39.79,-14.51],[-39.75,-14.75],[-39.95,-14.91],[-39.9,-15.16],[-40.1,-15.32],[-40.35,-15.23],[-40.55,-15.4],[-40.51,-15.64],[-40.71,-15.8],[-40.95,-15.72],[-41.0,-15.47],[-41.24,-15.39],[-41.45,-15.55],[-41.69,-15.46],[-41.74,-15.22],[-41.98,-15.13],[-42.19,-15.29],[-42.43,-15.2],[-42.48,-14.96],[-42.72,-14.87],[-42.93,-15.03],[-42.88,-15.27],[-43.08,-15.43],[-43.33,-15.35],[-43.37,-15.1],[-43.62,-15.01],[-43.82,-15.17],[-44.07,-15.08],[-44.11,-14.84],[-44.36,-14.75],[-44.4,-14.5],[-44.65,-14.41],[-44.69,-14.17],[-44.93,-14.08],[-44.98,-13.83],[-45.22,-13.74]],[[-54.64,-0.97],[-54.83,-1.13],[-55.06,-1.04],[-55.1,-0.8],[-55.32,-0.71],[-55.36,-0.46],[-55.59,-0.38],[-55.62,-0.13],[-55.43,0.03],[-55.47,0.27],[-55.28,0.43],[-55.32,0.68],[-55.54,0.76],[-55.58,1.01],[-55.39,1.17],[-55.43,1.41],[-55.65,1.5],[-55.69,1.74],[-55.92,1.83],[-55.95,2.07],[-56.18,2.15],[-56.21,2.39],[-56.44,2.48],[-56.47,2.72],[-56.29,2.88],[-56.06,2.8],[-56.03,2.55],[-55.8,2.47],[-55.61,2.63],[-55.39,2.55],[-55.2,2.71],[-55.23,2.95],[-55.04,3.11],[-54.82,3.03],[-54.78,2.79],[-54.55,2.7],[-54.52,2.46],[-54.29,2.37],[-54.1,2.54],[-54.14,2.78],[-53.94,2.94],[-53.72,2.86],[-53.52,3.02],[-53.29,2.93],[-53.1,3.1],[-52.87,3.01],[-52.83,2.77],[-52.6,2.68],[-52.57,2.44],[-52.33,2.35],[-52.14,2.51],[-51.91,2.43],[-51.87,2.18],[-51.64,2.1],[-51.6,1.85],[-51.37,1.77],[-51.33,1.52],[-51.09,1.43],[-51.05,1.18],[-51.25,1.02],[-51.48,1.11],[-51.67,0.95],[-51.64,0.7],[-51.83,0.54],[-52.06,0.62],[-52.26,0.46],[-52.22,0.21],[-52.41,0.05],[-52.64,0.14],[-52.84,-0.02],[-53.07,0.06],[-53.11,0.31],[-53.34,0.4],[-53.53,0.24],[-53.49,-0.01],[-53.68,-0.17],[-53.91,-0.08],[-53.95,0.16],[-54.18,0.25],[-54.37,0.09],[-54.33,-0.16],[-54.1,-0.24],[-54.07,-0.49],[-53.84,-0.58],[-53.8,-0.83],[-53.57,-0.91],[-53.53,-1.16],[-53.72,-1.32],[-53.95,-1.23],[-54.14,-1.39],[-54.37,-1.31],[-54.41,-1.06],[-54.64,-0.97]],[[-63.99,5.66],[-64.02,5.88],[-63.85,6.04],[-63.65,5.97],[-63.47,6.12],[-63.27,6.05],[-63.24,5.82],[-63.41,5.67],[-63.61,5.74],[-63.79,5.58],[-63.99,5.66]],[[-64.27,3.37],[-64.47,3.47],[-64.65,3.34],[-64.86,3.45],[-64.89,3.68],[-65.1,3.78],[-65.13,4.01],[-65.34,4.12],[-65.37,4.35],[-65.19,4.47],[-64.98,4.37],[-64.8,4.49],[-64.83,4.72],[-64.66,4.84],[-64.69,5.07],[-64.51,5.19],[-64.31,5.12],[-64.28,4.89],[-64.07,4.82],[-64.04,4.59],[-64.22,4.44],[-64.19,4.21],[-64.36,4.05],[-64.33,3.82],[-64.13,3.75],[-64.09,3.52],[-64.27,3.37]],[[-50.84,-5.73],[-50.61,-5.82],[-50.41,-5.66],[-50.17,-5.75],[-50.13,-6.0],[-49.89,-6.09],[-49.7,-5.93],[-49.46,-6.02],[-49.42,-6.28],[-49.61,-6.44],[-49.57,-6.69],[-49.77,-6.85],[-50.01,-6.76],[-50.05,-6.51],[-50.29,-6.41],[-50.48,-6.57],[-50.72,-6.48],[-50.76,-6.23],[-51.0,-6.14],[-51.04,-5.89],[-50.84,-5.73]],[[-60.66,4.47],[-60.87,4.54],[-61.05,4.39],[-61.26,4.46],[-61.44,4.31],[-61.65,4.38],[-61.83,4.23],[-62.04,4.3],[-62.07,4.53],[-62.28,4.61],[-62.31,4.84],[-62.52,4.92],[-62.55,5.15],[-62.76,5.22],[-62.79,5.45],[-63.0,5.52],[-63.03,5.75],[-62.85,5.91],[-62.89,6.13],[-62.71,6.29],[-62.74,6.52],[-62.57,6.67],[-62.36,6.6],[-62.33,6.37],[-62.12,6.3],[-62.09,6.07],[-61.88,6.0],[-61.7,6.16],[-61.49,6.08],[-61.31,6.24],[-61.34,6.47],[-61.17,6.63],[-60.96,6.55],[-60.78,6.71],[-60.56,6.64],[-60.53,6.41],[-60.32,6.33],[-60.28,6.1],[-60.07,6.03],[-60.04,5.8],[-59.82,5.72],[-59.79,5.49],[-59.57,5.41],[-59.54,5.18],[-59.32,5.1],[-59.29,4.87],[-59.47,4.71],[-59.44,4.47],[-59.62,4.32],[-59.84,4.39],[-60.02,4.24],[-60.23,4.31],[-60.27,4.55],[-60.48,4.62],[-60.66,4.47]],[[-63.37,3.91],[-63.57,3.98],[-63.6,4.21],[-63.81,4.29],[-63.84,4.52],[-63.67,4.67],[-63.46,4.6],[-63.43,4.37],[-63.22,4.29],[-63.19,4.06],[-63.37,3.91]],[[-65.07,5.05],[-65.28,5.16],[-65.31,5.38],[-65.51,5.49],[-65.54,5.72],[-65.75,5.82],[-65.93,5.7],[-66.14,5.81],[-66.17,6.03],[-65.99,6.15],[-65.78,6.05],[-65.6,6.17],[-65.63,6.4],[-65.46,6.52],[-65.25,6.41],[-65.22,6.19],[-65.01,6.08],[-64.98,5.85],[-65.16,5.73],[-65.13,5.51],[-64.92,5.4],[-64.89,5.17],[-65.07,5.05]],[[-53.41,-0.5],[-53.22,-0.34],[-52.99,-0.43],[-52.95,-0.68],[-53.14,-0.84],[-53.38,-0.75],[-53.41,-0.5]],[[-62.37,8.12],[-62.4,8.34],[-62.23,8.5],[-62.02,8.43],[-61.84,8.59],[-61.63,8.52],[-61.6,8.29],[-61.78,8.13],[-61.75,7.91],[-61.92,7.75],[-62.13,7.82],[-62.31,7.67],[-62.52,7.73],[-62.55,7.96],[-62.37,8.12]],[[-58.12,1.05],[-58.15,1.29],[-57.97,1.45],[-57.75,1.36],[-57.71,1.12],[-57.9,0.96],[-58.12,1.05]],[[-61.89,10.3],[-62.07,10.15],[-62.27,10.21],[-62.3,10.43],[-62.13,10.59],[-61.92,10.52],[-61.75,10.68],[-61.54,10.61],[-61.51,10.39],[-61.68,10.24],[-61.89,10.3]],[[-64.41,3.01],[-64.24,3.14],[-64.03,3.06],[-64.0,2.83],[-63.8,2.75],[-63.62,2.91],[-63.42,2.83],[-63.39,2.6],[-63.56,2.44],[-63.77,2.52],[-63.94,2.37],[-64.15,2.44],[-64.18,2.67],[-64.38,2.78],[-64.41,3.01]],[[-56.84,3.76],[-56.65,3.92],[-56.43,3.84],[-56.39,3.6],[-56.58,3.44],[-56.8,3.52],[-56.84,3.76]],[[-66.84,5.08],[-66.62,4.98],[-66.6,4.75],[-66.78,4.62],[-66.99,4.73],[-67.02,4.96],[-66.84,5.08]]],[[[-70.15,10.95],[-69.97,11.06],[-69.99,11.28],[-70.21,11.39],[-70.39,11.27],[-70.37,11.05],[-70.15,10.95]]],[[[153.69,-29.44],[153.71,-29.18],[153.48,-29.04],[153.21,-29.14],[153.18,-29.39],[153.42,-29.54],[153.69,-29.44]]],[[[144.73,-37.7],[144.43,-37.79],[144.37,-38.04],[144.61,-38.2],[144.92,-38.12],[145.16,-38.29],[145.46,-38.2],[145.52,-37.95],[145.28,-37.79],[144.97,-37.87],[144.73,-37.7]]],[[[-79.12,9.68],[-79.32,9.55],[-79.3,9.33],[-79.5,9.2],[-79.47,8.97],[-79.25,8.87],[-79.05,8.99],[-79.07,9.22],[-78.87,9.35],[-78.65,9.25],[-78.45,9.37],[-78.47,9.6],[-78.7,9.7],[-78.89,9.58],[-79.12,9.68]]],[[[121.26,23.11],[121.49,23.22],[121.53,23.44],[121.76,23.54],[121.79,23.76],[121.6,23.88],[121.37,23.78],[121.34,23.56],[121.11,23.46],[121.07,23.24],[121.26,23.11]]],[[[-82.84,28.46],[-83.06,28.36],[-83.08,28.12],[-82.87,27.99],[-82.65,28.09],[-82.63,28.33],[-82.41,28.43],[-82.39,28.66],[-82.6,28.8],[-82.82,28.7],[-82.84,28.46]]],[[[-74.38,40.15],[-74.29,40.37],[-73.98,40.42],[-73.88,40.64],[-73.57,40.69],[-73.35,40.52],[-73.04,40.57],[-72.94,40.79],[-73.15,40.96],[-73.05,41.18],[-73.27,41.35],[-73.59,41.3],[-73.68,41.08],[-74.0,41.03],[-74.1,40.81],[-74.41,40.75],[-74.5,40.54],[-74.81,40.48],[-74.9,40.26],[-74.69,40.1],[-74.38,40.15]]],[[[-79.74,9.53],[-79.96,9.63],[-80.16,9.5],[-80.14,9.28],[-79.92,9.17],[-79.72,9.3],[-79.74,9.53]]],[[[139.7,36.1],[139.46,36.0],[139.45,35.77],[139.67,35.63],[139.65,35.4],[139.87,35.27],[139.86,35.03],[140.08,34.9],[140.32,35.0],[140.33,35.23],[140.11,35.37],[140.13,35.6],[140.36,35.71],[140.59,35.57],[140.83,35.67],[140.85,35.91],[140.62,36.04],[140.38,35.94],[140.16,36.07],[139.92,35.97],[139.7,36.1]]],[[[-70.54,-18.33],[-70.51,-18.58],[-70.27,-18.67],[-70.07,-18.51],[-70.1,-18.27],[-70.33,-18.18],[-70.54,-18.33]]],[[[120.55,22.58],[120.59,22.81],[120.4,22.93],[120.43,23.15],[120.66,23.25],[120.69,23.48],[120.5,23.6],[120.54,23.82],[120.76,23.92],[120.8,24.14],[121.02,24.24],[121.06,24.46],[121.29,24.56],[121.32,24.78],[121.55,24.88],[121.74,24.76],[121.71,24.54],[121.48,24.44],[121.44,24.22],[121.64,24.1],[121.86,24.2],[121.9,24.43],[122.13,24.53],[122.17,24.75],[121.97,24.87],[122.01,25.08],[121.82,25.2],[121.85,25.42],[121.66,25.54],[121.43,25.44],[121.4,25.22],[121.17,25.12],[120.98,25.23],[120.75,25.13],[120.71,24.91],[120.9,24.8],[120.87,24.58],[120.64,24.48],[120.61,24.26],[120.38,24.15],[120.35,23.93],[120.12,23.83],[120.09,23.61],[119.86,23.51],[119.67,23.63],[119.45,23.52],[119.42,23.3],[119.6,23.19],[119.83,23.29],[120.02,23.17],[119.98,22.95],[120.17,22.83],[120.14,22.6],[120.33,22.48],[120.29,22.26],[120.48,22.14],[120.7,22.24],[120.9,22.12],[121.12,22.22],[121.16,22.44],[120.97,22.56],[120.74,22.46],[120.55,22.58]]],[[[-65.25,10.71],[-65.08,10.87],[-65.11,11.08],[-65.31,11.14],[-65.48,11.03],[-65.45,10.82],[-65.25,10.71]]],[[[-98.78,29.4],[-98.52,29.29],[-98.28,29.43],[-98.03,29.31],[-97.79,29.45],[-97.8,29.7],[-97.56,29.83],[-97.58,30.08],[-97.33,30.22],[-97.35,30.47],[-97.61,30.59],[-97.85,30.45],[-98.11,30.57],[-98.35,30.44],[-98.33,30.18],[-98.58,30.05],[-98.56,29.79],[-98.8,29.66],[-98.78,29.4]]],[[[113.32,22.45],[113.52,22.3],[113.48,22.06],[113.68,21.91],[113.91,21.99],[114.11,21.83],[114.34,21.91],[114.37,22.14],[114.6,22.21],[114.63,22.45],[114.43,22.6],[114.2,22.53],[114.01,22.68],[113.78,22.6],[113.58,22.76],[113.35,22.68],[113.32,22.45]]],[[[-64.35,-43.09],[-64.47,-42.88],[-64.74,-42.85],[-64.85,-42.64],[-65.12,-42.61],[-65.27,-42.78],[-65.15,-42.98],[-65.3,-43.15],[-65.18,-43.35],[-64.91,-43.39],[-64.76,-43.22],[-64.5,-43.25],[-64.35,-43.09]]],[[[-65.75,-43.66],[-65.64,-43.86],[-65.36,-43.9],[-65.21,-43.73],[-65.33,-43.52],[-65.6,-43.49],[-65.75,-43.66]]],[[[153.3,-28.38],[153.27,-28.63],[153.51,-28.78],[153.77,-28.68],[153.8,-28.42],[153.56,-28.27],[153.59,-28.02],[153.36,-27.87],[153.09,-27.98],[153.06,-28.23],[153.3,-28.38]]],[[[150.6,-34.71],[150.56,-34.96],[150.27,-35.06],[150.22,-35.32],[150.47,-35.47],[150.77,-35.37],[150.81,-35.12],[151.1,-35.02],[151.13,-34.76],[150.88,-34.61],[150.6,-34.71]]],[[[151.21,-34.25],[151.25,-34.0],[151.53,-33.9],[151.57,-33.64],[151.32,-33.49],[151.04,-33.59],[151.0,-33.84],[150.71,-33.94],[150.68,-34.2],[150.92,-34.35],[151.21,-34.25]]],[[[-64.83,-42.27],[-64.71,-42.48],[-64.45,-42.51],[-64.33,-42.72],[-64.07,-42.75],[-63.95,-42.95],[-63.69,-42.98],[-63.55,-42.82],[-63.67,-42.62],[-63.53,-42.45],[-63.65,-42.25],[-63.51,-42.08],[-63.63,-41.88],[-63.88,-41.85],[-64.02,-42.01],[-64.28,-41.98],[-64.42,-42.14],[-64.68,-42.11],[-64.8,-41.91],[-64.66,-41.74],[-64.77,-41.54],[-65.03,-41.5],[-65.17,-41.66],[-65.06,-41.87],[-65.2,-42.03],[-65.09,-42.24],[-64.83,-42.27]]],[[[-41.54,-4.71],[-41.49,-4.96],[-41.25,-5.05],[-41.05,-4.89],[-41.1,-4.63],[-41.34,-4.54],[-41.54,-4.71]]],[[[-61.97,12.21],[-61.94,11.99],[-61.73,11.93],[-61.55,12.08],[-61.58,12.3],[-61.79,12.36],[-61.97,12.21]]],[[[-80.66,28.99],[-80.88,28.9],[-80.9,28.66],[-80.7,28.53],[-80.49,28.62],[-80.47,28.86],[-80.66,28.99]]],[[[137.38,34.84],[137.39,35.07],[137.17,35.19],[137.18,35.42],[136.96,35.55],[136.73,35.44],[136.73,35.21],[136.51,35.11],[136.51,34.88],[136.29,34.77],[136.28,34.54],[136.5,34.42],[136.72,34.52],[136.72,34.75],[136.94,34.86],[137.16,34.73],[137.38,34.84]]],[[[135.85,33.88],[136.06,33.76],[136.28,33.86],[136.28,34.09],[136.07,34.21],[135.85,34.11],[135.85,33.88]]],[[[-32.62,-4.15],[-32.38,-4.23],[-32.19,-4.07],[-32.24,-3.82],[-32.48,-3.73],[-32.67,-3.9],[-32.62,-4.15]]],[[[-29.4,-20.78],[-29.16,-20.84],[-28.97,-20.68],[-29.02,-20.45],[-29.25,-20.39],[-29.3,-20.16],[-29.54,-20.1],[-29.73,-20.26],[-29.68,-20.49],[-29.45,-20.55],[-29.4,-20.78]]],[[[18.61,-33.64],[18.33,-33.65],[18.21,-33.84],[18.38,-34.03],[18.66,-34.03],[18.77,-33.83],[18.61,-33.64]]],[[[-64.84,32.47],[-65.11,32.44],[-65.22,32.26],[-65.07,32.11],[-64.81,32.13],[-64.69,32.31],[-64.84,32.47]]],[[[135.43,33.9],[135.43,34.13],[135.21,34.25],[135.0,34.14],[135.0,33.92],[135.21,33.8],[135.43,33.9]]],[[[135.43,34.81],[135.43,34.58],[135.64,34.46],[135.85,34.56],[135.86,34.79],[135.64,34.91],[135.43,34.81]]],[[[-71.67,11.9],[-71.89,12.0],[-72.08,11.88],[-72.05,11.67],[-71.84,11.56],[-71.65,11.68],[-71.67,11.9]]],[[[138.5,35.12],[138.72,34.99],[138.95,35.09],[138.97,35.33],[138.75,35.46],[138.51,35.35],[138.5,35.12]]],[[[-82.13,26.28],[-81.93,26.15],[-81.72,26.25],[-81.7,26.49],[-81.9,26.62],[-82.12,26.51],[-82.13,26.28]]]]}}]}