{"type":"FeatureCollection","features":[{"type":"Feature","properties":{},"geometry":{"type":"MultiPolygon","coordinates":[[[[48.24,40.57],[49.0,40.28],[49.67,40.64],[49.1,41.12],[49.28,41.32],[49.15,41.54],[47.93,42.08],[47.83,42.73],[47.51,42.75],[46.44,43.47],[45.63,43.31],[45.01,43.76],[44.2,43.59],[44.05,43.81],[43.26,44.05],[43.11,44.68],[42.79,44.69],[42.63,44.49],[42.31,44.49],[42.15,44.71],[41.83,44.71],[41.67,44.51],[40.88,44.73],[40.24,44.34],[39.42,44.58],[39.26,44.38],[38.94,44.4],[36.73,45.46],[35.9,45.27],[35.72,45.47],[35.38,45.47],[35.23,45.27],[35.93,44.86],[36.76,45.05],[36.93,44.85],[37.78,44.63],[37.96,44.02],[38.78,44.2],[38.96,43.58],[40.25,43.13],[41.36,42.47],[41.68,42.45],[41.84,42.65],[42.61,42.41],[42.76,42.2],[42.61,41.99],[41.83,41.83],[41.67,41.64],[41.83,41.43],[42.6,41.59],[43.2,41.14],[43.97,41.31],[44.56,40.86],[45.33,41.02],[46.36,40.31],[46.67,40.29],[46.84,40.48],[46.7,40.7],[46.87,40.9],[47.63,40.63],[47.8,40.82],[48.11,40.79],[48.24,40.57]]],[[[9.33,39.94],[9.55,39.78],[9.86,39.85],[9.94,40.09],[9.72,40.25],[9.41,40.18],[9.33,39.94]]],[[[180.0,63.14],[179.01,63.52],[179.31,63.73],[179.06,63.94],[179.36,64.15],[179.11,64.36],[179.42,64.57],[179.16,64.78],[178.58,64.78],[178.31,65.0],[176.84,64.78],[176.55,64.99],[175.97,64.98],[175.68,64.77],[175.97,64.56],[175.69,64.34],[175.97,64.14],[174.05,63.47],[174.34,63.26],[174.88,63.28],[175.98,63.72],[176.53,63.73],[178.42,63.11],[178.14,62.9],[176.8,63.1],[175.72,62.67],[174.37,62.85],[174.11,62.63],[173.58,62.61],[173.33,62.4],[173.62,62.2],[173.38,61.98],[172.1,61.72],[171.88,61.5],[172.17,61.31],[171.94,61.09],[168.18,61.69],[167.85,61.88],[168.78,62.37],[168.45,62.56],[168.66,62.78],[169.2,62.82],[169.42,63.04],[168.2,63.39],[169.19,63.88],[168.85,64.07],[168.28,64.04],[168.07,63.81],[166.75,63.49],[166.55,63.26],[165.1,63.35],[164.92,63.12],[164.38,63.06],[164.01,63.24],[162.77,62.9],[161.47,63.18],[160.93,63.12],[160.79,62.88],[159.6,62.5],[159.47,62.26],[158.05,62.28],[157.94,62.04],[157.43,61.96],[157.32,61.72],[155.92,61.71],[155.83,61.47],[155.34,61.39],[155.25,61.15],[155.65,60.99],[155.56,60.76],[154.21,60.73],[154.14,60.49],[153.67,60.4],[153.27,60.55],[152.28,60.12],[151.01,60.3],[151.06,60.54],[150.64,60.68],[149.69,60.23],[148.88,60.74],[146.66,60.65],[145.78,61.15],[145.33,61.03],[145.33,60.78],[144.46,60.3],[143.15,60.4],[143.13,60.64],[142.67,60.76],[142.25,60.63],[142.27,60.38],[140.98,60.23],[141.02,59.99],[140.24,59.48],[140.29,59.24],[139.89,59.1],[138.95,59.54],[138.56,59.4],[138.62,59.17],[137.4,58.98],[137.47,58.74],[137.09,58.6],[136.13,59.01],[136.06,59.25],[136.75,59.78],[136.68,60.02],[137.07,60.16],[137.0,60.4],[135.98,60.82],[135.9,61.06],[136.3,61.21],[136.22,61.45],[136.63,61.6],[136.56,61.85],[136.97,62.0],[136.9,62.24],[137.32,62.39],[137.25,62.63],[136.15,63.06],[136.06,63.3],[135.54,63.39],[134.15,63.17],[132.98,63.57],[131.61,63.32],[130.4,63.7],[129.05,63.43],[127.8,63.79],[127.63,64.02],[127.07,64.08],[125.76,63.77],[125.94,63.54],[127.2,63.2],[127.37,62.96],[127.0,62.78],[127.85,62.26],[127.48,62.08],[126.27,62.43],[125.05,62.12],[123.81,62.44],[123.47,62.26],[123.66,62.03],[124.19,61.98],[124.37,61.75],[124.04,61.57],[124.9,61.07],[123.75,60.76],[123.25,60.8],[123.07,61.02],[122.56,61.06],[122.25,60.88],[121.04,61.17],[120.84,61.4],[121.15,61.58],[120.94,61.81],[120.42,61.84],[120.2,62.06],[119.68,62.09],[119.38,61.9],[118.1,62.17],[117.86,62.39],[118.16,62.58],[117.92,62.8],[119.07,63.17],[118.83,63.39],[118.28,63.42],[117.13,63.04],[117.38,62.82],[117.09,62.62],[117.33,62.41],[116.24,62.03],[117.25,61.58],[116.97,61.38],[116.46,61.4],[116.19,61.2],[116.43,60.99],[116.16,60.79],[115.66,60.81],[115.42,61.02],[114.16,60.84],[113.92,60.64],[114.17,60.43],[113.2,60.04],[111.98,60.25],[111.72,60.45],[109.83,60.03],[109.56,60.23],[109.76,60.43],[109.49,60.63],[108.31,60.4],[108.02,60.6],[108.22,60.81],[107.93,61.0],[107.44,60.98],[107.24,60.77],[104.79,60.06],[102.12,60.7],[101.04,60.41],[99.9,60.72],[98.87,60.4],[98.09,60.51],[97.47,59.99],[96.68,60.09],[95.73,59.73],[95.38,59.89],[94.94,59.82],[94.87,59.59],[94.43,59.51],[94.07,59.67],[93.64,59.6],[93.57,59.36],[93.14,59.28],[92.47,59.83],[92.53,60.07],[91.33,60.29],[90.89,60.21],[90.15,60.74],[90.2,60.98],[88.94,61.19],[88.01,60.76],[87.98,60.53],[87.54,60.43],[87.51,60.19],[86.23,60.13],[86.21,59.89],[85.77,59.79],[85.36,59.93],[84.49,59.47],[79.85,59.65],[79.04,59.15],[77.76,59.26],[77.36,59.12],[77.39,58.88],[76.62,58.37],[76.66,58.12],[75.45,57.95],[75.49,57.71],[74.77,57.17],[73.54,57.23],[73.49,57.48],[73.05,57.58],[72.37,57.03],[71.14,57.07],[70.77,56.92],[70.84,56.67],[71.27,56.58],[71.34,56.33],[71.76,56.24],[72.12,56.39],[73.02,55.95],[74.17,56.14],[74.58,56.04],[74.63,55.79],[75.04,55.68],[75.41,55.83],[75.81,55.72],[75.85,55.47],[77.03,55.39],[77.06,55.14],[77.46,55.03],[77.49,54.78],[78.29,54.29],[78.32,54.04],[77.96,53.91],[77.98,53.65],[78.36,53.54],[78.39,53.28],[78.03,53.15],[78.05,52.89],[78.43,52.78],[78.45,52.52],[78.1,52.39],[78.13,52.13],[78.5,52.02],[78.52,51.76],[78.17,51.63],[78.2,51.37],[78.56,51.25],[78.58,51.0],[76.14,50.78],[75.37,51.25],[75.03,51.1],[74.66,51.21],[74.05,50.66],[73.25,51.12],[73.2,51.37],[72.83,51.47],[72.5,51.32],[72.98,50.71],[71.96,50.5],[72.43,49.89],[72.12,49.73],[72.17,49.48],[71.18,49.26],[71.24,49.01],[70.93,48.85],[70.99,48.59],[70.68,48.43],[70.74,48.18],[70.2,47.6],[70.67,47.0],[69.73,46.77],[69.79,46.51],[70.14,46.42],[69.97,45.75],[70.31,45.66],[70.77,45.05],[70.48,44.89],[70.14,44.98],[69.64,44.4],[69.3,44.5],[68.41,44.25],[67.66,44.68],[67.19,44.09],[67.26,43.84],[67.59,43.75],[67.66,43.5],[67.39,43.33],[66.46,43.33],[65.6,43.07],[64.85,43.47],[64.6,43.3],[63.08,43.17],[62.67,42.57],[62.75,42.32],[63.09,42.25],[63.17,42.0],[62.92,41.83],[62.59,41.9],[62.51,42.14],[61.61,42.1],[61.22,41.5],[59.77,41.33],[58.44,40.91],[58.12,40.96],[58.02,41.2],[57.15,41.13],[56.17,41.96],[55.85,42.01],[55.63,41.82],[54.86,42.15],[54.65,41.96],[54.32,42.01],[54.11,41.82],[54.23,41.58],[54.55,41.54],[55.1,41.02],[53.33,40.4],[53.44,40.17],[53.76,40.12],[53.87,39.89],[54.19,39.84],[54.3,39.61],[54.61,39.56],[54.72,39.33],[55.03,39.28],[55.14,39.04],[55.45,38.99],[55.56,38.76],[57.1,37.83],[57.2,37.59],[56.99,37.41],[57.49,36.88],[58.82,37.06],[58.91,36.82],[59.6,36.46],[59.94,37.05],[59.85,37.29],[59.03,37.24],[58.94,37.48],[57.42,38.43],[57.32,38.67],[57.01,38.72],[56.91,38.96],[56.08,38.89],[55.13,39.7],[55.86,40.02],[56.6,39.68],[57.12,39.15],[57.43,39.09],[57.65,39.27],[58.37,38.92],[58.59,39.1],[58.9,39.04],[59.4,38.49],[59.71,38.43],[59.93,38.61],[60.64,38.24],[60.86,38.41],[61.17,38.35],[61.26,38.1],[62.1,38.14],[62.18,37.9],[62.49,37.83],[63.26,38.1],[63.95,37.71],[64.18,37.88],[64.49,37.8],[64.56,37.56],[64.87,37.48],[65.1,37.65],[65.41,37.57],[65.47,37.32],[65.78,37.24],[66.01,37.41],[66.32,37.33],[66.38,37.08],[66.68,37.0],[66.92,37.17],[67.22,37.08],[67.29,36.84],[67.05,36.67],[66.21,36.67],[65.81,36.1],[64.98,36.09],[63.71,35.74],[63.63,35.09],[64.44,35.11],[64.36,34.46],[64.65,34.38],[65.07,33.82],[66.38,33.91],[66.44,33.67],[67.41,32.95],[68.15,33.18],[68.94,33.16],[68.99,32.92],[69.93,32.18],[70.34,32.73],[69.97,33.3],[70.72,33.52],[71.0,33.43],[71.43,33.97],[71.39,34.22],[70.58,34.25],[70.53,34.49],[71.83,34.77],[72.11,34.67],[72.15,34.43],[72.96,34.39],[73.63,33.46],[73.9,33.36],[74.15,33.51],[74.42,33.41],[74.45,33.17],[75.24,33.12],[75.86,32.19],[76.63,32.13],[76.66,31.89],[76.92,31.78],[76.94,31.54],[76.7,31.41],[77.0,30.83],[77.5,30.86],[77.76,30.76],[77.78,30.52],[78.53,30.45],[78.81,29.88],[79.55,29.8],[79.56,29.57],[80.05,29.59],[80.55,29.15],[81.51,29.2],[81.76,28.62],[82.23,28.64],[82.71,28.2],[84.83,28.37],[85.28,27.93],[85.74,27.93],[85.73,27.7],[85.96,27.59],[86.42,27.59],[86.41,27.36],[86.64,27.25],[88.76,27.35],[89.2,26.88],[89.67,26.87],[90.18,27.33],[92.31,27.15],[92.55,27.26],[92.57,27.49],[93.3,27.58],[93.58,28.15],[94.31,28.24],[94.6,28.8],[94.85,28.9],[95.29,28.42],[96.25,28.36],[96.23,28.13],[96.94,27.96],[96.92,27.73],[97.14,27.6],[97.39,27.7],[97.42,27.93],[98.15,27.99],[98.58,27.49],[99.06,27.45],[99.03,27.22],[99.66,26.33],[99.91,26.43],[99.94,26.67],[99.71,26.8],[99.74,27.04],[99.98,27.13],[100.21,27.0],[100.73,27.42],[101.16,26.9],[101.41,27.0],[101.43,27.23],[101.96,27.64],[101.78,28.25],[102.03,28.33],[102.06,28.56],[102.53,28.51],[102.23,27.96],[102.65,27.45],[102.9,27.54],[102.93,27.77],[102.71,27.91],[102.73,28.14],[103.45,28.18],[103.28,28.77],[102.58,28.97],[102.21,29.92],[102.46,30.01],[102.49,30.23],[102.74,30.32],[102.77,30.54],[103.02,30.63],[103.05,30.85],[103.3,30.93],[104.44,32.35],[104.69,32.43],[104.52,32.99],[105.06,33.36],[104.89,33.92],[105.14,33.99],[105.45,34.48],[104.75,34.68],[104.77,34.89],[105.88,35.79],[106.49,34.97],[106.74,35.04],[106.77,35.25],[106.16,36.06],[106.24,36.28],[105.64,36.51],[105.72,36.72],[105.54,36.87],[104.87,36.3],[105.3,36.22],[105.48,36.07],[105.4,35.85],[104.71,35.86],[104.43,36.37],[103.83,36.01],[103.39,36.08],[103.2,36.23],[103.28,36.45],[103.99,36.45],[104.06,36.67],[103.77,37.19],[103.84,37.42],[102.28,37.79],[102.1,38.78],[101.9,38.93],[101.28,38.55],[100.31,38.69],[99.96,39.22],[98.69,39.27],[98.31,39.81],[95.45,40.01],[95.03,40.55],[94.74,40.45],[94.5,40.6],[94.54,40.84],[94.1,41.38],[94.15,41.62],[93.9,41.77],[93.95,42.01],[94.79,42.05],[94.85,42.3],[94.04,42.5],[94.09,42.74],[94.95,42.78],[95.0,43.03],[94.55,43.57],[94.24,43.48],[93.98,43.63],[94.03,43.87],[94.91,43.91],[95.36,43.36],[95.66,43.45],[95.72,43.69],[95.47,43.85],[95.52,44.09],[94.7,44.3],[94.39,44.21],[93.92,44.76],[91.86,44.82],[91.58,44.96],[91.62,45.21],[91.94,45.31],[91.98,45.56],[91.11,45.75],[91.15,46.0],[92.07,46.06],[92.35,45.91],[92.3,45.66],[93.17,45.46],[93.12,45.21],[93.39,45.06],[93.71,45.16],[93.97,45.0],[94.66,45.43],[94.92,45.28],[94.86,45.04],[94.55,44.95],[94.5,44.7],[94.76,44.55],[95.64,44.58],[95.49,45.22],[95.81,45.31],[96.07,45.15],[97.51,45.09],[97.94,44.54],[98.8,44.54],[100.12,44.22],[100.81,44.61],[100.88,44.84],[100.11,45.09],[99.8,45.01],[99.4,45.57],[98.52,45.58],[98.28,45.74],[98.35,45.98],[100.34,45.8],[102.2,45.36],[102.9,45.73],[102.99,45.96],[103.3,46.02],[103.52,45.86],[104.23,46.21],[104.45,46.04],[105.28,45.99],[105.61,45.43],[107.91,45.03],[108.1,44.86],[108.0,44.64],[108.67,44.36],[108.57,44.14],[108.83,43.58],[109.58,43.51],[109.83,42.96],[110.5,43.28],[110.67,43.11],[110.56,42.89],[111.18,42.61],[111.13,42.02],[110.42,42.09],[110.04,41.82],[109.42,42.1],[109.04,41.83],[109.29,41.29],[110.01,41.23],[110.24,40.69],[110.67,40.58],[111.04,40.84],[111.47,40.73],[112.1,41.03],[112.26,40.87],[111.89,40.61],[111.78,40.41],[111.94,40.24],[111.47,39.78],[111.73,38.88],[111.28,38.41],[111.54,37.53],[111.89,37.79],[111.68,38.31],[111.79,38.52],[112.19,38.41],[112.54,38.67],[112.34,39.19],[112.45,39.4],[113.42,39.95],[113.57,39.79],[113.21,39.54],[113.15,38.97],[114.07,38.59],[114.0,38.03],[114.31,37.54],[114.0,37.11],[114.56,36.3],[115.88,36.0],[116.12,36.05],[116.16,36.24],[116.83,36.18],[116.86,36.37],[117.37,36.64],[117.73,36.16],[118.23,36.43],[118.58,35.94],[119.08,36.21],[119.69,35.95],[119.12,35.31],[119.43,34.63],[120.04,34.37],[120.3,33.49],[120.9,33.22],[120.38,32.75],[120.53,32.4],[120.24,31.96],[120.72,31.1],[120.43,30.66],[120.92,29.89],[122.26,31.39],[122.07,31.5],[121.63,32.59],[121.01,32.68],[121.31,33.17],[121.12,33.26],[121.0,33.8],[120.41,34.06],[120.45,34.26],[120.97,34.71],[122.03,34.7],[122.34,35.17],[123.01,35.26],[123.84,36.1],[123.71,36.56],[123.35,36.92],[123.67,37.37],[123.15,37.99],[123.83,38.84],[124.41,38.79],[124.64,38.5],[124.47,37.99],[124.67,37.91],[124.63,37.73],[126.1,37.66],[126.13,37.44],[124.48,36.0],[124.44,35.82],[124.64,35.72],[124.36,35.44],[124.32,35.26],[124.52,35.16],[124.21,34.69],[124.73,34.01],[124.41,33.54],[124.77,33.14],[124.9,32.64],[125.54,32.52],[125.5,32.33],[125.7,32.22],[125.42,31.93],[125.38,31.73],[125.58,31.62],[125.3,31.32],[125.26,31.12],[125.46,31.01],[125.15,30.51],[125.51,30.08],[126.39,30.04],[126.95,30.64],[127.64,30.71],[127.92,31.0],[128.57,30.86],[129.11,31.24],[129.47,30.8],[129.92,30.77],[129.88,30.56],[130.09,30.44],[130.04,30.24],[129.35,30.18],[129.47,29.65],[128.65,28.96],[128.61,28.75],[128.81,28.63],[129.34,29.02],[129.79,28.98],[129.67,29.53],[130.25,30.12],[130.7,30.08],[131.24,30.46],[131.12,30.99],[131.66,31.36],[131.54,31.89],[132.12,32.45],[133.29,32.45],[133.17,32.97],[133.47,33.24],[134.39,33.16],[135.0,33.92],[135.63,33.1],[136.06,33.53],[136.49,33.51],[136.71,34.07],[137.36,34.14],[137.37,34.37],[137.59,34.48],[138.92,34.39],[139.14,34.26],[139.33,33.66],[139.78,33.63],[139.38,34.6],[140.07,34.66],[140.08,34.9],[140.32,35.0],[140.78,34.96],[140.59,35.57],[141.29,35.64],[140.9,36.62],[141.41,37.06],[141.43,37.3],[140.99,37.8],[141.01,38.04],[141.74,38.11],[142.04,38.69],[142.3,38.79],[142.11,39.41],[142.37,39.51],[142.4,39.75],[141.73,40.62],[141.75,40.86],[141.51,40.99],[141.82,41.57],[141.35,42.07],[141.37,42.3],[142.16,42.39],[142.62,41.89],[142.89,42.0],[143.14,41.87],[143.72,42.32],[143.75,42.56],[144.56,42.63],[144.59,42.87],[145.95,42.9],[146.31,43.49],[147.16,43.55],[146.99,44.17],[147.64,44.61],[147.68,44.85],[148.55,44.9],[148.96,45.48],[149.27,45.57],[150.11,45.38],[150.42,45.47],[150.86,46.04],[151.18,46.14],[151.04,46.76],[150.78,46.91],[150.08,46.48],[149.64,45.91],[149.33,45.81],[149.07,45.96],[148.75,45.86],[148.7,45.62],[147.82,45.57],[147.42,44.99],[147.12,44.89],[146.86,45.03],[146.22,44.58],[145.42,44.75],[144.8,44.3],[144.54,44.44],[143.71,44.36],[143.46,44.49],[143.49,44.72],[142.69,44.87],[142.49,45.47],[142.23,45.59],[142.57,46.17],[142.86,46.28],[143.35,45.8],[143.97,46.25],[144.0,46.49],[143.51,46.97],[143.54,47.21],[143.03,47.69],[143.06,47.92],[142.8,48.04],[143.49,48.96],[144.07,48.95],[144.27,48.36],[144.85,48.35],[145.24,48.92],[144.97,49.05],[145.01,49.28],[145.32,49.39],[145.36,49.62],[146.28,49.71],[146.32,49.94],[146.65,50.04],[147.25,50.02],[148.07,50.92],[149.03,50.99],[149.09,51.22],[149.84,51.64],[149.9,51.87],[151.09,52.62],[151.16,52.84],[150.84,52.97],[150.87,53.19],[151.24,53.29],[151.28,53.51],[150.66,53.99],[151.11,54.53],[150.46,55.02],[150.5,55.25],[150.15,55.37],[150.61,55.93],[150.26,56.06],[150.29,56.29],[150.69,56.39],[150.73,56.62],[150.03,57.12],[150.07,57.35],[148.9,57.51],[148.93,57.74],[148.54,57.87],[147.74,57.89],[147.76,58.12],[147.37,58.25],[145.33,58.15],[144.51,58.62],[142.86,58.6],[142.84,58.84],[143.25,58.96],[143.23,59.2],[145.33,59.34],[146.16,58.86],[147.02,59.33],[147.82,58.84],[149.91,58.9],[152.76,58.64],[153.71,59.07],[154.9,58.86],[155.89,59.27],[155.97,59.5],[154.76,59.72],[154.84,59.95],[155.86,60.36],[155.95,60.6],[156.43,60.69],[156.53,60.92],[157.01,61.0],[157.11,61.24],[157.61,61.32],[157.71,61.56],[158.21,61.64],[159.48,61.39],[159.36,61.15],[159.73,60.99],[159.6,60.75],[159.97,60.59],[159.85,60.35],[160.2,60.19],[160.69,60.26],[160.82,60.49],[161.3,60.55],[161.65,60.39],[161.52,60.15],[161.04,60.09],[160.91,59.86],[160.43,59.79],[160.31,59.56],[159.84,59.49],[159.72,59.26],[159.26,59.19],[159.15,58.96],[157.59,58.27],[157.5,58.04],[156.27,58.03],[156.18,57.8],[156.53,57.65],[156.45,57.42],[155.51,57.03],[155.44,56.8],[155.78,56.65],[155.7,56.42],[155.29,56.34],[155.21,56.11],[155.55,55.97],[155.0,55.43],[155.58,54.92],[155.05,54.39],[155.37,54.25],[155.3,54.03],[155.61,53.89],[155.52,53.66],[155.82,53.52],[155.73,53.29],[156.01,53.15],[155.92,52.92],[156.21,52.77],[156.12,52.54],[156.4,52.39],[155.85,51.85],[156.32,51.32],[156.23,51.09],[155.23,51.08],[155.14,50.85],[155.42,50.7],[155.34,50.47],[154.98,50.38],[154.89,50.15],[155.17,50.0],[155.09,49.77],[154.11,49.75],[154.03,49.52],[154.3,49.37],[154.22,49.13],[153.26,49.11],[153.19,48.87],[154.07,48.66],[155.28,49.38],[155.36,49.61],[155.71,49.69],[155.8,49.93],[156.16,50.01],[156.24,50.24],[156.61,50.32],[156.7,50.55],[157.06,50.63],[157.15,50.86],[157.52,50.94],[157.61,51.17],[158.93,51.84],[159.03,52.07],[158.75,52.23],[158.86,52.46],[160.22,53.12],[160.33,53.34],[160.05,53.5],[160.67,54.01],[160.38,54.17],[160.49,54.39],[161.86,54.2],[162.79,54.54],[162.91,54.76],[162.63,54.92],[162.75,55.14],[161.76,55.4],[161.88,55.62],[162.83,55.96],[163.54,55.85],[164.23,56.34],[163.94,56.51],[164.08,56.73],[163.78,56.89],[163.05,57.0],[163.76,57.51],[163.45,57.67],[163.59,57.9],[163.28,58.07],[162.83,58.01],[162.51,58.17],[162.65,58.4],[163.87,58.35],[164.63,58.85],[165.09,58.9],[165.25,59.12],[164.94,59.3],[165.09,59.52],[166.36,59.44],[166.53,59.67],[168.34,60.24],[168.53,60.46],[169.02,60.5],[169.32,60.31],[169.13,60.09],[169.42,59.91],[170.67,59.79],[170.88,60.0],[170.59,60.19],[170.8,60.41],[177.58,62.48],[179.64,62.07],[179.92,62.27],[179.69,62.48],[179.98,62.68],[179.75,62.89],[180.0,63.14]],[[161.73,59.76],[162.07,59.59],[161.93,59.36],[161.46,59.3],[161.12,59.46],[161.25,59.69],[161.73,59.76]]],[[[152.1,64.94],[151.62,65.09],[151.07,64.99],[151.01,64.74],[151.49,64.59],[152.03,64.7],[152.1,64.94]]],[[[19.64,50.5],[18.79,50.2],[16.71,50.69],[16.82,50.91],[16.57,51.06],[16.69,51.27],[17.06,51.33],[17.18,51.53],[16.8,52.05],[16.92,52.26],[16.03,52.51],[16.65,52.98],[15.38,53.17],[14.97,53.67],[16.09,54.38],[17.12,54.34],[17.76,54.79],[18.15,54.83],[18.41,54.68],[18.28,54.48],[19.19,54.22],[20.1,54.51],[20.24,54.7],[21.28,54.62],[21.42,54.82],[21.16,54.98],[21.3,55.17],[21.7,55.2],[21.84,55.4],[21.47,55.9],[21.61,56.09],[21.35,56.24],[21.5,56.43],[21.23,56.58],[21.38,56.77],[21.11,56.92],[20.71,56.88],[20.56,56.7],[20.83,56.55],[20.69,56.36],[21.07,55.86],[20.93,55.67],[20.53,55.63],[20.39,55.44],[20.65,55.29],[20.51,55.09],[19.86,55.21],[18.94,54.92],[18.54,55.42],[18.68,55.61],[18.41,55.76],[18.54,55.96],[18.28,56.1],[18.41,56.3],[17.47,56.54],[17.6,56.73],[17.33,56.87],[17.46,57.06],[17.87,57.11],[18.28,56.63],[18.68,56.68],[18.81,56.87],[18.54,57.01],[18.68,57.2],[19.23,57.43],[18.27,57.68],[17.32,57.39],[16.9,57.86],[17.58,58.28],[17.3,58.42],[17.43,58.61],[16.74,58.69],[16.6,58.51],[16.88,58.37],[16.21,57.95],[16.64,57.48],[15.98,57.05],[16.25,56.91],[16.13,56.72],[15.73,56.67],[15.6,56.47],[15.88,56.34],[15.75,56.14],[14.02,56.25],[13.91,56.05],[14.18,55.91],[14.06,55.72],[13.67,55.66],[13.24,56.13],[13.36,56.32],[13.08,56.46],[13.19,56.65],[12.92,56.78],[13.03,56.98],[12.07,57.17],[12.19,57.37],[11.73,57.81],[11.84,58.01],[11.56,58.13],[11.67,58.32],[11.38,58.44],[11.49,58.63],[11.2,58.76],[11.31,58.94],[11.02,59.06],[11.13,59.25],[10.84,59.37],[10.95,59.56],[10.25,59.61],[10.14,59.42],[10.43,59.3],[10.32,59.12],[9.23,59.09],[7.26,58.03],[6.96,58.14],[7.06,58.34],[5.5,58.73],[6.05,59.14],[5.12,59.44],[5.68,59.85],[5.2,60.36],[4.82,60.34],[4.73,60.15],[5.02,59.98],[4.46,59.58],[4.75,59.41],[4.66,59.22],[4.94,59.06],[4.85,58.86],[5.32,58.34],[6.31,58.23],[6.58,58.06],[6.49,57.87],[7.45,57.72],[7.84,57.8],[7.93,57.99],[9.0,58.03],[9.1,58.22],[9.5,58.29],[9.6,58.48],[9.31,58.6],[9.41,58.79],[10.51,58.81],[10.98,58.38],[10.87,58.19],[11.16,58.06],[11.05,57.87],[9.97,57.86],[9.37,57.4],[8.31,57.37],[7.74,56.9],[6.41,56.98],[5.6,56.67],[4.72,56.97],[4.62,57.53],[4.34,57.7],[3.05,57.95],[2.24,57.68],[1.29,57.96],[0.48,57.67],[-0.19,57.78],[-0.26,57.58],[-1.06,57.28],[-1.61,57.79],[-3.0,58.0],[-2.5,58.46],[-2.82,58.61],[-2.76,58.81],[-1.49,59.37],[-1.42,59.57],[-1.03,59.61],[-0.97,59.81],[-0.58,59.85],[-0.51,60.05],[-0.83,60.2],[-0.76,60.4],[-0.37,60.44],[-0.3,60.64],[-0.62,60.79],[-0.55,60.99],[-1.28,61.1],[-1.35,60.9],[-2.67,60.37],[-2.74,60.17],[-1.68,59.92],[-2.2,59.47],[-2.92,59.57],[-3.75,59.26],[-4.48,59.36],[-4.53,59.15],[-3.48,58.91],[-3.53,58.71],[-4.97,58.89],[-5.79,58.56],[-6.51,58.64],[-6.56,58.43],[-6.94,58.37],[-7.67,58.44],[-7.71,58.23],[-7.36,58.09],[-7.4,57.88],[-7.78,57.81],[-7.82,57.6],[-7.48,57.46],[-7.52,57.25],[-7.89,57.17],[-8.34,56.67],[-7.3,56.46],[-7.33,56.25],[-6.72,55.74],[-6.76,55.52],[-8.5,55.59],[-8.54,55.37],[-9.29,54.99],[-9.32,54.77],[-8.99,54.63],[-9.02,54.41],[-10.75,54.44],[-10.77,54.21],[-10.44,54.08],[-10.84,53.54],[-10.21,53.03],[-10.24,52.81],[-10.95,52.4],[-10.97,52.17],[-10.65,52.03],[-10.38,51.43],[-8.77,51.18],[-8.07,51.58],[-8.03,51.81],[-7.39,51.74],[-7.42,51.51],[-7.76,51.43],[-7.52,50.83],[-8.22,50.43],[-7.99,49.82],[-9.03,49.09],[-9.05,48.85],[-8.76,48.71],[-8.78,48.47],[-9.11,48.38],[-8.87,47.76],[-9.53,47.33],[-9.55,47.1],[-9.26,46.95],[-9.29,46.71],[-9.6,46.62],[-9.36,45.99],[-10.01,45.55],[-9.77,44.92],[-10.4,44.48],[-10.42,44.24],[-10.14,44.09],[-10.48,43.5],[-9.95,42.97],[-9.97,42.72],[-10.27,42.62],[-10.29,42.37],[-10.01,42.23],[-10.03,41.98],[-10.33,41.88],[-10.35,41.63],[-10.08,41.49],[-10.1,41.24],[-10.39,41.13],[-10.41,40.89],[-10.14,40.74],[-10.16,40.5],[-10.45,40.39],[-10.22,39.75],[-10.51,39.64],[-10.83,39.03],[-10.56,38.89],[-10.34,38.25],[-9.01,38.04],[-9.33,37.43],[-8.85,36.9],[-8.05,36.97],[-6.77,36.74],[-6.8,36.49],[-6.56,36.35],[-6.59,36.1],[-5.94,35.17],[-5.68,35.27],[-5.64,35.52],[-4.88,35.57],[-5.04,36.2],[-4.77,36.3],[-4.54,36.15],[-3.97,36.59],[-2.26,36.26],[-1.37,37.01],[-1.33,37.25],[-0.58,37.26],[-0.21,37.82],[-0.43,37.97],[-0.38,38.21],[0.2,38.61],[0.25,38.85],[-0.14,39.4],[-0.09,39.63],[0.84,40.34],[1.23,40.9],[2.02,40.94],[2.42,41.49],[3.23,41.53],[3.65,42.08],[3.25,42.6],[3.31,42.84],[3.97,43.25],[6.35,42.85],[7.05,43.24],[7.12,43.48],[7.98,43.48],[8.46,44.02],[9.33,44.02],[10.12,43.78],[9.23,42.94],[8.37,42.94],[8.29,42.71],[8.52,42.55],[8.05,42.01],[8.43,41.46],[8.74,41.53],[8.97,41.37],[8.89,41.14],[8.05,41.14],[7.6,40.59],[8.35,40.35],[8.27,40.12],[8.5,39.95],[8.8,40.03],[8.73,40.66],[9.04,40.74],[9.12,40.98],[9.43,41.05],[9.8,40.49],[10.11,40.56],[10.19,40.8],[9.82,41.36],[9.9,41.59],[9.67,41.76],[9.76,41.99],[10.61,41.97],[10.7,42.21],[11.02,42.28],[11.79,42.02],[11.7,41.78],[11.93,41.62],[12.25,41.68],[12.61,41.11],[14.01,40.96],[14.1,41.2],[13.88,41.37],[13.02,41.41],[12.66,41.99],[12.34,41.92],[12.11,42.09],[12.2,42.32],[11.42,42.58],[11.37,43.21],[11.14,43.37],[11.64,43.9],[11.41,44.06],[11.5,44.29],[12.39,44.27],[12.62,44.11],[12.52,43.88],[13.31,43.61],[13.22,43.38],[13.45,43.21],[12.93,42.68],[13.3,42.12],[13.62,42.18],[13.58,42.81],[13.91,42.88],[14.0,43.11],[13.64,43.67],[13.74,43.9],[12.95,44.17],[13.04,44.4],[12.67,44.95],[12.77,45.18],[13.1,45.25],[13.47,44.69],[13.8,44.76],[14.17,44.2],[15.06,44.15],[15.17,44.38],[14.8,44.94],[14.91,45.17],[14.67,45.33],[14.78,45.56],[16.46,46.46],[16.57,46.69],[17.5,46.62],[18.07,47.12],[19.01,47.04],[19.6,47.53],[19.95,47.57],[19.96,48.18],[20.32,48.22],[20.45,48.43],[20.21,48.61],[20.82,49.07],[20.48,49.63],[19.87,49.75],[20.0,49.96],[19.76,50.13],[19.88,50.34],[19.64,50.5]],[[14.24,45.05],[13.9,44.98],[13.67,45.15],[13.77,45.38],[14.1,45.44],[14.34,45.27],[14.24,45.05]]],[[[86.36,30.71],[86.61,30.83],[86.63,31.06],[85.9,31.18],[85.92,31.41],[85.68,31.53],[85.17,31.05],[85.16,30.82],[85.4,30.7],[86.36,30.71]]],[[[-172.83,52.34],[-173.03,52.15],[-173.41,52.18],[-174.16,52.61],[-174.54,52.63],[-175.32,52.26],[-176.28,52.49],[-177.62,51.92],[-178.6,52.14],[-179.35,51.74],[-179.14,51.53],[-179.32,51.33],[-179.12,51.13],[-178.73,51.13],[-177.42,51.72],[-176.45,51.49],[-175.12,52.05],[-174.74,52.04],[-174.55,51.83],[-173.6,51.99],[-173.42,51.78],[-173.04,51.75],[-172.84,51.94],[-172.47,51.92],[-169.97,52.73],[-169.06,52.45],[-168.28,52.77],[-168.44,52.98],[-168.23,53.16],[-166.12,53.51],[-165.84,54.06],[-164.96,53.76],[-164.68,54.3],[-163.51,54.52],[-162.65,54.2],[-162.34,54.73],[-161.76,54.83],[-161.81,55.03],[-161.25,55.51],[-161.3,55.71],[-160.98,55.86],[-161.04,56.06],[-162.41,55.89],[-161.92,55.43],[-162.48,54.94],[-162.84,55.0],[-162.9,55.2],[-162.6,55.34],[-162.66,55.54],[-163.03,55.6],[-163.57,55.1],[-165.12,54.93],[-165.41,54.39],[-168.72,53.79],[-168.98,53.23],[-170.51,52.97],[-171.87,52.48],[-172.81,52.74],[-173.01,52.55],[-172.83,52.34]]],[[[-8.82,58.23],[-9.27,57.73],[-8.92,57.6],[-8.13,57.95],[-8.09,58.16],[-8.44,58.3],[-8.82,58.23]]],[[[-168.9,63.15],[-168.53,63.32],[-168.66,63.54],[-170.08,63.46],[-170.92,63.95],[-171.46,63.99],[-171.83,63.8],[-171.66,63.58],[-172.02,63.4],[-171.85,63.18],[-171.33,63.14],[-170.97,63.32],[-170.45,63.28],[-170.3,63.06],[-168.9,63.15]]],[[[131.05,57.34],[131.16,57.11],[131.91,57.2],[131.81,57.42],[131.38,57.5],[131.05,57.34]]],[[[87.64,28.4],[88.11,28.4],[88.13,28.63],[87.9,28.75],[87.65,28.63],[87.64,28.4]]],[[[15.69,42.14],[14.81,42.19],[14.46,42.77],[14.13,42.71],[14.04,42.47],[14.26,42.3],[13.75,41.78],[13.97,41.6],[14.72,41.96],[14.94,41.79],[15.26,41.85],[15.61,41.26],[15.93,41.32],[15.91,41.96],[15.69,42.14]]],[[[-159.44,58.78],[-159.4,58.57],[-159.0,58.49],[-157.9,58.7],[-157.93,58.91],[-159.08,58.92],[-159.13,59.13],[-159.53,59.2],[-160.65,58.99],[-161.54,59.33],[-161.6,59.55],[-160.93,60.06],[-160.99,60.28],[-160.62,60.42],[-160.68,60.64],[-160.3,60.79],[-160.35,61.0],[-161.3,61.37],[-161.36,61.59],[-161.82,61.66],[-161.89,61.88],[-162.35,61.95],[-162.42,62.17],[-163.75,62.14],[-163.84,62.37],[-163.45,62.52],[-163.54,62.75],[-163.14,62.9],[-163.23,63.13],[-163.72,63.19],[-163.81,63.42],[-164.71,63.32],[-164.61,63.1],[-165.0,62.94],[-164.9,62.71],[-166.15,62.44],[-166.04,62.22],[-166.42,62.06],[-166.31,61.84],[-166.67,61.67],[-166.56,61.45],[-165.52,61.12],[-165.43,60.9],[-167.05,60.68],[-167.63,60.13],[-167.51,59.92],[-166.52,59.61],[-165.39,59.88],[-165.49,60.09],[-165.14,60.25],[-164.69,60.2],[-164.61,59.98],[-164.96,59.82],[-164.87,59.61],[-162.09,59.83],[-162.02,59.61],[-162.66,59.1],[-162.59,58.89],[-161.7,58.55],[-161.64,58.34],[-160.5,58.35],[-160.15,58.49],[-160.2,58.71],[-159.44,58.78]]],[[[1.19,38.49],[1.41,38.35],[2.02,38.76],[1.91,39.38],[1.68,39.53],[1.07,39.11],[1.19,38.49]]],[[[115.88,55.63],[116.1,55.82],[115.9,56.02],[115.48,56.03],[115.26,55.85],[115.46,55.65],[115.88,55.63]]],[[[38.57,55.46],[38.75,55.68],[38.54,55.87],[38.15,55.85],[37.93,56.05],[37.54,56.02],[36.82,55.57],[37.03,55.38],[37.97,55.64],[38.19,55.44],[38.57,55.46]]],[[[2.35,39.09],[3.08,38.88],[3.71,39.29],[3.77,39.52],[4.57,39.54],[4.63,39.78],[4.25,40.32],[3.44,40.3],[3.38,40.06],[3.09,39.97],[2.87,40.12],[2.24,39.71],[2.35,39.09]]],[[[24.86,60.16],[24.03,59.81],[23.94,59.59],[24.21,59.44],[25.5,60.07],[25.94,59.55],[27.86,59.25],[28.74,59.58],[28.87,59.79],[29.91,59.74],[30.05,59.95],[29.65,60.5],[28.32,60.71],[27.41,60.38],[26.48,60.63],[26.09,60.57],[25.98,60.35],[24.95,60.37],[24.86,60.16]],[[26.15,59.98],[26.26,60.2],[26.64,60.26],[26.91,60.1],[26.8,59.88],[26.15,59.98]]],[[[129.22,28.38],[128.36,27.47],[128.81,27.43],[129.14,27.95],[129.83,28.01],[130.12,28.31],[130.16,28.52],[129.96,28.65],[129.51,28.68],[129.22,28.38]]],[[[121.13,24.9],[121.74,24.76],[121.71,24.54],[121.06,24.46],[121.02,24.24],[121.22,24.12],[121.86,24.2],[122.13,24.53],[122.01,25.08],[121.66,25.54],[121.13,24.9]]],[[[-160.76,56.4],[-160.72,56.2],[-160.02,56.28],[-160.07,56.48],[-160.44,56.55],[-160.76,56.4]]],[[[167.99,54.96],[167.72,55.13],[166.61,55.22],[166.34,55.39],[166.48,55.6],[166.21,55.77],[165.23,55.46],[165.09,55.24],[165.78,55.12],[166.06,54.96],[165.92,54.74],[166.2,54.57],[167.29,54.49],[168.23,54.18],[168.64,54.22],[168.79,54.43],[168.53,54.61],[168.67,54.82],[167.99,54.96]]],[[[151.84,63.95],[152.3,63.81],[152.23,63.56],[152.68,63.41],[152.61,63.17],[151.54,62.72],[151.09,62.87],[151.14,63.11],[150.69,63.25],[150.18,63.15],[150.14,62.9],[150.59,62.76],[150.54,62.52],[150.05,62.41],[150.0,62.17],[150.45,62.03],[151.48,62.48],[151.92,62.34],[152.41,62.43],[152.85,62.29],[152.78,62.04],[153.2,61.9],[154.27,62.33],[154.36,62.57],[154.87,62.66],[154.96,62.9],[154.53,63.06],[154.61,63.3],[153.21,63.51],[153.28,63.76],[153.81,63.85],[154.26,63.7],[154.79,63.79],[154.88,64.03],[154.43,64.19],[154.52,64.43],[154.06,64.59],[153.52,64.49],[153.44,64.25],[152.9,64.15],[151.43,64.35],[150.9,64.24],[150.84,63.99],[151.31,63.85],[151.84,63.95]]],[[[103.89,43.19],[104.19,43.26],[104.28,43.49],[103.95,44.04],[103.13,44.08],[103.05,43.85],[102.75,43.78],[102.67,43.55],[102.88,43.38],[103.56,43.75],[103.89,43.19]]],[[[153.36,47.39],[153.24,48.01],[153.58,48.1],[153.65,48.34],[153.38,48.49],[153.04,48.4],[152.97,48.16],[152.63,48.08],[152.56,47.84],[151.43,47.09],[151.37,46.85],[152.22,46.65],[153.36,47.39]]],[[[83.95,31.39],[83.95,31.15],[84.19,31.04],[84.93,31.17],[84.94,31.41],[84.69,31.52],[83.95,31.39]]],[[[102.09,44.26],[102.92,44.24],[103.0,44.47],[102.26,44.73],[101.95,44.66],[101.87,44.43],[102.09,44.26]]],[[[174.56,52.82],[172.62,53.32],[172.22,53.29],[172.06,53.08],[172.31,52.89],[172.15,52.68],[172.4,52.49],[172.8,52.52],[173.68,52.16],[174.63,52.42],[174.8,52.63],[174.56,52.82]]],[[[-17.18,32.96],[-17.17,32.7],[-16.91,32.58],[-16.65,32.71],[-16.65,32.96],[-16.92,33.09],[-17.18,32.96]]],[[[106.55,41.31],[106.74,41.15],[107.11,41.43],[106.64,41.54],[106.55,41.31]]],[[[80.7,32.13],[81.21,32.15],[81.2,32.39],[80.95,32.5],[80.7,32.37],[80.7,32.13]]],[[[-165.35,64.68],[-165.88,64.74],[-166.0,64.97],[-166.54,65.03],[-166.96,64.86],[-166.83,64.63],[-165.65,64.29],[-165.24,64.45],[-165.35,64.68]]],[[[180.0,52.34],[179.05,52.14],[178.83,52.34],[178.44,52.33],[178.26,52.13],[177.87,52.12],[177.64,52.32],[177.25,52.31],[177.08,52.1],[177.3,51.9],[177.13,51.69],[177.36,51.5],[178.31,51.72],[178.53,51.52],[179.52,51.33],[180.0,51.53],[180.0,52.34]]],[[[-180.0,51.53],[-179.74,51.74],[-179.95,51.94],[-179.77,52.14],[-179.99,52.35],[-180.0,51.53]]],[[[-172.91,65.14],[-172.72,64.91],[-173.09,64.73],[-172.9,64.5],[-173.27,64.32],[-173.08,64.09],[-172.54,64.06],[-172.17,64.25],[-172.35,64.47],[-171.98,64.65],[-172.16,64.88],[-171.77,65.06],[-171.95,65.29],[-171.57,65.47],[-171.75,65.7],[-172.33,65.74],[-172.71,65.55],[-172.53,65.33],[-172.91,65.14]]],[[[-176.82,65.75],[-177.17,65.55],[-176.94,65.33],[-175.56,65.07],[-175.2,65.26],[-176.22,65.73],[-176.82,65.75]]],[[[21.14,60.29],[21.64,60.54],[21.72,60.75],[21.44,60.89],[21.51,61.11],[21.87,61.18],[21.95,61.4],[21.45,61.89],[21.08,61.81],[21.01,61.6],[21.3,61.46],[21.22,61.25],[20.86,61.17],[20.79,60.95],[21.08,60.82],[21.01,60.6],[20.42,60.39],[21.14,60.29]]],[[[33.79,44.25],[33.91,44.86],[33.72,45.06],[33.38,45.06],[33.27,44.44],[33.46,44.24],[33.79,44.25]]],[[[-170.13,56.62],[-170.01,56.41],[-169.32,56.54],[-169.43,56.75],[-169.84,56.78],[-170.13,56.62]]],[[[119.87,26.13],[120.39,26.76],[120.2,26.87],[119.72,26.5],[119.87,26.13]]],[[[80.68,33.09],[80.93,33.22],[80.92,33.47],[80.39,33.93],[78.58,33.72],[78.59,33.48],[78.86,33.37],[79.63,33.53],[79.89,33.42],[79.9,33.18],[80.68,33.09]]],[[[53.93,40.97],[54.14,41.16],[54.02,41.39],[53.7,41.44],[52.97,41.1],[53.09,40.87],[53.93,40.97]]],[[[170.88,63.97],[170.64,63.75],[170.97,63.55],[171.52,63.58],[171.76,63.8],[171.44,64.0],[170.88,63.97]]],[[[-162.0,63.6],[-162.49,63.67],[-162.9,63.51],[-162.82,63.29],[-161.02,63.45],[-161.09,63.68],[-161.58,63.75],[-162.0,63.6]]],[[[122.58,30.79],[122.15,30.79],[121.61,30.19],[121.89,29.36],[122.09,29.26],[122.86,29.96],[122.74,30.48],[123.01,30.78],[122.58,30.79]]],[[[81.71,32.4],[81.71,32.16],[82.22,31.7],[82.72,32.2],[83.72,32.22],[84.21,31.75],[85.45,31.88],[85.46,32.12],[85.22,32.24],[84.72,32.23],[84.49,32.83],[84.24,32.95],[84.51,33.55],[84.77,33.68],[84.78,33.92],[84.52,34.04],[84.26,33.91],[84.26,33.67],[83.49,33.54],[83.48,33.3],[83.23,33.17],[81.95,33.26],[81.19,33.11],[81.19,32.87],[81.71,32.4]]],[[[139.95,32.79],[140.18,32.89],[140.19,33.13],[139.98,33.26],[139.31,33.2],[139.29,32.97],[139.95,32.79]]],[[[96.42,41.88],[96.47,42.12],[96.23,42.27],[95.93,42.18],[95.53,41.61],[95.77,41.46],[96.6,41.49],[96.65,41.73],[96.42,41.88]]],[[[-25.65,37.76],[-25.35,37.66],[-25.09,37.8],[-25.12,38.06],[-25.41,38.17],[-25.68,38.02],[-25.65,37.76]]],[[[100.36,43.2],[100.58,43.04],[100.88,43.11],[100.95,43.35],[100.73,43.51],[100.43,43.43],[100.36,43.2]]],[[[-172.42,60.14],[-171.64,60.29],[-171.78,60.5],[-172.89,60.78],[-173.05,60.99],[-173.53,61.02],[-173.85,60.84],[-173.68,60.63],[-173.21,60.6],[-173.05,60.39],[-173.36,60.2],[-173.2,59.99],[-172.42,60.14]]],[[[-6.65,61.56],[-6.14,62.01],[-5.72,62.07],[-5.67,62.26],[-6.04,62.4],[-5.99,62.6],[-6.79,62.68],[-6.84,62.49],[-7.72,62.17],[-7.76,61.97],[-7.06,61.5],[-7.1,61.3],[-6.33,61.22],[-6.28,61.42],[-6.65,61.56]]],[[[128.44,26.69],[128.73,27.0],[128.08,27.16],[127.52,26.54],[127.07,26.57],[126.79,26.26],[127.88,26.07],[128.44,26.69]]],[[[84.16,29.63],[84.15,29.4],[84.63,29.41],[84.63,29.64],[84.4,29.75],[84.16,29.63]]],[[[56.59,37.71],[56.28,37.76],[56.08,37.58],[56.18,37.34],[56.49,37.29],[56.69,37.47],[56.59,37.71]]],[[[-28.57,38.29],[-28.26,38.19],[-28.0,38.35],[-28.04,38.6],[-28.34,38.7],[-28.6,38.55],[-28.57,38.29]]],[[[121.18,27.7],[121.98,28.63],[121.55,28.64],[121.25,28.12],[120.6,28.03],[120.57,27.82],[120.76,27.71],[121.18,27.7]]],[[[120.03,63.76],[119.7,63.56],[119.94,63.34],[120.49,63.31],[120.81,63.5],[120.59,63.73],[120.03,63.76]]],[[[140.13,32.19],[140.15,32.43],[139.71,32.47],[139.69,32.23],[139.91,32.1],[140.13,32.19]]],[[[94.36,60.61],[94.29,60.37],[94.65,60.21],[95.09,60.28],[95.17,60.52],[94.51,61.07],[92.84,61.24],[92.39,61.16],[92.33,60.93],[94.36,60.61]]],[[[101.73,44.82],[101.81,45.06],[101.58,45.22],[101.27,45.15],[101.19,44.91],[101.42,44.75],[101.73,44.82]]],[[[125.4,24.68],[125.44,24.9],[125.01,24.93],[124.97,24.71],[125.17,24.58],[125.4,24.68]]],[[[-27.44,38.4],[-27.14,38.29],[-26.87,38.44],[-26.91,38.7],[-27.21,38.8],[-27.47,38.65],[-27.44,38.4]]],[[[82.71,30.06],[83.2,30.07],[83.68,29.62],[83.92,29.74],[83.69,30.32],[83.45,30.43],[82.96,30.42],[82.71,30.29],[82.71,30.06]]],[[[15.29,43.98],[15.19,43.75],[15.98,43.47],[16.31,43.52],[16.42,43.75],[16.19,43.92],[15.29,43.98]]],[[[60.8,41.81],[61.04,41.99],[60.94,42.24],[60.61,42.3],[60.38,42.12],[60.47,41.87],[60.8,41.81]]],[[[87.14,35.0],[87.41,35.11],[87.42,35.36],[87.17,35.48],[86.91,35.37],[86.89,35.12],[87.14,35.0]]],[[[-169.66,57.16],[-169.78,57.36],[-170.2,57.4],[-170.49,57.23],[-170.37,57.02],[-169.66,57.16]]],[[[52.21,41.42],[52.01,41.22],[52.14,40.99],[52.45,40.95],[52.65,41.14],[52.53,41.38],[52.21,41.42]]],[[[114.19,58.03],[113.96,58.23],[113.51,58.24],[113.29,58.04],[113.52,57.84],[113.97,57.83],[114.19,58.03]]],[[[15.21,40.33],[15.31,40.56],[15.09,40.74],[14.77,40.68],[14.55,40.85],[14.23,40.79],[14.13,40.55],[14.89,40.27],[15.21,40.33]]],[[[130.2,56.64],[129.88,56.48],[130.0,56.26],[130.73,56.35],[130.62,56.57],[130.2,56.64]]],[[[115.49,56.42],[115.28,56.62],[114.85,56.63],[114.63,56.45],[114.84,56.25],[115.27,56.23],[115.49,56.42]]],[[[130.61,57.41],[130.5,57.64],[130.06,57.7],[129.74,57.54],[129.86,57.32],[130.61,57.41]]],[[[-178.11,65.37],[-177.76,65.57],[-178.01,65.79],[-178.61,65.8],[-178.95,65.6],[-178.7,65.38],[-178.11,65.37]]],[[[82.96,31.37],[83.21,31.49],[83.21,31.73],[82.97,31.84],[82.72,31.72],[82.72,31.48],[82.96,31.37]]],[[[137.27,59.45],[138.11,59.5],[138.05,59.74],[137.6,59.83],[137.21,59.69],[137.27,59.45]]],[[[50.04,41.02],[50.17,40.8],[50.48,40.76],[50.67,40.95],[50.1,41.45],[49.78,41.48],[49.6,41.28],[49.73,41.06],[50.04,41.02]]],[[[-5.65,59.18],[-6.38,59.26],[-6.43,59.06],[-6.08,58.91],[-5.69,58.97],[-5.65,59.18]]],[[[34.74,45.07],[34.4,45.07],[34.24,44.86],[34.43,44.66],[34.77,44.66],[34.92,44.86],[34.74,45.07]]],[[[176.06,52.27],[176.46,52.28],[176.62,52.49],[176.4,52.69],[176.0,52.67],[175.83,52.47],[176.06,52.27]]]]}}]}