{"type":"FeatureCollection","features":[{"type":"Feature","properties":{},"geometry":{"type":"MultiPolygon","coordinates":[[[[131.65,-0.89],[131.46,-0.73],[131.22,-0.81],[131.02,-0.65],[130.79,-0.74],[130.75,-0.99],[130.94,-1.15],[131.18,-1.06],[131.38,-1.23],[131.33,-1.48],[131.53,-1.64],[131.77,-1.55],[131.81,-1.3],[131.61,-1.14],[131.65,-0.89]]],[[[141.36,-3.2],[141.12,-3.29],[141.08,-3.54],[140.84,-3.63],[140.79,-3.88],[140.56,-3.96],[140.36,-3.8],[140.4,-3.55],[140.64,-3.47],[140.69,-3.22],[140.93,-3.13],[140.97,-2.88],[141.21,-2.79],[141.41,-2.95],[141.65,-2.86],[141.69,-2.62],[141.5,-2.45],[141.26,-2.54],[141.06,-2.38],[140.82,-2.47],[140.63,-2.31],[140.39,-2.39],[140.19,-2.23],[139.95,-2.32],[139.75,-2.16],[139.51,-2.25],[139.32,-2.08],[139.08,-2.17],[138.88,-2.01],[138.92,-1.76],[138.73,-1.59],[138.48,-1.68],[138.29,-1.52],[138.05,-1.61],[137.85,-1.44],[137.61,-1.53],[137.41,-1.37],[137.17,-1.46],[137.13,-1.71],[136.89,-1.8],[136.69,-1.63],[136.45,-1.72],[136.25,-1.56],[136.01,-1.65],[135.82,-1.48],[135.58,-1.57],[135.53,-1.82],[135.73,-1.98],[135.97,-1.9],[136.17,-2.06],[136.41,-1.97],[136.6,-2.13],[136.56,-2.39],[136.32,-2.47],[136.28,-2.72],[136.04,-2.81],[135.84,-2.65],[135.6,-2.73],[135.56,-2.98],[135.76,-3.15],[136.0,-3.06],[136.19,-3.22],[136.15,-3.47],[135.91,-3.56],[135.71,-3.4],[135.47,-3.48],[135.43,-3.73],[135.19,-3.82],[135.15,-4.07],[134.91,-4.15],[134.87,-4.4],[135.06,-4.56],[135.3,-4.48],[135.5,-4.64],[135.74,-4.55],[135.94,-4.71],[136.17,-4.63],[136.22,-4.38],[136.46,-4.29],[136.65,-4.45],[136.61,-4.7],[136.81,-4.86],[137.05,-4.78],[137.24,-4.94],[137.2,-5.18],[137.4,-5.34],[137.64,-5.26],[137.83,-5.42],[137.79,-5.66],[137.98,-5.82],[138.22,-5.74],[138.42,-5.9],[138.38,-6.14],[138.57,-6.3],[138.53,-6.55],[138.72,-6.71],[138.68,-6.95],[138.44,-7.04],[138.4,-7.28],[138.16,-7.36],[138.12,-7.61],[137.88,-7.69],[137.83,-7.94],[137.59,-8.02],[137.55,-8.26],[137.75,-8.42],[137.99,-8.33],[138.18,-8.49],[138.42,-8.41],[138.61,-8.56],[138.85,-8.48],[139.05,-8.63],[139.29,-8.55],[139.33,-8.31],[139.57,-8.22],[139.76,-8.38],[140.0,-8.29],[140.2,-8.45],[140.15,-8.69],[140.35,-8.84],[140.58,-8.76],[140.78,-8.91],[140.73,-9.15],[140.93,-9.31],[141.17,-9.22],[141.36,-9.37],[141.6,-9.29],[141.79,-9.44],[142.03,-9.35],[142.22,-9.51],[142.46,-9.42],[142.65,-9.57],[142.61,-9.81],[142.37,-9.9],[142.18,-9.75],[141.94,-9.83],[141.89,-10.07],[142.09,-10.22],[142.04,-10.46],[141.81,-10.55],[141.76,-10.78],[141.95,-10.93],[141.91,-11.17],[142.1,-11.32],[142.06,-11.55],[141.82,-11.64],[141.78,-11.87],[141.54,-11.96],[141.5,-12.19],[141.26,-12.28],[141.22,-12.51],[141.41,-12.66],[141.37,-12.89],[141.56,-13.04],[141.51,-13.27],[141.28,-13.35],[141.23,-13.58],[141.43,-13.73],[141.38,-13.96],[141.57,-14.1],[141.53,-14.33],[141.29,-14.41],[141.25,-14.64],[141.44,-14.78],[141.4,-15.01],[141.16,-15.09],[141.12,-15.32],[141.31,-15.46],[141.27,-15.68],[141.03,-15.77],[140.99,-15.99],[141.18,-16.13],[141.14,-16.35],[140.9,-16.43],[140.86,-16.66],[141.04,-16.8],[141.27,-16.72],[141.33,-16.49],[141.56,-16.41],[141.61,-16.19],[141.42,-16.05],[141.46,-15.83],[141.69,-15.74],[141.74,-15.52],[141.97,-15.44],[142.17,-15.58],[142.12,-15.8],[142.31,-15.94],[142.55,-15.86],[142.74,-16.0],[142.69,-16.23],[142.87,-16.37],[143.11,-16.29],[143.29,-16.43],[143.24,-16.66],[143.43,-16.8],[143.38,-17.03],[143.57,-17.17],[143.81,-17.09],[144.0,-17.23],[143.95,-17.46],[144.14,-17.61],[144.38,-17.52],[144.57,-17.67],[144.52,-17.9],[144.71,-18.04],[144.67,-18.28],[144.86,-18.42],[145.1,-18.34],[145.3,-18.48],[145.25,-18.71],[145.45,-18.86],[145.69,-18.77],[145.89,-18.92],[145.84,-19.16],[146.04,-19.3],[146.29,-19.21],[146.49,-19.36],[146.44,-19.6],[146.64,-19.74],[146.6,-19.98],[146.8,-20.13],[147.05,-20.04],[147.25,-20.19],[147.21,-20.43],[147.41,-20.57],[147.66,-20.48],[147.87,-20.63],[148.11,-20.54],[148.32,-20.68],[148.57,-20.59],[148.78,-20.74],[148.74,-20.98],[148.95,-21.13],[148.91,-21.37],[149.12,-21.52],[149.37,-21.42],[149.41,-21.18],[149.65,-21.08],[149.69,-20.84],[149.48,-20.7],[149.52,-20.46],[149.31,-20.31],[149.35,-20.07],[149.14,-19.93],[148.89,-20.02],[148.69,-19.87],[148.44,-19.97],[148.23,-19.82],[148.27,-19.58],[148.07,-19.44],[147.83,-19.53],[147.62,-19.38],[147.66,-19.14],[147.46,-19.0],[147.22,-19.09],[147.02,-18.94],[147.06,-18.71],[146.86,-18.56],[146.9,-18.33],[146.7,-18.18],[146.74,-17.95],[146.55,-17.81],[146.59,-17.57],[146.39,-17.43],[146.44,-17.2],[146.24,-17.06],[146.28,-16.83],[146.09,-16.68],[145.85,-16.77],[145.66,-16.63],[145.7,-16.4],[145.51,-16.26],[145.56,-16.03],[145.79,-15.94],[145.84,-15.72],[145.65,-15.58],[145.69,-15.35],[145.5,-15.21],[145.54,-14.99],[145.78,-14.9],[145.82,-14.67],[145.63,-14.53],[145.4,-14.62],[145.21,-14.48],[145.26,-14.25],[145.07,-14.11],[144.83,-14.2],[144.64,-14.06],[144.69,-13.83],[144.5,-13.69],[144.27,-13.77],[144.22,-14.0],[143.99,-14.09],[143.8,-13.94],[143.84,-13.71],[144.08,-13.63],[144.12,-13.4],[143.93,-13.25],[143.97,-13.02],[143.78,-12.88],[143.83,-12.65],[143.64,-12.5],[143.68,-12.27],[143.49,-12.12],[143.53,-11.89],[143.34,-11.74],[143.39,-11.51],[143.2,-11.36],[143.24,-11.12],[143.05,-10.97],[143.09,-10.74],[142.9,-10.59],[142.95,-10.35],[143.18,-10.27],[143.23,-10.03],[143.46,-9.94],[143.51,-9.7],[143.32,-9.55],[143.08,-9.64],[142.89,-9.49],[142.93,-9.25],[143.17,-9.16],[143.36,-9.31],[143.6,-9.23],[143.64,-8.99],[143.88,-8.9],[143.92,-8.66],[143.73,-8.51],[143.78,-8.26],[144.01,-8.18],[144.06,-7.94],[144.29,-7.85],[144.49,-8.0],[144.72,-7.91],[144.91,-8.07],[145.15,-7.98],[145.34,-8.13],[145.57,-8.04],[145.76,-8.19],[146.0,-8.11],[146.19,-8.26],[146.14,-8.5],[146.33,-8.65],[146.29,-8.89],[146.48,-9.04],[146.71,-8.95],[146.9,-9.1],[146.85,-9.34],[147.04,-9.48],[147.0,-9.72],[147.19,-9.87],[147.42,-9.78],[147.61,-9.93],[147.56,-10.16],[147.75,-10.31],[147.98,-10.22],[148.17,-10.37],[148.4,-10.28],[148.58,-10.42],[148.81,-10.33],[149.0,-10.48],[149.23,-10.39],[149.41,-10.53],[149.64,-10.44],[149.83,-10.59],[149.78,-10.82],[149.97,-10.96],[150.19,-10.87],[150.38,-11.02],[150.6,-10.93],[150.79,-11.07],[151.01,-10.98],[151.06,-10.74],[151.29,-10.65],[151.33,-10.42],[151.15,-10.28],[151.19,-10.05],[151.01,-9.9],[151.06,-9.67],[151.28,-9.58],[151.33,-9.34],[151.15,-9.2],[150.92,-9.29],[150.74,-9.15],[150.51,-9.24],[150.33,-9.09],[150.1,-9.18],[150.05,-9.42],[149.82,-9.5],[149.64,-9.36],[149.41,-9.45],[149.22,-9.3],[149.27,-9.07],[149.08,-8.92],[148.85,-9.01],[148.67,-8.86],[148.71,-8.62],[148.53,-8.47],[148.57,-8.24],[148.39,-8.09],[148.15,-8.18],[147.97,-8.03],[148.01,-7.79],[147.83,-7.63],[147.59,-7.72],[147.4,-7.57],[147.45,-7.33],[147.26,-7.18],[147.31,-6.94],[147.54,-6.85],[147.73,-7.0],[147.96,-6.91],[148.01,-6.67],[147.82,-6.52],[147.86,-6.28],[147.68,-6.12],[147.72,-5.88],[147.96,-5.79],[148.14,-5.94],[148.38,-5.86],[148.56,-6.01],[148.79,-5.92],[148.84,-5.68],[149.07,-5.59],[149.26,-5.74],[149.21,-5.98],[149.4,-6.14],[149.35,-6.38],[149.54,-6.53],[149.77,-6.44],[149.95,-6.59],[150.18,-6.5],[150.23,-6.26],[150.05,-6.11],[149.81,-6.2],[149.63,-6.05],[149.68,-5.8],[149.91,-5.72],[149.95,-5.47],[149.77,-5.32],[149.54,-5.41],[149.35,-5.26],[149.12,-5.35],[148.93,-5.19],[148.7,-5.28],[148.65,-5.52],[148.42,-5.61],[148.23,-5.46],[148.0,-5.55],[147.81,-5.39],[147.58,-5.48],[147.53,-5.73],[147.3,-5.81],[147.11,-5.66],[146.88,-5.75],[146.69,-5.59],[146.45,-5.68],[146.26,-5.53],[146.03,-5.62],[145.98,-5.86],[145.75,-5.95],[145.55,-5.79],[145.32,-5.88],[145.27,-6.13],[145.04,-6.21],[144.85,-6.06],[144.61,-6.15],[144.42,-5.99],[144.46,-5.75],[144.7,-5.66],[144.89,-5.81],[145.13,-5.73],[145.17,-5.48],[145.41,-5.39],[145.6,-5.55],[145.84,-5.46],[145.88,-5.22],[146.12,-5.13],[146.16,-4.88],[145.97,-4.72],[145.74,-4.81],[145.69,-5.06],[145.45,-5.15],[145.26,-4.99],[145.03,-5.08],[144.98,-5.32],[144.74,-5.41],[144.55,-5.26],[144.6,-5.01],[144.83,-4.92],[144.88,-4.68],[145.12,-4.59],[145.31,-4.74],[145.54,-4.66],[145.59,-4.41],[145.4,-4.25],[145.16,-4.34],[144.97,-4.18],[145.02,-3.94],[144.82,-3.78],[144.59,-3.87],[144.39,-3.71],[144.16,-3.79],[143.96,-3.64],[144.01,-3.39],[143.81,-3.23],[143.58,-3.32],[143.38,-3.16],[143.14,-3.24],[142.95,-3.08],[142.71,-3.17],[142.52,-3.01],[142.28,-3.1],[142.08,-2.94],[141.84,-3.03],[141.8,-3.28],[141.56,-3.36],[141.36,-3.2]],[[141.96,-4.84],[141.73,-4.92],[141.53,-4.76],[141.58,-4.52],[141.81,-4.43],[142.01,-4.59],[141.96,-4.84]],[[147.13,-7.9],[147.31,-8.05],[147.27,-8.29],[147.04,-8.38],[146.85,-8.23],[146.89,-7.99],[147.13,-7.9]],[[136.35,-3.63],[136.59,-3.55],[136.78,-3.71],[137.02,-3.62],[137.22,-3.78],[137.46,-3.7],[137.66,-3.86],[137.9,-3.77],[137.94,-3.52],[138.18,-3.43],[138.38,-3.6],[138.62,-3.51],[138.81,-3.67],[139.05,-3.58],[139.25,-3.74],[139.2,-3.99],[139.4,-4.15],[139.64,-4.07],[139.84,-4.23],[140.08,-4.14],[140.27,-4.3],[140.23,-4.55],[139.99,-4.64],[139.79,-4.47],[139.55,-4.56],[139.36,-4.4],[139.12,-4.49],[138.92,-4.33],[138.68,-4.42],[138.48,-4.25],[138.24,-4.34],[138.05,-4.18],[137.81,-4.27],[137.61,-4.11],[137.37,-4.19],[137.18,-4.03],[136.94,-4.12],[136.74,-3.96],[136.5,-4.04],[136.3,-3.88],[136.35,-3.63]],[[146.46,-6.81],[146.27,-6.66],[146.32,-6.41],[146.55,-6.32],[146.6,-6.08],[146.83,-5.99],[147.02,-6.15],[147.25,-6.06],[147.44,-6.21],[147.4,-6.45],[147.16,-6.54],[146.97,-6.39],[146.74,-6.48],[146.69,-6.72],[146.46,-6.81]],[[143.84,-5.52],[144.03,-5.68],[143.99,-5.92],[144.18,-6.08],[144.14,-6.32],[143.9,-6.41],[143.71,-6.26],[143.75,-6.01],[143.56,-5.85],[143.32,-5.94],[143.13,-5.79],[142.89,-5.87],[142.7,-5.72],[142.46,-5.8],[142.26,-5.65],[142.31,-5.4],[142.55,-5.31],[142.74,-5.47],[142.98,-5.38],[143.02,-5.14],[143.26,-5.05],[143.45,-5.21],[143.69,-5.12],[143.74,-4.87],[143.98,-4.78],[144.17,-4.94],[144.12,-5.19],[143.89,-5.28],[143.84,-5.52]],[[145.47,-7.41],[145.28,-7.25],[145.33,-7.01],[145.56,-6.92],[145.75,-7.08],[145.71,-7.32],[145.47,-7.41]],[[142.87,-4.73],[142.83,-4.98],[142.59,-5.07],[142.4,-4.91],[142.44,-4.66],[142.68,-4.57],[142.87,-4.73]],[[140.49,-3.06],[140.25,-3.14],[140.06,-2.98],[139.82,-3.07],[139.62,-2.91],[139.66,-2.66],[139.9,-2.57],[140.1,-2.73],[140.34,-2.64],[140.54,-2.81],[140.49,-3.06]],[[142.14,-3.84],[141.95,-3.68],[141.99,-3.44],[142.23,-3.35],[142.43,-3.51],[142.38,-3.76],[142.14,-3.84]],[[150.37,-9.94],[150.19,-9.8],[150.24,-9.56],[150.46,-9.47],[150.65,-9.62],[150.6,-9.85],[150.37,-9.94]],[[135.87,-3.81],[136.06,-3.97],[136.02,-4.22],[135.78,-4.3],[135.59,-4.14],[135.63,-3.89],[135.87,-3.81]]],[[[134.11,-0.93],[133.91,-0.77],[133.67,-0.85],[133.48,-0.69],[133.24,-0.78],[133.04,-0.61],[133.08,-0.36],[132.88,-0.2],[132.65,-0.29],[132.6,-0.54],[132.37,-0.63],[132.33,-0.88],[132.52,-1.04],[132.76,-0.95],[132.96,-1.12],[132.92,-1.37],[133.11,-1.53],[133.35,-1.44],[133.55,-1.61],[133.79,-1.52],[133.98,-1.68],[133.94,-1.93],[134.14,-2.09],[134.38,-2.01],[134.42,-1.76],[134.22,-1.59],[134.26,-1.34],[134.07,-1.18],[134.11,-0.93]]],[[[153.84,-11.32],[153.61,-11.41],[153.44,-11.27],[153.48,-11.04],[153.31,-10.9],[153.08,-10.99],[152.9,-10.85],[152.95,-10.62],[152.77,-10.48],[152.55,-10.57],[152.5,-10.8],[152.28,-10.9],[152.23,-11.13],[152.41,-11.27],[152.64,-11.17],[152.81,-11.31],[153.04,-11.22],[153.22,-11.36],[153.17,-11.59],[153.35,-11.73],[153.57,-11.63],[153.75,-11.77],[153.97,-11.68],[154.01,-11.45],[154.23,-11.36],[154.28,-11.13],[154.1,-11.0],[153.88,-11.09],[153.84,-11.32]]],[[[151.28,-8.49],[151.33,-8.26],[151.15,-8.11],[150.92,-8.2],[150.87,-8.44],[151.06,-8.58],[151.01,-8.82],[151.19,-8.96],[151.42,-8.87],[151.47,-8.64],[151.28,-8.49]]],[[[144.73,-37.7],[144.43,-37.79],[144.37,-38.04],[144.07,-38.12],[144.0,-38.37],[143.7,-38.45],[143.64,-38.69],[143.88,-38.86],[144.19,-38.78],[144.25,-38.53],[144.55,-38.45],[144.8,-38.62],[145.1,-38.54],[145.35,-38.71],[145.65,-38.62],[145.71,-38.37],[145.46,-38.2],[145.52,-37.95],[145.28,-37.79],[145.33,-37.54],[145.09,-37.37],[144.79,-37.45],[144.73,-37.7]]],[[[150.64,-6.32],[150.87,-6.23],[150.92,-5.99],[150.73,-5.84],[150.5,-5.93],[150.46,-6.17],[150.64,-6.32]]],[[[151.05,-22.84],[150.83,-22.7],[150.87,-22.45],[150.65,-22.31],[150.69,-22.06],[150.47,-21.91],[150.51,-21.67],[150.29,-21.52],[150.33,-21.28],[150.11,-21.14],[149.87,-21.23],[149.83,-21.47],[149.58,-21.57],[149.54,-21.81],[149.29,-21.91],[149.25,-22.15],[149.47,-22.3],[149.43,-22.54],[149.64,-22.69],[149.9,-22.6],[149.93,-22.35],[150.18,-22.25],[150.4,-22.4],[150.36,-22.65],[150.58,-22.79],[150.55,-23.04],[150.76,-23.19],[150.73,-23.43],[150.95,-23.58],[150.91,-23.83],[151.13,-23.98],[151.39,-23.88],[151.42,-23.63],[151.2,-23.48],[151.24,-23.24],[151.02,-23.09],[151.05,-22.84]]],[[[152.78,-26.42],[152.75,-26.67],[152.49,-26.77],[152.45,-27.02],[152.69,-27.17],[152.66,-27.42],[152.89,-27.57],[152.86,-27.83],[153.09,-27.98],[153.06,-28.23],[153.3,-28.38],[153.27,-28.63],[153.51,-28.78],[153.77,-28.68],[153.8,-28.42],[153.56,-28.27],[153.59,-28.02],[153.86,-27.91],[153.88,-27.66],[153.65,-27.51],[153.68,-27.26],[153.44,-27.11],[153.47,-26.86],[153.24,-26.71],[153.27,-26.46],[153.53,-26.36],[153.56,-26.1],[153.33,-25.96],[153.36,-25.71],[153.61,-25.6],[153.64,-25.35],[153.41,-25.21],[153.44,-24.96],[153.7,-24.85],[153.72,-24.6],[153.5,-24.46],[153.24,-24.56],[153.21,-24.81],[152.96,-24.91],[152.73,-24.77],[152.48,-24.87],[152.44,-25.12],[152.67,-25.26],[152.64,-25.51],[152.38,-25.62],[152.35,-25.87],[152.58,-26.02],[152.55,-26.27],[152.78,-26.42]]],[[[139.62,-16.25],[139.58,-16.47],[139.77,-16.61],[140.0,-16.53],[140.05,-16.31],[139.85,-16.17],[139.62,-16.25]]],[[[136.3,-1.31],[136.54,-1.22],[136.58,-0.97],[136.38,-0.8],[136.14,-0.89],[135.94,-0.73],[135.7,-0.82],[135.66,-1.07],[135.86,-1.23],[136.1,-1.14],[136.3,-1.31]]],[[[132.51,-2.45],[132.27,-2.54],[132.23,-2.79],[132.43,-2.95],[132.39,-3.2],[132.58,-3.36],[132.54,-3.61],[132.74,-3.77],[132.7,-4.02],[132.89,-4.18],[133.13,-4.09],[133.33,-4.26],[133.56,-4.17],[133.61,-3.92],[133.41,-3.76],[133.17,-3.85],[132.98,-3.68],[133.02,-3.44],[132.82,-3.27],[132.86,-3.03],[133.1,-2.94],[133.14,-2.69],[133.38,-2.6],[133.58,-2.77],[133.82,-2.68],[133.86,-2.43],[133.66,-2.27],[133.7,-2.02],[133.51,-1.86],[133.27,-1.94],[133.23,-2.19],[132.99,-2.28],[132.95,-2.53],[132.71,-2.62],[132.51,-2.45]]],[[[150.68,-34.2],[150.92,-34.35],[151.21,-34.25],[151.25,-34.0],[151.53,-33.9],[151.57,-33.64],[151.85,-33.54],[151.89,-33.28],[151.64,-33.13],[151.36,-33.23],[151.32,-33.49],[151.04,-33.59],[151.0,-33.84],[150.71,-33.94],[150.68,-34.2]]],[[[135.92,-12.38],[136.11,-12.54],[136.35,-12.46],[136.39,-12.22],[136.63,-12.14],[136.82,-12.3],[137.06,-12.21],[137.1,-11.98],[136.91,-11.83],[136.95,-11.59],[136.76,-11.44],[136.8,-11.21],[137.04,-11.13],[137.08,-10.89],[136.89,-10.74],[136.65,-10.82],[136.61,-11.05],[136.37,-11.13],[136.33,-11.37],[136.09,-11.45],[136.05,-11.68],[135.81,-11.76],[135.77,-12.0],[135.53,-12.08],[135.49,-12.31],[135.68,-12.46],[135.92,-12.38]]],[[[152.31,-32.16],[152.28,-32.41],[152.0,-32.51],[151.96,-32.77],[152.21,-32.92],[152.49,-32.82],[152.52,-32.56],[152.8,-32.46],[152.83,-32.2],[152.59,-32.05],[152.31,-32.16]]],[[[152.78,-30.52],[153.02,-30.67],[153.3,-30.56],[153.33,-30.31],[153.6,-30.2],[153.63,-29.95],[153.39,-29.8],[153.12,-29.9],[153.09,-30.16],[152.81,-30.26],[152.78,-30.52]]],[[[134.25,-6.69],[134.21,-6.94],[134.41,-7.1],[134.64,-7.01],[134.69,-6.77],[134.92,-6.69],[134.97,-6.44],[134.77,-6.28],[134.53,-6.37],[134.34,-6.21],[134.1,-6.29],[134.06,-6.53],[134.25,-6.69]]],[[[154.31,-21.29],[154.56,-21.19],[154.58,-20.95],[154.36,-20.81],[154.12,-20.91],[154.09,-21.15],[154.31,-21.29]]],[[[146.71,-1.92],[146.66,-2.17],[146.85,-2.33],[147.09,-2.24],[147.13,-1.99],[146.94,-1.83],[146.71,-1.92]]],[[[18.61,-33.64],[18.33,-33.65],[18.21,-33.84],[18.38,-34.03],[18.66,-34.03],[18.77,-33.83],[18.61,-33.64]]],[[[150.02,-17.14],[150.22,-17.28],[150.46,-17.19],[150.49,-16.95],[150.73,-16.86],[150.76,-16.63],[150.56,-16.49],[150.32,-16.58],[150.29,-16.81],[150.05,-16.91],[150.02,-17.14]]],[[[152.69,-31.28],[152.93,-31.44],[153.21,-31.33],[153.24,-31.08],[152.99,-30.92],[152.72,-31.03],[152.69,-31.28]]],[[[134.25,-2.76],[134.45,-2.92],[134.69,-2.83],[134.73,-2.58],[134.53,-2.42],[134.29,-2.51],[134.25,-2.76]]],[[[152.95,-9.56],[153.18,-9.46],[153.22,-9.23],[153.04,-9.09],[153.09,-8.86],[152.91,-8.71],[152.68,-8.8],[152.64,-9.04],[152.82,-9.18],[152.77,-9.41],[152.95,-9.56]]],[[[163.83,-20.26],[164.06,-20.38],[164.06,-20.62],[164.29,-20.75],[164.51,-20.63],[164.51,-20.39],[164.28,-20.27],[164.28,-20.03],[164.05,-19.9],[163.83,-20.02],[163.83,-20.26]]],[[[140.75,-17.11],[140.69,-17.33],[140.87,-17.48],[141.11,-17.4],[141.17,-17.17],[140.98,-17.03],[140.75,-17.11]]],[[[152.06,-24.32],[152.09,-24.08],[151.87,-23.93],[151.61,-24.03],[151.58,-24.28],[151.8,-24.42],[151.77,-24.67],[151.99,-24.82],[152.25,-24.72],[152.28,-24.47],[152.06,-24.32]]],[[[130.91,0.01],[130.87,-0.24],[131.06,-0.4],[131.3,-0.31],[131.34,-0.06],[131.15,0.1],[130.91,0.01]]],[[[150.31,-36.49],[150.35,-36.24],[150.1,-36.08],[149.8,-36.18],[149.76,-36.43],[150.01,-36.59],[150.31,-36.49]]],[[[150.22,-35.32],[149.93,-35.41],[149.89,-35.67],[150.14,-35.83],[150.43,-35.73],[150.47,-35.47],[150.77,-35.37],[150.81,-35.12],[151.1,-35.02],[151.13,-34.76],[150.88,-34.61],[150.6,-34.71],[150.56,-34.96],[150.27,-35.06],[150.22,-35.32]]],[[[151.56,-5.96],[151.6,-5.72],[151.42,-5.57],[151.19,-5.66],[151.15,-5.9],[151.33,-6.05],[151.56,-5.96]]],[[[149.98,-15.84],[149.95,-16.07],[150.15,-16.21],[150.39,-16.12],[150.42,-15.89],[150.22,-15.75],[149.98,-15.84]]],[[[149.34,-17.19],[149.58,-17.09],[149.61,-16.86],[149.41,-16.72],[149.17,-16.81],[149.14,-17.04],[149.34,-17.19]]],[[[134.32,-3.67],[134.56,-3.58],[134.6,-3.33],[134.41,-3.17],[134.17,-3.26],[134.12,-3.5],[134.32,-3.67]]],[[[153.21,-29.14],[153.18,-29.39],[153.42,-29.54],[153.69,-29.44],[153.71,-29.18],[153.48,-29.04],[153.21,-29.14]]]]}}]}