{"type":"FeatureCollection","features":[{"type":"Feature","properties":{},"geometry":{"type":"MultiPolygon","coordinates":[[[[-43.53,-78.4],[-43.34,-78.15],[-44.31,-77.98],[-44.12,-77.73],[-45.04,-77.57],[-50.19,-77.45],[-50.5,-77.7],[-49.64,-77.88],[-49.95,-78.13],[-51.16,-78.19],[-51.51,-78.44],[-50.62,-78.62],[-50.97,-78.87],[-52.26,-78.93],[-52.66,-79.17],[-51.72,-79.36],[-52.12,-79.6],[-51.14,-79.79],[-51.54,-80.04],[-55.4,-79.95],[-55.91,-80.18],[-54.94,-80.38],[-55.47,-80.62],[-54.44,-80.82],[-54.98,-81.06],[-53.9,-81.25],[-52.26,-81.2],[-51.79,-80.95],[-47.48,-81.0],[-47.14,-80.75],[-45.64,-80.67],[-45.36,-80.42],[-46.51,-80.25],[-49.81,-80.65],[-50.91,-80.47],[-50.5,-80.22],[-49.06,-80.15],[-48.7,-79.91],[-49.75,-79.73],[-49.39,-79.48],[-50.38,-79.3],[-50.03,-79.05],[-47.18,-78.66],[-46.19,-78.83],[-46.45,-79.08],[-45.42,-79.25],[-41.79,-79.22],[-41.63,-78.97],[-42.69,-78.81],[-42.52,-78.56],[-43.53,-78.4]]],[[[-144.59,-27.74],[-144.46,-27.96],[-144.18,-27.98],[-144.03,-27.76],[-144.16,-27.54],[-144.44,-27.53],[-144.59,-27.74]]],[[[130.91,-66.22],[130.52,-66.03],[129.93,-66.07],[128.87,-66.58],[129.25,-66.78],[129.02,-67.01],[128.4,-67.05],[128.02,-66.85],[127.4,-66.88],[127.03,-66.68],[127.28,-66.45],[126.91,-66.25],[126.3,-66.28],[126.05,-66.51],[126.41,-66.71],[126.14,-66.94],[126.51,-67.14],[127.14,-67.11],[128.54,-67.48],[130.03,-67.16],[130.26,-66.93],[129.87,-66.74],[130.91,-66.22]]],[[[-171.04,-3.51],[-170.72,-3.75],[-170.7,-3.37],[-171.24,-3.09],[-171.36,-3.26],[-171.04,-3.51]]],[[[25.98,78.38],[28.05,78.8],[30.11,78.75],[30.19,78.97],[31.29,79.06],[31.41,79.28],[30.37,79.43],[28.09,79.02],[27.04,79.16],[27.06,79.38],[29.38,79.8],[29.46,80.02],[28.32,80.16],[28.37,80.39],[24.7,80.55],[24.67,80.78],[23.36,80.9],[19.62,80.78],[19.78,80.55],[17.34,80.53],[16.25,80.39],[16.49,80.17],[15.46,80.04],[11.89,80.06],[8.74,79.83],[9.13,79.62],[10.38,79.55],[10.72,79.34],[9.86,79.19],[10.2,78.98],[9.38,78.83],[9.72,78.62],[10.85,78.55],[11.15,78.33],[10.36,78.19],[10.66,77.98],[13.57,77.97],[13.81,77.75],[13.03,77.62],[13.27,77.4],[15.44,77.02],[15.63,76.81],[14.88,76.68],[15.08,76.47],[15.99,76.38],[18.41,76.53],[18.27,76.74],[17.34,76.84],[17.18,77.06],[17.98,77.18],[17.83,77.39],[18.66,77.51],[18.52,77.73],[19.38,77.85],[20.38,77.75],[20.49,77.53],[22.46,77.09],[25.11,77.17],[25.09,77.39],[24.16,77.52],[24.12,77.74],[25.05,77.84],[25.02,78.06],[22.97,78.52],[22.9,78.75],[21.83,78.86],[21.74,79.09],[25.97,79.06],[25.98,78.83],[24.95,78.73],[24.98,78.51],[25.98,78.38]]],[[[-180.0,-84.62],[-173.18,-84.92],[-166.04,-84.94],[-163.97,-85.09],[-164.49,-85.32],[-156.96,-85.48],[-157.14,-85.72],[-154.37,-85.84],[-148.68,-85.81],[-146.1,-85.65],[-146.51,-85.41],[-144.22,-85.25],[-141.47,-85.32],[-140.79,-85.56],[-137.79,-85.61],[-135.73,-85.43],[-136.63,-85.2],[-134.78,-85.01],[-135.66,-84.78],[-133.99,-84.59],[-134.83,-84.36],[-133.31,-84.17],[-134.12,-83.94],[-129.3,-83.56],[-127.17,-83.57],[-126.06,-83.36],[-127.02,-83.15],[-129.01,-83.14],[-129.84,-82.92],[-128.75,-82.72],[-129.55,-82.5],[-131.36,-82.49],[-132.05,-82.27],[-131.0,-82.07],[-131.66,-81.85],[-130.68,-81.65],[-131.32,-81.43],[-132.89,-81.41],[-133.46,-81.19],[-132.5,-81.0],[-133.05,-80.78],[-134.5,-80.75],[-134.99,-80.53],[-134.07,-80.34],[-134.55,-80.12],[-133.68,-79.93],[-134.15,-79.71],[-135.44,-79.69],[-135.85,-79.47],[-135.02,-79.28],[-135.42,-79.06],[-136.63,-79.03],[-136.99,-78.81],[-138.16,-78.77],[-138.49,-78.55],[-140.47,-78.68],[-142.94,-78.35],[-145.82,-78.61],[-148.92,-78.6],[-149.02,-78.38],[-148.09,-78.23],[-145.09,-78.23],[-144.22,-78.07],[-144.41,-77.85],[-143.57,-77.69],[-143.77,-77.47],[-142.96,-77.3],[-143.16,-77.08],[-144.13,-77.03],[-144.31,-76.81],[-143.54,-76.65],[-143.72,-76.43],[-140.43,-76.2],[-139.74,-76.03],[-139.97,-75.82],[-139.31,-75.65],[-136.88,-75.55],[-136.26,-75.37],[-134.16,-75.62],[-130.67,-75.08],[-129.77,-75.09],[-129.39,-75.29],[-127.08,-75.08],[-126.66,-75.28],[-125.75,-75.27],[-125.28,-75.06],[-123.01,-75.22],[-122.58,-75.0],[-121.69,-74.98],[-119.76,-75.32],[-117.57,-75.02],[-115.52,-75.32],[-115.85,-75.55],[-115.25,-75.73],[-107.09,-76.21],[-105.04,-75.79],[-104.28,-75.94],[-95.67,-76.04],[-94.8,-75.91],[-94.82,-75.66],[-93.98,-75.53],[-94.01,-75.28],[-94.84,-75.17],[-94.85,-74.92],[-95.66,-74.8],[-95.66,-74.56],[-96.44,-74.44],[-96.42,-74.19],[-95.65,-74.06],[-95.65,-73.82],[-94.91,-73.69],[-92.65,-73.77],[-90.43,-73.58],[-88.74,-74.02],[-86.53,-73.79],[-85.7,-73.87],[-85.55,-74.11],[-83.17,-74.09],[-82.97,-74.34],[-82.09,-74.41],[-81.43,-74.23],[-81.65,-73.99],[-79.54,-73.69],[-77.53,-74.03],[-77.25,-74.27],[-76.34,-74.31],[-66.47,-73.02],[-66.03,-72.8],[-66.44,-72.58],[-66.02,-72.36],[-66.42,-72.14],[-64.8,-71.69],[-65.2,-71.47],[-64.81,-71.25],[-66.36,-70.82],[-65.98,-70.6],[-66.35,-70.38],[-65.97,-70.17],[-65.23,-70.16],[-64.86,-69.94],[-65.23,-69.73],[-64.88,-69.5],[-64.16,-69.5],[-63.78,-69.71],[-64.13,-69.93],[-63.74,-70.14],[-64.1,-70.37],[-63.7,-70.58],[-64.06,-70.81],[-62.46,-71.22],[-62.82,-71.44],[-62.38,-71.66],[-62.75,-71.88],[-62.31,-72.1],[-62.68,-72.32],[-62.23,-72.54],[-62.61,-72.76],[-62.14,-72.98],[-62.53,-73.2],[-62.05,-73.42],[-62.45,-73.65],[-61.95,-73.86],[-62.37,-74.09],[-61.85,-74.3],[-62.28,-74.53],[-64.64,-74.78],[-65.12,-75.0],[-64.61,-75.22],[-66.63,-75.66],[-66.13,-75.89],[-66.66,-76.1],[-71.02,-76.49],[-71.66,-76.7],[-74.21,-76.4],[-74.6,-76.17],[-73.95,-75.97],[-74.32,-75.73],[-75.33,-75.69],[-75.67,-75.46],[-75.04,-75.26],[-75.38,-75.02],[-77.92,-75.12],[-78.58,-75.31],[-78.29,-75.55],[-78.97,-75.74],[-79.95,-75.68],[-80.66,-75.86],[-80.39,-76.11],[-79.38,-76.17],[-79.09,-76.41],[-78.05,-76.46],[-77.72,-76.7],[-78.46,-76.89],[-78.13,-77.13],[-77.03,-77.18],[-76.66,-77.42],[-79.36,-77.75],[-81.89,-77.38],[-82.72,-77.55],[-82.46,-77.8],[-81.33,-77.87],[-81.03,-78.11],[-78.31,-78.47],[-77.92,-78.72],[-78.8,-78.9],[-81.6,-78.53],[-81.9,-78.29],[-83.07,-78.22],[-83.32,-77.97],[-84.45,-77.89],[-85.35,-78.06],[-85.13,-78.31],[-83.97,-78.39],[-83.72,-78.63],[-84.66,-78.8],[-84.42,-79.05],[-83.17,-79.13],[-82.88,-79.37],[-79.9,-79.76],[-78.94,-79.57],[-77.59,-79.63],[-77.15,-79.87],[-80.52,-80.18],[-80.13,-80.43],[-76.2,-80.35],[-75.69,-80.59],[-76.69,-80.78],[-76.17,-81.02],[-74.59,-81.07],[-73.99,-81.3],[-69.74,-81.16],[-69.01,-81.39],[-67.33,-81.4],[-66.51,-81.63],[-67.42,-81.84],[-66.56,-82.07],[-67.52,-82.28],[-63.66,-82.73],[-64.63,-82.95],[-63.54,-83.16],[-64.57,-83.38],[-59.83,-83.8],[-57.51,-83.77],[-56.66,-83.54],[-58.03,-83.34],[-57.22,-83.11],[-55.14,-83.07],[-54.45,-82.83],[-55.74,-82.64],[-60.53,-82.93],[-61.67,-82.72],[-60.81,-82.49],[-58.89,-82.47],[-58.14,-82.24],[-59.25,-82.03],[-63.77,-82.29],[-64.73,-82.07],[-63.86,-81.85],[-62.08,-81.84],[-61.3,-81.61],[-62.25,-81.4],[-63.95,-81.41],[-64.81,-81.19],[-68.84,-80.95],[-69.55,-80.72],[-68.69,-80.51],[-67.17,-80.52],[-64.02,-80.97],[-59.87,-81.15],[-59.2,-80.92],[-57.6,-80.89],[-57.01,-80.66],[-57.96,-80.46],[-57.39,-80.22],[-58.29,-80.02],[-57.74,-79.78],[-58.6,-79.58],[-62.18,-79.41],[-62.81,-79.64],[-62.03,-79.85],[-62.69,-80.08],[-64.16,-80.09],[-64.91,-79.87],[-64.22,-79.64],[-66.97,-79.2],[-66.28,-78.98],[-66.92,-78.76],[-66.26,-78.54],[-66.87,-78.32],[-68.11,-78.31],[-68.8,-78.52],[-72.06,-78.69],[-72.84,-78.89],[-72.32,-79.12],[-73.13,-79.33],[-72.6,-79.56],[-73.45,-79.76],[-72.9,-80.0],[-71.46,-80.03],[-70.63,-79.82],[-69.21,-79.84],[-68.56,-80.07],[-69.37,-80.28],[-73.23,-80.43],[-73.8,-80.2],[-75.25,-80.16],[-75.75,-79.92],[-74.84,-79.72],[-75.33,-79.49],[-74.47,-79.29],[-74.95,-79.05],[-74.13,-78.85],[-74.59,-78.62],[-73.81,-78.42],[-72.57,-78.45],[-71.83,-78.25],[-72.31,-78.01],[-71.6,-77.81],[-72.08,-77.58],[-74.8,-77.27],[-75.2,-77.04],[-74.5,-76.84],[-71.86,-77.14],[-71.2,-76.93],[-70.09,-76.95],[-69.47,-76.74],[-68.37,-76.76],[-67.79,-76.54],[-63.5,-76.1],[-63.01,-75.87],[-63.56,-75.65],[-63.09,-75.43],[-60.64,-75.16],[-60.23,-74.93],[-60.79,-74.72],[-60.38,-74.49],[-59.43,-74.46],[-59.05,-74.23],[-59.6,-74.02],[-59.23,-73.79],[-59.76,-73.58],[-59.39,-73.35],[-59.91,-73.14],[-59.55,-72.91],[-60.05,-72.7],[-59.7,-72.47],[-60.19,-72.26],[-59.84,-72.03],[-60.32,-71.82],[-59.98,-71.59],[-60.44,-71.39],[-60.11,-71.15],[-60.56,-70.95],[-60.23,-70.72],[-61.85,-70.32],[-61.52,-70.1],[-60.78,-70.07],[-60.46,-69.84],[-60.88,-69.64],[-60.57,-69.41],[-60.98,-69.2],[-62.78,-69.03],[-63.16,-68.82],[-62.84,-68.6],[-62.15,-68.58],[-60.68,-68.97],[-59.98,-68.95],[-59.69,-68.72],[-60.09,-68.51],[-61.85,-68.36],[-62.22,-68.15],[-63.89,-68.4],[-64.24,-68.19],[-63.92,-67.97],[-64.27,-67.76],[-63.95,-67.54],[-64.29,-67.33],[-63.99,-67.11],[-62.41,-66.86],[-62.12,-66.63],[-60.5,-66.79],[-60.24,-66.56],[-60.6,-66.36],[-59.47,-65.88],[-59.82,-65.68],[-61.38,-65.53],[-61.71,-65.33],[-61.45,-65.11],[-58.98,-65.42],[-58.74,-65.19],[-59.09,-64.99],[-58.86,-64.77],[-57.33,-64.89],[-57.11,-64.66],[-56.54,-64.61],[-56.33,-64.38],[-56.69,-64.19],[-56.48,-63.96],[-55.17,-63.64],[-54.25,-63.12],[-56.38,-62.67],[-57.66,-62.98],[-57.87,-63.21],[-59.29,-63.09],[-60.3,-63.56],[-61.72,-63.42],[-62.02,-63.22],[-61.78,-63.0],[-60.38,-63.15],[-60.15,-62.92],[-59.61,-62.89],[-59.39,-62.67],[-57.38,-62.11],[-57.19,-61.89],[-57.51,-61.7],[-58.02,-61.74],[-58.23,-61.96],[-59.58,-61.84],[-59.8,-62.06],[-61.07,-62.34],[-61.31,-62.56],[-63.41,-63.06],[-63.67,-63.28],[-63.38,-63.48],[-62.82,-63.46],[-62.52,-63.66],[-62.78,-63.88],[-64.17,-64.13],[-64.45,-64.35],[-64.15,-64.55],[-64.43,-64.77],[-64.12,-64.97],[-64.41,-65.19],[-65.88,-65.0],[-66.18,-65.22],[-65.89,-65.43],[-66.19,-65.64],[-67.71,-65.86],[-68.04,-66.07],[-67.75,-66.28],[-68.08,-66.49],[-68.7,-66.49],[-69.05,-66.7],[-68.76,-66.91],[-70.11,-67.32],[-69.83,-67.54],[-70.2,-67.75],[-69.91,-67.97],[-68.28,-68.21],[-67.97,-68.43],[-68.34,-68.64],[-68.02,-68.86],[-68.4,-69.07],[-71.06,-68.59],[-72.56,-68.98],[-72.28,-69.2],[-72.7,-69.41],[-73.4,-69.38],[-73.84,-69.58],[-75.48,-69.29],[-75.94,-69.48],[-75.69,-69.71],[-76.16,-69.91],[-75.91,-70.14],[-76.39,-70.33],[-76.14,-70.56],[-77.87,-70.9],[-77.64,-71.14],[-76.88,-71.18],[-76.63,-71.42],[-75.87,-71.46],[-75.6,-71.69],[-76.11,-71.89],[-75.84,-72.12],[-73.93,-72.42],[-73.62,-72.66],[-72.79,-72.69],[-72.46,-72.92],[-72.98,-73.12],[-73.83,-73.09],[-74.15,-72.86],[-76.09,-72.55],[-76.64,-72.74],[-76.36,-72.98],[-76.92,-73.17],[-77.76,-73.12],[-78.34,-73.31],[-79.18,-73.26],[-79.42,-73.02],[-81.27,-72.67],[-81.86,-72.84],[-81.66,-73.08],[-82.28,-73.26],[-82.08,-73.5],[-82.71,-73.68],[-83.55,-73.61],[-83.73,-73.37],[-84.54,-73.29],[-84.7,-73.05],[-86.93,-73.05],[-87.06,-72.81],[-87.82,-72.73],[-87.93,-72.48],[-92.13,-72.65],[-92.85,-72.55],[-92.89,-72.3],[-94.96,-72.22],[-94.97,-71.98],[-96.29,-71.51],[-98.27,-71.64],[-100.2,-71.51],[-101.66,-71.97],[-102.98,-71.94],[-103.08,-72.18],[-101.11,-72.34],[-101.19,-72.58],[-101.92,-72.69],[-102.56,-72.56],[-104.16,-73.0],[-104.78,-72.86],[-105.54,-72.95],[-105.69,-73.19],[-103.64,-73.38],[-103.76,-73.62],[-103.09,-73.76],[-103.21,-74.0],[-104.01,-74.1],[-104.15,-74.34],[-101.91,-74.52],[-102.01,-74.76],[-102.86,-74.87],[-103.58,-74.73],[-105.44,-75.16],[-108.58,-75.03],[-109.24,-74.87],[-109.03,-74.63],[-109.66,-74.47],[-109.45,-74.24],[-110.06,-74.08],[-112.33,-74.06],[-115.65,-73.67],[-117.62,-73.99],[-118.12,-73.81],[-121.55,-73.56],[-121.99,-73.38],[-124.0,-73.64],[-124.41,-73.45],[-127.58,-73.1],[-128.01,-73.3],[-127.65,-73.5],[-128.1,-73.7],[-127.73,-73.89],[-123.1,-74.41],[-122.64,-74.6],[-123.06,-74.81],[-125.27,-74.66],[-126.96,-74.28],[-130.5,-74.68],[-130.85,-74.48],[-130.35,-74.29],[-130.69,-74.09],[-131.52,-74.08],[-133.4,-74.45],[-133.09,-74.65],[-133.64,-74.84],[-135.64,-74.59],[-137.66,-74.92],[-139.99,-75.01],[-140.63,-75.18],[-140.42,-75.39],[-141.08,-75.56],[-143.0,-75.25],[-146.07,-75.44],[-146.8,-75.59],[-146.68,-75.81],[-147.43,-75.95],[-149.05,-76.03],[-148.97,-76.24],[-149.77,-76.38],[-149.7,-76.6],[-152.25,-76.79],[-152.23,-77.01],[-153.1,-77.14],[-154.85,-76.73],[-159.21,-76.87],[-159.31,-77.09],[-158.47,-77.2],[-158.55,-77.42],[-159.51,-77.53],[-159.62,-77.75],[-158.74,-77.86],[-158.83,-78.08],[-157.91,-78.19],[-157.99,-78.42],[-157.03,-78.52],[-157.1,-78.75],[-156.1,-78.85],[-156.15,-79.08],[-155.1,-79.18],[-155.13,-79.41],[-151.83,-79.48],[-151.78,-79.7],[-150.62,-79.8],[-150.54,-80.02],[-151.68,-80.16],[-151.63,-80.39],[-148.97,-80.8],[-148.84,-81.03],[-150.09,-81.17],[-152.8,-80.76],[-154.07,-80.89],[-157.86,-80.79],[-160.74,-81.24],[-163.38,-81.2],[-163.64,-81.43],[-165.14,-81.52],[-165.46,-81.75],[-161.36,-81.92],[-159.82,-81.82],[-158.46,-81.94],[-158.61,-82.17],[-157.16,-82.29],[-154.12,-82.28],[-154.13,-82.51],[-155.73,-82.64],[-155.79,-82.87],[-157.51,-82.99],[-157.64,-83.23],[-159.47,-83.34],[-161.1,-83.21],[-160.85,-82.98],[-162.37,-82.85],[-166.43,-83.26],[-167.88,-83.11],[-167.41,-82.88],[-168.76,-82.73],[-173.67,-82.7],[-174.33,-82.91],[-173.08,-83.08],[-173.76,-83.3],[-168.92,-83.56],[-169.5,-83.79],[-167.92,-83.94],[-164.08,-84.01],[-164.51,-84.24],[-169.81,-84.63],[-180.0,-84.22],[-180.0,-84.62]],[[-72.13,-70.95],[-72.89,-70.93],[-73.18,-70.7],[-72.73,-70.5],[-71.99,-70.52],[-71.68,-70.75],[-72.13,-70.95]]],[[[180.0,-84.22],[177.13,-84.44],[180.0,-84.62],[180.0,-84.22]]],[[[11.46,-70.68],[10.74,-70.73],[10.22,-70.55],[10.42,-70.32],[9.92,-70.13],[9.21,-70.18],[9.0,-70.42],[7.07,-70.32],[6.82,-70.55],[6.09,-70.59],[4.42,-70.22],[3.7,-70.25],[3.41,-70.48],[0.53,-71.0],[0.19,-71.22],[-0.59,-71.23],[-0.95,-71.45],[-1.74,-71.46],[-2.15,-71.24],[-1.78,-71.02],[-2.19,-70.81],[-1.83,-70.59],[-2.22,-70.37],[-2.97,-70.37],[-3.34,-70.59],[-2.95,-70.81],[-3.33,-71.03],[-4.1,-71.02],[-4.5,-71.24],[-5.28,-71.23],[-5.66,-71.01],[-5.25,-70.79],[-5.61,-70.57],[-7.55,-70.75],[-7.98,-70.96],[-7.64,-71.19],[-8.08,-71.4],[-8.87,-71.38],[-10.3,-70.88],[-12.31,-71.01],[-12.8,-71.21],[-12.51,-71.45],[-13.02,-71.65],[-12.72,-71.89],[-13.24,-72.08],[-12.95,-72.32],[-14.87,-72.67],[-14.58,-72.91],[-15.16,-73.1],[-16.02,-73.05],[-16.61,-73.24],[-16.34,-73.49],[-16.95,-73.68],[-16.68,-73.92],[-15.77,-73.98],[-15.48,-74.22],[-19.3,-74.66],[-19.05,-74.91],[-19.75,-75.09],[-19.5,-75.34],[-20.23,-75.52],[-24.71,-75.62],[-25.52,-75.79],[-26.49,-75.69],[-27.32,-75.85],[-27.19,-76.1],[-28.05,-76.26],[-29.04,-76.15],[-29.92,-76.3],[-29.83,-76.56],[-32.69,-76.73],[-32.65,-76.98],[-33.64,-77.12],[-33.61,-77.37],[-34.63,-77.51],[-34.63,-77.76],[-35.7,-77.89],[-35.72,-78.15],[-36.82,-78.27],[-36.87,-78.53],[-38.03,-78.64],[-38.1,-78.9],[-36.97,-79.04],[-37.02,-79.29],[-35.84,-79.43],[-35.87,-79.69],[-32.11,-79.81],[-32.04,-80.06],[-30.71,-80.18],[-30.6,-80.43],[-26.52,-80.49],[-22.73,-80.25],[-23.03,-80.0],[-21.94,-79.83],[-22.24,-79.58],[-25.99,-79.57],[-27.12,-79.73],[-28.43,-79.63],[-28.58,-79.37],[-29.84,-79.27],[-29.95,-79.01],[-35.79,-78.92],[-35.76,-78.66],[-34.63,-78.53],[-34.63,-78.28],[-33.55,-78.15],[-33.57,-77.89],[-32.53,-77.75],[-32.57,-77.5],[-31.58,-77.36],[-31.64,-77.1],[-28.71,-76.92],[-28.82,-76.67],[-27.93,-76.51],[-26.91,-76.61],[-26.03,-76.46],[-26.19,-76.2],[-25.35,-76.04],[-24.35,-76.13],[-23.54,-75.96],[-18.97,-75.84],[-18.24,-75.65],[-18.52,-75.41],[-17.81,-75.22],[-18.09,-74.97],[-14.23,-74.51],[-14.55,-74.27],[-13.95,-74.07],[-14.26,-73.83],[-15.16,-73.78],[-15.46,-73.54],[-14.87,-73.35],[-12.78,-73.68],[-12.22,-73.48],[-12.55,-73.24],[-10.61,-72.87],[-10.95,-72.64],[-10.44,-72.43],[-8.29,-72.28],[-7.82,-72.07],[-5.74,-71.89],[-5.32,-71.67],[-4.52,-71.68],[-4.12,-71.9],[-2.11,-71.68],[-0.43,-72.11],[0.38,-72.09],[0.73,-71.87],[0.28,-71.66],[1.74,-71.19],[2.51,-71.17],[2.97,-71.37],[4.8,-71.08],[5.28,-71.28],[6.05,-71.25],[6.31,-71.01],[8.31,-71.12],[8.55,-70.89],[9.28,-70.84],[12.35,-71.27],[13.97,-70.9],[18.41,-71.34],[26.3,-71.61],[26.95,-71.49],[26.94,-71.25],[28.86,-71.14],[28.82,-70.9],[29.43,-70.78],[29.39,-70.54],[28.76,-70.42],[27.56,-70.9],[25.03,-70.86],[23.82,-70.34],[21.94,-70.4],[21.35,-70.25],[19.97,-70.68],[19.38,-70.53],[19.47,-70.28],[18.9,-70.13],[17.46,-70.54],[16.89,-70.37],[17.01,-70.13],[16.46,-69.97],[16.58,-69.73],[16.04,-69.57],[15.39,-69.64],[15.25,-69.88],[15.79,-70.05],[15.66,-70.29],[12.53,-70.14],[12.35,-70.38],[11.65,-70.44],[11.46,-70.68]]],[[[168.08,-72.63],[168.75,-72.69],[168.96,-72.91],[168.49,-73.08],[166.62,-73.12],[166.12,-73.28],[166.3,-73.5],[165.78,-73.66],[164.53,-73.75],[164.7,-73.98],[164.14,-74.13],[164.31,-74.36],[162.39,-74.6],[162.54,-74.83],[161.92,-74.98],[162.07,-75.21],[159.99,-75.43],[160.11,-75.66],[160.91,-75.74],[162.38,-75.67],[162.54,-75.9],[161.87,-76.05],[162.03,-76.28],[161.34,-76.43],[161.5,-76.66],[163.05,-76.58],[162.87,-76.35],[163.54,-76.19],[163.36,-75.97],[164.0,-75.81],[163.81,-75.58],[163.02,-75.51],[162.85,-75.28],[163.47,-75.13],[163.3,-74.9],[166.55,-74.56],[166.35,-74.33],[165.61,-74.27],[165.42,-74.04],[167.93,-73.85],[168.43,-73.68],[168.22,-73.46],[168.7,-73.3],[169.4,-73.35],[169.63,-73.57],[170.34,-73.62],[170.8,-73.45],[169.65,-72.97],[171.22,-72.68],[170.11,-72.2],[171.19,-72.08],[171.6,-71.92],[171.37,-71.7],[169.9,-71.38],[169.7,-71.16],[168.28,-70.82],[168.1,-70.6],[166.47,-70.63],[166.31,-70.4],[165.71,-70.33],[164.21,-70.56],[162.9,-70.18],[161.84,-70.24],[161.73,-70.01],[160.48,-69.61],[160.39,-69.37],[158.79,-69.32],[158.72,-69.09],[158.17,-68.99],[156.63,-69.16],[156.08,-69.05],[156.04,-68.81],[154.94,-68.36],[153.4,-68.49],[153.41,-68.73],[152.89,-68.85],[152.9,-69.09],[153.44,-69.21],[155.03,-69.07],[156.17,-69.52],[157.74,-69.36],[158.3,-69.46],[158.37,-69.69],[160.0,-69.75],[160.09,-69.98],[160.67,-70.07],[160.77,-70.3],[160.27,-70.44],[160.37,-70.67],[161.68,-71.08],[161.8,-71.31],[162.92,-71.24],[162.79,-71.01],[162.18,-70.93],[162.06,-70.7],[162.55,-70.56],[163.88,-70.94],[164.02,-71.17],[164.64,-71.25],[165.11,-71.09],[164.96,-70.87],[165.42,-70.71],[166.02,-70.78],[166.18,-71.01],[167.85,-70.98],[168.03,-71.2],[169.48,-71.54],[169.68,-71.76],[169.25,-71.92],[169.45,-72.14],[169.01,-72.31],[167.89,-72.41],[168.08,-72.63]]],[[[162.25,-66.69],[162.75,-66.78],[162.85,-67.01],[163.76,-66.95],[163.65,-66.72],[162.55,-66.32],[162.15,-66.46],[162.25,-66.69]]],[[[-23.53,60.63],[-24.28,60.63],[-24.31,60.4],[-23.95,60.28],[-23.57,60.4],[-23.53,60.63]]],[[[-33.28,-80.45],[-37.33,-80.57],[-37.4,-80.83],[-38.85,-80.94],[-40.18,-80.8],[-41.65,-80.9],[-41.85,-81.15],[-43.4,-81.25],[-43.65,-81.5],[-42.27,-81.66],[-40.66,-81.56],[-40.49,-81.3],[-38.97,-81.2],[-37.56,-81.34],[-36.07,-81.22],[-36.03,-80.96],[-31.83,-80.83],[-31.9,-80.57],[-33.28,-80.45]]],[[[19.45,74.61],[19.35,74.82],[18.55,74.92],[17.87,74.81],[18.0,74.6],[19.64,74.2],[20.31,74.3],[20.22,74.51],[19.45,74.61]]],[[[-20.23,-74.59],[-20.46,-74.34],[-19.78,-74.16],[-20.02,-73.91],[-19.36,-73.73],[-19.59,-73.49],[-20.46,-73.41],[-21.11,-73.59],[-20.9,-73.84],[-21.58,-74.02],[-21.37,-74.27],[-22.08,-74.44],[-21.87,-74.69],[-20.94,-74.77],[-20.23,-74.59]]],[[[70.38,-49.98],[70.73,-49.9],[70.82,-49.67],[70.56,-49.52],[71.07,-48.98],[69.3,-48.77],[69.06,-48.62],[69.15,-48.4],[68.58,-48.32],[68.63,-48.92],[68.29,-48.99],[68.19,-49.22],[68.58,-49.75],[68.49,-49.98],[69.08,-50.06],[69.18,-49.83],[69.53,-49.76],[70.38,-49.98]]],[[[163.61,-77.26],[163.42,-77.03],[162.53,-76.96],[161.82,-77.12],[161.99,-77.35],[162.9,-77.42],[163.09,-77.64],[164.74,-77.55],[164.52,-77.32],[163.61,-77.26]]],[[[-167.42,5.07],[-167.31,4.84],[-167.08,4.82],[-166.95,5.01],[-166.37,4.73],[-166.23,4.93],[-165.99,4.9],[-165.65,4.65],[-164.76,5.18],[-164.17,4.89],[-162.49,5.77],[-161.9,5.48],[-161.75,5.68],[-161.85,5.91],[-162.1,5.94],[-162.21,6.17],[-161.94,7.66],[-162.04,7.89],[-162.29,7.92],[-162.75,8.4],[-163.39,8.25],[-163.85,8.74],[-164.09,8.76],[-164.23,8.56],[-164.83,8.84],[-165.35,8.46],[-165.94,8.74],[-166.08,8.54],[-169.29,7.16],[-169.37,5.91],[-168.02,4.93],[-167.42,5.07]]],[[[119.42,-67.74],[119.75,-67.52],[121.38,-67.29],[121.69,-67.07],[121.36,-66.85],[120.72,-66.86],[119.43,-67.3],[118.78,-67.3],[118.44,-67.52],[118.75,-67.74],[119.42,-67.74]]],[[[77.79,-38.23],[78.07,-38.12],[78.1,-37.88],[77.61,-37.37],[77.33,-37.47],[77.53,-38.09],[77.79,-38.23]]],[[[131.89,-66.37],[132.48,-66.32],[134.89,-66.75],[136.22,-66.39],[136.64,-66.56],[141.7,-67.02],[142.26,-66.93],[142.36,-66.69],[136.38,-66.15],[135.97,-65.97],[134.65,-66.33],[132.29,-65.89],[131.7,-65.94],[131.5,-66.18],[131.89,-66.37]]],[[[-139.39,-10.32],[-138.82,-10.18],[-138.82,-9.42],[-139.5,-9.74],[-139.39,-10.32]]],[[[52.35,-46.13],[52.05,-46.16],[51.56,-46.59],[52.09,-46.73],[52.18,-46.53],[52.49,-46.5],[52.57,-46.3],[52.35,-46.13]]],[[[-173.05,60.99],[-173.53,61.02],[-173.85,60.84],[-173.05,60.39],[-173.83,60.23],[-174.13,60.05],[-173.97,59.84],[-171.64,60.29],[-171.78,60.5],[-172.89,60.78],[-173.05,60.99]]],[[[-180.0,51.53],[-179.74,51.74],[-179.95,51.94],[-179.77,52.14],[-179.99,52.35],[-180.0,51.53]]],[[[180.0,52.34],[179.05,52.14],[178.83,52.34],[178.44,52.33],[178.26,52.13],[177.87,52.12],[177.64,52.32],[177.25,52.31],[176.52,51.88],[177.36,51.5],[178.31,51.72],[178.53,51.52],[179.52,51.33],[180.0,51.53],[180.0,52.34]]],[[[34.23,-68.93],[34.14,-68.7],[33.54,-68.6],[33.03,-68.73],[33.11,-68.96],[32.58,-69.09],[32.66,-69.32],[33.27,-69.43],[33.36,-69.66],[32.82,-69.79],[32.9,-70.03],[34.08,-70.0],[33.99,-69.77],[34.52,-69.63],[35.9,-70.06],[37.58,-69.87],[37.44,-69.64],[35.67,-69.59],[35.56,-69.36],[34.23,-68.93]]],[[[-140.53,-9.06],[-140.43,-9.65],[-140.19,-9.67],[-139.5,-9.35],[-139.31,-8.8],[-139.39,-8.6],[-140.0,-8.73],[-140.31,-8.51],[-140.53,-9.06]]],[[[-160.7,4.9],[-160.85,4.7],[-160.74,4.47],[-160.5,4.44],[-160.35,4.64],[-160.45,4.87],[-160.7,4.9]]],[[[148.09,-68.68],[148.61,-68.81],[150.23,-68.72],[151.28,-69.21],[151.83,-69.09],[151.83,-68.85],[152.36,-68.73],[152.36,-68.49],[148.13,-68.44],[147.63,-68.3],[147.67,-68.06],[147.17,-67.92],[147.23,-67.68],[145.16,-67.59],[144.68,-67.45],[144.76,-67.21],[144.29,-67.06],[144.36,-66.82],[143.9,-66.67],[143.36,-66.76],[143.27,-67.0],[143.74,-67.15],[143.65,-67.39],[144.12,-67.54],[144.04,-67.78],[143.47,-67.88],[143.38,-68.12],[143.87,-68.27],[144.44,-68.17],[144.52,-67.93],[146.13,-67.88],[146.62,-68.02],[146.57,-68.26],[146.0,-68.37],[145.94,-68.61],[146.45,-68.75],[148.09,-68.68]]],[[[-25.69,-58.31],[-26.49,-58.36],[-26.43,-58.59],[-25.98,-58.69],[-25.61,-58.54],[-25.69,-58.31]]],[[[97.63,75.98],[98.36,75.8],[99.34,75.86],[99.61,76.11],[101.95,76.46],[102.28,76.7],[101.54,76.89],[100.47,76.84],[100.18,76.59],[97.87,76.22],[97.1,76.4],[97.34,76.64],[96.55,76.81],[95.52,76.74],[95.32,76.49],[93.18,76.08],[93.03,75.83],[93.8,75.67],[95.89,76.08],[96.65,75.91],[97.63,75.98]]],[[[84.84,-67.46],[85.41,-67.34],[85.97,-67.47],[86.54,-67.34],[86.53,-67.09],[85.97,-66.96],[84.3,-67.07],[84.28,-67.32],[84.84,-67.46]]],[[[32.34,-70.16],[29.94,-70.18],[29.98,-70.42],[30.62,-70.54],[31.85,-70.52],[32.42,-70.39],[32.34,-70.16]]],[[[-46.73,-60.85],[-44.58,-61.15],[-44.1,-61.06],[-44.02,-60.82],[-44.42,-60.67],[-44.33,-60.43],[-45.58,-60.22],[-46.62,-60.61],[-46.73,-60.85]]],[[[76.83,-69.3],[75.42,-69.71],[75.31,-69.95],[75.86,-70.11],[76.52,-70.03],[76.63,-69.79],[77.28,-69.7],[77.38,-69.45],[76.83,-69.3]]],[[[63.2,80.68],[64.65,80.63],[65.61,80.81],[65.1,81.05],[58.78,80.78],[58.11,81.0],[58.95,81.2],[58.25,81.42],[56.65,81.44],[55.84,81.24],[54.28,81.24],[53.54,81.04],[54.32,80.82],[53.62,80.62],[52.17,80.62],[51.36,80.82],[52.02,81.04],[51.16,81.24],[49.61,81.23],[49.0,81.02],[45.5,80.75],[45.01,80.53],[45.93,80.34],[45.45,80.12],[48.46,79.76],[51.69,79.99],[52.31,80.2],[55.77,79.98],[56.47,80.18],[57.86,80.16],[58.49,79.94],[59.84,79.91],[60.63,80.11],[60.04,80.33],[60.87,80.52],[62.31,80.49],[63.2,80.68]]],[[[-12.56,-37.19],[-12.88,-37.14],[-13.09,-37.34],[-12.98,-37.58],[-12.23,-37.91],[-11.92,-37.27],[-12.04,-37.03],[-12.35,-36.99],[-12.56,-37.19]]],[[[103.34,77.42],[104.47,77.47],[105.2,77.27],[104.8,77.04],[105.5,76.84],[105.11,76.6],[107.49,76.23],[110.05,76.51],[110.53,76.74],[109.91,76.95],[108.8,76.93],[108.34,76.7],[107.26,76.67],[106.59,76.87],[107.02,77.11],[106.33,77.31],[106.76,77.55],[106.04,77.75],[102.95,77.86],[102.58,77.62],[101.44,77.56],[101.11,77.32],[101.87,77.13],[102.97,77.18],[103.34,77.42]]],[[[72.13,-7.02],[72.27,-7.63],[72.69,-7.68],[72.56,-7.07],[72.13,-7.02]]],[[[167.13,-78.11],[166.86,-77.89],[169.14,-77.6],[168.85,-77.38],[166.77,-77.06],[166.11,-77.22],[166.35,-77.45],[165.67,-77.61],[165.91,-77.83],[163.49,-78.1],[163.71,-78.32],[164.69,-78.38],[164.93,-78.61],[167.68,-78.85],[168.4,-78.68],[167.97,-78.49],[168.67,-78.32],[168.24,-78.13],[167.13,-78.11]]],[[[113.85,76.33],[113.3,76.55],[112.21,76.54],[111.72,76.31],[112.28,76.1],[113.34,76.1],[113.85,76.33]]],[[[71.61,-6.13],[71.64,-5.9],[71.45,-5.76],[70.96,-6.16],[71.09,-6.77],[71.28,-6.91],[71.77,-6.5],[71.8,-6.27],[71.61,-6.13]]],[[[-159.25,4.29],[-159.8,3.92],[-159.34,3.43],[-159.1,3.4],[-158.9,4.02],[-159.0,4.25],[-159.25,4.29]]],[[[49.3,68.53],[50.65,68.91],[50.4,69.1],[50.78,69.29],[50.52,69.48],[48.98,69.67],[48.71,69.85],[47.71,69.66],[47.98,69.47],[47.62,69.28],[47.9,69.1],[47.54,68.91],[47.81,68.72],[49.3,68.53]]],[[[41.81,-68.55],[42.85,-68.47],[42.67,-68.25],[42.07,-68.18],[41.64,-68.33],[41.81,-68.55]]],[[[-152.9,-79.84],[-155.19,-79.87],[-155.22,-80.09],[-154.05,-80.2],[-152.88,-80.07],[-152.9,-79.84]]],[[[165.63,-51.2],[166.29,-51.17],[166.28,-50.94],[166.91,-50.43],[166.9,-50.2],[166.57,-50.1],[165.94,-50.6],[165.28,-50.63],[165.63,-51.2]]],[[[67.66,-69.37],[67.47,-69.6],[67.94,-69.78],[68.6,-69.73],[68.79,-69.5],[69.44,-69.44],[69.62,-69.2],[69.15,-69.02],[67.66,-69.37]]],[[[50.48,-67.37],[51.05,-67.38],[51.36,-67.18],[51.1,-66.97],[51.4,-66.77],[51.15,-66.56],[51.45,-66.36],[52.83,-66.16],[53.09,-66.37],[53.64,-66.36],[53.92,-66.16],[54.47,-66.15],[55.6,-66.55],[55.33,-66.76],[55.63,-66.96],[55.35,-67.18],[55.65,-67.38],[57.14,-67.56],[57.41,-67.34],[57.99,-67.33],[60.21,-67.88],[60.82,-67.85],[61.06,-67.63],[60.7,-67.44],[57.35,-66.93],[57.04,-66.73],[57.29,-66.51],[56.99,-66.31],[55.58,-66.13],[54.47,-65.74],[53.93,-65.74],[53.65,-65.95],[52.31,-65.75],[52.03,-65.95],[50.66,-66.15],[50.36,-66.35],[50.6,-66.56],[50.3,-66.76],[50.54,-66.97],[50.23,-67.17],[48.11,-66.7],[47.79,-66.9],[48.01,-67.11],[48.56,-67.13],[48.79,-67.34],[48.47,-67.53],[47.13,-67.28],[46.79,-67.47],[44.89,-67.7],[45.09,-67.92],[45.68,-67.98],[47.57,-67.71],[47.8,-67.92],[47.45,-68.11],[47.68,-68.33],[48.26,-68.35],[48.6,-68.15],[49.18,-68.17],[49.51,-67.97],[49.27,-67.76],[50.48,-67.37]]],[[[174.75,-84.05],[177.06,-84.04],[178.15,-83.84],[177.01,-83.65],[174.84,-83.66],[170.86,-83.26],[167.58,-83.43],[168.38,-83.63],[173.68,-83.86],[174.75,-84.05]]],[[[37.85,-47.22],[38.26,-47.0],[37.97,-46.58],[37.15,-47.02],[37.85,-47.22]]],[[[-155.69,-5.83],[-155.55,-5.65],[-155.64,-5.44],[-155.89,-5.41],[-156.03,-5.59],[-155.69,-5.83]]],[[[-54.94,-61.48],[-54.43,-61.43],[-54.09,-61.61],[-53.58,-61.55],[-53.41,-61.32],[-53.76,-61.15],[-53.6,-60.92],[-53.93,-60.74],[-54.43,-60.79],[-54.6,-61.02],[-55.93,-60.94],[-56.11,-61.16],[-55.78,-61.35],[-55.96,-61.57],[-55.63,-61.75],[-55.11,-61.71],[-54.94,-61.48]]],[[[-128.46,-24.34],[-128.33,-24.54],[-128.0,-24.32],[-128.37,-24.14],[-128.46,-24.34]]],[[[38.22,-69.96],[38.37,-70.19],[39.53,-70.12],[39.37,-69.89],[38.72,-69.81],[38.22,-69.96]]],[[[-125.04,-24.7],[-124.63,-24.8],[-124.55,-24.59],[-124.71,-24.44],[-125.04,-24.7]]],[[[98.82,-66.64],[98.95,-66.89],[99.57,-66.97],[101.15,-66.7],[101.0,-66.45],[100.39,-66.38],[98.82,-66.64]]],[[[-26.8,-57.19],[-26.38,-57.28],[-26.03,-57.14],[-26.09,-56.91],[-26.51,-56.82],[-27.04,-56.27],[-27.79,-56.32],[-27.74,-56.55],[-26.86,-56.96],[-26.8,-57.19]]],[[[-140.7,-8.08],[-140.62,-8.29],[-140.23,-8.13],[-140.85,-7.68],[-141.01,-7.86],[-140.7,-8.08]]],[[[180.0,71.66],[178.26,71.46],[177.85,71.24],[178.22,71.02],[177.81,70.81],[178.17,70.59],[180.0,70.79],[180.0,71.66]]],[[[-180.0,70.79],[-179.57,70.56],[-177.63,70.73],[-177.18,70.94],[-177.49,71.17],[-177.03,71.37],[-178.46,71.85],[-179.27,71.87],[-180.0,71.66],[-180.0,70.79]]],[[[93.13,-66.46],[90.4,-66.67],[90.44,-66.92],[91.02,-67.04],[93.79,-66.81],[94.39,-66.91],[94.9,-66.76],[94.81,-66.51],[93.13,-66.46]]],[[[-170.92,63.95],[-172.36,63.84],[-172.72,63.65],[-171.85,63.18],[-170.45,63.28],[-170.3,63.06],[-170.66,62.88],[-170.5,62.66],[-169.13,62.75],[-168.76,62.92],[-168.9,63.15],[-168.53,63.32],[-168.66,63.54],[-169.86,63.86],[-170.01,64.08],[-170.55,64.13],[-170.92,63.95]]],[[[-158.57,-79.76],[-158.47,-79.54],[-159.5,-79.42],[-159.38,-79.2],[-160.37,-79.08],[-160.24,-78.86],[-161.19,-78.74],[-164.32,-78.8],[-164.55,-79.02],[-165.71,-79.11],[-165.97,-79.32],[-165.03,-79.46],[-165.28,-79.68],[-162.04,-79.85],[-162.24,-80.08],[-161.17,-80.2],[-158.57,-79.76]]],[[[3.06,-54.69],[3.47,-54.68],[3.67,-54.48],[3.48,-54.29],[3.07,-54.3],[2.87,-54.5],[3.06,-54.69]]],[[[35.55,80.19],[32.06,80.42],[30.79,80.34],[30.68,80.11],[34.08,79.89],[35.32,79.96],[35.55,80.19]]],[[[165.09,55.24],[165.78,55.12],[166.06,54.96],[165.92,54.74],[166.2,54.57],[167.29,54.49],[168.23,54.18],[168.64,54.22],[168.79,54.43],[168.53,54.61],[168.67,54.82],[168.41,55.0],[166.61,55.22],[166.34,55.39],[166.48,55.6],[166.21,55.77],[165.23,55.46],[165.09,55.24]]],[[[78.35,-68.38],[78.27,-68.62],[78.82,-68.78],[79.44,-68.68],[79.51,-68.43],[80.12,-68.33],[80.18,-68.08],[79.64,-67.94],[78.35,-68.38]]],[[[70.12,-68.49],[69.66,-68.31],[69.82,-68.07],[69.37,-67.9],[68.76,-67.96],[67.28,-67.65],[66.68,-67.7],[66.49,-67.93],[67.96,-68.25],[68.59,-68.19],[69.03,-68.37],[68.86,-68.61],[69.32,-68.79],[69.96,-68.73],[70.12,-68.49]]],[[[40.47,-69.0],[41.54,-68.92],[41.37,-68.7],[40.76,-68.63],[40.31,-68.77],[40.47,-69.0]]],[[[113.94,-66.99],[113.55,-67.2],[113.82,-67.43],[114.48,-67.45],[114.76,-67.68],[115.43,-67.7],[116.82,-67.28],[116.53,-67.06],[115.88,-67.05],[115.59,-66.82],[115.95,-66.61],[115.67,-66.38],[115.04,-66.36],[113.89,-65.88],[113.27,-65.86],[112.9,-66.07],[113.15,-66.3],[114.68,-66.57],[114.95,-66.8],[114.58,-67.01],[113.94,-66.99]]],[[[-171.66,-2.64],[-171.87,-2.6],[-171.89,-2.98],[-171.56,-2.85],[-171.66,-2.64]]],[[[144.49,75.06],[145.36,75.19],[146.22,75.06],[146.21,74.8],[147.04,74.66],[151.3,74.72],[151.4,74.98],[150.58,75.13],[150.67,75.38],[148.04,75.56],[148.09,75.81],[147.2,75.95],[144.45,75.83],[143.52,75.95],[143.49,76.21],[142.53,76.33],[135.07,76.13],[134.25,75.97],[134.45,75.71],[135.42,75.63],[135.59,75.37],[136.54,75.28],[136.69,75.02],[138.63,74.57],[141.1,74.76],[143.67,74.66],[144.5,74.8],[144.49,75.06]]],[[[83.49,75.67],[83.47,75.92],[82.59,76.04],[81.74,75.92],[81.79,75.67],[80.98,75.54],[81.04,75.3],[81.88,75.18],[82.68,75.3],[82.65,75.55],[83.49,75.67]]],[[[-34.31,-54.78],[-35.03,-54.79],[-35.04,-55.01],[-34.67,-55.13],[-34.3,-55.01],[-34.31,-54.78]]],[[[-34.13,64.94],[-34.07,64.7],[-33.59,64.61],[-33.15,64.75],[-33.2,64.99],[-33.69,65.09],[-34.13,64.94]]],[[[72.58,-5.32],[71.55,-5.07],[71.29,-5.39],[72.32,-5.63],[72.58,-5.32]]],[[[-157.2,56.13],[-157.17,55.93],[-156.49,55.99],[-156.51,56.19],[-156.86,56.26],[-157.2,56.13]]],[[[-47.31,-81.92],[-48.63,-81.74],[-50.34,-81.81],[-50.83,-82.06],[-46.3,-82.34],[-46.68,-82.58],[-45.17,-82.75],[-43.29,-82.66],[-43.01,-82.41],[-41.24,-82.31],[-41.04,-82.06],[-47.31,-81.92]]],[[[26.01,76.83],[23.42,76.75],[23.47,76.54],[26.01,76.39],[26.86,76.48],[26.87,76.7],[26.01,76.83]]],[[[-172.3,-4.62],[-171.97,-4.49],[-172.07,-4.29],[-172.28,-4.25],[-172.3,-4.62]]],[[[96.65,-11.8],[96.4,-12.34],[97.24,-12.39],[97.08,-11.83],[96.65,-11.8]]],[[[-26.68,-57.66],[-26.62,-57.89],[-26.19,-57.98],[-25.83,-57.84],[-25.89,-57.61],[-26.68,-57.66]]],[[[107.09,-66.83],[107.73,-66.88],[107.95,-67.12],[108.59,-67.17],[109.01,-66.97],[108.79,-66.73],[107.31,-66.4],[106.89,-66.59],[107.09,-66.83]]],[[[-157.0,1.83],[-157.25,1.87],[-157.35,2.09],[-157.6,2.13],[-157.75,1.93],[-157.65,1.7],[-157.05,1.41],[-156.9,1.6],[-157.0,1.83]]],[[[-52.62,-82.11],[-53.85,-81.92],[-55.64,-81.97],[-56.29,-82.2],[-55.08,-82.4],[-53.19,-82.35],[-52.62,-82.11]]],[[[-173.87,-3.79],[-173.96,-3.59],[-174.29,-3.72],[-173.98,-3.96],[-173.87,-3.79]]],[[[-171.3,-4.23],[-171.42,-4.39],[-171.1,-4.64],[-171.08,-4.26],[-171.3,-4.23]]],[[[136.97,74.51],[136.07,74.61],[135.32,74.45],[135.48,74.19],[134.76,74.03],[134.92,73.77],[135.78,73.68],[136.5,73.85],[136.36,74.1],[137.1,74.26],[136.97,74.51]]],[[[-36.5,-55.0],[-35.77,-55.01],[-35.76,-54.78],[-35.39,-54.67],[-35.39,-54.44],[-35.75,-54.33],[-35.74,-54.1],[-36.45,-54.09],[-36.8,-53.98],[-36.78,-53.75],[-37.83,-53.62],[-38.58,-54.04],[-38.61,-54.27],[-37.55,-54.41],[-37.57,-54.64],[-37.21,-54.76],[-36.49,-54.77],[-36.5,-55.0]]],[[[-15.71,-72.62],[-15.98,-72.37],[-16.8,-72.32],[-17.38,-72.51],[-17.13,-72.75],[-16.28,-72.81],[-15.71,-72.62]]],[[[101.69,78.47],[102.08,78.72],[101.2,78.9],[99.95,78.84],[99.61,78.6],[100.48,78.42],[100.14,78.17],[100.98,77.99],[102.15,78.05],[102.53,78.29],[101.69,78.47]]],[[[50.34,-46.68],[50.64,-46.66],[50.73,-46.46],[50.4,-45.92],[50.09,-45.94],[50.13,-46.51],[50.34,-46.68]]],[[[72.86,-70.9],[73.01,-70.66],[73.7,-70.59],[73.84,-70.35],[73.3,-70.18],[71.79,-70.56],[71.62,-70.79],[72.16,-70.97],[72.86,-70.9]]],[[[-155.78,55.64],[-155.45,55.76],[-155.46,55.96],[-156.14,55.91],[-156.12,55.71],[-155.78,55.64]]],[[[81.92,-68.02],[81.96,-67.77],[81.42,-67.63],[80.83,-67.73],[80.78,-67.98],[81.32,-68.13],[81.92,-68.02]]],[[[-155.44,-3.84],[-155.01,-4.31],[-154.61,-4.16],[-155.05,-3.69],[-155.44,-3.84]]],[[[73.43,-53.61],[73.81,-53.52],[74.34,-52.95],[74.04,-52.8],[72.99,-52.82],[72.91,-53.06],[73.21,-53.21],[73.13,-53.45],[73.43,-53.61]]],[[[-176.65,0.42],[-176.64,0.8],[-176.84,0.83],[-176.95,0.66],[-176.65,0.42]]],[[[159.22,-80.68],[159.56,-80.89],[161.0,-80.94],[162.03,-80.78],[161.63,-80.58],[159.22,-80.68]]],[[[-174.47,-4.8],[-174.31,-4.65],[-174.57,-4.41],[-174.68,-4.77],[-174.47,-4.8]]],[[[169.05,-52.4],[168.72,-52.54],[168.74,-52.77],[169.42,-52.72],[169.39,-52.49],[169.05,-52.4]]],[[[103.43,-65.81],[101.77,-65.85],[101.32,-66.03],[101.47,-66.28],[102.08,-66.35],[102.53,-66.17],[103.15,-66.24],[103.6,-66.06],[103.43,-65.81]]],[[[-109.4,10.07],[-109.16,9.98],[-108.96,10.13],[-109.0,10.37],[-109.23,10.46],[-109.44,10.31],[-109.4,10.07]]],[[[-170.01,56.41],[-169.32,56.54],[-169.43,56.75],[-169.84,56.78],[-170.13,56.62],[-170.01,56.41]]],[[[-30.93,65.45],[-30.48,65.58],[-30.5,65.82],[-30.99,65.93],[-31.45,65.79],[-31.42,65.55],[-30.93,65.45]]],[[[174.56,52.82],[172.62,53.32],[172.22,53.29],[172.06,53.08],[172.31,52.89],[172.15,52.68],[172.4,52.49],[172.8,52.52],[173.68,52.16],[174.63,52.42],[174.8,52.63],[174.56,52.82]]],[[[176.62,52.49],[176.4,52.69],[176.0,52.67],[175.83,52.47],[176.06,52.27],[176.46,52.28],[176.62,52.49]]],[[[103.76,79.01],[103.33,78.77],[104.16,78.57],[105.41,78.62],[105.87,78.85],[105.05,79.05],[103.76,79.01]]],[[[152.56,47.84],[151.83,47.42],[151.37,46.85],[152.22,46.65],[153.36,47.39],[153.24,48.01],[153.58,48.1],[153.65,48.34],[153.38,48.49],[153.04,48.4],[152.56,47.84]]],[[[104.21,-66.12],[104.38,-66.37],[105.01,-66.43],[105.19,-66.67],[105.82,-66.73],[106.26,-66.54],[106.06,-66.3],[105.44,-66.24],[105.26,-66.0],[104.65,-65.94],[104.21,-66.12]]],[[[166.76,19.31],[166.84,19.54],[166.67,19.72],[166.41,19.68],[166.33,19.45],[166.5,19.27],[166.76,19.31]]],[[[-171.07,56.89],[-169.66,57.16],[-170.32,57.6],[-170.75,57.64],[-171.04,57.47],[-170.91,57.26],[-171.2,57.09],[-171.07,56.89]]],[[[112.03,-65.8],[111.41,-65.77],[111.03,-65.98],[111.26,-66.21],[111.89,-66.24],[112.27,-66.04],[112.03,-65.8]]],[[[159.33,-54.54],[158.61,-54.53],[158.59,-54.75],[158.94,-54.87],[159.31,-54.76],[159.33,-54.54]]],[[[161.67,-79.25],[162.53,-79.09],[162.32,-78.86],[163.14,-78.71],[162.93,-78.48],[161.93,-78.41],[161.12,-78.57],[161.3,-78.79],[160.45,-78.95],[160.62,-79.17],[161.67,-79.25]]],[[[-9.53,-40.27],[-9.66,-40.03],[-9.99,-40.0],[-10.2,-40.2],[-10.07,-40.43],[-9.74,-40.47],[-9.53,-40.27]]],[[[-130.02,-25.22],[-130.4,-25.03],[-130.5,-25.24],[-130.37,-25.44],[-130.13,-25.43],[-130.02,-25.22]]],[[[178.82,-49.65],[178.23,-49.74],[178.29,-49.96],[178.61,-50.03],[179.46,-49.77],[179.41,-49.55],[179.09,-49.49],[178.82,-49.65]]],[[[78.91,74.41],[79.64,74.55],[79.56,74.79],[78.73,74.9],[77.99,74.76],[78.09,74.52],[78.91,74.41]]],[[[-176.36,-0.19],[-176.35,0.19],[-176.55,0.22],[-176.66,0.05],[-176.36,-0.19]]],[[[-27.39,-59.73],[-26.93,-59.83],[-26.54,-59.68],[-26.61,-59.45],[-26.22,-59.3],[-26.29,-59.07],[-27.12,-59.12],[-27.06,-59.35],[-27.45,-59.5],[-27.39,-59.73]]],[[[-159.89,-0.53],[-159.74,-0.34],[-159.84,-0.12],[-160.09,-0.09],[-160.23,-0.28],[-159.89,-0.53]]],[[[-130.6,-24.02],[-130.5,-23.81],[-130.87,-23.62],[-130.83,-24.03],[-130.6,-24.02]]],[[[-42.1,-53.88],[-41.73,-53.79],[-41.68,-53.57],[-42.38,-53.52],[-42.43,-53.74],[-42.1,-53.88]]],[[[153.61,24.17],[154.05,24.07],[154.11,24.3],[153.91,24.47],[153.66,24.41],[153.61,24.17]]],[[[164.38,-67.25],[163.99,-67.4],[164.1,-67.63],[165.02,-67.56],[164.9,-67.33],[164.38,-67.25]]],[[[-109.59,-26.97],[-109.63,-27.19],[-109.41,-27.34],[-109.16,-27.25],[-109.12,-27.03],[-109.59,-26.97]]],[[[123.56,-66.59],[123.27,-66.82],[123.61,-67.03],[124.25,-67.01],[124.53,-66.78],[124.18,-66.57],[123.56,-66.59]]],[[[160.54,-79.96],[161.47,-79.81],[161.13,-79.6],[158.95,-79.71],[159.25,-79.91],[160.54,-79.96]]],[[[63.63,-67.92],[63.85,-67.69],[63.46,-67.5],[62.86,-67.54],[62.63,-67.76],[63.02,-67.95],[63.63,-67.92]]],[[[77.99,-38.85],[78.02,-38.6],[77.76,-38.47],[77.47,-38.58],[77.44,-38.82],[77.7,-38.95],[77.99,-38.85]]],[[[-105.48,-26.61],[-105.26,-26.75],[-105.01,-26.66],[-104.99,-26.43],[-105.46,-26.39],[-105.48,-26.61]]],[[[-42.32,-79.98],[-42.13,-79.73],[-43.26,-79.57],[-44.59,-79.67],[-44.83,-79.92],[-43.69,-80.08],[-42.32,-79.98]]]]}}]}