{"type":"FeatureCollection","features":[{"type":"Feature","properties":{},"geometry":{"type":"MultiPolygon","coordinates":[[[[35.05,-7.86],[34.8,-7.9],[34.71,-8.13],[34.87,-8.33],[34.78,-8.57],[34.53,-8.61],[34.43,-8.85],[34.18,-8.88],[34.02,-8.69],[33.76,-8.72],[33.6,-8.52],[33.34,-8.56],[33.25,-8.8],[33.0,-8.84],[32.9,-9.08],[33.06,-9.28],[33.32,-9.24],[33.48,-9.44],[33.74,-9.4],[33.83,-9.16],[34.09,-9.12],[34.25,-9.32],[34.16,-9.56],[34.32,-9.76],[34.58,-9.72],[34.74,-9.92],[35.0,-9.88],[35.09,-9.64],[35.34,-9.6],[35.43,-9.36],[35.27,-9.16],[35.36,-8.93],[35.61,-8.89],[35.7,-8.65],[35.96,-8.61],[36.05,-8.37],[35.88,-8.17],[35.97,-7.94],[36.23,-7.9],[36.39,-8.1],[36.64,-8.06],[36.73,-7.82],[36.57,-7.62],[36.31,-7.66],[36.15,-7.46],[36.24,-7.23],[36.49,-7.19],[36.65,-7.39],[36.9,-7.35],[36.99,-7.11],[36.83,-6.92],[36.92,-6.68],[37.17,-6.64],[37.25,-6.41],[37.5,-6.37],[37.59,-6.13],[37.84,-6.09],[38.0,-6.29],[38.25,-6.25],[38.33,-6.02],[38.58,-5.98],[38.66,-5.74],[38.5,-5.55],[38.59,-5.32],[38.83,-5.28],[38.92,-5.05],[39.16,-5.01],[39.25,-4.78],[39.09,-4.58],[39.17,-4.35],[39.41,-4.32],[39.5,-4.08],[39.74,-4.05],[39.82,-3.82],[39.66,-3.62],[39.74,-3.4],[39.99,-3.36],[40.07,-3.13],[39.91,-2.94],[39.99,-2.71],[40.23,-2.67],[40.31,-2.45],[40.55,-2.41],[40.63,-2.19],[40.87,-2.15],[40.95,-1.92],[41.19,-1.89],[41.27,-1.66],[41.51,-1.63],[41.59,-1.41],[41.82,-1.37],[41.9,-1.15],[41.74,-0.96],[41.82,-0.74],[42.06,-0.7],[42.14,-0.48],[42.37,-0.45],[42.45,-0.23],[42.68,-0.19],[42.76,0.03],[42.99,0.06],[43.07,0.28],[43.3,0.31],[43.37,0.53],[43.22,0.72],[42.99,0.68],[42.91,0.47],[42.68,0.43],[42.6,0.21],[42.37,0.18],[42.21,0.37],[41.98,0.34],[41.82,0.52],[41.59,0.49],[41.43,0.68],[41.2,0.65],[41.04,0.84],[40.81,0.8],[40.73,0.58],[40.49,0.55],[40.33,0.74],[40.1,0.71],[39.94,0.9],[39.7,0.86],[39.62,0.64],[39.38,0.61],[39.23,0.8],[38.99,0.77],[38.83,0.95],[38.59,0.92],[38.43,1.11],[38.52,1.33],[38.36,1.52],[38.12,1.49],[37.96,1.68],[37.72,1.65],[37.57,1.83],[37.65,2.05],[37.89,2.08],[37.97,2.3],[38.21,2.33],[38.3,2.55],[38.14,2.74],[37.9,2.71],[37.82,2.49],[37.58,2.46],[37.49,2.24],[37.25,2.21],[37.1,2.4],[37.18,2.62],[37.03,2.8],[36.79,2.77],[36.7,2.55],[36.46,2.52],[36.38,2.3],[36.14,2.27],[35.98,2.46],[35.74,2.43],[35.58,2.62],[35.34,2.59],[35.18,2.77],[35.27,2.99],[35.12,3.18],[35.2,3.4],[35.05,3.58],[34.8,3.55],[34.65,3.74],[34.41,3.71],[34.25,3.89],[34.34,4.11],[34.19,4.3],[33.94,4.26],[33.79,4.45],[33.55,4.42],[33.46,4.2],[33.22,4.17],[33.06,4.36],[32.82,4.33],[32.73,4.11],[32.49,4.08],[32.4,3.86],[32.16,3.83],[32.0,4.02],[31.76,3.98],[31.61,4.17],[31.36,4.14],[31.21,4.32],[30.97,4.29],[30.81,4.48],[30.57,4.45],[30.48,4.23],[30.23,4.2],[30.14,3.98],[29.9,3.95],[29.81,3.73],[29.56,3.7],[29.47,3.48],[29.62,3.29],[29.53,3.07],[29.28,3.04],[29.19,2.82],[29.34,2.63],[29.25,2.41],[29.4,2.22],[29.31,2.0],[29.46,1.81],[29.37,1.58],[29.52,1.39],[29.43,1.17],[29.58,0.98],[29.83,1.01],[29.99,0.82],[29.89,0.6],[29.65,0.56],[29.49,0.75],[29.24,0.72],[29.15,0.5],[28.9,0.46],[28.81,0.24],[28.56,0.2],[28.46,-0.02],[28.62,-0.22],[28.52,-0.44],[28.27,-0.48],[28.18,-0.7],[28.33,-0.9],[28.24,-1.13],[28.39,-1.32],[28.3,-1.55],[28.45,-1.75],[28.36,-1.98],[28.1,-2.01],[28.01,-2.24],[28.16,-2.44],[28.07,-2.67],[28.22,-2.86],[28.13,-3.09],[28.28,-3.29],[28.19,-3.52],[27.93,-3.56],[27.84,-3.79],[27.99,-3.99],[28.25,-3.95],[28.4,-4.15],[28.31,-4.39],[28.46,-4.58],[28.72,-4.55],[28.87,-4.75],[28.78,-4.98],[28.93,-5.18],[29.19,-5.15],[29.28,-4.91],[29.13,-4.71],[29.22,-4.48],[29.06,-4.28],[29.16,-4.05],[29.0,-3.85],[29.1,-3.62],[29.35,-3.58],[29.51,-3.78],[29.41,-4.01],[29.57,-4.21],[29.47,-4.45],[29.63,-4.64],[29.89,-4.61],[30.04,-4.81],[30.3,-4.77],[30.46,-4.97],[30.71,-4.94],[30.8,-4.7],[31.06,-4.67],[31.21,-4.86],[31.47,-4.83],[31.63,-5.03],[31.88,-4.99],[32.04,-5.19],[31.95,-5.42],[32.11,-5.62],[32.36,-5.59],[32.52,-5.79],[32.77,-5.75],[32.93,-5.95],[32.84,-6.18],[33.0,-6.38],[32.91,-6.62],[33.07,-6.82],[33.32,-6.78],[33.48,-6.98],[33.39,-7.21],[33.14,-7.25],[33.04,-7.49],[33.21,-7.69],[33.11,-7.93],[33.28,-8.12],[33.53,-8.09],[33.69,-8.29],[33.95,-8.25],[34.04,-8.01],[34.29,-7.97],[34.38,-7.74],[34.64,-7.7],[34.73,-7.46],[34.57,-7.26],[34.66,-7.03],[34.91,-6.99],[35.0,-6.75],[35.25,-6.71],[35.41,-6.91],[35.67,-6.87],[35.75,-6.64],[36.01,-6.6],[36.17,-6.8],[36.08,-7.03],[35.83,-7.07],[35.74,-7.31],[35.49,-7.35],[35.4,-7.58],[35.14,-7.62],[35.05,-7.86]],[[34.42,1.42],[34.66,1.45],[34.82,1.26],[34.73,1.04],[34.49,1.0],[34.33,1.19],[34.42,1.42]],[[36.88,-0.58],[36.63,-0.62],[36.48,-0.43],[36.56,-0.2],[36.81,-0.17],[36.96,-0.36],[36.88,-0.58]]],[[[29.57,-16.09],[29.73,-16.29],[30.0,-16.25],[30.17,-16.46],[30.43,-16.42],[30.6,-16.62],[30.86,-16.58],[30.96,-16.34],[31.23,-16.31],[31.39,-16.51],[31.66,-16.47],[31.76,-16.23],[32.02,-16.19],[32.19,-16.39],[32.45,-16.35],[32.62,-16.55],[32.88,-16.51],[32.98,-16.27],[32.81,-16.07],[32.55,-16.11],[32.38,-15.91],[32.12,-15.95],[31.95,-15.75],[32.05,-15.51],[31.88,-15.31],[31.62,-15.35],[31.52,-15.59],[31.69,-15.79],[31.59,-16.03],[31.33,-16.07],[31.16,-15.86],[31.26,-15.63],[31.09,-15.42],[30.83,-15.46],[30.66,-15.26],[30.76,-15.02],[30.59,-14.82],[30.33,-14.86],[30.23,-15.1],[29.97,-15.13],[29.87,-15.37],[29.6,-15.41],[29.5,-15.65],[29.24,-15.68],[29.14,-15.92],[28.87,-15.96],[28.71,-15.75],[28.44,-15.79],[28.34,-16.03],[28.08,-16.06],[27.98,-16.3],[27.71,-16.33],[27.61,-16.57],[27.34,-16.6],[27.24,-16.84],[27.4,-17.04],[27.3,-17.28],[27.03,-17.31],[26.93,-17.55],[26.66,-17.58],[26.5,-17.38],[26.23,-17.41],[26.07,-17.21],[26.17,-16.97],[26.01,-16.77],[26.11,-16.53],[26.38,-16.5],[26.48,-16.26],[26.32,-16.06],[26.42,-15.82],[26.26,-15.61],[26.0,-15.65],[25.89,-15.88],[25.63,-15.91],[25.53,-16.15],[25.26,-16.18],[25.16,-16.42],[24.89,-16.45],[24.73,-16.24],[24.47,-16.27],[24.31,-16.07],[24.41,-15.83],[24.25,-15.63],[23.99,-15.65],[23.83,-15.45],[23.57,-15.48],[23.41,-15.27],[23.14,-15.3],[22.99,-15.09],[22.72,-15.12],[22.62,-15.36],[22.36,-15.38],[22.2,-15.18],[21.94,-15.2],[21.78,-15.0],[21.52,-15.02],[21.42,-15.26],[21.15,-15.28],[21.05,-15.52],[20.79,-15.54],[20.68,-15.78],[20.42,-15.8],[20.31,-16.03],[20.05,-16.06],[19.9,-15.85],[19.64,-15.87],[19.49,-15.67],[19.23,-15.69],[19.12,-15.92],[18.86,-15.94],[18.71,-15.74],[18.45,-15.76],[18.3,-15.55],[18.04,-15.57],[17.94,-15.8],[17.68,-15.82],[17.53,-15.62],[17.27,-15.64],[17.13,-15.43],[16.87,-15.45],[16.76,-15.68],[16.51,-15.7],[16.36,-15.49],[16.11,-15.51],[15.96,-15.3],[15.71,-15.32],[15.56,-15.12],[15.31,-15.14],[15.17,-14.93],[14.92,-14.95],[14.81,-15.17],[14.56,-15.19],[14.45,-15.42],[14.59,-15.62],[14.48,-15.85],[14.23,-15.87],[14.09,-15.66],[13.84,-15.68],[13.7,-15.47],[13.45,-15.49],[13.34,-15.71],[13.48,-15.92],[13.38,-16.14],[13.13,-16.15],[13.02,-16.38],[13.16,-16.58],[13.05,-16.8],[12.8,-16.82],[12.69,-17.04],[12.44,-17.05],[12.34,-17.27],[12.47,-17.48],[12.37,-17.7],[12.51,-17.91],[12.4,-18.13],[12.54,-18.33],[12.79,-18.32],[12.93,-18.53],[12.82,-18.75],[12.96,-18.96],[12.85,-19.17],[12.99,-19.38],[13.24,-19.37],[13.38,-19.58],[13.27,-19.8],[13.42,-20.0],[13.31,-20.22],[13.45,-20.43],[13.7,-20.42],[13.85,-20.62],[14.1,-20.61],[14.25,-20.82],[14.14,-21.04],[14.28,-21.25],[14.17,-21.46],[14.32,-21.67],[14.58,-21.66],[14.72,-21.87],[14.61,-22.08],[14.76,-22.29],[14.65,-22.51],[14.79,-22.71],[15.05,-22.7],[15.2,-22.91],[15.09,-23.13],[14.83,-23.14],[14.72,-23.35],[14.87,-23.56],[15.13,-23.55],[15.28,-23.75],[15.17,-23.97],[14.9,-23.98],[14.79,-24.19],[14.94,-24.4],[15.2,-24.39],[15.35,-24.59],[15.24,-24.81],[15.39,-25.01],[15.28,-25.22],[15.43,-25.43],[15.32,-25.64],[15.47,-25.84],[15.73,-25.84],[15.88,-26.04],[15.77,-26.25],[15.92,-26.45],[15.81,-26.67],[15.96,-26.87],[16.23,-26.86],[16.34,-26.65],[16.19,-26.45],[16.3,-26.23],[16.15,-26.03],[16.26,-25.82],[16.11,-25.61],[16.22,-25.4],[16.49,-25.39],[16.6,-25.18],[16.87,-25.16],[16.98,-24.95],[17.25,-24.94],[17.4,-25.14],[17.29,-25.36],[17.44,-25.56],[17.33,-25.78],[17.49,-25.98],[17.37,-26.19],[17.1,-26.2],[16.99,-26.42],[17.15,-26.62],[17.03,-26.83],[17.19,-27.03],[17.08,-27.25],[17.23,-27.45],[17.12,-27.66],[17.27,-27.86],[17.54,-27.85],[17.7,-28.05],[17.97,-28.04],[18.13,-28.24],[18.4,-28.23],[18.56,-28.43],[18.45,-28.64],[18.61,-28.84],[18.88,-28.83],[19.04,-29.02],[19.32,-29.01],[19.43,-28.8],[19.71,-28.79],[19.87,-28.99],[20.14,-28.97],[20.31,-29.17],[20.58,-29.15],[20.75,-29.35],[21.03,-29.33],[21.14,-29.12],[20.97,-28.93],[21.09,-28.71],[21.36,-28.69],[21.48,-28.48],[21.75,-28.46],[21.87,-28.25],[22.14,-28.23],[22.25,-28.01],[22.09,-27.81],[22.2,-27.6],[22.48,-27.58],[22.64,-27.78],[22.92,-27.75],[23.03,-27.54],[23.31,-27.51],[23.42,-27.3],[23.7,-27.27],[23.81,-27.05],[24.08,-27.03],[24.19,-26.81],[24.47,-26.78],[24.64,-26.98],[24.53,-27.2],[24.7,-27.4],[24.98,-27.37],[25.09,-27.15],[24.92,-26.96],[25.03,-26.73],[25.3,-26.71],[25.41,-26.48],[25.69,-26.46],[25.8,-26.23],[26.07,-26.21],[26.24,-26.4],[26.52,-26.37],[26.69,-26.57],[26.97,-26.54],[27.14,-26.73],[27.42,-26.7],[27.52,-26.48],[27.35,-26.28],[27.46,-26.06],[27.74,-26.03],[27.91,-26.22],[28.19,-26.19],[28.29,-25.96],[28.57,-25.93],[28.68,-25.7],[28.95,-25.67],[29.06,-25.44],[29.33,-25.41],[29.44,-25.18],[29.71,-25.14],[29.82,-24.91],[29.65,-24.72],[29.75,-24.49],[30.02,-24.45],[30.2,-24.65],[30.47,-24.61],[30.64,-24.8],[30.92,-24.77],[31.09,-24.96],[30.99,-25.19],[31.16,-25.38],[31.06,-25.61],[31.23,-25.8],[31.13,-26.03],[31.3,-26.22],[31.2,-26.45],[31.38,-26.64],[31.27,-26.87],[31.45,-27.06],[31.34,-27.28],[31.52,-27.47],[31.42,-27.7],[31.59,-27.88],[31.49,-28.11],[31.66,-28.3],[31.56,-28.52],[31.28,-28.56],[31.18,-28.78],[30.9,-28.82],[30.79,-29.04],[30.97,-29.23],[30.86,-29.45],[30.58,-29.49],[30.48,-29.71],[30.65,-29.89],[30.55,-30.11],[30.27,-30.15],[30.16,-30.37],[30.34,-30.55],[30.23,-30.77],[29.95,-30.8],[29.84,-31.02],[30.02,-31.2],[30.3,-31.17],[30.41,-30.95],[30.69,-30.92],[30.8,-30.7],[30.62,-30.52],[30.72,-30.3],[31.01,-30.26],[31.11,-30.04],[30.93,-29.86],[31.04,-29.63],[31.32,-29.6],[31.42,-29.38],[31.71,-29.34],[31.81,-29.11],[32.09,-29.08],[32.19,-28.85],[32.47,-28.81],[32.57,-28.59],[32.4,-28.4],[32.5,-28.18],[32.78,-28.14],[32.88,-27.91],[32.7,-27.73],[32.81,-27.5],[32.63,-27.31],[32.73,-27.09],[33.01,-27.05],[33.11,-26.82],[32.93,-26.63],[33.03,-26.4],[32.86,-26.21],[32.58,-26.25],[32.41,-26.07],[32.51,-25.84],[32.79,-25.8],[32.89,-25.57],[33.16,-25.52],[33.26,-25.29],[33.53,-25.25],[33.63,-25.02],[33.91,-24.98],[34.01,-24.75],[33.83,-24.56],[33.93,-24.32],[33.76,-24.13],[33.86,-23.9],[33.68,-23.71],[33.78,-23.48],[33.61,-23.29],[33.71,-23.05],[33.53,-22.86],[33.63,-22.62],[33.9,-22.58],[34.0,-22.35],[33.83,-22.15],[33.93,-21.92],[33.75,-21.73],[33.85,-21.49],[33.68,-21.3],[33.78,-21.06],[33.61,-20.86],[33.7,-20.63],[33.97,-20.59],[34.07,-20.35],[33.9,-20.15],[33.63,-20.2],[33.46,-20.0],[33.56,-19.76],[33.82,-19.72],[33.92,-19.48],[33.75,-19.29],[33.48,-19.33],[33.39,-19.57],[33.12,-19.61],[33.02,-19.84],[33.19,-20.04],[33.09,-20.28],[32.83,-20.32],[32.66,-20.12],[32.39,-20.16],[32.22,-19.97],[32.32,-19.73],[32.58,-19.69],[32.68,-19.45],[32.51,-19.25],[32.25,-19.29],[32.08,-19.1],[31.81,-19.14],[31.71,-19.37],[31.44,-19.41],[31.34,-19.65],[31.51,-19.85],[31.41,-20.08],[31.14,-20.12],[30.97,-19.92],[31.07,-19.69],[30.9,-19.49],[30.64,-19.53],[30.47,-19.33],[30.2,-19.36],[30.03,-19.16],[30.13,-18.93],[29.96,-18.73],[29.7,-18.76],[29.53,-18.56],[29.63,-18.32],[29.46,-18.12],[29.56,-17.88],[29.83,-17.85],[29.93,-17.61],[29.77,-17.41],[29.5,-17.45],[29.33,-17.24],[29.43,-17.01],[29.27,-16.8],[29.37,-16.56],[29.2,-16.36],[29.3,-16.12],[29.57,-16.09]],[[18.04,-27.42],[18.31,-27.4],[18.43,-27.19],[18.7,-27.18],[18.81,-26.96],[19.08,-26.95],[19.24,-27.15],[19.13,-27.37],[19.29,-27.57],[19.18,-27.78],[18.9,-27.79],[18.79,-28.0],[18.52,-28.02],[18.36,-27.82],[18.09,-27.83],[17.93,-27.63],[18.04,-27.42]],[[16.41,-24.55],[16.56,-24.76],[16.45,-24.97],[16.18,-24.98],[16.03,-24.78],[16.14,-24.56],[16.41,-24.55]]],[[[39.23,8.46],[39.31,8.66],[39.54,8.69],[39.62,8.89],[39.47,9.06],[39.24,9.04],[39.16,8.84],[38.93,8.81],[38.85,8.61],[38.62,8.59],[38.54,8.39],[38.69,8.21],[38.61,8.01],[38.38,7.98],[38.3,7.78],[38.06,7.76],[37.98,7.55],[37.75,7.53],[37.59,7.7],[37.68,7.91],[37.91,7.93],[37.99,8.14],[37.84,8.31],[37.92,8.52],[37.77,8.69],[37.53,8.67],[37.38,8.84],[37.15,8.82],[37.07,8.62],[36.83,8.59],[36.75,8.39],[36.52,8.36],[36.36,8.54],[36.45,8.74],[36.32,8.92],[36.09,8.9],[35.98,8.69],[35.74,8.66],[35.66,8.46],[35.42,8.43],[35.34,8.23],[35.1,8.2],[35.02,8.0],[35.17,7.82],[35.08,7.61],[35.24,7.44],[35.15,7.23],[35.3,7.05],[35.22,6.84],[35.37,6.66],[35.61,6.69],[35.76,6.51],[36.0,6.54],[36.09,6.74],[36.32,6.77],[36.41,6.98],[36.64,7.01],[36.79,6.83],[36.71,6.62],[36.48,6.59],[36.39,6.38],[36.55,6.2],[36.46,5.99],[36.62,5.81],[36.53,5.6],[36.69,5.42],[36.92,5.45],[37.01,5.66],[36.85,5.84],[36.94,6.05],[37.17,6.08],[37.33,5.89],[37.24,5.68],[37.4,5.5],[37.63,5.53],[37.79,5.35],[37.7,5.14],[37.47,5.11],[37.31,5.29],[37.08,5.26],[36.99,5.05],[37.15,4.87],[37.06,4.65],[37.22,4.47],[37.46,4.5],[37.61,4.31],[37.85,4.34],[38.0,4.16],[37.92,3.95],[38.08,3.76],[38.31,3.79],[38.47,3.6],[38.71,3.63],[38.86,3.45],[39.1,3.48],[39.25,3.29],[39.49,3.32],[39.57,3.54],[39.8,3.57],[39.88,3.78],[39.73,3.96],[39.81,4.18],[40.04,4.21],[40.2,4.02],[40.43,4.05],[40.51,4.26],[40.36,4.45],[40.43,4.66],[40.28,4.84],[40.36,5.05],[40.21,5.23],[40.28,5.44],[40.52,5.47],[40.59,5.68],[40.44,5.86],[40.21,5.83],[40.06,6.01],[39.82,5.99],[39.67,6.17],[39.75,6.37],[39.98,6.4],[40.06,6.6],[40.29,6.63],[40.44,6.45],[40.68,6.48],[40.75,6.68],[40.98,6.71],[41.06,6.91],[40.91,7.09],[40.98,7.29],[40.83,7.47],[40.91,7.67],[40.76,7.85],[40.53,7.83],[40.38,8.0],[40.15,7.98],[40.0,8.16],[39.77,8.13],[39.69,7.93],[39.84,7.75],[39.76,7.55],[39.53,7.53],[39.45,7.32],[39.6,7.14],[39.83,7.17],[39.91,7.37],[40.14,7.4],[40.3,7.22],[40.22,7.01],[39.99,6.99],[39.91,6.78],[39.68,6.76],[39.6,6.55],[39.36,6.53],[39.21,6.71],[38.98,6.68],[38.9,6.47],[38.66,6.45],[38.51,6.63],[38.59,6.83],[38.83,6.86],[38.91,7.07],[38.75,7.25],[38.83,7.45],[39.07,7.48],[39.15,7.68],[38.99,7.86],[39.07,8.06],[39.3,8.08],[39.38,8.29],[39.23,8.46]],[[39.51,5.15],[39.66,4.97],[39.58,4.76],[39.73,4.57],[39.65,4.36],[39.42,4.33],[39.27,4.52],[39.03,4.49],[38.88,4.67],[38.96,4.88],[38.8,5.07],[38.88,5.28],[39.12,5.3],[39.27,5.12],[39.51,5.15]],[[36.05,8.31],[36.2,8.13],[36.11,7.93],[36.27,7.75],[36.18,7.55],[35.95,7.52],[35.79,7.7],[35.88,7.9],[35.73,8.08],[35.81,8.28],[36.05,8.31]],[[37.81,6.55],[37.89,6.76],[38.12,6.78],[38.28,6.6],[38.2,6.39],[37.96,6.37],[37.81,6.55]]],[[[24.87,-34.31],[25.15,-34.28],[25.27,-34.08],[25.55,-34.06],[25.67,-33.85],[25.95,-33.83],[26.13,-34.01],[26.42,-33.99],[26.53,-33.78],[26.82,-33.75],[26.93,-33.55],[27.22,-33.52],[27.33,-33.31],[27.61,-33.28],[27.72,-33.07],[28.01,-33.04],[28.12,-32.83],[28.41,-32.8],[28.52,-32.59],[28.8,-32.56],[28.91,-32.35],[29.2,-32.31],[29.3,-32.1],[29.13,-31.92],[28.84,-31.95],[28.73,-32.16],[28.45,-32.2],[28.34,-32.41],[28.05,-32.44],[27.94,-32.65],[27.66,-32.68],[27.55,-32.89],[27.26,-32.92],[27.08,-32.73],[26.8,-32.76],[26.69,-32.97],[26.4,-33.0],[26.29,-33.21],[26.0,-33.23],[25.83,-33.05],[25.54,-33.07],[25.37,-32.89],[25.08,-32.91],[24.91,-32.72],[24.62,-32.74],[24.51,-32.95],[24.68,-33.14],[24.57,-33.34],[24.28,-33.37],[24.17,-33.57],[23.88,-33.59],[23.77,-33.79],[23.48,-33.81],[23.31,-33.63],[23.03,-33.65],[22.91,-33.85],[22.63,-33.86],[22.46,-33.68],[22.17,-33.69],[22.0,-33.51],[21.72,-33.52],[21.6,-33.72],[21.32,-33.74],[21.2,-33.94],[20.92,-33.95],[20.8,-34.15],[20.52,-34.16],[20.35,-33.97],[20.07,-33.98],[19.95,-34.18],[20.12,-34.37],[20.0,-34.57],[20.17,-34.75],[20.45,-34.74],[20.57,-34.55],[20.85,-34.54],[20.97,-34.34],[21.26,-34.32],[21.42,-34.51],[21.71,-34.5],[21.83,-34.3],[22.11,-34.28],[22.23,-34.08],[22.51,-34.07],[22.68,-34.25],[22.97,-34.24],[23.08,-34.03],[23.37,-34.02],[23.54,-34.2],[23.83,-34.18],[23.94,-33.98],[24.23,-33.96],[24.4,-34.14],[24.69,-34.12],[24.87,-34.31]]],[[[19.22,-34.01],[19.06,-33.82],[19.17,-33.62],[19.01,-33.43],[18.73,-33.44],[18.61,-33.64],[18.77,-33.83],[18.66,-34.03],[18.82,-34.22],[19.1,-34.21],[19.22,-34.01]]],[[[-76.38,39.39],[-76.6,39.55],[-76.91,39.49],[-76.99,39.27],[-77.29,39.22],[-77.36,39.0],[-77.14,38.84],[-76.85,38.9],[-76.77,39.12],[-76.47,39.17],[-76.38,39.39]]],[[[40.54,8.98],[40.69,8.8],[40.91,8.83],[40.99,9.02],[40.84,9.2],[40.61,9.18],[40.54,8.98]]],[[[37.24,-7.07],[37.4,-7.27],[37.65,-7.23],[37.74,-6.99],[37.58,-6.8],[37.33,-6.84],[37.24,-7.07]]],[[[-97.56,29.83],[-97.58,30.08],[-97.83,30.2],[-98.08,30.07],[-98.06,29.81],[-97.8,29.7],[-97.56,29.83]]],[[[149.93,-35.41],[149.89,-35.67],[150.14,-35.83],[150.43,-35.73],[150.47,-35.47],[150.77,-35.37],[150.81,-35.12],[150.56,-34.96],[150.27,-35.06],[150.22,-35.32],[149.93,-35.41]]],[[[34.56,8.53],[34.71,8.35],[34.95,8.38],[35.03,8.58],[34.91,8.76],[34.67,8.74],[34.56,8.53]]],[[[30.84,-5.8],[30.93,-5.57],[30.77,-5.37],[30.52,-5.4],[30.42,-5.64],[30.58,-5.84],[30.49,-6.07],[30.65,-6.27],[30.9,-6.24],[31.0,-6.0],[30.84,-5.8]]],[[[150.68,-34.2],[150.92,-34.35],[151.21,-34.25],[151.25,-34.0],[151.0,-33.84],[150.71,-33.94],[150.68,-34.2]]],[[[40.38,8.58],[40.23,8.76],[40.0,8.73],[39.92,8.53],[40.07,8.36],[40.3,8.38],[40.38,8.58]]],[[[8.67,49.4],[8.76,49.62],[8.51,49.76],[8.17,49.68],[8.08,49.47],[8.33,49.33],[8.67,49.4]]],[[[35.68,6.3],[35.44,6.27],[35.36,6.06],[35.51,5.88],[35.75,5.91],[35.83,6.12],[35.68,6.3]]]]}}]}