{"type":"FeatureCollection","features":[{"type":"Feature","properties":{},"geometry":{"type":"MultiPolygon","coordinates":[[[[-1.91,46.45],[-1.96,46.22],[-1.7,46.06],[-1.75,45.83],[-1.5,45.67],[-1.55,45.44],[-1.3,45.28],[-1.35,45.05],[-1.65,44.97],[-1.7,44.74],[-1.45,44.58],[-1.5,44.35],[-1.8,44.27],[-1.85,44.04],[-1.6,43.88],[-1.65,43.64],[-1.94,43.57],[-2.19,43.72],[-2.48,43.64],[-2.73,43.8],[-3.02,43.72],[-3.28,43.88],[-3.57,43.79],[-3.82,43.95],[-4.12,43.86],[-4.16,43.63],[-4.46,43.54],[-4.72,43.69],[-5.01,43.61],[-5.27,43.76],[-5.57,43.67],[-5.83,43.82],[-6.13,43.73],[-6.39,43.88],[-6.69,43.79],[-6.96,43.94],[-7.26,43.85],[-7.53,44.0],[-7.83,43.9],[-8.1,44.05],[-8.4,43.95],[-8.43,43.71],[-8.73,43.61],[-9.0,43.76],[-9.3,43.66],[-9.33,43.42],[-9.63,43.32],[-9.65,43.07],[-9.38,42.93],[-9.4,42.68],[-9.13,42.54],[-9.15,42.29],[-8.88,42.14],[-8.91,41.9],[-9.2,41.8],[-9.22,41.55],[-8.96,41.41],[-8.98,41.16],[-8.72,41.01],[-8.74,40.77],[-9.03,40.67],[-9.06,40.42],[-9.34,40.31],[-9.36,40.07],[-9.1,39.92],[-9.13,39.67],[-9.41,39.57],[-9.67,39.71],[-9.96,39.61],[-9.98,39.36],[-9.72,39.21],[-9.74,38.97],[-9.48,38.82],[-9.5,38.57],[-9.24,38.43],[-9.26,38.18],[-9.01,38.04],[-9.03,37.79],[-9.31,37.68],[-9.33,37.43],[-9.08,37.29],[-9.1,37.04],[-8.85,36.9],[-8.58,37.01],[-8.33,36.86],[-8.05,36.97],[-7.81,36.82],[-7.53,36.93],[-7.29,36.78],[-7.02,36.88],[-6.77,36.74],[-6.8,36.49],[-6.56,36.35],[-6.59,36.1],[-6.35,35.95],[-6.38,35.71],[-6.15,35.56],[-6.18,35.32],[-6.44,35.21],[-6.47,34.97],[-6.74,34.86],[-6.77,34.62],[-7.03,34.51],[-7.06,34.27],[-7.32,34.16],[-7.35,33.91],[-7.61,33.81],[-7.85,33.95],[-8.11,33.84],[-8.14,33.59],[-8.4,33.48],[-8.64,33.62],[-8.9,33.51],[-8.93,33.26],[-9.19,33.15],[-9.21,32.9],[-9.47,32.79],[-9.49,32.54],[-9.75,32.43],[-9.77,32.18],[-9.53,32.04],[-9.55,31.79],[-9.81,31.68],[-9.83,31.43],[-10.08,31.32],[-10.1,31.07],[-9.87,30.93],[-9.89,30.68],[-9.65,30.55],[-9.67,30.3],[-9.92,30.19],[-9.94,29.94],[-9.71,29.8],[-9.46,29.92],[-9.23,29.78],[-9.25,29.53],[-9.5,29.42],[-9.52,29.17],[-9.29,29.04],[-9.04,29.15],[-9.02,29.4],[-8.77,29.51],[-8.54,29.38],[-8.29,29.49],[-8.26,29.74],[-8.01,29.85],[-7.79,29.71],[-7.54,29.82],[-7.51,30.07],[-7.26,30.17],[-7.04,30.04],[-6.79,30.14],[-6.56,30.01],[-6.31,30.11],[-6.28,30.36],[-6.03,30.46],[-5.81,30.32],[-5.56,30.43],[-5.53,30.67],[-5.28,30.78],[-5.25,31.02],[-5.0,31.12],[-4.78,30.98],[-4.52,31.08],[-4.49,31.33],[-4.24,31.43],[-4.02,31.28],[-3.77,31.38],[-3.56,31.24],[-3.3,31.34],[-3.27,31.58],[-3.02,31.68],[-2.98,31.92],[-2.73,32.02],[-2.51,31.87],[-2.26,31.97],[-2.05,31.82],[-1.8,31.91],[-1.59,31.77],[-1.34,31.86],[-1.3,32.1],[-1.05,32.19],[-0.84,32.05],[-0.6,32.13],[-0.55,32.37],[-0.3,32.46],[-0.09,32.31],[0.16,32.39],[0.2,32.63],[0.46,32.72],[0.67,32.56],[0.92,32.65],[0.97,32.89],[1.23,32.97],[1.44,32.82],[1.7,32.9],[1.9,32.74],[2.17,32.83],[2.22,33.07],[2.48,33.15],[2.69,32.99],[2.95,33.08],[3.01,33.32],[3.28,33.4],[3.49,33.24],[3.75,33.32],[3.81,33.56],[4.08,33.64],[4.14,33.88],[4.41,33.96],[4.47,34.21],[4.74,34.29],[4.81,34.53],[5.08,34.61],[5.29,34.45],[5.57,34.52],[5.63,34.77],[5.91,34.84],[6.13,34.68],[6.41,34.76],[6.62,34.59],[6.9,34.67],[7.11,34.5],[7.39,34.58],[7.61,34.41],[7.89,34.48],[8.1,34.32],[8.39,34.39],[8.46,34.63],[8.74,34.7],[8.96,34.53],[9.24,34.6],[9.32,34.85],[9.61,34.92],[9.82,34.75],[10.11,34.82],[10.19,35.06],[10.48,35.13],[10.69,34.95],[10.61,34.71],[10.32,34.64],[10.24,34.4],[9.95,34.33],[9.88,34.09],[10.09,33.91],[10.38,33.98],[10.45,34.22],[10.74,34.29],[10.82,34.54],[11.11,34.6],[11.2,34.85],[10.98,35.02],[11.06,35.26],[11.36,35.33],[11.44,35.57],[11.23,35.75],[11.31,35.99],[11.1,36.17],[11.18,36.41],[11.48,36.47],[11.56,36.72],[11.34,36.89],[11.43,37.13],[11.21,37.3],[10.91,37.23],[10.69,37.41],[10.39,37.34],[10.18,37.51],[9.88,37.43],[9.66,37.6],[9.36,37.53],[9.14,37.7],[8.85,37.63],[8.77,37.38],[8.48,37.31],[8.4,37.07],[8.11,37.0],[7.89,37.16],[7.6,37.08],[7.38,37.25],[7.09,37.17],[6.87,37.33],[6.59,37.26],[6.37,37.42],[6.08,37.34],[6.01,37.1],[5.73,37.02],[5.51,37.18],[5.22,37.1],[5.01,37.25],[4.72,37.17],[4.5,37.33],[4.22,37.24],[4.0,37.4],[3.72,37.32],[3.66,37.08],[3.39,36.99],[3.17,37.15],[2.89,37.06],[2.83,36.82],[2.56,36.73],[2.34,36.89],[2.07,36.8],[1.85,36.95],[1.58,36.86],[1.36,37.01],[1.09,36.92],[1.04,36.68],[0.77,36.6],[0.56,36.74],[0.29,36.65],[0.24,36.42],[-0.02,36.33],[-0.07,36.09],[-0.33,36.0],[-0.55,36.16],[-0.81,36.07],[-0.85,35.83],[-1.12,35.74],[-1.33,35.9],[-1.6,35.81],[-1.64,35.57],[-1.9,35.48],[-1.94,35.24],[-2.2,35.15],[-2.42,35.3],[-2.69,35.21],[-2.91,35.35],[-2.87,35.6],[-3.09,35.75],[-3.36,35.65],[-3.4,35.41],[-3.66,35.32],[-3.89,35.46],[-4.15,35.37],[-4.38,35.52],[-4.65,35.42],[-4.88,35.57],[-4.84,35.81],[-5.08,35.96],[-5.04,36.2],[-4.77,36.3],[-4.54,36.15],[-4.27,36.25],[-4.24,36.49],[-3.97,36.59],[-3.74,36.44],[-3.47,36.53],[-3.24,36.38],[-2.97,36.47],[-2.75,36.32],[-2.48,36.41],[-2.26,36.26],[-1.99,36.35],[-1.95,36.59],[-1.68,36.68],[-1.64,36.92],[-1.37,37.01],[-1.33,37.25],[-1.06,37.33],[-0.84,37.18],[-0.58,37.26],[-0.53,37.5],[-0.26,37.58],[-0.21,37.82],[-0.43,37.97],[-0.38,38.21],[-0.12,38.29],[-0.07,38.53],[0.2,38.61],[0.25,38.85],[0.03,39.0],[0.08,39.24],[-0.14,39.4],[-0.09,39.63],[0.18,39.71],[0.24,39.95],[0.51,40.02],[0.56,40.26],[0.84,40.34],[0.89,40.57],[1.17,40.66],[1.23,40.9],[1.51,40.99],[1.74,40.85],[2.02,40.94],[2.08,41.17],[2.36,41.26],[2.42,41.49],[2.71,41.58],[2.94,41.44],[3.23,41.53],[3.29,41.76],[3.59,41.85],[3.65,42.08],[3.42,42.23],[3.48,42.46],[3.25,42.6],[3.31,42.84],[3.61,42.93],[3.67,43.16],[3.97,43.25],[4.21,43.1],[4.51,43.19],[4.74,43.04],[5.04,43.13],[5.28,42.98],[5.58,43.06],[5.82,42.92],[6.12,43.0],[6.35,42.85],[6.66,42.93],[6.74,43.16],[7.05,43.24],[7.12,43.48],[7.43,43.56],[7.67,43.4],[7.98,43.48],[8.06,43.71],[8.37,43.79],[8.46,44.02],[8.77,44.1],[9.01,43.94],[9.33,44.02],[9.56,43.86],[9.88,43.94],[10.12,43.78],[10.03,43.55],[9.71,43.47],[9.63,43.24],[9.31,43.17],[9.23,42.94],[8.91,42.86],[8.68,43.02],[8.37,42.94],[8.29,42.71],[8.52,42.55],[8.44,42.32],[8.13,42.24],[8.05,42.01],[8.28,41.85],[8.21,41.61],[8.43,41.46],[8.74,41.53],[8.97,41.37],[8.89,41.14],[8.58,41.06],[8.36,41.22],[8.05,41.14],[7.97,40.91],[7.67,40.83],[7.6,40.59],[7.82,40.44],[8.12,40.51],[8.35,40.35],[8.27,40.12],[7.97,40.04],[7.9,39.8],[8.12,39.64],[8.05,39.4],[7.75,39.33],[7.67,39.09],[7.9,38.93],[8.19,39.0],[8.42,38.84],[8.34,38.6],[8.56,38.44],[8.86,38.51],[8.94,38.75],[9.24,38.82],[9.31,39.06],[9.62,39.14],[9.84,38.97],[10.14,39.04],[10.22,39.28],[10.0,39.45],[10.08,39.68],[9.86,39.85],[9.94,40.09],[10.25,40.16],[10.33,40.4],[10.11,40.56],[10.19,40.8],[9.96,40.96],[10.05,41.2],[9.82,41.36],[9.9,41.59],[9.67,41.76],[9.76,41.99],[10.07,42.06],[10.3,41.9],[10.61,41.97],[10.7,42.21],[11.02,42.28],[11.24,42.11],[11.56,42.18],[11.79,42.02],[11.7,41.78],[11.93,41.62],[12.25,41.68],[12.47,41.52],[12.38,41.28],[12.61,41.11],[12.52,40.88],[12.74,40.71],[13.05,40.77],[13.28,40.6],[13.59,40.67],[13.82,40.49],[14.13,40.55],[14.36,40.38],[14.67,40.44],[14.89,40.27],[14.8,40.03],[15.02,39.85],[15.33,39.91],[15.55,39.73],[15.45,39.5],[15.67,39.32],[15.57,39.08],[15.26,39.02],[15.16,38.79],[14.85,38.73],[14.63,38.9],[14.32,38.84],[14.23,38.61],[14.44,38.43],[14.35,38.19],[14.04,38.13],[13.82,38.31],[13.52,38.24],[13.3,38.42],[13.39,38.66],[13.17,38.83],[12.86,38.77],[12.77,38.53],[12.46,38.46],[12.38,38.22],[12.07,38.16],[11.98,37.92],[12.2,37.74],[12.12,37.5],[12.33,37.33],[12.64,37.4],[12.85,37.22],[13.15,37.28],[13.37,37.11],[13.67,37.17],[13.89,36.99],[14.19,37.05],[14.41,36.87],[14.32,36.63],[14.53,36.45],[14.83,36.51],[15.04,36.33],[15.35,36.39],[15.44,36.63],[15.23,36.81],[15.33,37.05],[15.63,37.11],[15.73,37.35],[15.52,37.53],[15.61,37.77],[15.93,37.83],[16.14,37.64],[16.45,37.7],[16.55,37.94],[16.86,37.99],[16.96,38.23],[16.75,38.41],[16.85,38.65],[17.17,38.71],[17.27,38.94],[17.58,39.0],[17.69,39.23],[17.47,39.41],[17.58,39.65],[17.36,39.83],[17.04,39.78],[16.83,39.96],[16.93,40.19],[17.25,40.25],[17.47,40.07],[17.79,40.12],[18.0,39.94],[17.9,39.7],[18.11,39.52],[18.43,39.57],[18.54,39.8],[18.86,39.85],[19.07,39.67],[19.4,39.72],[19.61,39.53],[19.5,39.3],[19.71,39.11],[20.03,39.15],[20.24,38.97],[20.13,38.73],[20.34,38.54],[20.23,38.31],[19.91,38.26],[19.8,38.02],[20.01,37.84],[20.33,37.88],[20.53,37.69],[20.42,37.45],[20.63,37.26],[20.94,37.31],[21.15,37.11],[21.04,36.88],[21.24,36.68],[21.55,36.73],[21.75,36.53],[22.07,36.57],[22.27,36.38],[22.16,36.14],[22.35,35.95],[22.67,35.99],[22.86,35.79],[23.18,35.83],[23.37,35.63],[23.26,35.39],[23.45,35.2],[23.76,35.23],[23.96,35.03],[23.84,34.8],[24.04,34.6],[24.34,34.63],[24.46,34.87],[24.77,34.9],[24.96,34.7],[25.27,34.74],[25.46,34.53],[25.77,34.57],[25.89,34.8],[26.2,34.83],[26.32,35.07],[26.63,35.09],[26.75,35.33],[27.06,35.36],[27.24,35.15],[27.55,35.18],[27.68,35.41],[27.49,35.62],[27.62,35.85],[27.93,35.87],[28.05,36.1],[28.37,36.13],[28.49,36.36],[28.81,36.38],[28.99,36.18],[29.3,36.2],[29.49,35.99],[29.8,36.01],[29.93,36.24],[30.24,36.26],[30.42,36.05],[30.73,36.07],[30.86,36.3],[30.68,36.51],[30.81,36.73],[31.12,36.75],[31.3,36.54],[31.62,36.56],[31.79,36.35],[32.1,36.36],[32.28,36.15],[32.59,36.17],[32.76,35.96],[33.07,35.97],[33.2,36.19],[33.51,36.21],[33.68,35.99],[33.99,36.0],[34.13,36.23],[33.96,36.44],[34.1,36.66],[33.92,36.87],[33.61,36.86],[33.44,37.07],[33.58,37.29],[33.41,37.5],[33.54,37.72],[33.37,37.93],[33.51,38.15],[33.33,38.36],[33.02,38.35],[32.84,38.56],[32.98,38.78],[32.8,38.98],[32.94,39.2],[32.76,39.41],[32.9,39.63],[32.72,39.83],[32.86,40.05],[32.68,40.26],[32.36,40.25],[32.17,40.45],[31.85,40.44],[31.66,40.65],[31.8,40.86],[32.13,40.88],[32.27,41.09],[32.6,41.1],[32.74,41.32],[32.56,41.52],[32.7,41.74],[33.03,41.75],[33.17,41.96],[33.5,41.97],[33.68,41.76],[34.01,41.77],[34.15,41.98],[33.97,42.18],[33.64,42.18],[33.46,42.38],[33.13,42.38],[32.99,42.16],[32.66,42.15],[32.51,41.94],[32.18,41.93],[32.04,41.72],[31.71,41.71],[31.57,41.49],[31.24,41.48],[31.1,41.26],[30.77,41.24],[30.58,41.45],[30.26,41.43],[30.12,41.21],[29.79,41.2],[29.6,41.4],[29.27,41.38],[29.07,41.58],[28.74,41.56],[28.54,41.76],[28.68,41.98],[28.48,42.18],[28.15,42.15],[27.95,42.35],[28.08,42.57],[27.88,42.77],[28.02,42.99],[28.36,43.01],[28.49,43.23],[28.83,43.25],[28.97,43.46],[28.77,43.66],[28.91,43.88],[28.71,44.07],[28.85,44.29],[29.19,44.3],[29.33,44.52],[29.67,44.53],[29.81,44.75],[29.61,44.94],[29.27,44.93],[29.06,45.12],[28.72,45.1],[28.58,44.89],[28.78,44.69],[28.64,44.48],[28.3,44.46],[28.16,44.25],[28.36,44.05],[28.23,43.84],[27.89,43.81],[27.75,43.6],[27.41,43.57],[27.21,43.77],[26.87,43.74],[26.66,43.94],[26.32,43.91],[26.19,43.69],[25.85,43.66],[25.64,43.86],[25.3,43.83],[25.17,43.61],[24.83,43.57],[24.61,43.76],[24.27,43.73],[24.06,43.92],[23.72,43.89],[23.51,44.07],[23.17,44.04],[22.95,44.22],[22.61,44.19],[22.39,44.37],[22.05,44.33],[21.83,44.52],[21.49,44.48],[21.27,44.66],[20.92,44.62],[20.7,44.8],[20.36,44.75],[20.24,44.53],[19.9,44.48],[19.67,44.66],[19.33,44.62],[19.11,44.79],[18.77,44.75],[18.54,44.92],[18.65,45.15],[18.43,45.32],[18.08,45.27],[17.86,45.44],[17.97,45.67],[17.74,45.84],[17.39,45.79],[17.16,45.96],[17.27,46.18],[17.04,46.35],[17.15,46.57],[16.92,46.74],[17.03,46.96],[17.38,47.01],[17.61,46.85],[17.96,46.9],[18.07,47.12],[17.84,47.29],[17.95,47.51],[17.72,47.67],[17.37,47.62],[17.13,47.79],[17.24,48.01],[17.6,48.06],[17.71,48.28],[17.47,48.44],[17.12,48.39],[16.88,48.55],[16.52,48.5],[16.28,48.66],[16.39,48.88],[16.15,49.04],[15.8,48.98],[15.69,48.77],[15.93,48.61],[15.82,48.39],[16.06,48.23],[15.95,48.01],[16.19,47.84],[16.08,47.62],[16.32,47.46],[16.21,47.24],[15.86,47.18],[15.62,47.35],[15.27,47.29],[15.17,47.07],[15.41,46.9],[15.3,46.68],[15.54,46.52],[15.43,46.29],[15.09,46.23],[14.85,46.4],[14.51,46.34],[14.27,46.5],[13.93,46.44],[13.83,46.22],[13.49,46.15],[13.25,46.31],[12.92,46.25],[12.68,46.41],[12.34,46.34],[12.24,46.12],[11.91,46.05],[11.67,46.2],[11.34,46.14],[11.1,46.29],[10.76,46.22],[10.67,45.99],[10.34,45.92],[10.1,46.08],[9.77,46.0],[9.53,46.15],[9.2,46.08],[8.96,46.23],[8.64,46.15],[8.39,46.3],[8.07,46.22],[7.99,46.0],[7.66,45.92],[7.58,45.69],[7.26,45.61],[7.19,45.38],[6.87,45.3],[6.79,45.07],[7.03,44.93],[6.95,44.7],[7.19,44.55],[7.11,44.32],[6.8,44.24],[6.56,44.39],[6.64,44.62],[6.4,44.76],[6.09,44.68],[5.85,44.83],[5.92,45.05],[6.24,45.14],[6.31,45.37],[6.63,45.45],[6.7,45.68],[6.46,45.82],[6.54,46.05],[6.86,46.13],[6.94,46.36],[7.26,46.44],[7.34,46.66],[7.66,46.74],[7.74,46.97],[8.07,47.05],[8.32,46.9],[8.65,46.98],[8.73,47.2],[9.06,47.28],[9.15,47.5],[9.48,47.58],[9.57,47.8],[9.32,47.95],[8.99,47.87],[8.9,47.65],[8.57,47.57],[8.32,47.72],[7.99,47.64],[7.74,47.78],[7.83,48.0],[8.16,48.08],[8.24,48.3],[7.99,48.45],[8.08,48.67],[8.41,48.75],[8.5,48.97],[8.84,49.04],[9.09,48.9],[9.0,48.68],[9.25,48.53],[9.59,48.61],[9.68,48.83],[9.43,48.97],[9.52,49.19],[9.27,49.34],[8.93,49.26],[8.67,49.4],[8.76,49.62],[9.1,49.7],[9.19,49.92],[8.94,50.06],[9.03,50.27],[8.77,50.41],[8.43,50.34],[8.34,50.12],[8.0,50.04],[7.91,49.82],[7.57,49.74],[7.49,49.53],[7.15,49.45],[6.9,49.58],[6.56,49.5],[6.31,49.64],[5.98,49.55],[5.72,49.69],[5.39,49.6],[5.13,49.73],[4.8,49.65],[4.55,49.78],[4.62,49.99],[4.37,50.12],[4.44,50.34],[4.18,50.47],[4.26,50.68],[4.0,50.81],[3.67,50.72],[3.42,50.88],[3.1,50.83],[2.85,51.0],[2.92,51.22],[3.24,51.26],[3.49,51.1],[3.81,51.15],[3.88,51.36],[3.63,51.53],[3.71,51.74],[4.03,51.79],[4.1,52.0],[4.44,52.09],[4.52,52.3],[4.86,52.38],[4.94,52.59],[4.67,52.72],[4.33,52.63],[4.25,52.42],[3.93,52.38],[3.85,52.16],[3.53,52.12],[3.45,51.91],[3.13,51.86],[3.06,51.64],[2.74,51.6],[2.67,51.38],[2.35,51.33],[2.28,51.11],[1.96,51.06],[1.7,51.22],[1.77,51.44],[1.51,51.61],[1.57,51.82],[1.9,51.87],[1.97,52.09],[1.7,52.25],[1.37,52.2],[1.31,51.98],[0.98,51.93],[0.92,51.71],[0.59,51.66],[0.32,51.82],[-0.01,51.76],[-0.07,51.54],[-0.4,51.49],[-0.67,51.65],[-1.0,51.58],[-1.06,51.36],[-0.79,51.2],[-0.84,50.98],[-1.17,50.92],[-1.44,51.08],[-1.77,51.02],[-2.05,51.17],[-2.38,51.11],[-2.66,51.27],[-2.6,51.49],[-2.89,51.64],[-3.22,51.58],[-3.51,51.73],[-3.84,51.66],[-4.13,51.82],[-4.47,51.75],[-4.76,51.9],[-4.71,52.12],[-4.37,52.19],[-4.08,52.04],[-3.75,52.11],[-3.7,52.33],[-3.99,52.49],[-3.94,52.71],[-4.24,52.86],[-4.58,52.79],[-4.62,52.57],[-4.97,52.5],[-5.01,52.28],[-5.35,52.2],[-5.39,51.98],[-5.73,51.9],[-5.77,51.68],[-5.48,51.53],[-5.14,51.6],[-4.85,51.45],[-4.89,51.22],[-4.6,51.07],[-4.64,50.84],[-4.98,50.77],[-5.27,50.92],[-5.6,50.85],[-5.64,50.62],[-5.97,50.54],[-6.01,50.31],[-6.34,50.23],[-6.38,50.0],[-6.7,49.92],[-6.74,49.69],[-6.45,49.54],[-6.12,49.62],[-6.09,49.85],[-5.76,49.93],[-5.47,49.78],[-5.14,49.86],[-4.86,49.7],[-4.53,49.78],[-4.49,50.01],[-4.16,50.08],[-3.88,49.93],[-3.56,50.0],[-3.51,50.23],[-3.18,50.3],[-3.13,50.52],[-2.81,50.59],[-2.53,50.44],[-2.2,50.5],[-1.93,50.35],[-1.61,50.41],[-1.34,50.25],[-1.01,50.32],[-0.96,50.54],[-0.63,50.6],[-0.37,50.44],[-0.04,50.5],[0.22,50.34],[0.54,50.4],[0.6,50.62],[0.93,50.68],[1.18,50.52],[1.12,50.3],[0.8,50.24],[0.74,50.02],[0.42,49.96],[0.16,50.12],[-0.16,50.06],[-0.22,49.84],[0.04,49.67],[-0.02,49.45],[-0.33,49.39],[-0.59,49.55],[-0.91,49.49],[-1.18,49.65],[-1.12,49.87],[-1.39,50.03],[-1.71,49.96],[-1.98,50.12],[-2.31,50.05],[-2.36,49.83],[-2.68,49.76],[-2.73,49.53],[-3.05,49.46],[-3.1,49.23],[-3.42,49.16],[-3.47,48.93],[-3.79,48.86],[-4.06,49.01],[-4.39,48.94],[-4.43,48.71],[-4.75,48.63],[-5.03,48.78],[-5.35,48.7],[-5.39,48.47],[-5.11,48.32],[-5.15,48.09],[-4.87,47.93],[-4.91,47.7],[-4.64,47.55],[-4.33,47.63],[-4.06,47.47],[-3.74,47.55],[-3.47,47.39],[-3.52,47.16],[-3.25,47.0],[-2.94,47.08],[-2.68,46.92],[-2.73,46.69],[-2.47,46.53],[-2.16,46.61],[-1.91,46.45]],[[19.3,40.79],[19.19,40.55],[18.86,40.51],[18.65,40.69],[18.32,40.64],[18.11,40.82],[17.78,40.77],[17.56,40.95],[17.67,41.18],[17.45,41.36],[17.13,41.31],[16.91,41.49],[16.58,41.43],[16.36,41.61],[16.46,41.84],[16.24,42.02],[16.34,42.25],[16.67,42.31],[16.78,42.54],[17.11,42.59],[17.33,42.42],[17.66,42.47],[17.88,42.29],[18.21,42.34],[18.43,42.16],[18.76,42.21],[18.98,42.03],[18.87,41.8],[19.09,41.62],[18.98,41.39],[19.19,41.2],[19.08,40.97],[19.3,40.79]],[[7.58,47.34],[7.5,47.11],[7.17,47.03],[6.93,47.17],[7.01,47.4],[7.33,47.48],[7.58,47.34]],[[13.51,44.07],[13.18,44.01],[12.95,44.17],[13.04,44.4],[12.81,44.56],[12.9,44.79],[12.67,44.95],[12.77,45.18],[13.1,45.25],[13.33,45.08],[13.24,44.86],[13.47,44.69],[13.8,44.76],[14.04,44.59],[13.94,44.36],[14.17,44.2],[14.5,44.26],[14.73,44.09],[14.63,43.86],[14.86,43.69],[15.19,43.75],[15.42,43.58],[15.32,43.35],[15.54,43.18],[15.44,42.95],[15.67,42.78],[16.0,42.83],[16.22,42.66],[16.12,42.43],[15.79,42.37],[15.57,42.54],[15.24,42.49],[15.14,42.25],[14.81,42.19],[14.59,42.37],[14.69,42.6],[14.46,42.77],[14.56,43.0],[14.33,43.17],[14.43,43.4],[14.2,43.57],[13.87,43.51],[13.64,43.67],[13.74,43.9],[13.51,44.07]],[[-2.88,48.85],[-2.83,49.08],[-2.51,49.15],[-2.24,48.99],[-2.29,48.76],[-2.61,48.69],[-2.88,48.85]],[[24.35,39.91],[24.48,40.14],[24.8,40.17],[25.0,39.97],[24.88,39.75],[24.56,39.71],[24.35,39.91]],[[32.51,37.03],[32.64,37.26],[32.96,37.27],[33.13,37.06],[32.99,36.84],[32.68,36.82],[32.51,37.03]],[[24.96,39.32],[25.16,39.12],[25.48,39.15],[25.68,38.96],[25.56,38.73],[25.23,38.7],[25.04,38.89],[24.71,38.86],[24.51,39.06],[24.63,39.29],[24.96,39.32]],[[32.39,38.32],[32.56,38.12],[32.43,37.89],[32.11,37.88],[31.93,38.09],[32.07,38.31],[32.39,38.32]],[[19.1,42.9],[18.76,42.85],[18.54,43.03],[18.65,43.26],[18.99,43.31],[19.21,43.13],[19.54,43.17],[19.76,42.99],[20.1,43.04],[20.32,42.86],[20.2,42.63],[19.87,42.58],[19.65,42.77],[19.32,42.72],[19.1,42.9]],[[25.05,36.04],[25.24,35.84],[25.55,35.87],[25.67,36.11],[25.99,36.14],[26.18,35.94],[26.06,35.7],[25.75,35.67],[25.63,35.44],[25.32,35.41],[25.12,35.61],[24.81,35.57],[24.62,35.77],[24.31,35.74],[24.11,35.94],[23.8,35.9],[23.6,36.1],[23.72,36.34],[23.52,36.53],[23.64,36.77],[23.95,36.8],[24.15,36.61],[24.47,36.64],[24.66,36.44],[24.97,36.48],[25.17,36.28],[25.05,36.04]],[[25.11,38.47],[25.31,38.27],[25.63,38.3],[25.83,38.1],[26.15,38.13],[26.34,37.93],[26.22,37.7],[25.9,37.67],[25.7,37.87],[25.38,37.84],[25.19,38.04],[24.87,38.0],[24.67,38.2],[24.79,38.43],[25.11,38.47]],[[7.17,47.84],[6.84,47.76],[6.59,47.9],[6.67,48.12],[7.0,48.21],[7.25,48.07],[7.17,47.84]],[[25.61,39.38],[25.41,39.58],[25.53,39.81],[25.86,39.84],[26.06,39.64],[25.93,39.41],[25.61,39.38]],[[23.4,42.17],[23.52,42.39],[23.85,42.43],[24.06,42.24],[23.94,42.01],[23.61,41.98],[23.4,42.17]]],[[[172.61,-40.53],[172.35,-40.68],[172.07,-40.58],[171.81,-40.72],[171.83,-40.97],[172.12,-41.07],[172.38,-40.92],[172.67,-41.02],[172.7,-41.27],[172.99,-41.36],[173.02,-41.61],[173.31,-41.7],[173.57,-41.55],[173.54,-41.31],[173.79,-41.16],[174.08,-41.25],[174.11,-41.5],[173.86,-41.65],[173.89,-41.89],[173.63,-42.04],[173.67,-42.28],[173.41,-42.43],[173.44,-42.67],[173.18,-42.82],[172.88,-42.73],[172.62,-42.88],[172.65,-43.12],[172.38,-43.27],[172.08,-43.17],[171.81,-43.32],[171.84,-43.56],[171.57,-43.71],[171.6,-43.95],[171.32,-44.1],[171.02,-44.0],[170.74,-44.15],[170.77,-44.39],[171.07,-44.49],[171.1,-44.73],[170.82,-44.88],[170.84,-45.12],[170.56,-45.27],[170.59,-45.51],[170.3,-45.65],[170.33,-45.89],[170.04,-46.04],[170.06,-46.28],[170.37,-46.38],[170.66,-46.23],[170.64,-45.99],[170.92,-45.85],[170.9,-45.6],[171.18,-45.46],[171.15,-45.22],[171.43,-45.07],[171.4,-44.83],[171.68,-44.68],[171.65,-44.44],[171.93,-44.29],[172.23,-44.39],[172.5,-44.24],[172.47,-44.0],[172.74,-43.85],[173.04,-43.94],[173.31,-43.79],[173.27,-43.55],[172.98,-43.46],[172.95,-43.22],[173.21,-43.07],[173.51,-43.16],[173.77,-43.01],[173.73,-42.77],[173.99,-42.62],[173.96,-42.37],[174.22,-42.22],[174.18,-41.98],[174.44,-41.83],[174.4,-41.59],[174.66,-41.44],[174.94,-41.53],[174.98,-41.77],[175.27,-41.86],[175.52,-41.71],[175.81,-41.8],[176.06,-41.64],[176.02,-41.4],[176.26,-41.25],[176.22,-41.01],[176.46,-40.85],[176.75,-40.94],[176.99,-40.79],[176.95,-40.55],[177.19,-40.39],[177.14,-40.15],[177.38,-40.0],[177.34,-39.76],[177.06,-39.67],[176.82,-39.83],[176.86,-40.07],[176.62,-40.22],[176.66,-40.46],[176.42,-40.61],[176.14,-40.53],[175.9,-40.68],[175.94,-40.92],[175.69,-41.07],[175.73,-41.31],[175.48,-41.47],[175.19,-41.38],[175.16,-41.13],[175.4,-40.98],[175.37,-40.74],[175.61,-40.59],[175.57,-40.35],[175.29,-40.26],[175.25,-40.01],[174.97,-39.92],[174.94,-39.68],[174.66,-39.58],[174.62,-39.34],[174.34,-39.25],[174.31,-39.0],[174.55,-38.85],[174.83,-38.95],[175.07,-38.8],[175.04,-38.55],[174.76,-38.46],[174.73,-38.21],[174.97,-38.06],[174.93,-37.82],[175.17,-37.67],[175.13,-37.43],[174.86,-37.33],[174.83,-37.09],[175.06,-36.94],[175.33,-37.03],[175.37,-37.28],[175.64,-37.37],[175.68,-37.62],[175.95,-37.71],[175.99,-37.95],[176.26,-38.04],[176.5,-37.89],[176.46,-37.65],[176.19,-37.56],[176.15,-37.32],[175.88,-37.22],[175.84,-36.98],[176.07,-36.83],[176.03,-36.59],[175.76,-36.49],[175.53,-36.64],[175.26,-36.54],[175.03,-36.69],[174.76,-36.6],[174.52,-36.74],[174.55,-36.99],[174.32,-37.14],[174.35,-37.38],[174.62,-37.48],[174.66,-37.72],[174.42,-37.87],[174.45,-38.12],[174.21,-38.27],[174.24,-38.51],[174.0,-38.66],[174.03,-38.9],[173.78,-39.05],[173.81,-39.3],[173.56,-39.45],[173.6,-39.69],[173.88,-39.79],[174.13,-39.64],[174.41,-39.73],[174.44,-39.98],[174.73,-40.07],[174.76,-40.32],[175.05,-40.41],[175.08,-40.65],[174.83,-40.8],[174.55,-40.71],[174.51,-40.47],[174.23,-40.37],[173.98,-40.52],[173.69,-40.43],[173.44,-40.58],[173.15,-40.48],[173.12,-40.23],[172.84,-40.14],[172.58,-40.28],[172.61,-40.53]]],[[[171.44,-42.49],[171.41,-42.24],[171.68,-42.1],[171.65,-41.85],[171.92,-41.71],[172.21,-41.81],[172.47,-41.66],[172.44,-41.41],[172.15,-41.31],[171.89,-41.46],[171.6,-41.36],[171.33,-41.51],[171.36,-41.75],[171.09,-41.9],[171.12,-42.14],[170.85,-42.29],[170.87,-42.54],[170.6,-42.68],[170.62,-42.93],[170.35,-43.07],[170.05,-42.97],[169.78,-43.11],[169.8,-43.36],[169.52,-43.5],[169.22,-43.4],[168.94,-43.54],[168.96,-43.78],[168.67,-43.92],[168.37,-43.82],[168.08,-43.96],[168.1,-44.2],[168.4,-44.31],[168.69,-44.17],[168.99,-44.27],[169.28,-44.13],[169.26,-43.89],[169.54,-43.75],[169.84,-43.85],[170.12,-43.7],[170.1,-43.46],[170.37,-43.32],[170.67,-43.42],[170.95,-43.27],[170.92,-43.03],[171.19,-42.88],[171.17,-42.64],[171.44,-42.49]]],[[[177.02,-39.43],[177.25,-39.28],[177.53,-39.36],[177.76,-39.21],[177.72,-38.97],[177.44,-38.88],[177.21,-39.04],[176.93,-38.95],[176.7,-39.1],[176.74,-39.34],[177.02,-39.43]]],[[[30.3,44.97],[30.64,44.99],[30.79,45.2],[30.59,45.39],[30.24,45.38],[30.04,45.57],[30.19,45.78],[29.98,45.98],[29.64,45.96],[29.49,45.75],[29.7,45.56],[29.55,45.35],[29.75,45.15],[30.1,45.17],[30.3,44.97]]],[[[35.38,45.47],[35.23,45.27],[35.41,45.07],[35.26,44.86],[34.92,44.86],[34.74,45.07],[34.4,45.07],[34.24,44.86],[33.91,44.86],[33.72,45.06],[33.87,45.27],[33.68,45.47],[33.34,45.46],[33.15,45.66],[32.8,45.66],[32.65,45.45],[32.31,45.44],[32.16,45.24],[32.35,45.04],[32.7,45.05],[32.89,44.85],[32.74,44.64],[32.93,44.44],[33.27,44.44],[33.46,44.24],[33.79,44.25],[33.98,44.04],[34.31,44.05],[34.46,44.25],[34.8,44.25],[34.95,44.46],[35.29,44.46],[35.44,44.66],[35.78,44.66],[35.93,44.86],[36.27,44.86],[36.42,45.06],[36.76,45.05],[36.93,44.85],[37.27,44.84],[37.44,44.64],[37.78,44.63],[37.95,44.42],[37.79,44.23],[37.96,44.02],[38.29,44.01],[38.45,44.21],[38.78,44.2],[38.95,43.99],[38.79,43.79],[38.96,43.58],[39.28,43.57],[39.45,43.37],[39.77,43.35],[39.93,43.14],[40.25,43.13],[40.41,42.92],[40.73,42.91],[40.89,42.7],[41.21,42.68],[41.37,42.88],[41.21,43.09],[40.89,43.1],[40.73,43.31],[40.41,43.33],[40.25,43.54],[39.93,43.55],[39.76,43.76],[39.44,43.77],[39.27,43.98],[39.43,44.18],[39.26,44.38],[38.94,44.4],[38.77,44.6],[38.44,44.61],[38.26,44.82],[37.93,44.83],[37.76,45.03],[37.43,45.04],[37.25,45.25],[36.91,45.25],[36.73,45.46],[36.4,45.46],[36.24,45.26],[35.9,45.27],[35.72,45.47],[35.38,45.47]]],[[[-16.13,32.71],[-16.13,32.96],[-15.87,33.09],[-15.87,33.34],[-16.13,33.47],[-16.39,33.34],[-16.39,33.09],[-16.65,32.96],[-16.92,33.09],[-17.18,32.96],[-17.44,33.08],[-17.7,32.95],[-17.7,32.69],[-17.43,32.57],[-17.17,32.7],[-16.91,32.58],[-16.91,32.32],[-16.65,32.19],[-16.39,32.32],[-16.39,32.58],[-16.13,32.71]]],[[[33.18,34.67],[33.31,34.89],[33.62,34.9],[33.75,35.13],[33.58,35.34],[33.28,35.33],[33.11,35.54],[32.8,35.52],[32.67,35.3],[32.36,35.29],[32.23,35.06],[32.4,34.85],[32.27,34.62],[32.44,34.41],[32.74,34.43],[32.88,34.65],[33.18,34.67]]],[[[35.61,42.2],[35.43,42.4],[35.1,42.4],[34.96,42.19],[34.63,42.19],[34.48,41.98],[34.66,41.77],[34.99,41.78],[35.16,41.57],[35.49,41.57],[35.66,41.36],[35.98,41.36],[36.16,41.16],[36.48,41.16],[36.63,41.36],[36.45,41.57],[36.13,41.57],[35.96,41.78],[35.64,41.78],[35.46,41.99],[35.61,42.2]]],[[[-17.65,29.13],[-17.9,29.25],[-18.15,29.12],[-18.14,28.86],[-18.39,28.73],[-18.38,28.47],[-18.13,28.35],[-17.89,28.49],[-17.63,28.37],[-17.63,28.11],[-17.38,27.99],[-17.38,27.74],[-17.13,27.62],[-16.89,27.75],[-16.64,27.63],[-16.39,27.76],[-16.39,28.01],[-16.15,28.14],[-16.15,28.39],[-15.9,28.52],[-15.9,28.77],[-16.14,28.9],[-16.39,28.77],[-16.64,28.89],[-16.89,28.76],[-16.89,28.51],[-17.14,28.38],[-17.39,28.5],[-17.39,28.75],[-17.64,28.87],[-17.65,29.13]]],[[[168.89,-46.85],[169.19,-46.71],[169.5,-46.8],[169.79,-46.66],[169.77,-46.42],[169.46,-46.32],[169.17,-46.46],[168.85,-46.36],[168.56,-46.5],[168.58,-46.75],[168.89,-46.85]]],[[[-26.24,37.98],[-26.21,37.72],[-25.92,37.62],[-25.65,37.76],[-25.35,37.66],[-25.09,37.8],[-25.12,38.06],[-25.41,38.17],[-25.68,38.02],[-25.98,38.13],[-26.24,37.98]]],[[[-28.57,38.29],[-28.26,38.19],[-28.0,38.35],[-28.04,38.6],[-27.78,38.75],[-27.81,39.01],[-28.12,39.11],[-28.38,38.95],[-28.34,38.7],[-28.6,38.55],[-28.57,38.29]]],[[[4.28,39.46],[4.57,39.54],[4.63,39.78],[4.41,39.93],[4.47,40.17],[4.25,40.32],[3.96,40.23],[3.73,40.38],[3.44,40.3],[3.38,40.06],[3.09,39.97],[2.87,40.12],[2.58,40.03],[2.53,39.8],[2.24,39.71],[2.19,39.47],[2.41,39.32],[2.35,39.09],[2.58,38.94],[2.86,39.03],[3.08,38.88],[3.36,38.96],[3.42,39.2],[3.71,39.29],[3.77,39.52],[4.06,39.61],[4.28,39.46]]],[[[2.07,39.0],[1.85,39.15],[1.91,39.38],[1.68,39.53],[1.4,39.44],[1.35,39.2],[1.07,39.11],[1.02,38.87],[1.24,38.73],[1.19,38.49],[1.41,38.35],[1.68,38.44],[1.74,38.67],[2.02,38.76],[2.07,39.0]]],[[[12.25,35.53],[12.46,35.35],[12.75,35.42],[12.84,35.66],[13.14,35.72],[13.23,35.96],[13.02,36.14],[12.72,36.08],[12.63,35.84],[12.33,35.77],[12.25,35.53]]],[[[-15.9,28.02],[-15.9,27.76],[-15.66,27.64],[-15.41,27.77],[-15.41,28.02],[-15.16,28.15],[-15.16,28.4],[-15.4,28.52],[-15.65,28.4],[-15.65,28.14],[-15.9,28.02]]],[[[11.94,37.02],[11.86,36.78],[12.07,36.61],[12.37,36.67],[12.46,36.91],[12.25,37.09],[11.94,37.02]]],[[[177.77,-37.86],[177.5,-37.77],[177.27,-37.92],[177.0,-37.83],[176.77,-37.98],[176.81,-38.23],[177.08,-38.31],[177.31,-38.16],[177.59,-38.25],[177.82,-38.1],[177.77,-37.86]]],[[[-27.44,38.4],[-27.14,38.29],[-26.87,38.44],[-26.91,38.7],[-27.21,38.8],[-27.47,38.65],[-27.44,38.4]]],[[[-13.18,28.89],[-13.17,29.14],[-13.41,29.27],[-13.4,29.52],[-13.65,29.65],[-13.9,29.53],[-13.9,29.28],[-14.16,29.15],[-14.16,28.9],[-14.41,28.78],[-14.42,28.53],[-14.67,28.4],[-14.67,28.15],[-14.43,28.02],[-14.18,28.15],[-13.94,28.02],[-13.69,28.15],[-13.69,28.4],[-13.44,28.52],[-13.43,28.77],[-13.18,28.89]]],[[[-25.0,37.03],[-25.03,37.29],[-25.33,37.4],[-25.59,37.25],[-25.56,37.0],[-25.27,36.89],[-25.0,37.03]]],[[[14.56,35.79],[14.65,36.03],[14.44,36.21],[14.13,36.15],[14.04,35.91],[14.25,35.73],[14.56,35.79]]],[[[-18.12,27.6],[-17.87,27.73],[-17.88,27.98],[-18.13,28.1],[-18.37,27.97],[-18.37,27.72],[-18.12,27.6]]]]}}]}