{"type":"FeatureCollection","features":[{"type":"Feature","properties":{},"geometry":{"type":"MultiPolygon","coordinates":[[[[-9.49,5.08],[-7.44,4.1],[-5.22,5.13],[-4.92,4.78],[-4.0,5.16],[-2.83,4.68],[-2.43,4.94],[-2.15,4.46],[-0.61,4.95],[-0.35,5.36],[0.2,5.29],[0.47,5.71],[1.02,5.64],[1.3,6.06],[3.7,6.35],[4.81,5.99],[5.81,3.92],[8.25,4.53],[8.7,4.23],[8.28,3.78],[8.44,2.85],[9.28,3.75],[9.76,3.06],[9.36,2.22],[9.51,1.65],[9.08,1.2],[9.27,-0.16],[8.62,-0.65],[8.65,-1.05],[9.62,-0.31],[9.47,0.27],[9.9,0.72],[9.7,2.07],[10.4,3.54],[9.93,3.86],[9.89,4.61],[9.59,3.99],[9.04,4.09],[8.89,5.2],[8.35,5.49],[8.62,5.73],[9.38,5.48],[9.07,6.58],[9.69,7.27],[10.69,7.06],[10.88,7.68],[11.82,7.26],[11.14,7.14],[10.22,6.2],[9.62,6.29],[10.31,5.06],[10.99,5.94],[10.95,6.52],[11.73,6.26],[12.31,6.75],[13.09,6.49],[13.62,6.77],[14.4,6.51],[14.65,5.97],[15.58,6.11],[16.01,7.36],[17.75,6.65],[18.3,6.93],[19.24,6.49],[20.9,6.73],[22.19,6.13],[22.76,6.41],[23.34,5.7],[23.92,5.98],[28.62,4.19],[29.34,2.63],[28.91,2.15],[29.71,1.84],[29.93,1.24],[31.28,2.26],[31.68,2.1],[29.55,0.34],[28.9,0.46],[28.52,-0.44],[28.74,-1.06],[28.3,-1.55],[28.63,-3.03],[28.19,-3.52],[28.4,-4.15],[29.0,-3.85],[28.98,-2.76],[29.39,-2.92],[29.57,-4.21],[30.17,-3.91],[30.2,-3.25],[30.86,-3.37],[30.89,-2.71],[31.89,-2.58],[32.12,-3.2],[32.71,-2.9],[34.75,-3.7],[34.49,-4.4],[34.72,-5.02],[35.72,-4.88],[35.95,-5.5],[36.77,-5.82],[37.69,-5.24],[37.7,-4.58],[38.18,-5.16],[38.76,-4.85],[38.28,-4.27],[38.93,-3.74],[39.5,-4.08],[38.66,-6.41],[39.23,-6.76],[39.3,-7.85],[40.11,-8.16],[39.47,-6.72],[40.13,-5.51],[39.82,-4.47],[40.39,-2.87],[42.22,-1.53],[42.22,-0.89],[43.68,0.16],[43.68,0.78],[44.89,1.76],[45.49,1.64],[47.53,3.31],[47.52,3.9],[48.58,4.61],[48.56,5.19],[49.05,5.44],[49.69,7.39],[50.43,7.83],[50.6,8.93],[51.12,9.33],[50.96,10.04],[51.59,10.43],[51.23,10.77],[51.36,12.22],[50.54,12.18],[49.44,11.38],[47.0,11.41],[44.34,10.46],[44.24,11.02],[43.58,11.34],[43.6,12.11],[44.06,12.53],[44.62,12.38],[46.11,13.44],[46.98,13.1],[50.13,14.77],[50.64,14.59],[51.77,15.38],[52.27,15.2],[52.47,16.14],[53.47,16.71],[54.89,16.71],[56.8,17.43],[56.06,17.79],[56.96,18.08],[57.12,18.73],[58.27,18.96],[57.9,19.41],[58.07,20.08],[58.77,19.9],[59.43,20.46],[59.05,20.92],[59.62,21.14],[60.02,22.54],[58.35,24.1],[57.52,23.92],[56.94,24.25],[56.37,25.73],[56.96,25.99],[57.63,25.44],[58.64,25.2],[59.25,25.44],[61.34,24.71],[63.28,25.18],[63.84,24.82],[66.52,25.26],[66.43,24.68],[67.12,24.67],[67.03,24.09],[68.88,22.9],[68.62,21.99],[69.46,21.13],[70.12,21.11],[70.67,20.53],[72.54,21.07],[72.77,20.53],[72.37,19.81],[72.97,18.34],[72.97,16.7],[73.56,15.89],[73.36,15.3],[73.95,15.19],[73.75,14.59],[74.34,14.49],[74.14,13.89],[74.73,13.06],[74.53,12.45],[75.72,11.25],[75.51,10.64],[76.3,9.42],[76.09,8.82],[76.69,8.68],[77.09,7.94],[77.9,7.91],[78.74,9.12],[79.78,8.96],[79.34,7.99],[79.74,7.48],[79.52,6.87],[80.32,5.6],[81.58,6.03],[82.26,7.37],[81.05,9.67],[80.43,9.81],[80.02,10.57],[80.25,11.18],[79.85,11.93],[80.73,13.16],[80.32,13.91],[80.37,15.64],[81.0,15.26],[81.45,16.0],[82.78,16.49],[82.58,17.11],[84.16,17.97],[84.41,18.58],[85.08,18.7],[85.34,19.32],[86.72,19.79],[87.21,20.52],[87.01,21.14],[88.85,21.1],[89.34,21.58],[90.5,21.42],[91.46,21.88],[92.71,19.59],[93.4,19.42],[93.32,18.42],[94.01,18.25],[94.42,17.47],[93.9,16.74],[93.83,15.72],[95.43,15.49],[96.39,15.93],[96.67,16.55],[97.13,16.52],[97.73,15.32],[97.38,13.94],[97.8,13.39],[97.71,12.36],[97.2,11.63],[97.87,11.45],[97.35,10.71],[97.74,9.91],[97.47,9.28],[98.13,9.1],[97.4,8.51],[98.07,8.33],[97.98,7.3],[98.69,7.63],[99.54,7.05],[98.81,6.46],[100.11,5.84],[99.83,5.23],[100.48,5.04],[100.21,4.43],[100.58,3.63],[101.23,3.45],[101.16,2.69],[101.67,3.42],[101.3,4.21],[100.65,4.39],[100.93,5.01],[100.53,5.55],[100.62,6.57],[101.51,6.5],[101.76,6.86],[100.48,7.49],[100.76,8.11],[100.16,9.06],[100.45,9.68],[99.68,11.3],[100.44,12.13],[100.27,12.79],[100.91,12.35],[102.05,12.37],[101.98,11.61],[102.64,11.41],[103.01,10.61],[102.73,9.99],[103.43,10.31],[103.83,9.76],[104.5,9.82],[104.43,9.06],[104.82,8.51],[105.75,8.93],[105.57,9.33],[104.87,9.01],[105.39,9.73],[105.23,10.39],[104.35,10.48],[103.98,11.28],[103.32,11.48],[104.06,12.04],[102.5,12.33],[103.03,13.05],[103.87,12.45],[104.39,13.16],[103.74,13.36],[103.36,14.17],[102.46,14.26],[101.89,15.46],[102.42,16.18],[102.25,16.83],[102.95,16.88],[102.4,18.33],[103.32,18.23],[103.82,18.68],[104.87,17.68],[105.56,17.73],[106.19,17.27],[104.81,19.32],[105.19,20.64],[104.22,22.36],[104.95,22.63],[105.24,23.21],[106.4,23.18],[105.76,23.62],[106.05,24.19],[108.48,25.04],[108.87,24.5],[110.62,23.99],[110.8,23.6],[110.09,23.36],[110.74,23.13],[111.24,23.53],[111.79,22.6],[111.43,21.58],[110.88,22.51],[109.67,21.86],[109.29,22.4],[108.6,22.38],[107.27,20.74],[106.6,20.95],[106.23,21.74],[105.72,21.31],[105.08,21.76],[105.24,21.13],[106.15,21.01],[106.55,20.47],[105.56,19.85],[105.45,18.87],[105.85,18.32],[106.01,19.79],[107.69,20.44],[108.49,21.43],[109.94,20.36],[109.23,20.1],[109.14,19.37],[110.34,20.05],[110.98,19.83],[110.16,18.6],[109.49,18.58],[109.4,17.85],[110.34,18.21],[111.39,19.52],[111.25,20.15],[110.61,20.38],[111.17,21.26],[112.1,21.59],[112.73,21.36],[113.22,21.75],[114.08,21.6],[114.86,22.52],[115.47,22.28],[118.21,23.58],[119.02,23.39],[119.35,22.86],[120.17,22.83],[120.63,21.79],[121.69,21.84],[121.12,22.22],[121.8,22.52],[121.49,23.22],[122.02,23.86],[121.9,24.43],[122.97,25.7],[123.56,25.34],[124.06,25.76],[123.78,26.65],[126.51,29.51],[126.39,30.04],[127.48,31.03],[127.35,31.54],[128.21,32.41],[129.56,32.33],[129.68,31.82],[129.11,31.24],[130.09,30.44],[129.35,30.18],[129.47,29.65],[128.65,28.96],[128.81,28.63],[129.79,28.98],[129.67,29.53],[130.25,30.12],[131.24,30.46],[131.12,30.99],[132.12,32.45],[133.29,32.45],[133.47,33.24],[134.39,33.16],[135.0,33.92],[135.63,33.1],[137.59,34.48],[138.92,34.39],[139.33,33.66],[139.78,33.63],[139.38,34.6],[140.78,34.96],[140.59,35.57],[141.29,35.64],[140.9,36.62],[141.43,37.3],[141.01,38.04],[141.74,38.11],[142.3,38.79],[142.11,39.41],[142.4,39.75],[141.51,40.99],[141.82,41.57],[141.37,42.3],[142.16,42.39],[143.14,41.87],[144.59,42.87],[145.95,42.9],[146.31,43.49],[147.16,43.55],[146.99,44.17],[147.68,44.85],[148.55,44.9],[148.96,45.48],[150.86,46.04],[150.08,46.48],[149.64,45.91],[147.82,45.57],[146.78,44.55],[145.42,44.75],[144.8,44.3],[143.71,44.36],[142.95,44.74],[143.14,44.14],[144.69,43.59],[144.37,43.25],[143.31,43.3],[143.0,42.95],[143.19,42.35],[142.67,42.37],[142.01,43.47],[142.61,44.16],[142.41,44.76],[142.72,45.11],[142.26,45.83],[142.86,46.28],[143.64,45.91],[144.0,46.49],[142.83,48.28],[143.8,49.08],[144.55,48.24],[145.24,48.92],[143.72,50.79],[144.02,51.34],[143.34,51.76],[143.98,52.43],[143.61,52.98],[143.94,53.31],[143.22,53.75],[143.54,54.32],[142.43,54.64],[142.11,54.29],[142.51,53.74],[141.47,53.6],[139.85,54.89],[138.46,54.59],[138.7,55.18],[137.07,55.77],[138.15,55.95],[138.71,56.92],[139.85,57.09],[140.48,58.06],[141.68,58.22],[142.42,58.95],[141.96,59.29],[141.22,58.56],[140.02,58.39],[139.39,57.42],[138.24,57.24],[137.7,56.27],[136.6,56.09],[136.39,55.49],[134.93,55.37],[134.36,54.86],[133.17,55.09],[133.65,54.8],[133.42,54.43],[132.55,54.8],[131.63,54.35],[130.54,55.15],[129.42,55.12],[128.37,55.68],[126.68,55.31],[125.71,55.63],[124.33,55.39],[122.6,56.16],[122.24,55.6],[121.23,55.89],[119.89,55.6],[119.82,55.22],[118.94,54.89],[119.52,54.66],[119.63,54.08],[119.0,53.93],[118.88,54.51],[118.48,54.54],[118.38,53.78],[117.55,53.46],[116.98,53.68],[117.01,54.05],[117.85,54.39],[117.07,54.81],[117.93,55.15],[116.08,55.43],[114.83,55.09],[114.62,54.53],[113.61,54.75],[113.42,54.19],[110.73,53.47],[110.47,54.03],[111.22,54.4],[110.03,54.4],[109.69,55.34],[110.46,55.73],[109.81,55.91],[109.22,55.71],[109.11,55.14],[108.47,55.32],[108.32,56.08],[109.08,56.48],[109.02,56.86],[110.88,57.46],[112.03,56.88],[112.88,57.26],[112.86,57.65],[114.64,57.62],[114.64,58.02],[113.27,58.44],[113.24,59.24],[114.9,60.22],[114.66,60.42],[114.91,60.62],[118.27,59.69],[118.42,59.07],[117.44,58.71],[118.31,58.27],[119.03,58.43],[119.1,58.83],[121.61,58.46],[121.81,59.26],[120.39,59.36],[120.76,59.95],[121.54,60.1],[121.45,60.73],[120.15,60.61],[119.79,60.01],[117.84,60.12],[117.61,60.33],[117.89,60.52],[118.66,60.69],[118.44,60.91],[117.2,61.17],[115.66,60.81],[115.44,61.43],[114.92,61.44],[111.94,60.65],[110.06,61.66],[110.22,62.28],[109.92,62.48],[107.11,62.2],[102.86,63.01],[102.32,63.6],[102.49,63.82],[101.21,64.14],[101.37,64.37],[100.99,64.55],[97.62,64.87],[96.91,65.44],[95.38,65.48],[94.6,66.04],[93.04,66.06],[91.79,66.99],[89.13,67.04],[87.17,68.32],[84.92,67.91],[82.7,68.42],[81.66,67.96],[79.5,67.96],[78.28,68.41],[77.78,68.28],[78.49,67.71],[76.78,68.03],[76.29,67.9],[76.99,67.35],[74.84,67.3],[72.45,66.41],[71.81,66.72],[72.62,67.44],[70.48,67.33],[69.21,67.71],[66.96,66.75],[66.26,67.03],[66.6,67.41],[66.0,67.47],[62.15,66.63],[60.82,66.93],[60.16,66.38],[58.82,66.68],[54.19,66.31],[53.19,66.74],[53.56,66.92],[53.35,67.13],[52.76,67.14],[52.39,66.96],[52.47,66.36],[50.64,66.01],[48.24,66.61],[48.08,67.19],[49.34,67.58],[49.09,67.77],[49.44,67.96],[51.38,68.33],[54.66,68.06],[55.06,68.24],[54.85,68.44],[54.01,68.66],[55.45,69.0],[55.23,69.2],[48.25,67.96],[46.79,68.14],[46.59,68.7],[45.7,68.88],[43.28,68.81],[42.97,68.61],[43.86,68.45],[44.11,67.89],[42.37,67.06],[41.24,67.39],[41.51,67.98],[41.21,68.15],[38.88,68.4],[38.51,68.94],[37.02,69.03],[36.48,69.55],[35.2,69.26],[31.7,70.25],[31.29,70.79],[28.97,70.91],[27.85,71.37],[26.65,71.01],[25.46,71.46],[21.48,70.83],[20.53,70.25],[18.33,70.24],[18.02,69.76],[15.09,69.32],[14.56,68.55],[13.16,68.41],[13.0,67.94],[14.59,67.71],[13.26,67.58],[11.42,65.18],[10.28,65.03],[9.6,64.53],[9.77,64.2],[8.13,64.17],[8.2,63.66],[4.76,62.49],[4.97,62.14],[4.11,61.2],[5.02,59.98],[4.46,59.58],[5.05,58.51],[6.31,58.23],[6.69,57.56],[0.93,56.95],[0.43,56.49],[-2.09,56.13],[-2.34,56.5],[-1.55,56.81],[-1.74,57.38],[-1.3,57.64],[-3.0,58.0],[-2.5,58.46],[-2.76,58.81],[-0.58,59.85],[-0.76,60.4],[-0.3,60.64],[-1.28,61.1],[-2.67,60.37],[-1.68,59.92],[-2.2,59.47],[-4.48,59.36],[-3.53,58.71],[-4.97,58.89],[-7.67,58.44],[-7.36,58.09],[-7.78,57.81],[-7.52,57.25],[-8.34,56.67],[-7.3,56.46],[-6.76,55.52],[-8.5,55.59],[-9.29,54.99],[-9.02,54.41],[-10.75,54.44],[-10.44,54.08],[-10.84,53.54],[-10.21,53.03],[-10.97,52.17],[-10.38,51.43],[-8.77,51.18],[-8.03,51.81],[-6.37,51.98],[-7.49,51.06],[-7.26,50.45],[-9.38,48.76],[-9.13,48.14],[-10.14,47.38],[-9.87,47.0],[-10.29,45.7],[-9.51,44.54],[-8.4,43.95],[-9.63,43.32],[-8.91,41.9],[-9.76,41.84],[-10.72,40.53],[-11.56,40.45],[-13.06,38.38],[-13.89,38.28],[-14.47,37.28],[-16.12,36.79],[-16.66,35.77],[-18.54,34.86],[-19.3,33.69],[-19.03,33.31],[-19.27,32.66],[-18.46,31.79],[-18.71,31.4],[-18.44,30.76],[-19.42,29.46],[-19.15,28.83],[-19.63,28.31],[-18.84,26.94],[-17.85,26.47],[-16.88,26.49],[-15.91,27.01],[-15.41,27.77],[-13.95,27.77],[-12.65,29.89],[-11.9,30.0],[-11.35,30.99],[-9.81,31.68],[-10.08,31.32],[-9.94,29.94],[-10.48,29.21],[-11.21,29.11],[-11.74,28.37],[-12.46,28.51],[-13.45,28.02],[-13.71,27.65],[-13.49,27.02],[-14.21,26.9],[-15.2,25.4],[-14.97,24.78],[-15.68,24.65],[-17.32,22.03],[-17.08,21.43],[-17.54,20.69],[-16.62,20.24],[-16.85,19.64],[-16.17,18.83],[-16.18,17.89],[-16.62,17.41],[-16.61,15.79],[-17.04,15.09],[-17.68,14.94],[-16.82,13.64],[-17.02,12.41],[-16.4,11.68],[-16.4,10.82],[-15.58,10.87],[-14.78,10.48],[-14.59,9.97],[-13.99,9.89],[-14.21,9.36],[-13.61,9.29],[-12.91,7.3],[-11.78,6.97],[-11.61,6.49],[-9.81,5.63],[-9.49,5.08]],[[24.67,38.2],[25.11,38.47],[26.34,37.93],[25.9,37.67],[24.67,38.2]],[[45.87,67.93],[44.97,67.72],[44.73,68.29],[45.65,68.5],[45.87,67.93]],[[137.22,45.95],[136.19,45.46],[135.94,46.48],[136.98,46.51],[137.22,45.95]],[[18.76,42.21],[19.19,40.55],[18.0,41.24],[17.99,41.88],[17.22,42.18],[17.66,42.47],[18.76,42.21]],[[132.93,33.99],[134.58,34.16],[134.38,33.6],[133.3,33.56],[132.71,33.01],[132.93,33.99]],[[131.62,53.55],[131.13,53.83],[131.82,53.91],[131.62,53.55]],[[130.71,32.36],[131.05,32.84],[130.72,33.46],[131.63,33.39],[131.63,32.29],[130.79,31.64],[130.42,32.07],[130.71,32.36]],[[141.02,44.21],[141.28,44.08],[140.96,43.5],[140.18,43.4],[139.35,42.36],[140.08,41.99],[139.3,41.66],[140.03,41.28],[139.76,40.94],[139.96,40.34],[139.45,39.89],[139.65,39.29],[139.13,38.6],[138.42,38.51],[137.93,37.83],[138.14,37.24],[137.68,37.26],[137.02,38.32],[136.32,37.53],[136.54,36.95],[135.86,35.93],[133.92,35.87],[133.26,36.66],[132.85,36.22],[133.08,35.66],[131.67,34.89],[130.81,34.92],[130.94,34.43],[130.19,34.19],[129.86,34.79],[130.8,35.99],[130.56,36.54],[131.13,37.32],[131.08,38.21],[130.33,39.84],[129.49,39.8],[129.25,40.12],[129.61,40.8],[130.25,40.94],[129.99,41.48],[130.37,42.17],[131.26,42.22],[131.69,42.69],[132.6,42.73],[133.08,42.3],[133.53,42.77],[134.24,42.68],[135.19,43.16],[135.68,44.08],[136.42,44.21],[136.94,45.14],[137.71,45.27],[140.93,49.1],[140.65,49.65],[141.22,50.09],[140.75,51.26],[141.35,51.71],[142.08,51.08],[141.48,50.64],[141.85,49.67],[141.42,48.41],[141.94,47.94],[141.62,47.59],[141.84,47.01],[140.94,46.2],[141.71,45.84],[140.87,45.5],[141.34,44.79],[141.02,44.21]],[[52.04,24.72],[51.75,26.31],[50.11,26.84],[50.18,27.66],[52.34,27.54],[54.52,25.75],[55.19,25.8],[55.03,25.07],[54.37,25.02],[54.36,25.59],[53.95,25.49],[54.14,24.5],[53.49,24.45],[52.88,25.33],[52.04,24.72]],[[40.94,18.15],[41.31,17.55],[42.04,17.59],[41.19,16.93],[42.03,15.96],[41.54,15.53],[42.02,14.75],[42.72,14.8],[42.71,14.0],[42.36,13.78],[40.95,14.88],[41.3,15.51],[40.45,16.89],[39.47,16.82],[38.57,18.22],[39.06,18.67],[38.54,19.48],[37.91,19.23],[37.38,19.62],[37.45,21.54],[36.91,21.94],[37.01,22.59],[38.86,22.68],[38.49,21.6],[39.8,19.97],[39.81,19.13],[40.94,18.56],[40.57,17.92],[40.94,18.15]],[[-8.68,6.07],[-9.58,6.31],[-8.79,6.93],[-8.93,7.4],[-9.7,7.17],[-9.65,7.76],[-10.06,7.35],[-10.62,7.42],[-9.18,8.98],[-9.23,8.38],[-8.63,8.7],[-7.39,8.06],[-7.47,7.28],[-6.93,7.2],[-7.35,6.61],[-7.07,5.87],[-7.78,6.02],[-7.7,5.0],[-8.57,5.23],[-8.35,5.71],[-8.68,6.07]],[[138.99,51.94],[138.46,51.25],[137.81,51.21],[138.28,52.12],[138.99,51.94]],[[138.59,50.61],[139.11,51.29],[140.1,51.23],[139.83,50.89],[140.23,50.37],[139.41,49.59],[139.77,49.29],[139.5,48.74],[139.75,48.4],[138.92,48.27],[139.17,47.93],[138.87,47.58],[138.08,47.91],[138.32,47.34],[137.5,46.53],[136.47,46.95],[137.51,48.33],[137.09,48.82],[137.32,49.15],[138.22,49.31],[137.8,49.81],[138.96,50.31],[138.59,50.61]],[[99.86,8.18],[100.43,6.98],[100.17,6.61],[99.39,7.96],[99.86,8.18]],[[97.47,34.4],[97.93,34.35],[98.03,33.76],[97.57,33.8],[97.47,34.4]],[[99.03,34.93],[99.75,34.96],[100.02,34.23],[99.11,34.34],[99.03,34.93]],[[94.85,35.82],[95.56,35.64],[95.25,35.31],[93.55,35.57],[93.86,35.9],[94.85,35.82]],[[101.62,51.95],[101.0,52.06],[101.09,52.29],[101.45,52.35],[101.62,51.95]],[[6.94,37.57],[8.48,37.31],[8.11,37.0],[7.09,37.17],[6.94,37.57]],[[135.28,52.01],[135.7,51.71],[134.83,51.31],[135.82,51.29],[135.65,50.73],[136.69,50.49],[133.98,49.93],[133.07,50.7],[133.68,51.75],[132.23,52.04],[132.64,52.76],[132.09,53.26],[134.2,54.27],[135.29,54.26],[136.0,53.07],[135.28,52.01]],[[16.3,35.23],[25.32,32.51],[23.51,32.3],[23.24,32.93],[21.45,33.37],[19.83,32.23],[19.91,31.11],[18.83,30.48],[18.54,31.11],[15.79,31.75],[15.36,32.8],[13.37,33.3],[12.7,32.93],[11.71,33.16],[11.45,34.01],[10.74,34.29],[11.7,34.74],[11.1,36.17],[11.48,36.47],[12.72,36.08],[12.33,35.77],[12.46,35.35],[13.53,36.03],[16.3,35.23]],[[94.87,31.96],[94.39,31.98],[94.24,32.57],[95.38,32.16],[94.87,31.96]],[[87.77,36.45],[87.48,36.09],[86.7,36.22],[86.99,36.59],[87.77,36.45]],[[21.55,36.73],[22.07,36.57],[22.16,36.14],[21.13,36.45],[21.55,36.73]],[[140.84,38.88],[140.35,38.9],[140.64,39.48],[140.42,39.85],[141.45,40.28],[141.88,39.54],[140.91,39.83],[141.13,39.46],[140.84,38.88]],[[25.04,38.89],[24.51,39.06],[24.96,39.32],[25.68,38.96],[25.04,38.89]],[[33.68,35.99],[34.88,36.46],[35.52,36.04],[35.57,35.18],[35.13,34.95],[34.5,35.37],[35.08,35.82],[34.91,36.03],[33.72,35.56],[33.68,35.99]],[[38.21,2.33],[38.62,2.8],[39.01,2.64],[38.83,0.95],[39.38,0.61],[38.98,0.13],[39.29,-0.89],[38.96,-1.79],[38.48,-1.21],[38.89,-0.73],[37.93,-0.22],[38.34,0.26],[38.19,1.08],[37.17,1.99],[37.04,3.42],[38.22,2.96],[37.58,2.46],[37.65,2.05],[38.21,2.33]],[[0.53,7.03],[0.76,8.23],[1.05,7.71],[0.89,6.92],[0.46,6.64],[0.53,7.03]],[[36.46,2.52],[36.6,1.71],[36.28,1.45],[35.6,3.24],[36.56,3.36],[36.79,2.77],[36.46,2.52]],[[91.99,35.19],[91.49,35.21],[91.65,34.61],[90.86,34.28],[93.12,32.99],[92.53,32.32],[91.45,33.19],[90.68,32.87],[90.08,33.96],[89.03,33.51],[88.58,34.0],[89.37,34.34],[89.69,34.93],[90.4,34.54],[90.96,35.0],[90.75,35.37],[89.23,35.43],[89.85,36.38],[90.94,36.81],[91.9,36.27],[92.29,35.53],[91.99,35.19]],[[99.39,52.2],[99.75,52.26],[99.93,51.86],[99.3,51.96],[99.39,52.2]],[[24.97,36.48],[25.24,35.84],[26.18,35.94],[25.32,35.41],[23.8,35.9],[23.52,36.53],[23.95,36.8],[24.97,36.48]],[[131.95,51.9],[132.48,51.4],[131.4,51.61],[131.95,51.9]],[[-6.14,6.2],[-6.5,6.18],[-6.22,7.04],[-5.55,6.69],[-5.29,5.96],[-5.69,5.57],[-6.14,6.2]],[[140.78,38.17],[139.74,36.81],[138.79,36.39],[139.2,35.43],[138.54,35.82],[138.28,35.02],[136.74,35.9],[137.42,36.22],[137.66,36.79],[138.58,36.75],[139.07,37.43],[139.78,37.51],[139.84,38.46],[140.57,38.54],[140.78,38.17]],[[85.56,34.28],[85.32,34.65],[85.58,34.77],[86.35,34.64],[85.56,34.28]],[[132.69,34.99],[132.89,35.32],[133.93,35.19],[134.35,35.63],[134.78,35.17],[131.76,33.98],[131.44,34.59],[132.69,34.99]],[[16.08,68.49],[15.43,68.76],[16.43,68.78],[17.16,68.32],[15.85,68.02],[16.08,68.49]],[[96.78,37.8],[96.11,38.24],[95.51,37.81],[95.33,38.19],[97.29,38.84],[98.01,38.63],[98.32,37.87],[97.99,37.55],[97.28,37.75],[97.67,38.31],[97.45,38.45],[96.78,37.8]],[[80.86,35.67],[81.4,35.69],[81.67,35.08],[80.62,35.05],[80.33,35.65],[80.86,35.67]],[[29.98,35.81],[29.54,35.56],[28.37,36.13],[28.81,36.38],[29.98,35.81]],[[49.83,29.32],[50.15,28.68],[49.45,29.14],[48.66,28.77],[48.3,29.0],[49.26,29.97],[49.87,29.73],[49.83,29.32]],[[45.51,67.35],[46.73,67.75],[47.57,67.57],[47.18,66.99],[45.51,67.35]],[[27.68,35.41],[27.62,35.85],[27.93,35.87],[28.11,35.67],[27.68,35.41]],[[36.9,65.39],[35.1,65.44],[36.02,65.9],[35.72,66.07],[35.94,66.28],[39.95,65.98],[39.18,65.74],[38.99,65.15],[36.9,65.39]],[[-1.84,7.46],[-1.2,6.85],[-0.3,6.67],[-0.05,5.98],[-1.23,6.66],[-1.52,6.04],[-2.29,6.99],[-2.16,7.77],[-1.84,7.46]],[[123.94,54.85],[122.61,54.59],[122.05,54.84],[123.65,55.27],[124.06,55.23],[123.94,54.85]],[[32.14,35.93],[32.19,35.5],[30.29,35.83],[30.86,36.3],[30.81,36.73],[32.1,36.36],[32.14,35.93]],[[10.69,58.5],[9.31,58.6],[10.51,58.81],[10.69,58.5]],[[130.07,53.81],[130.25,54.18],[130.75,53.9],[130.07,53.81]],[[4.98,7.56],[5.51,8.05],[6.06,7.77],[5.41,7.64],[5.48,7.07],[4.98,7.56]],[[-7.11,5.49],[-6.75,5.51],[-7.17,4.94],[-7.11,5.49]],[[25.61,39.38],[25.53,39.81],[25.86,39.84],[26.06,39.64],[25.61,39.38]],[[102.39,13.5],[102.58,13.09],[102.08,12.63],[101.7,13.43],[102.39,13.5]],[[96.07,33.48],[95.77,33.15],[94.84,33.22],[94.49,33.95],[95.23,34.01],[96.07,33.48]],[[32.76,35.96],[33.07,35.97],[33.11,35.54],[32.63,35.73],[32.76,35.96]],[[135.64,34.46],[136.07,34.44],[135.64,33.78],[135.64,34.46]],[[96.79,35.65],[97.32,35.83],[96.69,35.18],[96.79,35.65]],[[39.83,67.51],[39.53,67.68],[39.8,67.89],[40.66,67.75],[39.83,67.51]],[[98.6,37.96],[98.5,38.57],[98.78,38.65],[99.15,38.13],[98.6,37.96]],[[19.8,58.68],[19.25,58.97],[20.24,59.23],[21.91,58.86],[21.19,58.47],[19.8,58.68]],[[85.87,35.38],[85.63,35.74],[85.9,35.86],[86.15,35.74],[85.87,35.38]]],[[[108.58,18.46],[109.05,18.64],[108.67,19.19],[108.58,18.46]]],[[[126.55,26.16],[126.99,26.13],[127.31,25.44],[128.0,25.5],[127.88,26.07],[129.26,27.4],[129.14,27.95],[129.83,28.01],[130.16,28.52],[129.26,28.59],[128.4,27.68],[128.53,27.13],[127.68,27.41],[127.8,26.85],[126.39,26.51],[126.55,26.16]]],[[[-65.11,32.44],[-65.07,32.11],[-64.31,32.52],[-65.11,32.44]]],[[[114.97,-34.2],[115.16,-33.69],[116.01,-33.42],[116.13,-32.05],[115.67,-31.33],[115.26,-31.46],[115.16,-32.47],[115.62,-33.21],[114.62,-33.63],[114.97,-34.2]]],[[[72.57,11.02],[73.15,11.37],[72.77,12.08],[72.77,11.37],[72.0,10.9],[72.19,10.54],[72.57,11.02]]],[[[-24.82,14.59],[-23.29,14.59],[-22.91,15.31],[-23.82,15.71],[-24.22,15.21],[-25.09,15.14],[-24.82,14.59]]],[[[72.76,2.41],[73.13,1.69],[73.89,2.11],[73.52,3.77],[73.9,4.46],[73.33,4.61],[73.72,6.25],[72.95,7.46],[72.38,6.64],[72.95,6.27],[72.57,5.58],[72.95,4.62],[72.39,3.83],[72.76,2.41]]],[[[92.1,10.43],[93.0,10.37],[92.82,11.03],[93.33,11.77],[94.27,12.23],[94.07,12.63],[93.16,12.68],[93.23,13.71],[93.98,14.56],[93.57,15.35],[93.52,14.59],[92.27,12.99],[92.1,10.43]]],[[[108.53,14.21],[108.97,14.15],[109.29,13.1],[109.72,13.05],[109.2,14.25],[109.49,14.84],[109.14,15.64],[108.5,15.85],[108.35,16.49],[107.71,16.7],[107.55,17.35],[106.3,18.26],[106.82,16.82],[107.47,16.61],[106.76,16.32],[107.27,14.87],[107.92,14.66],[108.27,13.86],[108.53,14.21]],[[107.36,15.62],[107.88,16.3],[108.24,15.5],[108.88,15.29],[109.03,14.65],[108.36,14.61],[108.0,15.41],[107.36,15.62]]],[[[142.78,59.55],[143.23,59.2],[149.11,59.16],[149.58,59.51],[148.82,60.25],[147.52,60.4],[145.33,59.58],[143.63,59.57],[142.74,60.03],[142.32,59.9],[142.78,59.55]]],[[[-159.39,22.38],[-160.08,22.21],[-160.13,21.78],[-159.44,21.95],[-159.39,22.38]]],[[[73.1,0.09],[72.96,-0.97],[73.88,0.02],[73.32,1.1],[72.73,0.35],[73.1,0.09]]],[[[121.57,18.36],[121.46,18.96],[122.03,18.56],[122.56,19.23],[122.05,20.09],[122.35,20.65],[122.01,21.14],[121.52,20.71],[121.79,19.76],[121.15,19.69],[121.27,19.09],[120.78,18.66],[120.93,18.29],[121.57,18.36]]],[[[-157.13,20.87],[-156.37,20.36],[-155.78,20.74],[-156.26,21.23],[-157.13,20.87]]],[[[141.95,26.81],[142.56,26.37],[142.45,26.95],[141.95,26.81]]],[[[108.08,12.11],[107.56,11.41],[108.94,12.01],[109.06,11.11],[109.55,11.55],[109.66,12.55],[108.97,12.26],[108.34,12.46],[108.08,12.11]]],[[[129.03,61.9],[129.18,61.66],[127.95,61.38],[128.1,61.15],[130.69,61.46],[129.92,62.0],[129.03,61.9]]],[[[-25.59,37.25],[-25.24,36.63],[-24.69,36.67],[-25.12,38.06],[-26.24,37.98],[-25.59,37.25]]],[[[52.66,12.1],[52.29,12.44],[51.97,12.25],[52.34,11.9],[52.66,12.1]]],[[[107.22,10.3],[108.34,10.56],[108.63,11.16],[106.81,10.6],[106.03,9.54],[106.44,9.24],[107.22,10.3]]],[[[92.67,8.72],[93.45,6.86],[94.34,6.8],[94.16,7.46],[93.5,7.63],[94.02,8.63],[93.1,8.43],[92.95,9.6],[92.47,9.12],[92.67,8.72]]],[[[-22.01,64.53],[-21.66,64.18],[-23.0,63.86],[-20.5,63.79],[-19.82,63.31],[-18.23,63.24],[-16.48,63.6],[-15.84,64.14],[-14.59,64.16],[-13.32,64.98],[-14.94,65.11],[-16.19,64.27],[-19.31,63.63],[-20.31,64.48],[-21.49,64.87],[-22.01,64.53]]],[[[103.17,5.33],[103.02,5.98],[101.95,6.46],[102.92,4.97],[103.36,4.93],[103.17,5.33]]],[[[-26.87,38.44],[-26.67,39.1],[-27.89,39.52],[-29.17,38.49],[-28.83,38.14],[-26.87,38.44]]],[[[36.23,-7.9],[35.9,-7.5],[34.78,-8.57],[35.2,-8.73],[36.23,-7.9]]],[[[153.33,-30.31],[153.6,-30.2],[153.39,-29.8],[153.09,-30.16],[153.33,-30.31]]],[[[114.85,56.63],[114.63,56.45],[115.27,56.23],[115.46,55.65],[116.1,55.82],[115.94,56.79],[114.85,56.63]]],[[[151.76,47.18],[151.37,46.85],[151.96,46.8],[151.76,47.18]]],[[[-22.32,16.4],[-22.81,17.06],[-23.26,17.03],[-22.94,15.77],[-22.5,15.8],[-22.32,16.4]]],[[[-122.17,47.45],[-122.01,47.81],[-122.9,47.73],[-123.3,47.2],[-122.34,47.08],[-122.17,47.45]]],[[[106.15,14.88],[106.83,14.92],[106.47,15.73],[105.97,15.28],[106.15,14.88]]],[[[97.87,3.08],[97.95,4.09],[98.81,3.77],[98.64,4.42],[97.99,4.6],[97.61,5.4],[96.04,5.39],[95.51,4.4],[97.0,3.4],[97.38,2.6],[97.11,1.99],[97.8,2.32],[98.2,1.78],[98.69,2.25],[99.31,1.82],[98.77,3.26],[98.33,3.3],[98.27,2.54],[97.61,2.71],[97.87,3.08]]],[[[34.25,-9.32],[34.32,-9.76],[35.02,-9.2],[34.18,-8.88],[34.25,-9.32]]],[[[55.54,-21.37],[55.98,-21.47],[55.73,-20.64],[55.11,-21.27],[55.54,-21.37]]],[[[125.44,24.9],[123.25,24.8],[122.71,24.16],[124.19,23.97],[124.97,24.71],[125.84,24.65],[125.44,24.9]]],[[[141.84,24.1],[141.42,25.43],[140.97,25.51],[141.39,24.17],[141.84,24.1]]],[[[-15.44,65.84],[-15.19,65.48],[-13.75,65.71],[-14.95,65.92],[-15.21,66.29],[-15.7,66.21],[-15.44,65.84]]],[[[-7.3,62.23],[-7.76,61.97],[-6.74,61.16],[-6.28,61.42],[-6.6,61.76],[-5.67,62.26],[-6.37,62.74],[-7.3,62.23]]],[[[-72.57,5.49],[-72.07,6.57],[-72.32,6.91],[-73.01,5.7],[-72.57,5.49]]],[[[133.1,60.22],[131.89,59.98],[133.04,59.36],[133.67,59.91],[133.1,60.22]]],[[[12.46,-18.98],[12.04,-18.36],[12.0,-16.01],[11.62,-15.81],[11.68,-18.59],[12.46,-18.98]]],[[[-21.25,65.8],[-22.15,65.82],[-23.23,64.91],[-22.36,64.89],[-21.25,65.8]]],[[[104.01,2.59],[103.83,2.99],[103.16,2.91],[104.14,1.7],[103.45,1.38],[103.38,0.63],[104.24,0.56],[104.72,1.03],[104.01,2.59]]],[[[152.05,59.16],[153.26,58.97],[153.78,59.3],[152.55,59.5],[152.05,59.16]]],[[[131.51,58.96],[132.32,59.05],[132.22,59.28],[131.18,59.66],[130.94,59.26],[129.79,59.01],[130.37,58.71],[131.51,58.96]]],[[[56.92,68.75],[56.29,68.77],[55.88,68.6],[56.09,68.39],[58.18,68.68],[56.92,68.75]]],[[[6.29,0.0],[6.84,-0.11],[6.8,0.66],[6.27,0.39],[6.29,0.0]]],[[[-17.74,65.64],[-17.16,65.96],[-17.55,66.1],[-19.0,65.82],[-17.74,65.64]]],[[[-14.16,-7.6],[-14.54,-7.72],[-14.54,-8.26],[-14.16,-8.14],[-14.16,-7.6]]],[[[111.55,55.15],[110.96,54.97],[111.58,54.78],[111.55,55.15]]],[[[145.98,18.17],[145.49,18.02],[145.84,17.46],[145.98,18.17]]],[[[58.16,-20.15],[57.84,-19.57],[56.91,-20.52],[57.79,-20.71],[58.16,-20.15]]],[[[153.27,-28.63],[153.77,-28.68],[153.36,-27.87],[153.06,-28.23],[153.27,-28.63]]],[[[55.06,-3.81],[55.6,-4.01],[54.95,-4.24],[54.99,-4.81],[55.75,-4.93],[56.08,-4.42],[55.87,-3.71],[55.33,-3.52],[55.06,-3.81]]],[[[13.12,-21.08],[14.39,-22.52],[14.35,-23.57],[14.76,-23.77],[14.76,-22.29],[13.34,-20.65],[13.42,-20.0],[12.85,-19.17],[12.49,-19.4],[13.12,-21.08]]],[[[-8.54,57.67],[-8.09,58.16],[-8.44,58.3],[-9.24,57.95],[-8.54,57.67]]],[[[-30.99,39.07],[-30.78,39.48],[-31.14,39.82],[-31.71,39.75],[-30.99,39.07]]],[[[54.67,12.54],[54.44,13.06],[53.65,13.04],[52.86,12.11],[53.73,11.97],[54.16,12.34],[54.63,12.18],[54.67,12.54]]],[[[48.43,68.72],[50.28,68.72],[50.78,69.29],[49.62,69.67],[47.98,69.47],[47.54,68.91],[48.43,68.72]]],[[[96.48,2.42],[96.09,3.21],[95.61,2.74],[95.81,2.34],[96.48,2.42]]],[[[40.26,-10.35],[40.34,-11.45],[40.75,-11.6],[40.68,-10.5],[40.26,-10.35]]],[[[150.06,59.85],[150.42,59.48],[151.77,59.78],[150.06,59.85]]],[[[145.0,13.11],[145.23,14.33],[144.41,13.61],[145.0,13.11]]],[[[-24.84,17.27],[-25.73,17.19],[-25.45,16.63],[-24.53,16.23],[-23.87,16.4],[-24.14,16.97],[-24.84,17.27]]],[[[111.02,56.3],[111.06,55.92],[112.32,55.91],[112.06,56.49],[111.02,56.3]]],[[[101.09,1.94],[101.94,1.62],[102.04,2.62],[100.47,2.37],[101.09,1.94]]],[[[117.05,62.21],[116.24,62.03],[117.76,61.56],[118.16,62.58],[117.38,62.82],[117.05,62.21]]],[[[139.51,32.83],[140.19,33.13],[139.53,33.3],[139.51,32.83]]],[[[153.42,-29.54],[153.69,-29.44],[153.48,-29.04],[153.18,-29.39],[153.42,-29.54]]],[[[59.61,68.41],[60.05,68.58],[59.87,68.78],[58.8,68.65],[59.61,68.41]]],[[[53.43,-5.5],[53.34,-5.1],[53.08,-5.36],[53.31,-5.93],[53.89,-5.99],[53.43,-5.5]]],[[[99.82,2.54],[100.28,2.76],[99.89,3.3],[99.82,2.54]]],[[[-61.74,15.99],[-61.15,16.03],[-61.01,16.39],[-61.45,16.71],[-61.74,15.99]]],[[[131.09,26.24],[130.8,25.93],[131.17,25.44],[131.74,26.06],[131.09,26.24]]],[[[115.88,-34.82],[115.85,-35.18],[116.28,-35.04],[115.88,-34.82]]],[[[134.24,60.69],[133.95,60.3],[135.67,60.43],[134.24,60.69]]],[[[95.18,5.97],[94.93,5.6],[95.34,5.06],[95.84,5.79],[95.43,6.34],[95.18,5.97]]],[[[130.58,59.96],[131.42,60.05],[131.55,60.68],[129.85,60.49],[129.76,59.86],[130.58,59.96]]]]}}]}