{"type":"FeatureCollection","features":[{"type":"Feature","properties":{},"geometry":{"type":"MultiPolygon","coordinates":[[[[55.91,18.17],[55.38,17.95],[54.94,17.08],[53.51,17.09],[50.67,14.97],[50.98,14.79],[52.31,15.57],[52.47,16.14],[53.47,16.71],[53.96,16.53],[56.65,17.3],[56.73,17.62],[56.06,17.79],[56.96,18.08],[57.12,18.73],[57.89,18.88],[58.23,20.22],[58.77,19.9],[59.43,20.46],[59.05,20.92],[59.62,21.14],[59.95,22.75],[58.35,24.1],[57.52,23.92],[56.94,24.25],[56.54,25.89],[61.34,24.71],[63.28,25.18],[63.84,24.82],[66.52,25.26],[66.43,24.68],[67.12,24.67],[67.03,24.09],[68.88,22.9],[68.62,21.99],[69.57,21.68],[70.67,20.53],[71.72,20.77],[71.45,21.05],[70.59,20.95],[70.44,21.79],[69.77,21.82],[69.88,22.38],[71.29,23.32],[71.01,23.62],[70.4,23.21],[70.53,23.78],[71.35,24.33],[71.07,24.64],[70.16,24.52],[70.29,25.11],[71.12,25.67],[71.83,25.64],[72.22,26.14],[73.61,26.29],[74.14,25.89],[74.54,26.39],[76.86,26.82],[77.29,27.32],[80.59,27.76],[81.05,28.24],[81.03,28.94],[81.76,28.16],[82.47,28.31],[83.41,27.88],[84.36,28.36],[86.17,27.24],[88.76,27.35],[89.67,26.87],[90.18,27.33],[92.55,27.26],[91.65,27.99],[90.67,27.55],[89.75,28.04],[89.24,27.58],[87.83,27.59],[87.39,28.06],[86.89,27.59],[85.08,28.72],[84.37,28.59],[83.9,29.04],[83.19,28.68],[83.19,29.61],[83.92,29.74],[83.69,30.32],[82.96,30.42],[82.71,30.29],[82.95,29.72],[82.47,29.7],[81.73,30.97],[80.98,31.06],[80.19,32.34],[80.7,32.37],[81.22,31.67],[82.22,31.7],[82.47,32.07],[82.21,32.42],[83.47,32.57],[83.23,33.17],[81.7,33.13],[80.39,33.93],[79.1,33.75],[76.28,35.8],[77.32,36.37],[77.9,35.91],[80.31,36.15],[80.86,35.67],[82.73,36.59],[84.07,36.48],[86.26,37.71],[87.06,37.57],[88.48,38.39],[89.55,38.35],[90.02,37.84],[91.35,37.89],[91.77,37.13],[92.71,36.59],[93.49,36.65],[93.91,36.14],[94.9,36.06],[95.48,36.49],[97.16,36.2],[97.49,36.53],[97.11,37.05],[95.86,37.05],[94.95,37.62],[94.59,38.38],[94.97,38.96],[93.16,39.24],[93.49,39.58],[94.78,39.34],[95.4,39.77],[96.67,39.52],[97.29,39.93],[98.19,39.34],[99.47,39.29],[99.83,38.76],[100.59,38.77],[100.93,38.24],[101.55,38.62],[102.47,37.64],[103.66,37.57],[103.88,36.82],[104.32,36.74],[104.74,37.26],[104.43,38.38],[105.13,38.96],[104.84,39.5],[105.64,40.3],[104.98,40.55],[104.96,41.16],[106.73,42.98],[105.18,43.06],[104.96,43.84],[105.72,45.04],[105.0,45.31],[105.91,45.49],[106.19,46.79],[106.92,47.74],[106.6,48.31],[107.13,48.81],[106.81,49.38],[106.17,48.66],[104.85,49.07],[105.69,50.26],[105.57,50.66],[107.47,50.72],[109.41,51.99],[110.76,52.13],[110.68,52.52],[109.88,52.24],[108.07,52.45],[109.48,53.22],[109.39,53.62],[108.81,53.77],[109.46,54.21],[109.23,54.39],[107.39,53.62],[106.55,54.56],[105.68,54.88],[105.8,55.1],[104.11,55.95],[103.9,56.98],[102.94,57.29],[102.76,57.69],[101.65,57.77],[101.15,58.34],[100.01,58.41],[99.25,59.38],[97.72,59.6],[96.78,59.24],[96.16,59.8],[94.14,59.91],[93.84,60.3],[95.17,60.52],[93.54,60.69],[91.67,61.7],[90.35,61.68],[89.2,62.59],[87.8,62.32],[88.34,62.88],[87.95,63.26],[86.1,63.35],[85.21,63.85],[83.79,63.77],[81.89,64.28],[81.38,64.86],[79.89,64.98],[79.34,65.56],[73.97,66.59],[75.23,67.87],[74.14,67.84],[72.85,66.77],[72.21,67.08],[73.49,68.15],[72.38,68.1],[71.55,67.39],[69.21,67.71],[67.66,67.49],[66.21,68.06],[64.53,68.02],[61.23,69.28],[58.66,69.43],[57.98,68.89],[56.29,68.77],[54.59,69.22],[48.25,67.96],[46.79,68.14],[46.59,68.7],[45.7,68.88],[43.28,68.81],[42.97,68.61],[43.86,68.45],[44.11,67.89],[42.37,67.06],[41.24,67.39],[41.51,67.98],[41.21,68.15],[38.88,68.4],[38.51,68.94],[37.02,69.03],[36.48,69.55],[35.2,69.26],[31.7,70.25],[30.74,70.92],[28.97,70.91],[27.85,71.37],[26.65,71.01],[24.27,71.49],[21.98,71.12],[21.0,70.54],[18.76,70.54],[18.02,69.76],[13.75,69.0],[13.29,68.23],[11.93,68.08],[11.56,67.33],[12.73,67.65],[13.38,67.4],[11.83,66.97],[10.9,65.85],[11.64,65.45],[10.48,65.3],[10.41,64.87],[9.6,64.53],[9.77,64.2],[8.13,64.17],[8.2,63.66],[4.76,62.49],[4.97,62.14],[4.11,61.2],[5.02,59.98],[4.46,59.58],[5.05,58.51],[2.48,58.28],[1.95,57.84],[0.92,57.92],[0.41,57.47],[-0.63,57.53],[-1.49,57.02],[-1.74,57.38],[-1.3,57.64],[-3.0,58.0],[-2.5,58.46],[-2.76,58.81],[-0.58,59.85],[-0.76,60.4],[-0.3,60.64],[-1.28,61.1],[-2.67,60.37],[-1.68,59.92],[-2.2,59.47],[-4.48,59.36],[-3.53,58.71],[-4.97,58.89],[-7.67,58.44],[-7.36,58.09],[-7.78,57.81],[-7.52,57.25],[-8.34,56.67],[-7.3,56.46],[-6.76,55.52],[-8.5,55.59],[-9.29,54.99],[-9.02,54.41],[-10.75,54.44],[-10.44,54.08],[-10.84,53.54],[-10.21,53.03],[-10.97,52.17],[-10.38,51.43],[-8.77,51.18],[-8.03,51.81],[-6.75,51.67],[-7.49,51.06],[-7.26,50.45],[-7.95,50.05],[-7.72,49.44],[-8.4,49.03],[-8.17,48.41],[-8.84,48.0],[-8.58,47.61],[-8.92,47.28],[-8.66,46.9],[-9.0,46.57],[-8.74,46.18],[-9.18,44.88],[-8.1,44.05],[-9.63,43.32],[-8.91,41.9],[-9.76,41.84],[-11.31,40.06],[-11.07,39.42],[-11.66,38.95],[-11.42,38.31],[-12.0,37.83],[-11.75,37.44],[-12.05,36.82],[-11.32,35.65],[-10.31,35.1],[-9.75,35.57],[-6.68,35.36],[-6.47,34.97],[-7.35,33.91],[-8.9,33.51],[-10.03,32.07],[-9.94,29.94],[-10.48,29.21],[-11.21,29.11],[-11.49,28.49],[-12.46,28.51],[-13.45,28.02],[-13.71,27.65],[-13.49,27.02],[-14.21,26.9],[-15.2,25.4],[-14.97,24.78],[-15.68,24.65],[-17.32,22.03],[-17.08,21.43],[-17.54,20.69],[-16.62,20.24],[-16.85,19.64],[-16.17,18.83],[-16.18,17.89],[-16.62,17.41],[-16.61,15.79],[-17.68,14.72],[-16.82,13.64],[-17.02,12.41],[-16.4,11.68],[-16.4,10.82],[-15.58,10.87],[-14.78,10.48],[-14.59,9.97],[-13.99,9.89],[-14.21,9.36],[-13.61,9.29],[-12.91,7.3],[-11.78,6.97],[-10.9,5.95],[-9.81,5.63],[-9.5,4.9],[-7.79,4.08],[-5.22,5.13],[-4.92,4.78],[-4.0,5.16],[-2.83,4.68],[-2.43,4.94],[-2.15,4.46],[-0.61,4.95],[-0.35,5.36],[0.2,5.29],[0.47,5.71],[1.02,5.64],[1.3,6.06],[3.7,6.35],[4.81,5.99],[5.81,3.92],[8.25,4.53],[8.7,4.23],[8.28,3.78],[8.44,2.85],[9.28,3.75],[9.76,3.06],[9.36,2.22],[9.51,1.65],[9.08,1.2],[9.27,-0.16],[8.62,-0.65],[8.65,-1.05],[9.62,-0.31],[9.47,0.27],[9.9,0.72],[9.7,2.07],[10.13,2.53],[10.08,3.3],[9.62,3.61],[10.03,4.06],[9.04,4.09],[8.99,4.84],[7.97,5.61],[9.28,5.84],[8.79,6.33],[9.13,6.78],[9.9,6.53],[9.56,6.08],[9.65,4.95],[10.15,5.23],[10.87,4.97],[11.16,5.78],[11.64,5.28],[13.12,5.91],[14.65,5.0],[15.4,5.7],[16.37,5.46],[16.8,5.92],[16.65,6.68],[17.59,6.82],[19.99,6.21],[21.28,6.59],[22.57,5.99],[23.15,6.27],[26.01,5.06],[26.59,5.34],[25.65,6.82],[25.02,6.93],[24.43,7.63],[24.25,8.81],[23.06,9.24],[23.82,9.96],[23.6,10.54],[20.68,11.97],[20.54,13.42],[19.96,13.76],[19.89,14.81],[18.79,15.71],[19.14,16.63],[18.8,17.67],[18.19,17.35],[17.15,17.83],[16.12,17.64],[15.35,17.5],[14.94,16.99],[13.17,16.65],[11.71,17.22],[9.98,16.86],[9.37,16.29],[9.07,16.88],[8.53,16.54],[8.23,17.12],[7.57,17.18],[6.85,17.88],[5.59,18.23],[5.06,17.88],[4.05,18.27],[2.45,17.84],[-0.7,19.09],[-0.94,20.09],[-1.53,20.34],[-1.12,21.55],[-1.71,21.8],[-2.19,21.43],[-2.48,22.2],[-0.24,22.92],[1.05,23.99],[1.71,23.97],[2.63,25.13],[3.31,25.11],[3.52,26.07],[4.22,26.05],[4.58,26.6],[5.6,26.88],[7.49,26.71],[8.08,27.09],[8.74,26.8],[9.41,27.42],[10.34,27.19],[11.03,27.8],[12.96,28.23],[13.91,27.98],[14.64,28.58],[15.31,28.26],[16.82,28.77],[18.92,28.0],[20.45,28.48],[21.59,27.97],[24.88,28.64],[26.29,28.13],[26.59,27.04],[27.73,27.16],[27.56,26.24],[28.24,26.54],[30.04,25.82],[29.81,25.35],[28.3,26.1],[27.9,25.83],[29.25,25.3],[29.9,24.47],[29.44,23.54],[30.13,22.28],[31.18,22.82],[31.65,22.2],[32.54,22.94],[33.24,22.77],[33.29,23.87],[35.2,24.0],[35.27,22.7],[36.5,22.13],[37.06,21.3],[37.02,18.96],[37.56,18.15],[38.19,18.4],[38.72,17.19],[39.08,17.83],[38.57,18.22],[39.06,18.67],[38.54,19.48],[37.91,19.23],[37.38,19.62],[37.45,21.54],[36.46,22.99],[35.64,23.38],[36.57,23.65],[35.74,24.04],[34.7,25.51],[35.2,26.41],[34.21,26.58],[34.28,27.68],[35.43,27.3],[36.91,25.19],[36.95,24.32],[38.03,23.94],[38.99,22.48],[38.49,21.6],[39.81,19.55],[40.44,19.79],[40.19,18.94],[40.81,19.18],[41.68,17.78],[42.04,18.0],[40.81,20.02],[39.8,20.39],[39.27,21.21],[39.38,22.71],[38.84,23.54],[39.23,23.77],[40.02,23.37],[42.1,24.7],[43.13,24.29],[44.05,25.35],[45.84,25.75],[46.32,25.33],[46.95,25.52],[48.75,24.86],[48.82,24.24],[51.06,22.96],[51.12,22.36],[51.76,21.94],[52.82,22.5],[53.74,22.37],[54.47,21.67],[54.26,20.64],[54.88,20.68],[55.11,21.16],[56.05,20.94],[56.28,21.43],[57.31,21.54],[57.84,20.14],[57.58,19.14],[56.81,18.98],[56.51,18.19],[55.91,18.17]],[[-1.49,5.13],[-2.06,5.02],[-2.53,5.47],[-1.21,5.74],[-1.08,5.4],[-1.49,5.13]],[[80.42,33.2],[81.19,33.11],[81.71,32.16],[80.17,32.83],[80.42,33.2]],[[18.83,30.48],[18.54,31.11],[15.79,31.75],[15.36,32.8],[13.37,33.3],[12.7,32.93],[11.71,33.16],[11.45,34.01],[10.74,34.29],[11.7,34.74],[11.1,36.17],[11.48,36.47],[12.72,36.08],[12.33,35.77],[12.46,35.35],[13.23,35.96],[14.25,35.73],[14.95,36.09],[17.72,35.25],[18.44,35.6],[25.48,33.42],[25.74,32.78],[27.2,32.26],[27.92,32.55],[30.0,31.61],[29.16,31.1],[27.56,31.85],[25.46,31.63],[25.21,32.27],[24.23,32.61],[23.51,32.3],[23.24,32.93],[21.75,33.41],[19.83,32.23],[19.91,31.11],[18.83,30.48]],[[32.47,23.81],[31.96,23.33],[31.25,23.49],[31.09,25.24],[32.24,24.9],[32.47,23.81]],[[-8.63,6.64],[-7.89,6.68],[-7.05,6.06],[-6.08,6.76],[-5.41,6.42],[-5.36,5.4],[-5.76,5.01],[-8.09,4.61],[-8.94,5.21],[-8.66,6.26],[-9.19,6.52],[-8.63,6.64]],[[-0.82,5.82],[-0.72,6.4],[-1.2,6.85],[-0.13,6.52],[-0.05,5.98],[-0.82,5.82]],[[102.08,46.62],[102.22,46.22],[101.51,45.85],[101.13,46.42],[100.25,46.44],[99.85,47.0],[97.98,46.78],[97.54,47.34],[96.95,47.42],[97.81,48.3],[98.74,48.29],[99.17,47.73],[99.91,48.11],[101.05,47.05],[101.93,47.02],[102.08,46.62]],[[47.5,67.19],[46.6,66.98],[45.51,67.35],[47.32,67.76],[47.5,67.19]],[[6.87,37.33],[6.37,37.42],[6.73,37.74],[8.48,37.31],[8.11,37.0],[6.87,37.33]],[[30.68,36.51],[31.12,36.75],[32.28,36.15],[31.39,35.67],[30.73,36.07],[30.68,36.51]],[[49.26,29.97],[50.91,28.58],[50.96,27.99],[51.67,27.47],[52.34,27.54],[54.52,25.75],[55.19,25.8],[55.2,25.22],[54.37,25.02],[54.11,25.65],[53.88,25.12],[54.14,24.5],[53.49,24.45],[52.88,25.33],[52.04,24.72],[51.75,26.31],[50.11,26.84],[50.08,27.87],[49.45,27.7],[48.74,28.15],[48.3,29.0],[49.26,29.97]],[[59.33,27.21],[59.77,27.31],[59.36,27.82],[59.99,28.07],[61.0,27.2],[60.26,26.58],[59.67,26.93],[58.78,26.74],[59.33,27.21]],[[-2.9,5.39],[-3.21,5.68],[-2.6,6.18],[-2.47,5.84],[-2.9,5.39]],[[61.1,26.17],[60.66,26.08],[60.77,26.45],[62.82,26.73],[63.27,27.64],[64.18,26.97],[64.11,26.37],[64.88,26.15],[64.1,25.56],[63.21,26.21],[61.1,26.17]],[[97.69,53.2],[96.72,53.45],[96.57,54.1],[97.92,53.91],[98.13,53.51],[97.69,53.2]],[[59.12,28.48],[59.76,28.74],[60.1,28.45],[59.46,28.2],[59.12,28.48]],[[34.57,36.45],[35.35,36.26],[35.41,35.39],[34.94,35.6],[34.91,36.03],[34.02,35.57],[33.55,35.77],[34.57,36.45]],[[104.16,43.88],[104.78,43.39],[104.8,42.77],[103.56,43.75],[102.67,43.55],[103.13,44.08],[104.16,43.88]],[[99.7,50.27],[99.52,50.68],[100.13,50.58],[99.7,50.27]],[[-2.2,35.15],[-2.87,35.6],[-1.81,35.96],[-1.64,35.57],[-2.2,35.15]],[[7.64,5.94],[7.86,5.21],[7.59,4.98],[6.95,5.62],[7.27,6.06],[7.64,5.94]],[[57.42,23.0],[57.17,22.5],[56.52,23.03],[57.18,23.62],[57.42,23.0]],[[102.21,50.97],[101.0,51.18],[100.56,51.76],[99.95,50.98],[99.49,51.56],[98.87,51.65],[98.47,52.46],[99.0,53.01],[98.79,53.41],[100.09,53.21],[99.64,52.9],[99.83,52.5],[100.64,52.86],[101.09,52.29],[102.33,52.07],[101.27,51.88],[101.44,51.48],[104.04,51.49],[104.32,50.68],[102.21,50.97]],[[37.57,66.02],[39.67,66.16],[39.95,65.98],[39.18,65.74],[38.99,65.15],[35.1,65.44],[36.02,65.9],[35.72,66.07],[35.94,66.28],[37.57,66.02]],[[69.04,23.26],[69.68,23.45],[69.96,23.16],[69.32,22.96],[69.04,23.26]],[[98.9,50.77],[98.47,50.46],[98.08,51.27],[99.06,51.25],[99.33,51.08],[98.9,50.77]],[[105.0,50.79],[104.86,51.19],[105.44,51.06],[105.0,50.79]],[[105.87,47.36],[105.98,46.96],[105.46,47.07],[105.87,47.36]],[[97.2,45.01],[97.01,45.41],[97.33,45.49],[98.14,45.26],[97.2,45.01]],[[43.75,66.53],[42.92,66.7],[43.77,66.92],[44.04,66.73],[43.75,66.53]]],[[[29.95,-5.04],[30.17,-5.67],[29.88,-6.38],[30.71,-6.71],[31.32,-6.4],[31.96,-7.2],[31.61,-7.47],[30.78,-7.15],[30.97,-8.46],[30.62,-8.73],[30.27,-7.22],[29.59,-7.09],[29.37,-6.45],[28.77,-6.76],[28.79,-7.87],[29.43,-8.68],[30.2,-8.57],[28.78,-9.66],[28.74,-10.34],[27.9,-10.01],[28.36,-9.5],[28.24,-8.62],[27.41,-8.28],[26.59,-9.06],[27.53,-9.16],[27.61,-10.72],[26.51,-10.41],[26.03,-9.8],[24.85,-10.85],[23.82,-10.97],[22.78,-13.33],[21.74,-13.44],[21.54,-12.8],[20.46,-12.47],[19.81,-11.2],[19.15,-11.05],[17.71,-12.08],[17.53,-11.44],[16.48,-11.1],[16.3,-10.46],[15.66,-10.31],[15.59,-10.97],[14.5,-11.29],[14.67,-11.92],[14.25,-12.83],[14.78,-13.22],[14.07,-13.71],[13.99,-14.37],[13.03,-14.87],[13.45,-15.49],[13.02,-16.38],[12.31,-16.85],[12.37,-17.7],[11.98,-17.51],[12.0,-16.01],[11.51,-16.03],[11.68,-18.59],[12.21,-18.99],[12.82,-18.75],[12.52,-19.83],[13.09,-20.66],[13.85,-20.62],[13.4,-21.49],[14.39,-22.52],[14.71,-26.28],[15.09,-26.06],[14.68,-22.93],[15.17,-22.49],[14.21,-21.89],[14.98,-21.85],[15.31,-21.2],[15.5,-21.83],[16.28,-21.79],[16.44,-23.49],[16.1,-24.14],[17.61,-23.22],[19.47,-23.11],[20.06,-23.5],[21.14,-23.42],[21.35,-24.05],[23.09,-24.77],[23.03,-25.42],[23.64,-25.79],[23.81,-27.05],[23.31,-27.51],[23.42,-28.34],[24.26,-28.28],[24.93,-29.05],[25.11,-30.28],[24.27,-30.35],[23.71,-32.41],[24.79,-31.93],[25.48,-32.68],[26.16,-32.42],[27.08,-32.73],[27.06,-31.73],[27.81,-31.86],[28.6,-31.37],[29.23,-31.7],[26.35,-33.6],[24.11,-33.18],[22.17,-33.69],[19.47,-32.63],[19.26,-32.05],[18.63,-32.66],[18.54,-31.87],[18.1,-31.68],[18.19,-32.47],[17.68,-32.88],[17.82,-34.04],[19.77,-34.96],[20.57,-34.55],[22.17,-34.67],[22.23,-34.08],[24.46,-34.53],[26.53,-33.78],[27.28,-33.91],[28.87,-32.95],[28.91,-32.35],[30.37,-31.57],[30.41,-30.95],[31.08,-30.66],[31.42,-29.38],[32.85,-28.55],[32.7,-27.73],[33.18,-27.23],[32.93,-26.63],[33.34,-25.71],[35.54,-24.71],[35.93,-23.78],[35.6,-22.74],[36.05,-22.23],[35.9,-21.37],[35.29,-21.04],[35.23,-19.94],[36.93,-18.76],[36.94,-18.09],[37.65,-17.52],[38.68,-17.33],[38.26,-16.51],[39.55,-15.61],[40.16,-13.93],[40.58,-14.08],[40.74,-14.94],[39.98,-15.75],[40.4,-15.89],[41.16,-15.08],[40.66,-13.17],[41.08,-12.65],[40.75,-11.6],[41.17,-11.08],[40.02,-9.72],[39.78,-8.43],[40.2,-7.92],[39.47,-6.72],[40.13,-5.51],[39.82,-4.47],[40.39,-2.87],[41.9,-1.78],[41.9,-1.15],[43.68,0.16],[43.68,0.78],[44.89,1.76],[45.49,1.64],[46.96,2.84],[46.87,3.23],[45.41,2.04],[41.75,1.55],[40.33,0.74],[39.7,0.86],[38.74,0.1],[37.24,1.58],[37.1,2.4],[36.53,2.12],[36.52,1.49],[35.48,1.77],[35.27,2.99],[34.48,3.3],[33.79,4.45],[33.28,3.77],[32.82,4.33],[32.47,3.46],[31.89,3.17],[31.34,3.52],[31.21,4.32],[30.23,4.2],[29.63,4.93],[28.95,4.44],[28.32,4.56],[28.83,3.6],[27.77,2.21],[28.78,1.29],[28.12,-0.28],[27.43,-0.81],[27.99,-1.16],[27.2,-1.92],[27.82,-2.7],[27.37,-3.2],[28.87,-4.75],[28.99,-5.62],[29.34,-5.35],[29.16,-4.05],[29.95,-5.04]],[[25.24,-32.09],[25.58,-31.46],[25.81,-32.05],[25.24,-32.09]],[[31.68,2.1],[31.25,1.63],[30.85,1.78],[31.28,2.26],[31.68,2.1]]],[[[116.54,-35.42],[116.99,-34.92],[115.73,-34.99],[116.54,-35.42]]],[[[-13.43,28.77],[-13.17,29.14],[-13.4,29.52],[-13.9,29.53],[-14.92,28.02],[-16.14,28.9],[-17.14,28.38],[-17.9,29.25],[-18.39,28.73],[-18.13,28.35],[-18.37,27.72],[-17.86,27.22],[-17.63,28.11],[-17.13,27.62],[-16.15,28.14],[-15.66,27.64],[-14.19,27.65],[-13.43,28.77]]],[[[115.01,-33.85],[116.01,-33.42],[116.01,-31.87],[115.6,-32.0],[115.62,-33.21],[114.78,-33.47],[114.58,-33.98],[115.48,-34.61],[115.92,-34.47],[115.01,-33.85]]],[[[48.98,69.67],[47.62,69.28],[47.81,68.72],[50.28,68.72],[50.78,69.29],[48.98,69.67]]],[[[-23.73,14.56],[-22.89,15.08],[-23.38,15.74],[-25.09,15.14],[-24.82,14.59],[-23.73,14.56]]],[[[-14.59,64.16],[-12.72,65.27],[-13.27,65.78],[-14.11,65.86],[-14.59,66.59],[-18.74,66.51],[-19.81,66.09],[-21.61,66.16],[-22.42,66.65],[-23.49,65.97],[-22.58,65.95],[-22.21,65.59],[-24.01,65.63],[-24.51,65.28],[-23.73,64.57],[-22.46,64.43],[-23.0,63.86],[-21.33,63.82],[-20.63,63.34],[-18.23,63.24],[-16.48,63.6],[-15.84,64.14],[-14.59,64.16]],[[-16.6,65.23],[-16.7,65.0],[-15.52,64.81],[-16.64,64.19],[-21.15,64.51],[-19.0,65.82],[-16.6,65.23]]],[[[72.97,19.74],[72.77,20.07],[73.17,20.79],[72.74,21.2],[72.55,22.48],[71.85,21.32],[72.77,20.76],[72.37,20.05],[72.77,18.45],[73.17,18.47],[72.97,19.74]]],[[[44.13,8.75],[44.35,9.34],[43.32,9.81],[43.22,10.36],[42.87,9.77],[41.29,9.62],[39.92,8.53],[39.54,8.69],[39.93,9.11],[39.8,10.05],[40.26,10.48],[40.25,11.26],[39.78,11.61],[39.87,14.6],[39.49,15.18],[40.22,14.83],[40.23,13.63],[40.95,14.08],[40.47,14.45],[40.83,14.67],[41.3,13.91],[42.24,13.58],[42.35,12.99],[43.27,12.67],[43.25,11.89],[42.57,11.84],[43.24,11.51],[43.34,10.94],[43.9,10.8],[43.6,12.11],[44.4,12.75],[43.72,12.7],[43.28,13.45],[43.41,14.05],[42.95,14.42],[43.11,16.63],[42.64,17.42],[42.04,17.59],[41.19,16.93],[42.38,15.78],[41.9,14.95],[42.61,14.99],[42.59,13.8],[40.95,14.88],[40.46,16.48],[39.48,16.41],[39.1,17.0],[39.11,16.18],[38.75,15.95],[38.73,16.77],[38.35,16.95],[37.88,16.09],[38.75,15.54],[37.92,14.45],[38.43,13.68],[37.72,13.21],[37.33,13.79],[37.36,12.98],[36.55,11.9],[36.7,11.32],[35.54,10.4],[35.9,10.24],[36.6,10.71],[36.62,10.32],[35.92,9.85],[36.3,9.31],[34.82,10.32],[34.47,10.09],[34.56,8.53],[35.1,8.2],[35.36,6.06],[35.75,5.91],[35.76,6.51],[36.64,7.01],[36.53,5.6],[37.79,5.35],[37.08,5.26],[37.06,4.65],[37.78,4.74],[38.08,3.76],[39.1,3.48],[39.49,3.94],[38.88,4.67],[38.88,5.28],[39.66,4.97],[40.52,5.47],[40.44,5.86],[39.67,6.17],[40.06,6.6],[40.98,6.71],[41.44,8.5],[41.97,8.74],[43.77,8.34],[44.13,8.75]]],[[[7.4,1.91],[7.2,1.49],[7.75,1.39],[7.4,1.91]]],[[[43.35,16.64],[43.81,16.26],[43.65,14.46],[44.1,14.09],[44.08,13.31],[44.78,13.74],[45.34,13.58],[46.15,14.21],[45.73,14.97],[45.17,15.14],[45.07,15.72],[44.39,16.09],[44.88,16.91],[44.08,17.48],[44.11,18.7],[42.43,19.46],[41.94,20.69],[40.94,21.07],[40.81,21.7],[40.17,21.46],[40.17,21.04],[41.19,20.66],[41.31,20.04],[41.93,19.86],[41.93,19.03],[43.48,17.25],[43.35,16.64]]],[[[74.35,14.97],[72.97,18.11],[72.97,16.7],[73.95,15.19],[73.75,14.59],[74.34,14.49],[74.14,13.89],[74.73,13.06],[74.53,12.45],[74.93,12.46],[75.13,13.06],[74.35,14.97]]],[[[18.54,20.95],[18.81,21.66],[18.09,21.09],[16.93,21.33],[16.49,20.81],[17.56,20.33],[18.18,20.66],[18.54,19.61],[18.89,19.89],[18.54,20.95]]],[[[76.1,9.79],[77.09,7.94],[78.1,8.03],[78.53,9.0],[78.12,9.01],[77.7,8.29],[77.09,8.43],[76.5,9.54],[76.71,10.14],[76.11,10.27],[76.32,10.88],[75.73,11.97],[76.13,11.97],[76.72,10.87],[77.35,11.96],[76.33,12.09],[76.95,12.46],[76.55,13.43],[75.54,13.54],[75.34,13.18],[75.73,12.46],[74.92,11.73],[75.52,11.61],[75.51,10.64],[76.1,9.79]]],[[[7.23,25.74],[6.91,25.43],[7.69,24.73],[8.27,25.11],[9.63,24.76],[9.51,25.18],[7.23,25.74]]],[[[80.38,16.13],[79.94,15.64],[80.14,15.27],[81.01,15.76],[80.38,16.13]]],[[[51.48,72.14],[51.16,71.94],[51.57,71.75],[51.25,71.56],[51.73,70.98],[54.87,70.35],[56.56,70.49],[59.76,69.56],[61.83,69.82],[59.66,70.54],[57.92,70.43],[57.66,71.02],[56.62,71.26],[54.86,70.73],[54.49,71.32],[52.68,71.55],[52.22,72.13],[51.48,72.14]]],[[[47.78,13.72],[49.11,14.16],[48.15,14.31],[47.12,13.68],[47.1,13.3],[47.78,13.72]]],[[[48.51,14.9],[48.07,14.88],[48.49,14.51],[48.83,14.72],[48.51,14.9]]],[[[50.25,9.09],[49.88,7.96],[51.06,9.15],[50.7,9.84],[50.72,9.3],[50.25,9.09]]],[[[39.2,-17.23],[40.14,-16.61],[40.06,-16.18],[39.12,-16.8],[39.2,-17.23]]],[[[6.36,23.27],[7.12,23.47],[6.86,24.3],[5.85,24.03],[5.18,23.18],[5.5,22.6],[6.36,23.27]]],[[[37.97,-46.58],[37.56,-46.8],[38.06,-46.87],[37.97,-46.58]]],[[[16.39,-28.5],[16.35,-28.09],[15.66,-27.91],[15.7,-28.32],[16.39,-28.5]]],[[[103.65,36.16],[103.09,36.6],[102.76,36.3],[103.06,35.78],[103.65,36.16]]],[[[55.05,-4.59],[55.53,-5.01],[56.03,-4.63],[55.71,-3.58],[55.54,-4.22],[54.95,-4.24],[55.05,-4.59]]],[[[45.1,13.18],[44.63,12.77],[44.96,12.6],[46.11,13.44],[45.79,13.61],[45.1,13.18]]],[[[9.96,-2.28],[9.21,-1.17],[8.91,-1.81],[9.78,-3.12],[10.36,-3.25],[10.51,-3.85],[11.1,-3.99],[12.3,-6.15],[12.35,-5.09],[11.43,-3.74],[10.11,-2.88],[9.96,-2.28]]],[[[50.97,11.29],[50.87,10.21],[51.16,10.05],[51.59,10.43],[51.23,10.77],[51.45,12.04],[50.54,12.18],[50.97,11.29]]],[[[-26.24,37.98],[-25.24,36.63],[-24.69,36.67],[-25.12,38.06],[-26.24,37.98]]],[[[18.01,-30.89],[17.58,-30.7],[17.66,-31.5],[18.01,-30.89]]],[[[52.66,12.1],[52.29,12.44],[51.97,12.25],[52.34,11.9],[52.66,12.1]]],[[[44.66,10.3],[44.9,10.69],[43.89,10.42],[44.32,10.08],[44.66,10.3]]],[[[24.73,13.19],[24.67,13.6],[24.06,13.31],[24.19,12.49],[24.73,13.19]]],[[[-7.43,61.64],[-6.33,61.22],[-6.6,61.76],[-5.67,62.26],[-6.79,62.68],[-7.72,62.17],[-7.43,61.64]]],[[[12.62,-14.25],[12.24,-14.06],[12.29,-14.92],[12.62,-14.25]]],[[[15.05,-27.1],[15.51,-27.71],[15.39,-26.47],[15.05,-27.1]]],[[[20.26,-32.21],[20.76,-32.78],[21.16,-32.56],[20.94,-31.97],[20.26,-32.21]]],[[[47.43,-14.65],[46.88,-14.99],[46.97,-15.41],[47.83,-14.78],[47.74,-14.36],[47.43,-14.65]]],[[[48.14,10.93],[48.5,11.51],[47.65,11.45],[47.17,10.68],[46.55,11.0],[46.21,10.79],[47.25,10.13],[48.12,10.56],[48.14,10.93]]],[[[46.79,3.62],[47.16,3.46],[48.3,4.38],[48.28,4.97],[49.05,5.44],[49.63,7.2],[48.87,6.75],[48.69,5.59],[47.92,5.12],[47.93,4.54],[46.79,3.62]]],[[[13.24,-7.54],[12.67,-6.32],[12.33,-6.57],[12.86,-7.36],[12.79,-8.01],[13.3,-8.38],[12.85,-8.86],[13.04,-9.91],[13.68,-8.56],[13.24,-7.54]]],[[[45.99,10.78],[45.67,10.94],[45.22,10.53],[45.54,10.37],[45.99,10.78]]],[[[119.22,-34.72],[118.81,-34.52],[118.25,-34.84],[118.66,-35.04],[119.22,-34.72]]],[[[80.52,13.53],[80.55,14.52],[80.14,15.02],[79.89,13.91],[80.52,13.53]]],[[[6.82,0.27],[6.8,0.66],[6.18,0.18],[6.84,-0.11],[6.82,0.27]]],[[[53.53,12.85],[52.94,11.93],[53.57,12.32],[53.53,12.85]]],[[[-24.12,16.73],[-25.08,17.36],[-25.73,17.19],[-25.45,16.63],[-24.53,16.23],[-23.87,16.4],[-24.12,16.73]]],[[[13.7,-10.5],[13.42,-10.09],[13.49,-10.95],[14.11,-11.11],[13.7,-10.5]]],[[[68.04,68.87],[66.16,69.06],[68.39,68.22],[68.77,68.58],[68.04,68.87]]],[[[46.14,-9.7],[46.84,-9.56],[46.06,-9.28],[46.14,-9.7]]],[[[93.08,27.94],[93.56,27.92],[93.85,28.49],[93.37,28.51],[93.08,27.94]]],[[[48.54,-12.45],[48.56,-13.1],[47.72,-13.72],[47.81,-14.13],[48.95,-13.22],[48.93,-12.58],[49.46,-12.25],[49.14,-11.89],[48.54,-12.45]]],[[[43.22,-11.8],[43.54,-12.18],[43.37,-11.33],[43.22,-11.8]]],[[[-16.91,32.32],[-16.39,32.32],[-15.87,33.34],[-17.7,32.95],[-16.91,32.32]]],[[[53.23,-5.54],[53.31,-5.93],[53.89,-5.99],[53.34,-5.1],[53.23,-5.54]]],[[[77.74,10.49],[76.92,10.5],[76.91,9.53],[77.31,9.52],[77.74,10.49]]],[[[73.33,6.26],[73.14,7.33],[72.57,6.99],[72.95,6.27],[72.95,4.86],[73.71,5.3],[73.33,6.26]]],[[[77.98,12.82],[78.2,13.43],[76.96,13.43],[77.36,12.7],[77.98,12.82]]],[[[17.06,-29.71],[16.99,-30.31],[17.42,-30.5],[17.49,-29.9],[17.06,-29.71]]],[[[49.55,11.57],[49.53,11.2],[50.18,11.61],[49.55,11.57]]],[[[72.95,2.75],[73.32,1.8],[73.7,1.77],[73.14,3.09],[72.76,3.11],[72.95,2.75]]],[[[-22.32,16.4],[-22.81,17.06],[-23.26,17.03],[-22.94,15.77],[-22.5,15.8],[-22.32,16.4]]],[[[53.26,72.7],[53.63,72.89],[53.21,73.09],[52.07,72.91],[53.26,72.7]]],[[[47.93,-9.56],[47.47,-9.65],[47.71,-10.25],[47.93,-9.56]]],[[[-31.71,39.75],[-31.3,39.16],[-30.73,39.22],[-31.14,39.82],[-31.71,39.75]]],[[[-9.24,57.95],[-8.92,57.6],[-8.09,58.16],[-9.24,57.95]]],[[[79.83,34.89],[80.08,35.27],[79.81,35.38],[79.55,35.25],[79.83,34.89]]],[[[50.16,15.15],[49.79,14.57],[50.46,14.97],[50.16,15.15]]],[[[73.7,0.61],[72.94,0.67],[73.1,0.09],[73.51,0.05],[73.7,0.61]]],[[[13.15,-13.13],[13.47,-12.46],[12.77,-12.95],[13.15,-13.13]]],[[[53.85,12.15],[54.4,12.71],[53.93,12.87],[53.85,12.15]]],[[[-27.14,38.29],[-26.67,39.1],[-27.89,39.52],[-29.17,38.49],[-28.83,38.14],[-27.14,38.29]]],[[[-11.9,63.24],[-12.46,62.95],[-11.73,62.89],[-11.9,63.24]]],[[[40.83,13.47],[40.59,13.06],[41.3,13.51],[40.83,13.47]]]]}}]}