{"type":"FeatureCollection","features":[{"type":"Feature","properties":{},"geometry":{"type":"MultiPolygon","coordinates":[[[[42.42,29.39],[44.03,29.37],[45.32,28.49],[45.98,28.68],[47.1,28.01],[49.6,26.46],[49.67,25.84],[50.25,25.61],[50.65,24.79],[51.29,25.36],[51.21,24.56],[51.82,23.73],[52.32,24.11],[52.88,23.84],[54.88,24.34],[56.03,25.42],[56.53,24.73],[56.78,25.25],[56.37,25.73],[56.71,26.63],[57.63,25.44],[58.64,25.2],[60.44,25.34],[61.77,24.79],[64.16,25.34],[63.85,25.63],[62.33,25.24],[61.43,25.88],[59.93,25.47],[59.02,26.09],[58.41,25.84],[57.39,26.08],[56.89,27.38],[55.0,26.81],[54.4,27.13],[53.56,26.91],[52.5,27.7],[52.47,28.29],[51.43,28.48],[51.44,29.46],[50.45,30.02],[49.8,31.32],[51.56,30.23],[51.61,29.63],[52.23,29.32],[52.63,28.46],[53.12,28.96],[53.74,28.64],[54.34,28.92],[55.32,28.32],[56.37,28.7],[57.43,28.47],[57.71,29.01],[58.51,28.83],[58.18,29.73],[57.46,30.3],[57.92,30.4],[58.72,29.6],[59.17,29.71],[58.49,30.9],[58.79,31.47],[59.9,31.21],[59.67,30.42],[59.98,29.51],[61.17,28.19],[61.41,28.96],[60.79,29.32],[60.61,30.62],[60.25,30.92],[61.08,30.72],[61.03,30.1],[61.65,29.73],[62.79,30.07],[63.06,30.86],[64.16,30.57],[64.56,30.03],[65.32,30.03],[65.98,29.41],[66.21,28.49],[67.42,28.56],[67.63,27.64],[67.11,26.74],[68.03,25.83],[68.22,24.94],[67.32,24.81],[66.56,26.08],[66.21,25.56],[64.61,25.41],[64.48,25.05],[66.52,25.26],[66.43,24.68],[67.12,24.67],[67.33,23.8],[68.01,23.78],[68.88,22.9],[69.04,23.26],[68.46,23.85],[69.55,24.11],[69.38,24.99],[70.83,25.98],[72.29,25.69],[73.8,26.66],[74.99,26.66],[75.81,27.89],[77.07,27.18],[78.48,27.29],[78.93,27.78],[79.87,27.84],[80.32,28.56],[78.85,29.17],[78.3,30.08],[80.04,29.83],[80.27,30.2],[78.77,30.59],[77.65,32.2],[76.88,32.27],[76.3,32.96],[76.5,33.58],[75.71,33.65],[75.1,34.34],[75.29,34.98],[74.48,35.03],[75.24,35.47],[76.08,35.16],[75.74,35.76],[74.92,35.82],[74.29,36.52],[72.95,36.27],[73.27,35.92],[73.06,35.52],[72.45,35.96],[72.62,36.61],[72.32,36.71],[71.12,35.69],[70.3,35.72],[71.78,36.65],[72.2,37.46],[71.68,38.81],[71.9,39.21],[74.74,39.48],[75.73,38.41],[75.49,38.01],[75.84,37.4],[76.99,36.98],[77.8,37.15],[80.05,36.01],[81.66,36.07],[82.19,36.58],[83.53,36.48],[84.9,37.35],[85.7,37.22],[86.28,37.95],[87.94,38.41],[86.91,39.18],[87.23,39.8],[86.98,40.18],[87.6,40.91],[89.34,41.34],[88.56,42.0],[90.36,42.66],[89.85,43.19],[88.97,43.12],[87.85,43.67],[88.18,44.04],[89.36,43.98],[90.05,44.69],[89.2,45.12],[89.9,45.84],[89.68,46.48],[90.03,46.84],[89.12,47.02],[89.51,47.63],[89.24,48.03],[87.37,48.63],[87.17,50.04],[88.18,50.11],[89.13,49.68],[88.88,50.32],[89.26,50.68],[88.97,51.08],[89.33,51.18],[89.93,50.63],[91.25,50.53],[90.82,49.94],[89.82,49.89],[90.06,49.24],[91.0,49.04],[91.39,49.39],[91.13,49.79],[92.42,49.68],[93.16,50.11],[94.1,49.89],[95.48,50.23],[94.68,50.96],[95.96,50.8],[96.74,51.21],[96.52,51.61],[95.87,51.69],[96.95,51.93],[96.58,52.97],[94.93,53.3],[95.44,53.87],[93.48,54.58],[93.54,54.82],[99.01,54.99],[99.42,54.18],[100.92,53.57],[102.17,52.47],[103.14,52.41],[104.28,51.31],[105.66,51.52],[106.22,52.01],[107.14,51.93],[107.15,52.55],[108.44,53.11],[108.46,53.73],[108.94,53.99],[108.35,54.13],[107.87,53.88],[107.86,53.26],[105.05,52.27],[104.91,52.68],[105.38,52.95],[103.91,53.38],[103.71,54.42],[102.32,54.43],[102.25,55.07],[102.74,55.35],[102.39,56.16],[101.03,56.4],[101.12,55.76],[100.45,55.88],[99.83,57.09],[100.43,57.61],[99.4,57.89],[99.18,58.29],[98.77,58.23],[98.99,57.83],[98.49,57.54],[97.7,58.5],[95.42,58.79],[93.73,58.49],[89.66,60.42],[84.98,60.54],[84.14,61.05],[80.61,61.34],[79.68,61.82],[78.34,61.68],[75.94,62.47],[74.59,62.3],[72.05,63.01],[68.25,62.98],[65.56,63.56],[64.23,63.3],[60.55,63.68],[60.17,63.51],[60.32,63.29],[59.06,62.98],[54.72,63.47],[51.86,62.77],[50.63,63.0],[49.52,62.62],[47.52,62.64],[46.57,63.04],[43.82,62.79],[43.6,63.39],[42.85,63.56],[43.11,63.77],[42.1,64.13],[40.85,63.88],[40.63,63.27],[39.22,62.8],[37.33,62.68],[34.86,63.26],[32.42,62.82],[30.97,63.05],[30.54,63.58],[29.07,63.78],[28.06,63.44],[27.59,63.96],[26.43,63.98],[25.46,65.78],[22.8,66.1],[20.84,65.13],[21.0,64.57],[20.06,63.98],[17.44,63.38],[16.85,63.83],[15.7,63.14],[14.28,63.23],[14.32,62.77],[13.31,62.49],[13.36,62.02],[11.87,62.13],[9.62,61.63],[9.7,61.16],[8.56,61.13],[7.74,60.32],[6.81,60.64],[7.87,61.22],[6.54,61.52],[6.35,61.86],[7.24,62.08],[7.16,62.6],[7.66,62.79],[8.73,62.65],[11.67,63.5],[11.6,63.95],[12.18,64.18],[11.53,64.8],[13.2,66.31],[12.21,66.45],[11.42,65.18],[10.28,65.03],[10.29,64.37],[9.24,64.02],[8.13,64.17],[8.2,63.66],[4.76,62.49],[4.97,62.14],[4.11,61.2],[5.02,59.98],[4.46,59.58],[5.32,58.34],[7.45,57.72],[9.0,58.03],[9.81,58.86],[10.8,58.69],[11.16,58.06],[7.84,57.1],[8.02,56.79],[7.18,55.72],[3.23,54.87],[0.45,55.5],[-0.32,55.19],[-1.25,55.46],[-1.43,56.03],[-2.4,56.29],[-1.55,56.81],[-1.74,57.38],[-1.3,57.64],[-3.0,58.0],[-2.5,58.46],[-2.76,58.81],[-0.58,59.85],[-0.76,60.4],[-0.3,60.64],[-0.88,61.14],[-2.67,60.37],[-1.68,59.92],[-2.2,59.47],[-4.48,59.36],[-3.53,58.71],[-4.97,58.89],[-7.67,58.44],[-7.36,58.09],[-7.78,57.81],[-7.52,57.25],[-8.34,56.67],[-7.3,56.46],[-6.76,55.52],[-8.5,55.59],[-9.29,54.99],[-9.02,54.41],[-10.75,54.44],[-10.44,54.08],[-10.84,53.54],[-10.21,53.03],[-10.97,52.17],[-10.38,51.43],[-8.77,51.18],[-8.03,51.81],[-6.67,52.13],[-6.11,51.6],[-7.22,50.68],[-7.0,50.07],[-8.4,49.03],[-8.17,48.41],[-8.87,47.76],[-10.14,47.38],[-9.89,46.76],[-10.87,45.98],[-10.62,45.35],[-8.65,44.34],[-5.8,44.06],[-5.16,44.48],[-3.78,44.19],[-3.14,44.58],[-2.05,44.43],[-1.6,43.88],[-1.94,43.57],[-3.82,43.95],[-4.46,43.54],[-8.1,44.05],[-9.63,43.32],[-8.88,42.14],[-9.22,41.55],[-8.72,41.01],[-9.34,40.31],[-9.13,39.67],[-9.96,39.61],[-9.01,38.04],[-9.33,37.43],[-8.85,36.9],[-7.02,36.88],[-6.15,35.56],[-7.35,33.91],[-8.9,33.51],[-10.03,32.07],[-9.81,31.68],[-10.1,31.07],[-9.16,30.53],[-7.92,30.83],[-9.25,29.53],[-7.26,30.17],[-6.9,31.27],[-5.75,30.81],[-4.86,32.1],[-3.37,32.45],[-2.79,33.13],[-2.96,33.51],[-3.55,32.84],[-4.28,32.79],[-4.47,33.17],[-3.74,33.23],[-3.88,33.86],[-5.38,33.75],[-5.93,33.3],[-5.76,32.67],[-6.33,31.97],[-8.12,31.22],[-9.1,31.27],[-9.31,31.66],[-8.75,32.38],[-8.0,32.46],[-7.4,33.42],[-4.79,34.44],[-3.81,34.34],[-3.21,35.02],[-2.03,34.76],[-0.68,35.44],[0.74,35.26],[1.59,34.65],[2.23,35.3],[2.98,35.31],[3.19,35.16],[2.54,34.51],[2.7,34.11],[3.78,34.44],[4.78,35.41],[7.96,34.73],[9.47,35.33],[10.48,35.13],[10.61,34.71],[9.88,34.09],[10.22,33.49],[12.82,32.51],[13.49,32.88],[14.98,32.5],[15.2,31.64],[15.7,31.51],[15.36,32.8],[11.5,33.34],[11.45,34.01],[10.74,34.29],[11.7,34.74],[11.1,36.17],[11.56,36.72],[11.21,37.3],[10.69,37.41],[9.14,37.7],[8.11,37.0],[6.37,37.42],[5.73,37.02],[4.0,37.4],[2.56,36.73],[1.36,37.01],[0.29,36.65],[-0.07,36.09],[-1.6,35.81],[-2.2,35.15],[-3.09,35.75],[-3.66,35.32],[-4.88,35.57],[-5.04,36.2],[-3.97,36.59],[-2.26,36.26],[-1.33,37.25],[-0.58,37.26],[-0.21,37.82],[-0.38,38.21],[0.25,38.85],[-0.09,39.63],[1.23,40.9],[2.02,40.94],[2.42,41.49],[3.59,41.85],[3.25,42.6],[3.67,43.16],[6.35,42.85],[8.77,44.1],[10.12,43.78],[9.23,42.94],[8.37,42.94],[8.52,42.55],[8.05,42.01],[8.97,41.37],[7.67,40.83],[8.35,40.35],[7.67,39.09],[8.56,38.44],[9.31,39.06],[10.14,39.04],[9.86,39.85],[10.33,40.4],[9.76,41.99],[11.56,42.18],[11.7,41.78],[12.47,41.52],[12.74,40.71],[14.13,40.55],[14.48,39.97],[15.55,39.73],[15.57,39.08],[14.32,38.84],[14.35,38.19],[13.52,38.24],[13.17,38.83],[11.98,37.92],[12.33,37.33],[14.19,37.05],[14.53,36.45],[15.35,36.39],[15.61,37.77],[16.45,37.7],[16.96,38.23],[16.85,38.65],[17.58,39.0],[17.58,39.65],[16.83,39.96],[17.25,40.25],[17.79,40.12],[18.11,39.52],[19.4,39.72],[19.5,39.3],[20.24,38.97],[20.34,38.54],[19.8,38.02],[20.53,37.69],[21.24,36.68],[22.07,36.57],[22.35,35.95],[23.18,35.83],[23.34,34.96],[24.04,34.6],[24.77,34.9],[25.77,34.57],[26.75,35.33],[27.55,35.18],[27.62,35.85],[28.42,35.69],[28.49,36.36],[30.29,35.83],[31.12,36.75],[32.1,36.36],[32.32,35.72],[33.07,35.97],[33.11,35.54],[31.79,34.82],[33.21,34.23],[35.08,35.82],[34.6,36.02],[33.72,35.56],[33.68,35.99],[34.57,36.45],[35.52,36.04],[35.62,34.31],[34.64,33.19],[34.83,32.54],[33.88,31.41],[32.71,31.35],[31.61,31.94],[30.42,31.86],[29.16,31.1],[27.56,31.85],[25.46,31.63],[25.21,32.27],[24.23,32.61],[23.51,32.3],[23.24,32.93],[21.75,33.41],[19.83,32.23],[20.01,31.35],[19.12,30.53],[18.83,30.48],[18.54,31.11],[16.57,31.67],[15.9,31.32],[16.0,30.89],[16.68,31.24],[19.22,30.09],[20.4,30.96],[20.32,32.08],[21.84,32.97],[22.83,32.66],[23.1,32.02],[24.08,31.69],[24.79,32.0],[25.05,31.36],[26.24,31.49],[28.15,30.78],[28.21,30.34],[27.44,30.49],[26.62,29.96],[26.8,28.63],[27.91,29.19],[27.97,29.87],[29.61,29.8],[30.02,27.38],[31.2,27.03],[31.41,26.38],[33.16,25.63],[33.41,26.08],[31.81,26.63],[31.16,27.47],[31.69,27.96],[33.06,26.94],[33.75,27.21],[33.81,26.33],[34.42,25.49],[34.8,26.17],[34.21,26.58],[34.28,27.68],[35.86,27.1],[35.91,26.23],[36.93,24.75],[37.33,24.99],[37.3,25.86],[36.86,26.49],[37.55,26.3],[38.76,26.99],[38.88,27.64],[39.56,27.88],[39.69,28.53],[40.79,28.97],[40.92,29.61],[42.42,29.39]],[[19.23,57.43],[19.09,57.76],[19.65,57.99],[19.24,58.46],[18.27,58.19],[18.27,57.68],[16.9,57.86],[17.58,58.28],[17.43,58.61],[18.54,58.56],[19.25,58.97],[19.11,59.29],[20.25,59.72],[22.37,59.4],[21.19,58.47],[21.43,57.81],[19.23,57.43]],[[26.34,37.93],[25.9,37.67],[24.67,38.2],[25.11,38.47],[26.34,37.93]],[[85.4,42.48],[84.52,42.62],[85.44,43.24],[83.66,43.77],[83.97,44.15],[85.16,43.62],[86.06,43.73],[86.62,43.21],[87.8,43.17],[87.15,42.44],[85.4,42.48]],[[48.69,29.18],[48.87,29.79],[49.51,29.96],[49.94,29.11],[50.91,28.58],[50.96,27.99],[51.67,27.47],[52.34,27.54],[54.52,25.75],[55.19,25.8],[55.2,25.22],[54.55,24.6],[52.0,24.32],[51.58,24.74],[51.75,26.31],[50.11,26.84],[50.08,27.87],[49.45,27.7],[48.74,28.15],[48.3,29.0],[48.69,29.18]],[[24.97,36.48],[25.24,35.84],[26.18,35.94],[25.32,35.41],[23.8,35.9],[23.52,36.53],[23.95,36.8],[24.97,36.48]],[[39.33,41.11],[38.07,41.14],[36.43,41.99],[35.46,41.99],[36.08,42.4],[37.08,41.98],[40.74,42.09],[41.21,41.87],[41.21,41.46],[39.33,41.11]],[[-5.26,54.35],[-4.7,53.83],[-5.48,53.25],[-6.01,53.99],[-5.26,54.35]],[[19.04,62.96],[19.92,63.55],[20.62,63.5],[20.09,62.99],[21.22,61.25],[19.27,60.45],[17.38,61.07],[18.1,61.46],[17.8,62.07],[19.04,62.96]],[[30.2,41.85],[31.05,41.68],[31.1,41.26],[28.74,41.56],[27.88,42.77],[28.36,43.01],[29.42,42.65],[29.48,42.23],[30.2,41.85]],[[76.91,40.91],[77.69,42.1],[79.19,42.04],[78.93,41.39],[77.8,40.83],[76.91,40.91]],[[14.43,43.4],[12.95,44.17],[13.8,44.76],[15.42,43.58],[15.44,42.95],[16.0,42.83],[16.12,42.43],[14.81,42.19],[14.43,43.4]],[[10.9,56.98],[11.68,57.11],[10.69,56.58],[10.51,56.91],[10.9,56.98]],[[80.96,42.6],[81.85,42.49],[81.56,42.1],[80.67,42.21],[80.1,41.69],[79.48,42.18],[79.76,42.57],[80.96,42.6]],[[17.56,40.95],[17.45,41.36],[16.36,41.61],[16.34,42.25],[17.11,42.59],[18.98,42.03],[19.19,40.55],[17.56,40.95]],[[21.47,63.88],[22.05,64.39],[21.57,65.08],[24.89,65.49],[21.7,63.53],[21.0,63.58],[21.47,63.88]],[[25.16,39.12],[25.48,39.15],[25.56,38.73],[24.51,39.06],[25.16,39.12]],[[95.64,52.09],[94.98,52.17],[95.05,52.42],[95.41,52.5],[95.64,52.09]],[[24.56,39.71],[24.48,40.14],[25.0,39.97],[24.56,39.71]],[[10.62,64.26],[11.4,64.22],[10.82,63.99],[10.62,64.26]],[[83.04,43.01],[83.34,42.88],[83.04,42.5],[82.74,42.88],[83.04,43.01]],[[25.86,39.84],[26.06,39.64],[25.61,39.38],[25.53,39.81],[25.86,39.84]],[[92.05,51.22],[92.41,51.31],[92.66,50.91],[92.0,50.97],[92.05,51.22]]],[[[45.67,10.94],[45.32,10.35],[45.99,10.78],[45.67,10.94]]],[[[-13.73,26.9],[-14.21,26.9],[-15.2,25.4],[-14.97,24.78],[-15.68,24.65],[-17.32,22.03],[-17.08,21.43],[-17.54,20.69],[-16.85,20.59],[-16.85,19.64],[-16.17,18.83],[-16.17,20.26],[-16.85,21.08],[-16.86,22.05],[-16.16,22.19],[-16.4,22.79],[-15.45,24.28],[-14.5,24.79],[-14.72,25.4],[-13.98,26.52],[-13.26,26.65],[-12.48,28.01],[-11.52,27.99],[-10.99,28.73],[-10.26,28.83],[-9.46,29.92],[-9.65,30.55],[-10.14,30.57],[-9.94,29.94],[-10.48,29.21],[-11.21,29.11],[-11.74,28.37],[-12.46,28.51],[-13.45,28.02],[-13.73,26.9]]],[[[-16.39,32.32],[-15.87,33.09],[-16.13,33.47],[-16.65,32.96],[-17.7,32.95],[-16.39,32.32]]],[[[36.64,21.92],[36.92,21.51],[37.03,22.16],[36.46,22.99],[35.64,23.38],[36.16,23.84],[34.85,25.3],[34.75,24.63],[35.32,24.23],[35.25,23.14],[35.83,22.3],[36.64,21.92]]],[[[-13.44,28.52],[-13.17,29.14],[-13.65,29.65],[-14.92,28.02],[-16.14,28.9],[-17.14,28.38],[-17.9,29.25],[-18.39,28.73],[-18.13,28.35],[-18.37,27.72],[-17.86,27.22],[-17.63,28.11],[-17.13,27.62],[-16.15,28.14],[-15.66,27.64],[-14.19,27.65],[-13.44,28.52]]],[[[75.73,12.46],[75.32,11.97],[75.72,11.01],[76.12,11.0],[75.72,11.73],[75.93,12.09],[76.72,10.87],[77.35,11.96],[76.74,12.09],[76.75,13.06],[77.16,13.06],[77.56,12.33],[78.4,13.06],[78.0,13.55],[75.54,13.54],[75.34,13.18],[75.73,12.46]]],[[[40.11,-9.49],[39.37,-8.28],[40.2,-7.92],[39.63,-7.57],[39.47,-6.72],[39.88,-6.21],[39.32,-5.86],[40.13,-5.51],[39.49,-4.74],[39.82,-3.82],[40.39,-3.51],[40.39,-2.87],[41.9,-1.78],[41.9,-1.15],[43.38,-0.09],[43.37,0.53],[45.19,2.01],[41.75,1.55],[40.33,0.74],[39.7,0.86],[38.74,0.1],[38.04,1.27],[37.24,1.58],[37.1,2.4],[36.53,2.12],[36.52,1.49],[35.88,1.61],[35.25,2.37],[35.27,2.99],[34.48,3.3],[34.34,4.11],[33.79,4.45],[33.53,3.8],[33.06,4.36],[32.49,4.08],[32.53,3.05],[31.89,3.17],[31.93,2.14],[30.57,1.11],[30.27,1.49],[31.28,2.26],[31.03,3.89],[30.3,3.79],[30.27,3.17],[29.28,3.04],[29.25,2.41],[28.57,1.9],[29.49,0.75],[28.5,0.62],[28.3,-1.55],[27.2,-1.92],[28.16,-2.44],[28.28,-3.29],[27.84,-3.79],[28.87,-4.75],[28.84,-5.42],[29.25,-5.58],[29.06,-4.28],[29.41,-4.01],[29.54,-4.88],[30.17,-5.67],[29.72,-6.18],[30.71,-6.71],[30.91,-8.02],[30.55,-8.3],[30.27,-7.22],[28.7,-6.32],[28.95,-8.07],[28.5,-8.58],[29.07,-8.95],[28.62,-9.46],[28.74,-10.34],[28.32,-10.17],[28.24,-8.62],[27.41,-8.28],[26.34,-9.09],[25.93,-10.04],[24.85,-10.85],[24.18,-10.71],[24.13,-11.38],[23.14,-11.95],[22.78,-13.33],[22.15,-13.62],[21.59,-13.24],[20.96,-13.52],[20.76,-12.88],[18.73,-11.98],[17.39,-12.77],[17.13,-11.26],[16.52,-11.54],[16.34,-10.9],[15.7,-10.74],[15.67,-11.83],[14.67,-11.92],[14.67,-13.45],[14.07,-13.71],[13.99,-14.37],[13.28,-14.85],[13.84,-15.68],[13.38,-16.14],[13.55,-16.78],[14.59,-17.14],[14.52,-16.28],[14.88,-16.04],[14.99,-17.33],[15.53,-17.73],[14.84,-18.64],[14.23,-17.38],[13.61,-17.63],[12.83,-17.25],[12.75,-17.89],[13.51,-17.85],[13.32,-18.72],[14.51,-19.31],[14.18,-19.97],[14.8,-19.72],[14.98,-20.36],[15.76,-20.31],[15.83,-21.17],[15.35,-21.62],[16.13,-21.58],[16.73,-22.41],[16.25,-22.86],[16.44,-23.49],[16.1,-24.14],[17.61,-23.22],[18.67,-23.16],[19.95,-23.72],[20.63,-24.96],[19.8,-26.07],[19.9,-26.91],[21.21,-27.46],[21.42,-28.07],[20.65,-28.53],[20.55,-27.7],[19.68,-27.34],[19.61,-27.96],[18.95,-28.2],[18.09,-27.83],[17.84,-26.8],[17.19,-27.03],[17.12,-27.66],[16.0,-27.28],[15.92,-26.45],[14.94,-25.86],[14.76,-22.29],[13.48,-20.85],[13.4,-21.49],[14.39,-22.52],[14.6,-26.49],[15.16,-26.89],[15.13,-27.92],[15.97,-28.31],[16.59,-29.11],[16.51,-29.72],[17.1,-30.11],[17.03,-30.71],[18.1,-31.68],[18.19,-32.47],[17.68,-32.88],[17.98,-34.23],[19.15,-34.59],[19.37,-35.16],[20.57,-34.55],[22.17,-34.67],[22.23,-34.08],[24.46,-34.53],[25.27,-34.08],[26.88,-34.14],[28.87,-32.95],[28.91,-32.35],[30.37,-31.57],[30.41,-30.95],[31.08,-30.66],[31.42,-29.38],[32.85,-28.55],[32.7,-27.73],[33.18,-27.23],[32.93,-26.63],[33.34,-25.71],[35.54,-24.71],[35.93,-23.78],[35.6,-22.74],[36.05,-22.23],[35.9,-21.37],[35.29,-21.04],[35.23,-19.94],[36.93,-18.76],[36.94,-18.09],[37.65,-17.52],[39.45,-17.19],[40.14,-16.61],[40.14,-15.94],[41.07,-15.32],[40.58,-12.74],[41.17,-11.08],[40.59,-10.73],[40.6,-10.07],[40.11,-9.49]],[[26.77,-10.38],[26.35,-10.21],[26.75,-9.26],[27.37,-8.96],[27.61,-10.72],[26.77,-10.38]],[[19.92,-29.39],[19.37,-29.42],[20.14,-28.97],[19.92,-29.39]]],[[[37.4,65.43],[35.39,65.27],[35.01,65.81],[35.21,66.03],[34.4,66.14],[34.59,64.42],[35.36,64.29],[35.72,63.73],[37.64,63.88],[37.96,63.31],[39.18,63.19],[39.37,63.8],[38.34,64.13],[38.57,64.34],[38.3,64.52],[37.03,64.62],[36.75,64.8],[36.96,65.01],[39.8,64.61],[40.8,65.05],[39.74,65.39],[39.98,65.6],[44.86,66.56],[42.37,66.68],[39.18,65.74],[38.99,65.15],[37.4,65.43]]],[[[47.12,-25.24],[47.35,-24.55],[46.7,-25.14],[47.12,-25.24]]],[[[35.51,5.88],[35.76,6.51],[36.64,7.01],[36.53,5.6],[37.08,5.26],[37.06,4.65],[37.85,4.34],[38.08,3.76],[39.49,3.32],[39.81,4.18],[40.43,4.05],[40.43,4.66],[41.05,5.13],[40.06,6.01],[40.06,6.6],[40.75,6.09],[41.52,8.12],[42.35,8.59],[44.14,8.19],[44.79,8.82],[44.35,9.34],[45.63,9.82],[44.99,10.14],[44.31,9.71],[43.0,10.34],[41.86,9.48],[40.61,9.56],[40.54,8.98],[40.0,8.73],[39.81,9.67],[40.26,10.1],[40.25,11.26],[39.78,11.61],[39.87,14.6],[39.37,15.38],[38.75,15.54],[37.94,14.04],[38.32,13.47],[37.72,13.21],[37.33,13.79],[37.36,12.98],[36.55,11.9],[36.7,11.32],[35.54,10.4],[36.3,9.31],[34.82,10.32],[34.47,10.09],[34.56,8.53],[35.1,8.2],[35.51,5.88]]],[[[17.29,-25.36],[17.25,-24.94],[16.49,-25.39],[17.06,-25.79],[17.29,-25.36]]],[[[47.19,-14.7],[46.57,-15.28],[46.66,-15.7],[47.83,-14.78],[47.74,-14.36],[47.19,-14.7]]],[[[115.48,-34.61],[115.92,-34.47],[115.01,-33.85],[116.01,-33.42],[116.01,-31.87],[115.6,-32.0],[115.62,-33.21],[114.62,-33.63],[114.7,-34.17],[115.48,-34.61]]],[[[44.53,16.7],[43.73,17.67],[43.74,18.48],[42.42,19.05],[42.29,18.42],[43.49,17.66],[43.35,17.04],[43.82,16.66],[43.67,15.25],[44.12,14.88],[43.65,14.46],[44.09,13.7],[44.67,13.93],[45.34,13.58],[46.15,14.21],[44.83,15.32],[44.73,15.91],[44.16,16.08],[44.17,16.48],[44.87,16.51],[44.53,16.7]]],[[[11.18,6.56],[11.57,6.43],[12.51,7.37],[11.14,7.14],[11.18,6.56]]],[[[57.52,23.92],[56.86,24.46],[56.45,24.37],[57.18,23.62],[58.01,23.8],[57.52,23.92]]],[[[55.92,-4.28],[55.6,-4.01],[55.53,-5.01],[56.03,-4.63],[55.92,-4.28]]],[[[76.91,9.77],[77.31,9.52],[77.74,10.49],[76.92,10.5],[76.91,9.77]]],[[[74.35,15.2],[73.76,16.26],[73.36,16.24],[74.34,14.25],[74.74,14.5],[74.35,15.2]]],[[[-15.95,18.25],[-16.4,18.47],[-16.18,17.42],[-15.74,17.9],[-15.95,18.25]]],[[[2.58,38.94],[4.57,39.54],[4.47,40.17],[3.73,40.38],[2.58,40.03],[2.19,39.47],[2.58,38.94]]],[[[92.07,42.54],[92.93,42.6],[92.71,42.99],[90.7,43.02],[90.93,42.62],[92.07,42.54]]],[[[-13.72,58.04],[-14.11,57.73],[-13.37,57.69],[-13.72,58.04]]],[[[12.25,35.53],[12.75,35.42],[13.23,35.96],[12.72,36.08],[12.25,35.53]]],[[[-15.79,11.18],[-14.58,10.6],[-14.76,11.76],[-14.33,12.43],[-13.09,12.92],[-12.64,13.81],[-13.26,13.9],[-13.45,14.44],[-14.28,14.86],[-15.34,14.71],[-16.18,15.13],[-16.4,15.68],[-15.75,15.83],[-15.53,16.41],[-16.18,16.5],[-16.18,17.19],[-16.83,16.35],[-16.61,15.79],[-17.68,14.72],[-16.82,13.64],[-17.02,12.41],[-16.4,12.33],[-16.4,11.47],[-15.79,11.18]]],[[[81.51,28.96],[81.99,29.22],[81.5,29.66],[81.26,29.54],[81.51,28.96]]],[[[59.92,22.19],[59.61,22.46],[59.41,21.76],[59.92,22.19]]],[[[-27.89,39.52],[-28.95,38.9],[-29.13,38.24],[-26.87,38.44],[-26.67,39.1],[-27.89,39.52]]],[[[13.31,-20.22],[13.02,-19.81],[12.94,-20.45],[13.34,-20.65],[13.31,-20.22]]],[[[10.53,5.1],[10.33,5.83],[10.89,6.31],[10.79,6.69],[9.94,5.96],[10.15,5.23],[10.53,5.1]]],[[[43.11,-21.5],[43.03,-23.03],[43.97,-23.68],[43.97,-23.04],[43.28,-22.33],[44.28,-20.81],[43.86,-20.69],[43.11,-21.5]]],[[[47.46,10.15],[47.77,9.99],[48.21,10.39],[48.17,11.3],[47.81,10.72],[47.53,11.26],[47.17,10.68],[46.64,10.82],[46.92,9.92],[47.46,10.15]]],[[[-17.27,63.65],[-14.59,64.16],[-13.44,64.76],[-13.66,65.12],[-18.51,63.6],[-20.13,63.67],[-22.01,64.53],[-23.0,63.86],[-18.23,63.24],[-17.27,63.65]]],[[[-9.27,57.73],[-8.54,57.67],[-8.09,58.16],[-8.82,58.23],[-9.27,57.73]]],[[[48.08,4.36],[47.72,4.51],[46.79,3.62],[47.16,3.46],[48.08,4.36]]],[[[49.37,-11.84],[48.54,-12.45],[48.56,-13.1],[47.65,-13.95],[48.04,-14.08],[48.65,-13.51],[48.53,-14.62],[49.08,-14.92],[49.68,-14.35],[48.86,-12.81],[49.46,-12.25],[49.37,-11.84]]],[[[-23.73,14.56],[-22.89,15.08],[-23.38,15.74],[-25.09,15.14],[-24.82,14.59],[-23.73,14.56]]],[[[39.4,21.43],[39.38,22.71],[38.57,23.53],[38.46,22.88],[38.99,22.48],[38.89,20.98],[39.67,20.59],[39.4,21.43]]],[[[-24.53,16.23],[-23.87,16.4],[-24.14,16.97],[-25.08,17.36],[-25.73,17.19],[-25.45,16.63],[-24.53,16.23]]],[[[1.91,33.86],[2.22,34.19],[1.75,34.26],[1.38,33.69],[1.91,33.86]]],[[[46.38,-17.94],[45.57,-18.34],[46.65,-19.18],[46.02,-20.41],[46.78,-21.51],[46.38,-22.04],[46.96,-22.32],[47.42,-20.93],[48.05,-20.34],[47.8,-19.76],[48.18,-19.23],[48.0,-18.42],[48.71,-18.24],[48.06,-17.54],[46.38,-17.94]]],[[[37.92,18.81],[37.4,19.19],[37.46,21.11],[37.06,21.3],[37.02,18.96],[37.93,18.39],[38.31,18.62],[37.92,18.81]]],[[[46.77,-9.79],[46.68,-9.37],[46.06,-9.28],[46.14,-9.7],[46.77,-9.79]]],[[[69.88,22.38],[70.52,22.57],[70.64,23.13],[69.32,22.96],[69.88,22.38]]],[[[-14.35,65.41],[-13.75,65.71],[-14.59,65.78],[-14.35,65.41]]],[[[43.13,-11.38],[43.14,-12.04],[43.54,-12.18],[43.54,-11.52],[43.13,-11.38]]],[[[132.13,42.93],[132.35,43.28],[131.65,43.35],[131.24,42.66],[132.13,42.93]]],[[[-22.94,15.77],[-22.5,15.8],[-22.32,16.4],[-23.04,17.17],[-22.94,15.77]]],[[[40.58,15.06],[40.1,15.02],[40.59,14.66],[40.95,14.88],[40.58,15.06]]],[[[39.1,16.59],[39.12,15.77],[39.86,15.41],[40.94,15.69],[40.09,16.25],[39.48,16.0],[39.34,17.02],[39.1,16.59]]],[[[50.15,8.17],[50.41,8.37],[50.06,8.53],[49.73,8.13],[50.15,8.17]]],[[[116.99,-34.92],[116.56,-35.06],[116.97,-35.27],[116.99,-34.92]]],[[[70.32,21.24],[70.01,21.74],[69.57,21.68],[70.16,20.9],[70.59,20.95],[70.32,21.24]]],[[[-24.95,36.52],[-24.69,36.67],[-25.03,37.29],[-24.79,37.69],[-25.12,38.06],[-26.24,37.98],[-24.95,36.52]]],[[[33.88,67.05],[32.33,66.9],[33.16,66.79],[33.59,66.26],[35.86,66.66],[33.88,67.05]]],[[[41.56,18.39],[40.94,19.4],[40.81,18.77],[41.31,17.96],[41.56,18.39]]],[[[1.24,38.73],[1.41,38.35],[2.02,38.76],[1.91,39.38],[1.4,39.44],[1.07,39.11],[1.24,38.73]]],[[[13.82,7.4],[13.52,7.15],[14.08,6.85],[14.68,7.34],[13.82,7.4]]],[[[40.7,66.98],[40.44,66.78],[40.72,66.6],[41.54,66.83],[40.7,66.98]]],[[[76.69,8.68],[76.89,8.31],[77.1,8.67],[76.31,9.91],[76.1,9.55],[76.69,8.68]]],[[[14.77,6.96],[14.86,6.59],[15.49,6.49],[15.4,6.87],[14.77,6.96]]],[[[38.04,66.44],[36.46,66.32],[38.9,65.92],[39.14,66.13],[38.86,66.3],[38.04,66.44]]],[[[63.41,29.7],[63.81,29.17],[64.75,29.33],[64.09,29.94],[63.41,29.7]]],[[[-31.09,39.57],[-31.71,39.75],[-30.99,39.07],[-30.78,39.48],[-31.09,39.57]]],[[[37.61,24.57],[37.36,24.12],[38.44,23.74],[38.43,24.17],[37.61,24.57]]],[[[58.43,23.89],[58.33,23.53],[58.97,23.0],[59.39,23.08],[58.43,23.89]]],[[[45.27,-25.28],[44.42,-25.07],[44.15,-24.49],[43.47,-24.44],[45.02,-25.97],[46.37,-25.43],[46.28,-25.04],[45.27,-25.28]]],[[[48.0,4.74],[48.77,5.21],[48.69,5.59],[47.92,5.12],[48.0,4.74]]],[[[12.01,-17.93],[12.09,-17.29],[11.7,-17.09],[11.65,-18.16],[12.04,-18.36],[12.01,-17.93]]],[[[-5.72,62.07],[-6.37,62.74],[-7.76,61.97],[-6.74,61.16],[-6.28,61.42],[-6.6,61.76],[-5.72,62.07]]],[[[50.25,-15.28],[50.34,-15.69],[50.64,-15.4],[49.93,-12.78],[49.64,-13.07],[50.25,-15.28]]],[[[43.91,-17.18],[43.92,-17.83],[44.33,-17.96],[44.33,-17.31],[43.91,-17.18]]],[[[-0.91,34.25],[-0.82,34.73],[-1.55,34.7],[-0.91,34.25]]],[[[73.33,6.26],[73.14,7.09],[72.76,6.63],[72.76,5.69],[73.52,5.66],[73.33,6.26]]],[[[75.13,13.06],[74.54,13.41],[74.93,12.7],[75.13,13.06]]],[[[44.32,10.08],[44.56,10.48],[44.01,10.62],[44.32,10.08]]],[[[14.13,36.15],[14.04,35.91],[14.56,35.79],[14.44,36.21],[14.13,36.15]]],[[[46.32,-22.91],[46.06,-22.33],[45.73,-22.62],[46.17,-24.01],[46.82,-23.42],[46.32,-22.91]]],[[[121.97,40.75],[122.03,41.04],[121.59,40.94],[121.97,40.75]]],[[[45.13,-16.25],[44.8,-15.89],[44.4,-16.41],[45.13,-16.25]]],[[[46.87,3.23],[45.48,2.25],[45.56,1.85],[46.96,2.84],[46.87,3.23]]],[[[-9.66,-40.03],[-10.2,-40.2],[-10.07,-40.43],[-9.74,-40.47],[-9.66,-40.03]]],[[[38.97,17.2],[39.08,17.83],[38.7,18.02],[38.59,17.38],[38.97,17.2]]],[[[39.8,20.39],[39.8,19.97],[40.81,19.6],[40.81,20.02],[39.8,20.39]]],[[[49.65,-18.01],[49.63,-17.37],[49.23,-17.25],[49.25,-17.89],[49.65,-18.01]]],[[[12.25,37.09],[11.94,37.02],[12.07,36.61],[12.46,36.91],[12.25,37.09]]]]}}]}