{"type":"FeatureCollection","features":[{"type":"Feature","properties":{},"geometry":{"type":"MultiPolygon","coordinates":[[[[143.88,-38.86],[145.71,-38.37],[144.73,-37.7],[143.33,-38.77],[143.88,-38.86]]],[[[155.34,50.47],[154.89,50.15],[156.16,50.01],[158.86,52.46],[157.25,51.94],[156.78,52.47],[157.35,53.0],[156.22,54.64],[157.28,56.51],[156.7,57.04],[155.78,56.65],[155.26,55.06],[156.59,52.01],[155.34,50.47]]],[[[140.95,-4.28],[147.68,-6.12],[146.74,-6.48],[146.98,-7.51],[149.55,-9.83],[147.56,-10.16],[150.79,-11.07],[151.56,-10.33],[151.33,-9.34],[148.85,-9.01],[147.31,-6.94],[148.38,-5.86],[150.37,-6.65],[152.24,-5.7],[152.42,-4.74],[153.18,-5.1],[153.5,-3.42],[152.65,-3.53],[152.65,-2.41],[150.91,-2.62],[149.24,-1.2],[149.62,-2.66],[152.01,-3.55],[151.56,-4.85],[146.31,-5.28],[146.44,-4.55],[144.53,-2.96],[142.28,-3.1],[138.13,-1.1],[137.17,-1.46],[136.23,-0.39],[134.55,-1.0],[131.34,-0.06],[131.55,1.19],[130.88,1.18],[130.71,0.18],[129.18,0.31],[129.11,2.64],[128.49,2.87],[127.28,2.17],[126.93,-1.46],[128.13,-2.18],[129.34,-1.51],[130.23,-2.81],[128.09,-2.43],[125.75,-3.51],[126.94,-4.23],[127.7,-3.5],[128.05,-4.06],[130.11,-3.55],[132.52,-6.39],[133.36,-5.4],[131.86,-5.01],[132.18,-4.43],[130.66,-2.89],[131.49,-1.89],[131.52,-3.04],[132.58,-3.36],[133.05,-4.59],[133.84,-3.84],[137.83,-5.42],[138.44,-7.04],[137.47,-8.74],[139.57,-8.22],[140.5,-9.24],[142.65,-9.57],[141.76,-10.78],[142.81,-11.06],[142.64,-12.0],[143.69,-13.34],[142.9,-10.59],[143.51,-9.7],[142.89,-9.49],[144.06,-7.94],[146.0,-8.11],[146.43,-9.28],[147.46,-9.54],[145.28,-7.25],[142.9,-7.01],[143.63,-7.87],[143.45,-8.83],[142.5,-9.18],[140.78,-8.91],[140.28,-7.96],[138.27,-8.01],[139.01,-6.37],[138.42,-5.9],[141.76,-7.2],[142.32,-6.54],[141.55,-5.91],[141.87,-5.33],[140.29,-5.45],[139.79,-4.47],[137.96,-4.68],[136.35,-3.63],[137.74,-3.36],[139.84,-4.23],[140.64,-3.47],[140.95,-4.28]],[[129.45,-0.76],[128.95,-1.18],[129.07,-0.44],[128.05,0.12],[129.14,0.06],[129.45,-0.76]],[[135.88,-2.4],[135.32,-3.07],[134.86,-1.83],[135.97,-1.9],[135.88,-2.4]]],[[[93.36,54.1],[92.05,54.72],[92.99,55.62],[96.1,54.9],[98.8,55.4],[99.42,54.18],[100.74,53.97],[104.28,51.31],[107.14,51.93],[105.89,51.34],[104.42,48.79],[106.17,48.66],[106.37,49.73],[108.86,52.13],[107.15,52.55],[108.54,52.71],[109.4,54.58],[105.05,52.27],[105.38,52.95],[103.91,53.38],[103.44,54.59],[101.02,54.67],[102.63,55.12],[102.11,56.33],[100.26,55.42],[100.54,56.11],[99.12,57.2],[95.8,57.53],[94.92,58.49],[93.25,58.18],[91.49,59.19],[79.85,59.65],[75.67,59.07],[66.31,59.98],[60.53,59.21],[59.43,57.37],[56.13,59.19],[53.42,58.1],[49.72,58.9],[38.5,58.53],[36.9,59.44],[34.08,58.8],[33.18,59.12],[34.4,60.24],[31.19,61.69],[27.77,61.03],[22.41,61.69],[21.0,62.59],[20.56,62.3],[21.22,61.25],[18.55,60.55],[17.38,61.07],[18.1,61.46],[17.66,61.89],[19.61,63.68],[17.06,62.15],[16.49,61.46],[17.1,60.72],[14.89,59.3],[13.31,59.75],[12.01,58.89],[10.65,59.67],[7.26,58.03],[6.14,58.59],[5.58,59.66],[6.15,60.06],[4.62,60.69],[5.05,58.51],[6.49,57.87],[9.0,58.03],[9.81,58.86],[11.16,58.06],[7.84,57.1],[7.37,55.39],[8.2,55.02],[1.78,53.48],[0.28,53.87],[-2.4,56.29],[-1.3,57.64],[-3.0,58.0],[-2.76,58.81],[-0.3,60.64],[-1.75,60.86],[-1.75,59.72],[-3.31,59.52],[-3.53,58.71],[-7.67,58.44],[-7.93,56.96],[-6.76,55.52],[-8.5,55.59],[-9.29,54.99],[-9.02,54.41],[-10.75,54.44],[-10.21,53.03],[-10.97,52.17],[-8.77,51.18],[-6.03,52.05],[-5.48,53.25],[-6.01,53.99],[-5.26,54.35],[-4.7,53.83],[-5.77,51.68],[-4.64,50.84],[-6.74,49.69],[-2.81,50.59],[-0.16,50.06],[-0.91,49.49],[-2.31,50.05],[-3.47,48.93],[-5.35,48.7],[-4.91,47.7],[-1.91,46.45],[-1.3,45.28],[-1.65,43.64],[-8.1,44.05],[-9.63,43.32],[-8.72,41.01],[-9.13,39.67],[-9.96,39.61],[-9.33,37.43],[-6.77,36.74],[-6.18,35.32],[-10.03,32.07],[-10.48,29.21],[-13.45,28.02],[-17.54,20.69],[-15.95,18.95],[-16.86,22.05],[-14.5,24.79],[-14.48,25.78],[-8.7,30.25],[-9.4,30.66],[-9.1,31.27],[-6.33,31.97],[-4.11,34.0],[-3.74,33.23],[-4.51,32.93],[-3.81,32.74],[-2.96,33.51],[4.26,34.37],[5.18,31.04],[8.02,31.37],[10.01,33.67],[10.61,32.23],[13.99,32.75],[15.14,30.72],[17.17,31.1],[19.5,29.46],[21.82,29.13],[22.53,30.14],[20.59,30.76],[21.39,31.33],[20.22,31.83],[21.84,32.97],[23.1,32.02],[27.2,31.14],[27.32,30.26],[25.69,29.18],[27.27,28.46],[28.84,28.83],[30.07,26.93],[30.76,27.22],[32.13,26.21],[31.16,27.47],[31.65,28.4],[32.8,28.48],[34.7,25.51],[35.2,26.41],[34.37,26.36],[34.16,27.45],[35.43,27.3],[36.95,24.32],[38.99,22.48],[38.49,21.6],[39.81,19.55],[40.44,19.79],[40.19,18.94],[40.81,19.18],[41.68,17.78],[40.81,20.02],[39.27,21.21],[38.97,23.76],[37.2,24.77],[36.4,27.56],[40.79,28.54],[43.97,27.25],[44.08,26.61],[46.98,25.94],[50.55,19.79],[54.78,17.45],[50.67,14.97],[49.17,14.92],[49.45,14.36],[52.27,15.2],[53.47,16.71],[56.65,17.3],[56.06,17.79],[58.27,18.96],[58.23,20.22],[59.43,20.46],[59.95,22.75],[58.35,24.1],[57.27,23.98],[56.78,25.25],[68.73,22.55],[71.02,18.0],[72.77,17.28],[74.34,14.49],[74.53,12.45],[75.52,11.61],[75.11,9.92],[72.95,8.4],[71.82,6.31],[72.95,4.86],[72.57,2.54],[73.51,1.67],[73.9,4.46],[73.33,4.84],[75.65,4.73],[79.5,6.13],[80.73,5.58],[82.25,7.12],[80.02,10.57],[79.85,11.93],[80.73,13.16],[80.35,14.9],[82.75,15.75],[83.49,17.85],[86.72,19.79],[87.01,21.14],[91.46,21.88],[94.42,17.47],[93.83,15.72],[95.43,15.49],[96.91,16.66],[97.73,15.32],[97.4,8.51],[100.11,5.84],[101.14,2.44],[98.05,5.37],[96.48,5.36],[95.43,6.34],[94.87,4.83],[97.17,2.75],[94.96,2.91],[97.32,1.85],[96.61,1.27],[98.08,0.27],[98.56,-1.88],[101.17,-4.39],[101.3,-2.94],[104.4,-6.27],[105.27,-6.08],[105.17,-7.01],[107.36,-7.94],[117.44,-9.46],[118.51,-8.9],[119.12,-10.2],[120.69,-10.56],[121.19,-9.97],[120.1,-9.03],[123.48,-8.57],[124.64,-9.29],[125.39,-8.6],[124.76,-9.91],[123.86,-10.2],[123.82,-9.12],[123.16,-10.64],[122.54,-10.62],[122.84,-11.38],[126.79,-9.25],[127.36,-8.39],[126.79,-7.91],[129.28,-8.64],[127.55,-7.2],[119.81,-8.26],[118.08,-7.75],[119.58,-7.03],[118.9,-6.17],[118.8,-6.86],[116.96,-7.27],[117.21,-8.25],[114.9,-8.21],[114.84,-7.2],[116.17,-7.32],[116.26,-6.64],[109.15,-6.63],[105.98,-5.29],[106.41,-3.28],[108.49,-3.41],[108.82,-2.35],[107.33,-2.61],[105.35,-1.25],[105.27,0.11],[104.64,0.28],[105.17,1.24],[103.46,3.78],[104.0,4.75],[103.45,5.94],[101.74,6.61],[100.16,9.06],[99.66,11.04],[100.27,12.79],[102.64,11.41],[102.73,9.99],[103.64,10.16],[103.1,9.18],[104.25,9.46],[104.82,8.51],[107.91,10.61],[109.06,9.21],[107.95,7.05],[108.27,6.0],[109.06,5.42],[109.96,5.83],[111.07,4.47],[113.77,4.57],[113.0,3.3],[111.31,2.96],[110.56,1.92],[109.12,2.17],[108.81,3.19],[109.04,1.43],[108.04,0.03],[109.07,-0.17],[108.46,-1.84],[109.7,-1.92],[109.78,-3.01],[111.4,-3.11],[111.91,-3.97],[114.33,-3.64],[114.81,-4.47],[115.87,-3.75],[115.31,-5.07],[116.07,-5.2],[116.71,-1.9],[118.02,-0.94],[117.76,0.07],[119.25,0.66],[118.1,4.05],[121.31,5.16],[122.87,7.19],[125.35,5.17],[126.93,6.97],[125.64,12.72],[124.59,12.97],[124.39,14.48],[123.47,14.09],[122.13,15.08],[122.91,17.42],[122.3,17.59],[122.01,21.14],[121.79,19.76],[120.11,18.35],[120.28,16.69],[119.65,16.62],[119.95,12.99],[116.71,16.07],[113.09,15.81],[112.73,16.36],[111.99,15.61],[111.19,16.22],[111.1,15.49],[109.75,15.18],[106.09,18.41],[106.01,19.79],[107.24,20.5],[107.87,20.04],[107.98,21.01],[108.93,21.36],[109.91,20.12],[108.23,19.25],[109.4,17.85],[111.65,19.85],[111.14,21.02],[116.33,20.82],[116.67,20.27],[116.77,20.96],[118.31,21.47],[121.69,21.84],[124.73,24.61],[125.84,24.65],[125.4,25.91],[128.66,32.39],[129.56,32.33],[129.11,31.24],[130.09,30.44],[128.81,28.63],[133.47,33.24],[135.0,33.92],[135.63,33.1],[137.59,34.48],[139.78,33.63],[139.38,34.6],[141.29,35.64],[141.01,38.04],[142.3,38.79],[141.37,42.3],[143.14,41.87],[145.95,42.9],[147.68,44.85],[150.8,45.8],[151.04,46.76],[146.22,44.58],[142.69,44.87],[142.26,45.83],[144.0,46.49],[142.83,48.28],[143.8,49.08],[144.55,48.24],[145.24,48.92],[143.34,51.76],[143.54,54.32],[141.47,53.6],[139.89,54.66],[138.17,54.23],[138.7,55.18],[137.07,55.77],[138.15,55.95],[139.07,57.05],[138.61,57.38],[136.39,55.49],[132.51,53.99],[136.7,54.37],[135.41,51.58],[135.65,50.73],[136.69,50.49],[134.11,49.52],[133.91,50.14],[131.9,50.35],[133.04,51.68],[131.03,50.9],[131.78,52.32],[130.27,53.38],[125.17,54.12],[120.52,53.44],[124.55,52.84],[124.96,51.65],[122.82,50.79],[123.22,50.2],[122.15,50.31],[123.08,48.95],[121.69,48.22],[119.71,44.4],[117.99,43.73],[117.89,42.08],[115.5,43.25],[116.23,44.47],[115.18,43.97],[113.02,44.64],[113.37,45.27],[112.19,46.48],[105.61,45.43],[102.59,45.66],[102.12,45.13],[103.0,44.47],[102.62,44.17],[101.73,44.82],[100.12,44.22],[95.81,45.31],[95.44,44.97],[96.2,44.51],[94.76,44.55],[94.66,45.43],[93.39,45.06],[89.21,47.78],[84.75,48.72],[85.78,49.33],[83.8,50.65],[89.54,52.67],[93.82,53.05],[94.06,54.02],[93.36,54.1]],[[120.51,12.57],[121.07,12.14],[120.55,11.46],[120.51,12.57]],[[86.35,43.6],[87.54,43.56],[87.15,42.44],[79.21,41.78],[78.4,40.6],[74.74,39.48],[76.92,37.73],[76.7,37.08],[79.76,36.37],[80.29,36.89],[81.66,36.07],[89.09,39.11],[94.26,39.39],[95.74,40.1],[101.55,38.62],[103.39,37.49],[103.09,36.6],[101.85,36.44],[104.29,34.95],[104.24,32.7],[102.74,30.32],[102.01,30.29],[102.31,28.65],[101.01,27.74],[97.42,27.93],[95.39,29.57],[92.57,27.49],[91.17,28.01],[88.99,27.23],[86.42,27.59],[78.77,30.59],[75.07,34.58],[71.7,35.51],[68.81,35.02],[69.2,34.45],[68.5,33.98],[69.82,34.03],[69.27,32.84],[68.84,33.65],[66.24,32.39],[65.77,33.19],[64.4,32.46],[63.84,33.48],[62.55,33.37],[62.9,34.83],[63.77,34.61],[64.3,35.59],[68.99,35.43],[70.89,36.93],[70.2,39.02],[67.03,38.98],[73.76,40.29],[73.49,42.07],[71.98,42.06],[70.68,41.01],[70.42,42.28],[75.82,42.76],[77.41,41.96],[80.33,43.35],[80.66,42.47],[83.95,43.39],[83.05,43.77],[83.67,44.53],[86.35,43.6]],[[131.34,37.21],[130.61,38.86],[128.83,40.09],[130.25,40.94],[130.37,42.17],[134.24,42.68],[137.71,45.27],[140.93,49.1],[140.75,51.26],[141.69,51.61],[141.84,47.01],[140.91,45.97],[141.69,45.6],[140.87,45.5],[141.25,43.85],[139.35,42.36],[140.08,41.99],[139.3,41.66],[140.03,41.28],[139.65,39.29],[137.9,37.13],[136.79,38.21],[135.86,35.93],[133.92,35.87],[133.26,36.66],[133.08,35.66],[130.81,34.92],[130.39,34.07],[131.34,37.21]],[[18.75,36.31],[21.78,34.09],[30.42,31.86],[29.16,31.1],[27.56,31.85],[25.46,31.63],[21.75,33.41],[19.83,32.23],[19.91,31.11],[18.83,30.48],[15.79,31.75],[15.36,32.8],[11.5,33.34],[10.74,34.29],[11.7,34.74],[11.21,37.3],[1.36,37.01],[-2.2,35.15],[-5.08,35.96],[-3.97,36.59],[-2.26,36.26],[-0.58,37.26],[0.25,38.85],[-0.09,39.63],[3.23,41.53],[3.78,42.55],[5.87,40.35],[7.97,40.04],[7.67,39.09],[8.56,38.44],[9.62,39.14],[14.53,36.45],[18.75,36.31]],[[21.22,36.02],[20.19,36.31],[20.63,37.26],[22.27,36.38],[22.24,35.71],[21.22,36.02]],[[45.65,36.03],[44.28,37.36],[42.68,37.24],[40.75,39.19],[38.6,39.25],[37.94,40.52],[41.36,41.24],[42.13,40.59],[43.67,41.74],[46.23,40.53],[46.24,38.66],[48.88,37.98],[47.45,37.1],[49.44,36.45],[50.21,34.49],[53.29,32.97],[55.47,30.3],[56.37,30.53],[56.1,31.83],[58.16,29.12],[56.91,29.19],[56.72,28.42],[51.72,33.03],[54.21,30.35],[52.03,29.75],[49.06,33.23],[47.19,33.84],[45.65,36.03]],[[18.13,58.0],[17.04,57.53],[17.43,58.61],[20.25,59.72],[22.37,59.4],[21.19,58.47],[21.7,57.66],[20.56,56.7],[20.81,56.01],[18.54,57.01],[19.51,58.32],[18.13,58.0]],[[118.04,8.09],[121.6,11.46],[121.64,10.35],[123.12,8.91],[119.58,6.04],[119.88,5.25],[118.75,5.91],[118.55,7.41],[117.82,6.41],[117.41,7.81],[118.04,8.09]],[[37.7,38.41],[38.17,38.2],[37.27,37.78],[37.7,38.41]],[[51.66,36.36],[52.95,35.96],[55.09,36.67],[52.4,35.41],[50.02,36.38],[50.55,36.93],[51.66,36.36]],[[41.68,43.26],[41.37,43.69],[42.62,43.65],[45.57,42.47],[41.68,43.26]],[[47.39,41.49],[45.89,42.45],[47.75,41.88],[47.84,41.24],[47.39,41.49]],[[59.21,36.76],[58.79,36.41],[58.82,37.06],[59.21,36.76]],[[59.49,32.37],[59.15,33.3],[60.13,33.51],[59.49,32.37]],[[6.86,46.13],[10.64,47.42],[13.66,47.21],[11.76,46.43],[11.04,46.89],[10.34,45.92],[8.48,46.53],[6.87,45.3],[6.8,44.24],[5.85,44.83],[6.86,46.13]],[[54.18,26.01],[55.2,25.22],[54.37,25.02],[54.11,25.65],[53.74,24.4],[52.88,25.33],[52.04,24.72],[51.66,25.54],[51.91,26.47],[54.18,26.01]],[[92.76,43.24],[91.74,44.07],[93.77,44.02],[95.0,43.03],[92.76,43.24]],[[138.92,50.52],[139.11,51.29],[139.83,50.89],[139.5,48.74],[138.08,47.91],[137.76,46.65],[136.47,46.95],[137.51,48.33],[137.09,48.82],[138.92,50.52]],[[13.05,58.19],[15.37,58.35],[16.1,57.24],[14.38,56.83],[12.41,57.75],[13.05,58.19]],[[137.22,45.95],[136.19,45.46],[135.94,46.48],[137.22,45.95]],[[124.3,9.63],[124.61,8.83],[123.96,8.79],[124.3,9.63]],[[68.31,32.46],[68.28,30.25],[66.65,30.73],[68.31,32.46]],[[128.97,40.87],[128.3,41.15],[127.36,40.32],[126.87,40.93],[127.54,42.28],[128.77,42.82],[129.5,42.11],[128.97,40.87]],[[89.95,53.02],[88.54,53.11],[88.98,53.71],[87.7,55.28],[90.53,54.35],[89.95,53.02]],[[59.83,35.1],[58.85,35.52],[59.86,35.75],[60.33,35.21],[59.83,35.1]],[[138.59,52.25],[138.99,51.94],[137.81,51.21],[138.59,52.25]],[[95.95,41.07],[95.93,42.18],[97.01,42.05],[97.13,41.42],[95.95,41.07]],[[98.71,-0.15],[99.58,-0.21],[100.48,-2.39],[98.71,-0.15]],[[35.84,38.41],[38.11,39.89],[38.14,39.04],[36.65,37.78],[35.84,38.41]],[[-4.43,56.57],[-5.07,56.87],[-4.23,57.41],[-2.85,57.22],[-4.43,56.57]],[[143.62,43.64],[142.53,43.45],[143.14,44.14],[143.62,43.64]],[[24.62,35.77],[23.6,36.1],[23.64,36.77],[24.97,36.48],[25.24,35.84],[24.62,35.77]],[[34.03,37.52],[35.41,37.76],[33.92,36.87],[33.44,37.07],[34.03,37.52]],[[132.75,49.8],[132.71,49.05],[131.88,49.6],[132.75,49.8]],[[104.19,43.26],[102.15,43.64],[103.43,44.14],[104.19,43.26]],[[79.0,45.11],[81.81,45.55],[80.88,45.16],[80.9,44.39],[79.0,45.11]],[[116.01,6.28],[115.25,6.62],[116.44,8.06],[116.01,6.28]],[[58.4,54.84],[59.12,54.98],[59.08,54.32],[58.37,54.18],[58.4,54.84]],[[11.01,57.17],[11.57,56.92],[10.4,56.71],[11.01,57.17]],[[76.74,42.69],[76.68,43.2],[78.21,43.15],[76.74,42.69]]],[[[107.52,3.05],[108.62,3.33],[108.73,4.32],[107.93,4.9],[107.52,3.05]]],[[[40.39,-2.87],[43.68,0.78],[47.24,3.08],[49.63,7.2],[45.41,2.04],[44.43,2.32],[41.2,0.65],[41.11,-1.47],[40.24,-2.03],[38.58,-5.98],[38.82,-6.6],[39.8,-6.44],[40.39,-2.87]]],[[[141.72,-14.47],[142.06,-11.55],[141.22,-12.51],[141.25,-14.64],[141.72,-14.47]]],[[[92.47,9.12],[94.09,6.43],[94.16,7.46],[93.5,7.63],[94.02,8.63],[93.1,8.43],[92.95,9.6],[92.47,9.12]]],[[[144.99,14.26],[144.36,13.36],[145.0,13.11],[144.99,14.26]]],[[[93.83,12.51],[93.16,12.68],[93.98,14.56],[93.57,15.35],[91.9,10.83],[93.0,10.37],[93.33,11.77],[94.27,12.23],[93.83,12.51]]],[[[136.67,-11.91],[136.89,-10.74],[136.09,-11.45],[136.67,-11.91]]],[[[-23.54,14.92],[-22.91,15.31],[-23.82,15.71],[-24.82,14.59],[-23.54,14.92]]],[[[151.69,7.28],[152.25,6.79],[151.83,8.02],[151.69,7.28]]],[[[167.31,9.65],[166.53,9.34],[167.75,8.61],[168.15,9.03],[167.31,9.65]]],[[[4.06,39.61],[4.47,40.17],[3.73,40.38],[2.19,39.47],[3.08,38.88],[4.06,39.61]]],[[[149.31,-20.31],[147.99,-19.91],[148.78,-20.74],[149.31,-20.31]]],[[[55.66,-21.78],[55.92,-20.81],[55.06,-20.62],[55.66,-21.78]]],[[[115.44,-30.98],[115.11,-30.44],[114.93,-30.92],[115.62,-33.21],[114.58,-33.98],[115.76,-34.63],[115.01,-33.85],[116.01,-33.42],[116.16,-31.72],[115.44,-30.98]]],[[[144.27,-13.77],[143.41,-13.66],[143.66,-14.63],[144.37,-14.37],[145.79,-15.94],[145.82,-14.67],[144.27,-13.77]]],[[[119.18,-5.63],[120.36,-5.88],[120.37,-7.2],[121.32,-7.76],[120.66,-3.76],[122.77,-6.38],[122.87,-5.67],[123.84,-6.23],[124.59,-5.52],[123.76,-5.36],[122.44,-1.52],[123.97,-2.55],[126.82,-2.2],[126.51,-1.39],[123.93,-1.42],[122.47,0.09],[124.15,0.04],[125.59,1.06],[125.73,4.85],[125.08,4.83],[125.13,2.28],[124.33,1.27],[123.43,0.93],[121.05,1.83],[119.68,0.83],[118.51,-3.21],[119.37,-4.23],[118.74,-4.46],[119.18,-5.63]],[[120.62,0.29],[121.58,-0.25],[120.82,-1.22],[120.09,-0.59],[120.62,0.29]]],[[[-122.98,48.7],[-122.9,46.96],[-121.93,47.61],[-122.98,48.7]]],[[[47.44,13.51],[49.11,14.16],[48.15,14.31],[46.46,13.65],[46.76,13.09],[47.44,13.51]]],[[[20.54,63.29],[21.46,62.88],[22.99,63.98],[20.38,63.85],[20.54,63.29]]],[[[-25.03,37.29],[-25.12,38.06],[-26.24,37.98],[-25.24,36.63],[-24.69,36.67],[-25.03,37.29]]],[[[153.36,-27.87],[153.18,-29.39],[154.01,-28.82],[153.21,-24.81],[152.64,-25.51],[153.36,-27.87]]],[[[151.37,46.85],[152.55,46.73],[153.65,48.34],[151.37,46.85]]],[[[116.84,51.83],[118.63,52.64],[115.93,52.43],[114.07,49.64],[116.28,48.67],[113.72,48.63],[115.13,48.17],[115.85,46.32],[119.23,47.77],[120.72,50.45],[119.55,51.1],[120.19,51.6],[119.23,51.49],[116.85,49.5],[117.42,50.0],[116.21,50.6],[116.84,51.83]]],[[[169.86,9.46],[170.22,8.77],[170.56,9.56],[169.86,9.46]]],[[[35.68,22.51],[37.06,21.3],[37.02,18.96],[38.97,17.2],[39.06,18.67],[37.53,18.99],[37.45,21.54],[35.64,23.38],[36.57,23.65],[34.85,25.3],[35.68,22.51]]],[[[-16.91,32.32],[-15.87,33.34],[-17.7,32.95],[-16.91,32.32]]],[[[152.64,-11.17],[153.75,-11.77],[154.28,-11.13],[151.96,-10.38],[152.64,-11.17]]],[[[105.38,-10.8],[106.06,-10.27],[105.24,-10.24],[105.38,-10.8]]],[[[-157.18,20.44],[-156.37,20.36],[-156.06,18.56],[-154.77,19.09],[-154.76,20.19],[-157.72,21.59],[-157.78,22.25],[-158.68,21.45],[-157.18,20.44]],[[-155.95,19.43],[-155.19,20.02],[-155.3,19.15],[-155.95,19.43]]],[[[93.4,49.71],[94.91,50.55],[92.31,50.82],[92.12,49.83],[93.4,49.71]]],[[[43.94,40.48],[43.65,40.91],[43.49,40.31],[44.93,38.97],[45.28,37.09],[46.39,36.59],[45.7,39.53],[43.94,40.48]]],[[[-161.09,21.63],[-158.9,21.9],[-159.66,22.4],[-161.09,21.63]]],[[[129.71,-7.37],[130.18,-5.84],[129.09,-7.13],[129.55,-8.32],[130.25,-8.08],[129.71,-7.37]]],[[[55.81,-3.93],[55.12,-3.6],[55.15,-4.95],[56.03,-4.63],[55.81,-3.93]]],[[[92.91,48.88],[93.94,47.77],[93.93,49.15],[92.91,48.88]]],[[[-14.16,28.9],[-14.92,28.02],[-16.14,28.9],[-17.14,28.38],[-17.9,29.25],[-18.37,27.72],[-17.86,27.22],[-17.63,28.11],[-14.19,27.65],[-13.17,29.14],[-13.65,29.65],[-14.16,28.9]]],[[[-24.82,17.03],[-25.52,17.33],[-25.45,16.63],[-23.87,16.4],[-24.82,17.03]]],[[[158.3,-8.81],[157.17,-7.6],[159.31,-8.58],[159.82,-7.94],[157.43,-7.28],[156.62,-6.33],[156.14,-6.75],[154.43,-5.05],[154.91,-6.82],[156.65,-7.18],[157.28,-9.03],[158.3,-8.81]]],[[[40.95,14.88],[40.46,16.48],[39.1,17.0],[40.23,13.63],[40.83,14.67],[43.27,12.67],[43.25,11.89],[42.57,11.84],[44.0,10.24],[46.84,10.47],[46.23,11.17],[44.34,10.46],[43.69,11.16],[43.71,12.32],[46.11,13.44],[43.72,12.7],[42.64,17.42],[41.19,16.93],[42.38,15.78],[41.9,14.95],[42.61,14.99],[42.59,13.8],[40.95,14.88]]],[[[141.65,58.45],[142.4,59.19],[141.56,59.16],[141.65,58.45]]],[[[162.06,56.66],[161.88,55.62],[163.51,56.45],[162.87,57.39],[162.06,56.66]]],[[[73.02,-0.54],[73.58,-0.94],[73.88,0.02],[73.32,1.1],[73.02,-0.54]]],[[[49.53,11.2],[50.71,11.82],[50.96,10.04],[51.59,10.43],[51.36,12.22],[49.53,11.2]]],[[[39.22,-7.42],[40.11,-8.16],[39.96,-7.3],[39.22,-7.42]]],[[[48.14,10.93],[48.5,11.51],[46.88,11.21],[48.14,10.93]]],[[[-15.96,17.08],[-16.17,18.59],[-16.83,16.12],[-15.96,17.08]]],[[[112.26,-5.96],[113.05,-6.0],[112.92,-5.42],[112.26,-5.96]]],[[[134.1,-6.29],[133.78,-6.86],[134.8,-7.42],[134.94,-5.3],[134.77,-6.28],[134.18,-5.8],[134.1,-6.29]]],[[[128.65,27.77],[126.35,26.29],[128.0,25.5],[129.14,27.95],[130.12,28.31],[129.26,28.59],[128.65,27.77]]],[[[106.6,0.51],[107.62,0.06],[107.55,1.43],[106.71,1.49],[107.3,1.07],[106.6,0.51]]],[[[150.65,-8.53],[151.42,-8.87],[151.15,-8.11],[150.65,-8.53]]],[[[-169.9,16.96],[-169.81,16.32],[-169.06,16.7],[-169.9,16.96]]],[[[74.12,41.87],[74.23,41.1],[75.99,41.23],[74.12,41.87]]],[[[131.2,-11.54],[130.62,-11.08],[130.08,-11.69],[131.2,-11.54]]],[[[130.67,-8.16],[130.59,-8.64],[131.53,-8.32],[132.25,-6.71],[131.38,-6.56],[130.67,-8.16]]],[[[171.56,6.98],[171.83,7.55],[170.91,7.43],[171.56,6.98]]],[[[-17.03,13.07],[-16.4,13.43],[-17.04,14.41],[-16.61,15.79],[-17.68,14.94],[-17.03,13.07]]],[[[134.76,8.33],[133.91,7.3],[134.22,6.47],[135.03,7.25],[134.76,8.33]]],[[[94.14,51.52],[95.67,50.96],[95.22,51.77],[94.14,51.52]]],[[[145.55,16.03],[146.24,16.02],[145.94,16.82],[145.55,16.03]]],[[[58.1,-20.39],[57.84,-19.57],[56.91,-20.52],[58.1,-20.39]]],[[[-176.84,51.5],[-175.89,52.08],[-178.19,51.73],[-176.84,51.5]]],[[[145.92,7.15],[146.64,7.4],[145.87,8.06],[145.92,7.15]]],[[[145.66,15.38],[145.72,14.49],[146.14,15.53],[145.66,15.38]]],[[[178.26,52.13],[177.3,51.9],[179.69,51.53],[178.26,52.13]]],[[[128.01,-7.04],[128.82,-7.45],[128.51,-6.65],[128.01,-7.04]]],[[[117.3,-4.76],[117.0,-5.52],[118.75,-5.78],[117.3,-4.76]]],[[[140.92,25.29],[141.84,24.1],[141.42,25.43],[140.92,25.29]]],[[[161.19,-8.78],[160.55,-8.04],[160.78,-8.96],[159.54,-9.51],[160.75,-10.02],[160.77,-9.38],[161.58,-9.64],[161.19,-8.78]]],[[[154.46,49.83],[153.19,48.87],[155.28,49.38],[154.46,49.83]]],[[[106.06,3.56],[105.38,3.24],[106.36,2.27],[106.69,3.37],[106.06,3.56]]],[[[1.85,39.15],[1.4,39.44],[1.19,38.49],[1.85,39.15]]],[[[121.0,51.89],[120.45,53.06],[119.84,52.93],[120.41,51.76],[121.0,51.89]]],[[[47.87,-13.25],[48.04,-14.08],[49.53,-12.02],[48.45,-12.04],[47.87,-13.25]]],[[[140.33,10.12],[139.4,10.02],[139.75,9.44],[140.73,9.79],[140.33,10.12]]],[[[47.52,-15.07],[47.74,-14.36],[46.81,-15.23],[47.52,-15.07]]],[[[161.36,-10.37],[162.37,-10.97],[161.97,-10.09],[161.36,-10.37]]],[[[114.07,-5.7],[114.84,-5.73],[114.96,-4.82],[114.07,-5.7]]],[[[112.17,17.07],[112.08,16.34],[112.99,16.69],[112.17,17.07]]],[[[167.64,11.01],[167.5,11.75],[166.54,11.61],[166.7,10.87],[167.64,11.01]]],[[[159.83,53.05],[160.33,53.34],[159.88,53.88],[158.39,53.0],[159.83,53.05]]],[[[143.98,-1.07],[143.85,-1.82],[145.23,-1.54],[144.51,-0.64],[143.98,-1.07]]],[[[160.89,54.46],[162.1,54.64],[162.05,55.24],[159.81,54.48],[160.89,54.46]]],[[[103.71,47.81],[104.9,47.81],[104.55,48.38],[103.71,47.81]]],[[[53.85,13.04],[52.94,11.93],[54.63,12.18],[54.71,12.89],[53.85,13.04]]],[[[-28.91,38.65],[-28.83,38.14],[-27.14,38.29],[-26.67,39.1],[-27.89,39.52],[-28.91,38.65]]],[[[147.94,-2.38],[146.28,-1.85],[146.57,-2.66],[147.94,-2.38]]],[[[72.0,10.9],[72.96,11.02],[72.96,11.97],[72.0,10.9]]],[[[140.41,58.53],[139.39,57.42],[140.87,58.19],[140.41,58.53]]],[[[118.81,-34.52],[118.66,-35.04],[120.01,-34.38],[118.81,-34.52]]],[[[152.23,-8.98],[153.18,-9.46],[152.91,-8.71],[152.23,-8.98]]],[[[53.79,-5.63],[53.14,-5.14],[53.31,-5.93],[53.79,-5.63]]],[[[172.12,6.36],[171.72,5.96],[172.45,5.71],[172.12,6.36]]],[[[145.98,-18.45],[146.57,-18.89],[146.31,-17.9],[145.98,-18.45]]],[[[166.61,55.22],[165.92,55.34],[165.92,54.74],[166.61,54.62],[166.61,55.22]]],[[[169.17,7.36],[168.96,7.87],[168.34,7.42],[169.17,7.36]]],[[[126.5,4.22],[127.05,3.49],[127.47,4.84],[126.5,4.22]]],[[[-23.24,16.8],[-22.71,15.67],[-22.32,16.4],[-23.24,16.8]]]]}}]}