{"type":"FeatureCollection","features":[{"type":"Feature","properties":{},"geometry":{"type":"MultiPolygon","coordinates":[[[[57.16,49.42],[57.42,49.61],[57.8,49.56],[57.92,49.31],[58.29,49.26],[58.41,49.02],[58.78,48.97],[59.04,49.15],[59.42,49.1],[59.68,49.28],[59.57,49.53],[59.84,49.71],[59.73,49.96],[60.0,50.14],[60.38,50.08],[60.49,49.84],[60.87,49.78],[61.15,49.96],[61.53,49.9],[61.81,50.08],[62.19,50.02],[62.47,50.2],[62.37,50.45],[62.65,50.63],[63.04,50.56],[63.14,50.31],[63.52,50.24],[63.81,50.42],[64.19,50.35],[64.48,50.52],[64.87,50.45],[65.16,50.63],[65.55,50.55],[65.63,50.3],[66.01,50.22],[66.1,49.97],[66.48,49.89],[66.56,49.64],[66.26,49.47],[66.34,49.22],[66.71,49.14],[66.79,48.89],[66.5,48.72],[66.58,48.47],[66.29,48.3],[66.37,48.04],[66.73,47.96],[67.02,48.13],[66.94,48.39],[67.23,48.55],[67.6,48.47],[67.9,48.64],[68.26,48.55],[68.56,48.72],[68.93,48.63],[69.23,48.8],[69.59,48.71],[69.89,48.87],[70.26,48.78],[70.32,48.53],[70.68,48.43],[70.99,48.59],[71.35,48.5],[71.4,48.24],[71.76,48.15],[71.81,47.89],[72.17,47.79],[72.22,47.54],[72.57,47.44],[72.87,47.59],[73.23,47.49],[73.53,47.65],[73.49,47.9],[73.8,48.05],[74.15,47.95],[74.46,48.1],[74.81,48.0],[75.13,48.15],[75.47,48.04],[75.79,48.18],[76.14,48.07],[76.46,48.22],[76.8,48.11],[77.12,48.25],[77.47,48.14],[77.79,48.28],[77.76,48.54],[78.09,48.68],[78.43,48.56],[78.45,48.3],[78.79,48.19],[79.12,48.32],[79.46,48.2],[79.47,47.95],[79.81,47.83],[80.13,47.96],[80.12,48.22],[79.78,48.34],[79.77,48.6],[80.1,48.73],[80.08,48.99],[80.41,49.12],[80.76,49.0],[81.09,49.13],[81.43,49.0],[81.76,49.13],[81.76,49.39],[82.09,49.51],[82.43,49.39],[82.43,49.13],[82.76,49.0],[83.1,49.13],[83.1,49.38],[83.44,49.51],[83.77,49.37],[84.11,49.5],[84.12,49.75],[84.46,49.87],[84.79,49.74],[84.78,49.48],[85.11,49.35],[85.45,49.47],[85.46,49.72],[85.14,49.85],[85.15,50.11],[85.49,50.23],[85.82,50.09],[86.17,50.2],[86.5,50.06],[86.84,50.18],[86.86,50.43],[87.21,50.54],[87.24,50.79],[86.91,50.93],[86.93,51.18],[86.6,51.32],[86.62,51.58],[86.97,51.69],[87.31,51.54],[87.67,51.65],[87.69,51.9],[88.05,52.01],[88.08,52.26],[88.44,52.37],[88.48,52.62],[88.14,52.76],[88.17,53.01],[88.54,53.11],[88.57,53.36],[88.23,53.51],[88.26,53.76],[87.91,53.9],[87.94,54.15],[87.59,54.29],[87.62,54.54],[88.0,54.64],[88.03,54.89],[87.68,55.04],[87.7,55.28],[87.34,55.43],[87.37,55.67],[87.76,55.78],[88.12,55.63],[88.51,55.73],[88.87,55.59],[89.26,55.68],[89.62,55.54],[90.01,55.63],[90.35,55.48],[90.75,55.58],[90.79,55.82],[91.19,55.91],[91.23,56.15],[90.88,56.31],[90.93,56.55],[91.33,56.64],[91.68,56.49],[92.08,56.57],[92.14,56.81],[91.79,56.97],[91.84,57.21],[92.25,57.3],[92.3,57.54],[92.71,57.62],[93.07,57.46],[93.01,57.22],[92.6,57.14],[92.54,56.9],[92.89,56.74],[92.83,56.5],[92.43,56.42],[92.37,56.18],[92.71,56.02],[93.11,56.11],[93.45,55.95],[93.84,56.03],[93.91,56.27],[93.57,56.43],[93.63,56.67],[93.29,56.83],[93.35,57.07],[93.76,57.15],[93.82,57.39],[93.48,57.54],[93.54,57.78],[93.19,57.94],[93.25,58.18],[92.89,58.34],[92.48,58.25],[92.11,58.41],[92.17,58.65],[91.8,58.8],[91.38,58.72],[91.33,58.48],[91.7,58.32],[91.64,58.08],[91.23,58.0],[90.86,58.15],[90.91,58.39],[90.54,58.54],[90.12,58.45],[89.74,58.6],[89.32,58.51],[88.94,58.65],[88.52,58.56],[88.14,58.7],[88.17,58.94],[87.78,59.09],[87.36,58.99],[86.96,59.13],[86.54,59.03],[86.14,59.17],[86.16,59.41],[85.75,59.55],[85.33,59.44],[84.92,59.58],[84.49,59.47],[84.08,59.6],[83.66,59.49],[83.24,59.62],[82.81,59.51],[82.39,59.64],[82.39,59.88],[81.96,60.01],[81.96,60.25],[81.53,60.37],[81.1,60.26],[80.66,60.38],[80.24,60.26],[79.79,60.38],[79.78,60.62],[79.33,60.74],[78.9,60.61],[78.45,60.73],[78.43,60.97],[77.97,61.08],[77.54,60.95],[77.08,61.06],[77.05,61.3],[76.58,61.41],[76.16,61.28],[75.69,61.38],[75.27,61.24],[74.79,61.35],[74.74,61.59],[74.27,61.69],[73.85,61.55],[73.37,61.64],[72.95,61.5],[72.47,61.59],[72.4,61.83],[71.92,61.92],[71.5,61.78],[71.01,61.87],[70.6,61.72],[70.11,61.8],[69.71,61.65],[69.22,61.73],[69.13,61.97],[68.63,62.05],[68.23,61.89],[67.73,61.97],[67.63,62.2],[67.13,62.27],[66.74,62.11],[66.23,62.19],[65.84,62.02],[65.95,61.79],[65.56,61.63],[65.07,61.69],[64.69,61.53],[64.19,61.59],[63.81,61.42],[63.32,61.48],[63.19,61.71],[62.69,61.77],[62.32,61.6],[61.83,61.66],[61.69,61.88],[62.06,62.06],[61.93,62.29],[61.42,62.34],[61.05,62.16],[61.19,61.94],[60.83,61.76],[60.96,61.53],[60.61,61.36],[60.11,61.41],[59.76,61.23],[59.9,61.0],[59.56,60.82],[59.7,60.59],[59.36,60.41],[59.5,60.18],[59.16,60.0],[59.31,59.77],[58.98,59.59],[59.12,59.36],[58.79,59.18],[58.32,59.22],[58.18,59.45],[58.5,59.63],[58.36,59.86],[57.88,59.91],[57.73,60.13],[58.06,60.32],[57.91,60.54],[58.24,60.73],[58.09,60.95],[57.6,60.99],[57.44,61.22],[56.95,61.25],[56.79,61.48],[56.29,61.51],[55.96,61.32],[55.47,61.36],[55.14,61.17],[54.65,61.2],[54.48,61.41],[53.98,61.44],[53.67,61.25],[53.18,61.27],[52.87,61.08],[52.38,61.1],[52.2,61.31],[51.71,61.33],[51.41,61.14],[50.92,61.15],[50.73,61.36],[50.24,61.38],[49.95,61.18],[50.15,60.97],[49.86,60.77],[49.39,60.78],[49.19,60.99],[48.71,61.0],[48.43,60.79],[47.96,60.8],[47.75,61.01],[47.27,61.01],[47.01,60.81],[46.53,60.81],[46.28,60.6],[45.81,60.6],[45.56,60.39],[45.09,60.39],[44.88,60.59],[44.41,60.58],[44.17,60.37],[43.71,60.37],[43.47,60.16],[43.02,60.15],[42.8,60.34],[42.34,60.33],[42.12,60.12],[41.67,60.1],[41.44,60.3],[40.99,60.28],[40.77,60.07],[40.33,60.05],[40.1,60.24],[39.65,60.22],[39.42,60.41],[38.97,60.38],[38.77,60.17],[38.33,60.14],[38.09,60.33],[37.65,60.3],[37.41,60.49],[36.97,60.45],[36.79,60.24],[36.36,60.21],[36.17,59.99],[35.75,59.96],[35.57,59.74],[35.15,59.71],[34.9,59.88],[34.49,59.85],[34.24,60.02],[34.4,60.24],[34.15,60.42],[34.32,60.63],[34.06,60.81],[34.23,61.02],[33.97,61.2],[33.54,61.15],[33.28,61.33],[32.85,61.28],[32.58,61.45],[32.16,61.4],[31.89,61.57],[31.46,61.52],[31.19,61.69],[30.77,61.64],[30.62,61.42],[30.21,61.37],[29.93,61.53],[29.52,61.48],[29.38,61.26],[28.97,61.2],[28.7,61.36],[28.29,61.3],[28.17,61.09],[27.77,61.03],[27.49,61.19],[27.09,61.12],[26.98,60.91],[26.59,60.85],[26.31,61.0],[25.92,60.94],[25.64,61.09],[25.26,61.02],[25.16,60.81],[24.78,60.74],[24.5,60.89],[24.12,60.82],[24.03,60.6],[23.66,60.54],[23.38,60.68],[23.47,60.9],[23.18,61.04],[22.81,60.97],[22.53,61.11],[22.61,61.33],[22.32,61.47],[21.95,61.4],[21.66,61.54],[21.74,61.75],[21.45,61.89],[21.52,62.1],[21.9,62.18],[21.98,62.4],[21.68,62.53],[21.3,62.46],[21.0,62.59],[20.63,62.51],[20.56,62.3],[20.86,62.16],[20.78,61.95],[21.08,61.81],[21.01,61.6],[21.3,61.46],[21.22,61.25],[20.86,61.17],[20.79,60.95],[20.44,60.88],[20.29,60.7],[19.85,60.67],[19.7,60.49],[19.27,60.45],[18.98,60.59],[18.55,60.55],[18.26,60.68],[18.4,60.85],[18.11,60.99],[17.67,60.94],[17.38,61.07],[17.52,61.25],[17.96,61.29],[18.1,61.46],[17.81,61.59],[17.95,61.77],[17.66,61.89],[17.8,62.07],[18.15,62.15],[18.21,62.36],[17.9,62.49],[17.55,62.4],[17.5,62.19],[17.06,62.15],[16.91,61.98],[17.21,61.85],[17.07,61.68],[16.63,61.63],[16.49,61.46],[16.79,61.33],[16.65,61.15],[16.94,61.03],[16.8,60.85],[17.1,60.72],[16.96,60.54],[17.25,60.41],[17.68,60.46],[17.97,60.32],[17.83,60.15],[17.4,60.1],[17.26,59.92],[16.84,59.87],[16.7,59.69],[16.28,59.64],[16.15,59.46],[15.73,59.41],[15.6,59.23],[15.88,59.09],[15.75,58.91],[15.34,58.86],[15.21,58.67],[15.49,58.54],[15.37,58.35],[15.65,58.22],[16.06,58.27],[16.34,58.14],[16.21,57.95],[15.8,57.9],[15.68,57.71],[15.95,57.57],[15.83,57.38],[16.1,57.24],[15.98,57.05],[15.58,57.0],[15.45,56.81],[15.05,56.75],[14.78,56.89],[14.38,56.83],[14.1,56.97],[13.71,56.91],[13.59,56.71],[13.19,56.65],[12.92,56.78],[13.03,56.98],[12.75,57.11],[12.87,57.3],[12.58,57.43],[12.7,57.62],[12.41,57.75],[12.53,57.94],[12.24,58.07],[11.84,58.01],[11.56,58.13],[11.67,58.32],[11.38,58.44],[11.49,58.63],[11.2,58.76],[11.31,58.94],[11.02,59.06],[11.13,59.25],[10.84,59.37],[10.95,59.56],[10.65,59.67],[10.25,59.61],[10.14,59.42],[10.43,59.3],[10.32,59.12],[9.92,59.05],[9.63,59.16],[9.23,59.09],[9.12,58.9],[8.72,58.83],[8.62,58.64],[8.23,58.57],[8.13,58.38],[7.74,58.3],[7.64,58.11],[7.26,58.03],[6.96,58.14],[7.06,58.34],[6.77,58.45],[6.41,58.42],[6.14,58.59],[5.77,58.56],[5.5,58.73],[5.59,58.92],[5.96,58.95],[6.05,59.14],[5.77,59.3],[5.4,59.28],[5.12,59.44],[5.21,59.63],[5.58,59.66],[5.68,59.85],[6.05,59.87],[6.15,60.06],[5.86,60.22],[5.49,60.2],[5.2,60.36],[5.29,60.55],[5.0,60.71],[5.09,60.9],[4.8,61.06],[4.41,61.04],[4.32,60.85],[4.62,60.69],[4.53,60.5],[4.82,60.34],[4.73,60.15],[5.02,59.98],[4.93,59.79],[4.55,59.77],[4.46,59.58],[4.75,59.41],[4.66,59.22],[4.94,59.06],[4.85,58.86],[5.13,58.7],[5.05,58.51],[5.32,58.34],[5.68,58.37],[5.95,58.2],[6.31,58.23],[6.58,58.06],[6.49,57.87],[6.78,57.76],[7.16,57.84],[7.45,57.72],[7.84,57.8],[7.93,57.99],[8.32,58.07],[8.61,57.95],[9.0,58.03],[9.1,58.22],[9.5,58.29],[9.6,58.48],[9.31,58.6],[9.41,58.79],[9.81,58.86],[10.11,58.74],[10.51,58.81],[10.8,58.69],[10.69,58.5],[10.98,58.38],[10.87,58.19],[11.16,58.06],[11.05,57.87],[10.65,57.8],[10.36,57.93],[9.97,57.86],[9.87,57.67],[9.48,57.59],[9.37,57.4],[8.99,57.33],[8.7,57.45],[8.31,57.37],[8.22,57.18],[7.84,57.1],[7.74,56.9],[8.02,56.79],[7.93,56.59],[7.55,56.51],[7.46,56.31],[7.74,56.19],[7.65,55.99],[7.93,55.87],[7.83,55.67],[7.46,55.59],[7.37,55.39],[7.0,55.31],[6.91,55.11],[6.55,55.03],[6.27,55.15],[5.91,55.07],[5.83,54.87],[5.47,54.78],[5.19,54.9],[4.85,54.86],[4.77,54.66],[4.44,54.62],[4.36,54.42],[4.02,54.38],[3.94,54.17],[3.61,54.13],[3.53,53.92],[3.19,53.88],[3.12,53.67],[2.79,53.62],[2.52,53.79],[2.18,53.74],[2.11,53.53],[1.78,53.48],[1.71,53.27],[1.37,53.22],[1.1,53.38],[0.76,53.33],[0.49,53.49],[0.56,53.71],[0.28,53.87],[0.34,54.08],[0.06,54.24],[0.13,54.45],[-0.16,54.61],[-0.51,54.56],[-0.79,54.72],[-0.73,54.93],[-1.02,55.09],[-0.96,55.3],[-1.25,55.46],[-1.19,55.67],[-1.49,55.82],[-1.43,56.03],[-1.73,56.19],[-2.09,56.13],[-2.4,56.29],[-2.34,56.5],[-1.98,56.55],[-1.92,56.76],[-1.55,56.81],[-1.49,57.02],[-1.8,57.18],[-1.74,57.38],[-1.37,57.43],[-1.3,57.64],[-1.61,57.79],[-1.99,57.74],[-2.3,57.9],[-2.68,57.84],[-3.0,58.0],[-2.94,58.2],[-2.56,58.25],[-2.5,58.46],[-2.82,58.61],[-2.76,58.81],[-2.38,58.87],[-2.32,59.07],[-1.94,59.12],[-1.87,59.32],[-1.49,59.37],[-1.42,59.57],[-1.03,59.61],[-0.97,59.81],[-0.58,59.85],[-0.51,60.05],[-0.83,60.2],[-0.76,60.4],[-0.37,60.44],[-0.3,60.64],[-0.62,60.79],[-0.55,60.99],[-0.88,61.14],[-1.28,61.1],[-1.35,60.9],[-1.75,60.86],[-1.82,60.66],[-2.21,60.61],[-2.28,60.42],[-2.67,60.37],[-2.74,60.17],[-2.4,60.02],[-2.01,60.07],[-1.68,59.92],[-1.75,59.72],[-2.14,59.67],[-2.2,59.47],[-2.59,59.42],[-2.92,59.57],[-3.31,59.52],[-3.36,59.32],[-3.75,59.26],[-4.09,59.41],[-4.48,59.36],[-4.53,59.15],[-4.19,59.0],[-3.81,59.06],[-3.48,58.91],[-3.53,58.71],[-3.91,58.65],[-4.25,58.8],[-4.63,58.74],[-4.97,58.89],[-5.35,58.83],[-5.4,58.62],[-5.79,58.56],[-6.13,58.71],[-6.51,58.64],[-6.56,58.43],[-6.94,58.37],[-7.28,58.51],[-7.67,58.44],[-7.71,58.23],[-7.36,58.09],[-7.4,57.88],[-7.78,57.81],[-7.82,57.6],[-7.48,57.46],[-7.52,57.25],[-7.89,57.17],[-7.93,56.96],[-7.59,56.82],[-7.63,56.6],[-7.3,56.46],[-7.33,56.25],[-7.01,56.1],[-7.04,55.89],[-6.72,55.74],[-6.76,55.52],[-7.12,55.45],[-7.45,55.6],[-7.81,55.52],[-8.14,55.67],[-8.5,55.59],[-8.54,55.37],[-8.9,55.29],[-8.93,55.07],[-9.29,54.99],[-9.32,54.77],[-8.99,54.63],[-9.02,54.41],[-9.38,54.33],[-9.71,54.47],[-10.06,54.38],[-10.39,54.52],[-10.75,54.44],[-10.77,54.21],[-10.44,54.08],[-10.47,53.85],[-10.82,53.76],[-10.84,53.54],[-10.51,53.4],[-10.54,53.17],[-10.21,53.03],[-10.24,52.81],[-10.58,52.72],[-10.61,52.49],[-10.95,52.4],[-10.97,52.17],[-10.65,52.03],[-10.67,51.8],[-10.36,51.66],[-10.38,51.43],[-10.07,51.29],[-9.73,51.38],[-9.42,51.24],[-9.08,51.32],[-8.77,51.18],[-8.43,51.27],[-8.4,51.49],[-8.07,51.58],[-8.03,51.81],[-7.69,51.89],[-7.39,51.74],[-7.05,51.82],[-7.01,52.05],[-6.67,52.13],[-6.37,51.98],[-6.03,52.05],[-5.99,52.28],[-5.65,52.35],[-5.61,52.58],[-5.91,52.73],[-5.87,52.95],[-5.52,53.02],[-5.48,53.25],[-5.78,53.4],[-5.74,53.62],[-6.05,53.77],[-6.01,53.99],[-5.66,54.06],[-5.62,54.28],[-5.26,54.35],[-4.95,54.2],[-5.0,53.98],[-4.7,53.83],[-4.74,53.61],[-5.09,53.54],[-5.13,53.32],[-4.83,53.17],[-4.88,52.94],[-5.22,52.87],[-5.26,52.65],[-4.97,52.5],[-5.01,52.28],[-5.35,52.2],[-5.39,51.98],[-5.73,51.9],[-5.77,51.68],[-5.48,51.53],[-5.14,51.6],[-4.85,51.45],[-4.89,51.22],[-4.6,51.07],[-4.64,50.84],[-4.98,50.77],[-5.27,50.92],[-5.6,50.85],[-5.64,50.62],[-5.97,50.54],[-6.01,50.31],[-6.34,50.23],[-6.38,50.0],[-6.7,49.92],[-6.74,49.69],[-6.45,49.54],[-6.12,49.62],[-6.09,49.85],[-5.76,49.93],[-5.47,49.78],[-5.14,49.86],[-4.86,49.7],[-4.53,49.78],[-4.49,50.01],[-4.16,50.08],[-3.88,49.93],[-3.56,50.0],[-3.51,50.23],[-3.18,50.3],[-3.13,50.52],[-2.81,50.59],[-2.53,50.44],[-2.2,50.5],[-1.93,50.35],[-1.61,50.41],[-1.34,50.25],[-1.01,50.32],[-0.96,50.54],[-0.63,50.6],[-0.37,50.44],[-0.42,50.22],[-0.16,50.06],[-0.22,49.84],[-0.54,49.77],[-0.59,49.55],[-0.91,49.49],[-1.18,49.65],[-1.12,49.87],[-1.39,50.03],[-1.71,49.96],[-1.98,50.12],[-2.31,50.05],[-2.36,49.83],[-2.68,49.76],[-2.73,49.53],[-3.05,49.46],[-3.1,49.23],[-3.42,49.16],[-3.47,48.93],[-3.79,48.86],[-4.06,49.01],[-4.39,48.94],[-4.43,48.71],[-4.75,48.63],[-5.03,48.78],[-5.35,48.7],[-5.39,48.47],[-5.11,48.32],[-5.15,48.09],[-4.87,47.93],[-4.91,47.7],[-4.64,47.55],[-4.33,47.63],[-4.06,47.47],[-3.74,47.55],[-3.47,47.39],[-3.52,47.16],[-3.25,47.0],[-2.94,47.08],[-2.68,46.92],[-2.73,46.69],[-2.47,46.53],[-2.16,46.61],[-1.91,46.45],[-1.96,46.22],[-1.7,46.06],[-1.75,45.83],[-1.5,45.67],[-1.55,45.44],[-1.3,45.28],[-1.35,45.05],[-1.65,44.97],[-1.7,44.74],[-1.45,44.58],[-1.5,44.35],[-1.8,44.27],[-1.85,44.04],[-1.6,43.88],[-1.65,43.64],[-1.94,43.57],[-2.19,43.72],[-2.48,43.64],[-2.73,43.8],[-3.02,43.72],[-3.28,43.88],[-3.57,43.79],[-3.82,43.95],[-4.12,43.86],[-4.16,43.63],[-4.46,43.54],[-4.72,43.69],[-5.01,43.61],[-5.27,43.76],[-5.57,43.67],[-5.83,43.82],[-6.13,43.73],[-6.39,43.88],[-6.69,43.79],[-6.96,43.94],[-7.26,43.85],[-7.53,44.0],[-7.83,43.9],[-8.1,44.05],[-8.4,43.95],[-8.43,43.71],[-8.73,43.61],[-9.0,43.76],[-9.3,43.66],[-9.33,43.42],[-9.63,43.32],[-9.65,43.07],[-9.38,42.93],[-9.4,42.68],[-9.13,42.54],[-9.15,42.29],[-8.88,42.14],[-8.91,41.9],[-9.2,41.8],[-9.22,41.55],[-8.96,41.41],[-8.98,41.16],[-8.72,41.01],[-8.74,40.77],[-9.03,40.67],[-9.06,40.42],[-9.34,40.31],[-9.36,40.07],[-9.1,39.92],[-9.13,39.67],[-9.41,39.57],[-9.67,39.71],[-9.96,39.61],[-9.98,39.36],[-9.72,39.21],[-9.74,38.97],[-9.48,38.82],[-9.5,38.57],[-9.24,38.43],[-9.26,38.18],[-9.01,38.04],[-9.03,37.79],[-8.78,37.65],[-8.5,37.75],[-8.48,38.0],[-8.73,38.14],[-8.71,38.39],[-8.43,38.5],[-8.17,38.35],[-7.9,38.46],[-7.64,38.31],[-7.37,38.41],[-7.12,38.26],[-7.15,38.02],[-6.9,37.87],[-6.62,37.97],[-6.38,37.82],[-6.1,37.92],[-6.07,38.17],[-5.79,38.27],[-5.55,38.12],[-5.27,38.21],[-5.03,38.06],[-4.76,38.16],[-4.72,38.4],[-4.45,38.5],[-4.21,38.35],[-3.93,38.44],[-3.7,38.29],[-3.42,38.38],[-3.19,38.23],[-2.92,38.31],[-2.69,38.16],[-2.73,37.92],[-2.5,37.77],[-2.23,37.86],[-2.18,38.1],[-2.41,38.25],[-2.37,38.49],[-2.1,38.58],[-2.05,38.82],[-1.78,38.9],[-1.55,38.75],[-1.28,38.83],[-1.23,39.07],[-0.96,39.15],[-0.91,39.39],[-0.64,39.47],[-0.41,39.32],[-0.14,39.4],[-0.09,39.63],[0.18,39.71],[0.24,39.95],[0.51,40.02],[0.56,40.26],[0.84,40.34],[0.89,40.57],[1.17,40.66],[1.23,40.9],[1.51,40.99],[1.74,40.85],[2.02,40.94],[2.08,41.17],[2.36,41.26],[2.42,41.49],[2.71,41.58],[2.94,41.44],[3.23,41.53],[3.29,41.76],[3.59,41.85],[3.65,42.08],[3.42,42.23],[3.48,42.46],[3.25,42.6],[3.31,42.84],[3.61,42.93],[3.67,43.16],[3.97,43.25],[4.21,43.1],[4.51,43.19],[4.74,43.04],[5.04,43.13],[5.28,42.98],[5.58,43.06],[5.82,42.92],[6.12,43.0],[6.35,42.85],[6.66,42.93],[6.74,43.16],[7.05,43.24],[7.12,43.48],[7.43,43.56],[7.67,43.4],[7.98,43.48],[8.06,43.71],[8.37,43.79],[8.46,44.02],[8.77,44.1],[9.01,43.94],[9.33,44.02],[9.56,43.86],[9.88,43.94],[10.12,43.78],[10.03,43.55],[10.26,43.39],[10.18,43.16],[9.86,43.08],[9.63,43.24],[9.31,43.17],[9.23,42.94],[8.91,42.86],[8.83,42.63],[8.52,42.55],[8.44,42.32],[8.67,42.16],[8.98,42.24],[9.21,42.08],[9.53,42.15],[9.61,42.38],[9.92,42.46],[10.15,42.3],[10.47,42.37],[10.55,42.6],[10.87,42.67],[11.1,42.51],[11.02,42.28],[11.24,42.11],[11.56,42.18],[11.79,42.02],[12.11,42.09],[12.34,41.92],[12.25,41.68],[12.47,41.52],[12.79,41.58],[12.88,41.82],[13.2,41.88],[13.43,41.71],[13.75,41.78],[13.97,41.6],[13.88,41.37],[14.1,41.2],[14.42,41.26],[14.65,41.09],[14.97,41.15],[15.19,40.97],[15.09,40.74],[15.31,40.56],[15.21,40.33],[15.43,40.15],[15.75,40.21],[15.97,40.03],[16.29,40.08],[16.39,40.32],[16.17,40.5],[16.27,40.73],[16.05,40.91],[15.73,40.85],[15.51,41.03],[15.61,41.26],[15.93,41.32],[16.15,41.14],[16.48,41.2],[16.7,41.02],[17.02,41.08],[17.13,41.31],[16.91,41.49],[16.58,41.43],[16.36,41.61],[16.46,41.84],[16.24,42.02],[15.91,41.96],[15.69,42.14],[15.36,42.08],[15.14,42.25],[14.81,42.19],[14.59,42.37],[14.69,42.6],[14.46,42.77],[14.13,42.71],[13.91,42.88],[14.0,43.11],[13.78,43.28],[13.87,43.51],[13.64,43.67],[13.74,43.9],[13.51,44.07],[13.18,44.01],[12.95,44.17],[13.04,44.4],[12.81,44.56],[12.9,44.79],[12.67,44.95],[12.77,45.18],[13.1,45.25],[13.33,45.08],[13.24,44.86],[13.47,44.69],[13.8,44.76],[14.04,44.59],[13.94,44.36],[14.17,44.2],[14.5,44.26],[14.73,44.09],[14.63,43.86],[14.86,43.69],[15.19,43.75],[15.42,43.58],[15.75,43.64],[15.98,43.47],[15.87,43.24],[15.54,43.18],[15.44,42.95],[15.67,42.78],[16.0,42.83],[16.22,42.66],[16.55,42.71],[16.78,42.54],[17.11,42.59],[17.33,42.42],[17.66,42.47],[17.88,42.29],[18.21,42.34],[18.43,42.16],[18.76,42.21],[18.98,42.03],[18.87,41.8],[19.09,41.62],[18.98,41.39],[19.19,41.2],[19.08,40.97],[19.3,40.79],[19.19,40.55],[19.4,40.37],[19.29,40.14],[19.51,39.95],[19.83,40.0],[20.04,39.81],[19.93,39.58],[20.14,39.39],[20.46,39.43],[20.67,39.25],[20.56,39.01],[20.77,38.82],[20.66,38.59],[20.87,38.4],[21.18,38.44],[21.39,38.25],[21.28,38.01],[21.48,37.82],[21.8,37.86],[22.0,37.67],[22.32,37.71],[22.44,37.94],[22.23,38.14],[22.35,38.37],[22.67,38.41],[22.78,38.64],[23.11,38.68],[23.31,38.49],[23.63,38.52],[23.83,38.33],[23.71,38.1],[23.91,37.9],[24.23,37.94],[24.35,38.17],[24.15,38.36],[24.27,38.6],[24.07,38.79],[23.75,38.76],[23.55,38.95],[23.66,39.18],[23.46,39.38],[23.14,39.34],[22.93,39.53],[23.05,39.76],[22.85,39.96],[22.96,40.19],[23.29,40.22],[23.5,40.03],[23.82,40.07],[24.03,39.87],[24.35,39.91],[24.48,40.14],[24.27,40.33],[24.39,40.56],[24.72,40.59],[24.85,40.82],[25.18,40.85],[25.38,40.66],[25.25,40.43],[25.46,40.23],[25.33,40.01],[25.0,39.97],[24.88,39.75],[25.08,39.55],[25.41,39.58],[25.53,39.81],[25.86,39.84],[26.06,39.64],[25.93,39.41],[26.13,39.21],[26.0,38.99],[26.2,38.79],[26.07,38.56],[26.27,38.36],[26.59,38.39],[26.72,38.62],[27.04,38.64],[27.16,38.87],[26.97,39.07],[27.1,39.3],[27.42,39.32],[27.55,39.55],[27.87,39.57],[28.01,39.8],[27.81,40.0],[27.94,40.22],[28.27,40.25],[28.46,40.05],[28.33,39.82],[28.52,39.62],[28.39,39.4],[28.07,39.37],[27.94,39.15],[28.13,38.95],[28.45,38.97],[28.64,38.77],[28.96,38.79],[29.15,38.59],[29.02,38.36],[29.21,38.16],[29.53,38.18],[29.71,37.97],[29.58,37.75],[29.27,37.72],[29.14,37.5],[28.82,37.48],[28.69,37.25],[28.88,37.04],[29.19,37.07],[29.38,36.86],[29.25,36.63],[29.43,36.43],[29.74,36.45],[29.87,36.68],[30.19,36.7],[30.32,36.92],[30.14,37.13],[30.27,37.35],[30.58,37.37],[30.72,37.6],[31.03,37.61],[31.21,37.41],[31.53,37.42],[31.71,37.21],[32.02,37.23],[32.2,37.02],[32.06,36.8],[32.24,36.59],[32.55,36.6],[32.68,36.82],[32.51,37.03],[32.64,37.26],[32.47,37.46],[32.6,37.69],[32.43,37.89],[32.56,38.12],[32.39,38.32],[32.07,38.31],[31.89,38.52],[32.03,38.74],[31.84,38.95],[31.98,39.17],[31.8,39.37],[31.94,39.59],[32.26,39.61],[32.44,39.4],[32.3,39.18],[32.48,38.97],[32.8,38.98],[32.94,39.2],[33.26,39.21],[33.4,39.43],[33.22,39.64],[33.36,39.85],[33.68,39.86],[33.82,40.08],[33.65,40.29],[33.79,40.5],[34.11,40.51],[34.26,40.72],[34.58,40.73],[34.75,40.52],[34.61,40.3],[34.29,40.3],[34.15,40.08],[34.32,39.88],[34.64,39.88],[34.81,39.67],[35.13,39.68],[35.3,39.47],[35.16,39.25],[35.33,39.04],[35.19,38.83],[35.36,38.62],[35.22,38.4],[34.9,38.4],[34.73,38.61],[34.42,38.6],[34.28,38.38],[34.45,38.17],[34.31,37.96],[34.48,37.75],[34.34,37.53],[34.03,37.52],[33.89,37.3],[33.58,37.29],[33.44,37.07],[33.61,36.86],[33.92,36.87],[34.06,37.09],[34.37,37.1],[34.51,37.32],[34.82,37.32],[34.96,37.54],[35.27,37.55],[35.41,37.76],[35.72,37.77],[35.87,37.98],[36.18,37.99],[36.34,37.77],[36.65,37.78],[36.79,37.99],[36.63,38.2],[36.77,38.42],[37.08,38.42],[37.25,38.2],[37.1,37.99],[37.27,37.78],[37.57,37.78],[37.72,37.99],[38.02,37.99],[38.17,38.2],[38.01,38.41],[38.16,38.62],[38.0,38.83],[38.14,39.04],[38.45,39.04],[38.6,39.25],[38.91,39.24],[39.07,39.03],[39.38,39.02],[39.53,38.81],[39.84,38.8],[39.99,38.59],[40.3,38.58],[40.45,38.79],[40.75,38.78],[40.9,38.56],[41.2,38.55],[41.35,38.34],[41.65,38.33],[41.8,38.11],[42.1,38.1],[42.24,37.88],[42.54,37.87],[42.68,37.65],[42.98,37.64],[43.12,37.42],[43.41,37.41],[43.55,37.19],[43.84,37.18],[43.99,37.38],[44.28,37.36],[44.42,37.15],[44.7,37.13],[44.84,36.91],[44.69,36.71],[44.82,36.5],[45.11,36.48],[45.26,36.68],[45.13,36.89],[45.28,37.09],[45.14,37.31],[45.3,37.5],[45.16,37.72],[45.31,37.92],[45.18,38.13],[45.34,38.33],[45.63,38.3],[45.76,38.08],[46.05,38.06],[46.19,37.84],[46.03,37.65],[46.16,37.43],[46.45,37.4],[46.58,37.19],[46.42,37.0],[46.55,36.78],[46.84,36.75],[46.96,36.53],[46.8,36.34],[46.93,36.13],[47.22,36.1],[47.38,36.28],[47.66,36.25],[47.83,36.44],[48.11,36.4],[48.24,36.18],[48.53,36.15],[48.65,35.93],[48.93,35.89],[49.1,36.08],[48.98,36.3],[49.15,36.49],[49.03,36.71],[48.74,36.75],[48.61,36.97],[48.78,37.15],[48.66,37.38],[48.83,37.57],[48.71,37.79],[48.88,37.98],[48.75,38.2],[48.45,38.23],[48.33,38.46],[48.5,38.65],[48.37,38.87],[48.07,38.9],[47.94,39.12],[47.64,39.15],[47.47,38.96],[47.17,38.99],[47.04,39.21],[47.21,39.4],[47.07,39.63],[46.77,39.65],[46.64,39.87],[46.8,40.07],[46.67,40.29],[46.84,40.48],[46.7,40.7],[46.87,40.9],[47.18,40.87],[47.32,40.65],[47.63,40.63],[47.8,40.82],[48.11,40.79],[48.24,40.57],[48.55,40.54],[48.73,40.73],[49.05,40.7],[49.23,40.9],[49.1,41.12],[48.78,41.15],[48.65,41.38],[48.83,41.57],[48.7,41.8],[48.38,41.83],[48.25,42.05],[47.93,42.08],[47.79,42.3],[47.97,42.5],[47.83,42.73],[47.51,42.75],[47.37,42.98],[47.05,43.0],[46.91,43.22],[46.59,43.24],[46.44,43.47],[46.12,43.49],[45.95,43.29],[45.63,43.31],[45.48,43.52],[45.16,43.54],[45.01,43.76],[44.69,43.78],[44.54,43.99],[44.71,44.2],[44.56,44.41],[44.23,44.43],[44.06,44.23],[43.74,44.24],[43.59,44.45],[43.75,44.66],[43.6,44.87],[43.77,45.08],[43.61,45.29],[43.28,45.3],[43.12,45.52],[42.8,45.53],[42.63,45.32],[42.31,45.33],[42.15,45.54],[41.82,45.55],[41.66,45.34],[41.34,45.34],[41.19,45.14],[40.87,45.14],[40.7,45.35],[40.38,45.35],[40.22,45.56],[40.37,45.77],[40.2,45.97],[40.35,46.18],[40.68,46.18],[40.83,46.39],[41.16,46.39],[41.33,46.18],[41.65,46.17],[41.82,46.38],[42.15,46.38],[42.31,46.58],[42.14,46.79],[42.31,47.0],[42.65,47.0],[42.82,47.2],[43.15,47.2],[43.33,47.4],[43.67,47.4],[43.84,47.6],[44.19,47.59],[44.37,47.8],[44.71,47.79],[44.88,47.57],[45.22,47.56],[45.41,47.77],[45.25,47.99],[45.43,48.19],[45.78,48.18],[45.98,48.39],[46.33,48.37],[46.52,48.58],[46.88,48.56],[47.08,48.77],[46.92,48.99],[47.12,49.19],[47.48,49.18],[47.69,49.38],[48.05,49.36],[48.26,49.57],[48.63,49.55],[48.84,49.75],[49.21,49.73],[49.43,49.93],[49.8,49.91],[50.02,50.11],[50.39,50.09],[50.54,49.86],[50.92,49.83],[51.14,50.03],[51.52,50.0],[51.75,50.2],[52.12,50.17],[52.36,50.37],[52.74,50.34],[52.88,50.11],[53.26,50.07],[53.5,50.27],[53.88,50.23],[54.01,50.0],[54.39,49.96],[54.64,50.16],[55.02,50.12],[55.27,50.31],[55.65,50.27],[55.78,50.03],[56.16,49.99],[56.29,49.75],[56.66,49.7],[56.79,49.46],[57.16,49.42]],[[32.11,45.64],[32.31,45.44],[32.16,45.24],[32.35,45.04],[32.7,45.05],[32.89,44.85],[32.74,44.64],[32.93,44.44],[33.27,44.44],[33.46,44.24],[33.79,44.25],[33.98,44.04],[34.31,44.05],[34.46,44.25],[34.8,44.25],[34.95,44.46],[35.29,44.46],[35.44,44.66],[35.78,44.66],[35.93,44.86],[36.27,44.86],[36.42,45.06],[36.76,45.05],[36.93,44.85],[37.27,44.84],[37.44,44.64],[37.78,44.63],[37.95,44.42],[37.79,44.23],[37.96,44.02],[38.29,44.01],[38.45,44.21],[38.78,44.2],[38.95,43.99],[38.79,43.79],[38.96,43.58],[39.28,43.57],[39.45,43.37],[39.77,43.35],[39.93,43.14],[40.25,43.13],[40.41,42.92],[40.73,42.91],[40.89,42.7],[41.21,42.68],[41.36,42.47],[41.21,42.27],[41.36,42.06],[41.21,41.87],[41.36,41.65],[41.21,41.46],[40.9,41.47],[40.74,41.27],[40.43,41.28],[40.27,41.08],[39.96,41.09],[39.8,41.3],[39.49,41.31],[39.33,41.11],[39.02,41.12],[38.87,40.92],[38.55,40.92],[38.39,41.13],[38.07,41.14],[37.9,41.35],[37.59,41.35],[37.44,41.15],[37.6,40.94],[37.45,40.73],[37.14,40.73],[36.97,40.94],[36.65,40.95],[36.48,41.16],[36.63,41.36],[36.45,41.57],[36.13,41.57],[35.96,41.78],[35.64,41.78],[35.46,41.99],[35.61,42.2],[35.43,42.4],[35.1,42.4],[34.96,42.19],[34.63,42.19],[34.48,41.98],[34.15,41.98],[33.97,42.18],[33.64,42.18],[33.46,42.38],[33.13,42.38],[32.99,42.16],[32.66,42.15],[32.51,41.94],[32.18,41.93],[32.04,41.72],[31.71,41.71],[31.57,41.49],[31.24,41.48],[31.1,41.26],[30.77,41.24],[30.58,41.45],[30.26,41.43],[30.12,41.21],[30.31,41.01],[30.64,41.03],[30.83,40.82],[30.69,40.6],[30.36,40.59],[30.17,40.79],[29.84,40.77],[29.65,40.98],[29.79,41.2],[29.6,41.4],[29.27,41.38],[29.07,41.58],[28.74,41.56],[28.54,41.76],[28.68,41.98],[28.48,42.18],[28.15,42.15],[27.95,42.35],[28.08,42.57],[27.88,42.77],[28.02,42.99],[28.36,43.01],[28.49,43.23],[28.83,43.25],[28.97,43.46],[28.77,43.66],[28.91,43.88],[28.71,44.07],[28.85,44.29],[29.19,44.3],[29.39,44.11],[29.73,44.12],[29.87,44.34],[30.21,44.35],[30.41,44.16],[30.75,44.17],[30.89,44.38],[31.23,44.39],[31.38,44.6],[31.18,44.8],[31.33,45.01],[31.67,45.02],[31.82,45.23],[31.62,45.43],[31.77,45.63],[31.57,45.83],[31.72,46.04],[32.07,46.04],[32.26,45.85],[32.11,45.64]],[[-6.25,52.65],[-6.29,52.43],[-6.63,52.35],[-6.94,52.5],[-7.28,52.42],[-7.32,52.2],[-7.66,52.12],[-7.97,52.26],[-8.31,52.18],[-8.34,51.95],[-8.68,51.87],[-8.71,51.64],[-9.05,51.55],[-9.36,51.7],[-9.7,51.61],[-10.02,51.75],[-9.99,51.98],[-9.65,52.07],[-9.62,52.3],[-9.94,52.44],[-9.92,52.67],[-9.57,52.75],[-9.25,52.61],[-8.91,52.69],[-8.88,52.92],[-9.2,53.06],[-9.17,53.29],[-9.49,53.43],[-9.46,53.66],[-9.79,53.8],[-9.76,54.02],[-9.4,54.1],[-9.08,53.96],[-8.73,54.04],[-8.69,54.27],[-8.34,54.35],[-8.31,54.57],[-8.63,54.71],[-8.6,54.93],[-8.24,55.01],[-8.21,55.23],[-7.85,55.3],[-7.52,55.16],[-7.16,55.23],[-6.84,55.09],[-6.48,55.16],[-6.16,55.01],[-6.2,54.79],[-5.88,54.65],[-5.93,54.43],[-6.28,54.36],[-6.32,54.14],[-6.67,54.06],[-6.71,53.84],[-6.4,53.69],[-6.44,53.47],[-6.13,53.32],[-6.17,53.1],[-6.52,53.03],[-6.56,52.8],[-6.25,52.65]],[[17.3,58.42],[17.43,58.61],[17.85,58.65],[18.13,58.51],[18.54,58.56],[18.68,58.74],[19.1,58.78],[19.25,58.97],[18.97,59.11],[19.11,59.29],[19.53,59.33],[19.68,59.51],[20.1,59.55],[20.25,59.72],[20.68,59.76],[20.96,59.62],[21.39,59.65],[21.66,59.51],[22.09,59.54],[22.37,59.4],[22.21,59.22],[21.79,59.19],[21.64,59.01],[21.91,58.86],[21.76,58.69],[21.33,58.65],[21.19,58.47],[21.46,58.32],[21.31,58.14],[21.58,57.99],[21.43,57.81],[21.7,57.66],[21.55,57.48],[21.14,57.44],[20.87,57.59],[20.46,57.55],[20.32,57.37],[19.91,57.33],[19.64,57.47],[19.23,57.43],[18.95,57.58],[19.09,57.76],[19.51,57.81],[19.65,57.99],[19.37,58.13],[19.51,58.32],[19.24,58.46],[18.82,58.42],[18.68,58.23],[18.27,58.19],[18.13,58.0],[18.41,57.86],[18.27,57.68],[17.86,57.63],[17.73,57.44],[17.32,57.39],[17.04,57.53],[17.18,57.72],[16.9,57.86],[17.03,58.05],[17.44,58.1],[17.58,58.28],[17.3,58.42]],[[35.32,46.27],[35.67,46.27],[35.82,46.47],[36.17,46.46],[36.32,46.66],[36.67,46.65],[36.85,46.45],[37.19,46.45],[37.35,46.64],[37.69,46.63],[37.87,46.43],[37.71,46.23],[37.88,46.03],[37.72,45.84],[37.39,45.84],[37.23,45.65],[36.89,45.65],[36.71,45.86],[36.37,45.86],[36.22,45.66],[35.88,45.67],[35.72,45.47],[35.38,45.47],[35.2,45.67],[35.35,45.87],[35.17,46.07],[35.32,46.27]],[[22.08,39.65],[22.4,39.69],[22.61,39.5],[22.49,39.26],[22.17,39.22],[21.96,39.42],[22.08,39.65]],[[25.77,59.92],[25.67,59.7],[25.3,59.64],[25.03,59.79],[25.13,60.01],[25.5,60.07],[25.77,59.92]],[[47.49,37.51],[47.78,37.47],[47.91,37.25],[48.2,37.22],[48.32,37.0],[48.16,36.81],[47.87,36.85],[47.74,37.07],[47.45,37.1],[47.32,37.32],[47.49,37.51]],[[-4.72,55.28],[-4.41,55.13],[-4.46,54.92],[-4.82,54.85],[-5.13,55.0],[-5.08,55.22],[-4.72,55.28]],[[-3.95,54.18],[-3.65,54.03],[-3.7,53.81],[-3.4,53.65],[-3.45,53.44],[-3.8,53.37],[-4.09,53.52],[-4.04,53.74],[-4.35,53.9],[-4.3,54.11],[-3.95,54.18]],[[28.34,40.89],[28.67,40.92],[28.86,40.72],[28.73,40.49],[28.4,40.47],[28.21,40.67],[28.34,40.89]],[[26.91,60.1],[26.8,59.88],[26.42,59.82],[26.15,59.98],[26.26,60.2],[26.64,60.26],[26.91,60.1]],[[11.18,56.85],[11.07,56.65],[10.69,56.58],[10.4,56.71],[10.51,56.91],[10.9,56.98],[11.01,57.17],[11.4,57.24],[11.68,57.11],[11.57,56.92],[11.18,56.85]],[[12.02,56.46],[11.74,56.59],[11.85,56.79],[12.24,56.85],[12.52,56.72],[12.41,56.53],[12.02,56.46]],[[15.06,41.38],[14.84,41.55],[14.94,41.79],[15.26,41.85],[15.49,41.67],[15.39,41.44],[15.06,41.38]],[[-2.51,49.15],[-2.24,48.99],[-2.29,48.76],[-2.61,48.69],[-2.88,48.85],[-2.83,49.08],[-2.51,49.15]]],[[[-2.36,37.14],[-2.31,37.38],[-2.54,37.53],[-2.81,37.44],[-3.04,37.59],[-3.31,37.5],[-3.54,37.65],[-3.81,37.56],[-3.85,37.32],[-4.12,37.22],[-4.36,37.37],[-4.63,37.28],[-4.67,37.03],[-4.43,36.88],[-4.16,36.98],[-3.93,36.83],[-3.66,36.92],[-3.43,36.77],[-3.16,36.86],[-2.93,36.71],[-2.67,36.8],[-2.62,37.05],[-2.36,37.14]]],[[[74.79,34.68],[74.76,34.93],[74.48,35.03],[74.45,35.28],[74.7,35.42],[74.98,35.32],[75.24,35.47],[75.52,35.37],[75.54,35.12],[75.82,35.02],[76.08,35.16],[76.05,35.41],[75.77,35.51],[75.74,35.76],[75.46,35.86],[75.21,35.72],[74.92,35.82],[74.89,36.07],[74.61,36.17],[74.57,36.42],[74.29,36.52],[74.03,36.37],[73.74,36.47],[73.49,36.32],[73.52,36.07],[73.27,35.92],[73.31,35.67],[73.06,35.52],[72.77,35.62],[72.52,35.47],[72.24,35.56],[72.2,35.81],[72.45,35.96],[72.41,36.21],[72.66,36.36],[72.62,36.61],[72.32,36.71],[72.07,36.56],[72.11,36.31],[71.86,36.15],[71.57,36.25],[71.33,36.09],[71.37,35.85],[71.12,35.69],[71.17,35.45],[71.46,35.35],[71.7,35.51],[71.99,35.41],[72.03,35.17],[72.32,35.07],[72.56,35.22],[72.85,35.13],[73.1,35.28],[73.38,35.18],[73.42,34.93],[73.7,34.83],[73.73,34.59],[74.02,34.49],[74.26,34.64],[74.54,34.54],[74.79,34.68]],[[74.17,35.38],[73.91,35.23],[73.63,35.33],[73.6,35.58],[73.85,35.72],[74.13,35.63],[74.17,35.38]]],[[[20.17,-34.75],[20.45,-34.74],[20.57,-34.55],[20.4,-34.36],[20.12,-34.37],[20.0,-34.57],[20.17,-34.75]]],[[[57.31,38.01],[57.21,38.25],[56.9,38.31],[56.69,38.12],[56.79,37.89],[57.1,37.83],[57.2,37.59],[56.99,37.41],[57.09,37.18],[57.39,37.12],[57.49,36.88],[57.79,36.83],[58.0,37.0],[57.91,37.24],[57.6,37.3],[57.5,37.54],[57.71,37.72],[58.02,37.66],[58.11,37.42],[58.42,37.36],[58.51,37.12],[58.82,37.06],[58.91,36.82],[59.21,36.76],[59.42,36.94],[59.33,37.18],[59.03,37.24],[58.94,37.48],[58.63,37.54],[58.54,37.78],[58.23,37.84],[58.13,38.08],[57.83,38.13],[57.62,37.95],[57.31,38.01]]],[[[115.6,-32.0],[115.72,-32.18],[115.57,-32.34],[115.69,-32.52],[115.54,-32.68],[115.65,-32.87],[115.5,-33.02],[115.62,-33.21],[115.47,-33.37],[115.2,-33.34],[115.05,-33.5],[114.78,-33.47],[114.62,-33.63],[114.74,-33.82],[114.58,-33.98],[114.7,-34.17],[114.97,-34.2],[115.13,-34.04],[115.01,-33.85],[115.16,-33.69],[115.44,-33.72],[115.59,-33.56],[115.86,-33.58],[116.01,-33.42],[115.89,-33.23],[116.04,-33.08],[115.92,-32.89],[116.07,-32.73],[115.95,-32.55],[116.1,-32.39],[115.98,-32.21],[116.13,-32.05],[116.01,-31.87],[115.75,-31.85],[115.6,-32.0]]],[[[-6.68,37.48],[-6.93,37.62],[-7.2,37.52],[-7.23,37.28],[-6.99,37.13],[-6.71,37.23],[-6.68,37.48]]],[[[70.2,37.61],[70.5,37.52],[70.55,37.27],[70.85,37.18],[70.89,36.93],[70.65,36.78],[70.35,36.87],[70.1,36.71],[70.15,36.46],[69.91,36.3],[69.61,36.39],[69.37,36.24],[69.42,35.99],[69.18,35.83],[69.23,35.58],[68.99,35.43],[68.7,35.51],[68.46,35.35],[68.17,35.44],[68.11,35.68],[67.82,35.77],[67.58,35.61],[67.29,35.69],[67.06,35.53],[66.76,35.61],[66.7,35.86],[66.4,35.94],[66.17,35.77],[65.87,35.85],[65.64,35.69],[65.35,35.77],[65.12,35.6],[64.82,35.68],[64.6,35.51],[64.67,35.27],[64.44,35.11],[64.51,34.86],[64.29,34.7],[64.0,34.77],[63.77,34.61],[63.85,34.37],[63.63,34.2],[63.7,33.96],[63.48,33.8],[63.19,33.87],[63.12,34.11],[62.83,34.18],[62.61,34.01],[62.69,33.77],[62.98,33.7],[63.05,33.46],[63.34,33.39],[63.55,33.56],[63.84,33.48],[64.06,33.65],[64.34,33.57],[64.41,33.33],[64.19,33.17],[64.26,32.93],[64.55,32.86],[64.76,33.02],[64.7,33.26],[64.92,33.42],[65.2,33.34],[65.42,33.51],[65.36,33.75],[65.58,33.91],[65.87,33.83],[65.93,33.59],[66.22,33.51],[66.44,33.67],[66.73,33.59],[66.79,33.35],[66.56,33.19],[66.62,32.95],[66.4,32.79],[66.46,32.55],[66.74,32.47],[66.96,32.63],[66.91,32.87],[67.13,33.03],[67.41,32.95],[67.64,33.1],[67.92,33.02],[68.15,33.18],[68.09,33.42],[68.32,33.58],[68.61,33.49],[68.84,33.65],[68.79,33.89],[68.5,33.98],[68.45,34.22],[68.68,34.38],[68.97,34.29],[69.2,34.45],[69.15,34.69],[68.86,34.78],[68.81,35.02],[69.04,35.18],[69.34,35.09],[69.57,35.25],[69.86,35.16],[69.91,34.92],[70.2,34.83],[70.44,34.98],[70.73,34.89],[70.97,35.05],[70.92,35.29],[70.64,35.38],[70.59,35.63],[70.3,35.72],[70.25,35.97],[70.49,36.12],[70.79,36.03],[71.03,36.19],[70.99,36.43],[71.24,36.59],[71.53,36.5],[71.78,36.65],[71.74,36.9],[71.44,36.99],[71.4,37.24],[71.65,37.4],[71.6,37.65],[71.86,37.8],[71.81,38.05],[72.07,38.21],[72.03,38.46],[71.73,38.56],[71.47,38.4],[71.17,38.49],[71.12,38.74],[71.38,38.9],[71.33,39.15],[71.59,39.31],[71.9,39.21],[72.16,39.37],[72.46,39.27],[72.73,39.43],[72.69,39.68],[72.95,39.83],[73.26,39.73],[73.53,39.89],[73.83,39.78],[73.87,39.53],[74.17,39.43],[74.44,39.58],[74.74,39.48],[74.78,39.22],[75.08,39.12],[75.11,38.87],[75.4,38.76],[75.43,38.51],[75.73,38.41],[75.76,38.15],[76.05,38.05],[76.08,37.8],[76.37,37.69],[76.39,37.44],[76.68,37.33],[76.7,37.08],[76.99,36.98],[77.25,37.12],[77.54,37.01],[77.8,37.15],[77.78,37.4],[77.5,37.51],[77.23,37.37],[76.95,37.48],[76.92,37.73],[76.63,37.84],[76.61,38.09],[76.88,38.23],[76.85,38.48],[76.56,38.59],[76.29,38.45],[76.0,38.55],[75.97,38.8],[75.67,38.91],[75.64,39.16],[75.34,39.27],[75.31,39.52],[75.59,39.67],[75.89,39.56],[76.16,39.71],[76.13,39.96],[76.41,40.11],[76.71,40.0],[76.98,40.14],[77.28,40.03],[77.56,40.18],[77.86,40.06],[78.14,40.21],[78.43,40.09],[78.71,40.23],[78.7,40.49],[78.98,40.63],[79.28,40.51],[79.56,40.65],[79.55,40.9],[79.25,41.02],[79.23,41.27],[79.52,41.41],[79.82,41.29],[80.11,41.43],[80.41,41.31],[80.69,41.45],[80.69,41.7],[80.39,41.82],[80.1,41.69],[79.8,41.8],[79.51,41.67],[79.21,41.78],[78.92,41.64],[78.93,41.39],[78.65,41.25],[78.35,41.36],[78.06,41.22],[78.08,40.97],[77.8,40.83],[77.5,40.94],[77.22,40.8],[77.24,40.54],[76.96,40.4],[76.66,40.51],[76.38,40.36],[76.08,40.47],[75.8,40.32],[75.5,40.43],[75.22,40.28],[75.25,40.03],[74.98,39.88],[74.68,39.98],[74.64,40.24],[74.34,40.34],[74.3,40.59],[74.58,40.74],[74.88,40.64],[75.16,40.79],[75.47,40.68],[75.74,40.83],[75.71,41.09],[75.99,41.23],[76.3,41.12],[76.58,41.27],[76.55,41.52],[76.25,41.63],[76.22,41.89],[76.5,42.03],[76.81,41.92],[77.1,42.07],[77.41,41.96],[77.69,42.1],[78.0,41.99],[78.29,42.13],[78.27,42.38],[78.56,42.52],[78.87,42.41],[79.16,42.55],[79.15,42.8],[79.44,42.94],[79.75,42.82],[79.76,42.57],[80.06,42.45],[80.36,42.59],[80.66,42.47],[80.96,42.6],[80.95,42.85],[81.25,42.99],[81.24,43.24],[81.54,43.38],[81.53,43.63],[81.23,43.75],[80.93,43.62],[80.62,43.74],[80.32,43.61],[80.01,43.73],[79.71,43.59],[79.72,43.33],[79.43,43.2],[79.11,43.31],[78.82,43.18],[78.51,43.29],[78.49,43.55],[78.17,43.66],[77.88,43.52],[77.56,43.63],[77.27,43.49],[76.95,43.6],[76.66,43.46],[76.34,43.57],[76.05,43.42],[75.73,43.53],[75.44,43.38],[75.12,43.49],[75.08,43.75],[75.37,43.89],[75.34,44.15],[75.01,44.26],[74.72,44.11],[74.76,43.85],[74.47,43.7],[74.5,43.44],[74.83,43.34],[74.86,43.08],[74.58,42.93],[74.26,43.04],[73.97,42.89],[73.65,42.99],[73.37,42.84],[73.04,42.94],[72.76,42.78],[72.44,42.88],[72.4,43.14],[72.07,43.23],[71.79,43.08],[71.84,42.82],[71.56,42.66],[71.24,42.76],[70.96,42.6],[70.64,42.69],[70.58,42.95],[70.25,43.04],[69.98,42.88],[70.04,42.63],[70.36,42.53],[70.42,42.28],[70.15,42.12],[69.82,42.21],[69.55,42.05],[69.61,41.8],[69.93,41.7],[69.99,41.45],[69.72,41.29],[69.78,41.04],[70.09,40.95],[70.36,41.11],[70.68,41.01],[70.94,41.17],[71.26,41.08],[71.53,41.24],[71.48,41.49],[71.75,41.65],[72.07,41.55],[72.12,41.3],[72.43,41.2],[72.7,41.35],[73.02,41.25],[73.06,41.0],[73.37,40.9],[73.41,40.65],[73.14,40.49],[72.83,40.59],[72.56,40.44],[72.6,40.18],[72.34,40.03],[72.03,40.13],[71.76,39.97],[71.45,40.07],[71.19,39.91],[70.88,40.0],[70.62,39.84],[70.3,39.94],[70.04,39.78],[69.73,39.87],[69.48,39.71],[69.16,39.8],[68.91,39.63],[68.59,39.72],[68.34,39.56],[68.03,39.64],[67.78,39.48],[67.84,39.23],[67.59,39.07],[67.28,39.15],[67.03,38.98],[67.09,38.74],[66.85,38.57],[66.91,38.32],[67.22,38.24],[67.46,38.4],[67.4,38.65],[67.65,38.82],[67.96,38.73],[68.21,38.89],[68.52,38.81],[68.77,38.97],[69.08,38.88],[69.13,38.63],[69.44,38.54],[69.69,38.7],[70.0,38.61],[70.05,38.36],[70.35,38.27],[70.4,38.02],[70.15,37.86],[70.2,37.61]],[[77.03,42.84],[77.0,43.09],[77.29,43.24],[77.61,43.12],[77.9,43.27],[78.21,43.15],[78.23,42.9],[77.94,42.75],[77.63,42.87],[77.34,42.72],[77.03,42.84]],[[74.36,42.27],[74.33,42.53],[74.61,42.68],[74.93,42.57],[74.96,42.32],[74.68,42.17],[74.36,42.27]]],[[[36.97,34.12],[36.81,34.34],[36.51,34.33],[36.35,34.55],[36.06,34.54],[35.92,34.32],[36.08,34.11],[35.94,33.89],[35.64,33.88],[35.51,33.66],[35.67,33.44],[35.96,33.45],[36.1,33.67],[36.4,33.68],[36.53,33.9],[36.83,33.9],[36.97,34.12]]],[[[95.24,56.98],[95.32,57.22],[94.98,57.38],[94.57,57.3],[94.5,57.07],[94.84,56.91],[95.24,56.98]]],[[[82.11,47.22],[82.44,47.09],[82.76,47.22],[82.76,47.47],[82.43,47.6],[82.11,47.47],[81.78,47.6],[81.46,47.47],[81.47,47.21],[81.79,47.09],[82.11,47.22]]],[[[33.86,39.65],[33.72,39.44],[33.89,39.23],[34.21,39.24],[34.35,39.45],[34.18,39.66],[33.86,39.65]]],[[[36.68,65.18],[36.18,65.14],[35.89,65.31],[35.39,65.27],[35.1,65.44],[35.3,65.65],[35.01,65.81],[35.21,66.03],[34.91,66.19],[34.4,66.14],[34.2,65.93],[34.5,65.77],[34.3,65.56],[34.6,65.39],[34.4,65.18],[34.7,65.01],[34.5,64.8],[34.79,64.63],[34.59,64.42],[34.88,64.25],[35.36,64.29],[35.64,64.12],[36.12,64.16],[36.4,63.99],[36.2,63.77],[36.47,63.6],[36.95,63.64],[37.15,63.85],[37.64,63.88],[37.91,63.71],[38.39,63.74],[38.61,63.95],[38.34,64.13],[38.57,64.34],[38.3,64.52],[37.8,64.48],[37.52,64.66],[37.03,64.62],[36.75,64.8],[36.96,65.01],[37.46,65.04],[37.74,64.87],[38.25,64.9],[38.52,64.73],[39.03,64.76],[39.3,64.58],[39.8,64.61],[40.04,64.82],[40.55,64.85],[40.8,65.05],[40.53,65.24],[40.01,65.21],[39.77,65.0],[39.26,64.97],[38.99,65.15],[38.48,65.11],[38.2,65.29],[37.69,65.26],[37.4,65.43],[36.9,65.39],[36.68,65.18]]],[[[91.04,55.18],[90.66,55.09],[90.61,54.84],[90.95,54.69],[90.91,54.45],[91.24,54.29],[91.19,54.05],[90.82,53.95],[90.77,53.71],[90.4,53.61],[90.36,53.37],[89.98,53.27],[89.95,53.02],[90.28,52.87],[90.64,52.97],[90.69,53.22],[91.06,53.31],[91.38,53.16],[91.76,53.25],[92.08,53.1],[92.45,53.19],[92.77,53.03],[93.14,53.12],[93.19,53.37],[93.57,53.45],[93.62,53.7],[93.31,53.85],[93.36,54.1],[93.04,54.25],[92.66,54.17],[92.33,54.32],[92.39,54.57],[92.05,54.72],[91.67,54.63],[91.34,54.78],[91.38,55.03],[91.77,55.12],[91.82,55.36],[91.48,55.52],[91.09,55.42],[91.04,55.18]]],[[[115.76,-34.63],[115.92,-34.47],[115.79,-34.28],[115.52,-34.25],[115.36,-34.42],[115.48,-34.61],[115.76,-34.63]]],[[[53.35,35.68],[53.54,35.86],[53.83,35.81],[54.02,35.99],[53.91,36.22],[54.1,36.41],[54.4,36.36],[54.59,36.54],[54.89,36.49],[55.09,36.67],[54.98,36.9],[54.68,36.95],[54.49,36.77],[54.19,36.82],[54.0,36.64],[53.7,36.69],[53.51,36.5],[53.62,36.27],[53.43,36.09],[53.14,36.14],[52.95,35.96],[52.66,36.0],[52.55,36.23],[52.25,36.27],[52.14,36.5],[51.85,36.54],[51.66,36.36],[51.37,36.4],[51.26,36.63],[50.96,36.67],[50.84,36.89],[50.55,36.93],[50.37,36.75],[50.08,36.79],[49.9,36.6],[50.02,36.38],[50.32,36.34],[50.43,36.11],[50.72,36.07],[50.84,35.85],[51.13,35.81],[51.31,35.99],[51.6,35.95],[51.71,35.72],[52.0,35.68],[52.11,35.45],[52.4,35.41],[52.58,35.59],[52.88,35.55],[53.06,35.73],[53.35,35.68]]],[[[80.55,45.53],[80.23,45.66],[79.92,45.52],[79.94,45.26],[80.26,45.14],[80.56,45.28],[80.55,45.53]]],[[[78.93,36.71],[79.2,36.85],[79.18,37.1],[78.9,37.21],[78.63,37.07],[78.65,36.82],[78.93,36.71]]],[[[-8.85,36.9],[-8.58,37.01],[-8.33,36.86],[-8.05,36.97],[-7.81,36.82],[-7.53,36.93],[-7.51,37.17],[-7.75,37.32],[-8.03,37.22],[-8.28,37.36],[-8.55,37.25],[-8.8,37.4],[-9.08,37.29],[-9.1,37.04],[-8.85,36.9]]],[[[69.12,33.56],[69.17,33.32],[68.94,33.16],[68.99,32.92],[69.27,32.84],[69.5,32.99],[69.45,33.23],[69.69,33.39],[69.64,33.63],[69.87,33.78],[69.82,34.03],[69.54,34.12],[69.3,33.96],[69.35,33.72],[69.12,33.56]]],[[[115.88,-34.82],[115.73,-34.99],[115.85,-35.18],[116.13,-35.2],[116.25,-35.39],[116.54,-35.42],[116.69,-35.25],[116.97,-35.27],[117.12,-35.11],[116.99,-34.92],[116.72,-34.89],[116.56,-35.06],[116.28,-35.04],[116.16,-34.85],[115.88,-34.82]]],[[[-5.69,58.97],[-5.65,59.18],[-5.99,59.32],[-6.38,59.26],[-6.43,59.06],[-6.08,58.91],[-5.69,58.97]]],[[[80.89,44.9],[81.2,44.78],[81.21,44.52],[81.52,44.4],[81.53,44.14],[81.83,44.02],[82.14,44.15],[82.14,44.4],[81.83,44.53],[81.82,44.78],[81.51,44.91],[81.51,45.16],[81.19,45.29],[80.88,45.16],[80.89,44.9]]],[[[105.64,52.14],[105.53,51.92],[105.77,51.74],[106.11,51.79],[106.22,52.01],[105.99,52.19],[105.64,52.14]]],[[[-7.43,61.64],[-7.06,61.5],[-6.65,61.56],[-6.6,61.76],[-6.19,61.82],[-6.14,62.01],[-6.51,62.15],[-6.93,62.1],[-7.3,62.23],[-7.72,62.17],[-7.76,61.97],[-7.39,61.84],[-7.43,61.64]]],[[[22.97,-34.24],[23.08,-34.03],[22.91,-33.85],[22.63,-33.86],[22.51,-34.07],[22.68,-34.25],[22.97,-34.24]]],[[[-5.17,37.09],[-5.45,36.99],[-5.48,36.74],[-5.24,36.6],[-4.97,36.69],[-4.94,36.94],[-5.17,37.09]]],[[[49.84,32.71],[49.95,32.49],[50.22,32.45],[50.39,32.63],[50.27,32.85],[50.44,33.03],[50.33,33.25],[50.05,33.29],[49.89,33.11],[50.0,32.89],[49.84,32.71]]],[[[34.86,32.11],[35.16,32.12],[35.29,32.34],[35.13,32.55],[35.26,32.78],[35.1,32.99],[34.81,32.98],[34.67,32.76],[34.83,32.54],[34.7,32.32],[34.86,32.11]]],[[[27.24,37.35],[27.43,37.15],[27.74,37.18],[27.93,36.97],[28.25,37.0],[28.37,37.22],[28.19,37.43],[27.87,37.4],[27.68,37.61],[27.36,37.58],[27.24,37.35]]],[[[17.79,40.12],[18.0,39.94],[18.33,39.99],[18.43,40.22],[18.22,40.41],[18.32,40.64],[18.11,40.82],[17.78,40.77],[17.56,40.95],[17.24,40.9],[17.14,40.66],[17.35,40.48],[17.68,40.54],[17.89,40.35],[17.79,40.12]]],[[[80.87,45.67],[81.18,45.54],[81.5,45.68],[81.49,45.93],[81.17,46.06],[80.86,45.92],[80.87,45.67]]],[[[21.46,62.88],[21.54,63.1],[21.93,63.18],[22.01,63.39],[22.41,63.47],[22.5,63.68],[22.9,63.76],[22.99,63.98],[22.68,64.11],[22.27,64.04],[22.19,63.82],[21.79,63.74],[21.7,63.53],[21.31,63.45],[21.0,63.58],[21.08,63.8],[20.77,63.93],[20.38,63.85],[20.3,63.63],[20.62,63.5],[20.54,63.29],[20.85,63.15],[20.78,62.94],[21.08,62.81],[21.46,62.88]]],[[[104.2,52.57],[103.85,52.52],[103.74,52.29],[103.99,52.12],[104.35,52.17],[104.45,52.4],[104.2,52.57]]],[[[46.49,35.97],[46.34,35.77],[46.47,35.56],[46.74,35.54],[46.9,35.72],[46.77,35.94],[46.49,35.97]]],[[[79.0,45.11],[78.68,45.23],[78.38,45.09],[78.4,44.83],[78.09,44.69],[78.11,44.43],[77.81,44.29],[77.84,44.03],[78.15,43.92],[78.45,44.06],[78.77,43.94],[79.07,44.08],[79.05,44.34],[79.35,44.48],[79.34,44.73],[79.64,44.87],[79.63,45.13],[79.31,45.25],[79.0,45.11]]],[[[35.61,60.75],[36.04,60.78],[36.22,61.0],[36.66,61.03],[36.86,61.25],[36.6,61.43],[36.8,61.64],[36.54,61.82],[36.09,61.79],[35.83,61.96],[35.38,61.93],[35.12,62.1],[34.67,62.06],[34.49,61.84],[34.75,61.67],[34.58,61.45],[34.84,61.28],[34.66,61.06],[34.92,60.89],[35.35,60.93],[35.61,60.75]]],[[[68.47,44.0],[68.2,43.83],[68.26,43.58],[68.6,43.49],[68.87,43.66],[68.81,43.91],[68.47,44.0]]],[[[40.51,65.62],[40.76,65.83],[41.29,65.86],[41.56,66.06],[42.1,66.09],[42.37,66.29],[42.91,66.31],[43.18,66.13],[43.73,66.14],[44.01,66.35],[44.56,66.36],[44.86,66.56],[44.6,66.75],[44.04,66.73],[43.75,66.53],[43.19,66.51],[42.92,66.7],[42.37,66.68],[42.09,66.47],[41.55,66.45],[41.28,66.24],[40.74,66.22],[40.49,66.01],[39.95,65.98],[39.71,65.77],[39.18,65.74],[38.94,65.53],[39.22,65.36],[39.74,65.39],[39.98,65.6],[40.51,65.62]]],[[[49.17,33.01],[49.45,32.97],[49.61,33.15],[49.5,33.37],[49.22,33.41],[49.06,33.23],[49.17,33.01]]],[[[23.83,-34.18],[23.94,-33.98],[23.77,-33.79],[23.48,-33.81],[23.37,-34.02],[23.54,-34.2],[23.83,-34.18]]],[[[39.14,66.13],[38.86,66.3],[38.33,66.27],[38.09,66.06],[38.38,65.88],[38.9,65.92],[39.14,66.13]]],[[[55.48,37.03],[55.58,36.8],[55.88,36.75],[56.08,36.93],[55.98,37.16],[55.68,37.21],[55.48,37.03]]],[[[35.72,32.57],[35.58,32.35],[35.74,32.14],[36.03,32.15],[36.17,32.37],[36.01,32.58],[35.72,32.57]]],[[[21.66,-34.11],[21.37,-34.12],[21.26,-34.32],[21.42,-34.51],[21.71,-34.5],[21.83,-34.3],[21.66,-34.11]]],[[[36.87,33.04],[36.58,33.03],[36.44,32.81],[36.6,32.6],[36.89,32.6],[37.02,32.82],[36.87,33.04]]]]}}]}