{"type":"FeatureCollection","features":[{"type":"Feature","properties":{},"geometry":{"type":"MultiPolygon","coordinates":[[[[19.08,69.76],[21.23,69.76],[22.17,70.33],[23.35,69.92],[23.85,70.2],[23.25,70.51],[26.63,70.41],[27.79,70.77],[30.63,70.52],[28.88,70.31],[29.87,69.66],[32.59,69.58],[33.5,69.1],[34.97,69.05],[35.2,69.26],[34.82,69.6],[31.7,70.25],[30.74,70.92],[28.97,70.91],[27.85,71.37],[26.65,71.01],[24.27,71.49],[21.98,71.12],[21.0,70.54],[18.76,70.54],[18.02,69.76],[13.75,69.0],[13.29,68.23],[11.93,68.08],[11.42,67.5],[13.38,67.4],[11.83,66.97],[10.9,65.85],[11.64,65.45],[10.48,65.3],[10.41,64.87],[9.6,64.53],[9.77,64.2],[8.13,64.17],[8.2,63.66],[4.76,62.49],[4.97,62.14],[4.11,61.2],[5.02,59.98],[4.46,59.58],[5.32,58.34],[7.45,57.72],[9.0,58.03],[9.81,58.86],[10.8,58.69],[11.16,58.06],[7.84,57.1],[8.02,56.79],[7.46,56.31],[7.93,55.87],[7.37,55.39],[2.81,54.62],[-1.25,55.46],[-1.43,56.03],[-2.4,56.29],[-1.55,56.81],[-1.74,57.38],[-1.3,57.64],[-3.0,58.0],[-2.5,58.46],[-2.76,58.81],[-0.58,59.85],[-0.76,60.4],[-0.3,60.64],[-0.88,61.14],[-2.67,60.37],[-1.68,59.92],[-2.2,59.47],[-4.48,59.36],[-3.53,58.71],[-4.97,58.89],[-7.67,58.44],[-7.36,58.09],[-7.78,57.81],[-7.52,57.25],[-8.34,56.67],[-7.3,56.46],[-6.76,55.52],[-8.5,55.59],[-9.29,54.99],[-9.02,54.41],[-10.75,54.44],[-10.44,54.08],[-10.84,53.54],[-10.21,53.03],[-10.97,52.17],[-10.07,51.29],[-8.77,51.18],[-8.03,51.81],[-5.35,52.2],[-5.73,51.9],[-5.64,50.62],[-6.74,49.69],[-5.47,49.78],[-5.87,49.24],[-4.45,46.93],[-1.96,46.22],[-1.3,45.28],[-1.65,44.97],[-1.65,43.64],[-1.94,43.57],[-8.1,44.05],[-9.3,43.66],[-9.65,43.07],[-8.88,42.14],[-9.2,41.8],[-8.98,41.16],[-9.61,40.46],[-10.75,40.03],[-11.86,40.09],[-12.18,39.48],[-13.02,39.39],[-13.6,38.65],[-13.35,38.01],[-13.92,37.26],[-13.4,36.74],[-13.68,36.37],[-13.44,35.73],[-13.99,35.23],[-15.32,35.38],[-15.86,34.88],[-15.08,33.72],[-14.03,33.71],[-9.46,35.93],[-7.67,35.69],[-6.59,36.1],[-6.18,35.32],[-7.35,33.91],[-8.9,33.51],[-10.03,32.07],[-9.94,29.94],[-10.48,29.21],[-11.21,29.11],[-11.74,28.37],[-12.46,28.51],[-13.45,28.02],[-13.71,27.65],[-13.49,27.02],[-14.21,26.9],[-15.2,25.4],[-14.97,24.78],[-15.68,24.65],[-16.63,23.15],[-16.4,22.79],[-15.45,24.28],[-14.5,24.79],[-14.48,25.78],[-13.51,26.28],[-11.32,27.37],[-10.14,27.21],[-1.18,31.48],[2.64,32.75],[3.58,32.6],[4.23,33.24],[5.88,32.82],[7.33,33.44],[8.03,33.17],[9.51,33.77],[10.51,33.56],[11.34,32.86],[14.98,32.5],[15.4,31.45],[18.15,30.82],[18.93,30.05],[20.4,30.96],[20.32,32.08],[21.54,32.93],[22.83,32.66],[23.1,32.02],[24.08,31.69],[24.79,32.0],[25.05,31.36],[25.35,31.39],[25.21,32.27],[24.23,32.61],[23.51,32.3],[23.24,32.93],[21.75,33.41],[19.83,32.23],[19.91,31.11],[18.83,30.48],[18.54,31.11],[15.79,31.75],[15.36,32.8],[13.37,33.3],[12.7,32.93],[11.71,33.16],[11.45,34.01],[10.74,34.29],[11.7,34.74],[11.1,36.17],[11.56,36.72],[11.43,37.13],[9.14,37.7],[8.11,37.0],[6.37,37.42],[5.73,37.02],[4.0,37.4],[2.56,36.73],[1.36,37.01],[0.29,36.65],[-0.07,36.09],[-1.6,35.81],[-2.2,35.15],[-3.09,35.75],[-3.66,35.32],[-4.88,35.57],[-4.27,36.25],[-3.05,35.99],[-2.48,36.41],[-1.77,36.2],[-0.72,36.55],[-0.04,37.43],[-0.38,38.21],[0.25,38.85],[-0.09,39.63],[1.23,40.9],[2.02,40.94],[2.42,41.49],[3.59,41.85],[3.25,42.6],[3.67,43.16],[6.35,42.85],[8.77,44.1],[10.12,43.78],[9.23,42.94],[8.37,42.94],[8.52,42.55],[8.05,42.01],[8.97,41.37],[7.67,40.83],[8.35,40.35],[7.67,39.09],[8.56,38.44],[9.31,39.06],[10.14,39.04],[9.86,39.85],[10.33,40.4],[9.76,41.99],[11.56,42.18],[11.7,41.78],[12.47,41.52],[12.74,40.71],[14.67,40.44],[14.8,40.03],[15.55,39.73],[15.57,39.08],[14.32,38.84],[14.35,38.19],[13.52,38.24],[13.17,38.83],[11.98,37.92],[12.33,37.33],[14.19,37.05],[14.53,36.45],[15.35,36.39],[15.61,37.77],[16.45,37.7],[16.96,38.23],[16.85,38.65],[17.58,39.0],[17.58,39.65],[16.83,39.96],[17.25,40.25],[17.79,40.12],[18.11,39.52],[19.4,39.72],[19.5,39.3],[20.24,38.97],[20.34,38.54],[19.8,38.02],[20.53,37.69],[21.24,36.68],[22.07,36.57],[22.35,35.95],[23.18,35.83],[23.34,34.96],[24.04,34.6],[24.77,34.9],[25.77,34.57],[26.75,35.33],[27.55,35.18],[27.62,35.85],[28.42,35.69],[28.49,36.36],[30.29,35.83],[31.12,36.75],[32.1,36.36],[32.32,35.72],[33.07,35.97],[33.11,35.54],[31.79,34.82],[33.21,34.23],[35.08,35.82],[34.6,36.02],[33.72,35.56],[33.68,35.99],[34.57,36.45],[35.35,36.26],[35.62,34.31],[34.64,33.19],[34.83,32.54],[33.88,31.41],[32.71,31.35],[31.61,31.94],[30.42,31.86],[29.16,31.1],[27.56,31.85],[25.76,31.66],[27.38,30.93],[28.09,31.23],[29.21,30.65],[29.93,30.94],[32.24,29.99],[32.4,29.78],[31.86,29.3],[33.24,28.28],[33.31,27.4],[33.94,26.56],[34.34,26.8],[34.28,27.68],[35.54,27.96],[35.08,28.6],[35.79,28.41],[35.97,27.76],[37.52,27.17],[37.51,27.61],[36.38,28.0],[36.36,28.44],[37.21,28.03],[38.32,28.06],[38.87,28.51],[41.19,28.32],[42.55,29.18],[44.42,29.14],[44.93,28.71],[47.14,28.84],[48.6,27.95],[48.68,27.32],[49.66,27.28],[50.08,27.87],[49.45,27.7],[48.74,28.15],[48.3,29.0],[49.26,29.97],[49.87,29.73],[49.94,29.11],[50.91,28.58],[50.96,27.99],[51.67,27.47],[52.34,27.54],[53.83,26.28],[55.09,26.59],[55.69,26.27],[55.42,26.91],[53.56,26.91],[52.05,28.18],[51.37,28.11],[50.34,30.24],[49.66,30.15],[48.93,30.61],[48.97,32.44],[49.95,32.49],[49.17,33.01],[49.22,33.41],[50.77,33.38],[51.27,32.9],[51.15,32.1],[52.25,31.92],[52.66,31.04],[54.48,30.3],[54.56,30.69],[53.92,31.01],[53.32,32.35],[55.38,30.53],[56.46,30.92],[56.01,31.43],[55.27,31.37],[55.36,31.76],[56.1,31.83],[56.83,31.26],[56.75,32.11],[58.16,32.45],[59.26,31.57],[60.49,31.71],[60.81,32.27],[60.37,32.81],[60.83,33.78],[61.43,32.77],[62.41,32.97],[63.05,32.59],[63.41,33.15],[62.55,33.37],[62.76,34.42],[64.29,34.7],[64.82,35.68],[66.4,35.94],[67.06,35.53],[67.82,35.77],[68.99,35.43],[69.37,36.24],[70.89,36.93],[70.35,38.27],[71.17,38.49],[70.76,39.09],[67.96,38.73],[67.59,39.07],[67.84,39.23],[69.27,39.29],[69.73,39.87],[70.97,39.5],[71.45,40.07],[74.07,40.19],[74.3,40.59],[73.96,40.95],[76.3,41.12],[76.55,41.52],[76.22,41.89],[76.5,42.03],[78.0,41.99],[79.44,42.94],[80.06,42.45],[81.26,42.48],[81.85,43.0],[82.74,42.88],[83.95,43.39],[83.66,44.02],[83.97,44.15],[85.18,44.13],[85.75,43.61],[86.66,43.71],[87.8,43.17],[87.45,42.55],[83.33,42.12],[82.74,42.62],[82.15,42.11],[81.26,42.22],[80.69,41.7],[79.21,41.78],[78.66,41.0],[77.5,40.94],[76.96,40.4],[76.08,40.47],[75.56,39.92],[74.68,39.98],[74.44,39.58],[75.11,38.87],[76.29,38.45],[76.08,37.8],[76.7,37.08],[78.35,37.18],[79.76,36.37],[80.29,36.89],[81.12,36.05],[81.65,36.56],[84.34,36.85],[89.09,39.11],[91.28,39.24],[93.62,40.31],[92.12,41.17],[92.5,41.76],[93.7,42.16],[93.53,42.8],[92.07,42.54],[91.84,42.94],[92.76,43.24],[90.77,43.51],[89.55,43.09],[90.33,42.41],[89.46,42.34],[88.72,43.51],[87.85,43.67],[88.18,44.04],[90.81,43.76],[91.86,44.82],[89.8,45.09],[89.58,45.73],[89.93,46.09],[88.88,47.67],[87.94,47.85],[87.68,48.49],[86.42,49.05],[85.41,48.7],[85.78,49.33],[85.15,50.11],[83.8,50.65],[84.17,51.27],[85.58,51.74],[86.62,51.58],[88.05,52.01],[87.46,53.05],[88.26,53.76],[86.62,55.71],[85.48,55.88],[85.89,56.24],[87.79,56.02],[88.22,56.37],[87.16,57.29],[85.17,57.0],[84.42,58.01],[81.56,58.92],[80.75,58.43],[79.9,58.92],[78.65,58.78],[77.76,59.26],[75.67,59.07],[73.37,59.82],[72.12,59.62],[71.13,60.05],[69.88,59.83],[65.14,60.6],[63.92,60.32],[60.53,60.72],[59.53,58.67],[58.75,58.53],[58.0,59.04],[58.18,59.45],[57.55,59.72],[57.73,60.13],[55.8,60.91],[54.2,60.59],[53.05,60.86],[51.97,60.49],[50.63,60.95],[49.11,60.58],[44.41,60.58],[43.04,60.96],[43.07,62.17],[44.52,62.21],[43.08,62.57],[42.85,63.17],[42.11,63.34],[41.37,63.11],[42.35,62.75],[42.11,62.54],[42.35,61.54],[41.42,61.11],[40.26,61.26],[40.0,61.85],[39.29,62.01],[38.15,61.74],[36.73,62.04],[36.41,62.61],[35.22,62.7],[34.86,63.26],[32.97,62.48],[31.81,62.55],[30.54,63.58],[29.37,63.63],[28.91,64.15],[28.17,64.24],[28.31,64.46],[27.24,64.69],[27.01,65.63],[25.91,65.85],[25.83,66.42],[23.11,66.74],[21.34,66.41],[20.33,65.81],[20.58,65.47],[20.03,64.96],[18.18,64.95],[18.66,64.06],[16.9,64.04],[15.6,64.52],[14.44,63.61],[13.33,63.57],[14.28,63.23],[14.64,62.66],[13.49,62.2],[13.54,61.73],[12.55,61.44],[10.89,61.83],[11.15,61.07],[9.81,61.34],[10.01,61.05],[9.37,60.62],[9.57,60.32],[7.15,59.21],[6.05,59.87],[7.09,60.47],[6.25,61.68],[7.24,62.08],[7.16,62.6],[11.3,62.99],[11.22,63.44],[12.24,63.73],[12.05,64.01],[12.87,64.58],[12.56,65.11],[12.93,65.41],[12.34,65.65],[13.08,66.48],[13.62,67.04],[14.92,67.17],[16.19,68.31],[15.43,68.76],[17.52,68.61],[17.81,69.08],[17.15,69.36],[19.08,69.76]],[[65.42,42.65],[63.08,43.17],[62.67,42.57],[63.09,42.25],[62.92,41.83],[62.09,42.46],[59.19,42.79],[58.21,43.64],[54.81,44.15],[54.23,44.67],[52.23,44.25],[51.23,45.44],[51.78,48.45],[52.6,48.82],[52.55,49.48],[53.4,49.84],[53.5,50.27],[54.39,49.96],[55.9,50.46],[56.29,50.42],[56.16,49.99],[56.79,49.46],[58.29,49.26],[58.15,48.83],[58.64,48.54],[59.04,49.15],[59.68,49.28],[60.0,50.14],[61.7,50.33],[62.17,50.94],[63.52,51.16],[64.13,52.43],[65.23,52.46],[65.11,51.79],[67.14,51.16],[67.69,51.74],[69.49,51.82],[69.24,51.4],[68.15,51.41],[67.61,50.82],[66.23,50.65],[66.69,50.32],[66.26,49.47],[66.79,48.89],[66.16,47.62],[66.96,47.21],[67.67,48.22],[70.02,48.36],[70.67,47.0],[70.2,46.17],[71.18,46.14],[71.0,45.47],[71.97,45.43],[72.78,44.47],[71.26,44.19],[70.54,44.64],[69.81,43.64],[69.42,43.99],[69.64,44.4],[69.02,44.33],[68.81,43.91],[67.66,44.68],[67.26,43.84],[68.6,43.49],[68.99,43.15],[68.84,42.48],[66.81,42.07],[66.01,42.74],[65.42,42.65]],[[38.39,41.13],[36.43,41.99],[35.64,41.78],[35.43,42.4],[34.48,41.98],[33.97,42.18],[35.07,42.82],[36.89,42.61],[37.52,43.01],[38.5,42.58],[41.21,42.68],[41.21,41.46],[40.27,41.08],[38.39,41.13]],[[74.93,42.57],[74.96,42.32],[74.36,42.27],[74.61,42.68],[74.93,42.57]],[[25.63,38.3],[26.15,38.13],[26.22,37.7],[24.67,38.2],[25.63,38.3]],[[29.95,42.47],[31.19,41.9],[32.18,41.93],[31.1,41.26],[29.79,41.2],[28.74,41.56],[27.88,42.77],[28.83,43.25],[29.09,42.63],[29.95,42.47]],[[72.35,53.74],[76.4,54.36],[77.21,53.88],[79.45,53.94],[79.86,53.31],[80.96,53.2],[80.27,52.43],[80.64,52.05],[80.3,51.67],[80.68,51.04],[79.26,51.27],[79.65,50.64],[78.99,50.11],[77.18,50.95],[75.77,50.89],[75.33,51.51],[73.82,51.93],[72.39,51.82],[71.9,52.43],[72.18,52.83],[71.27,53.53],[72.35,53.74]],[[69.44,50.64],[70.13,50.72],[69.64,49.89],[68.75,50.57],[69.44,50.64]],[[75.77,45.73],[74.61,44.88],[73.49,45.96],[74.31,46.93],[75.61,47.01],[76.32,46.54],[75.77,45.73]],[[79.64,44.87],[79.94,45.26],[80.88,45.16],[80.29,44.37],[79.64,44.87]],[[24.31,35.74],[23.6,36.1],[23.64,36.77],[23.95,36.8],[24.97,36.48],[25.24,35.84],[26.18,35.94],[25.63,35.44],[24.31,35.74]],[[19.08,40.97],[19.19,40.55],[17.78,40.77],[17.45,41.36],[16.58,41.43],[16.24,42.02],[17.11,42.59],[18.76,42.21],[19.08,40.97]],[[10.9,56.98],[11.68,57.11],[10.69,56.58],[10.51,56.91],[10.9,56.98]],[[22.09,59.54],[22.37,59.4],[21.64,59.01],[21.91,58.86],[21.33,58.65],[21.31,58.14],[19.65,57.99],[19.24,58.46],[17.72,57.96],[17.3,58.42],[19.1,58.78],[19.11,59.29],[20.25,59.72],[22.09,59.54]],[[59.49,32.37],[59.35,33.47],[60.09,32.87],[59.49,32.37]],[[71.34,42.25],[71.38,42.0],[70.79,41.93],[71.01,42.35],[71.34,42.25]],[[15.42,43.58],[15.44,42.95],[16.22,42.66],[14.81,42.19],[14.3,43.8],[15.42,43.58]],[[-5.62,54.28],[-4.95,54.2],[-5.35,53.91],[-5.13,53.32],[-6.05,53.77],[-5.62,54.28]],[[52.0,32.99],[52.62,33.29],[53.01,33.02],[52.38,32.72],[52.0,32.99]],[[76.39,43.06],[77.9,43.27],[78.23,42.9],[76.74,42.69],[76.39,43.06]],[[37.37,46.24],[37.35,46.64],[37.87,46.43],[37.37,46.24]],[[65.81,51.89],[66.03,52.31],[66.51,51.99],[65.81,51.89]],[[25.56,38.73],[24.51,39.06],[24.96,39.32],[25.48,39.15],[25.56,38.73]],[[51.39,33.7],[51.61,33.25],[50.83,33.78],[51.39,33.7]],[[24.48,40.14],[24.8,40.17],[24.88,39.75],[24.35,39.91],[24.48,40.14]],[[33.37,28.51],[33.34,28.95],[33.62,28.97],[33.78,28.76],[33.37,28.51]]],[[[173.44,-40.58],[172.84,-40.14],[171.81,-40.72],[172.15,-41.31],[171.33,-41.51],[170.62,-42.93],[167.22,-44.37],[166.09,-46.15],[167.39,-47.54],[171.26,-46.18],[170.9,-45.6],[171.65,-44.44],[173.07,-44.18],[173.31,-43.79],[172.95,-43.22],[173.77,-43.01],[174.4,-41.59],[175.81,-41.8],[176.22,-41.01],[176.99,-40.79],[177.34,-39.76],[178.08,-39.54],[178.98,-37.57],[178.67,-37.25],[176.69,-37.5],[176.07,-36.83],[176.26,-36.44],[175.92,-35.86],[175.16,-35.81],[174.52,-34.88],[173.76,-34.82],[173.44,-34.23],[172.44,-34.3],[173.02,-35.01],[172.84,-35.65],[174.62,-37.48],[173.6,-39.69],[174.41,-39.73],[175.08,-40.65],[173.44,-40.58]]],[[[141.98,-33.34],[140.48,-33.06],[140.53,-31.9],[139.2,-32.03],[138.93,-31.2],[139.34,-30.64],[139.0,-30.05],[138.39,-30.44],[138.65,-31.27],[138.23,-31.83],[138.37,-32.24],[137.66,-32.87],[135.47,-32.49],[136.06,-33.02],[135.35,-33.63],[133.88,-31.97],[132.81,-32.85],[133.63,-32.68],[134.4,-33.39],[133.96,-33.93],[134.15,-34.1],[134.99,-33.93],[135.02,-34.58],[134.66,-34.88],[135.63,-35.12],[136.58,-36.25],[137.59,-36.48],[138.33,-35.86],[139.13,-35.9],[139.87,-38.0],[140.94,-38.21],[141.33,-38.8],[142.55,-38.51],[142.96,-39.1],[143.51,-39.19],[144.25,-38.53],[145.1,-38.54],[146.29,-39.62],[147.42,-39.77],[147.57,-40.43],[146.89,-40.86],[145.75,-40.7],[145.3,-40.12],[144.43,-40.11],[144.0,-39.53],[143.63,-39.85],[144.06,-40.44],[144.62,-40.53],[144.18,-41.1],[145.15,-43.17],[146.2,-43.83],[147.72,-43.9],[148.48,-43.23],[148.26,-42.82],[148.83,-41.49],[148.35,-40.92],[148.77,-40.33],[148.34,-39.5],[147.52,-39.27],[147.37,-38.6],[148.08,-37.92],[149.75,-38.12],[150.4,-37.67],[150.35,-36.24],[151.31,-35.43],[151.1,-35.02],[151.75,-34.31],[151.57,-33.64],[153.42,-31.74],[153.33,-30.31],[153.9,-29.84],[153.69,-29.44],[154.09,-28.06],[153.65,-27.51],[153.97,-26.9],[153.24,-26.71],[153.53,-26.36],[153.44,-24.96],[152.48,-24.87],[153.04,-26.31],[152.29,-26.37],[152.45,-27.02],[151.7,-27.08],[151.86,-27.73],[151.26,-28.44],[151.46,-28.84],[150.69,-28.89],[148.76,-31.25],[147.97,-31.28],[147.31,-31.97],[146.11,-31.42],[145.39,-32.35],[145.74,-33.18],[143.74,-33.78],[141.98,-33.34]],[[136.36,-34.51],[137.08,-33.9],[137.42,-34.5],[137.06,-34.8],[136.36,-34.51]]],[[[73.28,34.05],[73.59,33.71],[73.8,34.1],[73.17,34.78],[72.03,35.17],[69.67,34.76],[70.34,34.09],[70.77,34.65],[71.83,34.77],[73.28,34.05]]],[[[-20.94,63.69],[-20.63,63.34],[-18.23,63.24],[-16.48,63.6],[-15.84,64.14],[-14.59,64.16],[-12.72,65.27],[-13.27,65.78],[-14.11,65.86],[-14.59,66.59],[-16.35,66.72],[-17.45,66.32],[-18.15,66.83],[-19.81,66.09],[-21.49,66.62],[-23.36,66.67],[-24.89,65.87],[-24.08,65.16],[-24.6,64.58],[-22.86,64.55],[-22.46,64.43],[-23.0,63.86],[-20.94,63.69]],[[-15.55,65.62],[-15.19,65.48],[-15.88,64.95],[-15.06,64.89],[-14.82,64.52],[-17.98,63.92],[-19.78,64.81],[-21.15,64.51],[-19.48,65.73],[-18.12,65.78],[-17.45,65.28],[-16.29,65.9],[-15.81,65.98],[-15.55,65.62]],[[-19.61,63.99],[-18.79,63.96],[-19.31,63.63],[-19.61,63.99]]],[[[35.78,69.3],[36.2,68.78],[37.67,68.7],[38.05,68.16],[40.36,67.92],[40.66,67.75],[40.44,66.78],[41.55,66.45],[38.33,66.27],[32.52,67.11],[32.33,66.9],[34.4,66.14],[34.2,65.93],[34.6,65.39],[33.72,64.92],[34.79,64.63],[33.93,64.16],[34.31,63.61],[35.36,64.29],[35.72,63.73],[38.39,63.74],[38.57,64.34],[37.03,64.62],[36.75,64.8],[36.96,65.01],[39.8,64.61],[40.8,65.05],[39.74,65.39],[39.98,65.6],[42.37,66.29],[44.53,65.97],[44.9,66.95],[46.29,66.78],[46.6,66.98],[45.51,67.35],[45.82,67.55],[47.32,67.76],[47.57,67.57],[47.18,66.99],[48.0,66.8],[48.5,67.77],[53.38,68.68],[52.53,68.89],[47.65,67.96],[46.53,68.32],[46.86,68.52],[46.59,68.7],[45.09,68.86],[44.77,68.66],[45.65,68.5],[45.87,67.93],[44.97,67.72],[44.7,67.9],[45.01,68.1],[44.14,68.27],[43.83,68.07],[44.11,67.89],[42.37,67.06],[41.24,67.39],[41.51,67.98],[41.21,68.15],[38.88,68.4],[38.51,68.94],[37.02,69.03],[36.48,69.55],[35.78,69.3]],[[35.89,65.31],[35.1,65.44],[36.02,65.9],[35.72,66.07],[35.94,66.28],[39.95,65.98],[39.18,65.74],[38.99,65.15],[36.61,65.56],[35.89,65.31]],[[43.75,66.53],[42.92,66.7],[43.77,66.92],[44.04,66.73],[43.75,66.53]],[[44.63,67.14],[43.79,67.3],[44.66,67.52],[44.93,67.34],[44.63,67.14]]],[[[115.59,-33.56],[116.01,-33.42],[116.16,-31.72],[114.82,-29.59],[114.6,-30.39],[115.41,-31.31],[115.16,-32.47],[115.65,-32.87],[114.58,-33.98],[115.76,-34.63],[116.25,-35.39],[117.12,-35.11],[115.52,-34.25],[115.59,-33.56]]],[[[50.96,25.58],[50.69,26.61],[49.77,27.07],[50.01,25.62],[50.72,25.59],[50.31,25.0],[50.88,24.78],[50.96,25.58]]],[[[-28.69,68.49],[-27.13,68.38],[-26.59,68.73],[-28.17,68.85],[-28.69,68.49]]],[[[49.3,68.53],[50.65,68.91],[50.52,69.48],[48.98,69.67],[47.62,69.28],[47.81,68.72],[49.3,68.53]]],[[[-30.24,68.11],[-29.2,68.13],[-29.75,68.48],[-32.37,68.3],[-31.78,67.95],[-30.24,68.11]]],[[[-28.15,39.36],[-28.95,38.9],[-29.13,38.24],[-27.14,38.29],[-26.64,38.85],[-28.15,39.36]]],[[[-13.69,28.4],[-13.17,29.14],[-13.65,29.65],[-14.92,28.02],[-16.14,28.9],[-17.14,28.38],[-17.9,29.25],[-18.39,28.73],[-18.13,28.35],[-18.37,27.72],[-17.86,27.22],[-17.63,28.11],[-17.13,27.62],[-16.15,28.14],[-15.66,27.64],[-14.19,27.65],[-13.69,28.4]]],[[[-31.71,39.75],[-31.3,39.16],[-30.73,39.22],[-31.14,39.82],[-31.71,39.75]]],[[[131.99,-32.37],[132.71,-32.44],[132.96,-31.74],[132.34,-32.08],[132.06,-31.5],[130.12,-31.46],[130.64,-32.0],[131.71,-31.78],[131.99,-32.37]]],[[[-40.34,64.84],[-40.04,65.25],[-40.57,65.32],[-41.27,64.75],[-40.62,64.43],[-40.34,64.84]]],[[[51.87,29.58],[52.27,28.72],[53.39,28.91],[52.8,30.21],[52.03,29.75],[51.99,30.36],[50.98,30.93],[50.93,31.54],[49.9,32.1],[50.18,31.06],[51.56,30.23],[51.87,29.58]]],[[[-41.95,62.38],[-41.44,63.21],[-42.33,63.1],[-43.58,60.38],[-44.38,60.25],[-44.58,59.84],[-43.21,59.67],[-41.95,62.38]]],[[[124.46,-33.45],[124.26,-32.87],[123.6,-33.77],[122.59,-33.9],[122.05,-33.56],[120.23,-33.97],[120.75,-34.31],[121.74,-34.2],[121.92,-34.78],[122.89,-34.27],[123.44,-34.6],[124.42,-34.07],[124.46,-33.45]]],[[[-39.62,65.41],[-35.78,65.7],[-36.38,66.03],[-38.33,65.89],[-39.3,65.81],[-39.62,65.41]]],[[[51.25,24.96],[51.71,24.94],[51.7,25.94],[51.33,25.76],[51.25,24.96]]],[[[178.61,-50.03],[178.82,-49.65],[178.23,-49.74],[178.61,-50.03]]],[[[129.41,-32.02],[129.77,-31.74],[129.16,-31.44],[127.68,-32.12],[125.82,-32.02],[124.67,-33.02],[125.07,-33.16],[125.88,-32.42],[126.71,-32.7],[129.41,-32.02]]],[[[120.42,40.07],[120.79,40.64],[120.2,40.39],[120.42,40.07]]],[[[-26.21,37.72],[-25.24,36.63],[-24.69,36.67],[-25.12,38.06],[-25.98,38.13],[-26.21,37.72]]],[[[-6.84,62.49],[-7.76,61.97],[-7.1,61.3],[-6.33,61.22],[-6.6,61.76],[-5.67,62.26],[-6.37,62.74],[-6.84,62.49]]],[[[-121.71,36.57],[-121.56,36.98],[-121.92,37.27],[-122.78,37.44],[-122.06,36.87],[-122.14,36.23],[-121.71,36.57]]],[[[2.86,39.03],[4.57,39.54],[4.47,40.17],[3.73,40.38],[2.58,40.03],[2.19,39.47],[2.86,39.03]]],[[[122.41,40.84],[121.59,40.94],[122.35,40.55],[122.41,40.84]]],[[[141.58,-31.84],[141.86,-31.76],[141.71,-31.35],[141.02,-32.0],[141.58,-31.84]]],[[[-123.72,38.69],[-122.93,37.9],[-122.42,38.02],[-123.22,38.81],[-123.72,38.69]]],[[[-25.46,69.43],[-26.03,69.08],[-25.54,68.72],[-24.38,69.42],[-25.46,69.43]]],[[[166.26,-50.47],[165.63,-51.2],[166.29,-51.17],[166.6,-50.8],[166.26,-50.47]]],[[[-64.43,32.34],[-64.73,32.66],[-65.22,32.26],[-64.43,32.34]]],[[[39.95,62.64],[39.25,62.4],[39.97,62.24],[39.95,62.64]]],[[[-16.86,22.05],[-16.63,22.42],[-17.09,22.4],[-17.32,21.79],[-16.86,22.05]]],[[[2.07,39.0],[1.68,39.53],[1.02,38.87],[1.41,38.35],[2.07,39.0]]],[[[118.67,-34.69],[117.55,-34.96],[117.81,-35.34],[119.91,-34.59],[119.99,-33.99],[119.61,-33.84],[119.5,-34.39],[118.67,-34.69]]],[[[-16.13,32.96],[-15.87,33.34],[-16.13,33.47],[-17.7,32.69],[-16.65,32.19],[-16.13,32.96]]],[[[-177.03,-43.58],[-177.2,-43.95],[-176.84,-44.27],[-175.93,-44.54],[-175.83,-43.94],[-177.03,-43.58]]],[[[14.56,35.79],[14.44,36.21],[14.13,36.15],[14.04,35.91],[14.56,35.79]]],[[[91.1,53.56],[91.38,53.16],[92.5,53.43],[91.1,53.56]]],[[[-13.75,57.61],[-13.35,57.91],[-14.1,57.95],[-13.75,57.61]]],[[[-9.24,57.95],[-8.92,57.6],[-8.09,58.16],[-9.24,57.95]]],[[[106.11,51.79],[105.99,52.19],[105.53,51.92],[106.11,51.79]]],[[[159.19,-31.84],[159.46,-31.72],[159.22,-31.33],[158.94,-31.7],[159.19,-31.84]]],[[[-41.06,63.38],[-40.17,63.47],[-40.79,63.79],[-41.06,63.38]]],[[[13.14,35.72],[13.02,36.14],[12.72,36.08],[12.25,35.53],[13.14,35.72]]],[[[-12.16,62.81],[-11.6,63.1],[-12.34,63.17],[-12.16,62.81]]],[[[-12.04,-37.03],[-12.56,-37.19],[-12.45,-37.43],[-12.13,-37.47],[-12.04,-37.03]]],[[[122.01,40.3],[121.95,40.01],[122.39,40.1],[122.01,40.3]]],[[[38.66,63.56],[38.44,63.35],[38.7,63.17],[39.4,63.41],[38.66,63.56]]],[[[-22.13,69.83],[-22.58,70.2],[-23.21,69.86],[-22.13,69.83]]]]}}]}