{"type":"FeatureCollection","features":[{"type":"Feature","properties":{},"geometry":{"type":"MultiPolygon","coordinates":[[[[-27.58,39.41],[-27.89,39.52],[-28.15,39.36],[-28.12,39.11],[-28.95,38.9],[-28.91,38.65],[-28.26,38.19],[-26.87,38.44],[-26.67,39.1],[-27.55,39.16],[-27.58,39.41]]],[[[-5.15,33.61],[-5.38,33.75],[-5.64,33.65],[-5.67,33.41],[-5.93,33.3],[-5.76,32.67],[-6.02,32.57],[-6.33,31.97],[-7.07,31.9],[-7.38,31.3],[-8.12,31.22],[-8.36,31.36],[-8.61,31.25],[-8.63,31.0],[-8.4,30.86],[-8.15,30.97],[-7.71,30.45],[-6.9,31.27],[-6.67,31.13],[-5.47,31.16],[-4.86,32.1],[-4.61,32.2],[-4.39,32.06],[-4.13,32.16],[-4.1,32.4],[-3.84,32.5],[-3.63,32.35],[-3.08,32.79],[-2.86,32.64],[-2.14,32.69],[-1.81,33.26],[-2.02,33.41],[-2.57,32.98],[-2.79,33.13],[-2.93,33.76],[-2.67,33.85],[-2.63,34.09],[-2.85,34.24],[-3.4,33.81],[-3.26,33.18],[-3.81,32.74],[-4.51,32.93],[-4.47,33.17],[-4.21,33.27],[-3.99,33.13],[-3.74,33.23],[-3.88,33.86],[-4.11,34.0],[-4.66,33.56],[-4.89,33.71],[-5.15,33.61]]],[[[60.95,68.91],[61.41,69.07],[61.23,69.28],[60.59,69.32],[60.14,69.16],[60.32,68.95],[59.87,68.78],[59.24,68.82],[59.05,69.03],[59.5,69.19],[59.31,69.4],[58.66,69.43],[58.22,69.26],[58.42,69.06],[56.92,68.75],[54.59,69.22],[47.65,67.96],[46.53,68.32],[46.86,68.52],[46.59,68.7],[45.98,68.69],[45.7,68.88],[45.09,68.86],[44.77,68.66],[43.28,68.81],[42.97,68.61],[43.26,68.43],[43.86,68.45],[44.14,68.27],[43.83,68.07],[44.11,67.89],[43.81,67.69],[43.23,67.67],[42.94,67.47],[43.22,67.28],[42.93,67.08],[42.37,67.06],[41.24,67.39],[41.52,67.6],[41.23,67.77],[41.51,67.98],[41.21,68.15],[38.88,68.4],[38.57,68.57],[38.83,68.77],[38.51,68.94],[37.02,69.03],[36.7,69.19],[36.95,69.39],[36.48,69.55],[35.2,69.26],[34.33,69.74],[33.24,69.83],[33.32,70.03],[31.7,70.25],[31.76,70.45],[31.23,70.58],[31.29,70.79],[30.74,70.92],[28.97,70.91],[27.85,71.37],[26.65,71.01],[25.46,71.46],[23.68,71.4],[23.71,71.2],[23.14,71.11],[23.18,70.91],[22.03,70.93],[21.0,70.54],[18.76,70.54],[18.84,70.35],[17.93,69.95],[18.02,69.76],[16.96,69.74],[16.48,69.64],[16.58,69.45],[15.55,69.43],[15.09,69.32],[15.2,69.14],[13.75,69.0],[13.88,68.81],[13.45,68.7],[13.58,68.52],[13.16,68.41],[13.29,68.23],[11.93,68.08],[12.07,67.9],[11.42,67.5],[12.08,67.26],[12.73,67.65],[13.26,67.58],[13.38,67.4],[12.98,67.29],[13.11,67.12],[11.83,66.97],[11.96,66.8],[11.59,66.69],[11.72,66.52],[11.35,66.41],[11.48,66.24],[10.9,65.85],[11.64,65.45],[10.48,65.3],[10.61,65.14],[10.28,65.03],[10.41,64.87],[9.6,64.53],[9.88,64.36],[9.77,64.2],[8.66,64.35],[8.54,64.18],[8.13,64.17],[8.02,64.0],[8.32,63.83],[8.2,63.66],[7.8,63.65],[6.16,62.91],[5.76,62.89],[5.66,62.71],[5.26,62.69],[5.16,62.51],[4.76,62.49],[4.67,62.31],[4.97,62.14],[4.87,61.96],[4.48,61.94],[4.39,61.75],[4.69,61.59],[4.11,61.2],[4.41,61.04],[4.32,60.85],[4.62,60.69],[4.53,60.5],[5.02,59.98],[4.46,59.58],[4.94,59.06],[4.85,58.86],[5.13,58.7],[5.05,58.51],[6.31,58.23],[6.58,58.06],[6.49,57.87],[6.78,57.76],[7.45,57.72],[7.84,57.8],[7.93,57.99],[9.0,58.03],[9.1,58.22],[9.5,58.29],[9.6,58.48],[9.31,58.6],[9.41,58.79],[10.51,58.81],[10.8,58.69],[10.69,58.5],[11.16,58.06],[11.05,57.87],[9.97,57.86],[9.37,57.4],[8.7,57.45],[7.84,57.1],[7.74,56.9],[8.02,56.79],[7.46,56.31],[7.93,55.87],[7.37,55.39],[8.02,55.35],[8.29,55.23],[8.2,55.02],[7.56,55.07],[7.19,54.99],[7.1,54.79],[6.1,54.75],[5.58,54.25],[4.61,54.25],[3.71,53.55],[2.52,53.79],[1.78,53.48],[0.28,53.87],[0.13,54.45],[-0.79,54.72],[-0.73,54.93],[-1.25,55.46],[-1.19,55.67],[-1.49,55.82],[-1.43,56.03],[-2.4,56.29],[-1.92,56.76],[-1.55,56.81],[-1.49,57.02],[-1.8,57.18],[-1.74,57.38],[-1.37,57.43],[-1.3,57.64],[-3.0,58.0],[-2.5,58.46],[-2.82,58.61],[-2.76,58.81],[-1.49,59.37],[-1.42,59.57],[-1.03,59.61],[-0.97,59.81],[-0.58,59.85],[-0.51,60.05],[-0.83,60.2],[-0.76,60.4],[-0.37,60.44],[-0.3,60.64],[-0.88,61.14],[-2.67,60.37],[-2.74,60.17],[-1.68,59.92],[-2.2,59.47],[-2.92,59.57],[-3.75,59.26],[-4.48,59.36],[-4.53,59.15],[-3.48,58.91],[-3.53,58.71],[-4.97,58.89],[-5.79,58.56],[-6.51,58.64],[-6.56,58.43],[-6.94,58.37],[-7.67,58.44],[-7.71,58.23],[-7.36,58.09],[-7.4,57.88],[-7.78,57.81],[-7.82,57.6],[-7.48,57.46],[-7.52,57.25],[-7.89,57.17],[-8.34,56.67],[-7.3,56.46],[-7.33,56.25],[-6.72,55.74],[-6.76,55.52],[-8.5,55.59],[-8.54,55.37],[-9.29,54.99],[-9.32,54.77],[-8.99,54.63],[-9.02,54.41],[-10.75,54.44],[-10.77,54.21],[-10.44,54.08],[-10.84,53.54],[-10.21,53.03],[-10.24,52.81],[-10.95,52.4],[-10.97,52.17],[-10.65,52.03],[-10.38,51.43],[-8.77,51.18],[-8.07,51.58],[-8.03,51.81],[-7.39,51.74],[-6.67,52.13],[-6.03,52.05],[-5.61,52.58],[-5.91,52.73],[-5.87,52.95],[-5.52,53.02],[-5.48,53.25],[-6.05,53.77],[-6.01,53.99],[-5.66,54.06],[-5.62,54.28],[-4.95,54.2],[-5.0,53.98],[-4.7,53.83],[-4.74,53.61],[-5.09,53.54],[-5.13,53.32],[-4.83,53.17],[-4.88,52.94],[-5.22,52.87],[-5.01,52.28],[-5.35,52.2],[-5.77,51.68],[-5.14,51.6],[-4.85,51.45],[-4.89,51.22],[-5.97,50.54],[-6.01,50.31],[-6.7,49.92],[-6.74,49.69],[-6.45,49.54],[-5.76,49.93],[-5.47,49.78],[-5.51,49.55],[-5.84,49.47],[-5.87,49.24],[-5.35,48.7],[-5.75,48.16],[-4.87,47.93],[-4.68,47.31],[-4.1,47.24],[-3.61,46.69],[-2.73,46.69],[-1.91,46.45],[-1.96,46.22],[-1.3,45.28],[-1.35,45.05],[-1.65,44.97],[-1.7,44.74],[-1.45,44.58],[-1.5,44.35],[-1.8,44.27],[-1.65,43.64],[-1.94,43.57],[-3.82,43.95],[-4.46,43.54],[-8.1,44.05],[-8.73,43.61],[-9.0,43.76],[-9.3,43.66],[-9.33,43.42],[-9.63,43.32],[-9.65,43.07],[-8.88,42.14],[-9.22,41.55],[-8.72,41.01],[-8.74,40.77],[-9.34,40.31],[-9.13,39.67],[-9.96,39.61],[-9.98,39.36],[-9.72,39.21],[-9.74,38.97],[-9.01,38.04],[-9.33,37.43],[-8.85,36.9],[-7.02,36.88],[-6.77,36.74],[-6.8,36.49],[-6.15,35.56],[-6.18,35.32],[-6.44,35.21],[-6.47,34.97],[-7.61,33.81],[-7.64,33.56],[-7.4,33.42],[-7.14,33.52],[-6.53,34.47],[-6.27,34.58],[-6.03,34.43],[-5.48,34.88],[-5.24,34.73],[-4.49,34.78],[-4.07,34.25],[-3.21,35.02],[-2.03,34.76],[-1.46,35.18],[-1.42,35.42],[-1.16,35.51],[-0.47,35.29],[0.1,35.7],[0.31,35.55],[-0.05,34.99],[-1.25,35.03],[-1.59,34.46],[-1.85,34.37],[-2.07,34.52],[-2.33,34.42],[-2.37,34.18],[-0.74,33.86],[-0.19,34.28],[0.02,34.13],[0.28,34.21],[0.33,34.45],[1.06,34.48],[1.27,34.32],[0.91,33.76],[0.19,33.74],[0.14,33.5],[0.81,33.28],[1.38,33.69],[1.59,33.54],[1.85,33.62],[2.22,34.19],[2.97,34.2],[3.02,34.44],[3.29,34.52],[3.5,34.36],[3.78,34.44],[3.83,34.69],[4.11,34.77],[4.32,34.61],[4.59,34.69],[4.5,35.33],[4.78,35.41],[7.96,34.73],[8.25,34.8],[8.46,34.63],[9.11,35.02],[9.18,35.26],[9.97,35.23],[10.05,35.47],[11.36,35.33],[11.31,35.99],[11.1,36.17],[11.56,36.72],[11.34,36.89],[11.43,37.13],[9.14,37.7],[8.11,37.0],[6.37,37.42],[5.73,37.02],[4.0,37.4],[3.72,37.32],[3.66,37.08],[2.89,37.06],[2.83,36.82],[2.56,36.73],[1.36,37.01],[1.09,36.92],[1.04,36.68],[0.29,36.65],[-0.07,36.09],[-0.33,36.0],[-0.55,36.16],[-1.12,35.74],[-1.33,35.9],[-1.6,35.81],[-1.64,35.57],[-2.2,35.15],[-2.91,35.35],[-2.87,35.6],[-3.09,35.75],[-3.66,35.32],[-4.38,35.52],[-4.65,35.42],[-5.08,35.96],[-5.04,36.2],[-4.77,36.3],[-4.54,36.15],[-3.97,36.59],[-2.26,36.26],[-1.37,37.01],[-1.33,37.25],[-0.58,37.26],[-0.21,37.82],[-0.43,37.97],[-0.38,38.21],[0.2,38.61],[0.25,38.85],[-0.14,39.4],[-0.09,39.63],[0.84,40.34],[1.23,40.9],[2.02,40.94],[2.42,41.49],[3.23,41.53],[3.29,41.76],[3.59,41.85],[3.48,42.46],[3.25,42.6],[3.67,43.16],[5.04,43.13],[6.35,42.85],[7.05,43.24],[7.12,43.48],[7.98,43.48],[8.46,44.02],[8.77,44.1],[10.12,43.78],[9.23,42.94],[8.37,42.94],[8.29,42.71],[8.52,42.55],[8.05,42.01],[8.43,41.46],[8.74,41.53],[8.97,41.37],[8.89,41.14],[8.05,41.14],[7.6,40.59],[8.35,40.35],[8.27,40.12],[7.97,40.04],[7.9,39.8],[8.12,39.64],[7.67,39.09],[8.42,38.84],[8.34,38.6],[8.56,38.44],[9.24,38.82],[9.31,39.06],[10.14,39.04],[10.08,39.68],[9.86,39.85],[10.33,40.4],[9.96,40.96],[10.05,41.2],[9.82,41.36],[9.9,41.59],[9.67,41.76],[9.76,41.99],[10.61,41.97],[10.7,42.21],[11.02,42.28],[11.24,42.11],[11.56,42.18],[11.79,42.02],[11.7,41.78],[12.47,41.52],[12.38,41.28],[12.74,40.71],[14.67,40.44],[14.89,40.27],[14.8,40.03],[15.55,39.73],[15.57,39.08],[15.26,39.02],[15.16,38.79],[14.32,38.84],[14.35,38.19],[13.52,38.24],[13.17,38.83],[12.46,38.46],[11.98,37.92],[12.33,37.33],[14.19,37.05],[14.53,36.45],[15.35,36.39],[15.44,36.63],[15.23,36.81],[15.73,37.35],[15.52,37.53],[15.61,37.77],[16.45,37.7],[16.96,38.23],[16.75,38.41],[16.85,38.65],[17.58,39.0],[17.58,39.65],[16.83,39.96],[16.93,40.19],[17.25,40.25],[17.47,40.07],[17.79,40.12],[18.11,39.52],[18.86,39.85],[19.07,39.67],[19.4,39.72],[19.61,39.53],[19.5,39.3],[20.24,38.97],[20.13,38.73],[20.34,38.54],[19.8,38.02],[20.53,37.69],[20.42,37.45],[20.63,37.26],[20.94,37.31],[21.24,36.68],[22.07,36.57],[22.35,35.95],[23.18,35.83],[23.37,35.63],[23.34,34.96],[24.04,34.6],[24.77,34.9],[24.96,34.7],[25.77,34.57],[26.75,35.33],[27.55,35.18],[27.62,35.85],[28.42,35.69],[28.49,36.36],[30.29,35.83],[30.86,36.3],[30.68,36.51],[30.81,36.73],[31.12,36.75],[31.3,36.54],[32.1,36.36],[32.32,35.72],[33.07,35.97],[33.24,35.76],[33.11,35.54],[32.36,35.29],[31.79,34.82],[31.96,34.61],[33.21,34.23],[33.35,34.46],[34.09,34.7],[34.19,35.36],[34.5,35.37],[35.08,35.82],[34.91,36.03],[34.6,36.02],[34.02,35.57],[33.72,35.56],[33.55,35.77],[33.68,35.99],[34.88,36.46],[35.52,36.04],[35.38,35.83],[35.54,35.61],[35.41,35.39],[35.62,34.31],[35.48,34.09],[35.18,34.08],[35.05,33.86],[35.21,33.65],[34.64,33.19],[34.83,32.54],[34.7,32.32],[34.41,32.31],[34.3,31.65],[33.59,31.39],[33.42,31.6],[33.13,31.59],[33.0,31.36],[33.16,31.15],[33.46,31.17],[33.62,30.95],[34.33,31.21],[35.39,30.59],[36.1,30.84],[36.69,30.42],[36.98,30.42],[37.11,30.65],[37.83,30.45],[37.97,30.67],[38.25,30.67],[38.83,30.24],[39.52,30.47],[40.09,30.04],[40.37,30.04],[40.5,30.26],[40.78,30.26],[40.92,30.04],[41.61,30.25],[42.15,29.82],[42.84,30.03],[43.37,29.59],[44.04,29.79],[44.56,29.35],[45.23,29.54],[45.74,29.11],[46.4,29.29],[46.89,28.85],[47.54,29.03],[47.65,28.82],[48.27,28.58],[48.35,27.96],[48.96,27.72],[49.42,27.29],[49.8,27.47],[49.7,27.68],[48.74,28.15],[48.66,28.77],[48.41,28.78],[48.3,29.0],[48.84,29.38],[48.72,29.59],[48.87,29.79],[49.51,29.96],[49.62,29.74],[49.87,29.73],[49.94,29.11],[50.91,28.58],[50.96,27.99],[51.57,27.68],[51.99,27.8],[53.74,26.49],[54.32,26.76],[54.23,26.97],[53.56,26.91],[52.05,28.18],[51.37,28.11],[51.33,28.7],[50.97,28.96],[51.18,29.51],[50.45,30.02],[50.39,30.63],[50.02,30.88],[50.18,31.06],[51.56,30.23],[51.61,29.63],[52.96,28.79],[53.82,29.02],[54.06,29.57],[54.94,29.8],[55.57,29.47],[55.83,30.03],[57.46,30.3],[57.65,30.46],[57.56,30.69],[57.29,30.75],[57.2,30.98],[57.59,31.94],[58.34,31.99],[59.15,31.17],[59.9,31.21],[59.98,30.98],[60.25,30.92],[60.57,31.48],[60.49,31.71],[61.17,31.97],[60.74,32.51],[60.94,32.68],[61.58,32.31],[61.79,32.47],[62.07,32.4],[62.15,32.17],[62.43,32.1],[63.13,32.35],[63.41,32.28],[63.48,32.04],[63.76,31.97],[63.97,32.13],[64.25,32.06],[64.32,31.82],[64.6,31.75],[64.81,31.91],[65.09,31.83],[65.15,31.6],[65.92,31.6],[66.14,31.76],[66.08,32.0],[65.3,31.99],[65.24,32.23],[65.96,32.47],[65.9,32.71],[65.11,32.7],[65.05,32.94],[64.76,33.02],[64.55,32.86],[64.61,32.62],[64.4,32.46],[64.12,32.53],[63.69,33.08],[63.91,33.25],[63.84,33.48],[63.05,33.46],[62.61,34.01],[63.34,34.27],[63.26,34.51],[63.48,34.68],[64.8,34.79],[65.19,35.36],[67.58,35.61],[67.82,35.77],[68.11,35.68],[68.17,35.44],[68.99,35.43],[69.23,35.58],[69.18,35.83],[69.96,36.06],[69.91,36.3],[70.15,36.46],[70.99,36.43],[71.44,36.99],[71.05,37.59],[71.86,37.8],[71.47,38.4],[71.17,38.49],[71.33,39.15],[72.16,39.37],[72.46,39.27],[72.95,39.83],[73.26,39.73],[73.53,39.89],[73.83,39.78],[73.87,39.53],[74.74,39.48],[74.78,39.22],[75.4,38.76],[75.43,38.51],[76.29,38.45],[76.08,37.8],[76.37,37.69],[76.7,37.08],[76.99,36.98],[78.35,37.18],[78.63,37.07],[78.65,36.82],[79.47,36.74],[79.49,36.49],[79.76,36.37],[80.29,36.89],[81.12,36.05],[81.65,36.56],[83.0,36.47],[83.54,36.97],[84.34,36.85],[84.62,36.98],[84.62,37.22],[84.9,37.35],[85.16,37.22],[85.44,37.34],[85.45,37.59],[85.73,37.71],[85.99,37.59],[86.26,37.71],[86.28,37.95],[86.56,38.07],[86.82,37.94],[87.1,38.06],[87.12,38.31],[87.4,38.43],[87.66,38.3],[87.94,38.41],[87.96,38.66],[88.24,38.77],[88.5,38.64],[89.09,39.11],[89.89,38.95],[90.18,39.06],[90.21,39.31],[91.03,39.38],[91.72,40.33],[91.24,40.86],[91.28,41.1],[91.02,41.25],[91.05,41.49],[90.23,41.67],[90.26,41.92],[91.24,42.73],[92.63,42.5],[92.93,42.6],[92.97,42.84],[91.01,43.12],[89.55,43.09],[89.02,43.62],[88.13,43.53],[87.85,43.67],[87.87,43.92],[88.18,44.04],[88.46,43.9],[90.53,43.91],[90.57,44.16],[91.23,44.61],[91.27,44.86],[90.4,45.05],[90.08,44.94],[89.55,45.48],[89.93,46.09],[89.64,46.23],[89.68,46.48],[90.36,46.94],[90.4,47.19],[89.48,47.38],[89.24,48.03],[88.3,48.21],[88.04,48.85],[87.08,49.03],[87.1,49.28],[87.44,49.39],[87.76,49.25],[88.47,49.72],[88.78,49.57],[89.13,49.68],[89.16,49.93],[88.85,50.07],[88.88,50.32],[89.61,50.78],[91.25,50.53],[91.21,50.29],[90.2,50.24],[90.17,49.99],[89.82,49.89],[90.06,49.24],[89.06,49.18],[89.03,48.93],[89.34,48.78],[90.32,48.84],[91.89,48.59],[92.23,48.69],[92.28,48.94],[91.98,49.09],[92.03,49.34],[92.37,49.43],[93.93,49.15],[94.67,49.58],[94.96,49.42],[95.92,49.43],[95.98,49.67],[95.48,50.23],[95.55,50.48],[96.31,50.88],[96.6,50.72],[97.58,50.72],[97.65,50.96],[97.37,51.12],[97.44,51.36],[96.52,51.61],[96.59,51.85],[96.95,51.93],[97.23,51.76],[97.59,51.84],[97.67,52.08],[97.38,52.24],[97.46,52.48],[97.82,52.56],[97.9,52.79],[96.95,53.05],[96.58,52.97],[96.05,53.54],[95.68,53.46],[95.37,53.62],[95.44,53.87],[95.13,54.03],[95.2,54.27],[94.18,54.51],[94.25,54.75],[96.03,54.66],[97.7,54.32],[98.08,54.39],[98.16,54.62],[97.86,54.79],[97.95,55.03],[98.33,55.09],[98.63,54.93],[98.54,54.69],[98.84,54.52],[98.76,54.29],[99.05,54.12],[99.42,54.18],[99.9,53.61],[100.92,53.57],[101.19,53.39],[101.1,53.16],[101.37,52.99],[101.73,53.05],[102.0,52.88],[101.9,52.64],[102.78,52.36],[102.68,52.13],[103.09,51.55],[103.44,51.6],[104.28,51.31],[104.62,51.36],[104.73,51.59],[105.66,51.52],[106.22,52.01],[106.57,52.06],[108.28,51.65],[108.39,51.87],[108.17,52.05],[107.26,52.15],[107.03,52.33],[107.15,52.55],[107.5,52.59],[107.72,52.41],[108.54,52.71],[108.66,52.93],[108.44,53.11],[109.04,53.59],[108.81,53.77],[108.94,53.99],[109.46,54.21],[108.84,54.39],[107.75,53.66],[107.39,53.62],[107.27,53.4],[106.91,53.35],[106.8,53.13],[106.44,53.09],[106.33,52.87],[105.97,52.82],[105.86,52.6],[105.51,52.55],[105.13,53.13],[104.77,53.08],[104.52,53.26],[104.63,53.48],[103.76,53.79],[103.86,54.01],[103.6,54.19],[103.71,54.42],[103.44,54.59],[103.55,54.82],[102.63,55.12],[102.74,55.35],[102.46,55.53],[102.57,55.75],[102.29,55.93],[102.39,56.16],[102.11,56.33],[102.21,56.56],[101.92,56.74],[101.53,56.68],[100.93,56.17],[100.54,56.11],[100.25,56.28],[100.34,56.51],[100.04,56.68],[100.14,56.92],[100.54,56.97],[100.64,57.2],[100.13,57.78],[100.23,58.01],[99.91,58.18],[98.77,58.23],[98.21,58.8],[95.92,59.1],[95.0,58.72],[94.65,58.88],[94.22,58.81],[93.57,59.36],[92.35,59.36],[91.65,59.9],[90.83,59.97],[90.89,60.21],[90.15,60.74],[90.2,60.98],[89.44,61.51],[87.25,61.52],[86.42,62.04],[86.45,62.27],[86.01,62.41],[84.65,62.34],[83.76,62.84],[82.84,62.86],[82.84,63.09],[83.31,63.2],[83.31,63.44],[82.84,63.56],[82.84,63.8],[81.41,63.93],[81.41,64.17],[80.92,64.29],[79.95,64.29],[79.93,64.52],[79.43,64.64],[79.41,64.87],[77.91,64.97],[77.88,65.2],[77.36,65.31],[77.32,65.54],[75.3,65.49],[74.17,65.91],[74.1,66.14],[72.52,66.19],[72.45,66.41],[72.93,66.55],[73.97,66.59],[73.91,66.81],[74.4,66.95],[74.34,67.17],[75.29,67.65],[75.23,67.87],[74.66,67.96],[73.7,67.48],[73.77,67.26],[73.27,67.13],[73.35,66.91],[72.29,66.86],[72.21,67.08],[73.13,67.57],[73.05,67.8],[73.56,67.93],[73.49,68.15],[75.03,68.33],[74.92,68.56],[75.41,68.69],[75.31,68.92],[76.42,68.96],[76.51,68.72],[77.11,68.62],[77.19,68.39],[76.69,68.26],[76.78,68.03],[77.85,68.05],[77.78,68.28],[78.28,68.41],[78.21,68.64],[76.94,69.09],[76.85,69.32],[75.09,69.38],[74.59,69.25],[74.7,69.02],[74.21,68.88],[74.32,68.65],[72.77,68.46],[72.9,68.24],[72.38,68.1],[72.47,67.88],[71.96,67.75],[72.05,67.53],[71.55,67.39],[71.64,67.17],[71.15,67.03],[71.24,66.81],[70.76,66.67],[69.52,67.05],[67.42,66.9],[64.33,66.63],[63.89,66.46],[64.03,66.25],[63.6,66.08],[63.03,66.14],[62.88,66.36],[63.31,66.52],[63.17,66.74],[62.15,66.63],[60.82,66.93],[58.42,66.5],[57.07,66.78],[54.76,66.29],[53.4,66.54],[53.19,66.74],[53.56,66.92],[53.35,67.13],[52.76,67.14],[52.54,67.34],[51.58,67.17],[50.17,67.38],[49.82,67.19],[50.06,66.99],[51.45,66.78],[51.68,66.58],[51.33,66.39],[48.33,67.0],[48.08,67.19],[49.34,67.58],[49.09,67.77],[49.44,67.96],[51.38,68.33],[52.83,68.11],[53.83,68.28],[54.05,68.08],[54.66,68.06],[58.18,68.68],[60.41,68.16],[60.85,68.33],[60.68,68.53],[61.13,68.7],[60.95,68.91]],[[29.6,41.4],[28.74,41.56],[28.48,42.18],[28.15,42.15],[27.95,42.35],[28.02,42.99],[29.42,42.65],[29.68,42.03],[31.05,41.68],[31.24,41.48],[31.1,41.26],[30.26,41.43],[30.12,41.21],[29.79,41.2],[29.6,41.4]],[[8.08,61.58],[8.19,61.76],[8.88,61.67],[8.36,61.41],[8.08,61.58]],[[23.25,70.51],[26.63,70.41],[27.79,70.77],[30.63,70.52],[30.58,70.32],[28.88,70.31],[28.85,70.11],[29.38,69.99],[29.35,69.79],[28.79,69.72],[28.76,69.52],[28.21,69.45],[28.19,69.26],[26.6,69.23],[26.6,69.04],[27.61,68.6],[27.59,68.41],[22.06,68.5],[22.1,68.31],[21.63,68.22],[21.67,68.03],[20.24,67.96],[20.3,67.77],[19.47,67.4],[19.53,67.22],[18.18,67.13],[18.25,66.95],[17.84,66.85],[17.91,66.67],[16.61,66.57],[16.7,66.39],[15.87,65.99],[14.24,66.79],[15.53,66.91],[15.43,67.09],[15.84,67.19],[15.74,67.37],[16.48,67.75],[16.38,67.94],[16.82,68.04],[16.72,68.22],[17.16,68.32],[17.07,68.51],[17.52,68.61],[17.43,68.8],[17.89,68.89],[17.81,69.08],[18.28,69.18],[18.19,69.37],[18.67,69.47],[18.59,69.66],[21.23,69.76],[21.17,69.95],[21.69,70.04],[21.64,70.24],[22.17,70.33],[23.35,69.92],[23.88,70.0],[23.85,70.2],[23.28,70.31],[23.25,70.51]],[[62.75,65.76],[62.33,65.59],[61.77,65.64],[61.62,65.86],[62.6,65.97],[62.75,65.76]],[[84.87,44.01],[84.86,43.76],[85.16,43.62],[86.06,43.73],[86.62,43.21],[87.52,43.31],[87.8,43.17],[87.78,42.92],[87.15,42.44],[85.7,42.6],[84.81,42.49],[84.52,42.62],[84.53,42.87],[85.42,42.99],[85.44,43.24],[84.55,43.38],[84.56,43.63],[84.26,43.76],[83.95,43.64],[83.66,43.77],[83.66,44.02],[83.97,44.15],[84.87,44.01]],[[76.66,40.51],[75.8,40.32],[75.5,40.43],[74.98,39.88],[74.34,40.34],[74.3,40.59],[76.91,40.91],[77.15,41.56],[76.84,41.67],[76.81,41.92],[77.1,42.07],[78.0,41.99],[78.56,42.52],[81.85,42.49],[81.86,42.23],[81.56,42.1],[81.26,42.22],[80.69,41.7],[79.8,41.8],[79.78,42.06],[79.48,42.18],[79.19,42.04],[78.93,41.39],[78.06,41.22],[78.08,40.97],[77.8,40.83],[77.5,40.94],[76.96,40.4],[76.66,40.51]],[[35.1,65.44],[36.02,65.9],[35.72,66.07],[35.94,66.28],[37.28,66.19],[38.38,65.88],[38.9,65.92],[39.14,66.13],[39.67,66.16],[39.95,65.98],[39.71,65.77],[39.18,65.74],[38.94,65.53],[39.22,65.36],[38.99,65.15],[36.61,65.56],[35.39,65.27],[35.1,65.44]],[[14.86,43.69],[15.19,43.75],[15.42,43.58],[15.44,42.95],[16.22,42.66],[16.12,42.43],[15.79,42.37],[15.57,42.54],[14.81,42.19],[14.46,42.77],[14.56,43.0],[14.33,43.17],[14.43,43.4],[13.64,43.67],[13.74,43.9],[13.51,44.07],[13.18,44.01],[12.95,44.17],[13.04,44.4],[12.67,44.95],[12.77,45.18],[13.1,45.25],[13.33,45.08],[13.24,44.86],[14.04,44.59],[13.94,44.36],[14.17,44.2],[14.5,44.26],[14.86,43.69]],[[34.62,68.26],[33.41,68.53],[34.4,69.0],[34.97,69.05],[37.67,68.7],[37.99,68.53],[37.74,68.33],[38.05,68.16],[39.49,68.06],[40.66,67.75],[40.39,67.54],[39.02,67.27],[37.86,67.58],[36.45,67.66],[36.14,67.83],[36.37,68.03],[36.05,68.2],[34.62,68.26]],[[17.78,40.77],[17.45,41.36],[17.13,41.31],[16.36,41.61],[16.34,42.25],[17.11,42.59],[18.98,42.03],[18.87,41.8],[19.09,41.62],[18.98,41.39],[19.19,41.2],[19.19,40.55],[17.78,40.77]],[[45.55,67.73],[44.97,67.72],[44.7,67.9],[45.01,68.1],[44.73,68.29],[45.05,68.48],[45.65,68.5],[45.93,68.31],[45.6,68.12],[45.87,67.93],[45.55,67.73]],[[25.68,38.96],[25.56,38.73],[25.23,38.7],[24.51,39.06],[24.63,39.29],[24.96,39.32],[25.68,38.96]],[[26.22,37.7],[24.87,38.0],[24.67,38.2],[24.79,38.43],[25.11,38.47],[25.31,38.27],[25.63,38.3],[25.83,38.1],[26.15,38.13],[26.34,37.93],[26.22,37.7]],[[17.67,60.94],[17.38,61.07],[17.52,61.25],[18.25,61.16],[17.67,60.94]],[[55.02,30.19],[54.93,30.41],[55.1,30.58],[55.38,30.53],[55.47,30.3],[55.02,30.19]],[[17.66,61.89],[18.15,62.15],[18.21,62.36],[18.86,62.32],[18.81,62.11],[18.45,62.02],[18.4,61.81],[18.69,61.68],[18.55,61.51],[18.1,61.46],[17.66,61.89]],[[47.5,67.19],[46.6,66.98],[45.51,67.35],[46.73,67.75],[47.32,67.76],[47.57,67.57],[47.25,67.38],[47.5,67.19]],[[54.04,30.18],[54.14,29.96],[53.7,29.84],[53.6,30.06],[53.77,30.23],[54.04,30.18]],[[25.17,36.28],[25.05,36.04],[25.24,35.84],[25.55,35.87],[25.67,36.11],[25.99,36.14],[26.18,35.94],[26.06,35.7],[25.32,35.41],[24.62,35.77],[23.8,35.9],[23.52,36.53],[23.64,36.77],[23.95,36.8],[25.17,36.28]],[[33.65,67.79],[33.86,68.0],[34.4,68.06],[34.73,67.9],[34.51,67.69],[33.65,67.79]],[[61.36,65.47],[61.51,65.25],[61.11,65.08],[59.61,65.0],[59.45,65.22],[60.8,65.52],[61.36,65.47]],[[18.27,58.19],[17.72,57.96],[17.3,58.42],[17.43,58.61],[18.54,58.56],[19.25,58.97],[18.97,59.11],[19.11,59.29],[19.68,59.51],[20.38,59.41],[20.24,59.23],[20.64,58.76],[19.93,58.36],[19.24,58.46],[18.27,58.19]],[[83.04,42.5],[82.15,42.62],[82.15,42.87],[83.04,43.01],[83.34,42.88],[83.34,42.62],[83.04,42.5]],[[30.34,69.33],[31.4,69.26],[31.34,69.06],[30.79,69.0],[30.29,69.13],[30.34,69.33]],[[-4.35,53.9],[-4.3,54.11],[-3.65,54.03],[-3.45,53.44],[-3.8,53.37],[-4.35,53.9]],[[24.8,40.17],[25.0,39.97],[24.88,39.75],[24.56,39.71],[24.35,39.91],[24.48,40.14],[24.8,40.17]],[[25.53,39.81],[25.86,39.84],[26.06,39.64],[25.93,39.41],[25.61,39.38],[25.41,39.58],[25.53,39.81]],[[38.37,41.55],[38.54,41.34],[38.39,41.13],[38.07,41.14],[37.9,41.35],[38.06,41.55],[38.37,41.55]],[[43.77,66.92],[44.04,66.73],[43.75,66.53],[43.19,66.51],[42.92,66.7],[43.21,66.9],[43.77,66.92]],[[41.55,66.45],[41.28,66.24],[40.74,66.22],[40.46,66.4],[40.72,66.6],[41.27,66.63],[41.55,66.45]],[[10.51,56.91],[10.9,56.98],[11.01,57.17],[11.68,57.11],[11.57,56.92],[10.69,56.58],[10.4,56.71],[10.51,56.91]],[[91.39,49.39],[91.08,49.54],[91.13,49.79],[91.47,49.89],[91.77,49.74],[91.73,49.49],[91.39,49.39]],[[11.85,56.79],[12.52,56.72],[12.41,56.53],[12.02,56.46],[11.74,56.59],[11.85,56.79]],[[9.75,62.44],[9.64,62.27],[8.9,62.3],[9.44,62.55],[9.75,62.44]],[[55.04,68.82],[55.25,68.62],[54.85,68.44],[54.23,68.46],[54.01,68.66],[55.04,68.82]],[[15.88,68.87],[16.43,68.78],[16.53,68.59],[15.54,68.58],[15.43,68.76],[15.88,68.87]]],[[[72.48,34.09],[73.28,34.05],[73.31,33.8],[73.9,33.36],[74.15,33.51],[74.11,33.76],[73.21,34.54],[73.17,34.78],[72.89,34.88],[72.85,35.13],[72.03,35.17],[71.99,35.41],[71.7,35.51],[71.26,34.95],[70.44,34.98],[69.67,34.76],[69.39,34.85],[69.34,35.09],[69.04,35.18],[68.81,35.02],[69.2,34.45],[69.49,34.36],[69.72,34.52],[70.01,34.43],[70.06,34.18],[70.87,34.16],[70.91,33.91],[70.67,33.76],[70.39,33.85],[69.64,33.63],[69.69,33.39],[69.97,33.3],[69.83,32.66],[70.11,32.57],[70.53,33.12],[70.48,33.36],[71.24,33.58],[71.19,33.82],[72.48,34.09]]],[[[173.12,-40.23],[172.84,-40.14],[172.35,-40.68],[172.07,-40.58],[171.81,-40.72],[172.15,-41.31],[171.33,-41.51],[171.36,-41.75],[170.6,-42.68],[170.62,-42.93],[169.78,-43.11],[169.8,-43.36],[169.52,-43.5],[169.22,-43.4],[168.94,-43.54],[168.96,-43.78],[168.67,-43.92],[168.37,-43.82],[168.08,-43.96],[168.1,-44.2],[167.81,-44.34],[167.51,-44.24],[167.22,-44.37],[167.23,-44.62],[166.65,-45.14],[166.67,-45.38],[166.37,-45.52],[166.38,-45.77],[166.08,-45.9],[166.09,-46.15],[166.72,-46.61],[166.73,-46.85],[167.05,-46.95],[167.06,-47.2],[167.38,-47.3],[167.39,-47.54],[167.71,-47.65],[168.01,-47.51],[168.0,-47.27],[168.91,-47.09],[168.89,-46.85],[169.19,-46.71],[170.11,-46.76],[170.4,-46.62],[170.37,-46.38],[171.26,-46.18],[170.9,-45.6],[171.43,-45.07],[171.65,-44.44],[173.07,-44.18],[173.04,-43.94],[173.31,-43.79],[172.95,-43.22],[173.77,-43.01],[173.73,-42.77],[174.44,-41.83],[174.4,-41.59],[174.66,-41.44],[174.94,-41.53],[174.98,-41.77],[175.81,-41.8],[176.06,-41.64],[176.22,-41.01],[176.99,-40.79],[177.34,-39.76],[178.08,-39.54],[178.04,-39.3],[178.27,-39.14],[178.22,-38.9],[178.45,-38.75],[178.4,-38.51],[178.98,-37.57],[178.94,-37.33],[178.67,-37.25],[177.46,-37.53],[176.69,-37.5],[176.65,-37.26],[176.07,-36.83],[176.03,-36.59],[176.26,-36.44],[175.92,-35.86],[175.16,-35.81],[174.52,-34.88],[173.76,-34.82],[173.44,-34.23],[172.68,-34.16],[172.44,-34.3],[172.76,-34.9],[173.02,-35.01],[172.84,-35.65],[174.01,-36.79],[174.04,-37.04],[174.32,-37.14],[174.35,-37.38],[174.62,-37.48],[174.66,-37.72],[174.0,-38.66],[174.03,-38.9],[173.78,-39.05],[173.81,-39.3],[173.56,-39.45],[173.6,-39.69],[174.41,-39.73],[175.08,-40.65],[174.83,-40.8],[174.55,-40.71],[174.51,-40.47],[174.23,-40.37],[173.44,-40.58],[173.15,-40.48],[173.12,-40.23]]],[[[62.74,69.56],[64.26,69.24],[64.68,69.4],[63.56,69.89],[62.9,69.94],[62.49,69.77],[62.74,69.56]]],[[[145.94,-43.66],[146.2,-43.83],[146.53,-43.75],[146.59,-43.5],[146.32,-43.34],[146.0,-43.42],[145.94,-43.66]]],[[[-17.74,65.64],[-16.67,66.04],[-15.81,65.98],[-15.44,65.84],[-15.55,65.62],[-15.19,65.48],[-13.06,65.42],[-12.93,65.64],[-13.27,65.78],[-14.11,65.86],[-13.98,66.08],[-14.34,66.22],[-14.22,66.45],[-14.59,66.59],[-16.35,66.72],[-17.45,66.32],[-18.74,66.51],[-19.81,66.09],[-21.61,66.16],[-22.42,66.65],[-22.92,66.55],[-22.96,66.31],[-23.45,66.21],[-23.49,65.97],[-22.58,65.95],[-22.15,65.82],[-22.21,65.59],[-24.01,65.63],[-24.48,65.51],[-24.51,65.28],[-24.08,65.16],[-24.11,64.92],[-22.82,64.79],[-22.86,64.55],[-22.46,64.43],[-22.51,64.2],[-22.95,64.09],[-23.0,63.86],[-21.33,63.82],[-20.63,63.34],[-19.39,63.41],[-18.23,63.24],[-17.8,63.33],[-17.71,63.56],[-16.48,63.6],[-15.84,64.14],[-14.59,64.16],[-14.48,64.38],[-13.44,64.76],[-13.32,64.98],[-14.13,65.05],[-14.82,64.52],[-16.08,64.5],[-16.73,63.96],[-18.35,64.05],[-19.31,63.63],[-19.99,64.12],[-19.92,64.35],[-21.15,64.51],[-21.09,64.74],[-21.49,64.87],[-21.43,65.1],[-20.43,65.53],[-20.36,65.77],[-19.88,65.86],[-17.74,65.64]]],[[[19.77,-34.96],[20.45,-34.74],[20.57,-34.55],[20.4,-34.36],[19.72,-34.58],[19.45,-33.61],[19.01,-33.43],[18.33,-33.65],[18.26,-34.23],[18.42,-34.42],[19.77,-34.96]]],[[[120.08,40.21],[120.19,40.05],[120.55,40.26],[120.2,40.39],[120.08,40.21]]],[[[-8.86,58.02],[-9.24,57.95],[-9.27,57.73],[-8.92,57.6],[-8.13,57.95],[-8.09,58.16],[-8.82,58.23],[-8.86,58.02]]],[[[21.37,-34.12],[20.85,-34.54],[21.02,-34.72],[21.71,-34.5],[21.83,-34.3],[21.37,-34.12]]],[[[-25.35,37.66],[-25.09,37.8],[-25.12,38.06],[-25.41,38.17],[-26.24,37.98],[-26.21,37.72],[-25.27,36.89],[-25.0,37.03],[-25.03,37.29],[-25.33,37.4],[-25.35,37.66]]],[[[57.6,70.64],[57.98,70.82],[57.66,71.02],[56.95,71.05],[56.62,71.26],[55.91,71.28],[55.55,71.1],[55.89,70.9],[56.59,70.87],[56.92,70.67],[56.56,70.49],[56.88,70.28],[57.56,70.25],[57.92,70.43],[57.6,70.64]]],[[[2.24,39.71],[2.35,39.09],[3.08,38.88],[3.71,39.29],[3.77,39.52],[4.57,39.54],[4.63,39.78],[4.41,39.93],[4.47,40.17],[3.73,40.38],[3.44,40.3],[3.38,40.06],[2.58,40.03],[2.53,39.8],[2.24,39.71]]],[[[115.5,-33.02],[115.62,-33.21],[115.47,-33.37],[114.62,-33.63],[114.7,-34.17],[115.76,-34.63],[115.85,-35.18],[116.25,-35.39],[116.97,-35.27],[117.12,-35.11],[116.99,-34.92],[116.28,-35.04],[116.19,-34.49],[115.01,-33.85],[116.01,-33.42],[116.01,-31.87],[115.19,-32.13],[115.69,-32.52],[115.5,-33.02]]],[[[49.66,68.72],[50.28,68.72],[50.65,68.91],[50.4,69.1],[50.78,69.29],[49.62,69.67],[47.98,69.47],[47.62,69.28],[47.9,69.1],[47.54,68.91],[48.69,68.53],[49.66,68.72]],[[48.88,69.29],[49.51,69.29],[49.77,69.1],[48.78,68.91],[48.52,69.1],[48.88,69.29]]],[[[119.5,-34.39],[119.09,-34.54],[119.49,-34.74],[119.63,-34.57],[119.5,-34.39]]],[[[-16.39,32.32],[-16.65,32.96],[-16.92,33.09],[-17.7,32.95],[-17.7,32.69],[-17.43,32.57],[-17.17,32.7],[-16.65,32.19],[-16.39,32.32]]],[[[56.71,27.22],[55.85,27.02],[56.2,26.75],[57.06,26.95],[57.23,27.11],[57.15,27.32],[56.71,27.22]]],[[[67.31,70.36],[66.85,70.2],[67.06,69.98],[66.61,69.82],[66.82,69.6],[68.29,69.24],[68.74,69.39],[67.72,69.91],[68.18,70.07],[67.98,70.29],[67.31,70.36]]],[[[165.96,-51.3],[166.29,-51.17],[166.59,-50.57],[166.26,-50.47],[165.62,-50.97],[165.63,-51.2],[165.96,-51.3]]],[[[59.95,70.33],[59.66,70.54],[58.98,70.58],[58.6,70.4],[58.9,70.19],[58.53,70.02],[58.83,69.81],[60.41,69.53],[61.83,69.82],[60.63,70.29],[59.95,70.33]]],[[[-176.13,-43.85],[-176.2,-43.62],[-176.5,-43.53],[-177.27,-43.72],[-176.84,-44.27],[-176.17,-44.68],[-175.76,-44.17],[-175.83,-43.94],[-176.13,-43.85]]],[[[51.65,71.36],[52.36,71.36],[52.68,71.55],[52.29,71.74],[51.57,71.75],[51.25,71.56],[51.65,71.36]]],[[[1.85,39.15],[1.91,39.38],[1.68,39.53],[1.4,39.44],[1.35,39.2],[1.07,39.11],[1.19,38.49],[1.41,38.35],[2.02,38.76],[2.07,39.0],[1.85,39.15]]],[[[106.8,51.26],[106.46,51.21],[106.35,50.99],[106.58,50.81],[106.92,50.86],[107.48,51.35],[107.26,51.53],[106.92,51.48],[106.8,51.26]]],[[[122.41,40.84],[122.03,41.04],[121.59,40.94],[122.35,40.55],[122.51,40.68],[122.41,40.84]]],[[[67.85,71.12],[67.63,71.35],[66.92,71.42],[66.44,71.25],[66.67,71.03],[66.2,70.87],[66.42,70.65],[67.1,70.58],[67.57,70.74],[67.36,70.97],[67.85,71.12]]],[[[73.07,69.89],[72.42,69.98],[71.93,69.83],[72.07,69.6],[73.84,69.57],[74.35,69.71],[74.23,69.94],[74.75,70.08],[74.63,70.31],[73.97,70.41],[73.45,70.26],[73.58,70.03],[73.07,69.89]]],[[[-6.37,62.74],[-7.72,62.17],[-7.76,61.97],[-7.39,61.84],[-7.43,61.64],[-6.74,61.16],[-6.33,61.22],[-6.28,61.42],[-6.65,61.56],[-6.6,61.76],[-5.72,62.07],[-5.67,62.26],[-6.37,62.74]]],[[[13.02,36.14],[12.72,36.08],[12.25,35.53],[12.46,35.35],[13.14,35.72],[13.23,35.96],[13.02,36.14]]],[[[54.74,26.86],[54.58,26.7],[54.67,26.49],[55.51,26.7],[55.17,26.97],[54.74,26.86]]],[[[53.48,70.77],[54.87,70.35],[55.54,70.33],[55.88,70.51],[53.44,71.15],[52.74,71.16],[52.42,70.97],[52.8,70.78],[53.48,70.77]]],[[[-7.9,33.45],[-8.14,33.59],[-8.4,33.48],[-8.43,33.24],[-8.19,33.1],[-7.93,33.2],[-7.9,33.45]]],[[[32.58,31.12],[32.71,31.35],[32.54,31.56],[31.78,31.73],[31.65,31.5],[31.82,31.29],[32.58,31.12]]],[[[134.0,42.78],[134.0,43.01],[133.53,42.99],[133.53,42.77],[133.77,42.66],[134.0,42.78]]],[[[159.46,-31.72],[159.47,-31.47],[159.22,-31.33],[158.95,-31.45],[158.94,-31.7],[159.19,-31.84],[159.46,-31.72]]],[[[66.59,69.22],[66.16,69.06],[66.3,68.85],[66.92,68.79],[67.05,68.57],[67.66,68.5],[67.78,68.29],[68.39,68.22],[68.88,68.36],[68.77,68.58],[69.27,68.72],[69.1,68.95],[68.04,68.87],[66.59,69.22]]],[[[168.3,-29.12],[168.29,-28.87],[168.04,-28.75],[167.8,-28.88],[167.81,-29.13],[168.06,-29.25],[168.3,-29.12]]],[[[131.43,43.23],[131.44,43.01],[131.22,42.88],[131.24,42.66],[131.47,42.56],[131.9,43.03],[132.38,42.61],[133.07,42.75],[133.06,42.97],[132.59,42.95],[132.11,43.38],[131.43,43.23]]],[[[-13.67,28.9],[-13.66,29.15],[-13.9,29.28],[-14.16,29.15],[-14.16,28.9],[-13.92,28.77],[-13.67,28.9]]],[[[130.82,42.19],[131.03,42.32],[131.02,42.54],[130.79,42.63],[130.57,42.51],[130.59,42.29],[130.82,42.19]]],[[[-178.1,-29.39],[-177.84,-29.46],[-177.64,-29.3],[-177.69,-29.06],[-177.95,-28.98],[-178.15,-29.15],[-178.1,-29.39]]],[[[166.17,-48.33],[166.49,-48.43],[166.8,-48.3],[166.79,-48.06],[166.16,-48.09],[166.17,-48.33]]],[[[169.05,-52.4],[168.72,-52.54],[168.74,-52.77],[169.42,-52.72],[169.39,-52.49],[169.05,-52.4]]],[[[14.44,36.21],[14.13,36.15],[14.04,35.91],[14.25,35.73],[14.56,35.79],[14.65,36.03],[14.44,36.21]]],[[[-13.37,57.69],[-13.35,57.91],[-13.72,58.04],[-14.1,57.95],[-14.11,57.73],[-13.37,57.69]]],[[[50.01,27.05],[49.77,27.07],[49.63,26.87],[49.73,26.66],[50.11,26.84],[50.01,27.05]]],[[[-31.3,39.16],[-30.99,39.07],[-30.73,39.22],[-30.78,39.48],[-31.45,39.91],[-31.71,39.75],[-31.3,39.16]]],[[[130.15,42.26],[129.93,42.14],[129.95,41.92],[130.18,41.82],[130.39,41.95],[130.37,42.17],[130.15,42.26]]],[[[-178.85,-30.26],[-178.6,-30.34],[-178.4,-30.19],[-178.45,-29.95],[-178.7,-29.86],[-178.9,-30.02],[-178.85,-30.26]]],[[[-17.14,28.12],[-16.89,28.0],[-16.15,28.14],[-15.9,28.77],[-16.14,28.9],[-16.39,28.77],[-16.39,28.51],[-17.14,28.38],[-17.64,28.87],[-17.65,29.13],[-17.9,29.25],[-18.15,29.12],[-18.38,28.47],[-18.13,28.35],[-17.89,28.49],[-17.38,27.99],[-17.14,28.12]]],[[[55.56,71.87],[55.93,72.06],[55.57,72.27],[54.81,72.28],[54.45,72.1],[54.83,71.89],[55.56,71.87]]],[[[178.29,-49.96],[178.61,-50.03],[178.88,-49.87],[178.82,-49.65],[178.23,-49.74],[178.29,-49.96]]],[[[127.83,39.7],[128.0,40.04],[127.79,40.13],[127.6,40.01],[127.83,39.7]]],[[[117.53,-35.32],[118.8,-34.87],[118.39,-34.67],[117.55,-34.96],[117.4,-35.13],[117.53,-35.32]]],[[[129.58,41.23],[130.01,41.26],[129.99,41.48],[129.76,41.58],[129.56,41.45],[129.58,41.23]]],[[[-16.39,33.34],[-16.39,33.09],[-16.13,32.96],[-15.87,33.09],[-15.87,33.34],[-16.13,33.47],[-16.39,33.34]]],[[[-18.13,28.1],[-18.37,27.97],[-18.37,27.72],[-18.12,27.6],[-17.87,27.73],[-17.88,27.98],[-18.13,28.1]]],[[[-15.66,27.64],[-15.16,28.15],[-15.16,28.4],[-15.4,28.52],[-15.9,28.02],[-15.9,27.76],[-15.66,27.64]]],[[[147.56,-43.25],[147.29,-43.09],[146.97,-43.17],[146.91,-43.42],[147.18,-43.58],[147.51,-43.49],[147.56,-43.25]]],[[[12.25,37.09],[11.94,37.02],[11.86,36.78],[12.07,36.61],[12.37,36.67],[12.46,36.91],[12.25,37.09]]],[[[172.17,-34.2],[172.15,-33.95],[171.89,-33.84],[171.65,-33.98],[171.67,-34.23],[171.94,-34.34],[172.17,-34.2]]],[[[30.72,31.88],[30.42,31.86],[30.3,31.63],[30.47,31.42],[30.77,31.44],[30.89,31.67],[30.72,31.88]]],[[[-6.43,59.06],[-6.08,58.91],[-5.69,58.97],[-5.65,59.18],[-6.38,59.26],[-6.43,59.06]]]]}}]}