{"type":"FeatureCollection","features":[{"type":"Feature","properties":{},"geometry":{"type":"MultiPolygon","coordinates":[[[[173.04,-43.94],[174.4,-41.59],[175.81,-41.8],[176.99,-40.79],[178.98,-37.57],[176.69,-37.5],[175.92,-35.86],[173.18,-34.12],[172.44,-34.3],[172.84,-35.65],[174.66,-37.72],[173.6,-39.69],[175.08,-40.65],[172.84,-40.14],[171.81,-40.72],[172.15,-41.31],[170.62,-42.93],[167.22,-44.37],[166.08,-45.9],[167.71,-47.65],[171.26,-46.18],[170.9,-45.6],[171.65,-44.44],[173.04,-43.94]]],[[[-78.27,0.62],[-79.18,-1.33],[-79.09,-2.33],[-78.22,-2.26],[-78.49,-1.65],[-76.59,1.24],[-75.1,5.58],[-76.84,1.59],[-78.27,0.62]]],[[[57.78,65.33],[56.67,66.0],[55.18,65.27],[56.11,64.82],[54.85,64.48],[54.11,64.72],[54.43,65.51],[52.2,65.58],[53.57,64.74],[49.28,63.84],[49.15,64.44],[46.97,64.04],[47.22,65.63],[44.56,66.36],[44.9,66.95],[48.0,66.8],[51.38,68.33],[60.85,68.33],[61.41,69.07],[60.41,69.53],[61.57,70.03],[57.92,70.43],[56.65,71.65],[55.55,71.49],[55.54,70.71],[52.36,71.36],[52.22,72.13],[53.67,72.5],[53.21,73.09],[54.78,73.46],[53.49,74.08],[51.99,73.3],[52.49,72.71],[51.06,72.33],[51.34,71.18],[59.48,69.77],[57.98,68.89],[54.59,69.22],[47.65,67.96],[46.59,68.7],[43.28,68.81],[44.11,67.89],[42.37,67.06],[41.24,67.39],[41.21,68.15],[35.89,69.5],[36.2,68.78],[40.66,67.75],[40.72,66.6],[31.82,66.84],[34.4,66.14],[33.51,65.67],[34.02,64.75],[32.64,63.63],[32.86,62.87],[27.89,63.81],[25.71,66.21],[21.25,66.19],[20.52,64.27],[15.7,63.14],[14.1,63.51],[14.81,62.37],[14.1,61.96],[14.45,61.37],[10.01,61.05],[9.24,59.77],[6.86,58.64],[6.05,59.87],[6.62,60.27],[5.48,60.92],[5.86,61.66],[8.67,63.16],[12.24,63.73],[12.11,65.38],[16.19,68.31],[15.43,68.76],[17.07,68.51],[17.89,68.89],[17.63,69.46],[27.79,70.77],[30.63,70.52],[28.88,70.31],[29.87,69.66],[34.97,69.05],[30.74,70.92],[24.27,71.49],[18.76,70.54],[18.02,69.76],[11.93,68.08],[11.56,67.33],[13.38,67.4],[11.83,66.97],[10.9,65.85],[11.64,65.45],[4.76,62.49],[4.11,61.2],[5.02,59.98],[4.0,59.35],[-2.68,57.84],[-2.76,58.81],[-0.58,59.85],[-0.88,61.14],[-2.67,60.37],[-1.68,59.92],[-2.2,59.47],[-4.48,59.36],[-3.53,58.71],[-7.67,58.44],[-7.52,57.25],[-8.34,56.67],[-6.76,55.52],[-8.5,55.59],[-9.29,54.99],[-9.02,54.41],[-10.75,54.44],[-10.21,53.03],[-10.97,52.17],[-10.07,51.29],[-7.39,51.74],[-8.13,51.12],[-8.43,48.8],[-6.77,47.44],[-5.72,44.54],[-2.14,43.96],[-8.1,44.05],[-9.63,43.32],[-8.72,41.01],[-9.13,39.67],[-9.96,39.61],[-9.33,37.43],[-7.02,36.88],[-6.15,35.56],[-7.35,33.91],[-8.9,33.51],[-10.1,31.07],[-7.02,32.39],[-7.2,33.03],[-6.16,33.45],[-5.73,32.91],[-4.11,34.0],[-3.99,33.13],[-1.72,33.74],[1.28,33.21],[4.93,35.01],[5.93,33.95],[7.19,33.85],[6.75,35.08],[10.11,34.82],[10.22,33.49],[14.98,32.5],[15.7,31.51],[15.36,32.8],[11.5,33.34],[10.74,34.29],[11.7,34.74],[11.1,36.17],[11.56,36.72],[10.69,37.41],[4.0,37.4],[0.29,36.65],[-2.2,35.15],[-4.88,35.57],[-5.04,36.2],[-2.26,36.26],[-0.58,37.26],[0.25,38.85],[-0.09,39.63],[2.71,41.58],[7.44,40.99],[8.35,40.35],[7.67,39.09],[8.56,38.44],[10.39,39.76],[12.46,38.46],[12.33,37.33],[15.04,36.33],[15.61,37.77],[19.4,39.72],[20.24,38.97],[19.8,38.02],[24.04,34.6],[27.55,35.18],[28.49,36.36],[30.29,35.83],[31.12,36.75],[32.32,35.72],[33.07,35.97],[31.79,34.82],[33.21,34.23],[35.08,35.82],[33.68,35.99],[34.88,36.46],[35.52,36.04],[35.05,33.86],[30.0,34.27],[28.23,33.69],[30.33,32.74],[33.78,32.72],[34.41,32.31],[33.88,31.41],[31.61,31.94],[29.46,31.12],[27.56,31.85],[25.94,31.46],[29.21,30.65],[30.35,31.19],[31.9,30.41],[33.49,30.73],[35.26,30.37],[35.44,29.72],[41.2,30.04],[45.61,29.32],[48.24,28.17],[50.68,25.19],[51.09,25.77],[50.08,27.87],[48.74,28.15],[48.3,29.0],[49.26,29.97],[50.96,27.99],[55.2,25.22],[56.96,25.99],[61.2,25.14],[56.62,26.26],[57.15,27.32],[55.77,26.64],[53.56,26.91],[51.43,28.48],[49.8,31.32],[51.56,30.23],[52.63,28.46],[56.37,28.7],[56.89,27.98],[58.85,28.55],[57.82,30.01],[58.99,29.54],[59.31,30.72],[60.1,29.9],[59.99,28.07],[61.59,26.85],[62.49,27.85],[60.84,29.93],[63.07,30.0],[63.34,29.08],[65.68,28.65],[64.38,27.12],[66.8,27.05],[67.58,27.87],[67.11,26.74],[68.08,25.61],[67.57,24.74],[66.56,26.08],[61.52,24.86],[66.27,25.34],[68.88,22.9],[68.46,23.85],[71.42,23.89],[72.29,25.69],[74.74,26.75],[75.33,27.85],[76.8,27.51],[76.88,26.59],[81.97,25.07],[85.89,26.19],[84.56,27.34],[82.01,27.6],[81.76,28.62],[82.47,27.85],[84.58,28.03],[86.85,26.9],[92.04,26.81],[94.25,27.54],[94.85,28.9],[91.83,27.17],[86.42,27.59],[78.77,30.59],[76.37,32.23],[75.38,34.24],[73.38,35.18],[69.04,35.18],[68.32,33.58],[66.91,32.87],[66.89,33.99],[65.74,34.31],[65.48,35.28],[68.99,35.43],[70.89,36.93],[70.76,39.09],[67.65,38.82],[68.59,39.72],[73.49,40.14],[74.23,41.1],[75.99,41.23],[74.12,41.87],[73.29,41.41],[73.17,42.17],[70.68,41.01],[70.42,42.28],[75.21,42.72],[77.41,41.96],[79.72,43.33],[80.95,42.85],[83.95,43.39],[83.06,44.53],[86.95,43.58],[90.53,43.91],[90.68,44.9],[89.2,45.12],[89.68,46.48],[88.88,47.67],[84.76,48.97],[85.76,49.07],[85.15,50.11],[87.21,50.54],[86.62,51.58],[87.61,51.15],[89.83,52.28],[94.5,52.98],[94.5,54.35],[93.48,54.58],[93.98,55.15],[98.33,55.09],[103.09,51.55],[106.11,51.79],[105.69,50.26],[107.92,50.99],[107.94,51.61],[110.84,51.73],[110.68,52.52],[108.07,52.45],[109.61,53.44],[109.63,55.72],[108.71,54.17],[106.44,53.09],[107.27,54.02],[105.81,54.48],[106.42,54.96],[104.41,55.15],[104.72,56.45],[107.48,57.02],[106.79,55.0],[107.52,54.46],[108.56,55.89],[108.16,56.84],[108.95,57.25],[107.47,57.99],[105.77,56.95],[105.27,57.9],[103.28,57.97],[103.98,58.42],[103.54,58.99],[100.31,59.94],[96.27,58.94],[95.65,59.5],[94.22,58.81],[94.07,59.67],[92.35,59.36],[90.15,60.74],[91.21,61.62],[87.91,63.02],[87.61,64.09],[82.84,63.8],[80.92,64.29],[81.38,64.86],[80.88,64.98],[74.35,65.23],[72.45,66.41],[73.97,66.59],[75.23,67.87],[72.29,66.86],[73.49,68.15],[75.82,69.05],[77.11,68.62],[76.69,68.26],[77.43,67.7],[78.49,67.71],[76.85,69.32],[72.85,69.29],[75.17,70.45],[73.43,71.34],[74.42,71.86],[75.13,71.77],[74.81,71.16],[78.58,71.26],[76.42,71.81],[78.81,72.58],[72.08,72.36],[71.32,71.59],[72.19,71.28],[71.97,70.67],[73.97,70.41],[71.59,69.46],[73.24,68.6],[71.24,66.81],[65.04,66.35],[60.87,64.69],[59.06,62.98],[58.09,64.29],[58.68,64.87],[57.78,65.33]],[[37.27,63.07],[36.27,63.39],[37.69,63.49],[37.27,63.07]],[[79.31,45.25],[81.81,45.55],[80.88,45.16],[80.9,44.39],[79.35,44.48],[79.31,45.25]],[[25.12,35.61],[23.8,35.9],[23.64,36.77],[25.99,36.14],[25.12,35.61]],[[42.1,65.7],[43.17,65.74],[42.1,64.92],[39.74,65.39],[42.1,65.7]],[[85.0,47.06],[85.67,47.55],[86.26,46.77],[85.0,47.06]],[[45.51,67.35],[47.57,67.57],[47.18,66.99],[45.51,67.35]],[[25.63,38.3],[26.22,37.7],[24.67,38.2],[25.63,38.3]],[[88.98,53.71],[88.32,54.25],[88.73,54.6],[90.1,54.01],[88.98,53.71]],[[37.4,65.43],[35.1,65.44],[35.94,66.28],[39.95,65.98],[38.99,65.15],[37.4,65.43]],[[24.96,39.32],[25.56,38.73],[24.51,39.06],[24.96,39.32]],[[84.68,62.81],[84.25,63.41],[85.61,63.01],[84.68,62.81]],[[45.05,68.48],[45.87,67.93],[44.97,67.72],[45.05,68.48]]],[[[-22.39,70.91],[-25.82,71.22],[-25.31,70.62],[-27.05,70.28],[-23.69,70.23],[-23.16,70.1],[-23.83,69.52],[-31.87,68.44],[-35.03,66.48],[-40.99,65.15],[-41.55,64.34],[-41.06,63.38],[-42.33,63.1],[-43.36,60.79],[-44.71,60.07],[-45.75,61.07],[-47.88,60.84],[-47.88,61.5],[-49.76,62.09],[-50.39,63.46],[-52.03,63.56],[-49.35,60.96],[-42.76,59.61],[-43.12,60.32],[-41.96,60.61],[-42.67,61.15],[-41.49,61.43],[-42.2,61.97],[-41.7,62.8],[-40.45,63.07],[-39.59,64.28],[-40.34,64.84],[-33.05,66.58],[-31.28,68.09],[-23.37,69.16],[-20.82,70.49],[-21.18,71.1],[-20.48,71.42],[-24.39,72.62],[-22.39,70.91]]],[[[119.54,35.2],[122.92,36.91],[123.07,37.63],[121.37,37.79],[121.07,38.44],[123.3,38.69],[123.86,39.79],[124.93,39.16],[124.63,37.73],[126.1,37.66],[125.81,34.95],[124.97,34.11],[126.99,33.07],[126.95,33.95],[128.95,34.84],[126.58,34.35],[126.82,36.52],[127.56,36.77],[126.0,39.89],[124.52,40.49],[122.22,39.98],[124.08,41.83],[123.6,43.95],[123.04,43.55],[123.55,43.16],[121.89,42.43],[121.71,41.53],[120.87,41.63],[119.72,39.99],[117.17,40.9],[116.19,40.4],[113.97,38.38],[114.59,37.77],[114.42,35.52],[113.46,35.32],[113.94,34.08],[115.47,33.65],[118.49,34.27],[118.85,32.64],[117.7,31.03],[119.72,31.47],[120.32,30.05],[121.42,30.29],[122.09,29.26],[117.39,23.75],[114.89,22.75],[112.58,23.53],[112.99,21.67],[116.37,22.57],[119.62,24.62],[122.64,28.72],[122.36,29.56],[123.17,30.47],[119.54,35.2]],[[120.35,38.17],[119.49,37.17],[119.44,38.04],[118.07,38.71],[121.97,40.75],[120.35,38.17]],[[117.37,36.64],[119.65,35.76],[117.68,34.67],[116.89,35.27],[117.37,36.64]]],[[[-67.06,-56.1],[-66.4,-55.13],[-63.33,-54.83],[-66.97,-54.19],[-69.09,-51.33],[-68.74,-50.36],[-67.22,-49.92],[-67.06,-48.74],[-65.63,-48.3],[-65.65,-46.94],[-67.29,-45.96],[-65.06,-45.27],[-64.91,-43.39],[-63.15,-42.68],[-63.63,-41.88],[-64.68,-42.11],[-64.74,-41.17],[-62.09,-41.0],[-61.94,-39.41],[-57.42,-38.42],[-56.29,-36.56],[-57.27,-36.0],[-56.68,-35.73],[-57.54,-34.7],[-54.8,-35.25],[-53.38,-34.54],[-48.81,-29.08],[-48.0,-27.37],[-48.62,-26.55],[-48.14,-25.49],[-46.55,-24.16],[-45.55,-24.5],[-44.12,-23.5],[-44.46,-22.96],[-45.69,-23.83],[-49.54,-24.14],[-54.56,-27.33],[-55.24,-27.25],[-54.92,-26.58],[-55.94,-26.96],[-56.33,-26.0],[-58.04,-26.07],[-63.36,-29.98],[-63.69,-29.29],[-65.24,-30.72],[-69.15,-32.14],[-69.56,-35.59],[-68.36,-35.67],[-70.05,-37.0],[-69.77,-37.62],[-70.53,-37.45],[-70.35,-39.41],[-71.39,-39.77],[-70.63,-40.91],[-68.84,-40.1],[-66.63,-41.63],[-67.78,-43.17],[-69.11,-43.54],[-69.51,-45.85],[-68.05,-46.06],[-69.66,-46.63],[-68.29,-47.61],[-69.1,-48.71],[-68.73,-49.36],[-70.19,-49.39],[-69.26,-50.51],[-70.16,-51.63],[-69.57,-52.09],[-72.62,-52.99],[-70.6,-54.58],[-69.58,-54.4],[-70.09,-53.84],[-69.27,-53.47],[-66.59,-54.56],[-68.49,-55.53],[-70.89,-55.14],[-67.06,-56.1]],[[-69.74,-52.89],[-68.63,-52.92],[-70.04,-53.47],[-70.52,-53.22],[-69.74,-52.89]]],[[[-75.91,-48.73],[-75.41,-51.99],[-73.66,-51.61],[-75.28,-49.47],[-72.2,-44.2],[-72.33,-42.15],[-71.31,-42.16],[-72.16,-41.39],[-71.5,-38.97],[-71.94,-38.48],[-70.31,-33.84],[-71.42,-32.74],[-71.63,-31.24],[-71.54,-30.23],[-70.04,-29.2],[-70.41,-24.75],[-72.19,-30.66],[-72.09,-34.76],[-74.4,-38.28],[-73.61,-39.07],[-74.29,-41.13],[-73.83,-41.64],[-74.5,-41.9],[-74.13,-42.8],[-75.04,-43.84],[-74.56,-44.36],[-75.4,-45.02],[-75.14,-46.33],[-75.89,-46.61],[-74.44,-47.3],[-75.74,-47.7],[-75.91,-48.73]]],[[[-54.3,67.83],[-54.76,67.19],[-53.86,66.94],[-53.15,68.44],[-54.49,68.49],[-54.3,67.83]]],[[[-107.11,23.58],[-105.35,21.18],[-106.68,22.2],[-107.06,21.38],[-106.04,20.98],[-105.08,18.89],[-98.36,15.98],[-98.4,16.72],[-100.27,17.32],[-97.99,17.26],[-97.26,16.44],[-97.9,15.77],[-96.98,15.34],[-93.93,16.05],[-95.92,16.29],[-96.92,18.46],[-96.5,19.24],[-94.42,17.74],[-92.45,18.71],[-91.57,18.25],[-90.49,19.15],[-90.27,20.5],[-87.24,21.03],[-87.5,19.22],[-88.35,18.72],[-87.95,18.01],[-86.42,20.31],[-86.8,21.76],[-90.49,21.36],[-91.58,18.99],[-95.81,18.91],[-97.59,22.21],[-96.87,26.31],[-91.68,29.16],[-89.33,28.64],[-88.39,29.84],[-85.85,30.09],[-85.21,29.21],[-84.06,29.97],[-83.06,28.36],[-83.77,27.33],[-83.67,25.29],[-82.0,25.2],[-82.46,24.52],[-81.04,24.32],[-79.97,25.08],[-79.38,27.13],[-80.66,28.99],[-80.04,31.27],[-78.57,33.17],[-73.74,36.53],[-71.69,39.78],[-69.69,40.85],[-67.69,43.3],[-67.7,44.32],[-65.63,43.09],[-64.09,44.42],[-60.69,45.01],[-59.49,46.07],[-60.2,46.88],[-58.94,47.53],[-56.42,47.55],[-57.0,46.93],[-56.32,46.52],[-52.86,46.46],[-51.96,47.64],[-53.42,49.77],[-56.18,50.47],[-54.81,50.65],[-55.54,51.09],[-54.71,51.5],[-55.4,52.37],[-55.07,53.43],[-59.42,55.42],[-60.1,56.95],[-64.31,60.83],[-65.57,60.56],[-66.33,59.18],[-68.31,59.06],[-69.56,59.87],[-67.43,60.69],[-69.25,61.47],[-70.5,61.15],[-74.11,63.1],[-76.47,62.61],[-75.86,63.6],[-77.79,64.75],[-75.1,65.51],[-78.66,65.11],[-77.8,63.83],[-78.63,63.26],[-76.76,62.11],[-72.79,62.09],[-70.35,60.71],[-70.25,59.59],[-68.09,58.18],[-66.16,58.3],[-65.42,59.68],[-64.19,59.95],[-64.07,59.06],[-61.51,57.37],[-62.38,56.46],[-61.44,56.05],[-61.33,53.43],[-62.14,52.97],[-60.9,53.01],[-61.49,52.34],[-60.66,51.93],[-62.47,51.66],[-62.62,51.01],[-68.86,50.15],[-69.93,49.6],[-69.86,48.53],[-71.09,48.82],[-70.81,49.94],[-74.0,49.3],[-76.1,50.09],[-78.51,53.99],[-79.57,54.27],[-77.23,55.12],[-77.32,55.79],[-76.19,56.42],[-77.03,58.14],[-78.45,58.86],[-77.1,59.75],[-77.96,60.79],[-77.18,61.36],[-78.35,62.83],[-81.24,61.94],[-79.63,61.25],[-78.99,61.58],[-80.2,62.1],[-78.35,61.9],[-78.21,61.22],[-79.47,60.57],[-77.96,59.86],[-79.29,58.97],[-77.18,56.97],[-77.75,56.65],[-80.08,58.13],[-80.77,56.37],[-79.17,55.26],[-80.46,55.03],[-80.31,54.36],[-89.19,56.91],[-87.39,55.66],[-82.48,54.87],[-83.05,54.28],[-82.53,53.45],[-86.33,51.39],[-85.78,50.59],[-86.38,49.27],[-87.78,48.89],[-87.27,49.96],[-88.91,50.45],[-89.41,49.12],[-90.41,49.05],[-91.32,50.2],[-94.36,51.15],[-98.79,54.09],[-99.45,53.57],[-103.27,54.62],[-104.81,53.64],[-107.04,53.93],[-107.64,55.61],[-109.07,55.46],[-108.47,54.9],[-108.97,54.34],[-112.75,55.46],[-110.3,56.56],[-111.49,57.41],[-110.44,57.68],[-111.28,59.34],[-115.19,58.36],[-116.94,58.57],[-116.86,59.61],[-121.11,58.74],[-123.43,59.5],[-122.57,61.3],[-117.88,60.98],[-115.98,60.16],[-113.16,61.13],[-114.59,61.94],[-119.2,61.51],[-121.72,62.29],[-123.5,61.35],[-123.36,60.32],[-124.3,59.55],[-121.05,57.71],[-118.94,58.56],[-117.43,57.57],[-118.21,57.03],[-117.74,56.36],[-121.17,56.91],[-122.08,56.17],[-118.6,54.41],[-116.43,54.34],[-117.26,53.43],[-114.54,50.36],[-115.23,49.88],[-117.01,51.38],[-116.16,50.44],[-116.82,49.96],[-117.33,50.83],[-118.73,51.03],[-118.21,51.75],[-121.73,52.58],[-122.37,53.42],[-121.01,53.88],[-122.77,55.23],[-123.39,54.69],[-126.59,55.48],[-127.32,54.74],[-122.97,52.89],[-124.62,52.08],[-122.06,51.25],[-121.69,49.87],[-127.01,51.13],[-127.05,52.25],[-128.31,53.26],[-128.22,54.59],[-130.04,54.65],[-128.85,55.57],[-128.25,54.97],[-127.15,55.31],[-129.09,56.16],[-130.55,55.8],[-131.55,57.35],[-132.4,56.77],[-133.32,57.53],[-133.14,59.27],[-134.53,58.46],[-135.0,59.42],[-136.06,59.57],[-137.48,58.54],[-138.86,60.0],[-145.49,60.55],[-146.44,61.31],[-148.94,60.89],[-149.82,62.95],[-152.46,62.46],[-151.66,61.82],[-152.52,61.15],[-152.15,60.62],[-154.53,59.88],[-154.16,61.09],[-155.03,62.37],[-148.68,64.28],[-144.75,63.88],[-145.66,65.14],[-147.92,65.52],[-142.03,65.79],[-141.55,66.68],[-146.38,67.32],[-150.17,66.55],[-150.81,65.52],[-152.26,65.61],[-150.66,66.67],[-151.12,67.01],[-155.29,66.92],[-157.75,66.0],[-158.32,66.32],[-157.42,67.07],[-162.85,67.21],[-166.16,69.13],[-166.85,68.32],[-160.69,65.58],[-165.88,64.74],[-165.7,65.36],[-167.07,65.94],[-163.39,65.95],[-163.03,66.35],[-164.27,66.72],[-169.05,65.7],[-166.17,64.35],[-161.3,64.36],[-162.0,63.6],[-163.49,63.8],[-163.23,63.13],[-165.6,63.22],[-166.67,61.67],[-165.43,60.9],[-167.63,60.13],[-162.09,59.83],[-162.66,59.1],[-161.64,58.34],[-157.83,58.27],[-159.78,56.83],[-158.24,56.14],[-155.56,57.6],[-154.46,56.95],[-154.79,56.42],[-153.76,56.38],[-151.63,57.49],[-151.51,58.94],[-145.55,60.34],[-144.66,59.59],[-139.88,59.49],[-136.96,58.18],[-136.58,57.06],[-133.02,54.5],[-133.47,53.39],[-131.54,51.9],[-130.55,51.87],[-131.32,52.63],[-131.06,54.29],[-128.01,51.2],[-129.62,50.92],[-127.21,49.86],[-124.57,47.35],[-124.0,45.13],[-125.1,42.66],[-124.41,41.53],[-124.91,40.57],[-123.87,39.14],[-124.37,38.16],[-123.86,36.57],[-118.62,32.05],[-116.67,31.52],[-116.27,29.79],[-114.52,28.8],[-115.95,28.29],[-114.34,26.62],[-112.78,26.34],[-112.45,24.57],[-110.14,22.55],[-109.0,23.09],[-109.46,24.46],[-110.51,24.84],[-111.12,26.97],[-111.89,26.99],[-112.34,28.1],[-110.76,27.8],[-110.9,27.13],[-109.52,26.41],[-109.84,25.32],[-108.3,25.0],[-108.45,24.33],[-107.11,23.58]],[[-102.97,18.98],[-103.95,19.4],[-100.89,19.3],[-98.94,17.94],[-100.72,17.28],[-100.79,18.04],[-102.41,18.02],[-102.97,18.98]],[[-109.33,43.65],[-109.15,42.73],[-109.72,42.68],[-110.79,44.88],[-112.32,45.04],[-109.4,45.37],[-109.33,43.65]],[[-155.96,58.1],[-156.35,58.39],[-155.24,58.56],[-155.28,59.2],[-153.75,58.86],[-155.96,58.1]],[[-59.48,48.14],[-61.26,46.43],[-63.78,46.71],[-64.59,47.5],[-63.9,47.97],[-64.03,49.23],[-61.9,48.7],[-61.17,49.15],[-62.36,49.95],[-60.23,49.81],[-57.68,51.33],[-57.1,51.11],[-59.66,48.77],[-59.48,48.14]],[[-114.76,57.67],[-112.86,58.48],[-111.73,57.88],[-112.09,57.07],[-114.63,56.17],[-115.17,56.46],[-114.76,57.67]],[[-159.39,60.42],[-158.88,59.91],[-160.45,59.77],[-159.81,60.5],[-160.35,61.0],[-159.53,61.08],[-159.39,60.42]],[[-160.36,64.43],[-160.16,65.5],[-158.19,65.63],[-159.36,64.27],[-160.36,64.43]],[[-149.39,60.57],[-148.32,60.05],[-149.43,60.35],[-151.47,59.36],[-149.39,60.57]],[[-106.41,38.55],[-107.07,39.23],[-105.74,39.7],[-106.41,38.55]],[[-115.95,55.31],[-114.76,55.14],[-116.18,54.51],[-116.85,55.01],[-115.95,55.31]],[[-115.22,43.6],[-115.97,45.21],[-113.57,46.36],[-112.87,46.0],[-113.28,45.26],[-112.68,44.08],[-115.22,43.6]],[[-115.76,58.01],[-115.19,57.73],[-115.71,56.11],[-116.38,55.99],[-116.74,57.7],[-115.76,58.01]],[[-59.02,53.68],[-58.38,53.9],[-58.19,53.25],[-60.06,52.16],[-60.27,52.8],[-59.02,53.68]],[[-113.53,28.95],[-113.06,27.86],[-113.98,28.62],[-113.53,28.95]],[[-66.06,49.95],[-64.68,49.83],[-66.92,49.24],[-66.06,49.95]],[[-79.33,56.86],[-79.58,57.28],[-78.77,57.18],[-79.33,56.86]],[[-156.95,57.08],[-158.34,56.76],[-156.67,57.84],[-156.95,57.08]],[[-71.25,47.29],[-71.85,48.07],[-70.63,47.79],[-71.25,47.29]],[[-110.67,40.3],[-111.38,40.94],[-110.26,41.07],[-109.86,40.52],[-110.67,40.3]],[[-112.79,48.01],[-112.83,47.01],[-113.6,47.58],[-112.79,48.01]],[[-113.45,29.87],[-114.66,30.71],[-113.65,30.87],[-113.0,30.2],[-113.45,29.87]]],[[[-64.79,65.49],[-66.22,66.32],[-67.97,65.8],[-66.11,65.88],[-66.86,65.19],[-64.55,64.16],[-66.33,62.98],[-68.84,63.75],[-67.01,62.28],[-71.14,62.91],[-72.84,64.13],[-74.56,63.96],[-71.89,62.62],[-64.37,61.28],[-64.51,62.16],[-63.47,62.64],[-64.65,63.05],[-63.59,63.52],[-63.71,64.41],[-64.96,64.81],[-62.02,65.32],[-64.79,65.49]]],[[[92.61,52.3],[90.04,51.38],[90.32,50.98],[95.32,50.88],[96.16,51.53],[92.61,52.3]]],[[[-134.88,-23.46],[-134.14,-23.46],[-135.27,-22.84],[-134.88,-23.46]]],[[[145.66,15.38],[145.72,14.49],[146.14,15.53],[145.66,15.38]]],[[[180.0,63.14],[179.01,63.52],[179.42,64.57],[177.72,65.0],[176.55,64.57],[178.24,64.15],[178.92,62.69],[177.6,62.9],[170.51,60.6],[167.05,60.34],[167.28,61.2],[164.77,60.33],[164.58,62.01],[165.45,62.52],[164.21,62.83],[161.08,60.96],[160.22,61.06],[160.99,61.59],[160.37,62.17],[155.92,61.71],[156.13,61.08],[153.14,60.07],[152.94,59.35],[146.2,60.05],[141.56,59.16],[136.39,55.49],[132.03,54.28],[132.98,53.7],[136.7,54.37],[135.64,51.93],[136.92,50.83],[134.51,49.24],[132.71,49.05],[132.75,48.11],[132.02,48.44],[130.3,47.5],[130.62,46.72],[132.88,46.08],[131.77,45.25],[131.44,43.01],[130.34,42.61],[133.08,42.3],[135.19,43.16],[140.93,49.1],[140.75,51.26],[141.35,51.71],[142.06,51.3],[141.48,50.64],[141.94,47.94],[140.91,45.97],[141.69,45.6],[140.87,45.5],[141.25,43.85],[139.9,43.05],[139.33,42.12],[140.06,41.75],[139.29,41.42],[140.03,41.28],[139.98,40.58],[141.25,40.88],[141.9,39.78],[140.78,38.17],[142.3,38.79],[141.37,42.3],[143.14,41.87],[145.95,42.9],[147.68,44.85],[150.8,45.8],[150.78,46.91],[146.78,44.55],[142.95,44.74],[145.23,43.56],[142.92,42.24],[140.39,42.81],[141.71,43.12],[142.57,46.17],[143.97,46.25],[142.83,48.28],[143.8,49.08],[144.55,48.24],[145.24,48.92],[144.04,50.69],[143.4,50.68],[143.59,49.66],[142.77,50.46],[144.03,51.12],[143.34,51.76],[143.94,53.31],[143.16,54.65],[141.47,53.6],[137.07,55.77],[142.02,58.82],[145.33,59.34],[148.65,58.82],[150.02,59.61],[150.3,58.76],[154.9,58.86],[155.97,59.5],[154.84,59.95],[158.21,61.64],[161.65,60.39],[157.5,58.04],[156.27,58.03],[156.45,57.42],[155.51,57.03],[155.05,54.39],[156.4,52.39],[155.85,51.85],[156.32,51.32],[155.23,51.08],[154.89,50.15],[155.8,49.93],[158.93,51.84],[158.68,52.84],[160.22,53.12],[160.49,54.39],[162.26,54.26],[162.75,55.14],[161.88,55.62],[163.54,55.85],[164.08,56.73],[163.05,57.0],[163.59,57.9],[162.51,58.17],[165.25,59.12],[163.49,59.76],[167.01,59.71],[169.02,60.5],[170.67,59.79],[170.8,60.41],[177.58,62.48],[179.64,62.07],[180.0,63.14]]],[[[146.28,16.25],[145.94,16.82],[145.36,16.19],[146.28,16.25]]],[[[153.3,-30.56],[154.09,-28.06],[153.97,-26.9],[153.24,-26.71],[153.72,-24.6],[149.54,-21.81],[149.43,-22.54],[150.4,-22.4],[152.19,-25.22],[149.27,-28.22],[142.6,-30.86],[140.1,-30.66],[139.13,-31.37],[139.68,-30.32],[138.73,-30.13],[138.58,-31.51],[135.82,-32.19],[129.95,-31.28],[123.56,-32.36],[122.8,-33.47],[117.99,-34.46],[116.77,-34.19],[117.21,-33.7],[116.31,-33.1],[116.51,-32.26],[117.7,-32.19],[115.48,-30.65],[115.25,-29.16],[114.09,-28.39],[115.65,-32.87],[114.58,-33.98],[116.25,-35.39],[119.91,-34.59],[119.99,-33.99],[123.7,-34.57],[124.41,-33.05],[125.88,-32.42],[130.03,-31.69],[133.06,-32.15],[132.81,-32.85],[133.63,-32.68],[134.4,-33.39],[133.96,-33.93],[135.11,-34.34],[133.42,-34.69],[132.79,-35.69],[143.45,-39.44],[144.62,-40.53],[144.18,-41.1],[145.15,-43.17],[147.4,-43.99],[148.48,-43.23],[148.34,-39.5],[151.11,-36.71],[154.81,-36.12],[151.53,-33.9],[153.42,-31.74],[153.3,-30.56]],[[145.11,-39.7],[147.16,-39.61],[147.57,-40.43],[145.75,-40.7],[144.18,-39.95],[145.11,-39.7]]],[[[69.08,-50.06],[71.07,-48.98],[68.58,-48.32],[68.19,-49.22],[69.08,-50.06]]],[[[-94.46,60.47],[-90.14,63.11],[-92.59,62.76],[-95.35,60.47],[-95.31,59.45],[-93.18,58.55],[-92.81,57.15],[-89.58,57.06],[-92.39,57.52],[-91.94,58.15],[-94.45,59.45],[-94.46,60.47]]],[[[-22.92,66.55],[-24.89,65.87],[-24.08,65.16],[-24.6,64.58],[-22.46,64.43],[-23.0,63.86],[-21.33,63.82],[-20.32,62.98],[-14.59,64.16],[-12.72,65.27],[-14.59,66.59],[-22.92,66.55]],[[-15.19,65.48],[-14.82,64.52],[-19.31,63.63],[-19.09,64.32],[-21.15,64.51],[-19.0,65.82],[-15.19,65.48]]],[[[26.4,-25.53],[25.57,-25.61],[26.49,-28.07],[26.29,-29.55],[25.4,-30.25],[25.91,-30.82],[21.16,-32.56],[19.82,-32.02],[19.07,-30.45],[17.37,-30.1],[15.51,-27.71],[14.53,-24.2],[15.13,-27.92],[18.1,-31.68],[17.98,-34.23],[19.37,-35.16],[22.17,-34.67],[22.23,-34.08],[26.88,-34.14],[30.37,-31.57],[31.42,-29.38],[32.85,-28.55],[33.41,-26.13],[31.75,-26.37],[31.54,-25.11],[29.44,-23.44],[27.59,-24.1],[28.06,-25.35],[26.4,-25.53]]],[[[-38.26,-54.39],[-36.14,-55.12],[-35.39,-54.67],[-37.13,-53.63],[-38.19,-53.72],[-38.26,-54.39]]],[[[-136.76,62.67],[-139.57,63.63],[-139.18,64.27],[-140.65,63.26],[-144.43,63.54],[-139.95,62.24],[-139.37,62.53],[-140.41,62.92],[-138.52,63.23],[-136.18,61.71],[-135.73,62.33],[-136.76,62.67]]],[[[121.47,21.74],[121.16,22.44],[121.8,22.52],[121.53,23.44],[122.43,25.07],[121.93,25.85],[119.02,23.39],[121.47,21.74]]],[[[55.73,-20.64],[55.06,-20.62],[55.29,-21.44],[55.98,-21.47],[55.73,-20.64]]],[[[-120.87,71.29],[-119.6,71.89],[-120.64,72.12],[-121.17,71.5],[-124.38,71.33],[-120.87,71.29]]],[[[-26.12,-58.22],[-26.43,-58.59],[-25.61,-58.54],[-26.12,-58.22]]],[[[152.62,46.97],[153.65,48.34],[151.43,47.09],[152.62,46.97]]],[[[-112.04,68.25],[-108.05,67.4],[-107.73,67.81],[-108.48,68.12],[-107.66,68.71],[-103.92,68.24],[-106.16,69.21],[-112.85,68.53],[-113.64,69.47],[-117.18,69.89],[-116.64,68.79],[-114.11,68.63],[-115.15,67.84],[-112.72,67.65],[-112.04,68.25]]],[[[135.43,34.81],[133.12,34.54],[133.14,33.87],[134.58,33.93],[132.71,33.01],[132.68,33.91],[130.98,34.62],[128.45,32.5],[129.69,32.93],[130.01,31.18],[131.12,30.99],[131.7,31.56],[130.59,31.75],[129.81,33.52],[131.63,33.39],[131.54,31.89],[131.96,32.77],[134.39,33.16],[135.0,33.92],[135.64,33.55],[135.43,34.81]]],[[[55.57,72.66],[54.43,72.49],[55.56,71.87],[57.16,73.01],[55.57,72.66]]],[[[126.37,53.97],[123.42,54.51],[117.73,53.26],[118.04,52.5],[115.38,53.01],[115.92,52.06],[114.79,52.11],[115.34,51.54],[114.6,51.21],[116.25,51.32],[118.85,52.81],[120.78,51.73],[121.23,53.0],[124.55,52.84],[125.94,51.15],[126.91,51.2],[127.54,49.43],[130.36,48.76],[129.82,49.98],[131.22,52.82],[129.88,53.45],[128.39,52.9],[129.11,53.57],[126.37,53.97]]],[[[140.18,39.98],[139.45,39.89],[138.14,37.24],[140.09,38.56],[140.18,39.98]]],[[[-15.4,28.52],[-17.14,28.38],[-17.9,29.25],[-18.37,27.72],[-15.17,27.65],[-15.4,28.52]]],[[[-43.96,-23.13],[-41.85,-23.18],[-39.42,-18.94],[-42.15,-22.87],[-43.96,-23.13]]],[[[78.12,40.46],[76.66,40.51],[74.78,39.22],[75.64,39.16],[77.25,37.12],[79.76,36.37],[80.29,36.89],[81.12,36.05],[91.03,39.38],[92.22,40.05],[91.46,40.47],[92.16,41.41],[89.37,41.59],[93.53,42.8],[91.92,43.43],[88.1,43.28],[87.73,42.42],[79.21,41.78],[78.12,40.46]]],[[[124.11,24.76],[122.71,24.16],[124.19,23.97],[125.88,24.87],[124.11,24.76]]],[[[-84.05,9.94],[-85.31,9.62],[-83.27,8.26],[-83.12,9.08],[-81.6,8.84],[-82.09,9.5],[-82.69,9.11],[-82.77,10.03],[-83.14,9.31],[-84.05,9.94]]],[[[-58.11,-62.38],[-57.51,-61.7],[-59.71,-62.48],[-58.11,-62.38]]],[[[-145.15,-16.25],[-145.46,-17.07],[-144.44,-17.15],[-145.15,-16.25]]],[[[-159.82,22.19],[-160.98,21.41],[-159.06,21.7],[-159.82,22.19]]],[[[-176.49,64.89],[-175.2,65.26],[-176.82,65.75],[-176.49,64.89]]],[[[139.46,36.0],[138.04,34.68],[136.96,35.55],[136.28,34.54],[138.92,34.39],[139.78,33.63],[139.38,34.6],[141.29,35.64],[141.43,37.3],[140.74,37.7],[140.94,37.09],[139.46,36.0]]],[[[50.52,69.48],[47.54,68.91],[50.28,68.72],[50.52,69.48]]],[[[93.32,50.85],[91.21,50.29],[94.44,49.98],[94.91,50.55],[93.32,50.85]]],[[[-91.55,15.82],[-92.62,15.4],[-91.12,14.64],[-91.55,15.82]]],[[[-177.6,51.52],[-173.41,52.18],[-174.54,52.63],[-178.01,51.93],[-177.6,51.52]]],[[[165.64,55.51],[166.2,54.57],[168.67,54.82],[165.64,55.51]]],[[[23.81,32.33],[21.75,33.41],[19.73,31.98],[21.84,32.97],[25.05,31.36],[25.21,32.27],[23.81,32.33]]],[[[-75.05,24.2],[-77.56,27.3],[-79.19,26.99],[-79.34,25.38],[-78.86,26.27],[-77.68,26.16],[-78.62,24.63],[-77.58,23.4],[-77.06,24.73],[-75.72,23.25],[-75.88,21.92],[-75.58,22.9],[-74.67,22.93],[-74.33,24.12],[-75.05,24.2]]],[[[-82.74,23.46],[-84.65,22.69],[-84.91,21.62],[-81.87,21.2],[-80.43,21.96],[-80.99,22.33],[-80.54,23.01],[-77.37,21.79],[-78.21,22.87],[-79.75,22.97],[-79.69,23.66],[-82.74,23.46]]],[[[-54.94,-61.48],[-54.6,-61.02],[-56.11,-61.16],[-54.94,-61.48]]],[[[-139.5,69.82],[-142.56,69.64],[-136.35,68.76],[-135.74,69.42],[-128.04,69.87],[-131.07,70.4],[-137.65,69.22],[-139.5,69.82]]],[[[-173.68,60.63],[-173.2,59.99],[-171.64,60.29],[-173.68,60.63]]],[[[-159.61,56.01],[-160.44,56.55],[-162.1,56.03],[-162.48,54.94],[-160.84,55.25],[-160.98,55.86],[-160.43,54.99],[-159.42,55.0],[-158.57,56.01],[-159.61,56.01]]],[[[173.92,52.99],[172.06,53.08],[173.68,52.16],[173.92,52.99]]],[[[-118.54,68.89],[-117.75,69.28],[-119.69,69.36],[-118.54,68.89]]],[[[-156.32,19.69],[-155.79,18.53],[-154.77,19.09],[-154.76,20.19],[-158.05,22.27],[-158.58,21.22],[-157.13,20.87],[-156.32,19.69]]],[[[-165.33,53.8],[-162.65,54.2],[-162.66,55.54],[-166.96,54.19],[-166.49,53.56],[-165.33,53.8]]],[[[-9.67,30.3],[-10.14,30.57],[-10.48,29.21],[-12.24,28.13],[-10.26,28.83],[-9.67,30.3]]],[[[-73.45,-53.94],[-73.44,-52.69],[-74.36,-52.14],[-74.76,-53.35],[-73.45,-53.94]]],[[[2.41,39.32],[3.08,38.88],[4.63,39.78],[3.73,40.38],[2.41,39.32]]],[[[129.47,37.5],[127.83,39.7],[129.45,40.24],[129.39,40.89],[127.27,39.34],[129.32,36.95],[129.47,37.5]]],[[[32.44,29.34],[33.21,28.72],[32.69,29.8],[32.44,29.34]]],[[[-62.54,17.37],[-63.1,18.46],[-63.53,17.41],[-62.01,16.45],[-60.76,13.51],[-61.01,16.39],[-61.87,16.81],[-61.44,17.87],[-62.54,17.37]]],[[[-73.45,22.71],[-73.52,23.48],[-74.53,22.59],[-74.23,22.12],[-73.45,22.71]]],[[[-19.84,74.36],[-18.36,74.52],[-20.25,74.97],[-19.84,74.36]]],[[[-59.0,-52.83],[-57.94,-52.35],[-57.68,-51.03],[-61.39,-50.99],[-62.04,-51.76],[-59.32,-53.23],[-59.0,-52.83]]],[[[130.04,40.82],[130.15,42.26],[129.56,41.45],[130.04,40.82]]],[[[-125.45,70.3],[-127.4,69.88],[-126.1,69.47],[-122.2,69.85],[-125.45,70.3]]],[[[-9.28,71.05],[-7.05,71.03],[-7.59,71.58],[-9.28,71.05]]],[[[-73.16,5.1],[-73.85,5.66],[-74.68,3.57],[-73.16,5.1]]],[[[-82.17,62.02],[-81.45,62.61],[-82.2,63.2],[-84.4,62.58],[-82.17,62.02]]],[[[-27.7,38.24],[-26.67,39.1],[-27.89,39.52],[-29.17,38.49],[-27.7,38.24]]],[[[82.34,72.0],[81.69,71.88],[82.4,71.52],[81.83,70.92],[83.72,71.27],[82.34,72.0]]],[[[-88.46,64.21],[-87.62,63.41],[-84.68,63.25],[-86.51,63.87],[-85.83,64.48],[-86.3,64.63],[-88.46,64.21]]],[[[-140.68,-18.68],[-140.67,-17.85],[-141.3,-18.02],[-140.68,-18.68]]],[[[137.21,36.81],[137.9,37.13],[137.24,37.97],[135.86,35.93],[134.35,35.63],[135.86,35.48],[137.21,36.81]]],[[[153.19,48.87],[154.42,48.74],[155.36,49.61],[154.11,49.75],[154.22,49.13],[153.19,48.87]]],[[[-174.56,66.93],[-174.12,66.48],[-173.75,67.32],[-175.65,67.41],[-174.56,66.93]]],[[[-16.91,32.32],[-15.87,33.34],[-17.7,32.95],[-16.91,32.32]]],[[[-75.47,7.1],[-76.24,6.35],[-75.35,5.93],[-75.47,7.1]]],[[[-145.99,62.81],[-146.69,61.85],[-144.3,62.77],[-145.99,62.81]]],[[[-129.28,65.74],[-128.51,65.95],[-128.85,66.56],[-130.41,66.13],[-129.28,65.74]]],[[[67.78,68.29],[69.27,68.72],[67.1,70.58],[69.49,72.21],[66.69,71.64],[65.96,70.49],[67.06,69.98],[65.32,69.34],[67.78,68.29]]],[[[129.81,35.87],[129.36,36.51],[129.08,35.4],[129.81,35.87]]],[[[-75.68,20.56],[-75.77,21.35],[-76.69,21.3],[-75.68,20.56]]],[[[-84.77,66.1],[-85.78,66.41],[-87.14,65.44],[-85.68,64.99],[-86.01,65.65],[-84.77,66.1]]],[[[69.96,23.16],[69.36,22.75],[70.52,22.57],[69.96,23.16]]],[[[-21.65,73.25],[-19.58,73.52],[-22.18,73.62],[-23.01,73.06],[-21.89,72.55],[-21.15,72.87],[-21.65,73.25]]],[[[131.86,35.22],[131.89,34.56],[134.14,35.53],[131.86,35.22]]],[[[-14.43,28.02],[-13.18,28.89],[-13.4,29.52],[-14.43,28.02]]],[[[-177.2,-43.95],[-176.17,-44.68],[-175.76,-44.17],[-176.5,-43.53],[-177.2,-43.95]]],[[[-72.37,-54.06],[-72.84,-54.42],[-71.23,-54.76],[-72.37,-54.06]]],[[[-78.61,20.72],[-78.01,21.04],[-78.88,21.88],[-80.24,21.83],[-78.61,20.72]]],[[[-172.53,65.33],[-173.27,64.32],[-172.54,64.06],[-171.95,65.29],[-169.37,66.16],[-172.5,67.25],[-170.36,66.02],[-172.53,65.33]]],[[[-7.72,62.17],[-6.74,61.16],[-5.67,62.26],[-6.37,62.74],[-7.72,62.17]]],[[[12.75,35.42],[13.02,36.14],[12.33,35.77],[12.75,35.42]]],[[[177.64,52.32],[177.3,51.9],[179.69,51.53],[177.64,52.32]]],[[[-26.24,37.98],[-24.69,36.67],[-25.12,38.06],[-26.24,37.98]]],[[[22.32,77.53],[21.53,77.2],[23.32,77.19],[22.32,77.53]]],[[[127.88,26.07],[128.73,27.0],[126.83,26.48],[127.88,26.07]]],[[[51.33,25.76],[51.62,25.14],[51.85,26.1],[51.17,26.58],[51.33,25.76]]],[[[-170.3,63.06],[-168.53,63.32],[-170.01,64.08],[-172.72,63.65],[-170.3,63.06]]],[[[-64.33,18.93],[-67.31,18.75],[-67.61,18.18],[-65.84,17.58],[-64.08,18.49],[-64.33,18.93]]],[[[-76.58,-12.49],[-77.31,-11.92],[-76.5,-13.26],[-76.58,-12.49]]],[[[-79.87,58.64],[-79.7,60.07],[-81.17,59.83],[-80.61,58.98],[-81.28,58.4],[-79.87,58.64]]],[[[-62.43,66.42],[-61.44,65.77],[-60.23,66.65],[-62.18,67.08],[-62.43,66.42]]],[[[-53.09,66.25],[-54.14,65.64],[-52.12,65.32],[-53.09,66.25]]],[[[-81.12,63.37],[-79.9,63.78],[-80.21,64.21],[-83.52,63.69],[-81.12,63.37]]],[[[-179.62,65.19],[-177.76,65.57],[-179.39,66.46],[-179.62,65.19]]],[[[-52.24,64.89],[-52.7,64.25],[-51.57,64.19],[-52.24,64.89]]],[[[144.94,14.01],[144.36,13.36],[145.0,13.11],[145.43,14.17],[144.94,14.01]]],[[[-169.76,17.16],[-169.57,16.3],[-169.06,16.7],[-169.76,17.16]]],[[[69.77,73.45],[69.07,72.67],[72.15,73.22],[69.77,73.45]]],[[[-161.29,70.61],[-161.76,70.21],[-160.53,70.28],[-161.29,70.61]]],[[[165.94,-50.6],[165.96,-51.3],[166.6,-50.8],[165.94,-50.6]]],[[[2.07,39.0],[1.68,39.53],[1.02,38.87],[1.41,38.35],[2.07,39.0]]],[[[56.91,-20.52],[57.79,-20.71],[58.03,-19.73],[56.91,-20.52]]],[[[-62.2,47.43],[-61.82,47.03],[-61.13,47.89],[-62.2,47.43]]],[[[-82.94,65.21],[-83.6,64.87],[-81.1,64.55],[-82.94,65.21]]],[[[57.2,73.4],[59.85,74.11],[57.3,74.2],[57.2,73.4]]],[[[-125.39,74.01],[-124.2,73.41],[-123.73,74.03],[-125.39,74.01]]],[[[-45.28,-60.61],[-46.14,-60.53],[-45.47,-61.08],[-45.28,-60.61]]],[[[127.18,54.45],[129.75,54.47],[126.81,55.1],[127.18,54.45]]],[[[-110.94,18.55],[-110.89,19.72],[-111.44,18.74],[-110.94,18.55]]],[[[-75.78,64.52],[-76.52,64.21],[-75.53,64.09],[-75.78,64.52]]],[[[-152.44,70.9],[-153.09,70.53],[-151.85,70.54],[-152.44,70.9]]],[[[-118.2,70.79],[-117.86,71.62],[-119.03,71.45],[-118.2,70.79]]],[[[63.56,69.89],[62.74,69.56],[64.68,69.4],[63.56,69.89]]]]}}]}