{"type":"FeatureCollection","features":[{"type":"Feature","properties":{},"geometry":{"type":"MultiPolygon","coordinates":[[[[44.49,39.21],[44.35,39.43],[44.51,39.62],[44.81,39.6],[44.95,39.38],[45.24,39.36],[45.4,39.56],[45.7,39.53],[45.84,39.32],[46.14,39.29],[46.3,39.48],[46.6,39.46],[46.77,39.65],[46.64,39.87],[46.8,40.07],[46.67,40.29],[46.84,40.48],[46.7,40.7],[46.87,40.9],[47.18,40.87],[47.32,40.65],[47.63,40.63],[47.8,40.82],[48.11,40.79],[48.24,40.57],[48.55,40.54],[48.69,40.31],[49.0,40.28],[49.18,40.48],[49.05,40.7],[49.23,40.9],[49.1,41.12],[48.78,41.15],[48.65,41.38],[48.83,41.57],[48.7,41.8],[48.38,41.83],[48.25,42.05],[47.93,42.08],[47.79,42.3],[47.97,42.5],[47.83,42.73],[47.51,42.75],[47.37,42.98],[47.05,43.0],[46.91,43.22],[46.59,43.24],[46.44,43.47],[46.12,43.49],[45.98,43.71],[45.65,43.73],[45.5,43.95],[45.18,43.96],[45.03,44.18],[44.71,44.2],[44.56,44.41],[44.73,44.62],[44.57,44.84],[44.25,44.85],[44.09,45.07],[44.26,45.27],[44.11,45.49],[43.78,45.5],[43.61,45.29],[43.28,45.3],[43.12,45.52],[42.8,45.53],[42.64,45.74],[42.31,45.75],[42.15,45.54],[41.82,45.55],[41.66,45.76],[41.33,45.76],[41.18,45.55],[40.86,45.56],[40.69,45.76],[40.37,45.77],[40.2,45.97],[40.35,46.18],[40.68,46.18],[40.83,46.39],[41.16,46.39],[41.32,46.59],[41.65,46.59],[41.81,46.8],[41.64,47.01],[41.81,47.22],[42.14,47.21],[42.31,47.42],[42.65,47.42],[42.82,47.62],[43.16,47.62],[43.34,47.83],[43.68,47.82],[43.86,48.03],[43.69,48.24],[43.87,48.45],[44.22,48.44],[44.39,48.22],[44.73,48.22],[44.92,48.42],[44.76,48.64],[44.94,48.85],[45.3,48.84],[45.49,49.04],[45.85,49.03],[46.04,49.24],[45.88,49.46],[46.08,49.66],[46.44,49.65],[46.64,49.86],[47.0,49.84],[47.21,50.05],[47.58,50.03],[47.74,49.81],[48.1,49.79],[48.32,50.0],[48.69,49.98],[48.9,50.18],[49.27,50.16],[49.49,50.36],[49.87,50.34],[50.09,50.54],[50.47,50.52],[50.62,50.29],[50.99,50.26],[51.22,50.46],[51.6,50.43],[51.83,50.63],[52.21,50.6],[52.36,50.37],[52.74,50.34],[52.98,50.54],[53.36,50.5],[53.6,50.7],[53.98,50.66],[54.12,50.43],[54.5,50.39],[54.75,50.59],[55.13,50.55],[55.27,50.31],[55.65,50.27],[55.9,50.46],[56.29,50.42],[56.41,50.18],[56.79,50.13],[56.92,49.89],[57.3,49.85],[57.42,49.61],[57.8,49.56],[57.92,49.31],[58.29,49.26],[58.55,49.45],[58.93,49.4],[59.19,49.58],[59.08,49.83],[58.7,49.88],[58.58,50.12],[58.85,50.31],[59.23,50.26],[59.35,50.01],[59.73,49.96],[60.0,50.14],[60.38,50.08],[60.66,50.27],[61.04,50.21],[61.32,50.39],[61.7,50.33],[61.98,50.51],[61.88,50.76],[62.17,50.94],[62.55,50.87],[62.65,50.63],[63.04,50.56],[63.33,50.74],[63.71,50.67],[64.01,50.84],[63.91,51.09],[64.21,51.27],[64.11,51.52],[64.41,51.69],[64.81,51.62],[64.9,51.37],[65.29,51.3],[65.37,51.05],[65.76,50.97],[65.85,50.72],[66.23,50.65],[66.31,50.39],[66.69,50.32],[66.77,50.06],[66.48,49.89],[66.56,49.64],[66.93,49.56],[67.01,49.31],[66.71,49.14],[66.79,48.89],[67.16,48.81],[67.45,48.98],[67.82,48.89],[68.12,49.06],[68.49,48.97],[68.79,49.14],[68.72,49.39],[69.03,49.56],[68.96,49.81],[68.58,49.9],[68.51,50.15],[68.14,50.24],[68.06,50.49],[68.37,50.65],[68.75,50.57],[69.06,50.73],[69.44,50.64],[69.76,50.81],[70.13,50.72],[70.2,50.46],[70.57,50.37],[70.63,50.12],[70.32,49.96],[70.38,49.7],[70.07,49.54],[70.14,49.29],[70.5,49.2],[70.56,48.94],[70.93,48.85],[71.24,49.01],[71.6,48.91],[71.91,49.07],[72.27,48.97],[72.32,48.72],[72.01,48.56],[72.07,48.3],[71.76,48.15],[71.81,47.89],[71.51,47.73],[71.56,47.48],[71.92,47.38],[72.22,47.54],[72.57,47.44],[72.62,47.18],[72.97,47.08],[73.27,47.24],[73.23,47.49],[73.53,47.65],[73.49,47.9],[73.8,48.05],[74.15,47.95],[74.19,47.69],[74.54,47.59],[74.85,47.74],[75.2,47.63],[75.51,47.78],[75.47,48.04],[75.79,48.18],[76.14,48.07],[76.46,48.22],[76.8,48.11],[76.83,47.85],[77.17,47.74],[77.49,47.88],[77.83,47.77],[78.15,47.91],[78.13,48.16],[78.45,48.3],[78.79,48.19],[78.81,47.93],[79.15,47.81],[79.47,47.95],[79.81,47.83],[80.13,47.96],[80.12,48.22],[80.45,48.35],[80.78,48.23],[80.79,47.97],[80.47,47.84],[80.48,47.58],[80.81,47.46],[80.82,47.2],[81.14,47.08],[81.47,47.21],[81.79,47.09],[82.11,47.22],[82.44,47.09],[82.76,47.22],[83.08,47.09],[83.08,46.83],[83.4,46.7],[83.72,46.83],[83.72,47.08],[83.4,47.21],[83.41,47.47],[83.08,47.6],[82.76,47.47],[82.43,47.6],[82.43,47.86],[82.11,47.98],[82.1,48.24],[81.77,48.37],[81.77,48.62],[82.1,48.75],[82.43,48.62],[82.76,48.75],[82.76,49.0],[83.1,49.13],[83.43,49.0],[83.77,49.12],[84.1,48.99],[84.09,48.73],[84.42,48.6],[84.75,48.72],[85.07,48.59],[85.41,48.7],[85.73,48.57],[86.06,48.68],[86.38,48.55],[86.36,48.29],[86.68,48.15],[87.01,48.27],[87.32,48.13],[87.66,48.24],[87.68,48.49],[87.37,48.63],[87.03,48.52],[86.72,48.66],[86.74,48.91],[86.42,49.05],[86.44,49.31],[86.12,49.44],[86.13,49.7],[85.81,49.83],[85.82,50.09],[86.17,50.2],[86.5,50.06],[86.84,50.18],[86.86,50.43],[87.21,50.54],[87.54,50.4],[87.89,50.51],[88.21,50.36],[88.56,50.47],[88.59,50.72],[88.27,50.86],[88.3,51.12],[87.97,51.26],[88.0,51.51],[88.35,51.62],[88.38,51.87],[88.74,51.97],[89.07,51.82],[89.43,51.93],[89.76,51.78],[90.12,51.88],[90.16,52.13],[90.52,52.23],[90.84,52.08],[91.2,52.17],[91.25,52.42],[91.61,52.51],[91.93,52.36],[92.3,52.45],[92.35,52.7],[92.71,52.79],[92.77,53.03],[93.14,53.12],[93.45,52.97],[93.82,53.05],[94.13,52.89],[94.5,52.98],[94.56,53.22],[94.25,53.38],[94.31,53.62],[94.69,53.7],[94.75,53.95],[94.44,54.11],[94.5,54.35],[94.18,54.51],[93.8,54.42],[93.48,54.58],[93.54,54.82],[93.92,54.91],[93.98,55.15],[94.37,55.23],[94.7,55.07],[94.63,54.83],[94.95,54.67],[95.33,54.75],[95.4,54.99],[95.79,55.07],[96.1,54.9],[96.49,54.98],[96.79,54.81],[97.18,54.89],[97.48,54.72],[97.86,54.79],[97.95,55.03],[98.33,55.09],[98.63,54.93],[99.01,54.99],[99.31,54.82],[99.22,54.59],[99.51,54.42],[99.42,54.18],[99.71,54.01],[100.08,54.08],[100.36,53.91],[100.27,53.67],[100.55,53.5],[100.92,53.57],[101.19,53.39],[101.1,53.16],[101.37,52.99],[101.73,53.05],[102.0,52.88],[101.9,52.64],[102.17,52.47],[102.52,52.53],[102.78,52.36],[103.14,52.41],[103.39,52.24],[103.29,52.01],[103.54,51.83],[103.89,51.89],[104.14,51.71],[104.04,51.49],[104.28,51.31],[104.62,51.36],[104.73,51.59],[105.07,51.64],[105.31,51.47],[105.66,51.52],[105.77,51.74],[106.11,51.79],[106.22,52.01],[106.57,52.06],[106.8,51.88],[107.14,51.93],[107.26,52.15],[107.03,52.33],[107.15,52.55],[107.5,52.59],[107.61,52.81],[107.96,52.85],[108.19,52.67],[108.54,52.71],[108.66,52.93],[108.44,53.11],[108.56,53.33],[108.91,53.37],[109.04,53.59],[108.81,53.77],[108.94,53.99],[109.3,54.02],[109.46,54.21],[109.23,54.39],[108.84,54.39],[108.71,54.17],[108.35,54.13],[108.23,53.91],[107.87,53.88],[107.75,53.66],[107.39,53.62],[107.27,53.4],[107.5,53.22],[107.38,52.99],[107.03,52.95],[106.8,53.13],[106.44,53.09],[106.33,52.87],[105.97,52.82],[105.86,52.6],[105.51,52.55],[105.27,52.73],[105.38,52.95],[105.13,53.13],[104.77,53.08],[104.52,53.26],[104.16,53.21],[103.91,53.38],[104.02,53.61],[103.76,53.79],[103.86,54.01],[103.6,54.19],[103.71,54.42],[103.44,54.59],[103.55,54.82],[103.28,55.0],[103.39,55.23],[103.12,55.4],[103.23,55.63],[102.95,55.81],[103.06,56.03],[102.78,56.21],[102.39,56.16],[102.11,56.33],[102.21,56.56],[101.92,56.74],[101.53,56.68],[101.43,56.45],[101.03,56.4],[100.74,56.57],[100.34,56.51],[100.04,56.68],[100.14,56.92],[100.54,56.97],[100.64,57.2],[100.33,57.38],[100.43,57.61],[100.84,57.66],[100.94,57.89],[100.64,58.06],[100.23,58.01],[99.91,58.18],[99.5,58.12],[99.18,58.29],[99.28,58.52],[98.96,58.69],[99.05,58.92],[98.72,59.09],[98.3,59.03],[98.21,58.8],[97.79,58.74],[97.45,58.9],[97.03,58.84],[96.69,59.0],[96.27,58.94],[95.92,59.1],[95.5,59.03],[95.42,58.79],[95.0,58.72],[94.65,58.88],[94.22,58.81],[93.87,58.97],[93.44,58.89],[93.08,59.05],[92.65,58.97],[92.29,59.12],[92.35,59.36],[91.97,59.51],[92.03,59.75],[91.65,59.9],[91.22,59.82],[90.83,59.97],[90.89,60.21],[90.5,60.36],[90.55,60.59],[90.15,60.74],[90.2,60.98],[89.8,61.13],[89.85,61.36],[89.44,61.51],[88.98,61.42],[88.94,61.19],[88.49,61.09],[88.46,60.86],[88.01,60.76],[87.6,60.91],[87.16,60.81],[86.74,60.95],[86.3,60.85],[85.88,60.99],[85.9,61.23],[85.47,61.36],[85.03,61.26],[84.59,61.39],[84.15,61.29],[83.71,61.42],[83.27,61.31],[82.83,61.44],[82.83,61.68],[82.38,61.8],[81.94,61.69],[81.48,61.81],[81.48,62.05],[81.02,62.17],[80.57,62.06],[80.11,62.17],[79.66,62.05],[79.2,62.17],[79.18,62.41],[78.7,62.52],[78.26,62.4],[77.78,62.51],[77.75,62.75],[77.27,62.86],[76.82,62.73],[76.34,62.83],[76.29,63.07],[75.8,63.17],[75.36,63.04],[74.86,63.14],[74.81,63.38],[75.26,63.51],[75.2,63.74],[74.7,63.84],[74.25,63.71],[73.74,63.8],[73.68,64.04],[73.16,64.13],[72.72,63.99],[72.2,64.08],[72.13,64.31],[71.6,64.4],[71.16,64.26],[70.63,64.34],[70.19,64.2],[69.67,64.28],[69.57,64.51],[69.04,64.58],[68.94,64.81],[68.4,64.89],[68.3,65.11],[67.76,65.19],[67.65,65.41],[67.09,65.48],[66.66,65.33],[66.1,65.4],[65.98,65.62],[65.42,65.68],[64.99,65.52],[65.12,65.3],[64.7,65.14],[64.15,65.2],[63.73,65.04],[63.86,64.82],[63.45,64.65],[62.91,64.71],[62.5,64.54],[61.96,64.59],[61.56,64.42],[61.02,64.47],[60.63,64.3],[60.09,64.35],[59.71,64.17],[59.86,63.95],[59.49,63.77],[58.96,63.82],[58.79,64.04],[59.17,64.21],[59.01,64.43],[58.46,64.47],[58.09,64.29],[57.55,64.33],[57.19,64.15],[56.65,64.18],[56.47,64.4],[55.93,64.43],[55.57,64.24],[55.04,64.27],[54.69,64.08],[54.15,64.11],[53.96,64.32],[53.42,64.34],[53.09,64.15],[53.28,63.94],[52.95,63.75],[52.42,63.77],[52.1,63.57],[51.57,63.59],[51.37,63.8],[50.85,63.81],[50.53,63.61],[50.01,63.62],[49.7,63.43],[49.19,63.43],[48.97,63.64],[48.46,63.64],[48.23,63.84],[47.72,63.84],[47.49,64.04],[46.97,64.04],[46.74,64.24],[47.03,64.44],[46.8,64.64],[47.09,64.84],[46.85,65.03],[47.15,65.23],[46.92,65.43],[47.22,65.63],[46.98,65.82],[47.29,66.02],[47.04,66.21],[47.36,66.41],[47.92,66.41],[48.24,66.61],[48.0,66.8],[48.33,67.0],[48.08,67.19],[48.41,67.38],[49.0,67.38],[49.34,67.58],[49.09,67.77],[49.44,67.96],[50.04,67.96],[50.4,68.15],[51.01,68.14],[51.38,68.33],[51.99,68.32],[52.23,68.12],[52.83,68.11],[53.22,68.3],[53.83,68.28],[54.05,68.08],[54.66,68.06],[55.06,68.24],[54.85,68.44],[54.23,68.46],[54.01,68.66],[54.41,68.84],[55.04,68.82],[55.25,68.62],[55.88,68.6],[56.09,68.39],[56.71,68.37],[57.12,68.54],[57.75,68.51],[58.18,68.68],[58.8,68.65],[58.99,68.44],[59.61,68.41],[60.05,68.58],[60.68,68.53],[61.13,68.7],[60.95,68.91],[61.41,69.07],[61.23,69.28],[60.59,69.32],[60.14,69.16],[60.32,68.95],[59.87,68.78],[59.24,68.82],[59.05,69.03],[59.5,69.19],[59.31,69.4],[58.66,69.43],[58.22,69.26],[58.42,69.06],[57.98,68.89],[57.35,68.92],[56.92,68.75],[56.29,68.77],[56.08,68.97],[55.45,69.0],[55.23,69.2],[54.59,69.22],[54.18,69.04],[53.55,69.05],[53.15,68.87],[52.53,68.89],[52.14,68.7],[51.52,68.71],[51.14,68.52],[50.52,68.53],[50.16,68.34],[49.55,68.34],[49.19,68.15],[48.59,68.15],[48.25,67.96],[47.65,67.96],[47.39,68.14],[46.79,68.14],[46.53,68.32],[46.86,68.52],[46.59,68.7],[45.98,68.69],[45.7,68.88],[45.09,68.86],[44.77,68.66],[44.17,68.65],[43.88,68.83],[43.28,68.81],[42.97,68.61],[43.26,68.43],[43.86,68.45],[44.14,68.27],[43.83,68.07],[44.11,67.89],[43.81,67.69],[43.23,67.67],[42.94,67.47],[43.22,67.28],[42.93,67.08],[42.37,67.06],[42.09,67.24],[41.53,67.22],[41.24,67.39],[41.52,67.6],[41.23,67.77],[41.51,67.98],[41.21,68.15],[40.64,68.12],[40.34,68.3],[39.76,68.27],[39.45,68.44],[38.88,68.4],[38.57,68.57],[38.83,68.77],[38.51,68.94],[37.93,68.9],[37.61,69.07],[37.02,69.03],[36.7,69.19],[36.95,69.39],[36.48,69.55],[35.89,69.5],[35.78,69.3],[35.2,69.26],[34.72,69.4],[34.82,69.6],[34.33,69.74],[33.74,69.69],[33.24,69.83],[33.32,70.03],[32.81,70.17],[32.22,70.11],[31.7,70.25],[31.76,70.45],[31.23,70.58],[31.29,70.79],[30.74,70.92],[30.13,70.85],[29.57,70.99],[28.97,70.91],[28.41,71.04],[28.43,71.25],[27.85,71.37],[27.25,71.3],[27.24,71.09],[26.65,71.01],[26.06,71.14],[26.06,71.34],[25.46,71.46],[24.87,71.37],[24.27,71.49],[23.68,71.4],[23.71,71.2],[23.14,71.11],[22.54,71.22],[21.98,71.12],[22.03,70.93],[21.48,70.83],[21.53,70.63],[21.0,70.54],[20.4,70.64],[19.88,70.54],[19.28,70.64],[18.76,70.54],[18.84,70.35],[18.33,70.24],[18.42,70.05],[17.93,69.95],[18.02,69.76],[17.53,69.66],[16.96,69.74],[16.48,69.64],[16.58,69.45],[16.12,69.35],[15.55,69.43],[15.09,69.32],[15.2,69.14],[14.76,69.03],[14.19,69.11],[13.75,69.0],[13.88,68.81],[13.45,68.7],[13.58,68.52],[13.16,68.41],[13.29,68.23],[12.87,68.12],[12.33,68.19],[11.93,68.08],[12.07,67.9],[11.67,67.79],[11.81,67.61],[11.42,67.5],[11.56,67.33],[12.08,67.26],[12.46,67.37],[12.33,67.54],[12.73,67.65],[13.26,67.58],[13.38,67.4],[12.98,67.29],[13.11,67.12],[12.72,67.01],[12.21,67.08],[11.83,66.97],[11.96,66.8],[11.59,66.69],[11.72,66.52],[11.35,66.41],[11.48,66.24],[11.12,66.13],[11.26,65.96],[10.9,65.85],[11.03,65.68],[11.51,65.62],[11.64,65.45],[11.29,65.34],[10.82,65.41],[10.48,65.3],[10.61,65.14],[10.28,65.03],[10.41,64.87],[10.13,64.7],[9.72,64.7],[9.6,64.53],[9.88,64.36],[9.77,64.2],[9.36,64.19],[9.07,64.35],[8.66,64.35],[8.54,64.18],[8.13,64.17],[8.02,64.0],[8.32,63.83],[8.2,63.66],[7.8,63.65],[7.69,63.48],[7.29,63.47],[7.18,63.29],[6.77,63.28],[6.67,63.1],[6.27,63.08],[6.16,62.91],[5.76,62.89],[5.66,62.71],[5.26,62.69],[5.16,62.51],[4.76,62.49],[4.67,62.31],[4.97,62.14],[4.87,61.96],[4.48,61.94],[4.39,61.75],[4.69,61.59],[4.59,61.41],[4.2,61.38],[4.11,61.2],[4.41,61.04],[4.32,60.85],[4.62,60.69],[4.53,60.5],[4.82,60.34],[4.73,60.15],[5.02,59.98],[4.93,59.79],[4.55,59.77],[4.46,59.58],[4.75,59.41],[4.66,59.22],[4.94,59.06],[4.85,58.86],[5.13,58.7],[5.05,58.51],[5.32,58.34],[5.23,58.15],[4.87,58.12],[4.59,58.28],[4.23,58.25],[4.15,58.06],[3.78,58.02],[3.5,58.19],[3.13,58.15],[3.05,57.95],[2.69,57.92],[2.61,57.72],[2.24,57.68],[1.95,57.84],[1.59,57.8],[1.51,57.6],[1.15,57.56],[1.07,57.35],[0.71,57.31],[0.41,57.47],[0.04,57.42],[-0.02,57.22],[-0.39,57.17],[-0.45,56.97],[-0.82,56.92],[-0.88,56.71],[-1.25,56.66],[-1.55,56.81],[-1.49,57.02],[-1.8,57.18],[-1.74,57.38],[-1.37,57.43],[-1.3,57.64],[-1.61,57.79],[-1.99,57.74],[-2.3,57.9],[-2.68,57.84],[-3.0,58.0],[-2.94,58.2],[-2.56,58.25],[-2.5,58.46],[-2.82,58.61],[-2.76,58.81],[-2.38,58.87],[-2.32,59.07],[-1.94,59.12],[-1.87,59.32],[-1.49,59.37],[-1.42,59.57],[-1.03,59.61],[-0.97,59.81],[-0.58,59.85],[-0.51,60.05],[-0.83,60.2],[-0.76,60.4],[-0.37,60.44],[-0.3,60.64],[-0.62,60.79],[-0.55,60.99],[-0.88,61.14],[-1.28,61.1],[-1.35,60.9],[-1.75,60.86],[-1.82,60.66],[-2.21,60.61],[-2.28,60.42],[-2.67,60.37],[-2.74,60.17],[-2.4,60.02],[-2.01,60.07],[-1.68,59.92],[-1.75,59.72],[-2.14,59.67],[-2.2,59.47],[-2.59,59.42],[-2.92,59.57],[-3.31,59.52],[-3.36,59.32],[-3.75,59.26],[-4.09,59.41],[-4.48,59.36],[-4.53,59.15],[-4.19,59.0],[-3.81,59.06],[-3.48,58.91],[-3.53,58.71],[-3.91,58.65],[-4.25,58.8],[-4.63,58.74],[-4.97,58.89],[-5.35,58.83],[-5.4,58.62],[-5.79,58.56],[-6.13,58.71],[-6.51,58.64],[-6.56,58.43],[-6.94,58.37],[-7.28,58.51],[-7.67,58.44],[-7.71,58.23],[-7.36,58.09],[-7.4,57.88],[-7.78,57.81],[-7.82,57.6],[-7.48,57.46],[-7.52,57.25],[-7.89,57.17],[-7.93,56.96],[-8.3,56.89],[-8.34,56.67],[-8.0,56.53],[-7.63,56.6],[-7.3,56.46],[-7.33,56.25],[-7.01,56.1],[-7.04,55.89],[-6.72,55.74],[-6.76,55.52],[-7.12,55.45],[-7.45,55.6],[-7.81,55.52],[-8.14,55.67],[-8.5,55.59],[-8.54,55.37],[-8.9,55.29],[-8.93,55.07],[-9.29,54.99],[-9.32,54.77],[-8.99,54.63],[-9.02,54.41],[-9.38,54.33],[-9.71,54.47],[-10.06,54.38],[-10.39,54.52],[-10.75,54.44],[-10.77,54.21],[-10.44,54.08],[-10.47,53.85],[-10.82,53.76],[-10.84,53.54],[-10.51,53.4],[-10.54,53.17],[-10.21,53.03],[-10.24,52.81],[-10.58,52.72],[-10.61,52.49],[-10.95,52.4],[-10.97,52.17],[-10.65,52.03],[-10.67,51.8],[-10.36,51.66],[-10.38,51.43],[-10.07,51.29],[-9.73,51.38],[-9.42,51.24],[-9.08,51.32],[-8.77,51.18],[-8.43,51.27],[-8.4,51.49],[-8.07,51.58],[-8.03,51.81],[-7.69,51.89],[-7.39,51.74],[-7.05,51.82],[-7.01,52.05],[-6.67,52.13],[-6.37,51.98],[-6.41,51.75],[-6.75,51.67],[-6.78,51.45],[-6.48,51.3],[-6.52,51.07],[-6.86,50.99],[-6.89,50.76],[-6.6,50.61],[-6.63,50.38],[-6.96,50.3],[-7.0,50.07],[-6.7,49.92],[-6.74,49.69],[-6.45,49.54],[-6.49,49.31],[-6.2,49.16],[-6.24,48.93],[-5.95,48.77],[-5.63,48.86],[-5.35,48.7],[-5.39,48.47],[-5.11,48.32],[-5.15,48.09],[-4.87,47.93],[-4.91,47.7],[-4.64,47.55],[-4.33,47.63],[-4.06,47.47],[-3.74,47.55],[-3.47,47.39],[-3.52,47.16],[-3.25,47.0],[-2.94,47.08],[-2.68,46.92],[-2.73,46.69],[-2.47,46.53],[-2.16,46.61],[-1.91,46.45],[-1.96,46.22],[-1.7,46.06],[-1.75,45.83],[-1.5,45.67],[-1.55,45.44],[-1.3,45.28],[-1.35,45.05],[-1.65,44.97],[-1.7,44.74],[-1.45,44.58],[-1.5,44.35],[-1.8,44.27],[-1.85,44.04],[-1.6,43.88],[-1.65,43.64],[-1.94,43.57],[-2.19,43.72],[-2.48,43.64],[-2.73,43.8],[-3.02,43.72],[-3.28,43.88],[-3.57,43.79],[-3.82,43.95],[-4.12,43.86],[-4.16,43.63],[-4.46,43.54],[-4.72,43.69],[-5.01,43.61],[-5.27,43.76],[-5.57,43.67],[-5.83,43.82],[-6.13,43.73],[-6.39,43.88],[-6.69,43.79],[-6.96,43.94],[-7.26,43.85],[-7.53,44.0],[-7.83,43.9],[-8.1,44.05],[-8.4,43.95],[-8.43,43.71],[-8.73,43.61],[-9.0,43.76],[-9.3,43.66],[-9.33,43.42],[-9.63,43.32],[-9.65,43.07],[-9.38,42.93],[-9.4,42.68],[-9.13,42.54],[-9.15,42.29],[-8.88,42.14],[-8.91,41.9],[-9.2,41.8],[-9.22,41.55],[-8.96,41.41],[-8.98,41.16],[-8.72,41.01],[-8.74,40.77],[-9.03,40.67],[-9.06,40.42],[-9.34,40.31],[-9.36,40.07],[-9.1,39.92],[-9.13,39.67],[-9.41,39.57],[-9.67,39.71],[-9.96,39.61],[-9.98,39.36],[-9.72,39.21],[-9.74,38.97],[-9.48,38.82],[-9.5,38.57],[-9.24,38.43],[-9.26,38.18],[-9.01,38.04],[-9.03,37.79],[-9.31,37.68],[-9.33,37.43],[-9.08,37.29],[-9.1,37.04],[-8.85,36.9],[-8.58,37.01],[-8.33,36.86],[-8.05,36.97],[-7.81,36.82],[-7.53,36.93],[-7.29,36.78],[-7.02,36.88],[-6.77,36.74],[-6.8,36.49],[-6.56,36.35],[-6.59,36.1],[-6.35,35.95],[-6.38,35.71],[-6.15,35.56],[-5.88,35.66],[-5.64,35.52],[-5.38,35.62],[-5.34,35.86],[-5.08,35.96],[-5.04,36.2],[-4.77,36.3],[-4.54,36.15],[-4.27,36.25],[-4.24,36.49],[-3.97,36.59],[-3.74,36.44],[-3.47,36.53],[-3.24,36.38],[-2.97,36.47],[-2.93,36.71],[-2.67,36.8],[-2.44,36.65],[-2.17,36.74],[-2.13,36.98],[-2.36,37.14],[-2.31,37.38],[-2.54,37.53],[-2.81,37.44],[-3.04,37.59],[-3.31,37.5],[-3.54,37.65],[-3.81,37.56],[-3.85,37.32],[-4.12,37.22],[-4.16,36.98],[-4.43,36.88],[-4.47,36.64],[-4.74,36.54],[-4.97,36.69],[-4.94,36.94],[-5.17,37.09],[-5.45,36.99],[-5.48,36.74],[-5.75,36.65],[-5.99,36.79],[-5.96,37.04],[-6.2,37.19],[-6.47,37.09],[-6.71,37.23],[-6.68,37.48],[-6.93,37.62],[-7.2,37.52],[-7.23,37.28],[-7.51,37.17],[-7.75,37.32],[-7.73,37.57],[-7.98,37.71],[-7.95,37.96],[-7.67,38.06],[-7.64,38.31],[-7.37,38.41],[-7.34,38.66],[-7.06,38.76],[-7.03,39.0],[-6.75,39.1],[-6.5,38.96],[-6.22,39.05],[-6.19,39.3],[-5.91,39.39],[-5.66,39.25],[-5.38,39.34],[-5.13,39.19],[-4.86,39.28],[-4.61,39.13],[-4.33,39.23],[-4.3,39.47],[-4.02,39.56],[-3.78,39.41],[-3.5,39.5],[-3.46,39.74],[-3.18,39.83],[-3.14,40.07],[-2.86,40.15],[-2.62,40.0],[-2.34,40.08],[-2.11,39.93],[-2.15,39.69],[-1.92,39.54],[-1.64,39.62],[-1.6,39.86],[-1.32,39.94],[-1.09,39.78],[-0.82,39.87],[-0.59,39.71],[-0.64,39.47],[-0.41,39.32],[-0.46,39.08],[-0.24,38.92],[-0.29,38.69],[-0.56,38.6],[-0.61,38.37],[-0.88,38.28],[-0.92,38.05],[-0.7,37.89],[-0.43,37.97],[-0.38,38.21],[-0.12,38.29],[-0.07,38.53],[0.2,38.61],[0.25,38.85],[0.03,39.0],[0.08,39.24],[-0.14,39.4],[-0.09,39.63],[0.18,39.71],[0.24,39.95],[0.51,40.02],[0.56,40.26],[0.84,40.34],[0.89,40.57],[1.17,40.66],[1.23,40.9],[1.51,40.99],[1.74,40.85],[2.02,40.94],[2.08,41.17],[2.36,41.26],[2.42,41.49],[2.71,41.58],[2.94,41.44],[3.23,41.53],[3.29,41.76],[3.59,41.85],[3.65,42.08],[3.42,42.23],[3.48,42.46],[3.25,42.6],[3.31,42.84],[3.61,42.93],[3.67,43.16],[3.97,43.25],[4.21,43.1],[4.51,43.19],[4.74,43.04],[5.04,43.13],[5.28,42.98],[5.58,43.06],[5.82,42.92],[6.12,43.0],[6.35,42.85],[6.66,42.93],[6.74,43.16],[7.05,43.24],[7.12,43.48],[7.43,43.56],[7.67,43.4],[7.98,43.48],[8.06,43.71],[8.37,43.79],[8.46,44.02],[8.77,44.1],[9.01,43.94],[9.33,44.02],[9.56,43.86],[9.88,43.94],[10.12,43.78],[10.03,43.55],[9.71,43.47],[9.63,43.24],[9.31,43.17],[9.23,42.94],[8.91,42.86],[8.68,43.02],[8.37,42.94],[8.29,42.71],[8.52,42.55],[8.44,42.32],[8.13,42.24],[8.05,42.01],[8.28,41.85],[8.21,41.61],[8.43,41.46],[8.74,41.53],[8.97,41.37],[8.89,41.14],[8.58,41.06],[8.36,41.22],[8.05,41.14],[7.97,40.91],[7.67,40.83],[7.6,40.59],[7.82,40.44],[8.12,40.51],[8.35,40.35],[8.27,40.12],[7.97,40.04],[7.9,39.8],[8.12,39.64],[8.05,39.4],[7.75,39.33],[7.67,39.09],[7.9,38.93],[8.19,39.0],[8.42,38.84],[8.71,38.91],[8.94,38.75],[9.24,38.82],[9.31,39.06],[9.62,39.14],[9.84,38.97],[10.14,39.04],[10.22,39.28],[10.0,39.45],[10.08,39.68],[9.86,39.85],[9.94,40.09],[10.25,40.16],[10.33,40.4],[10.11,40.56],[10.19,40.8],[9.96,40.96],[10.05,41.2],[9.82,41.36],[9.9,41.59],[9.67,41.76],[9.76,41.99],[10.07,42.06],[10.3,41.9],[10.61,41.97],[10.7,42.21],[11.02,42.28],[11.24,42.11],[11.56,42.18],[11.79,42.02],[11.7,41.78],[11.93,41.62],[12.25,41.68],[12.47,41.52],[12.38,41.28],[12.61,41.11],[12.52,40.88],[12.74,40.71],[13.05,40.77],[13.28,40.6],[13.59,40.67],[13.82,40.49],[14.13,40.55],[14.36,40.38],[14.67,40.44],[14.89,40.27],[14.8,40.03],[15.02,39.85],[15.33,39.91],[15.55,39.73],[15.45,39.5],[15.67,39.32],[15.57,39.08],[15.26,39.02],[15.16,38.79],[14.85,38.73],[14.63,38.9],[14.32,38.84],[14.23,38.61],[14.44,38.43],[14.35,38.19],[14.04,38.13],[13.82,38.31],[13.52,38.24],[13.3,38.42],[13.39,38.66],[13.17,38.83],[12.86,38.77],[12.77,38.53],[12.46,38.46],[12.38,38.22],[12.07,38.16],[11.98,37.92],[12.2,37.74],[12.12,37.5],[12.33,37.33],[12.64,37.4],[12.85,37.22],[13.15,37.28],[13.37,37.11],[13.67,37.17],[13.89,36.99],[14.19,37.05],[14.41,36.87],[14.32,36.63],[14.53,36.45],[14.83,36.51],[15.04,36.33],[15.35,36.39],[15.44,36.63],[15.23,36.81],[15.33,37.05],[15.63,37.11],[15.73,37.35],[15.52,37.53],[15.61,37.77],[15.93,37.83],[16.14,37.64],[16.45,37.7],[16.55,37.94],[16.86,37.99],[16.96,38.23],[16.75,38.41],[16.85,38.65],[17.17,38.71],[17.27,38.94],[17.58,39.0],[17.69,39.23],[17.47,39.41],[17.58,39.65],[17.36,39.83],[17.04,39.78],[16.83,39.96],[16.93,40.19],[17.25,40.25],[17.47,40.07],[17.79,40.12],[18.0,39.94],[17.9,39.7],[18.11,39.52],[18.43,39.57],[18.54,39.8],[18.86,39.85],[19.07,39.67],[19.4,39.72],[19.61,39.53],[19.5,39.3],[19.71,39.11],[20.03,39.15],[20.24,38.97],[20.13,38.73],[20.34,38.54],[20.23,38.31],[20.44,38.12],[20.33,37.88],[20.53,37.69],[20.42,37.45],[20.63,37.26],[20.94,37.31],[21.05,37.54],[21.37,37.59],[21.57,37.39],[21.46,37.16],[21.66,36.96],[21.55,36.73],[21.75,36.53],[22.07,36.57],[22.27,36.38],[22.58,36.42],[22.78,36.22],[22.67,35.99],[22.86,35.79],[23.18,35.83],[23.29,36.06],[23.09,36.26],[23.21,36.5],[23.01,36.69],[23.13,36.93],[23.44,36.97],[23.56,37.2],[23.87,37.24],[23.99,37.47],[24.31,37.51],[24.51,37.31],[24.39,37.07],[24.07,37.04],[23.95,36.8],[24.15,36.61],[24.47,36.64],[24.58,36.88],[24.9,36.91],[25.09,36.71],[24.97,36.48],[25.17,36.28],[25.48,36.31],[25.6,36.54],[25.92,36.57],[26.04,36.8],[25.85,37.01],[25.97,37.24],[25.77,37.44],[25.46,37.41],[25.26,37.61],[25.38,37.84],[25.19,38.04],[24.87,38.0],[24.67,38.2],[24.35,38.17],[24.15,38.36],[24.27,38.6],[24.59,38.63],[24.71,38.86],[24.51,39.06],[24.63,39.29],[24.43,39.48],[24.11,39.45],[23.91,39.64],[24.03,39.87],[24.35,39.91],[24.48,40.14],[24.27,40.33],[24.39,40.56],[24.72,40.59],[24.85,40.82],[25.18,40.85],[25.38,40.66],[25.25,40.43],[25.46,40.23],[25.33,40.01],[25.0,39.97],[24.88,39.75],[25.08,39.55],[25.41,39.58],[25.53,39.81],[25.86,39.84],[26.06,39.64],[25.93,39.41],[25.61,39.38],[25.48,39.15],[25.68,38.96],[25.56,38.73],[25.75,38.53],[25.63,38.3],[25.83,38.1],[26.15,38.13],[26.34,37.93],[26.22,37.7],[26.41,37.5],[26.29,37.27],[26.48,37.07],[26.79,37.09],[26.99,36.89],[26.86,36.66],[27.05,36.46],[27.36,36.49],[27.55,36.28],[27.43,36.05],[27.62,35.85],[27.93,35.87],[28.05,36.1],[28.37,36.13],[28.49,36.36],[28.31,36.56],[28.43,36.79],[28.25,37.0],[28.37,37.22],[28.69,37.25],[28.88,37.04],[29.19,37.07],[29.38,36.86],[29.25,36.63],[28.93,36.61],[28.81,36.38],[28.99,36.18],[29.3,36.2],[29.49,35.99],[29.8,36.01],[29.93,36.24],[29.74,36.45],[29.87,36.68],[30.19,36.7],[30.37,36.49],[30.68,36.51],[30.81,36.73],[31.12,36.75],[31.26,36.97],[31.08,37.18],[30.76,37.16],[30.63,36.94],[30.32,36.92],[30.14,37.13],[30.27,37.35],[30.08,37.56],[29.77,37.54],[29.58,37.75],[29.27,37.72],[29.08,37.93],[28.76,37.91],[28.63,37.68],[28.31,37.66],[28.19,37.43],[27.87,37.4],[27.68,37.61],[27.36,37.58],[27.17,37.78],[27.3,38.01],[27.1,38.21],[26.78,38.19],[26.59,38.39],[26.72,38.62],[27.04,38.64],[27.16,38.87],[26.97,39.07],[27.1,39.3],[27.42,39.32],[27.62,39.12],[27.94,39.15],[28.13,38.95],[28.45,38.97],[28.64,38.77],[28.51,38.54],[28.19,38.52],[28.06,38.29],[28.25,38.09],[28.57,38.11],[28.7,38.34],[29.02,38.36],[29.21,38.16],[29.53,38.18],[29.71,37.97],[30.03,37.99],[30.16,38.22],[30.48,38.23],[30.62,38.46],[30.43,38.66],[30.57,38.89],[30.89,38.9],[31.02,39.12],[30.84,39.33],[30.97,39.55],[31.3,39.57],[31.43,39.79],[31.76,39.8],[31.89,40.02],[32.22,40.03],[32.36,40.25],[32.68,40.26],[32.86,40.05],[33.18,40.06],[33.32,40.28],[33.14,40.48],[33.29,40.7],[33.61,40.71],[33.79,40.5],[34.11,40.51],[34.26,40.72],[34.58,40.73],[34.72,40.94],[34.55,41.15],[34.69,41.36],[35.02,41.36],[35.16,41.57],[35.49,41.57],[35.66,41.36],[35.98,41.36],[36.16,41.16],[36.48,41.16],[36.63,41.36],[36.45,41.57],[36.13,41.57],[35.96,41.78],[35.64,41.78],[35.46,41.99],[35.13,41.99],[34.96,42.19],[34.63,42.19],[34.48,41.98],[34.15,41.98],[33.97,42.18],[33.64,42.18],[33.46,42.38],[33.13,42.38],[32.99,42.16],[32.66,42.15],[32.51,41.94],[32.18,41.93],[32.04,41.72],[31.71,41.71],[31.57,41.49],[31.24,41.48],[31.1,41.26],[30.77,41.24],[30.58,41.45],[30.26,41.43],[30.12,41.21],[29.79,41.2],[29.6,41.4],[29.27,41.38],[29.07,41.58],[28.74,41.56],[28.54,41.76],[28.21,41.74],[28.01,41.93],[28.15,42.15],[27.95,42.35],[28.08,42.57],[27.88,42.77],[28.02,42.99],[28.36,43.01],[28.49,43.23],[28.83,43.25],[28.97,43.46],[28.77,43.66],[28.91,43.88],[28.71,44.07],[28.85,44.29],[29.19,44.3],[29.33,44.52],[29.67,44.53],[29.81,44.75],[29.61,44.94],[29.75,45.15],[30.1,45.17],[30.3,44.97],[30.64,44.99],[30.79,45.2],[30.59,45.39],[30.24,45.38],[30.04,45.57],[30.19,45.78],[30.53,45.8],[30.68,46.0],[31.03,46.02],[31.18,46.22],[31.52,46.23],[31.72,46.04],[32.07,46.04],[32.26,45.85],[32.11,45.64],[32.31,45.44],[32.16,45.24],[32.35,45.04],[32.7,45.05],[32.89,44.85],[32.74,44.64],[32.93,44.44],[33.27,44.44],[33.46,44.24],[33.79,44.25],[33.98,44.04],[34.31,44.05],[34.46,44.25],[34.8,44.25],[34.95,44.46],[35.29,44.46],[35.44,44.66],[35.78,44.66],[35.93,44.86],[36.27,44.86],[36.42,45.06],[36.76,45.05],[36.93,44.85],[37.27,44.84],[37.44,44.64],[37.78,44.63],[37.95,44.42],[37.79,44.23],[37.96,44.02],[38.29,44.01],[38.45,44.21],[38.78,44.2],[38.95,43.99],[38.79,43.79],[38.96,43.58],[39.28,43.57],[39.45,43.37],[39.77,43.35],[39.93,43.14],[40.25,43.13],[40.41,42.92],[40.73,42.91],[40.89,42.7],[41.21,42.68],[41.36,42.47],[41.21,42.27],[41.36,42.06],[41.21,41.87],[41.36,41.65],[41.21,41.46],[40.9,41.47],[40.74,41.27],[40.43,41.28],[40.27,41.08],[39.96,41.09],[39.81,40.89],[39.5,40.9],[39.33,41.11],[39.02,41.12],[38.87,40.92],[38.55,40.92],[38.39,41.13],[38.07,41.14],[37.92,40.93],[37.6,40.94],[37.45,40.73],[37.14,40.73],[36.99,40.53],[37.16,40.32],[37.01,40.11],[37.17,39.89],[37.49,39.89],[37.64,40.1],[37.95,40.1],[38.1,40.3],[38.41,40.3],[38.58,40.09],[38.89,40.08],[39.05,39.87],[39.36,39.86],[39.51,40.07],[39.82,40.06],[39.98,39.85],[40.29,39.84],[40.44,40.04],[40.75,40.03],[40.9,39.81],[40.75,39.61],[40.9,39.4],[41.2,39.39],[41.36,39.17],[41.66,39.16],[41.81,39.36],[42.11,39.35],[42.27,39.55],[42.57,39.53],[42.72,39.73],[43.02,39.72],[43.17,39.5],[43.01,39.3],[43.16,39.09],[43.45,39.07],[43.61,39.27],[43.9,39.25],[44.04,39.03],[44.34,39.02],[44.49,39.21]],[[13.33,45.08],[13.24,44.86],[13.47,44.69],[13.8,44.76],[14.04,44.59],[13.94,44.36],[14.17,44.2],[14.5,44.26],[14.73,44.09],[14.63,43.86],[14.86,43.69],[15.19,43.75],[15.42,43.58],[15.32,43.35],[15.54,43.18],[15.44,42.95],[15.67,42.78],[16.0,42.83],[16.22,42.66],[16.12,42.43],[15.79,42.37],[15.57,42.54],[15.24,42.49],[15.14,42.25],[14.81,42.19],[14.59,42.37],[14.69,42.6],[14.46,42.77],[14.56,43.0],[14.33,43.17],[14.43,43.4],[14.2,43.57],[13.87,43.51],[13.64,43.67],[13.74,43.9],[13.51,44.07],[13.18,44.01],[12.95,44.17],[13.04,44.4],[12.81,44.56],[12.9,44.79],[12.67,44.95],[12.77,45.18],[13.1,45.25],[13.33,45.08]],[[37.87,46.43],[37.71,46.23],[37.88,46.03],[37.72,45.84],[37.39,45.84],[37.23,45.65],[36.89,45.65],[36.71,45.86],[36.37,45.86],[36.22,45.66],[35.88,45.67],[35.72,45.47],[35.38,45.47],[35.2,45.67],[35.35,45.87],[35.17,46.07],[35.32,46.27],[35.67,46.27],[35.82,46.47],[36.17,46.46],[36.32,46.66],[36.67,46.65],[36.85,46.45],[37.19,46.45],[37.35,46.64],[37.69,46.63],[37.87,46.43]],[[37.28,66.19],[37.57,66.02],[38.09,66.06],[38.38,65.88],[38.9,65.92],[39.14,66.13],[39.67,66.16],[39.95,65.98],[39.71,65.77],[39.18,65.74],[38.94,65.53],[39.22,65.36],[38.99,65.15],[38.48,65.11],[38.2,65.29],[37.69,65.26],[37.4,65.43],[36.9,65.39],[36.61,65.56],[36.1,65.52],[35.89,65.31],[35.39,65.27],[35.1,65.44],[35.3,65.65],[35.81,65.69],[36.02,65.9],[35.72,66.07],[35.94,66.28],[36.46,66.32],[36.76,66.15],[37.28,66.19]],[[43.19,66.51],[42.92,66.7],[43.21,66.9],[43.77,66.92],[44.04,66.73],[43.75,66.53],[43.19,66.51]],[[17.6,67.4],[18.02,67.49],[18.53,67.4],[18.6,67.22],[18.18,67.13],[17.68,67.22],[17.26,67.12],[16.75,67.21],[16.66,67.39],[17.09,67.49],[17.6,67.4]],[[40.72,66.6],[41.27,66.63],[41.55,66.45],[41.28,66.24],[40.74,66.22],[40.46,66.4],[40.72,66.6]],[[18.98,42.03],[18.87,41.8],[19.09,41.62],[18.98,41.39],[19.19,41.2],[19.08,40.97],[19.3,40.79],[19.19,40.55],[18.86,40.51],[18.65,40.69],[18.32,40.64],[18.11,40.82],[17.78,40.77],[17.56,40.95],[17.67,41.18],[17.45,41.36],[17.13,41.31],[16.91,41.49],[16.58,41.43],[16.36,41.61],[16.46,41.84],[16.24,42.02],[16.34,42.25],[16.67,42.31],[16.78,42.54],[17.11,42.59],[17.33,42.42],[17.66,42.47],[17.88,42.29],[18.21,42.34],[18.43,42.16],[18.76,42.21],[18.98,42.03]],[[46.73,67.75],[47.32,67.76],[47.57,67.57],[47.25,67.38],[47.5,67.19],[47.18,66.99],[46.6,66.98],[46.35,67.17],[45.77,67.16],[45.51,67.35],[45.82,67.55],[46.4,67.56],[46.73,67.75]],[[102.43,54.66],[102.8,54.72],[103.07,54.54],[102.97,54.31],[102.6,54.26],[102.32,54.43],[102.43,54.66]],[[76.04,51.54],[75.67,51.65],[75.33,51.51],[74.96,51.61],[74.92,51.87],[74.54,51.97],[74.49,52.23],[74.83,52.37],[75.22,52.27],[75.56,52.41],[75.94,52.3],[75.97,52.05],[76.35,51.94],[76.69,52.08],[77.06,51.97],[77.41,52.11],[77.78,52.0],[78.13,52.13],[78.5,52.02],[78.52,51.76],[78.88,51.64],[79.23,51.78],[79.59,51.66],[79.61,51.4],[79.26,51.27],[79.28,51.02],[79.64,50.9],[79.65,50.64],[79.31,50.51],[79.33,50.25],[78.99,50.11],[78.64,50.23],[78.62,50.49],[78.26,50.61],[77.93,50.47],[77.57,50.58],[77.54,50.84],[77.18,50.95],[76.84,50.81],[76.48,50.92],[76.44,51.18],[76.07,51.29],[76.04,51.54]],[[28.21,40.67],[28.34,40.89],[28.67,40.92],[28.86,40.72],[28.73,40.49],[28.4,40.47],[28.21,40.67]],[[10.0,58.55],[9.6,58.48],[9.31,58.6],[9.41,58.79],[9.81,58.86],[10.11,58.74],[10.51,58.81],[10.8,58.69],[10.69,58.5],[10.29,58.43],[10.0,58.55]],[[21.38,69.18],[20.89,69.08],[20.35,69.18],[20.28,69.38],[20.78,69.47],[21.33,69.37],[21.38,69.18]],[[30.36,40.59],[30.17,40.79],[30.31,41.01],[30.64,41.03],[30.83,40.82],[30.69,40.6],[30.36,40.59]],[[19.72,68.05],[19.27,67.96],[19.34,67.77],[18.89,67.68],[18.38,67.77],[17.94,67.68],[17.43,67.77],[17.34,67.95],[17.78,68.05],[17.7,68.23],[18.14,68.33],[18.67,68.24],[19.13,68.33],[19.66,68.24],[19.72,68.05]],[[8.36,61.41],[8.08,61.58],[8.19,61.76],[8.57,61.77],[8.88,61.67],[8.78,61.49],[8.36,61.41]],[[32.74,41.32],[32.6,41.1],[32.27,41.09],[32.09,41.3],[32.23,41.51],[32.56,41.52],[32.74,41.32]]],[[[90.32,50.98],[90.67,51.08],[90.99,50.93],[91.34,51.03],[91.65,50.88],[92.0,50.97],[92.05,51.22],[92.41,51.31],[92.71,51.16],[93.07,51.25],[93.37,51.09],[93.73,51.18],[94.03,51.03],[94.38,51.11],[94.68,50.96],[95.03,51.04],[95.32,50.88],[95.67,50.96],[95.74,51.21],[96.09,51.29],[96.16,51.53],[95.87,51.69],[95.51,51.61],[95.22,51.77],[94.86,51.69],[94.56,51.85],[94.62,52.09],[94.32,52.25],[93.96,52.16],[93.65,52.32],[93.29,52.23],[92.98,52.39],[92.61,52.3],[92.56,52.05],[92.2,51.96],[91.88,52.11],[91.52,52.02],[91.48,51.77],[91.12,51.68],[91.07,51.43],[90.71,51.33],[90.4,51.48],[90.04,51.38],[90.0,51.13],[90.32,50.98]]],[[[78.0,41.99],[78.29,42.13],[78.27,42.38],[78.56,42.52],[78.87,42.41],[79.16,42.55],[79.15,42.8],[79.44,42.94],[79.75,42.82],[79.76,42.57],[80.06,42.45],[80.36,42.59],[80.66,42.47],[80.96,42.6],[80.95,42.85],[81.25,42.99],[81.55,42.87],[81.85,43.0],[81.84,43.25],[81.54,43.38],[81.53,43.63],[81.23,43.75],[80.93,43.62],[80.62,43.74],[80.32,43.61],[80.01,43.73],[79.71,43.59],[79.72,43.33],[79.43,43.2],[79.11,43.31],[78.82,43.18],[78.51,43.29],[78.49,43.55],[78.17,43.66],[77.88,43.52],[77.56,43.63],[77.27,43.49],[77.29,43.24],[77.61,43.12],[77.9,43.27],[78.21,43.15],[78.23,42.9],[77.94,42.75],[77.63,42.87],[77.34,42.72],[77.03,42.84],[76.74,42.69],[76.42,42.8],[76.39,43.06],[76.08,43.17],[76.05,43.42],[75.73,43.53],[75.44,43.38],[75.12,43.49],[75.08,43.75],[74.76,43.85],[74.47,43.7],[74.5,43.44],[74.83,43.34],[74.86,43.08],[74.58,42.93],[74.26,43.04],[73.97,42.89],[73.65,42.99],[73.37,42.84],[73.04,42.94],[72.76,42.78],[72.81,42.53],[73.13,42.43],[73.41,42.58],[73.73,42.48],[73.77,42.22],[73.49,42.07],[73.53,41.82],[73.84,41.71],[74.12,41.87],[74.44,41.76],[74.72,41.91],[75.03,41.81],[75.31,41.96],[75.62,41.85],[75.91,42.0],[76.22,41.89],[76.5,42.03],[76.81,41.92],[77.1,42.07],[77.41,41.96],[77.69,42.1],[78.0,41.99]],[[74.93,42.57],[75.21,42.72],[75.53,42.62],[75.56,42.36],[75.28,42.21],[74.96,42.32],[74.68,42.17],[74.36,42.27],[74.33,42.53],[74.61,42.68],[74.93,42.57]]],[[[-8.92,57.6],[-8.54,57.67],[-8.51,57.88],[-8.13,57.95],[-8.09,58.16],[-8.44,58.3],[-8.82,58.23],[-8.86,58.02],[-9.24,57.95],[-9.27,57.73],[-8.92,57.6]]],[[[-6.65,61.56],[-6.6,61.76],[-6.19,61.82],[-6.14,62.01],[-5.72,62.07],[-5.67,62.26],[-6.04,62.4],[-5.99,62.6],[-6.37,62.74],[-6.79,62.68],[-6.84,62.49],[-7.26,62.43],[-7.3,62.23],[-7.72,62.17],[-7.76,61.97],[-7.39,61.84],[-7.43,61.64],[-7.06,61.5],[-7.1,61.3],[-6.74,61.16],[-6.33,61.22],[-6.28,61.42],[-6.65,61.56]]],[[[-18.74,66.51],[-19.24,66.42],[-19.32,66.19],[-19.81,66.09],[-20.22,66.23],[-20.71,66.13],[-21.13,66.26],[-21.61,66.16],[-22.04,66.29],[-21.98,66.52],[-22.42,66.65],[-22.92,66.55],[-23.36,66.67],[-23.85,66.57],[-23.89,66.33],[-24.38,66.22],[-24.41,65.99],[-24.89,65.87],[-24.92,65.64],[-24.48,65.51],[-24.51,65.28],[-24.08,65.16],[-24.11,64.92],[-24.57,64.81],[-24.6,64.58],[-24.18,64.45],[-23.73,64.57],[-23.32,64.44],[-22.86,64.55],[-22.46,64.43],[-22.51,64.2],[-22.95,64.09],[-23.0,63.86],[-22.6,63.73],[-22.16,63.84],[-21.77,63.72],[-21.33,63.82],[-20.94,63.69],[-21.0,63.46],[-20.63,63.34],[-20.19,63.44],[-19.82,63.31],[-19.39,63.41],[-19.02,63.28],[-18.59,63.37],[-18.23,63.24],[-17.8,63.33],[-17.71,63.56],[-17.27,63.65],[-16.92,63.51],[-16.48,63.6],[-16.38,63.83],[-15.94,63.91],[-15.84,64.14],[-15.38,64.22],[-15.04,64.08],[-14.59,64.16],[-14.48,64.38],[-14.02,64.46],[-13.9,64.68],[-13.44,64.76],[-13.32,64.98],[-12.85,65.05],[-12.72,65.27],[-13.06,65.42],[-12.93,65.64],[-13.27,65.78],[-13.75,65.71],[-14.11,65.86],[-13.98,66.08],[-14.34,66.22],[-14.22,66.45],[-14.59,66.59],[-15.09,66.51],[-15.47,66.66],[-15.96,66.58],[-16.35,66.72],[-16.85,66.64],[-16.96,66.41],[-17.45,66.32],[-17.85,66.46],[-18.34,66.37],[-18.74,66.51]],[[-23.97,65.86],[-23.49,65.97],[-23.06,65.85],[-22.58,65.95],[-22.15,65.82],[-22.21,65.59],[-22.68,65.49],[-23.1,65.61],[-23.57,65.5],[-24.01,65.63],[-23.97,65.86]],[[-19.48,65.73],[-19.0,65.82],[-18.6,65.69],[-18.12,65.78],[-17.74,65.64],[-17.26,65.73],[-17.16,65.96],[-16.67,66.04],[-16.29,65.9],[-15.81,65.98],[-15.44,65.84],[-15.55,65.62],[-15.19,65.48],[-15.3,65.25],[-14.94,65.11],[-15.06,64.89],[-14.71,64.75],[-14.82,64.52],[-15.28,64.44],[-15.63,64.58],[-16.08,64.5],[-16.19,64.27],[-16.64,64.19],[-16.73,63.96],[-17.18,63.87],[-17.54,64.01],[-17.98,63.92],[-18.35,64.05],[-18.79,63.96],[-18.87,63.73],[-19.31,63.63],[-19.68,63.76],[-19.61,63.99],[-19.99,64.12],[-19.92,64.35],[-20.31,64.48],[-20.76,64.38],[-21.15,64.51],[-21.09,64.74],[-21.49,64.87],[-21.43,65.1],[-20.97,65.2],[-20.57,65.07],[-20.1,65.17],[-20.03,65.4],[-20.43,65.53],[-20.36,65.77],[-19.88,65.86],[-19.48,65.73]]],[[[78.92,41.64],[78.93,41.39],[78.65,41.25],[78.66,41.0],[78.38,40.85],[78.4,40.6],[78.7,40.49],[78.98,40.63],[79.28,40.51],[79.56,40.65],[79.55,40.9],[79.25,41.02],[79.23,41.27],[79.52,41.41],[79.82,41.29],[80.11,41.43],[80.41,41.31],[80.69,41.45],[80.69,41.7],[80.39,41.82],[80.1,41.69],[79.8,41.8],[79.51,41.67],[79.21,41.78],[78.92,41.64]]],[[[9.13,36.81],[9.43,36.88],[9.5,37.12],[9.29,37.29],[8.99,37.22],[8.91,36.98],[9.13,36.81]]],[[[23.68,35.67],[23.37,35.63],[23.26,35.39],[23.45,35.2],[23.76,35.23],[23.96,35.03],[23.84,34.8],[24.04,34.6],[24.34,34.63],[24.46,34.87],[24.77,34.9],[24.96,34.7],[25.27,34.74],[25.39,34.97],[25.7,35.0],[25.89,34.8],[26.2,34.83],[26.32,35.07],[26.63,35.09],[26.75,35.33],[27.06,35.36],[27.18,35.59],[26.99,35.79],[26.68,35.76],[26.56,35.53],[26.25,35.5],[26.13,35.27],[25.82,35.24],[25.63,35.44],[25.32,35.41],[25.12,35.61],[24.81,35.57],[24.62,35.77],[24.31,35.74],[24.11,35.94],[23.8,35.9],[23.68,35.67]]],[[[2.92,39.26],[3.2,39.35],[3.42,39.2],[3.71,39.29],[3.77,39.52],[4.06,39.61],[4.28,39.46],[4.57,39.54],[4.63,39.78],[4.41,39.93],[4.47,40.17],[4.25,40.32],[3.96,40.23],[3.73,40.38],[3.44,40.3],[3.38,40.06],[3.09,39.97],[2.87,40.12],[2.58,40.03],[2.53,39.8],[2.24,39.71],[2.19,39.47],[2.41,39.32],[2.69,39.41],[2.92,39.26]]],[[[-31.3,39.16],[-30.99,39.07],[-30.73,39.22],[-30.78,39.48],[-31.09,39.57],[-31.35,39.41],[-31.3,39.16]]],[[[59.48,69.77],[59.76,69.56],[60.41,69.53],[60.79,69.7],[61.44,69.65],[61.83,69.82],[61.57,70.03],[60.9,70.08],[60.63,70.29],[59.95,70.33],[59.66,70.54],[58.98,70.58],[58.6,70.4],[58.9,70.19],[58.53,70.02],[58.83,69.81],[59.48,69.77]]],[[[56.88,70.28],[57.56,70.25],[57.92,70.43],[57.6,70.64],[57.98,70.82],[57.66,71.02],[56.95,71.05],[56.62,71.26],[55.91,71.28],[55.55,71.1],[55.89,70.9],[56.59,70.87],[56.92,70.67],[56.56,70.49],[56.88,70.28]]],[[[50.65,68.91],[50.4,69.1],[50.78,69.29],[50.52,69.48],[49.89,69.48],[49.62,69.67],[48.98,69.67],[48.61,69.48],[47.98,69.47],[47.62,69.28],[47.9,69.1],[47.54,68.91],[47.81,68.72],[48.43,68.72],[48.69,68.53],[49.3,68.53],[49.66,68.72],[50.28,68.72],[50.65,68.91]],[[49.51,69.29],[49.77,69.1],[49.4,68.91],[48.78,68.91],[48.52,69.1],[48.88,69.29],[49.51,69.29]]],[[[72.9,68.24],[72.38,68.1],[72.47,67.88],[71.96,67.75],[72.05,67.53],[71.55,67.39],[71.64,67.17],[71.15,67.03],[71.24,66.81],[70.76,66.67],[70.19,66.75],[69.72,66.6],[69.15,66.68],[68.68,66.53],[68.79,66.31],[69.35,66.24],[69.82,66.38],[70.38,66.3],[70.85,66.44],[71.41,66.36],[71.5,66.14],[72.05,66.05],[72.52,66.19],[72.45,66.41],[72.93,66.55],[72.85,66.77],[72.29,66.86],[72.21,67.08],[72.7,67.22],[72.62,67.44],[73.13,67.57],[73.05,67.8],[73.56,67.93],[73.49,68.15],[73.96,68.29],[74.55,68.19],[75.03,68.33],[74.92,68.56],[74.32,68.65],[73.84,68.51],[73.24,68.6],[72.77,68.46],[72.9,68.24]]],[[[85.33,47.18],[85.64,47.04],[85.63,46.79],[85.93,46.66],[86.26,46.77],[86.27,47.03],[85.97,47.16],[85.98,47.42],[85.67,47.55],[85.34,47.43],[85.03,47.57],[84.7,47.45],[84.69,47.19],[84.36,47.07],[84.35,46.82],[84.03,46.7],[84.03,46.44],[84.34,46.31],[84.66,46.43],[84.67,46.69],[84.99,46.81],[85.0,47.06],[85.33,47.18]]],[[[32.76,35.96],[33.07,35.97],[33.2,36.19],[33.03,36.4],[32.72,36.39],[32.59,36.17],[32.76,35.96]]],[[[-16.39,33.34],[-16.39,33.09],[-16.13,32.96],[-15.87,33.09],[-15.87,33.34],[-16.13,33.47],[-16.39,33.34]]],[[[73.91,66.81],[74.4,66.95],[74.34,67.17],[74.84,67.3],[74.78,67.52],[75.29,67.65],[75.23,67.87],[74.66,67.96],[74.14,67.84],[74.21,67.61],[73.7,67.48],[73.77,67.26],[73.27,67.13],[73.35,66.91],[73.91,66.81]]],[[[91.52,50.13],[91.86,50.23],[91.91,50.48],[91.61,50.63],[91.25,50.53],[91.21,50.29],[91.52,50.13]]],[[[1.02,38.87],[1.24,38.73],[1.19,38.49],[1.41,38.35],[1.68,38.44],[1.74,38.67],[1.52,38.82],[1.57,39.06],[1.85,39.15],[1.91,39.38],[1.68,39.53],[1.4,39.44],[1.35,39.2],[1.07,39.11],[1.02,38.87]]],[[[81.19,45.29],[81.18,45.54],[81.5,45.68],[81.49,45.93],[81.17,46.06],[80.86,45.92],[80.87,45.67],[80.55,45.53],[80.23,45.66],[79.92,45.52],[79.6,45.64],[79.29,45.5],[79.31,45.25],[79.0,45.11],[78.68,45.23],[78.38,45.09],[78.4,44.83],[78.09,44.69],[78.11,44.43],[77.81,44.29],[77.84,44.03],[78.15,43.92],[78.45,44.06],[78.77,43.94],[79.07,44.08],[79.05,44.34],[79.35,44.48],[79.67,44.36],[79.97,44.5],[79.96,44.75],[79.64,44.87],[79.63,45.13],[79.94,45.26],[80.26,45.14],[80.56,45.28],[80.88,45.16],[80.89,44.9],[80.58,44.77],[80.59,44.51],[80.9,44.39],[80.91,44.13],[81.22,44.01],[81.53,44.14],[81.83,44.02],[82.14,44.15],[82.14,44.4],[81.83,44.53],[81.82,44.78],[81.51,44.91],[81.51,45.16],[81.19,45.29]]],[[[68.26,43.58],[68.6,43.49],[68.87,43.66],[68.81,43.91],[68.47,44.0],[68.2,43.83],[68.26,43.58]]],[[[96.14,52.66],[95.84,52.82],[95.48,52.74],[95.41,52.5],[95.71,52.34],[96.07,52.42],[96.37,52.25],[96.73,52.33],[96.8,52.57],[96.51,52.73],[96.14,52.66]]],[[[92.91,50.51],[93.21,50.36],[93.56,50.45],[93.86,50.29],[94.21,50.38],[94.27,50.62],[93.97,50.78],[93.62,50.69],[93.32,50.85],[92.97,50.76],[92.66,50.91],[92.31,50.82],[92.26,50.57],[92.56,50.42],[92.91,50.51]]],[[[35.1,32.99],[34.81,32.98],[34.67,32.76],[34.83,32.54],[34.7,32.32],[34.86,32.11],[35.16,32.12],[35.29,32.34],[35.58,32.35],[35.74,32.14],[36.03,32.15],[36.17,32.37],[36.01,32.58],[36.15,32.8],[35.99,33.02],[36.12,33.24],[36.42,33.24],[36.56,33.46],[36.4,33.68],[36.53,33.9],[36.83,33.9],[36.97,34.12],[36.81,34.34],[36.51,34.33],[36.35,34.55],[36.06,34.54],[35.92,34.32],[36.08,34.11],[35.94,33.89],[35.64,33.88],[35.51,33.66],[35.21,33.65],[35.08,33.43],[35.24,33.21],[35.1,32.99]]],[[[82.75,45.68],[83.07,45.55],[83.06,45.3],[83.37,45.17],[83.69,45.3],[83.69,45.55],[84.01,45.68],[84.01,45.93],[83.7,46.06],[83.38,45.94],[83.07,46.07],[82.75,45.94],[82.75,45.68]]],[[[-5.69,58.97],[-5.65,59.18],[-5.99,59.32],[-6.38,59.26],[-6.43,59.06],[-6.08,58.91],[-5.69,58.97]]],[[[-16.65,32.96],[-16.92,33.09],[-17.18,32.96],[-17.44,33.08],[-17.7,32.95],[-17.7,32.69],[-17.43,32.57],[-17.17,32.7],[-16.91,32.58],[-16.91,32.32],[-16.65,32.19],[-16.39,32.32],[-16.39,32.58],[-16.65,32.71],[-16.65,32.96]]],[[[-2.5,37.77],[-2.23,37.86],[-2.18,38.1],[-2.41,38.25],[-2.69,38.16],[-2.73,37.92],[-2.5,37.77]]],[[[-12.46,62.95],[-12.16,62.81],[-11.73,62.89],[-11.6,63.1],[-11.9,63.24],[-12.34,63.17],[-12.46,62.95]]],[[[53.48,70.77],[53.84,70.57],[54.52,70.55],[54.87,70.35],[55.54,70.33],[55.88,70.51],[55.54,70.71],[54.86,70.73],[54.5,70.93],[53.81,70.95],[53.44,71.15],[52.74,71.16],[52.42,70.97],[52.8,70.78],[53.48,70.77]]],[[[-27.89,39.52],[-28.15,39.36],[-28.12,39.11],[-28.38,38.95],[-28.68,39.05],[-28.95,38.9],[-28.91,38.65],[-28.6,38.55],[-28.57,38.29],[-28.26,38.19],[-28.0,38.35],[-27.7,38.24],[-27.44,38.4],[-27.14,38.29],[-26.87,38.44],[-26.91,38.7],[-26.64,38.85],[-26.67,39.1],[-26.98,39.21],[-27.24,39.06],[-27.55,39.16],[-27.58,39.41],[-27.89,39.52]]],[[[63.39,69.51],[63.8,69.67],[63.56,69.89],[62.9,69.94],[62.49,69.77],[62.74,69.56],[63.39,69.51]]],[[[-13.37,57.69],[-13.35,57.91],[-13.72,58.04],[-14.1,57.95],[-14.11,57.73],[-13.75,57.61],[-13.37,57.69]]],[[[75.65,41.59],[75.37,41.45],[75.4,41.19],[75.71,41.09],[75.99,41.23],[75.96,41.49],[75.65,41.59]]],[[[-25.09,37.8],[-25.12,38.06],[-25.41,38.17],[-25.68,38.02],[-25.98,38.13],[-26.24,37.98],[-26.21,37.72],[-25.92,37.62],[-25.88,37.36],[-25.59,37.25],[-25.56,37.0],[-25.27,36.89],[-25.0,37.03],[-25.03,37.29],[-25.33,37.4],[-25.35,37.66],[-25.09,37.8]]],[[[52.29,71.74],[51.57,71.75],[51.25,71.56],[51.65,71.36],[52.36,71.36],[52.68,71.55],[52.29,71.74]]],[[[32.36,35.29],[32.23,35.06],[32.4,34.85],[32.27,34.62],[32.44,34.41],[32.74,34.43],[32.88,34.65],[33.18,34.67],[33.31,34.89],[33.14,35.1],[32.84,35.09],[32.67,35.3],[32.36,35.29]]],[[[16.57,76.72],[17.34,76.84],[17.18,77.06],[16.22,77.15],[16.04,77.36],[15.05,77.45],[14.26,77.32],[14.48,77.11],[15.44,77.02],[15.63,76.81],[16.57,76.72]]],[[[14.25,35.73],[14.56,35.79],[14.65,36.03],[14.44,36.21],[14.13,36.15],[14.04,35.91],[14.25,35.73]]],[[[68.39,68.22],[68.88,68.36],[68.77,68.58],[68.16,68.65],[68.04,68.87],[67.42,68.93],[67.22,69.16],[66.59,69.22],[66.16,69.06],[66.3,68.85],[66.92,68.79],[67.05,68.57],[67.66,68.5],[67.78,68.29],[68.39,68.22]]],[[[47.99,38.08],[47.86,38.3],[47.56,38.33],[47.39,38.14],[47.52,37.92],[47.82,37.89],[47.99,38.08]]],[[[37.02,32.82],[36.87,33.04],[36.58,33.03],[36.44,32.81],[36.6,32.6],[36.89,32.6],[37.02,32.82]]],[[[68.56,69.62],[67.91,69.69],[67.46,69.53],[67.66,69.31],[68.29,69.24],[68.74,69.39],[68.56,69.62]]]]}}]}