{"type":"FeatureCollection","features":[{"type":"Feature","properties":{},"geometry":{"type":"MultiPolygon","coordinates":[[[[60.33,27.78],[60.93,27.43],[60.89,26.83],[61.78,27.0],[62.37,26.64],[62.82,26.73],[63.14,27.26],[63.08,27.48],[61.82,28.44],[61.74,28.66],[62.4,28.91],[62.67,28.84],[62.74,28.61],[63.21,28.7],[63.47,28.63],[63.54,28.4],[64.0,28.48],[64.27,28.41],[64.33,28.18],[65.06,28.19],[64.98,27.58],[63.86,27.27],[63.92,27.04],[64.5,26.67],[65.62,26.98],[65.88,26.9],[65.94,26.68],[66.65,26.67],[67.16,27.57],[68.04,26.88],[69.18,27.16],[70.37,27.19],[70.76,27.71],[71.97,27.74],[72.37,28.25],[73.11,28.22],[73.52,28.73],[74.26,28.69],[74.69,29.2],[75.17,29.25],[75.15,29.48],[75.87,29.66],[76.05,30.27],[76.29,30.41],[77.78,30.52],[78.03,30.42],[78.32,29.85],[79.06,29.77],[79.33,29.2],[80.3,29.26],[80.8,28.81],[81.51,28.96],[82.24,28.18],[82.95,28.32],[82.71,28.89],[81.99,28.98],[81.75,29.56],[81.02,29.64],[81.01,29.88],[80.76,29.98],[80.28,29.96],[80.27,30.2],[80.02,30.3],[79.53,30.27],[79.52,30.51],[79.26,30.62],[78.77,30.59],[78.48,31.17],[77.72,31.24],[77.14,32.16],[76.37,32.23],[76.57,32.85],[75.71,33.65],[75.68,33.89],[75.4,33.99],[75.38,34.24],[75.1,34.34],[75.07,34.58],[74.26,34.64],[74.02,34.49],[73.42,34.93],[73.38,35.18],[73.63,35.33],[74.45,35.28],[74.7,35.42],[74.67,35.67],[73.31,35.67],[72.85,35.13],[71.91,35.91],[71.46,35.35],[69.57,35.25],[69.52,35.5],[69.96,36.06],[69.91,36.3],[71.24,36.59],[70.85,37.18],[71.1,37.34],[71.05,37.59],[70.75,37.68],[70.7,37.93],[71.17,38.49],[71.12,38.74],[70.46,39.18],[68.52,38.81],[68.21,38.89],[68.15,39.14],[68.96,39.38],[69.27,39.29],[69.73,39.87],[70.04,39.78],[70.3,39.94],[70.97,39.5],[71.45,40.07],[74.07,40.19],[74.34,40.34],[74.3,40.59],[73.99,40.7],[73.96,40.95],[74.23,41.1],[74.54,41.0],[75.99,41.23],[75.96,41.49],[75.65,41.59],[75.37,41.45],[75.06,41.55],[75.03,41.81],[75.31,41.96],[78.0,41.99],[78.29,42.13],[78.27,42.38],[79.16,42.55],[79.15,42.8],[79.44,42.94],[80.06,42.45],[80.96,42.6],[80.95,42.85],[81.25,42.99],[82.74,42.88],[83.35,43.39],[83.65,43.26],[83.95,43.39],[83.95,43.64],[83.66,43.77],[83.35,43.64],[83.05,43.77],[83.36,44.41],[83.67,44.53],[84.27,44.02],[85.18,44.13],[85.75,43.61],[87.25,43.69],[87.8,43.17],[88.03,42.53],[86.57,42.45],[86.29,42.59],[85.67,42.1],[84.22,42.24],[83.33,42.12],[82.74,42.62],[82.45,42.49],[82.45,42.24],[81.56,42.1],[81.57,41.85],[81.27,41.71],[79.21,41.78],[78.92,41.64],[78.66,41.0],[78.38,40.85],[78.08,40.97],[77.54,40.43],[76.08,40.47],[75.56,39.92],[74.68,39.98],[74.41,39.83],[74.44,39.58],[74.74,39.48],[75.11,38.87],[75.4,38.76],[75.67,38.91],[76.29,38.45],[76.08,37.8],[76.37,37.69],[76.7,37.08],[76.99,36.98],[78.35,37.18],[79.22,36.35],[80.03,36.51],[80.02,36.76],[80.29,36.89],[81.12,36.05],[81.65,36.56],[83.0,36.47],[83.54,36.97],[84.34,36.85],[84.62,36.98],[84.62,37.22],[84.9,37.35],[85.16,37.22],[85.44,37.34],[85.45,37.59],[85.73,37.71],[85.99,37.59],[86.26,37.71],[86.28,37.95],[86.56,38.07],[86.82,37.94],[87.1,38.06],[87.12,38.31],[87.4,38.43],[87.66,38.3],[87.94,38.41],[87.96,38.66],[88.24,38.77],[88.5,38.64],[88.78,38.75],[88.81,39.0],[89.09,39.11],[89.35,38.98],[89.95,39.44],[90.21,39.31],[91.03,39.38],[91.72,40.33],[91.24,40.86],[91.28,41.1],[91.02,41.25],[91.05,41.49],[90.23,41.67],[90.26,41.92],[91.24,42.73],[92.63,42.5],[92.93,42.6],[92.97,42.84],[91.01,43.12],[88.97,43.12],[88.44,43.65],[88.13,43.53],[87.85,43.67],[87.87,43.92],[88.18,44.04],[90.23,43.8],[90.88,44.26],[90.92,44.51],[90.4,45.05],[89.48,44.98],[89.2,45.12],[89.58,45.73],[89.29,45.87],[89.32,46.13],[89.64,46.23],[89.68,46.48],[89.12,47.02],[89.15,47.27],[88.22,47.45],[88.25,47.7],[87.94,47.85],[87.61,47.73],[87.3,47.88],[87.32,48.13],[87.01,48.27],[86.68,48.15],[86.36,48.29],[86.38,48.55],[86.06,48.68],[85.07,48.59],[84.75,48.72],[84.76,48.97],[85.45,49.47],[85.46,49.72],[85.14,49.85],[85.15,50.11],[84.14,50.26],[84.14,50.51],[83.8,50.65],[83.81,50.9],[84.16,51.02],[84.17,51.27],[84.52,51.39],[85.55,51.24],[86.28,51.72],[86.62,51.58],[87.67,51.65],[88.08,52.26],[88.84,52.72],[88.87,52.97],[88.23,53.51],[88.26,53.76],[87.59,54.29],[87.62,54.54],[88.0,54.64],[88.03,54.89],[87.34,55.43],[87.37,55.67],[88.51,55.73],[89.62,55.54],[90.44,55.97],[90.49,56.21],[90.88,56.31],[90.93,56.55],[90.58,56.7],[90.62,56.94],[91.03,57.03],[91.08,57.28],[89.94,57.49],[89.53,57.39],[88.83,57.93],[88.42,57.83],[88.04,57.98],[88.07,58.22],[86.88,58.4],[86.91,58.65],[87.33,58.75],[87.36,58.99],[85.31,59.2],[84.06,59.12],[83.24,59.62],[82.81,59.51],[82.39,59.64],[82.39,59.88],[82.82,60.0],[82.82,60.24],[81.53,60.37],[81.52,60.61],[80.2,60.74],[80.19,60.98],[79.74,61.1],[78.86,61.09],[78.83,61.33],[78.37,61.45],[77.05,61.3],[76.58,61.41],[76.54,61.65],[75.17,61.72],[75.12,61.96],[74.64,62.06],[73.73,62.02],[73.67,62.26],[73.18,62.35],[72.27,62.3],[72.2,62.54],[71.7,62.63],[69.45,62.35],[68.35,62.75],[66.52,62.58],[66.41,62.81],[65.9,62.88],[65.79,63.11],[65.27,63.17],[65.15,63.4],[65.56,63.56],[65.44,63.79],[64.91,63.86],[64.51,63.69],[64.63,63.47],[64.23,63.3],[63.71,63.36],[62.41,63.08],[61.22,63.41],[60.85,63.24],[60.99,63.01],[59.73,62.71],[59.88,62.49],[59.52,62.31],[60.32,61.81],[59.97,61.63],[60.11,61.41],[59.76,61.23],[59.9,61.0],[59.56,60.82],[59.07,60.87],[58.92,61.09],[59.27,61.27],[59.12,61.5],[58.62,61.54],[58.47,61.77],[58.81,61.95],[58.66,62.17],[57.48,62.47],[57.32,62.69],[55.95,62.58],[54.77,62.23],[53.58,62.5],[53.39,62.71],[52.88,62.73],[51.74,62.36],[50.53,62.6],[49.44,62.21],[48.23,62.43],[47.95,62.23],[46.69,62.03],[45.75,62.43],[43.82,62.79],[43.58,62.99],[43.84,63.19],[43.6,63.39],[43.1,63.37],[42.85,63.56],[43.88,63.99],[44.39,64.0],[44.66,64.21],[44.42,64.4],[43.9,64.39],[43.65,64.58],[42.36,64.34],[42.1,64.52],[40.82,64.66],[40.55,64.85],[40.8,65.05],[40.53,65.24],[40.01,65.21],[39.74,65.39],[39.98,65.6],[42.1,66.09],[42.37,66.29],[44.53,65.97],[44.82,66.17],[44.56,66.36],[44.86,66.56],[44.6,66.75],[44.9,66.95],[47.11,66.6],[48.33,67.0],[48.08,67.19],[48.41,67.38],[48.16,67.58],[48.5,67.77],[52.37,68.51],[54.66,68.06],[55.06,68.24],[54.01,68.66],[54.41,68.84],[54.18,69.04],[51.52,68.71],[48.25,67.96],[46.79,68.14],[46.53,68.32],[46.86,68.52],[46.59,68.7],[45.98,68.69],[45.7,68.88],[45.09,68.86],[44.77,68.66],[43.28,68.81],[42.97,68.61],[43.26,68.43],[43.86,68.45],[44.14,68.27],[43.83,68.07],[44.11,67.89],[43.81,67.69],[43.23,67.67],[42.94,67.47],[43.22,67.28],[42.93,67.08],[42.37,67.06],[41.24,67.39],[41.52,67.6],[41.23,67.77],[41.51,67.98],[41.21,68.15],[38.88,68.4],[38.57,68.57],[38.83,68.77],[38.51,68.94],[37.02,69.03],[36.7,69.19],[36.95,69.39],[35.89,69.5],[35.78,69.3],[36.12,69.14],[35.87,68.94],[36.2,68.78],[37.67,68.7],[37.99,68.53],[37.74,68.33],[38.05,68.16],[39.49,68.06],[40.66,67.75],[40.39,67.54],[40.68,67.37],[40.41,67.16],[40.7,66.98],[40.44,66.78],[40.72,66.6],[41.27,66.63],[41.55,66.45],[41.28,66.24],[40.74,66.22],[39.64,66.54],[38.33,66.27],[37.21,66.57],[35.03,66.78],[34.72,66.94],[34.93,67.15],[34.61,67.31],[33.77,67.42],[33.24,67.37],[33.04,67.16],[32.2,67.26],[31.69,67.21],[31.5,67.0],[30.17,67.03],[30.0,66.82],[30.32,66.66],[30.15,66.45],[30.48,66.3],[30.31,66.08],[30.62,65.93],[30.46,65.72],[29.98,65.66],[28.87,65.9],[29.03,66.11],[28.7,66.26],[27.9,66.34],[28.68,66.84],[28.35,66.98],[28.51,67.2],[28.17,67.34],[27.34,67.42],[26.23,67.06],[25.89,67.2],[26.02,67.41],[25.67,67.55],[25.8,67.77],[25.45,67.9],[24.37,67.54],[23.19,67.72],[22.16,67.34],[21.52,66.83],[19.52,66.82],[19.45,66.61],[19.8,66.49],[19.72,66.28],[19.31,66.19],[18.76,65.67],[16.9,65.64],[16.85,65.43],[16.05,65.03],[16.01,64.82],[14.94,64.75],[14.91,64.54],[14.18,64.14],[14.15,63.93],[13.15,63.85],[12.82,63.96],[12.84,64.17],[13.18,64.27],[13.2,64.47],[12.55,64.9],[12.56,65.11],[13.29,65.51],[13.18,65.69],[13.54,65.79],[13.43,65.96],[13.8,66.06],[13.08,66.48],[13.73,66.87],[13.62,67.04],[14.92,67.17],[14.81,67.35],[15.53,67.74],[15.43,67.92],[15.85,68.02],[15.75,68.21],[17.16,68.32],[17.07,68.51],[17.52,68.61],[17.43,68.8],[17.89,68.89],[17.15,69.36],[18.67,69.47],[18.59,69.66],[19.08,69.76],[21.23,69.76],[21.17,69.95],[21.69,70.04],[21.64,70.24],[22.17,70.33],[23.35,69.92],[23.88,70.0],[23.85,70.2],[23.28,70.31],[23.25,70.51],[23.8,70.6],[26.63,70.41],[27.79,70.77],[30.63,70.52],[30.58,70.32],[28.88,70.31],[28.85,70.11],[29.87,69.66],[31.51,69.65],[32.45,69.18],[34.97,69.05],[35.2,69.26],[34.72,69.4],[34.82,69.6],[33.24,69.83],[33.32,70.03],[32.81,70.17],[31.7,70.25],[31.76,70.45],[31.23,70.58],[31.29,70.79],[30.74,70.92],[28.97,70.91],[27.85,71.37],[26.65,71.01],[25.46,71.46],[24.27,71.49],[23.68,71.4],[23.71,71.2],[23.14,71.11],[23.18,70.91],[22.03,70.93],[21.0,70.54],[18.76,70.54],[18.84,70.35],[17.93,69.95],[18.02,69.76],[16.96,69.74],[16.48,69.64],[16.58,69.45],[15.55,69.43],[15.09,69.32],[15.2,69.14],[13.75,69.0],[13.88,68.81],[13.45,68.7],[13.58,68.52],[13.16,68.41],[13.29,68.23],[11.93,68.08],[12.07,67.9],[11.42,67.5],[12.08,67.26],[12.73,67.65],[13.26,67.58],[13.38,67.4],[12.98,67.29],[13.11,67.12],[11.83,66.97],[11.96,66.8],[11.59,66.69],[11.72,66.52],[11.35,66.41],[11.48,66.24],[10.9,65.85],[11.64,65.45],[10.48,65.3],[10.61,65.14],[10.28,65.03],[10.41,64.87],[9.6,64.53],[9.88,64.36],[9.77,64.2],[8.66,64.35],[8.54,64.18],[8.13,64.17],[8.02,64.0],[8.32,63.83],[8.2,63.66],[7.8,63.65],[6.16,62.91],[5.76,62.89],[5.66,62.71],[5.26,62.69],[5.16,62.51],[4.76,62.49],[4.67,62.31],[4.97,62.14],[4.87,61.96],[4.48,61.94],[4.39,61.75],[4.69,61.59],[4.11,61.2],[4.41,61.04],[4.32,60.85],[4.62,60.69],[4.53,60.5],[5.02,59.98],[4.46,59.58],[4.94,59.06],[4.85,58.86],[5.13,58.7],[5.05,58.51],[6.31,58.23],[6.58,58.06],[6.49,57.87],[7.45,57.72],[7.36,57.53],[6.31,57.48],[5.78,57.06],[4.53,57.33],[3.74,57.07],[3.1,57.19],[3.02,56.99],[2.66,56.95],[2.02,57.08],[1.94,56.87],[1.58,56.83],[0.93,56.95],[0.86,56.74],[0.5,56.7],[-0.16,56.81],[-0.65,56.35],[-1.67,56.4],[-1.73,56.19],[-2.09,56.13],[-2.4,56.29],[-2.34,56.5],[-1.55,56.81],[-1.49,57.02],[-1.8,57.18],[-1.74,57.38],[-1.37,57.43],[-1.3,57.64],[-3.0,58.0],[-2.5,58.46],[-2.82,58.61],[-2.76,58.81],[-1.49,59.37],[-1.42,59.57],[-1.03,59.61],[-0.97,59.81],[-0.58,59.85],[-0.51,60.05],[-0.83,60.2],[-0.76,60.4],[-0.37,60.44],[-0.3,60.64],[-0.62,60.79],[-0.55,60.99],[-1.28,61.1],[-1.35,60.9],[-2.67,60.37],[-2.74,60.17],[-1.68,59.92],[-2.2,59.47],[-2.92,59.57],[-3.75,59.26],[-4.48,59.36],[-4.53,59.15],[-3.48,58.91],[-3.53,58.71],[-4.97,58.89],[-5.79,58.56],[-6.51,58.64],[-6.56,58.43],[-6.94,58.37],[-7.67,58.44],[-7.71,58.23],[-7.36,58.09],[-7.4,57.88],[-7.78,57.81],[-7.82,57.6],[-7.48,57.46],[-7.52,57.25],[-7.89,57.17],[-8.34,56.67],[-7.3,56.46],[-7.33,56.25],[-6.72,55.74],[-6.76,55.52],[-8.5,55.59],[-8.54,55.37],[-9.29,54.99],[-9.32,54.77],[-8.99,54.63],[-9.02,54.41],[-10.75,54.44],[-10.77,54.21],[-10.44,54.08],[-10.84,53.54],[-10.21,53.03],[-10.24,52.81],[-10.95,52.4],[-10.97,52.17],[-10.65,52.03],[-10.67,51.8],[-10.07,51.29],[-8.77,51.18],[-8.07,51.58],[-8.03,51.81],[-7.39,51.74],[-7.05,51.82],[-7.01,52.05],[-6.37,51.98],[-5.65,52.35],[-5.35,52.2],[-5.39,51.98],[-5.73,51.9],[-5.52,51.3],[-6.22,50.92],[-6.01,50.31],[-6.7,49.92],[-6.74,49.69],[-6.2,49.16],[-6.24,48.93],[-6.56,48.84],[-6.59,48.61],[-6.31,48.46],[-6.35,48.23],[-6.67,48.14],[-6.45,47.52],[-7.46,46.79],[-7.5,46.55],[-7.22,46.4],[-7.59,45.83],[-7.07,45.29],[-7.1,45.05],[-6.59,44.52],[-6.63,44.27],[-4.68,43.93],[-4.72,43.69],[-5.01,43.61],[-8.1,44.05],[-8.73,43.61],[-9.0,43.76],[-9.3,43.66],[-9.33,43.42],[-9.63,43.32],[-9.65,43.07],[-8.88,42.14],[-9.22,41.55],[-8.72,41.01],[-8.74,40.77],[-9.34,40.31],[-9.13,39.67],[-9.96,39.61],[-9.98,39.36],[-9.72,39.21],[-9.74,38.97],[-9.01,38.04],[-9.33,37.43],[-8.85,36.9],[-8.05,36.97],[-6.77,36.74],[-6.8,36.49],[-6.15,35.56],[-6.18,35.32],[-6.74,34.86],[-7.35,33.91],[-7.61,33.81],[-7.85,33.95],[-8.4,33.48],[-8.64,33.62],[-8.9,33.51],[-8.93,33.26],[-10.03,32.07],[-10.05,31.82],[-9.81,31.68],[-9.83,31.43],[-10.08,31.32],[-10.1,31.07],[-9.87,30.93],[-9.89,30.68],[-10.14,30.57],[-9.94,29.94],[-10.19,29.82],[-10.48,29.21],[-11.21,29.11],[-11.49,28.49],[-12.22,28.38],[-12.46,28.51],[-12.97,28.02],[-13.21,28.14],[-13.45,28.02],[-13.46,27.77],[-13.71,27.65],[-13.49,27.02],[-14.21,26.9],[-14.22,26.65],[-15.2,25.4],[-15.2,25.15],[-14.97,25.03],[-13.99,26.28],[-13.98,26.52],[-13.74,26.65],[-13.5,26.52],[-13.01,27.02],[-13.22,27.64],[-12.98,27.77],[-12.74,27.64],[-12.24,28.13],[-12.0,28.0],[-11.27,28.11],[-10.99,28.73],[-10.26,28.83],[-10.25,29.08],[-9.18,30.28],[-9.16,30.53],[-8.91,30.64],[-8.68,30.5],[-9.25,29.53],[-8.54,29.38],[-8.29,29.49],[-8.26,29.74],[-8.01,29.85],[-7.79,29.71],[-7.26,30.17],[-7.04,30.04],[-6.51,30.5],[-6.28,30.36],[-6.03,30.46],[-6.0,30.71],[-5.28,30.78],[-4.96,31.37],[-4.42,31.81],[-3.73,31.63],[-3.48,31.72],[-3.45,31.97],[-3.19,32.06],[-2.98,31.92],[-2.44,32.35],[-2.05,31.82],[-1.8,31.91],[-1.76,32.15],[-1.51,32.25],[-1.3,32.1],[-0.76,32.52],[-0.55,32.37],[-0.3,32.46],[-0.26,32.7],[-0.0,32.78],[0.2,32.63],[0.46,32.72],[0.51,32.95],[0.76,33.04],[0.97,32.89],[1.54,33.3],[2.22,33.07],[2.48,33.15],[2.54,33.39],[3.28,33.4],[3.33,33.64],[3.6,33.72],[3.81,33.56],[4.08,33.64],[4.14,33.88],[4.41,33.96],[4.62,33.8],[4.89,33.88],[5.25,33.31],[5.53,33.39],[5.74,33.23],[6.35,33.62],[7.05,33.36],[7.68,33.76],[8.38,33.49],[9.02,33.88],[8.96,34.53],[9.24,34.6],[9.45,34.43],[9.38,34.19],[10.09,33.91],[10.01,33.67],[10.22,33.49],[11.0,33.45],[11.34,32.86],[12.12,32.81],[12.82,32.51],[13.49,32.88],[14.69,32.44],[14.98,32.5],[15.18,32.31],[15.2,31.64],[15.4,31.45],[15.7,31.51],[15.57,32.61],[15.36,32.8],[15.07,32.74],[13.37,33.3],[12.7,32.93],[11.5,33.34],[11.45,34.01],[10.74,34.29],[10.82,34.54],[11.62,34.49],[11.7,34.74],[11.23,35.75],[11.31,35.99],[11.1,36.17],[11.56,36.72],[11.21,37.3],[10.91,37.23],[10.69,37.41],[10.39,37.34],[9.14,37.7],[8.11,37.0],[6.37,37.42],[5.73,37.02],[4.0,37.4],[3.72,37.32],[3.66,37.08],[2.89,37.06],[2.83,36.82],[2.56,36.73],[1.36,37.01],[1.09,36.92],[1.04,36.68],[0.29,36.65],[-0.07,36.09],[-0.33,36.0],[-0.55,36.16],[-1.12,35.74],[-1.33,35.9],[-1.6,35.81],[-1.64,35.57],[-2.2,35.15],[-2.91,35.35],[-2.87,35.6],[-3.09,35.75],[-3.66,35.32],[-4.88,35.57],[-5.04,36.2],[-4.77,36.3],[-4.54,36.15],[-3.97,36.59],[-2.26,36.26],[-1.68,36.68],[-1.46,36.53],[-1.2,36.61],[-1.15,36.85],[-0.4,36.87],[-0.04,37.43],[0.44,37.36],[1.03,37.78],[1.25,37.64],[1.52,37.72],[2.24,38.61],[3.02,38.64],[3.42,39.2],[4.22,39.22],[4.44,39.07],[4.73,39.15],[4.79,39.39],[5.6,39.4],[5.67,39.64],[5.96,39.72],[6.19,39.56],[6.48,39.65],[6.55,39.88],[6.85,39.96],[7.07,39.8],[7.37,39.88],[7.45,40.12],[7.75,40.2],[8.12,39.64],[7.67,39.09],[8.42,38.84],[8.34,38.6],[8.56,38.44],[9.24,38.82],[9.31,39.06],[10.14,39.04],[10.08,39.68],[10.39,39.76],[10.75,39.18],[11.58,39.15],[11.81,38.98],[11.72,38.74],[12.46,38.46],[11.98,37.92],[12.33,37.33],[14.19,37.05],[14.41,36.87],[14.32,36.63],[15.04,36.33],[15.35,36.39],[15.33,37.05],[15.63,37.11],[15.73,37.35],[15.52,37.53],[15.61,37.77],[16.45,37.7],[16.96,38.23],[16.75,38.41],[16.85,38.65],[17.58,39.0],[17.58,39.65],[16.83,39.96],[16.93,40.19],[17.79,40.12],[18.11,39.52],[18.86,39.85],[19.07,39.67],[19.4,39.72],[19.61,39.53],[19.5,39.3],[20.24,38.97],[20.13,38.73],[20.34,38.54],[19.8,38.02],[20.53,37.69],[20.42,37.45],[20.63,37.26],[20.94,37.31],[21.24,36.68],[22.07,36.57],[22.35,35.95],[23.18,35.83],[23.37,35.63],[23.34,34.96],[24.04,34.6],[24.77,34.9],[24.96,34.7],[25.77,34.57],[26.75,35.33],[27.55,35.18],[27.62,35.85],[28.42,35.69],[28.49,36.36],[30.29,35.83],[30.86,36.3],[30.68,36.51],[30.81,36.73],[31.12,36.75],[31.3,36.54],[32.1,36.36],[32.32,35.72],[33.07,35.97],[33.24,35.76],[33.11,35.54],[32.36,35.29],[31.79,34.82],[31.96,34.61],[33.21,34.23],[33.35,34.46],[34.09,34.7],[34.19,35.36],[34.5,35.37],[35.08,35.82],[34.91,36.03],[34.6,36.02],[34.02,35.57],[33.72,35.56],[33.55,35.77],[33.68,35.99],[34.88,36.46],[35.52,36.04],[35.38,35.83],[35.54,35.61],[35.41,35.39],[35.62,34.31],[35.48,34.09],[35.18,34.08],[35.05,33.86],[35.21,33.65],[34.64,33.19],[34.83,32.54],[34.7,32.32],[34.41,32.31],[34.3,31.65],[33.59,31.39],[33.42,31.6],[33.13,31.59],[33.0,31.36],[32.71,31.35],[31.61,31.94],[30.89,31.67],[30.72,31.88],[30.42,31.86],[29.46,31.12],[28.21,31.46],[28.09,31.23],[28.27,31.02],[29.51,30.68],[30.47,31.42],[30.77,31.44],[30.94,31.23],[31.65,31.5],[33.2,30.71],[33.49,30.73],[33.62,30.95],[33.91,30.97],[34.07,30.75],[34.79,31.01],[35.39,30.59],[36.1,30.84],[36.69,30.42],[37.4,30.65],[37.98,30.23],[38.26,30.24],[38.4,30.46],[38.68,30.46],[38.83,30.24],[39.52,30.47],[40.09,30.04],[40.78,30.26],[41.33,29.83],[42.02,30.04],[42.56,29.6],[43.24,29.81],[43.76,29.37],[44.44,29.57],[45.33,28.91],[46.0,29.1],[46.49,28.66],[47.14,28.84],[47.26,28.63],[48.6,27.95],[48.68,27.32],[49.98,26.65],[50.01,25.62],[50.38,25.81],[50.72,25.59],[50.65,24.79],[51.02,24.97],[51.09,25.77],[50.66,26.2],[50.69,26.61],[50.01,27.05],[50.18,27.66],[50.08,27.87],[49.45,27.7],[48.99,28.13],[48.74,28.15],[48.66,28.77],[48.41,28.78],[48.3,29.0],[48.84,29.38],[48.72,29.59],[48.87,29.79],[49.26,29.97],[49.87,29.73],[49.94,29.11],[50.91,28.58],[50.96,27.99],[51.67,27.47],[52.34,27.54],[53.83,26.28],[54.67,26.49],[55.27,26.17],[55.69,26.27],[55.77,26.06],[55.61,25.9],[55.94,25.63],[56.54,25.89],[56.54,26.47],[57.14,26.73],[57.15,27.32],[56.02,27.18],[54.58,26.7],[54.23,26.97],[53.56,26.91],[52.5,27.7],[52.47,28.29],[51.85,28.6],[51.75,28.82],[51.91,28.98],[52.63,28.46],[53.32,28.52],[53.34,27.93],[54.03,27.99],[54.38,27.72],[54.62,28.26],[55.06,28.37],[55.67,28.05],[56.11,28.15],[56.46,27.88],[57.33,28.08],[57.61,28.63],[58.22,28.29],[58.67,28.38],[58.85,28.55],[58.77,28.77],[58.51,28.83],[58.43,29.05],[58.72,29.6],[59.34,29.25],[59.79,29.35],[59.87,29.13],[60.14,29.06],[60.1,28.45],[59.46,28.2],[59.54,27.97],[60.26,28.0],[60.33,27.78]],[[28.83,43.25],[29.03,43.05],[29.9,42.89],[30.15,42.27],[30.48,42.28],[30.67,42.08],[31.48,42.33],[32.18,41.93],[31.1,41.26],[30.26,41.43],[30.12,41.21],[29.79,41.2],[29.07,41.58],[28.74,41.56],[28.54,41.76],[28.68,41.98],[27.95,42.35],[28.08,42.57],[27.88,42.77],[28.02,42.99],[28.83,43.25]],[[85.0,47.06],[85.33,47.18],[85.34,47.43],[85.67,47.55],[85.98,47.42],[85.97,47.16],[85.3,46.67],[84.99,46.81],[85.0,47.06]],[[33.97,42.18],[34.6,42.61],[34.93,42.61],[35.1,42.4],[34.48,41.98],[34.15,41.98],[33.97,42.18]],[[14.3,43.8],[15.19,43.75],[15.42,43.58],[15.44,42.95],[15.67,42.78],[16.0,42.83],[16.22,42.66],[16.12,42.43],[15.79,42.37],[15.57,42.54],[14.81,42.19],[14.46,42.77],[14.56,43.0],[14.33,43.17],[14.43,43.4],[14.2,43.57],[14.3,43.8]],[[80.29,44.37],[79.35,44.48],[79.0,45.11],[79.31,45.25],[80.26,45.14],[80.87,45.67],[81.81,45.55],[81.82,45.3],[80.88,45.16],[81.21,44.52],[80.29,44.37]],[[71.93,42.31],[71.98,42.06],[71.7,41.9],[70.79,41.93],[70.74,42.19],[71.01,42.35],[71.93,42.31]],[[9.41,58.79],[10.8,58.69],[10.69,58.5],[11.16,58.06],[10.65,57.8],[9.0,58.03],[9.6,58.48],[9.31,58.6],[9.41,58.79]],[[7.87,61.22],[6.25,61.68],[6.35,61.86],[7.24,62.08],[7.34,62.25],[7.05,62.42],[7.16,62.6],[8.23,62.46],[8.34,62.64],[9.78,63.07],[10.3,62.69],[10.74,62.75],[12.43,63.45],[13.2,63.4],[13.7,63.0],[12.56,62.54],[12.43,62.37],[12.74,62.26],[12.61,62.08],[11.44,62.07],[11.13,62.18],[11.25,62.36],[10.5,62.4],[10.38,62.23],[10.89,61.83],[10.77,61.65],[9.62,61.63],[9.5,61.45],[9.81,61.34],[9.7,61.16],[8.56,61.13],[8.46,60.95],[8.96,60.54],[8.45,60.29],[8.34,60.1],[8.64,59.99],[8.54,59.81],[7.84,59.84],[6.97,59.56],[6.52,60.08],[7.09,60.47],[6.81,60.64],[6.91,60.82],[7.29,60.84],[7.87,61.22]],[[67.41,34.07],[67.64,34.23],[67.93,34.14],[67.98,33.9],[67.58,33.34],[67.3,33.43],[67.24,33.67],[67.47,33.83],[67.41,34.07]],[[19.08,40.97],[19.3,40.79],[19.19,40.55],[17.78,40.77],[17.45,41.36],[16.58,41.43],[16.24,42.02],[16.78,42.54],[17.11,42.59],[18.43,42.16],[18.76,42.21],[18.98,42.03],[18.87,41.8],[19.09,41.62],[19.08,40.97]],[[-6.01,53.99],[-5.66,54.06],[-5.62,54.28],[-4.95,54.2],[-5.0,53.98],[-5.35,53.91],[-5.13,53.32],[-5.78,53.4],[-6.01,53.99]],[[73.13,42.43],[75.21,42.72],[75.53,42.62],[75.56,42.36],[72.89,42.02],[72.57,42.12],[72.53,42.37],[72.81,42.53],[73.13,42.43]],[[39.33,64.19],[39.1,63.98],[38.61,63.95],[38.34,64.13],[38.57,64.34],[39.07,64.37],[39.33,64.19]],[[36.54,63.21],[36.27,63.39],[36.47,63.6],[36.95,63.64],[37.96,63.31],[37.75,63.1],[36.54,63.21]],[[13.52,38.24],[13.3,38.42],[13.39,38.66],[13.7,38.72],[14.44,38.43],[14.35,38.19],[13.52,38.24]],[[39.79,42.13],[39.94,42.33],[40.26,42.32],[40.42,42.1],[41.21,42.27],[41.36,42.06],[41.21,41.46],[40.43,41.28],[40.27,41.08],[39.49,41.31],[39.33,41.11],[39.02,41.12],[38.86,41.33],[38.07,41.14],[36.43,41.99],[35.64,41.78],[35.43,42.4],[35.58,42.61],[35.91,42.61],[36.08,42.4],[36.41,42.4],[36.56,42.61],[37.36,42.8],[38.03,42.38],[38.82,42.57],[38.99,42.36],[39.79,42.13]],[[77.61,43.12],[77.9,43.27],[78.21,43.15],[78.23,42.9],[77.94,42.75],[76.42,42.8],[76.39,43.06],[76.68,43.2],[77.61,43.12]],[[25.24,35.84],[25.99,36.14],[26.18,35.94],[26.06,35.7],[25.32,35.41],[24.62,35.77],[23.8,35.9],[23.52,36.53],[23.64,36.77],[23.95,36.8],[24.15,36.61],[24.97,36.48],[25.24,35.84]],[[38.48,65.11],[36.61,65.56],[35.39,65.27],[35.1,65.44],[36.02,65.9],[35.72,66.07],[35.94,66.28],[37.28,66.19],[38.38,65.88],[39.67,66.16],[39.95,65.98],[39.71,65.77],[39.18,65.74],[38.94,65.53],[39.22,65.36],[38.99,65.15],[38.48,65.11]],[[68.52,35.11],[68.46,35.35],[68.7,35.51],[68.99,35.43],[69.04,35.18],[68.81,35.02],[68.52,35.11]],[[15.04,39.2],[15.26,39.02],[15.16,38.79],[14.85,38.73],[14.63,38.9],[14.73,39.14],[15.04,39.2]],[[45.93,68.31],[45.6,68.12],[45.87,67.93],[45.55,67.73],[44.97,67.72],[44.7,67.9],[45.01,68.1],[44.73,68.29],[45.05,68.48],[45.65,68.5],[45.93,68.31]],[[66.07,35.12],[67.41,35.2],[67.47,34.96],[68.28,34.95],[68.68,34.38],[68.45,34.22],[67.81,34.63],[67.58,34.47],[66.26,34.4],[65.84,34.96],[66.07,35.12]],[[15.43,68.76],[15.88,68.87],[16.43,68.78],[16.53,68.59],[15.54,68.58],[15.43,68.76]],[[25.86,39.84],[26.06,39.64],[25.93,39.41],[25.61,39.38],[25.41,39.58],[25.53,39.81],[25.86,39.84]],[[25.0,39.97],[24.88,39.75],[24.56,39.71],[24.35,39.91],[24.48,40.14],[24.8,40.17],[25.0,39.97]],[[36.75,64.8],[36.96,65.01],[37.46,65.04],[37.74,64.87],[37.52,64.66],[37.03,64.62],[36.75,64.8]],[[43.75,66.53],[43.19,66.51],[42.92,66.7],[43.21,66.9],[43.77,66.92],[44.04,66.73],[43.75,66.53]],[[47.25,67.38],[47.5,67.19],[47.18,66.99],[46.6,66.98],[45.51,67.35],[46.73,67.75],[47.32,67.76],[47.57,67.57],[47.25,67.38]],[[24.51,39.06],[24.63,39.29],[24.96,39.32],[25.68,38.96],[25.56,38.73],[25.23,38.7],[24.51,39.06]],[[24.67,38.2],[24.79,38.43],[25.11,38.47],[26.34,37.93],[26.22,37.7],[25.9,37.67],[24.67,38.2]],[[44.09,67.5],[44.66,67.52],[44.93,67.34],[44.63,67.14],[44.06,67.12],[43.79,67.3],[44.09,67.5]]],[[[20.11,30.91],[19.91,31.11],[19.62,31.06],[19.52,30.82],[19.71,30.63],[20.0,30.67],[20.11,30.91]]],[[[57.19,24.19],[56.86,24.46],[56.45,24.37],[57.43,23.56],[57.6,23.71],[57.52,23.92],[57.19,24.19]]],[[[-13.44,64.76],[-13.32,64.98],[-13.66,65.12],[-14.13,65.05],[-14.82,64.52],[-16.08,64.5],[-16.73,63.96],[-17.98,63.92],[-18.07,63.69],[-18.51,63.6],[-20.13,63.67],[-20.5,63.79],[-20.44,64.02],[-21.66,64.18],[-21.61,64.41],[-22.01,64.53],[-22.46,64.43],[-22.51,64.2],[-22.95,64.09],[-23.0,63.86],[-21.33,63.82],[-20.63,63.34],[-19.39,63.41],[-18.23,63.24],[-17.8,63.33],[-17.71,63.56],[-16.48,63.6],[-15.84,64.14],[-14.59,64.16],[-13.9,64.68],[-13.44,64.76]]],[[[65.17,25.05],[66.27,25.34],[66.82,24.97],[67.18,24.45],[67.62,24.52],[66.97,25.33],[66.41,25.71],[64.61,25.41],[64.42,25.27],[64.48,25.05],[65.17,25.05]]],[[[-7.06,61.5],[-7.1,61.3],[-6.33,61.22],[-6.28,61.42],[-6.65,61.56],[-6.6,61.76],[-5.72,62.07],[-5.67,62.26],[-6.37,62.74],[-7.26,62.43],[-7.76,61.97],[-7.06,61.5]]],[[[-28.38,38.95],[-28.68,39.05],[-28.95,38.9],[-28.91,38.65],[-29.17,38.49],[-29.13,38.24],[-28.83,38.14],[-28.0,38.35],[-27.14,38.29],[-26.64,38.85],[-26.67,39.1],[-27.55,39.16],[-27.58,39.41],[-27.89,39.52],[-28.38,38.95]]],[[[115.67,-31.33],[115.26,-31.46],[115.64,-31.67],[115.78,-31.51],[115.67,-31.33]]],[[[58.82,25.35],[59.5,25.38],[59.83,25.1],[60.44,25.34],[61.02,24.99],[61.2,25.14],[60.55,25.71],[59.93,25.47],[59.35,25.81],[58.92,25.72],[58.74,25.57],[58.82,25.35]]],[[[20.73,32.36],[21.84,32.97],[22.53,32.62],[22.83,32.66],[23.1,32.02],[23.4,32.06],[24.08,31.69],[24.79,32.0],[25.05,31.36],[25.35,31.39],[25.46,31.63],[25.21,32.27],[24.42,32.41],[24.23,32.61],[23.51,32.3],[23.24,32.93],[22.94,32.9],[21.75,33.41],[21.45,33.37],[21.34,33.13],[19.83,32.23],[19.73,31.98],[19.92,31.79],[20.62,32.12],[20.73,32.36]]],[[[-14.92,27.77],[-14.68,27.65],[-13.95,27.77],[-13.69,28.4],[-13.18,28.89],[-13.4,29.52],[-13.65,29.65],[-13.9,29.53],[-13.9,29.28],[-14.92,28.02],[-15.16,28.15],[-15.16,28.4],[-15.9,28.52],[-15.9,28.77],[-16.14,28.9],[-16.39,28.77],[-16.64,28.89],[-17.14,28.38],[-17.9,29.25],[-18.39,28.73],[-18.38,28.47],[-18.13,28.35],[-18.37,27.72],[-17.86,27.22],[-17.62,27.36],[-17.62,27.61],[-17.87,27.73],[-17.88,27.98],[-17.63,28.11],[-17.13,27.62],[-16.39,27.76],[-16.39,28.01],[-16.15,28.14],[-15.66,27.64],[-14.92,27.77]]],[[[48.43,68.72],[48.69,68.53],[50.28,68.72],[50.65,68.91],[50.4,69.1],[50.78,69.29],[49.62,69.67],[47.98,69.47],[47.62,69.28],[47.9,69.1],[47.54,68.91],[47.81,68.72],[48.43,68.72]],[[49.51,69.29],[49.77,69.1],[49.4,68.91],[48.78,68.91],[48.52,69.1],[49.51,69.29]]],[[[114.78,-33.47],[114.58,-33.98],[114.97,-34.2],[115.13,-34.04],[115.01,-33.85],[115.59,-33.56],[115.47,-33.37],[114.78,-33.47]]],[[[-14.59,65.78],[-14.71,65.56],[-14.35,65.41],[-13.88,65.49],[-13.75,65.71],[-14.59,65.78]]],[[[71.55,67.39],[71.64,67.17],[71.15,67.03],[71.24,66.81],[70.19,66.75],[69.72,66.6],[69.82,66.38],[70.85,66.44],[72.05,66.05],[72.52,66.19],[72.45,66.41],[71.89,66.5],[71.81,66.72],[72.7,67.22],[72.62,67.44],[71.55,67.39]]],[[[91.62,54.39],[90.82,53.95],[90.77,53.71],[89.98,53.27],[89.95,53.02],[90.28,52.87],[91.06,53.31],[91.38,53.16],[93.14,53.12],[93.19,53.37],[92.61,53.92],[92.66,54.17],[91.62,54.39]]],[[[31.98,68.57],[31.63,68.72],[31.09,68.66],[30.9,68.45],[31.78,68.36],[31.98,68.57]]],[[[18.05,31.26],[17.75,31.21],[16.57,31.67],[16.28,31.62],[16.19,31.38],[17.86,30.77],[18.15,30.82],[18.24,31.06],[18.05,31.26]]],[[[-31.71,39.75],[-31.3,39.16],[-30.99,39.07],[-30.73,39.22],[-31.14,39.82],[-31.45,39.91],[-31.71,39.75]]],[[[104.94,52.05],[104.59,51.99],[104.49,51.77],[104.73,51.59],[105.07,51.64],[105.18,51.87],[104.94,52.05]]],[[[-25.24,36.63],[-24.95,36.52],[-24.69,36.67],[-25.03,37.29],[-24.77,37.44],[-24.79,37.69],[-25.41,38.17],[-26.24,37.98],[-26.21,37.72],[-25.27,36.89],[-25.24,36.63]]],[[[63.21,25.4],[61.45,25.08],[61.77,24.79],[63.97,25.19],[64.16,25.34],[64.1,25.56],[63.85,25.63],[63.21,25.4]]],[[[11.94,37.02],[11.86,36.78],[12.07,36.61],[12.37,36.67],[12.46,36.91],[12.25,37.09],[11.94,37.02]]],[[[61.13,68.7],[60.95,68.91],[60.32,68.95],[58.8,68.65],[58.99,68.44],[59.61,68.41],[61.13,68.7]]],[[[-16.91,32.32],[-16.65,32.19],[-16.39,32.32],[-15.87,33.34],[-16.13,33.47],[-16.39,33.34],[-16.39,33.09],[-16.65,32.96],[-17.44,33.08],[-17.7,32.95],[-17.7,32.69],[-16.91,32.58],[-16.91,32.32]]],[[[-8.13,57.95],[-8.09,58.16],[-8.44,58.3],[-8.82,58.23],[-9.27,57.73],[-8.92,57.6],[-8.13,57.95]]],[[[26.36,31.73],[26.18,31.93],[25.88,31.9],[25.76,31.66],[25.94,31.46],[27.2,31.14],[27.32,31.38],[27.14,31.58],[26.36,31.73]]],[[[28.67,68.94],[28.7,69.13],[29.24,69.2],[29.28,69.39],[28.21,69.45],[28.19,69.26],[27.11,68.92],[27.1,68.72],[27.61,68.6],[28.67,68.94]]],[[[54.85,26.06],[54.59,26.12],[54.43,25.96],[54.52,25.75],[54.93,25.85],[54.85,26.06]]],[[[106.22,52.01],[106.57,52.06],[106.68,52.28],[106.45,52.46],[106.1,52.42],[105.53,51.92],[105.77,51.74],[106.11,51.79],[106.22,52.01]]],[[[115.19,-32.13],[115.69,-32.52],[115.5,-33.02],[115.89,-33.23],[116.13,-32.05],[115.75,-31.85],[115.19,-32.13]]],[[[18.38,-34.03],[18.66,-34.03],[18.77,-33.83],[18.61,-33.64],[18.33,-33.65],[18.21,-33.84],[18.38,-34.03]]],[[[12.75,35.42],[13.23,35.96],[13.02,36.14],[12.33,35.77],[12.25,35.53],[12.46,35.35],[12.75,35.42]]],[[[51.37,26.16],[51.25,24.96],[51.58,24.74],[51.85,26.1],[51.5,26.36],[51.37,26.16]]],[[[54.48,24.24],[54.64,24.39],[54.55,24.6],[54.3,24.66],[54.14,24.5],[54.48,24.24]]],[[[57.05,26.36],[56.88,26.2],[56.96,25.99],[57.63,25.44],[58.49,25.63],[58.15,25.9],[57.72,25.81],[57.05,26.36]]],[[[85.06,28.27],[84.83,28.37],[84.59,28.26],[84.58,28.03],[85.05,28.04],[85.06,28.27]]],[[[14.25,35.73],[14.56,35.79],[14.65,36.03],[14.44,36.21],[14.13,36.15],[14.04,35.91],[14.25,35.73]]],[[[-5.99,59.32],[-6.38,59.26],[-6.43,59.06],[-5.69,58.97],[-5.65,59.18],[-5.99,59.32]]],[[[103.85,52.52],[103.74,52.29],[103.99,52.12],[104.35,52.17],[104.45,52.4],[104.2,52.57],[103.85,52.52]]],[[[55.45,25.17],[55.61,25.32],[55.53,25.53],[55.27,25.59],[55.11,25.43],[55.45,25.17]]],[[[58.18,68.68],[57.98,68.89],[57.35,68.92],[55.88,68.6],[56.09,68.39],[56.71,68.37],[58.18,68.68]]],[[[14.23,64.56],[14.25,64.77],[13.57,64.78],[13.54,64.57],[13.87,64.46],[14.23,64.56]]],[[[56.2,25.0],[56.53,24.73],[56.7,24.88],[56.62,25.09],[56.2,25.0]]],[[[54.96,24.7],[55.12,24.86],[55.03,25.07],[54.78,25.12],[54.62,24.96],[54.96,24.7]]]]}}]}