{"type":"FeatureCollection","features":[{"type":"Feature","properties":{},"geometry":{"type":"MultiPolygon","coordinates":[[[[-41.45,-2.6],[-41.6,-3.02],[-40.28,-2.79],[-39.31,-3.14],[-38.41,-4.42],[-37.73,-4.43],[-37.39,-5.02],[-36.43,-5.37],[-35.8,-5.13],[-35.27,-5.55],[-34.81,-8.06],[-35.11,-8.9],[-37.07,-10.56],[-37.18,-11.22],[-37.82,-11.47],[-38.08,-12.54],[-38.73,-12.79],[-37.99,-13.04],[-36.79,-10.89],[-34.82,-9.23],[-34.37,-7.98],[-34.83,-5.47],[-35.65,-4.71],[-36.28,-4.95],[-37.24,-4.61],[-39.16,-2.73],[-40.13,-2.37],[-41.45,-2.6]]],[[[180.0,-83.82],[171.74,-83.46],[170.86,-83.26],[172.0,-83.07],[171.17,-82.87],[164.29,-82.39],[163.74,-82.18],[164.88,-82.01],[162.73,-81.77],[162.26,-81.56],[163.35,-81.4],[161.0,-80.94],[162.03,-80.78],[161.63,-80.58],[163.15,-80.05],[161.47,-79.81],[161.13,-79.6],[162.02,-79.45],[161.67,-79.25],[167.68,-78.85],[168.4,-78.68],[167.97,-78.49],[168.67,-78.32],[168.24,-78.13],[168.91,-77.96],[168.49,-77.77],[170.81,-77.44],[166.77,-77.06],[165.67,-77.61],[163.61,-77.26],[163.42,-77.03],[164.11,-76.87],[162.87,-76.35],[164.0,-75.81],[162.85,-75.28],[166.55,-74.56],[165.42,-74.04],[167.93,-73.85],[168.7,-73.3],[169.63,-73.57],[169.14,-73.74],[169.37,-73.96],[170.58,-73.84],[170.34,-73.62],[170.8,-73.45],[169.65,-72.97],[171.22,-72.68],[170.99,-72.47],[171.6,-71.92],[170.74,-71.65],[170.72,-71.05],[169.08,-71.1],[168.1,-70.6],[165.71,-70.33],[164.21,-70.56],[161.84,-70.24],[160.39,-69.37],[156.08,-69.05],[154.39,-68.01],[152.36,-68.49],[148.13,-68.44],[147.23,-67.68],[144.68,-67.45],[145.3,-67.11],[144.9,-66.72],[135.97,-65.97],[134.65,-66.33],[134.02,-65.73],[129.93,-66.07],[128.87,-66.58],[129.25,-66.78],[129.02,-67.01],[127.4,-66.88],[127.03,-66.68],[127.28,-66.45],[125.95,-66.07],[124.18,-66.57],[120.72,-66.42],[119.45,-66.87],[116.88,-66.85],[112.4,-65.6],[110.41,-65.94],[109.84,-66.58],[108.79,-66.73],[107.11,-66.16],[105.44,-66.24],[103.87,-65.63],[103.7,-65.38],[104.13,-65.2],[103.38,-64.89],[100.3,-65.21],[99.52,-65.8],[99.65,-66.05],[98.09,-66.3],[96.79,-65.88],[95.91,-66.45],[92.61,-66.61],[91.4,-66.13],[90.4,-66.67],[87.08,-66.71],[86.52,-66.33],[84.9,-66.19],[84.33,-66.57],[84.86,-66.95],[77.91,-67.97],[78.27,-68.62],[76.83,-69.3],[73.06,-69.53],[71.43,-70.14],[71.62,-70.79],[70.75,-71.09],[71.29,-71.27],[71.11,-71.51],[68.52,-72.14],[67.99,-71.96],[68.21,-71.73],[70.04,-71.15],[68.9,-70.15],[70.58,-69.56],[70.75,-69.32],[70.26,-69.14],[71.22,-68.6],[70.75,-68.43],[70.59,-67.77],[69.1,-67.48],[67.71,-67.83],[64.27,-67.23],[62.86,-67.54],[60.58,-67.02],[59.17,-67.29],[58.25,-67.11],[57.86,-66.49],[56.43,-66.32],[56.1,-65.71],[54.74,-65.94],[53.66,-65.54],[48.11,-66.7],[47.68,-67.3],[46.37,-67.05],[45.86,-67.61],[41.04,-68.25],[40.31,-68.77],[39.23,-68.84],[39.06,-69.44],[38.57,-69.58],[35.67,-69.59],[34.14,-68.7],[32.44,-68.62],[31.98,-68.98],[32.66,-69.32],[31.14,-70.17],[28.66,-69.71],[28.11,-70.06],[28.76,-70.42],[28.15,-70.54],[26.9,-70.05],[25.07,-70.14],[26.91,-70.53],[26.3,-70.88],[21.35,-70.25],[19.97,-70.68],[18.9,-70.13],[17.46,-70.54],[16.04,-69.57],[15.25,-69.88],[15.79,-70.05],[15.66,-70.29],[13.74,-70.25],[12.86,-69.67],[12.01,-69.97],[12.53,-70.14],[12.35,-70.38],[11.65,-70.44],[10.81,-69.84],[7.07,-70.32],[1.38,-69.89],[0.01,-70.35],[0.43,-70.56],[2.67,-70.51],[0.19,-71.22],[-1.78,-71.02],[-2.19,-70.81],[-1.87,-70.15],[-2.99,-69.94],[-4.47,-70.37],[-4.1,-71.02],[-5.28,-71.23],[-5.66,-71.01],[-5.22,-70.36],[-6.32,-70.12],[-6.78,-70.77],[-9.08,-70.71],[-7.64,-71.19],[-8.08,-71.4],[-10.3,-70.88],[-12.31,-71.01],[-13.02,-71.65],[-12.72,-71.89],[-13.24,-72.08],[-12.95,-72.32],[-14.87,-72.67],[-14.58,-72.91],[-15.16,-73.1],[-18.09,-73.37],[-16.68,-73.92],[-18.88,-74.23],[-18.62,-74.48],[-19.3,-74.66],[-19.05,-74.91],[-21.44,-75.2],[-21.21,-75.45],[-26.49,-75.69],[-28.05,-76.26],[-29.04,-76.15],[-29.92,-76.3],[-29.83,-76.56],[-36.7,-77.5],[-35.72,-78.15],[-38.1,-78.9],[-35.84,-79.43],[-35.87,-79.69],[-32.11,-79.81],[-32.04,-80.06],[-33.31,-80.2],[-33.28,-80.45],[-40.04,-80.54],[-45.6,-81.84],[-51.58,-81.63],[-58.14,-82.24],[-63.77,-82.29],[-64.73,-82.07],[-62.08,-81.84],[-61.3,-81.61],[-62.25,-81.4],[-69.55,-80.72],[-72.02,-80.9],[-66.51,-81.63],[-67.42,-81.84],[-66.56,-82.07],[-67.52,-82.28],[-63.66,-82.73],[-64.63,-82.95],[-63.54,-83.16],[-64.57,-83.38],[-57.51,-83.77],[-56.66,-83.54],[-58.03,-83.34],[-55.14,-83.07],[-54.45,-82.83],[-55.74,-82.64],[-52.62,-82.11],[-43.29,-82.66],[-37.56,-81.34],[-31.66,-81.34],[-27.95,-80.39],[-21.29,-80.32],[-20.19,-80.15],[-20.54,-79.9],[-19.51,-79.72],[-19.86,-79.47],[-24.66,-79.66],[-27.47,-79.22],[-27.63,-78.97],[-24.31,-78.74],[-24.54,-78.49],[-23.56,-78.32],[-23.79,-78.07],[-33.5,-78.66],[-34.63,-78.53],[-34.63,-78.28],[-33.55,-78.15],[-32.57,-77.5],[-29.54,-77.33],[-29.64,-77.07],[-28.71,-76.92],[-28.82,-76.67],[-25.0,-76.55],[-23.54,-75.96],[-21.27,-76.37],[-17.65,-76.15],[-16.92,-75.96],[-17.23,-75.71],[-16.53,-75.52],[-16.83,-75.28],[-15.18,-75.14],[-14.23,-74.51],[-11.18,-74.19],[-11.54,-73.95],[-10.98,-73.75],[-11.33,-73.51],[-9.4,-73.13],[-9.75,-72.9],[-8.4,-72.72],[-7.82,-72.07],[-5.79,-72.33],[-5.36,-72.11],[-5.74,-71.89],[-4.52,-71.68],[-4.13,-72.34],[-2.03,-72.56],[0.73,-71.87],[2.81,-72.03],[6.05,-71.25],[7.83,-71.59],[11.8,-71.1],[14.37,-71.32],[15.38,-71.89],[18.81,-71.98],[20.0,-72.53],[22.8,-72.63],[25.62,-72.2],[27.02,-72.95],[31.42,-73.42],[32.67,-72.91],[34.81,-72.98],[35.92,-72.46],[46.86,-71.85],[48.05,-71.73],[48.65,-71.17],[52.89,-70.5],[55.56,-70.5],[58.12,-71.52],[57.88,-72.15],[58.3,-72.35],[56.87,-72.78],[57.37,-73.4],[57.01,-73.61],[57.45,-73.82],[55.88,-74.24],[57.62,-74.65],[57.23,-74.85],[57.71,-75.06],[57.29,-75.26],[59.22,-75.67],[58.8,-75.87],[59.34,-76.07],[67.3,-76.92],[74.17,-76.55],[76.39,-75.94],[76.54,-75.71],[75.79,-75.55],[75.94,-75.31],[77.81,-74.92],[77.93,-74.68],[77.21,-74.52],[77.33,-74.29],[79.06,-73.88],[78.56,-73.24],[80.99,-72.48],[83.3,-71.18],[85.3,-71.09],[87.9,-70.36],[89.86,-70.47],[92.83,-69.52],[99.68,-69.29],[106.12,-68.55],[111.22,-69.09],[114.05,-69.19],[115.55,-68.79],[117.26,-69.04],[122.72,-67.7],[124.39,-67.88],[126.25,-67.37],[127.65,-67.74],[130.2,-67.59],[130.26,-66.93],[133.48,-66.45],[135.9,-66.87],[137.22,-66.5],[143.27,-67.0],[144.12,-67.54],[143.38,-68.12],[143.87,-68.27],[146.13,-67.88],[147.53,-68.78],[150.23,-68.72],[151.28,-69.21],[152.36,-68.73],[153.44,-69.21],[154.46,-68.72],[156.17,-69.52],[157.74,-69.36],[160.0,-69.75],[160.77,-70.3],[160.37,-70.67],[161.07,-70.99],[162.18,-70.93],[162.06,-70.7],[162.55,-70.56],[163.88,-70.94],[165.42,-70.71],[169.48,-71.54],[169.45,-72.14],[170.33,-72.42],[168.35,-72.25],[167.89,-72.41],[168.08,-72.63],[168.96,-72.91],[166.62,-73.12],[165.78,-73.66],[164.53,-73.75],[164.31,-74.36],[162.39,-74.6],[162.07,-75.21],[159.99,-75.43],[162.38,-75.67],[162.54,-75.9],[161.87,-76.05],[162.03,-76.28],[161.34,-76.43],[162.53,-76.96],[161.82,-77.12],[161.99,-77.35],[164.02,-77.71],[164.24,-77.94],[163.49,-78.1],[163.71,-78.32],[164.93,-78.61],[161.12,-78.57],[161.3,-78.79],[160.45,-78.95],[160.62,-79.17],[158.95,-79.71],[159.25,-79.91],[158.27,-80.06],[158.57,-80.27],[157.54,-80.41],[159.56,-80.89],[158.47,-81.04],[158.81,-81.25],[160.7,-81.51],[159.55,-81.67],[159.95,-81.88],[162.04,-82.14],[157.81,-82.4],[168.08,-83.04],[168.84,-83.24],[167.58,-83.43],[168.38,-83.63],[177.06,-84.04],[178.29,-84.23],[177.13,-84.44],[178.45,-84.63],[180.0,-84.62],[180.0,-83.82]],[[-58.48,-82.9],[-61.67,-82.72],[-58.89,-82.47],[-57.71,-82.67],[-58.48,-82.9]]],[[[-180.0,-84.62],[-166.04,-84.94],[-162.19,-85.46],[-154.32,-85.36],[-151.91,-84.99],[-152.0,-84.75],[-156.29,-84.29],[-156.19,-84.05],[-158.09,-83.93],[-157.93,-83.7],[-150.99,-82.48],[-154.1,-81.81],[-155.61,-82.17],[-154.13,-82.51],[-157.51,-82.99],[-162.37,-82.85],[-166.43,-83.26],[-168.76,-82.73],[-173.67,-82.7],[-177.01,-83.17],[-167.92,-83.94],[-168.5,-84.17],[-166.79,-84.33],[-167.36,-84.56],[-171.53,-84.47],[-170.8,-84.24],[-172.37,-84.08],[-177.95,-84.39],[-179.34,-84.21],[-178.35,-84.0],[-179.63,-83.81],[-180.0,-83.82],[-180.0,-84.62]]],[[[-55.91,-80.18],[-54.44,-80.82],[-54.98,-81.06],[-53.9,-81.25],[-49.46,-81.32],[-47.14,-80.75],[-44.42,-80.84],[-41.29,-80.39],[-41.13,-80.14],[-42.32,-79.98],[-40.67,-79.38],[-42.69,-78.81],[-42.52,-78.56],[-44.31,-77.98],[-44.12,-77.73],[-49.06,-77.38],[-50.19,-77.45],[-50.5,-77.7],[-49.64,-77.88],[-49.95,-78.13],[-51.51,-78.44],[-50.62,-78.62],[-50.97,-78.87],[-52.66,-79.17],[-51.72,-79.36],[-52.12,-79.6],[-55.91,-80.18]],[[-44.59,-79.67],[-44.83,-79.92],[-43.69,-80.08],[-43.92,-80.33],[-48.3,-80.58],[-50.91,-80.47],[-50.5,-80.22],[-51.54,-80.04],[-49.75,-79.73],[-49.39,-79.48],[-50.38,-79.3],[-50.03,-79.05],[-47.18,-78.66],[-45.42,-79.25],[-43.06,-79.32],[-44.59,-79.67]]],[[[96.93,5.32],[96.27,5.5],[96.02,5.13],[97.57,4.89],[97.61,5.4],[96.93,5.32]]],[[[123.91,-33.12],[123.6,-33.77],[121.84,-33.99],[121.31,-33.65],[120.23,-33.97],[120.75,-34.31],[121.74,-34.2],[121.92,-34.78],[122.89,-34.27],[123.7,-34.57],[124.52,-33.85],[124.41,-33.05],[123.91,-33.12]]],[[[135.64,33.55],[135.21,34.48],[135.86,34.79],[134.36,34.96],[134.38,33.6],[132.51,33.13],[132.68,33.91],[131.1,34.13],[131.44,34.59],[132.69,34.99],[132.67,35.66],[131.67,34.89],[130.81,34.92],[130.94,34.43],[130.39,34.07],[129.41,34.81],[129.82,35.65],[129.55,36.63],[129.18,36.18],[129.24,35.11],[127.6,34.89],[126.78,34.25],[125.97,34.66],[127.11,35.76],[126.5,36.06],[126.66,36.8],[127.33,37.08],[126.64,38.01],[125.49,37.93],[125.05,38.32],[125.19,38.65],[125.63,38.26],[125.96,38.71],[125.34,38.98],[125.46,39.52],[124.0,40.12],[121.87,39.39],[121.79,39.89],[122.39,40.1],[122.51,40.68],[121.65,41.24],[120.93,41.17],[120.79,40.64],[119.72,39.99],[117.93,40.28],[117.32,40.02],[116.19,40.4],[115.19,38.6],[115.94,38.37],[116.53,38.65],[118.98,37.98],[119.22,36.95],[120.13,37.09],[120.92,37.73],[122.36,37.36],[121.37,36.75],[120.74,36.83],[120.59,36.1],[119.95,36.17],[119.12,35.31],[119.43,34.63],[120.04,34.37],[120.3,33.49],[120.9,33.22],[120.75,32.44],[121.94,31.99],[121.25,31.7],[121.8,31.2],[120.57,30.3],[121.61,30.19],[122.09,29.26],[121.25,28.12],[120.6,28.03],[120.72,27.5],[119.47,26.23],[119.58,25.64],[118.57,24.53],[117.94,24.55],[117.14,23.46],[116.5,23.48],[116.21,22.96],[115.38,23.12],[114.2,22.53],[113.35,22.68],[113.22,21.75],[113.85,21.52],[114.63,22.45],[115.47,22.28],[116.37,22.57],[116.66,23.1],[117.29,23.08],[118.09,24.18],[119.62,24.62],[120.14,25.26],[120.02,25.81],[120.93,26.21],[120.81,26.75],[121.65,26.73],[123.27,27.43],[125.19,29.58],[125.07,30.1],[126.99,31.97],[127.27,33.35],[128.42,34.48],[128.87,34.45],[129.2,33.85],[128.29,32.81],[128.66,32.39],[129.56,32.33],[129.39,31.53],[130.21,31.06],[131.7,31.56],[130.3,31.47],[130.59,32.87],[130.22,33.29],[129.48,33.04],[129.81,33.52],[130.81,33.85],[131.63,33.39],[131.67,32.49],[132.21,32.85],[133.13,32.77],[133.72,33.32],[134.39,33.16],[135.0,33.92],[135.64,33.55]]],[[[119.08,-34.89],[120.01,-34.38],[119.61,-33.84],[119.5,-34.39],[117.4,-35.13],[117.81,-35.34],[119.08,-34.89]]],[[[-70.2,43.83],[-71.22,43.08],[-70.92,41.89],[-71.78,41.37],[-73.17,41.57],[-74.0,41.03],[-74.26,39.77],[-75.56,39.34],[-74.53,39.13],[-73.74,39.66],[-73.76,40.26],[-73.35,40.52],[-69.78,41.24],[-69.84,42.24],[-70.58,42.55],[-69.65,43.69],[-68.77,43.59],[-66.88,44.61],[-66.49,43.21],[-65.63,43.09],[-64.2,43.81],[-64.24,44.21],[-65.55,43.7],[-66.28,44.05],[-63.82,45.26],[-63.86,45.67],[-66.31,45.49],[-68.85,43.99],[-70.2,43.83]],[[-65.91,45.11],[-65.85,44.7],[-66.4,44.86],[-65.91,45.11]]],[[[-120.8,35.28],[-120.64,35.69],[-121.64,36.34],[-121.56,36.98],[-122.2,37.33],[-122.13,37.96],[-123.51,38.86],[-123.66,40.16],[-124.4,40.7],[-123.66,41.0],[-124.58,42.79],[-123.61,44.88],[-124.0,45.13],[-125.1,42.66],[-124.41,41.53],[-124.91,40.57],[-124.17,40.04],[-124.02,38.74],[-123.36,38.41],[-123.43,37.78],[-122.64,37.85],[-122.71,37.21],[-122.06,36.87],[-122.14,36.23],[-121.5,35.87],[-121.58,35.23],[-120.6,34.56],[-120.68,33.91],[-120.06,33.54],[-118.55,33.85],[-118.8,32.78],[-117.86,33.22],[-117.52,32.9],[-117.62,32.24],[-116.95,31.6],[-116.5,31.94],[-117.12,32.34],[-117.01,33.0],[-118.39,34.26],[-120.03,34.43],[-120.8,35.28]]],[[[-180.0,70.79],[-177.63,70.73],[-177.03,71.37],[-179.27,71.87],[-180.0,71.66],[-180.0,70.79]]],[[[180.0,71.66],[178.26,71.46],[177.81,70.81],[180.0,70.79],[180.0,71.66]]],[[[-69.58,-54.4],[-69.53,-54.03],[-70.14,-54.21],[-69.58,-54.4]]],[[[124.73,24.61],[125.84,24.65],[125.68,25.0],[124.81,25.05],[124.3,24.63],[123.25,24.8],[122.71,24.16],[124.19,23.97],[124.73,24.61]]],[[[-66.71,18.45],[-66.14,18.4],[-66.01,18.74],[-66.94,18.74],[-67.08,18.46],[-66.71,18.45]]],[[[-76.25,39.01],[-75.87,39.29],[-76.38,39.39],[-76.25,39.01]]],[[[115.07,-29.62],[115.25,-29.16],[114.82,-28.47],[114.09,-28.39],[114.86,-29.27],[114.6,-30.39],[115.41,-31.31],[115.16,-32.47],[115.65,-32.87],[114.58,-33.98],[116.54,-35.42],[116.99,-34.92],[115.01,-33.85],[116.01,-33.42],[116.16,-31.72],[115.0,-30.27],[115.07,-29.62]]],[[[-125.59,49.72],[-123.54,48.58],[-124.11,48.45],[-125.01,49.11],[-125.89,49.01],[-125.83,49.56],[-126.24,49.78],[-126.94,49.28],[-124.91,48.16],[-125.06,47.79],[-124.08,46.13],[-124.47,45.59],[-124.08,45.34],[-123.53,46.26],[-124.5,47.92],[-123.38,48.18],[-122.57,47.69],[-122.74,47.33],[-122.34,47.08],[-121.93,47.61],[-122.89,49.26],[-124.69,50.2],[-125.51,50.09],[-125.59,49.72]]],[[[-61.48,-72.08],[-60.9,-72.73],[-62.53,-73.2],[-61.95,-73.86],[-62.37,-74.09],[-61.85,-74.3],[-65.12,-75.0],[-64.61,-75.22],[-65.1,-75.44],[-64.59,-75.66],[-71.66,-76.7],[-70.09,-76.95],[-63.5,-76.1],[-63.01,-75.87],[-63.56,-75.65],[-63.09,-75.43],[-60.64,-75.16],[-60.23,-74.93],[-60.92,-74.28],[-59.23,-73.79],[-59.91,-73.14],[-59.55,-72.91],[-60.05,-72.7],[-59.7,-72.47],[-60.19,-72.26],[-59.84,-72.03],[-60.32,-71.82],[-59.98,-71.59],[-60.44,-71.39],[-60.11,-71.15],[-60.56,-70.95],[-60.23,-70.72],[-61.85,-70.32],[-60.78,-70.07],[-60.57,-69.41],[-63.16,-68.82],[-61.85,-68.36],[-63.89,-68.4],[-64.24,-68.19],[-63.92,-67.97],[-64.29,-67.33],[-62.12,-66.63],[-60.5,-66.79],[-60.24,-66.56],[-60.6,-66.36],[-60.43,-65.71],[-61.38,-65.53],[-61.71,-65.33],[-61.45,-65.11],[-58.98,-65.42],[-58.86,-64.77],[-56.54,-64.61],[-56.48,-63.96],[-54.25,-63.12],[-56.38,-62.67],[-60.85,-63.59],[-61.72,-63.42],[-62.02,-63.22],[-61.78,-63.0],[-60.38,-63.15],[-57.19,-61.89],[-60.32,-62.09],[-62.62,-62.82],[-62.78,-63.88],[-64.45,-64.35],[-64.1,-65.4],[-64.39,-65.62],[-65.88,-65.0],[-66.18,-65.22],[-65.89,-65.43],[-67.11,-65.86],[-66.82,-66.07],[-67.14,-66.28],[-69.05,-66.7],[-68.82,-67.34],[-69.18,-67.55],[-67.92,-67.99],[-68.28,-68.21],[-67.97,-68.43],[-66.94,-68.21],[-67.23,-67.57],[-66.24,-67.35],[-65.93,-68.0],[-66.27,-68.21],[-65.93,-68.43],[-66.28,-68.65],[-65.94,-68.86],[-62.72,-69.47],[-63.0,-70.13],[-62.6,-70.34],[-62.94,-70.57],[-62.53,-70.78],[-62.88,-71.01],[-61.23,-71.41],[-62.75,-71.88],[-61.48,-72.08]],[[-65.91,-66.7],[-65.28,-66.7],[-64.98,-66.05],[-63.46,-65.81],[-63.22,-65.16],[-62.31,-65.35],[-62.52,-66.0],[-64.04,-66.25],[-64.32,-66.9],[-65.91,-67.13],[-66.23,-66.92],[-65.91,-66.7]],[[-60.77,-64.01],[-59.88,-64.18],[-60.69,-64.43],[-61.02,-64.24],[-60.77,-64.01]]],[[[-76.26,-78.34],[-75.47,-78.14],[-75.88,-77.9],[-81.33,-77.87],[-79.52,-78.42],[-76.26,-78.34]]],[[[-39.25,-17.43],[-39.36,-18.06],[-38.75,-17.59],[-39.09,-17.02],[-38.58,-16.06],[-38.87,-15.73],[-39.54,-17.1],[-39.25,-17.43]]],[[[55.75,-4.93],[56.08,-4.42],[55.87,-3.71],[55.12,-3.6],[55.6,-4.01],[54.95,-4.24],[54.99,-4.81],[55.75,-4.93]]],[[[71.9,-5.58],[72.58,-5.32],[71.74,-5.21],[71.9,-5.58]]],[[[146.8,-43.91],[147.18,-43.58],[146.0,-43.42],[146.2,-43.83],[146.8,-43.91]]],[[[114.01,55.12],[114.0,55.5],[113.59,55.51],[112.18,54.96],[112.8,54.76],[114.01,55.12]]],[[[13.54,-18.28],[13.97,-18.9],[14.04,-18.26],[13.54,-18.28]]],[[[149.54,-21.81],[149.93,-22.35],[150.87,-22.45],[150.73,-23.43],[151.42,-23.63],[151.77,-24.67],[152.48,-24.87],[153.07,-26.06],[152.75,-26.67],[153.39,-27.62],[153.06,-28.23],[153.48,-29.04],[153.18,-29.39],[153.69,-29.44],[153.98,-29.08],[153.77,-28.68],[154.09,-28.06],[153.65,-27.51],[153.97,-26.9],[153.24,-26.71],[153.72,-24.6],[153.02,-24.41],[152.66,-23.38],[151.77,-22.79],[151.02,-23.09],[151.34,-22.5],[150.79,-21.33],[150.11,-21.14],[149.97,-20.51],[148.52,-19.49],[147.78,-19.77],[149.06,-20.4],[148.74,-20.98],[149.41,-21.18],[149.54,-21.81]]],[[[133.49,36.33],[133.26,36.66],[132.85,36.22],[133.51,35.2],[134.35,35.63],[135.86,35.48],[136.76,36.83],[137.66,36.79],[137.9,37.13],[137.02,38.32],[136.32,37.53],[136.54,36.95],[135.86,35.93],[133.92,35.87],[133.49,36.33]]],[[[163.65,-66.72],[162.15,-66.46],[162.85,-67.01],[163.36,-67.09],[163.65,-66.72]]],[[[168.79,54.43],[168.41,55.0],[166.61,55.22],[166.21,55.77],[165.09,55.24],[165.78,55.12],[166.2,54.57],[168.23,54.18],[168.79,54.43]]],[[[55.3,-20.55],[54.99,-20.86],[55.41,-21.85],[56.04,-21.23],[55.3,-20.55]]],[[[-66.31,-79.42],[-66.97,-79.2],[-66.28,-78.98],[-66.92,-78.76],[-66.26,-78.54],[-66.87,-78.32],[-70.06,-78.5],[-70.79,-78.71],[-70.24,-78.94],[-70.99,-79.15],[-73.13,-79.33],[-67.1,-80.08],[-66.38,-80.31],[-67.17,-80.52],[-66.42,-80.75],[-61.51,-81.17],[-57.01,-80.66],[-57.96,-80.46],[-57.39,-80.22],[-58.29,-80.02],[-57.74,-79.78],[-58.6,-79.58],[-62.18,-79.41],[-62.81,-79.64],[-62.03,-79.85],[-62.69,-80.08],[-64.16,-80.09],[-64.91,-79.87],[-64.22,-79.64],[-66.31,-79.42]]],[[[-63.38,17.76],[-63.29,17.16],[-62.72,17.22],[-62.01,16.45],[-62.12,15.89],[-61.44,15.31],[-61.22,13.84],[-60.76,13.51],[-60.57,14.88],[-61.3,15.67],[-61.01,16.39],[-61.87,16.81],[-61.44,17.87],[-62.2,17.67],[-62.1,17.06],[-62.58,17.57],[-63.15,17.51],[-62.64,17.97],[-62.9,18.41],[-63.38,17.76]]],[[[50.13,-46.51],[50.64,-46.66],[50.4,-45.92],[50.0,-46.14],[50.13,-46.51]]],[[[125.12,-32.54],[124.82,-33.2],[125.43,-32.9],[125.12,-32.54]]],[[[-57.51,-51.75],[-57.68,-51.03],[-58.56,-51.3],[-59.94,-50.88],[-61.55,-51.18],[-61.42,-52.27],[-59.62,-52.69],[-59.32,-53.23],[-57.51,-51.75]],[[-60.24,-51.27],[-59.66,-51.4],[-59.75,-51.96],[-60.34,-51.82],[-60.24,-51.27]]],[[[-156.16,21.0],[-156.64,21.49],[-157.72,21.59],[-157.78,22.25],[-158.68,21.45],[-158.2,20.97],[-157.13,20.87],[-157.07,20.21],[-156.37,20.36],[-156.48,19.49],[-156.06,18.56],[-154.93,18.88],[-154.65,19.96],[-155.13,20.46],[-155.83,20.31],[-156.16,21.0]],[[-156.05,19.67],[-155.46,20.05],[-155.08,19.79],[-155.3,19.15],[-156.05,19.67]]],[[[-170.37,57.02],[-169.78,57.36],[-170.75,57.64],[-171.2,57.09],[-170.37,57.02]]],[[[-39.58,-19.33],[-39.42,-18.94],[-39.87,-19.01],[-40.45,-20.81],[-40.0,-20.74],[-39.58,-19.33]]],[[[94.16,7.46],[93.71,7.49],[93.45,6.86],[93.89,6.83],[94.16,7.46]]],[[[-67.16,-71.26],[-67.53,-71.04],[-67.09,-70.38],[-68.52,-69.94],[-65.95,-69.29],[-67.33,-68.86],[-69.1,-69.06],[-71.06,-68.59],[-73.84,-69.58],[-71.55,-70.31],[-72.13,-70.95],[-73.93,-70.67],[-74.2,-70.44],[-73.75,-70.24],[-74.02,-70.01],[-75.69,-69.71],[-76.16,-69.91],[-75.91,-70.14],[-74.94,-70.41],[-76.63,-70.76],[-76.38,-70.99],[-76.88,-71.18],[-75.6,-71.69],[-76.11,-71.89],[-75.84,-72.12],[-74.75,-72.39],[-72.46,-72.92],[-70.27,-72.75],[-69.91,-72.98],[-70.4,-73.19],[-71.77,-73.38],[-70.52,-73.63],[-67.33,-73.01],[-68.58,-72.78],[-68.96,-72.56],[-68.51,-72.34],[-66.02,-72.36],[-66.42,-72.14],[-66.01,-71.92],[-67.58,-71.47],[-67.16,-71.26]],[[-73.73,-71.99],[-74.53,-71.96],[-74.82,-71.73],[-74.32,-71.53],[-69.42,-70.8],[-68.3,-71.03],[-68.8,-71.68],[-68.44,-71.9],[-68.88,-72.12],[-70.98,-72.3],[-71.32,-72.07],[-70.85,-71.86],[-71.97,-71.61],[-73.73,-71.99]],[[-70.49,-69.04],[-70.29,-69.69],[-69.25,-69.93],[-71.42,-69.88],[-71.59,-69.23],[-70.49,-69.04]]],[[[74.71,9.21],[72.38,9.48],[72.19,10.31],[71.81,9.84],[71.06,10.31],[67.07,10.28],[66.73,9.82],[65.37,9.58],[65.05,8.91],[64.55,8.8],[64.57,7.92],[64.08,7.81],[63.96,6.61],[65.89,4.86],[67.35,4.52],[67.7,4.06],[68.57,4.13],[68.93,3.66],[72.39,3.6],[72.95,1.82],[73.51,1.67],[73.89,2.11],[73.9,3.05],[73.52,3.77],[75.46,4.86],[76.46,6.62],[76.08,7.36],[76.28,7.96],[75.69,8.1],[75.49,8.71],[74.71,9.21]]],[[[58.72,29.6],[58.96,28.93],[59.87,29.13],[59.17,29.71],[58.95,31.01],[58.23,31.59],[57.49,31.54],[58.26,29.5],[58.72,29.6]]],[[[-154.07,-80.89],[-163.38,-81.2],[-165.46,-81.75],[-159.82,-81.82],[-155.46,-81.47],[-154.07,-80.89]]],[[[-74.8,-77.27],[-75.53,-77.47],[-75.12,-77.71],[-73.51,-77.98],[-71.6,-77.81],[-74.8,-77.27]]],[[[176.46,52.28],[176.4,52.69],[175.83,52.47],[176.46,52.28]]],[[[47.1,-17.77],[46.7,-17.65],[46.3,-18.17],[45.57,-18.34],[46.15,-18.64],[46.42,-19.88],[46.11,-20.82],[46.78,-21.51],[46.38,-22.04],[46.96,-22.32],[47.42,-20.93],[47.98,-20.57],[48.4,-18.53],[48.95,-18.18],[48.76,-17.37],[49.35,-16.15],[48.26,-16.19],[47.97,-17.13],[47.33,-17.06],[47.1,-17.77]]],[[[70.93,-6.39],[71.51,-6.82],[71.64,-5.9],[71.22,-5.85],[70.93,-6.39]]],[[[52.54,11.91],[52.58,12.28],[52.09,12.43],[52.06,12.07],[52.54,11.91]]],[[[101.34,2.3],[100.7,2.48],[100.45,2.12],[101.09,1.94],[101.34,2.3]]],[[[145.96,-17.38],[146.73,-19.27],[147.62,-19.38],[147.02,-18.94],[146.44,-17.2],[145.96,-17.38]]],[[[-44.02,-60.82],[-44.33,-60.43],[-45.58,-60.22],[-46.73,-60.85],[-44.58,-61.15],[-44.02,-60.82]]],[[[-45.32,-23.31],[-45.69,-23.83],[-45.39,-24.14],[-44.58,-23.57],[-44.46,-22.96],[-45.32,-23.31]]],[[[-55.43,-60.89],[-56.11,-61.16],[-55.63,-61.75],[-53.41,-61.32],[-53.93,-60.74],[-55.43,-60.89]]],[[[-151.83,-79.48],[-150.54,-80.02],[-151.63,-80.39],[-149.21,-80.34],[-149.32,-80.11],[-148.22,-79.96],[-148.35,-79.74],[-150.83,-79.11],[-154.03,-79.06],[-155.05,-78.73],[-154.01,-78.16],[-157.75,-77.75],[-156.68,-77.19],[-158.47,-77.2],[-159.62,-77.75],[-155.13,-79.41],[-151.83,-79.48]]],[[[-168.9,63.15],[-168.66,63.54],[-170.01,64.08],[-172.72,63.65],[-171.85,63.18],[-170.45,63.28],[-170.5,62.66],[-169.13,62.75],[-168.9,63.15]]],[[[98.3,8.44],[98.24,7.67],[99.33,7.2],[99.16,7.85],[98.3,8.44]]],[[[143.24,65.21],[142.25,64.69],[140.2,64.64],[141.35,63.92],[140.95,63.29],[142.94,62.84],[144.37,62.98],[143.86,63.6],[142.37,63.7],[143.3,64.46],[144.83,64.35],[145.34,63.73],[146.33,63.72],[145.34,64.72],[143.24,65.21]]],[[[141.29,35.64],[140.9,36.62],[141.43,37.3],[140.99,37.8],[140.41,36.41],[139.46,36.0],[139.65,35.4],[138.75,35.46],[138.04,34.68],[137.38,34.84],[136.96,35.55],[136.28,34.54],[136.71,34.07],[137.15,34.5],[138.92,34.39],[139.34,33.9],[139.38,34.6],[140.78,34.96],[140.59,35.57],[141.29,35.64]]],[[[-53.06,5.6],[-52.76,5.04],[-52.33,5.12],[-52.64,5.68],[-53.06,5.6]]],[[[152.07,76.51],[151.95,76.26],[152.81,76.1],[153.97,76.46],[152.07,76.51]]],[[[16.32,-13.53],[16.28,-13.09],[17.0,-12.59],[16.45,-12.2],[15.03,-13.2],[15.78,-13.14],[15.99,-14.21],[16.32,-13.53]]],[[[69.06,-48.62],[68.58,-48.32],[68.63,-48.92],[68.19,-49.22],[68.49,-49.98],[70.73,-49.9],[70.56,-49.52],[71.07,-48.98],[69.06,-48.62]]],[[[120.33,22.48],[120.63,21.79],[121.69,21.84],[121.12,22.22],[121.8,22.52],[121.53,23.44],[122.4,24.85],[121.93,25.85],[121.4,25.22],[120.75,25.13],[119.93,23.95],[119.05,23.62],[119.17,23.02],[119.98,22.95],[120.33,22.48]],[[121.64,24.1],[120.74,22.46],[120.24,23.27],[120.76,23.92],[120.64,24.48],[121.82,25.2],[121.64,24.1]]],[[[152.52,-22.49],[153.0,-22.54],[152.61,-21.76],[152.52,-22.49]]],[[[-29.25,-20.39],[-29.73,-20.26],[-29.4,-20.78],[-28.97,-20.68],[-29.25,-20.39]]],[[[84.81,42.49],[85.44,43.24],[84.56,43.63],[85.48,44.0],[83.36,44.15],[83.05,43.77],[83.95,43.39],[82.74,42.88],[81.25,42.99],[80.95,42.85],[81.26,42.22],[80.39,41.82],[81.27,41.71],[82.74,42.62],[83.92,42.12],[84.22,42.49],[83.94,42.88],[84.24,43.0],[84.81,42.49]]],[[[-65.79,-55.3],[-64.13,-55.25],[-63.33,-54.83],[-64.78,-54.32],[-65.78,-54.54],[-66.97,-54.19],[-66.96,-53.82],[-67.72,-53.46],[-68.32,-53.65],[-66.99,-54.57],[-67.22,-55.14],[-68.23,-54.96],[-68.49,-55.53],[-69.67,-55.15],[-70.31,-55.34],[-67.71,-56.3],[-66.64,-56.09],[-66.63,-55.7],[-65.79,-55.3]]],[[[-25.92,37.62],[-25.24,36.63],[-24.69,36.67],[-25.12,38.06],[-25.98,38.13],[-26.24,37.98],[-25.92,37.62]]],[[[-37.55,-54.41],[-36.14,-55.12],[-35.39,-54.67],[-35.74,-54.1],[-37.13,-53.63],[-38.58,-54.04],[-37.55,-54.41]]],[[[129.82,40.92],[130.25,40.94],[130.15,42.26],[129.56,41.45],[129.82,40.92]]],[[[122.35,20.65],[121.78,21.03],[121.63,20.12],[122.05,20.09],[122.35,20.65]]],[[[73.13,1.0],[72.7,0.14],[73.26,-0.25],[72.77,-0.84],[73.36,-1.02],[73.88,0.25],[73.51,0.97],[73.13,1.0]]],[[[77.52,9.88],[77.33,10.5],[76.92,10.5],[77.11,9.89],[77.52,9.88]]],[[[97.45,0.7],[98.12,0.77],[97.74,1.56],[97.07,1.48],[97.45,0.7]]],[[[-149.7,-76.6],[-151.32,-77.1],[-154.89,-77.17],[-150.13,-78.07],[-147.67,-77.2],[-144.76,-77.4],[-145.89,-77.12],[-146.04,-76.9],[-145.25,-76.74],[-145.4,-76.53],[-148.1,-76.32],[-144.06,-76.0],[-146.07,-75.44],[-147.43,-75.95],[-149.05,-76.03],[-149.7,-76.6]]],[[[-59.67,44.24],[-60.67,43.8],[-59.67,43.84],[-59.67,44.24]]],[[[92.86,-65.44],[91.8,-65.48],[93.06,-66.2],[93.56,-66.05],[92.86,-65.44]]],[[[-151.65,-16.42],[-152.17,-16.36],[-151.7,-16.85],[-151.29,-16.68],[-151.65,-16.42]]],[[[-160.66,21.82],[-161.09,21.63],[-160.71,21.39],[-158.9,21.9],[-159.66,22.4],[-160.66,21.82]]],[[[140.2,40.21],[139.45,39.89],[139.65,39.29],[139.13,38.6],[138.42,38.51],[138.63,37.92],[137.93,37.83],[138.14,37.24],[138.6,37.22],[138.86,37.79],[139.57,37.88],[140.09,38.56],[139.89,39.16],[140.42,39.85],[140.2,40.21]]],[[[-173.83,60.23],[-174.13,60.05],[-173.5,59.81],[-171.64,60.29],[-173.53,61.02],[-173.85,60.84],[-173.05,60.39],[-173.83,60.23]]],[[[-60.78,-68.54],[-61.07,-68.77],[-60.68,-68.97],[-59.69,-68.72],[-60.78,-68.54]]],[[[90.33,42.41],[88.97,43.12],[89.19,42.48],[90.33,42.41]]],[[[-158.57,-79.76],[-158.47,-79.54],[-161.19,-78.74],[-164.32,-78.8],[-165.97,-79.32],[-161.17,-80.2],[-158.57,-79.76]],[[-161.68,-79.4],[-163.83,-79.37],[-162.47,-79.06],[-161.51,-79.18],[-161.68,-79.4]]],[[[-9.99,-40.0],[-10.07,-40.43],[-9.74,-40.47],[-9.53,-40.27],[-9.99,-40.0]]],[[[145.16,-38.29],[145.52,-37.95],[144.43,-37.79],[144.61,-38.2],[145.16,-38.29]]],[[[16.62,-22.63],[17.46,-23.01],[17.52,-22.37],[18.65,-21.65],[18.23,-21.46],[16.62,-22.63]]],[[[172.31,52.89],[172.4,52.49],[173.68,52.16],[174.24,52.4],[173.92,52.99],[173.27,53.16],[172.22,53.29],[172.31,52.89]]],[[[180.0,52.34],[177.25,52.31],[177.13,51.69],[179.52,51.33],[180.0,51.53],[180.0,52.34]]],[[[-180.0,51.53],[-179.74,51.74],[-179.99,52.35],[-180.0,51.53]]],[[[18.36,20.47],[18.36,19.8],[18.89,19.89],[18.54,20.95],[18.81,21.66],[18.09,21.09],[16.93,21.33],[16.49,20.81],[17.56,20.33],[18.36,20.47]]],[[[-80.24,-72.97],[-80.84,-73.15],[-80.62,-73.39],[-79.54,-73.69],[-78.08,-73.55],[-80.24,-72.97]]],[[[64.0,27.65],[64.13,28.03],[63.47,28.63],[62.54,28.45],[63.27,27.64],[64.0,27.65]]],[[[-67.03,18.07],[-66.06,17.82],[-64.24,18.34],[-64.1,18.69],[-65.2,18.37],[-65.62,18.65],[-65.92,18.16],[-67.03,18.07]]],[[[30.93,-89.51],[48.35,-89.34],[42.39,-89.1],[51.1,-88.91],[46.58,-88.68],[52.29,-88.48],[41.06,-88.21],[39.27,-87.96],[43.81,-87.78],[36.72,-87.48],[35.78,-87.23],[39.42,-87.07],[38.39,-86.82],[30.18,-86.39],[29.92,-86.14],[32.82,-86.0],[29.49,-85.65],[29.31,-85.4],[31.78,-85.25],[29.01,-84.9],[28.88,-84.65],[31.02,-84.5],[30.81,-84.26],[24.68,-83.4],[20.58,-83.88],[20.34,-84.13],[22.33,-84.27],[22.16,-84.52],[19.49,-84.88],[21.76,-85.02],[21.52,-85.27],[18.35,-85.62],[20.98,-85.77],[20.65,-86.02],[16.75,-86.37],[19.86,-86.52],[19.38,-86.77],[14.32,-87.11],[22.01,-87.65],[13.62,-88.24],[20.08,-88.4],[4.7,-88.96],[14.86,-89.13],[10.41,-89.37],[30.93,-89.51]]],[[[123.67,26.0],[123.24,26.02],[123.56,25.34],[124.1,25.98],[123.67,26.0]]],[[[84.61,45.16],[83.06,45.3],[82.44,44.53],[83.37,44.92],[83.97,44.4],[86.4,44.36],[87.04,44.84],[86.79,45.48],[87.13,45.85],[86.54,46.38],[85.92,46.4],[84.61,45.16]]],[[[-26.98,-56.5],[-27.44,-56.18],[-27.74,-56.55],[-26.8,-57.19],[-26.03,-57.14],[-26.98,-56.5]]],[[[-135.17,58.64],[-134.64,58.85],[-135.29,59.02],[-135.17,58.64]]],[[[28.89,-7.63],[29.78,-8.4],[30.49,-7.86],[29.37,-6.45],[28.67,-6.99],[28.89,-7.63]]],[[[-146.9,59.62],[-146.61,59.31],[-146.15,59.62],[-146.9,59.62]]],[[[153.36,47.39],[153.24,48.01],[153.65,48.34],[153.04,48.4],[151.37,46.85],[152.22,46.65],[153.36,47.39]]],[[[-143.19,63.39],[-142.91,63.05],[-142.34,63.35],[-143.19,63.39]]],[[[96.82,-12.36],[97.26,-12.17],[96.87,-11.7],[96.41,-12.12],[96.82,-12.36]]],[[[98.46,-0.51],[98.94,-0.04],[98.75,0.35],[98.27,-0.12],[98.46,-0.51]]],[[[51.2,-10.57],[51.4,-9.89],[50.83,-10.44],[51.2,-10.57]]],[[[144.41,13.61],[144.56,13.2],[145.24,13.19],[145.43,14.17],[144.99,14.26],[144.41,13.61]]],[[[-157.99,72.97],[-158.67,72.83],[-158.6,72.58],[-157.2,72.63],[-157.99,72.97]]],[[[103.78,0.35],[104.24,0.56],[104.14,-0.42],[104.57,-0.46],[104.74,1.28],[103.45,1.38],[103.17,0.77],[103.53,-0.01],[103.96,-0.04],[103.78,0.35]]],[[[-68.67,-53.29],[-68.08,-53.1],[-68.63,-52.92],[-68.67,-53.29]]],[[[85.33,47.18],[84.99,46.81],[86.26,46.77],[85.98,47.42],[85.33,47.18]]],[[[-14.61,-8.07],[-14.31,-8.3],[-14.16,-7.6],[-14.61,-8.07]]],[[[-152.88,-80.07],[-154.04,-79.74],[-155.22,-80.09],[-152.88,-80.07]]],[[[-169.61,56.38],[-169.43,56.75],[-170.13,56.62],[-169.61,56.38]]],[[[-64.72,17.7],[-64.38,18.0],[-64.95,17.94],[-65.08,17.59],[-64.72,17.7]]],[[[-122.59,45.34],[-122.43,45.71],[-122.98,45.59],[-122.59,45.34]]],[[[-60.58,10.95],[-60.19,11.04],[-60.68,11.61],[-61.39,10.99],[-61.15,10.7],[-60.58,10.95]]],[[[83.95,18.34],[82.37,17.48],[81.9,16.5],[80.16,16.01],[79.89,13.91],[80.3,13.17],[79.64,12.06],[80.06,12.05],[80.73,13.16],[80.32,13.91],[80.37,15.64],[81.0,15.26],[81.45,16.0],[82.78,16.49],[82.58,17.11],[84.16,17.97],[84.65,18.95],[84.2,18.96],[83.95,18.34]]],[[[-140.3,64.68],[-140.92,64.38],[-140.05,64.33],[-140.3,64.68]]],[[[5.54,23.73],[5.18,23.18],[6.05,22.97],[5.98,23.62],[5.54,23.73]]],[[[100.27,5.19],[100.74,5.41],[100.34,5.95],[100.27,5.19]]],[[[100.56,51.76],[100.12,51.46],[100.56,50.88],[100.91,50.95],[100.56,51.76]]],[[[127.44,26.1],[127.11,25.57],[128.0,25.5],[128.28,27.03],[126.83,26.48],[127.44,26.1]]],[[[101.51,6.5],[101.55,7.01],[100.88,6.94],[101.51,6.5]]],[[[-27.58,39.41],[-28.95,38.9],[-29.13,38.24],[-26.87,38.44],[-26.67,39.1],[-27.58,39.41]]],[[[-60.88,12.92],[-61.15,13.41],[-61.54,13.32],[-61.26,12.83],[-61.82,12.58],[-61.94,11.99],[-61.17,12.18],[-60.88,12.92]]],[[[53.95,-5.77],[53.14,-5.14],[53.31,-5.93],[53.95,-5.77]]],[[[-38.7,-14.19],[-38.84,-13.45],[-39.14,-14.26],[-38.7,-14.19]]],[[[164.1,-67.63],[165.02,-67.56],[164.38,-67.25],[164.1,-67.63]]],[[[-41.74,-22.57],[-41.13,-22.12],[-42.03,-22.26],[-42.31,-23.25],[-41.85,-23.18],[-41.74,-22.57]]],[[[53.93,12.87],[53.34,12.85],[52.94,11.93],[54.63,12.18],[54.71,12.89],[53.93,12.87]]],[[[-41.89,-2.68],[-43.1,-2.23],[-42.53,-2.92],[-41.89,-2.68]]],[[[127.43,39.68],[127.29,39.13],[127.91,39.06],[129.32,36.95],[129.72,36.96],[127.83,39.7],[129.45,40.24],[129.61,40.8],[128.42,40.07],[127.79,40.13],[127.43,39.68]]],[[[77.61,-37.37],[77.3,-37.72],[77.53,-38.09],[78.07,-38.12],[77.61,-37.37]]],[[[-77.03,-77.18],[-76.29,-76.99],[-76.66,-76.75],[-78.46,-76.89],[-77.03,-77.18]]],[[[45.28,37.09],[46.1,36.62],[46.55,36.78],[45.63,38.3],[45.18,38.13],[45.28,37.09]]],[[[96.98,3.14],[97.44,3.36],[97.04,3.9],[96.98,3.14]]],[[[73.66,-52.89],[72.99,-52.82],[73.13,-53.45],[74.26,-53.19],[74.34,-52.95],[73.66,-52.89]]],[[[97.55,1.96],[97.61,2.71],[97.13,2.24],[97.55,1.96]]],[[[-148.4,-15.09],[-147.63,-15.17],[-148.36,-14.67],[-148.4,-15.09]]],[[[-59.35,13.51],[-59.74,13.42],[-59.85,12.83],[-59.07,13.01],[-59.35,13.51]]],[[[57.97,-19.98],[57.6,-19.64],[56.91,-20.52],[57.79,-20.71],[57.97,-19.98]]],[[[27.9,-10.01],[28.14,-8.85],[27.43,-9.4],[27.61,-10.72],[28.03,-10.89],[27.9,-10.01]]],[[[-64.81,32.13],[-64.46,32.68],[-65.11,32.44],[-64.81,32.13]]],[[[-139.82,63.21],[-139.34,63.29],[-139.44,63.85],[-138.82,64.14],[-140.3,63.9],[-139.82,63.21]]],[[[-40.9,-20.89],[-41.26,-21.43],[-40.97,-21.74],[-40.61,-21.2],[-40.9,-20.89]]],[[[-155.81,56.04],[-156.12,55.71],[-155.45,55.76],[-155.81,56.04]]],[[[72.19,11.02],[72.19,10.54],[72.96,11.02],[72.96,11.97],[72.57,11.96],[72.77,11.37],[72.19,11.02]]],[[[85.58,19.68],[85.13,19.69],[84.88,19.07],[85.32,19.07],[85.58,19.68]]],[[[153.33,-30.31],[153.6,-30.2],[153.39,-29.8],[153.09,-30.16],[153.33,-30.31]]],[[[133.53,34.53],[133.12,34.54],[132.93,33.99],[133.75,33.96],[133.53,34.53]]],[[[-25.71,16.96],[-24.53,16.23],[-23.87,16.4],[-24.14,16.97],[-25.08,17.36],[-25.71,16.96]]],[[[-142.14,-75.3],[-143.68,-75.41],[-142.64,-75.68],[-141.95,-75.51],[-142.14,-75.3]]],[[[-74.37,-73.29],[-73.83,-73.09],[-74.15,-72.86],[-76.92,-73.17],[-74.28,-73.96],[-72.83,-73.79],[-74.37,-73.29]]],[[[-77.15,-79.87],[-78.1,-80.06],[-77.66,-80.3],[-76.2,-80.35],[-74.84,-79.72],[-78.41,-79.15],[-79.33,-79.33],[-78.94,-79.57],[-77.15,-79.87]]],[[[13.7,-15.47],[13.78,-14.82],[13.39,-14.63],[13.31,-15.28],[13.7,-15.47]]],[[[50.85,-8.95],[50.56,-9.22],[50.8,-9.81],[51.37,-9.26],[50.85,-8.95]]],[[[3.07,-54.3],[3.06,-54.69],[3.67,-54.48],[3.07,-54.3]]],[[[-61.13,47.89],[-62.23,47.84],[-62.37,47.21],[-61.29,47.26],[-61.13,47.89]]],[[[97.98,10.02],[98.62,9.58],[98.45,10.24],[97.98,10.02]]],[[[-169.57,16.3],[-169.06,16.7],[-169.76,17.16],[-169.92,16.53],[-169.57,16.3]]],[[[72.36,-6.93],[72.1,-7.25],[72.46,-7.77],[72.72,-7.45],[72.36,-6.93]]],[[[99.47,6.28],[100.15,6.35],[99.77,7.16],[99.28,6.68],[99.47,6.28]]],[[[37.85,-47.22],[38.26,-47.0],[37.97,-46.58],[37.15,-47.02],[37.85,-47.22]]],[[[-84.42,-79.05],[-81.58,-79.45],[-80.05,-78.84],[-83.07,-78.22],[-84.66,-78.8],[-84.42,-79.05]]],[[[14.02,27.55],[13.19,27.37],[14.13,27.11],[14.02,27.55]]],[[[-26.62,-57.89],[-25.83,-57.84],[-26.32,-57.52],[-26.62,-57.89]]],[[[-19.78,-74.16],[-20.02,-73.91],[-19.36,-73.73],[-20.46,-73.41],[-21.58,-74.02],[-23.17,-74.11],[-20.94,-74.77],[-19.78,-74.16]]],[[[48.46,-20.45],[48.79,-20.79],[48.91,-19.69],[48.37,-20.05],[48.46,-20.45]]],[[[-146.65,-15.69],[-146.28,-15.94],[-146.23,-15.1],[-146.65,-15.69]]],[[[145.53,18.26],[145.64,17.62],[146.08,17.54],[145.98,18.17],[145.53,18.26]]],[[[51.96,-46.36],[51.56,-46.59],[52.09,-46.73],[52.57,-46.3],[51.96,-46.36]]],[[[63.88,-19.68],[63.23,-19.44],[62.92,-19.77],[63.58,-20.02],[63.88,-19.68]]],[[[-42.1,-53.88],[-41.68,-53.57],[-42.38,-53.52],[-42.1,-53.88]]],[[[142.79,-38.68],[142.96,-39.1],[143.27,-39.02],[142.79,-38.68]]],[[[94.95,5.86],[95.34,5.06],[95.82,5.53],[95.63,5.93],[94.95,5.86]]],[[[-31.35,39.41],[-30.73,39.22],[-31.14,39.82],[-31.71,39.75],[-31.35,39.41]]],[[[91.8,42.69],[92.63,42.5],[92.97,42.84],[92.15,43.04],[91.8,42.69]]],[[[19.19,26.01],[19.1,26.45],[18.35,26.55],[18.44,26.11],[19.19,26.01]]],[[[-26.29,-59.07],[-27.12,-59.12],[-27.39,-59.73],[-26.54,-59.68],[-26.29,-59.07]]],[[[-81.23,53.95],[-80.73,54.28],[-81.48,54.37],[-81.23,53.95]]],[[[-138.18,67.15],[-138.35,66.93],[-137.94,66.79],[-137.21,67.07],[-138.18,67.15]]],[[[113.77,-28.99],[114.16,-28.87],[113.81,-28.67],[113.77,-28.99]]],[[[-12.13,-37.47],[-12.04,-37.03],[-13.09,-37.34],[-12.13,-37.47]]],[[[133.62,56.9],[133.87,57.27],[133.11,57.2],[133.62,56.9]]],[[[-147.46,-81.11],[-146.26,-80.96],[-146.45,-80.73],[-148.97,-80.8],[-147.46,-81.11]]],[[[148.25,76.59],[148.2,76.33],[149.1,76.19],[151.29,76.92],[148.36,77.1],[147.35,76.98],[147.31,76.73],[148.25,76.59]]]]}}]}