{"type":"FeatureCollection","features":[{"type":"Feature","properties":{},"geometry":{"type":"MultiPolygon","coordinates":[[[[54.1,48.0],[53.47,48.51],[53.1,48.55],[52.28,48.19],[51.92,48.22],[51.78,48.45],[50.83,48.31],[50.69,48.54],[50.33,48.57],[50.11,48.37],[49.24,48.65],[49.03,48.44],[48.67,48.47],[48.0,48.94],[47.64,48.95],[46.88,48.56],[46.52,48.58],[46.37,48.8],[46.01,48.81],[45.82,48.61],[44.94,48.85],[44.76,48.64],[44.92,48.42],[44.2,48.02],[44.37,47.8],[44.19,47.59],[43.34,47.83],[42.65,47.42],[42.31,47.42],[42.14,47.63],[41.81,47.63],[41.64,47.43],[40.8,47.64],[40.64,47.43],[39.82,47.21],[39.14,47.62],[38.81,47.61],[38.66,47.4],[37.82,47.61],[37.65,47.42],[37.31,47.43],[35.52,48.24],[34.66,48.06],[33.92,48.45],[33.05,48.25],[32.89,48.05],[31.98,48.23],[31.83,48.03],[31.47,48.03],[30.7,48.4],[30.34,48.39],[30.19,48.19],[29.84,48.17],[29.75,47.57],[28.83,47.73],[28.68,47.53],[28.33,47.51],[28.18,47.3],[28.39,47.11],[27.76,46.68],[27.97,46.49],[27.82,46.27],[26.35,46.58],[26.21,46.37],[26.98,46.02],[25.4,45.08],[25.05,45.05],[24.28,45.39],[23.45,45.11],[23.24,45.29],[22.89,45.26],[22.76,45.04],[22.42,45.0],[22.2,45.18],[22.32,45.4],[23.14,45.69],[23.27,45.91],[24.19,45.8],[24.41,45.61],[24.76,45.64],[24.89,45.86],[25.8,45.73],[25.94,45.94],[25.15,46.29],[25.29,46.5],[25.07,46.69],[24.72,46.66],[24.5,46.84],[24.63,47.06],[24.41,47.24],[23.83,47.39],[23.97,47.6],[23.74,47.78],[23.16,47.93],[23.2,48.53],[22.01,48.81],[21.68,49.37],[21.31,49.33],[21.19,49.11],[21.42,48.94],[20.8,48.48],[19.85,48.56],[19.73,48.35],[19.37,48.3],[18.54,48.59],[18.54,49.19],[18.3,49.35],[18.91,49.83],[19.51,49.71],[20.37,50.0],[21.21,49.71],[22.07,49.99],[22.91,49.68],[23.27,49.72],[23.41,49.92],[22.57,50.24],[22.71,50.44],[22.47,50.61],[22.6,50.82],[22.37,50.99],[22.5,51.19],[22.16,51.73],[22.29,51.94],[21.95,52.47],[22.08,52.67],[21.84,52.84],[21.97,53.03],[21.1,53.32],[20.19,53.04],[19.82,53.56],[19.18,53.67],[19.83,54.11],[20.22,54.15],[20.36,54.35],[20.1,54.51],[20.24,54.7],[21.84,55.4],[21.47,55.9],[21.61,56.09],[21.35,56.24],[21.5,56.43],[21.23,56.58],[21.38,56.77],[21.11,56.92],[20.71,56.88],[20.56,56.7],[20.83,56.55],[20.69,56.36],[21.07,55.86],[20.93,55.67],[20.53,55.63],[20.39,55.44],[20.65,55.29],[20.51,55.09],[19.46,55.16],[19.33,54.97],[19.59,54.82],[19.45,54.62],[19.06,54.58],[18.67,55.08],[18.02,55.18],[17.63,55.13],[16.98,54.69],[15.95,54.73],[15.82,54.53],[14.94,54.22],[14.03,54.44],[14.14,54.64],[13.87,54.78],[13.22,54.86],[12.35,54.53],[12.08,54.67],[12.19,54.87],[12.57,54.94],[12.68,55.14],[13.72,55.12],[13.83,55.32],[14.22,55.38],[14.64,54.9],[15.68,54.87],[15.8,55.07],[15.53,55.21],[15.65,55.41],[14.72,55.64],[14.84,55.83],[15.9,55.8],[16.54,56.25],[16.94,56.3],[17.07,56.49],[16.8,56.63],[16.4,56.58],[15.75,56.14],[14.02,56.25],[13.91,56.05],[14.18,55.91],[14.06,55.72],[13.67,55.66],[12.74,55.87],[13.36,56.32],[12.92,56.78],[13.03,56.98],[12.36,57.05],[12.24,56.85],[12.52,56.72],[12.41,56.53],[11.03,55.93],[10.75,56.06],[10.86,56.26],[11.25,56.33],[11.35,56.52],[10.69,56.58],[10.58,56.39],[10.2,56.32],[10.09,56.12],[10.37,55.99],[10.27,55.79],[8.94,55.18],[8.48,55.63],[8.58,55.83],[8.3,55.95],[8.4,56.15],[7.74,56.19],[7.65,55.99],[7.93,55.87],[7.37,55.39],[8.29,55.23],[8.2,55.02],[7.83,54.95],[7.74,54.74],[8.02,54.62],[7.92,54.41],[7.56,54.34],[7.02,53.84],[6.39,53.89],[6.04,53.81],[5.95,53.6],[4.98,53.55],[4.48,53.05],[4.15,53.01],[4.25,52.42],[3.93,52.38],[3.06,51.64],[2.74,51.6],[2.67,51.38],[2.35,51.33],[2.28,51.11],[1.96,51.06],[1.51,51.61],[1.97,52.09],[1.7,52.25],[1.77,52.47],[2.1,52.52],[2.17,52.73],[1.91,52.89],[1.98,53.11],[0.76,53.33],[0.28,53.87],[0.34,54.08],[0.06,54.24],[0.13,54.45],[-0.79,54.72],[-0.73,54.93],[-1.02,55.09],[-1.37,55.03],[-1.2,54.45],[-0.57,54.35],[-0.28,54.19],[-0.35,53.97],[-1.32,54.02],[-1.15,53.43],[-1.49,53.37],[-1.55,53.15],[-1.89,53.09],[-1.95,52.88],[-3.07,52.24],[-2.89,51.64],[-4.47,51.75],[-4.27,51.14],[-4.98,50.77],[-5.02,50.54],[-5.72,50.16],[-5.76,49.93],[-5.47,49.78],[-4.77,50.16],[-3.56,50.0],[-3.13,50.52],[-2.81,50.59],[-1.34,50.25],[-0.63,50.6],[0.22,50.34],[0.54,50.4],[0.6,50.62],[1.18,50.52],[0.74,50.02],[-0.16,50.06],[-0.02,49.45],[-0.91,49.49],[-1.39,50.03],[-1.98,50.12],[-2.68,49.76],[-2.73,49.53],[-3.42,49.16],[-3.47,48.93],[-4.06,49.01],[-4.75,48.63],[-5.35,48.7],[-5.39,48.47],[-4.87,47.93],[-4.91,47.7],[-3.74,47.55],[-3.47,47.39],[-3.52,47.16],[-2.94,47.08],[-2.68,46.92],[-2.73,46.69],[-1.91,46.45],[-1.96,46.22],[-1.3,45.28],[-1.35,45.05],[-1.65,44.97],[-1.7,44.74],[-1.45,44.58],[-1.5,44.35],[-1.8,44.27],[-1.65,43.64],[-3.82,43.95],[-4.46,43.54],[-8.1,44.05],[-8.73,43.61],[-9.0,43.76],[-9.3,43.66],[-9.33,43.42],[-9.63,43.32],[-9.65,43.07],[-8.88,42.14],[-9.22,41.55],[-8.72,41.01],[-8.74,40.77],[-9.34,40.31],[-9.13,39.67],[-9.96,39.61],[-9.98,39.36],[-9.72,39.21],[-9.74,38.97],[-9.01,38.04],[-9.33,37.43],[-8.85,36.9],[-8.05,36.97],[-6.77,36.74],[-6.8,36.49],[-6.15,35.56],[-6.18,35.32],[-6.74,34.86],[-7.35,33.91],[-7.61,33.81],[-7.85,33.95],[-8.4,33.48],[-8.64,33.62],[-8.9,33.51],[-8.93,33.26],[-10.03,32.07],[-10.05,31.82],[-9.81,31.68],[-9.83,31.43],[-10.08,31.32],[-10.1,31.07],[-9.87,30.93],[-9.89,30.68],[-10.14,30.57],[-9.94,29.94],[-10.19,29.82],[-10.48,29.21],[-11.21,29.11],[-11.49,28.49],[-12.22,28.38],[-12.46,28.51],[-12.97,28.02],[-13.21,28.14],[-13.45,28.02],[-13.46,27.77],[-13.71,27.65],[-13.49,27.02],[-14.21,26.9],[-14.22,26.65],[-15.2,25.4],[-15.2,25.15],[-14.97,25.03],[-15.21,24.41],[-14.98,24.29],[-14.74,24.42],[-14.74,24.66],[-14.5,24.79],[-14.27,24.67],[-13.78,25.16],[-13.08,25.04],[-12.84,25.16],[-12.83,25.41],[-12.59,25.53],[-12.36,25.41],[-11.87,25.89],[-10.71,25.75],[-10.21,26.23],[-9.52,26.09],[-9.28,26.2],[-9.26,26.45],[-9.02,26.56],[-8.8,26.43],[-8.56,26.55],[-8.53,26.79],[-8.29,26.9],[-8.07,26.77],[-7.56,27.24],[-6.89,27.08],[-6.64,27.19],[-6.62,27.43],[-6.37,27.54],[-6.16,27.41],[-5.64,27.86],[-4.98,27.7],[-4.74,27.8],[-4.7,28.04],[-4.46,28.14],[-4.25,28.01],[-4.01,28.11],[-3.98,28.35],[-3.73,28.45],[-3.53,28.31],[-3.01,28.75],[-2.35,28.57],[-2.11,28.67],[-2.08,28.91],[-1.39,28.96],[-1.35,29.2],[-0.67,29.21],[-0.63,29.45],[-0.38,29.53],[0.26,29.3],[0.51,29.38],[0.55,29.62],[1.25,29.62],[1.3,29.86],[1.55,29.95],[2.21,29.71],[2.77,30.1],[2.82,30.34],[3.54,30.34],[3.6,30.58],[3.86,30.66],[4.53,30.41],[5.12,30.8],[5.32,30.63],[5.59,30.71],[5.98,31.27],[6.72,31.25],[6.79,31.49],[7.06,31.57],[7.27,31.4],[7.54,31.47],[7.61,31.71],[7.89,31.78],[8.09,31.61],[8.37,31.68],[8.79,32.24],[9.56,32.21],[9.63,32.45],[9.91,32.52],[10.12,32.34],[10.4,32.41],[10.48,32.66],[10.77,32.72],[10.97,32.55],[11.26,32.61],[11.34,32.86],[11.63,32.92],[12.82,32.51],[13.49,32.88],[14.19,32.57],[14.48,32.63],[14.57,32.87],[14.37,33.06],[14.07,33.0],[13.37,33.3],[12.7,32.93],[11.5,33.34],[11.45,34.01],[10.74,34.29],[10.82,34.54],[11.62,34.49],[11.7,34.74],[11.23,35.75],[11.31,35.99],[11.1,36.17],[11.56,36.72],[11.34,36.89],[11.43,37.13],[9.14,37.7],[8.11,37.0],[6.37,37.42],[5.73,37.02],[4.0,37.4],[3.72,37.32],[3.66,37.08],[2.89,37.06],[2.83,36.82],[2.56,36.73],[1.36,37.01],[1.09,36.92],[1.04,36.68],[0.29,36.65],[-0.07,36.09],[-0.33,36.0],[-0.55,36.16],[-1.12,35.74],[-1.33,35.9],[-1.6,35.81],[-1.64,35.57],[-2.2,35.15],[-2.91,35.35],[-2.87,35.6],[-3.09,35.75],[-3.66,35.32],[-4.38,35.52],[-4.65,35.42],[-5.08,35.96],[-5.04,36.2],[-4.77,36.3],[-4.54,36.15],[-3.97,36.59],[-2.26,36.26],[-1.37,37.01],[-1.33,37.25],[-0.58,37.26],[-0.21,37.82],[-0.43,37.97],[-0.38,38.21],[0.2,38.61],[0.25,38.85],[-0.14,39.4],[-0.09,39.63],[0.84,40.34],[1.23,40.9],[2.02,40.94],[2.42,41.49],[3.23,41.53],[3.29,41.76],[3.59,41.85],[3.48,42.46],[3.25,42.6],[3.67,43.16],[5.04,43.13],[6.35,42.85],[7.05,43.24],[7.12,43.48],[7.98,43.48],[8.46,44.02],[8.77,44.1],[10.12,43.78],[9.23,42.94],[8.37,42.94],[8.29,42.71],[8.52,42.55],[8.05,42.01],[8.43,41.46],[8.74,41.53],[8.97,41.37],[8.89,41.14],[8.58,41.06],[8.36,41.22],[7.67,40.83],[7.6,40.59],[8.35,40.35],[8.27,40.12],[7.97,40.04],[7.9,39.8],[8.12,39.64],[7.67,39.09],[8.42,38.84],[8.34,38.6],[8.56,38.44],[9.24,38.82],[9.31,39.06],[10.14,39.04],[10.08,39.68],[9.86,39.85],[10.33,40.4],[9.96,40.96],[10.05,41.2],[9.82,41.36],[9.9,41.59],[9.67,41.76],[9.76,41.99],[10.61,41.97],[10.7,42.21],[11.02,42.28],[11.24,42.11],[11.56,42.18],[11.79,42.02],[11.7,41.78],[12.47,41.52],[12.38,41.28],[12.74,40.71],[14.67,40.44],[14.89,40.27],[14.8,40.03],[15.55,39.73],[15.57,39.08],[15.26,39.02],[15.16,38.79],[14.32,38.84],[14.35,38.19],[13.52,38.24],[13.17,38.83],[12.46,38.46],[11.98,37.92],[12.33,37.33],[14.19,37.05],[14.53,36.45],[15.35,36.39],[15.44,36.63],[15.23,36.81],[15.73,37.35],[15.52,37.53],[15.61,37.77],[16.45,37.7],[16.96,38.23],[16.75,38.41],[16.85,38.65],[17.58,39.0],[17.58,39.65],[16.83,39.96],[16.93,40.19],[17.25,40.25],[17.47,40.07],[17.79,40.12],[18.11,39.52],[18.86,39.85],[19.07,39.67],[19.4,39.72],[19.61,39.53],[19.5,39.3],[20.24,38.97],[20.13,38.73],[20.34,38.54],[19.8,38.02],[20.53,37.69],[20.42,37.45],[20.63,37.26],[20.94,37.31],[21.24,36.68],[22.07,36.57],[22.35,35.95],[23.18,35.83],[23.37,35.63],[23.34,34.96],[24.04,34.6],[24.77,34.9],[24.96,34.7],[25.77,34.57],[26.75,35.33],[27.55,35.18],[27.62,35.85],[28.42,35.69],[28.49,36.36],[30.29,35.83],[30.86,36.3],[30.68,36.51],[30.81,36.73],[31.12,36.75],[31.3,36.54],[32.1,36.36],[32.32,35.72],[33.07,35.97],[33.24,35.76],[33.11,35.54],[32.36,35.29],[31.79,34.82],[31.96,34.61],[33.21,34.23],[33.35,34.46],[34.09,34.7],[34.19,35.36],[34.5,35.37],[35.08,35.82],[34.91,36.03],[34.6,36.02],[34.02,35.57],[33.72,35.56],[33.55,35.77],[33.68,35.99],[33.99,36.0],[34.57,36.45],[35.35,36.26],[35.52,36.04],[35.38,35.83],[35.54,35.61],[35.41,35.39],[35.62,34.31],[35.48,34.09],[35.18,34.08],[35.05,33.86],[35.21,33.65],[34.64,33.19],[34.83,32.54],[34.7,32.32],[34.41,32.31],[34.3,31.65],[33.59,31.39],[33.42,31.6],[33.13,31.59],[33.0,31.36],[32.71,31.35],[32.08,31.75],[31.32,31.92],[31.19,31.69],[30.42,31.86],[29.46,31.12],[28.69,31.28],[28.51,31.49],[28.21,31.46],[28.09,31.23],[28.27,31.02],[30.44,30.31],[30.65,29.66],[30.53,29.42],[30.24,29.4],[30.12,29.17],[30.29,28.96],[31.03,28.8],[31.57,29.28],[32.31,29.11],[32.47,28.9],[32.35,28.67],[32.51,28.46],[32.8,28.48],[32.96,28.26],[32.83,28.03],[32.99,27.82],[33.28,27.84],[33.43,27.63],[33.31,27.4],[33.91,27.0],[33.78,26.77],[33.97,26.12],[34.24,26.14],[34.37,26.36],[34.16,27.45],[34.28,27.68],[34.56,27.7],[34.69,27.92],[35.41,27.74],[35.54,27.96],[35.38,28.18],[35.1,28.16],[34.95,28.38],[35.08,28.6],[35.79,28.41],[35.9,29.08],[36.19,29.09],[36.32,29.31],[37.46,28.91],[38.42,29.59],[38.7,29.59],[38.85,29.38],[39.54,29.6],[39.68,29.39],[39.96,29.39],[40.09,29.61],[40.78,29.83],[40.92,29.61],[41.61,29.82],[42.15,29.39],[42.42,29.39],[42.56,29.6],[42.83,29.6],[42.96,29.38],[43.64,29.59],[44.55,28.93],[44.81,28.92],[44.95,29.13],[45.6,28.9],[46.14,29.3],[45.63,29.74],[44.97,29.55],[42.85,30.88],[40.49,31.98],[40.35,32.62],[40.49,32.84],[39.91,33.27],[40.05,33.48],[39.91,33.7],[39.18,33.92],[39.03,34.13],[38.3,33.92],[37.7,34.35],[37.84,34.56],[38.57,34.78],[38.71,35.0],[38.56,35.21],[37.83,34.99],[37.67,35.21],[37.37,35.21],[37.23,34.99],[36.93,34.99],[36.77,35.2],[36.91,35.42],[37.21,35.42],[37.35,35.64],[37.65,35.64],[37.81,35.42],[38.55,35.64],[38.7,35.42],[39.0,35.42],[39.14,35.64],[39.88,35.84],[40.91,35.18],[42.07,35.57],[42.64,35.13],[42.93,35.12],[43.07,35.33],[43.78,35.09],[43.93,35.29],[43.79,35.51],[43.51,35.52],[43.37,35.73],[43.52,35.94],[44.24,36.11],[44.37,35.9],[44.66,35.88],[44.79,35.66],[44.64,35.46],[45.19,35.01],[45.89,35.18],[45.95,33.71],[46.23,33.7],[46.74,33.25],[47.43,33.41],[47.93,32.96],[48.62,33.09],[50.17,32.06],[50.18,31.06],[50.87,31.14],[51.09,31.71],[51.53,31.84],[53.3,30.72],[53.47,30.89],[53.38,31.11],[53.0,31.38],[53.17,31.56],[54.56,30.69],[54.82,31.25],[55.09,31.2],[55.27,31.37],[55.18,31.59],[54.9,31.65],[54.72,31.48],[54.45,31.53],[53.97,32.03],[53.32,32.35],[53.29,32.97],[53.93,33.28],[52.66,34.32],[56.18,35.4],[56.48,35.35],[56.96,34.82],[56.77,34.65],[56.86,34.41],[56.19,34.12],[56.19,33.48],[56.47,33.43],[56.66,33.6],[56.57,33.83],[56.76,34.01],[57.05,33.95],[57.04,33.32],[57.7,32.97],[57.9,33.14],[58.18,33.08],[58.27,32.85],[60.01,31.61],[60.45,32.57],[60.37,32.81],[60.58,32.98],[60.13,33.51],[60.33,33.68],[60.25,33.92],[59.96,33.98],[59.88,34.22],[60.58,34.49],[61.61,33.82],[62.41,32.97],[63.19,32.99],[63.62,32.44],[65.4,32.63],[65.61,32.79],[66.24,32.39],[67.97,32.78],[68.26,32.7],[68.31,32.46],[68.08,32.3],[68.14,32.06],[68.41,31.98],[68.81,32.53],[69.6,32.51],[69.83,32.66],[69.45,33.23],[70.2,33.45],[70.15,33.7],[70.39,33.85],[70.67,33.76],[70.91,33.91],[70.53,34.49],[70.77,34.65],[71.59,34.62],[71.83,34.77],[72.11,34.67],[72.15,34.43],[72.96,34.39],[73.31,33.8],[73.59,33.71],[74.36,33.9],[74.94,33.46],[75.19,33.6],[75.16,33.85],[74.57,34.29],[74.54,34.54],[73.73,34.59],[73.7,34.83],[73.42,34.93],[73.38,35.18],[73.63,35.33],[73.91,35.23],[74.17,35.38],[74.13,35.63],[73.85,35.72],[73.6,35.58],[73.31,35.67],[72.85,35.13],[72.03,35.17],[71.99,35.41],[71.7,35.51],[71.46,35.35],[71.17,35.45],[70.73,34.89],[70.1,35.32],[69.86,35.16],[69.04,35.18],[68.81,35.02],[68.86,34.78],[68.63,34.62],[68.68,34.38],[68.45,34.22],[68.5,33.98],[67.92,33.02],[66.62,32.95],[66.89,33.99],[66.26,34.4],[66.03,34.23],[65.74,34.31],[65.84,34.96],[65.55,35.04],[65.48,35.28],[65.71,35.45],[67.06,35.53],[67.29,35.69],[67.93,35.28],[68.7,35.51],[69.52,35.5],[70.15,36.46],[70.1,36.71],[70.89,36.93],[70.85,37.18],[71.1,37.34],[70.35,38.27],[70.81,38.84],[70.76,39.09],[69.33,39.04],[67.96,38.73],[67.65,38.82],[67.59,39.07],[68.4,39.31],[68.71,39.22],[69.16,39.8],[72.34,40.03],[72.6,40.18],[72.91,40.09],[73.18,40.24],[73.49,40.14],[73.99,40.7],[73.96,40.95],[74.23,41.1],[74.54,41.0],[75.99,41.23],[75.96,41.49],[75.65,41.59],[74.78,41.4],[74.12,41.87],[73.61,41.31],[73.29,41.41],[73.49,42.07],[73.17,42.17],[72.3,41.96],[71.98,42.06],[71.48,41.49],[70.79,41.93],[70.52,41.77],[70.2,41.87],[70.15,42.12],[70.42,42.28],[70.74,42.19],[71.01,42.35],[71.34,42.25],[71.61,42.41],[71.93,42.31],[72.21,42.47],[72.53,42.37],[72.81,42.53],[73.13,42.43],[75.82,42.76],[76.13,42.65],[76.5,42.03],[77.41,41.96],[77.96,42.5],[78.27,42.38],[78.56,42.52],[78.54,42.78],[77.63,42.87],[76.74,42.69],[76.42,42.8],[76.39,43.06],[76.68,43.2],[77.0,43.09],[78.51,43.29],[79.15,42.8],[79.72,43.33],[80.03,43.22],[80.93,43.37],[81.24,43.24],[81.25,42.99],[82.15,42.87],[82.75,43.39],[83.05,43.26],[83.95,43.39],[83.95,43.64],[83.05,43.77],[83.05,44.02],[82.75,44.15],[82.75,44.41],[83.06,44.53],[83.36,44.41],[83.67,44.53],[84.27,44.02],[86.39,44.1],[86.95,43.58],[87.25,43.69],[87.54,43.56],[88.18,44.04],[90.81,43.76],[91.82,44.57],[91.86,44.82],[89.8,45.09],[89.58,45.73],[89.9,45.84],[89.93,46.09],[89.38,46.63],[89.41,46.88],[89.12,47.02],[89.15,47.27],[88.22,47.45],[88.25,47.7],[87.94,47.85],[87.61,47.73],[87.3,47.88],[87.32,48.13],[87.01,48.27],[84.73,48.21],[84.41,48.35],[84.1,48.99],[84.43,49.11],[84.44,49.36],[84.11,49.5],[83.43,49.0],[82.43,49.13],[82.1,49.0],[81.42,49.51],[81.41,49.77],[81.07,49.89],[81.06,50.15],[80.71,50.27],[80.05,49.75],[79.7,49.87],[79.68,50.13],[79.33,50.25],[78.99,50.11],[79.01,49.86],[79.36,49.74],[79.38,49.48],[79.05,49.35],[79.43,48.72],[79.1,48.58],[78.76,48.7],[75.76,48.44],[75.41,48.55],[72.42,48.2],[72.07,48.3],[71.76,48.15],[70.99,48.59],[70.68,48.43],[69.65,48.45],[69.12,47.87],[68.76,47.96],[67.82,47.71],[67.02,48.13],[66.73,47.96],[65.72,47.95],[65.18,48.53],[64.82,48.6],[64.53,48.43],[63.7,48.82],[63.42,48.65],[63.05,48.72],[62.77,48.54],[62.4,48.6],[62.13,48.42],[61.76,48.49],[61.49,48.31],[58.61,47.86],[57.74,47.54],[57.38,47.59],[57.26,47.83],[56.89,47.88],[56.65,47.69],[55.8,48.02],[55.44,47.4],[54.1,48.0]],[[47.3,42.13],[47.43,41.91],[47.26,41.71],[46.94,41.74],[45.89,42.45],[45.57,42.47],[45.4,42.27],[44.63,42.52],[44.47,42.32],[44.16,42.34],[43.08,43.01],[42.3,42.83],[41.21,43.49],[40.41,43.33],[40.24,43.94],[40.4,44.14],[40.73,44.12],[41.37,43.69],[42.15,43.87],[44.17,42.76],[44.48,42.74],[44.65,42.94],[45.43,42.69],[45.6,42.89],[45.92,42.87],[46.98,42.16],[47.3,42.13]],[[24.35,39.91],[24.48,40.14],[24.8,40.17],[25.0,39.97],[24.88,39.75],[24.56,39.71],[24.35,39.91]],[[-2.51,49.15],[-2.24,48.99],[-2.29,48.76],[-2.88,48.85],[-2.83,49.08],[-2.51,49.15]],[[17.13,41.31],[16.36,41.61],[16.46,41.84],[16.24,42.02],[16.78,42.54],[18.76,42.21],[18.98,42.03],[18.87,41.8],[19.09,41.62],[18.98,41.39],[19.3,40.79],[19.19,40.55],[18.86,40.51],[18.65,40.69],[17.78,40.77],[17.56,40.95],[17.67,41.18],[17.45,41.36],[17.13,41.31]],[[17.57,49.84],[16.61,49.9],[16.23,50.43],[15.0,50.63],[15.11,50.84],[15.48,50.9],[16.71,50.69],[16.95,50.54],[16.84,50.32],[17.69,50.06],[17.57,49.84]],[[30.85,43.34],[31.05,43.14],[31.38,43.16],[31.52,43.37],[32.34,43.6],[32.53,43.4],[32.86,43.41],[33.01,43.62],[33.87,43.43],[34.5,43.84],[35.35,43.64],[36.47,44.25],[37.78,44.63],[37.96,44.02],[38.78,44.2],[38.96,43.58],[41.21,42.68],[41.36,42.47],[41.21,42.27],[41.36,41.65],[40.27,41.08],[39.49,41.31],[39.33,41.11],[39.02,41.12],[38.86,41.33],[38.07,41.14],[36.43,41.99],[35.64,41.78],[35.43,42.4],[34.15,41.98],[33.46,42.38],[33.13,42.38],[31.57,41.49],[31.24,41.48],[31.1,41.26],[30.26,41.43],[30.12,41.21],[29.79,41.2],[29.07,41.58],[28.74,41.56],[28.54,41.76],[28.68,41.98],[27.95,42.35],[28.08,42.57],[27.88,42.77],[28.97,43.46],[28.71,44.07],[28.85,44.29],[29.73,44.12],[29.98,43.51],[30.85,43.34]],[[7.74,47.78],[8.24,48.3],[7.99,48.45],[8.08,48.67],[8.66,48.6],[8.58,48.38],[8.83,48.24],[9.59,48.61],[9.68,48.83],[10.27,48.76],[9.32,47.95],[8.74,48.02],[7.99,47.64],[7.74,47.78]],[[19.99,43.45],[20.32,42.86],[20.2,42.63],[19.87,42.58],[19.1,42.9],[18.21,42.98],[17.87,43.56],[16.98,43.63],[16.63,44.21],[16.29,44.15],[16.06,44.32],[16.17,44.55],[16.51,44.61],[17.3,44.32],[17.64,44.37],[17.98,43.79],[18.77,44.12],[19.1,43.53],[19.99,43.45]],[[5.96,46.93],[6.03,47.15],[6.36,47.23],[6.6,47.09],[6.53,46.87],[5.96,46.93]],[[11.67,46.2],[11.76,46.43],[11.52,46.59],[10.34,45.92],[9.77,46.0],[9.38,46.53],[8.64,46.15],[8.39,46.3],[6.87,45.3],[6.79,45.07],[7.19,44.55],[7.11,44.32],[6.8,44.24],[6.56,44.39],[6.64,44.62],[5.85,44.83],[6.31,45.37],[6.63,45.45],[6.54,46.05],[6.86,46.13],[6.94,46.36],[6.69,46.5],[6.77,46.72],[7.66,46.74],[7.74,46.97],[8.07,47.05],[8.65,46.98],[9.15,47.5],[10.06,47.5],[10.0,48.09],[11.51,48.01],[12.93,47.68],[13.72,48.03],[14.55,47.77],[15.36,48.11],[16.19,47.84],[16.08,47.62],[15.27,47.29],[15.17,47.07],[15.54,46.52],[15.43,46.29],[14.85,46.4],[14.51,46.34],[14.41,46.11],[13.49,46.15],[13.11,46.7],[12.78,46.63],[12.24,46.12],[11.67,46.2]],[[12.77,45.18],[13.1,45.25],[13.33,45.08],[13.24,44.86],[13.47,44.69],[13.8,44.76],[14.04,44.59],[13.94,44.36],[14.17,44.2],[14.5,44.26],[14.73,44.09],[14.63,43.86],[15.42,43.58],[15.44,42.95],[15.67,42.78],[16.0,42.83],[16.22,42.66],[16.12,42.43],[15.79,42.37],[15.57,42.54],[14.81,42.19],[14.59,42.37],[14.69,42.6],[14.33,43.17],[14.43,43.4],[13.64,43.67],[13.74,43.9],[13.51,44.07],[13.18,44.01],[12.95,44.17],[13.04,44.4],[12.67,44.95],[12.77,45.18]],[[7.15,50.23],[6.55,50.29],[5.8,49.9],[5.54,50.04],[6.04,50.55],[6.37,50.64],[6.97,50.59],[7.23,50.45],[7.15,50.23]],[[85.3,46.67],[85.29,46.42],[84.34,46.31],[84.03,46.44],[84.03,46.7],[83.08,46.83],[83.08,47.09],[82.76,47.22],[81.79,47.09],[81.47,47.21],[81.12,47.85],[81.45,47.98],[81.78,47.85],[81.78,47.6],[82.11,47.47],[82.43,47.6],[82.76,47.47],[83.08,47.6],[83.41,47.47],[86.31,47.53],[86.62,47.39],[86.89,46.75],[85.3,46.67]],[[31.08,45.61],[30.73,45.6],[30.53,45.8],[31.18,46.22],[31.52,46.23],[32.26,45.85],[32.11,45.64],[31.23,45.82],[31.08,45.61]],[[36.89,45.65],[36.71,45.86],[36.37,45.86],[36.22,45.66],[35.88,45.67],[35.17,46.07],[36.32,46.66],[36.67,46.65],[36.85,46.45],[37.69,46.63],[37.88,46.03],[37.23,45.65],[36.89,45.65]],[[24.51,39.06],[24.63,39.29],[24.96,39.32],[25.68,38.96],[25.56,38.73],[25.23,38.7],[24.51,39.06]],[[-2.97,48.39],[-2.66,48.46],[-2.39,48.31],[-2.44,48.08],[-3.34,48.09],[-3.38,47.86],[-3.7,47.78],[-4.2,48.32],[-4.15,48.55],[-3.83,48.63],[-2.97,48.39]],[[8.61,50.77],[8.0,50.83],[7.92,51.39],[9.13,51.27],[8.61,50.77]],[[12.81,50.83],[13.42,50.75],[13.31,50.54],[13.56,50.38],[13.46,50.17],[13.1,50.11],[13.15,49.52],[13.75,49.43],[14.14,48.91],[15.09,48.87],[15.33,48.71],[15.22,48.49],[14.87,48.43],[13.09,48.72],[12.69,49.24],[12.8,49.46],[11.34,49.77],[11.28,50.35],[11.03,50.5],[10.42,50.57],[9.63,50.21],[9.38,50.35],[9.91,50.85],[10.26,50.93],[12.35,50.55],[12.7,50.62],[12.81,50.83]],[[3.11,45.1],[2.57,45.14],[2.45,45.73],[3.0,45.69],[3.11,45.1]],[[18.41,54.13],[18.67,53.98],[18.03,53.53],[16.11,53.83],[17.76,54.79],[18.41,54.68],[18.28,54.48],[18.54,54.33],[18.41,54.13]],[[23.72,36.34],[23.52,36.53],[23.64,36.77],[23.95,36.8],[24.15,36.61],[24.97,36.48],[25.24,35.84],[25.55,35.87],[25.67,36.11],[25.99,36.14],[26.18,35.94],[26.06,35.7],[25.32,35.41],[24.62,35.77],[23.8,35.9],[23.6,36.1],[23.72,36.34]],[[79.94,45.26],[80.26,45.14],[80.87,45.67],[81.81,45.55],[81.51,44.91],[81.82,44.78],[82.14,44.15],[81.83,44.02],[81.21,44.52],[79.05,44.34],[78.73,44.46],[79.0,45.11],[79.94,45.26]],[[83.69,45.55],[83.69,45.3],[83.37,45.17],[82.75,45.68],[82.75,45.94],[83.07,46.07],[83.38,45.94],[83.38,45.68],[83.69,45.55]],[[23.94,42.01],[23.61,41.98],[23.4,42.17],[23.52,42.39],[23.85,42.43],[24.06,42.24],[23.94,42.01]],[[7.33,47.48],[7.58,47.34],[7.5,47.11],[6.93,47.17],[7.01,47.4],[7.33,47.48]],[[22.96,46.49],[22.61,46.46],[22.38,46.64],[22.51,46.85],[22.86,46.89],[23.66,46.56],[23.53,46.35],[23.18,46.31],[22.96,46.49]],[[20.85,42.08],[21.07,41.89],[20.95,41.66],[20.62,41.62],[20.41,41.8],[20.52,42.03],[20.85,42.08]],[[25.61,39.38],[25.41,39.58],[25.53,39.81],[25.86,39.84],[26.06,39.64],[25.93,39.41],[25.61,39.38]],[[52.91,33.25],[52.62,33.29],[52.52,33.52],[52.69,33.69],[52.98,33.65],[53.08,33.42],[52.91,33.25]],[[20.53,51.38],[21.38,51.08],[21.25,50.88],[20.27,50.96],[20.02,51.13],[20.15,51.33],[20.53,51.38]],[[-3.79,50.38],[-4.4,50.46],[-4.36,50.69],[-3.65,51.06],[-3.37,50.91],[-3.79,50.38]],[[49.95,32.49],[49.84,32.71],[50.0,32.89],[50.27,32.85],[50.77,32.37],[50.61,32.19],[49.95,32.49]],[[70.68,41.01],[70.36,41.11],[70.31,41.36],[70.57,41.52],[70.89,41.43],[70.94,41.17],[70.68,41.01]],[[25.83,38.1],[26.15,38.13],[26.34,37.93],[26.22,37.7],[25.9,37.67],[24.67,38.2],[24.79,38.43],[25.11,38.47],[25.83,38.1]],[[15.66,49.36],[15.55,49.14],[14.95,49.24],[15.53,49.73],[16.13,49.63],[16.02,49.42],[15.66,49.36]],[[6.59,47.9],[6.67,48.12],[7.0,48.21],[7.25,48.07],[7.17,47.84],[6.59,47.9]]],[[[58.06,25.53],[57.98,25.75],[57.55,25.65],[57.88,25.38],[58.06,25.53]]],[[[49.62,29.74],[49.87,29.73],[49.94,29.11],[50.91,28.58],[50.96,27.99],[51.67,27.47],[52.34,27.54],[53.83,26.28],[55.09,26.59],[55.69,26.27],[56.11,26.37],[56.45,26.1],[56.62,26.26],[56.2,26.75],[55.77,26.64],[55.17,26.97],[54.58,26.7],[54.23,26.97],[53.56,26.91],[52.41,27.91],[51.73,27.85],[51.27,28.32],[51.43,28.48],[51.33,28.7],[50.71,29.0],[50.6,29.21],[50.76,29.38],[50.29,29.85],[50.45,30.02],[50.34,30.24],[49.92,30.11],[49.29,30.38],[48.76,30.01],[48.13,30.25],[47.99,30.05],[48.11,29.84],[47.57,29.45],[48.05,29.01],[47.85,27.98],[47.97,27.77],[48.57,27.54],[48.68,27.32],[48.54,27.12],[49.01,26.69],[49.63,26.87],[49.73,26.66],[49.6,26.46],[49.7,26.25],[49.94,26.24],[49.91,25.83],[50.25,25.61],[50.21,25.21],[50.65,24.79],[51.02,24.97],[51.09,25.77],[50.66,26.2],[50.69,26.61],[50.01,27.05],[50.18,27.66],[50.08,27.87],[49.45,27.7],[48.99,28.13],[48.74,28.15],[48.66,28.77],[48.41,28.78],[48.3,29.0],[48.84,29.38],[48.72,29.59],[48.87,29.79],[49.26,29.97],[49.51,29.96],[49.62,29.74]]],[[[-17.04,14.63],[-16.4,15.46],[-16.4,15.68],[-16.61,15.79],[-17.25,14.96],[-17.25,14.74],[-17.04,14.63]]],[[[-16.85,20.35],[-16.62,20.24],[-16.62,20.0],[-16.17,20.02],[-16.4,20.61],[-16.85,21.08],[-16.63,21.69],[-16.86,21.8],[-16.86,22.05],[-16.16,22.19],[-16.16,22.43],[-16.4,22.55],[-16.63,22.42],[-16.86,22.53],[-17.32,22.03],[-17.32,21.79],[-17.09,21.67],[-17.31,21.06],[-17.08,20.95],[-16.85,20.35]]],[[[20.53,32.56],[20.23,32.51],[19.73,31.98],[20.11,30.91],[20.4,30.96],[20.5,31.2],[20.22,31.83],[20.32,32.08],[21.43,32.69],[21.54,32.93],[21.34,33.13],[21.04,33.08],[20.53,32.56]]],[[[54.23,32.6],[54.05,32.42],[54.15,32.2],[54.8,31.87],[54.99,32.04],[54.97,32.67],[54.23,32.6]]],[[[55.73,31.48],[56.01,31.43],[56.46,30.92],[56.74,30.87],[56.92,31.03],[56.47,31.54],[56.19,31.6],[56.19,32.22],[55.91,32.28],[55.81,32.51],[55.53,32.56],[55.26,31.99],[55.73,31.48]]],[[[87.94,38.41],[87.96,38.66],[88.24,38.77],[88.5,38.64],[88.78,38.75],[88.81,39.0],[89.09,39.11],[89.35,38.98],[89.95,39.44],[90.75,39.28],[91.35,39.73],[92.14,39.56],[92.43,39.66],[92.47,39.9],[92.76,40.01],[93.0,39.86],[93.62,40.31],[93.67,40.55],[93.42,40.69],[92.59,40.64],[92.34,40.78],[92.38,41.03],[91.91,41.56],[91.95,41.8],[92.24,41.91],[93.05,41.72],[93.35,41.82],[93.4,42.06],[94.25,42.11],[94.3,42.35],[93.84,42.89],[92.97,42.84],[92.5,43.38],[91.62,43.33],[91.35,43.47],[90.7,43.02],[89.85,43.19],[88.97,43.12],[88.44,43.65],[87.8,43.17],[87.78,42.92],[88.06,42.78],[88.03,42.53],[87.73,42.42],[86.29,42.59],[85.67,42.1],[85.39,42.23],[82.15,42.11],[81.86,42.23],[81.27,41.71],[79.21,41.78],[78.65,41.25],[78.4,40.6],[76.96,40.4],[76.66,40.51],[76.13,39.96],[75.25,40.03],[74.74,39.48],[75.11,38.87],[75.4,38.76],[75.67,38.91],[76.29,38.45],[76.08,37.8],[76.37,37.69],[76.7,37.08],[76.99,36.98],[78.35,37.18],[78.63,37.07],[78.65,36.82],[79.47,36.74],[79.49,36.49],[79.76,36.37],[80.29,36.89],[81.12,36.05],[81.65,36.56],[83.0,36.47],[83.27,36.6],[83.27,36.84],[84.08,36.97],[84.08,37.22],[84.36,37.35],[85.16,37.22],[85.73,37.71],[85.99,37.59],[86.26,37.71],[86.57,38.32],[86.85,38.44],[87.12,38.31],[87.94,38.41]]],[[[55.53,25.53],[55.27,25.59],[55.11,25.43],[55.2,25.22],[55.61,25.32],[55.53,25.53]]],[[[14.04,35.91],[14.25,35.73],[14.56,35.79],[14.65,36.03],[14.44,36.21],[14.13,36.15],[14.04,35.91]]],[[[26.9,31.11],[27.68,30.96],[27.8,31.2],[27.62,31.4],[25.88,31.9],[25.76,31.66],[25.94,31.46],[26.24,31.49],[26.9,31.11]]],[[[-13.41,29.27],[-13.4,29.52],[-13.65,29.65],[-13.9,29.53],[-14.67,28.15],[-14.92,28.02],[-15.4,28.52],[-15.65,28.4],[-15.9,27.76],[-15.66,27.64],[-13.95,27.77],[-13.69,28.4],[-13.18,28.89],[-13.17,29.14],[-13.41,29.27]]],[[[51.5,23.94],[51.82,23.73],[52.54,24.09],[52.88,23.84],[54.64,24.39],[54.3,24.66],[53.34,24.3],[52.76,24.61],[52.0,24.32],[51.94,24.92],[51.62,25.14],[51.85,26.1],[51.5,26.36],[51.21,24.56],[51.54,24.34],[51.5,23.94]]],[[[56.36,25.15],[56.2,25.0],[56.28,24.79],[56.7,24.88],[56.7,25.46],[56.45,25.52],[56.28,25.36],[56.36,25.15]]],[[[17.07,31.54],[16.77,31.48],[16.68,31.24],[17.37,30.91],[17.66,30.96],[17.75,31.21],[17.56,31.4],[17.26,31.35],[17.07,31.54]]],[[[59.07,23.35],[58.68,23.83],[58.26,23.74],[58.97,23.0],[59.39,23.08],[59.07,23.35]]],[[[12.72,36.08],[12.63,35.84],[12.33,35.77],[12.25,35.53],[12.46,35.35],[13.14,35.72],[13.23,35.96],[13.02,36.14],[12.72,36.08]]],[[[43.71,32.55],[43.84,32.34],[44.12,32.33],[44.23,31.69],[44.51,31.68],[45.48,32.27],[46.14,32.03],[46.7,32.42],[45.79,33.1],[45.11,33.34],[44.13,32.75],[43.45,32.99],[43.3,32.78],[43.44,32.56],[43.71,32.55]]],[[[23.81,32.33],[23.51,32.3],[23.24,32.93],[22.94,32.9],[22.75,33.09],[22.45,33.05],[22.25,33.25],[21.95,33.21],[21.84,32.97],[22.53,32.62],[22.83,32.66],[23.1,32.02],[23.4,32.06],[24.08,31.69],[24.79,32.0],[25.05,31.36],[25.35,31.39],[25.46,31.63],[25.21,32.27],[24.42,32.41],[24.3,32.17],[24.0,32.13],[23.81,32.33]]],[[[34.7,25.51],[34.83,25.73],[34.67,25.94],[34.4,25.93],[34.27,25.7],[34.42,25.49],[34.7,25.51]]],[[[40.95,-1.92],[40.87,-2.15],[41.03,-2.34],[41.27,-2.3],[41.35,-2.08],[40.95,-1.92]]],[[[-16.64,28.38],[-17.39,28.5],[-17.65,29.13],[-17.9,29.25],[-18.39,28.73],[-18.38,28.47],[-17.63,28.37],[-17.63,28.11],[-17.38,27.99],[-17.14,28.12],[-16.64,27.63],[-15.9,28.52],[-15.9,28.77],[-16.14,28.9],[-16.39,28.77],[-16.39,28.51],[-16.64,28.38]]],[[[52.82,24.97],[53.22,25.07],[53.13,25.28],[52.88,25.33],[52.73,25.17],[52.82,24.97]]],[[[-16.65,32.96],[-16.92,33.09],[-17.18,32.96],[-17.17,32.7],[-16.91,32.58],[-16.65,32.71],[-16.65,32.96]]],[[[18.93,30.05],[19.22,30.09],[19.32,30.34],[19.12,30.53],[18.34,30.63],[18.25,30.38],[18.93,30.05]]],[[[-16.4,19.65],[-16.62,19.52],[-16.62,19.29],[-16.17,18.83],[-15.95,18.95],[-15.95,19.19],[-16.4,19.65]]],[[[35.72,24.47],[35.15,24.88],[35.28,25.1],[35.13,25.31],[34.85,25.3],[34.73,25.07],[34.88,24.86],[34.75,24.63],[35.32,24.23],[35.2,24.0],[35.39,22.93],[35.66,22.94],[35.79,23.17],[35.59,24.25],[35.72,24.47]]],[[[59.85,22.39],[60.02,22.54],[59.95,22.75],[59.53,22.66],[59.31,21.41],[59.72,21.49],[59.85,22.39]]],[[[44.3,33.8],[44.17,34.01],[43.89,34.03],[43.75,33.82],[43.87,33.18],[44.14,33.17],[44.71,33.57],[44.58,33.79],[44.3,33.8]]],[[[93.61,44.66],[92.76,44.87],[92.44,44.77],[92.4,44.52],[92.67,44.37],[93.56,44.42],[94.03,43.87],[94.91,43.91],[95.36,43.36],[95.66,43.45],[95.52,44.09],[95.27,44.24],[94.39,44.21],[94.13,44.36],[94.18,44.61],[93.92,44.76],[93.61,44.66]]],[[[-18.13,28.1],[-18.37,27.97],[-18.37,27.72],[-18.12,27.6],[-17.87,27.73],[-17.88,27.98],[-18.13,28.1]]],[[[4.41,39.93],[4.47,40.17],[4.25,40.32],[3.96,40.23],[3.73,40.38],[3.44,40.3],[3.38,40.06],[2.58,40.03],[2.19,39.47],[2.58,38.94],[2.86,39.03],[3.08,38.88],[3.71,39.29],[3.77,39.52],[4.57,39.54],[4.63,39.78],[4.41,39.93]]],[[[54.86,33.53],[54.85,34.16],[54.56,34.21],[53.91,33.91],[54.39,33.4],[54.68,33.35],[54.86,33.53]]],[[[2.02,38.76],[1.91,39.38],[1.68,39.53],[1.07,39.11],[1.02,38.87],[1.41,38.35],[2.02,38.76]]],[[[55.94,25.63],[56.11,25.79],[56.03,26.0],[55.77,26.06],[55.61,25.9],[55.94,25.63]]],[[[-16.18,17.42],[-15.74,17.9],[-15.73,18.14],[-16.17,18.59],[-16.4,18.47],[-16.4,18.23],[-16.18,18.12],[-16.4,17.53],[-16.18,17.42]]],[[[-16.63,23.15],[-16.63,22.91],[-16.4,22.79],[-16.16,22.92],[-15.45,24.28],[-15.69,24.4],[-15.92,24.27],[-15.92,24.03],[-16.63,23.15]]],[[[21.53,54.47],[20.89,54.59],[20.75,54.39],[21.0,54.23],[21.39,54.27],[21.53,54.47]]],[[[36.89,25.62],[36.73,26.27],[36.46,26.26],[36.35,25.6],[36.49,25.38],[36.77,25.4],[36.93,24.75],[37.2,24.77],[37.31,25.42],[37.17,25.63],[36.89,25.62]]],[[[-2.65,54.0],[-2.6,54.21],[-2.89,54.37],[-3.25,54.31],[-3.3,54.09],[-2.65,54.0]]],[[[58.86,20.24],[59.03,20.38],[58.96,20.58],[58.72,20.64],[58.16,20.42],[58.23,20.22],[58.86,20.24]]],[[[15.18,32.31],[15.2,31.64],[15.4,31.45],[15.7,31.51],[15.68,32.18],[15.47,32.37],[15.18,32.31]]],[[[36.64,21.92],[36.91,21.94],[37.03,22.16],[36.89,22.37],[36.22,22.55],[36.09,22.32],[36.64,21.92]]],[[[54.78,25.12],[54.62,24.96],[54.96,24.7],[55.12,24.86],[55.03,25.07],[54.78,25.12]]],[[[12.37,36.67],[12.46,36.91],[12.25,37.09],[11.94,37.02],[11.86,36.78],[12.07,36.61],[12.37,36.67]]],[[[43.48,34.25],[43.34,34.47],[43.06,34.48],[42.91,34.28],[43.05,34.06],[43.33,34.05],[43.48,34.25]]],[[[-16.18,16.73],[-15.96,16.85],[-15.96,17.08],[-16.4,17.07],[-16.61,16.48],[-16.18,16.5],[-16.18,16.73]]],[[[39.27,21.21],[39.4,21.43],[39.27,21.64],[39.01,21.62],[38.88,21.4],[39.02,21.2],[39.27,21.21]]],[[[-3.55,53.0],[-3.21,53.06],[-3.16,53.28],[-2.18,53.25],[-2.12,53.47],[-3.4,53.65],[-3.45,53.44],[-3.8,53.37],[-3.84,53.15],[-3.55,53.0]]],[[[35.99,27.33],[35.84,27.54],[35.56,27.53],[35.43,27.3],[35.58,27.09],[35.86,27.1],[35.99,27.33]]],[[[37.62,24.14],[38.17,23.73],[38.44,23.74],[38.56,23.96],[37.61,24.57],[37.34,24.56],[37.22,24.33],[37.36,24.12],[37.62,24.14]]],[[[-4.33,52.42],[-4.37,52.19],[-3.75,52.11],[-3.7,52.33],[-3.99,52.49],[-4.33,52.42]]],[[[57.19,24.19],[56.86,24.46],[56.45,24.37],[57.18,23.62],[58.01,23.8],[57.93,24.01],[57.27,23.98],[57.19,24.19]]],[[[39.26,22.06],[39.38,22.71],[38.85,23.11],[38.97,23.33],[38.84,23.54],[38.57,23.53],[38.46,22.88],[38.59,22.67],[38.86,22.68],[39.0,22.05],[39.26,22.06]]],[[[56.8,27.01],[56.71,27.22],[56.28,27.12],[56.63,26.85],[56.8,27.01]]],[[[-23.57,15.38],[-23.78,15.25],[-23.76,15.02],[-23.54,14.92],[-23.33,15.05],[-23.35,15.28],[-23.57,15.38]]],[[[37.34,20.89],[37.46,21.11],[37.32,21.32],[37.06,21.3],[36.94,21.08],[37.13,19.6],[37.38,19.62],[37.5,19.84],[37.34,20.89]]],[[[54.77,25.7],[54.93,25.85],[54.85,26.06],[54.59,26.12],[54.43,25.96],[54.77,25.7]]],[[[58.91,21.33],[58.74,21.19],[59.05,20.92],[59.22,21.06],[59.14,21.27],[58.91,21.33]]],[[[36.31,26.47],[36.44,26.69],[36.29,26.9],[36.01,26.89],[35.88,26.67],[36.03,26.45],[36.31,26.47]]],[[[36.81,27.8],[36.68,27.58],[36.82,27.36],[37.1,27.37],[37.23,27.6],[37.08,27.81],[36.81,27.8]]],[[[57.21,25.93],[57.39,26.08],[57.31,26.3],[57.05,26.36],[56.88,26.2],[57.21,25.93]]]]}}]}