{"type":"FeatureCollection","features":[{"type":"Feature","properties":{},"geometry":{"type":"MultiPolygon","coordinates":[[[[9.38,78.83],[9.72,78.62],[10.85,78.55],[11.15,78.33],[12.25,78.26],[12.52,78.04],[13.57,77.97],[13.81,77.75],[13.03,77.62],[13.27,77.4],[14.26,77.32],[14.48,77.11],[15.44,77.02],[15.63,76.81],[14.88,76.68],[15.08,76.47],[15.99,76.38],[16.73,76.5],[17.64,76.41],[18.41,76.53],[18.27,76.74],[17.34,76.84],[17.18,77.06],[17.98,77.18],[17.83,77.39],[18.66,77.51],[18.52,77.73],[19.38,77.85],[19.25,78.07],[20.15,78.19],[21.17,78.08],[21.26,77.86],[20.38,77.75],[20.49,77.53],[21.45,77.42],[21.53,77.2],[22.46,77.09],[23.32,77.19],[23.27,77.41],[24.16,77.52],[24.12,77.74],[25.05,77.84],[25.02,78.06],[24.04,78.18],[24.0,78.41],[22.97,78.52],[22.9,78.75],[21.83,78.86],[21.74,79.09],[20.62,79.2],[19.63,79.08],[19.76,78.86],[18.81,78.74],[18.96,78.51],[18.05,78.39],[18.21,78.17],[17.34,78.05],[16.3,78.14],[16.1,78.36],[16.98,78.49],[16.79,78.71],[15.68,78.8],[14.78,78.67],[13.66,78.75],[13.4,78.97],[12.23,79.05],[11.37,78.9],[10.2,78.98],[9.38,78.83]],[[15.65,77.8],[16.67,77.71],[16.85,77.49],[16.04,77.36],[15.05,77.45],[14.84,77.67],[15.65,77.8]]],[[[-21.97,72.31],[-21.89,72.55],[-21.23,72.64],[-21.15,72.87],[-20.47,72.96],[-20.38,73.2],[-19.69,73.28],[-19.58,73.52],[-20.17,73.66],[-20.06,73.89],[-19.35,73.98],[-19.23,74.21],[-18.49,74.29],[-18.36,74.52],[-17.61,74.6],[-17.46,74.83],[-16.7,74.9],[-16.53,75.13],[-17.15,75.28],[-16.98,75.51],[-17.62,75.67],[-18.43,75.59],[-19.09,75.74],[-18.95,75.97],[-18.13,76.05],[-17.97,76.28],[-18.66,76.43],[-18.5,76.66],[-17.64,76.73],[-17.47,76.96],[-18.18,77.12],[-18.01,77.35],[-17.1,77.42],[-16.91,77.64],[-17.66,77.8],[-17.47,78.03],[-18.25,78.18],[-18.07,78.41],[-18.88,78.57],[-19.87,78.49],[-20.02,78.26],[-20.99,78.18],[-21.83,78.33],[-21.71,78.56],[-20.72,78.64],[-20.58,78.87],[-19.55,78.95],[-19.38,79.17],[-20.28,79.33],[-21.33,79.25],[-21.46,79.02],[-22.49,78.93],[-22.59,78.7],[-23.58,78.62],[-23.67,78.38],[-24.63,78.29],[-24.69,78.06],[-23.82,77.92],[-22.89,78.01],[-22.05,77.87],[-22.16,77.64],[-23.07,77.55],[-23.9,77.69],[-24.8,77.59],[-24.86,77.36],[-24.04,77.22],[-24.1,76.99],[-23.32,76.85],[-23.39,76.62],[-24.23,76.52],[-24.29,76.29],[-25.11,76.19],[-25.15,75.96],[-24.41,75.82],[-23.61,75.92],[-22.88,75.78],[-22.08,75.87],[-21.38,75.72],[-21.48,75.49],[-20.8,75.35],[-20.9,75.11],[-21.67,75.03],[-21.76,74.79],[-21.11,74.65],[-21.2,74.42],[-21.94,74.33],[-22.59,74.47],[-23.32,74.37],[-23.38,74.14],[-24.09,74.04],[-24.76,74.17],[-25.47,74.07],[-25.5,73.83],[-26.2,73.73],[-26.22,73.49],[-26.9,73.38],[-26.91,73.14],[-26.26,73.02],[-26.29,72.78],[-25.66,72.65],[-25.69,72.41],[-26.33,72.3],[-26.35,72.07],[-25.75,71.94],[-25.12,72.05],[-24.53,71.91],[-24.57,71.68],[-25.19,71.57],[-25.77,71.7],[-26.39,71.59],[-26.99,71.72],[-26.97,71.95],[-27.59,72.08],[-28.21,71.96],[-28.21,71.72],[-27.6,71.6],[-27.6,71.36],[-28.2,71.24],[-28.81,71.36],[-29.4,71.24],[-29.38,71.0],[-29.97,70.88],[-29.94,70.64],[-30.51,70.51],[-30.48,70.27],[-29.89,70.16],[-29.33,70.28],[-28.76,70.17],[-28.75,69.93],[-28.18,69.81],[-27.62,69.93],[-27.07,69.81],[-27.08,69.57],[-26.54,69.45],[-26.56,69.21],[-27.1,69.09],[-27.63,69.21],[-28.17,69.09],[-28.72,69.21],[-29.26,69.08],[-29.24,68.84],[-29.77,68.72],[-30.31,68.83],[-30.84,68.7],[-31.39,68.81],[-31.91,68.68],[-32.47,68.78],[-32.52,69.02],[-33.1,69.13],[-33.62,68.99],[-33.55,68.75],[-34.06,68.61],[-34.0,68.37],[-33.43,68.26],[-33.38,68.02],[-33.87,67.88],[-34.43,67.98],[-34.91,67.84],[-34.84,67.59],[-35.32,67.45],[-35.24,67.21],[-35.71,67.06],[-36.26,67.15],[-36.73,67.0],[-37.28,67.09],[-37.74,66.93],[-38.3,67.02],[-38.75,66.86],[-39.32,66.94],[-39.76,66.78],[-40.33,66.86],[-40.77,66.69],[-41.34,66.77],[-41.78,66.6],[-41.64,66.36],[-42.07,66.19],[-41.93,65.95],[-42.34,65.78],[-42.21,65.54],[-42.62,65.36],[-43.17,65.43],[-43.57,65.26],[-43.42,65.02],[-43.82,64.84],[-43.67,64.6],[-43.13,64.54],[-42.99,64.3],[-43.38,64.12],[-43.24,63.88],[-43.62,63.71],[-44.14,63.77],[-44.52,63.59],[-44.37,63.35],[-44.74,63.17],[-45.26,63.23],[-45.41,63.46],[-45.94,63.52],[-46.1,63.76],[-45.73,63.94],[-45.9,64.18],[-46.44,64.23],[-46.61,64.47],[-46.23,64.65],[-46.41,64.89],[-46.96,64.94],[-47.15,65.18],[-46.76,65.37],[-46.95,65.6],[-47.52,65.66],[-47.71,65.89],[-48.3,65.94],[-48.5,66.18],[-48.11,66.37],[-47.52,66.32],[-47.12,66.5],[-47.31,66.74],[-47.91,66.79],[-48.12,67.03],[-47.71,67.21],[-47.92,67.45],[-47.5,67.63],[-47.71,67.87],[-47.29,68.06],[-47.5,68.29],[-48.14,68.34],[-48.36,68.58],[-49.02,68.63],[-49.25,68.86],[-48.82,69.05],[-49.06,69.29],[-49.73,69.33],[-49.98,69.57],[-49.54,69.75],[-49.8,69.99],[-50.5,70.03],[-50.76,70.26],[-50.32,70.45],[-50.58,70.69],[-51.31,70.73],[-51.6,70.96],[-51.14,71.15],[-51.43,71.38],[-52.19,71.42],[-52.49,71.65],[-52.03,71.84],[-52.34,72.07],[-53.13,72.11],[-53.59,71.91],[-54.37,71.94],[-54.71,72.17],[-54.26,72.36],[-54.6,72.59],[-54.13,72.79],[-54.49,73.01],[-55.32,73.04],[-55.69,73.26],[-55.22,73.46],[-55.6,73.68],[-55.11,73.88],[-55.5,74.1],[-55.0,74.3],[-55.39,74.52],[-56.31,74.54],[-56.73,74.76],[-56.22,74.96],[-56.65,75.18],[-57.6,75.2],[-58.1,75.0],[-57.65,74.78],[-58.14,74.58],[-57.71,74.36],[-56.8,74.34],[-56.39,74.12],[-56.87,73.93],[-56.47,73.7],[-56.94,73.5],[-56.54,73.28],[-57.0,73.08],[-56.62,72.86],[-57.06,72.66],[-56.68,72.44],[-55.87,72.42],[-55.51,72.19],[-55.95,71.99],[-55.6,71.77],[-56.03,71.57],[-55.69,71.34],[-54.92,71.32],[-54.59,71.09],[-55.02,70.89],[-54.7,70.66],[-55.11,70.46],[-54.8,70.24],[-55.21,70.04],[-54.89,69.81],[-55.29,69.61],[-54.98,69.38],[-54.29,69.35],[-53.99,69.12],[-54.39,68.92],[-54.1,68.69],[-54.49,68.49],[-54.2,68.26],[-54.58,68.06],[-54.3,67.83],[-54.67,67.63],[-54.39,67.4],[-54.76,67.19],[-54.49,66.97],[-53.86,66.94],[-53.59,66.71],[-53.95,66.51],[-53.7,66.28],[-54.05,66.07],[-53.8,65.84],[-54.14,65.64],[-53.89,65.41],[-53.3,65.38],[-53.06,65.15],[-53.4,64.95],[-53.16,64.72],[-52.59,64.69],[-52.36,64.46],[-52.7,64.25],[-52.47,64.02],[-51.91,63.99],[-51.7,63.76],[-52.03,63.56],[-51.82,63.33],[-51.27,63.29],[-51.07,63.06],[-51.4,62.86],[-51.19,62.63],[-50.66,62.59],[-50.47,62.36],[-50.79,62.16],[-50.6,61.93],[-50.08,61.89],[-49.9,61.66],[-49.39,61.62],[-49.21,61.39],[-49.53,61.19],[-49.35,60.96],[-48.86,60.92],[-48.69,60.69],[-48.2,60.64],[-48.04,60.41],[-47.55,60.37],[-47.23,60.56],[-46.75,60.51],[-46.6,60.28],[-46.12,60.23],[-45.98,59.99],[-45.51,59.94],[-45.37,59.71],[-44.91,59.65],[-44.58,59.84],[-44.12,59.78],[-43.99,59.55],[-43.54,59.49],[-43.21,59.67],[-42.76,59.61],[-42.42,59.79],[-42.54,60.02],[-42.99,60.08],[-43.12,60.32],[-42.77,60.5],[-42.31,60.44],[-41.96,60.61],[-42.08,60.85],[-42.55,60.91],[-42.67,61.15],[-42.32,61.32],[-41.84,61.26],[-41.49,61.43],[-41.6,61.67],[-41.24,61.84],[-41.35,62.08],[-41.83,62.15],[-41.95,62.38],[-41.58,62.56],[-41.7,62.8],[-41.33,62.97],[-40.83,62.9],[-40.45,63.07],[-40.56,63.31],[-40.17,63.47],[-40.28,63.71],[-39.89,63.88],[-39.99,64.12],[-39.59,64.28],[-39.7,64.52],[-40.22,64.6],[-40.34,64.84],[-39.92,65.01],[-39.4,64.93],[-38.98,65.09],[-39.09,65.33],[-38.66,65.49],[-38.13,65.41],[-37.7,65.57],[-37.18,65.48],[-36.74,65.64],[-36.22,65.55],[-35.78,65.7],[-35.86,65.94],[-35.41,66.09],[-34.89,66.0],[-34.43,66.15],[-34.5,66.39],[-34.04,66.53],[-33.52,66.44],[-33.05,66.58],[-32.53,66.48],[-32.06,66.61],[-32.11,66.85],[-32.63,66.96],[-32.68,67.2],[-32.19,67.34],[-32.24,67.58],[-31.74,67.71],[-31.78,67.95],[-31.28,68.09],[-30.74,67.98],[-30.24,68.11],[-29.71,68.0],[-29.2,68.13],[-28.68,68.01],[-28.16,68.13],[-28.17,68.37],[-27.64,68.49],[-27.13,68.38],[-26.6,68.49],[-26.09,68.37],[-25.56,68.48],[-25.54,68.72],[-25.0,68.83],[-24.97,69.07],[-24.42,69.18],[-23.92,69.05],[-23.37,69.16],[-23.32,69.39],[-22.76,69.5],[-22.7,69.73],[-22.13,69.83],[-22.07,70.07],[-21.49,70.16],[-21.41,70.4],[-20.82,70.49],[-20.74,70.72],[-21.26,70.86],[-21.18,71.1],[-20.57,71.19],[-20.48,71.42],[-21.02,71.57],[-20.93,71.8],[-21.48,71.94],[-21.4,72.17],[-21.97,72.31]],[[-52.77,69.72],[-53.18,69.52],[-53.88,69.55],[-54.18,69.78],[-53.77,69.98],[-53.06,69.95],[-52.77,69.72]],[[-53.31,69.09],[-52.9,69.29],[-52.21,69.26],[-51.94,69.03],[-52.35,68.83],[-53.03,68.86],[-53.31,69.09]]],[[[68.44,-49.37],[68.34,-49.6],[68.58,-49.75],[68.49,-49.98],[68.74,-50.13],[69.08,-50.06],[69.18,-49.83],[69.53,-49.76],[69.78,-49.91],[70.13,-49.83],[70.38,-49.98],[70.73,-49.9],[70.82,-49.67],[70.56,-49.52],[70.64,-49.29],[70.99,-49.21],[71.07,-48.98],[70.81,-48.84],[70.48,-48.92],[70.22,-48.77],[69.89,-48.85],[69.64,-48.7],[69.3,-48.77],[69.06,-48.62],[69.15,-48.4],[68.91,-48.25],[68.58,-48.32],[68.48,-48.55],[68.72,-48.7],[68.63,-48.92],[68.29,-48.99],[68.19,-49.22],[68.44,-49.37]]],[[[-176.95,0.66],[-176.85,0.45],[-176.65,0.42],[-176.54,0.6],[-176.64,0.8],[-176.84,0.83],[-176.95,0.66]]],[[[23.42,76.75],[23.47,76.54],[24.33,76.42],[25.16,76.52],[26.01,76.39],[26.86,76.48],[26.87,76.7],[26.01,76.83],[25.15,76.73],[24.27,76.86],[23.42,76.75]]],[[[-123.52,76.46],[-124.03,76.25],[-123.56,76.05],[-124.05,75.85],[-123.59,75.65],[-122.65,75.66],[-122.15,75.86],[-121.2,75.87],[-120.78,75.67],[-119.87,75.65],[-119.5,75.44],[-118.61,75.42],[-118.26,75.21],[-117.37,75.19],[-117.05,74.97],[-116.17,74.94],[-115.87,74.72],[-115.01,74.69],[-114.72,74.47],[-113.87,74.43],[-113.6,74.2],[-112.77,74.16],[-112.18,74.35],[-111.34,74.3],[-110.72,74.48],[-109.88,74.43],[-109.24,74.6],[-109.46,74.83],[-108.8,75.01],[-109.02,75.24],[-108.34,75.41],[-108.55,75.64],[-109.47,75.7],[-109.7,75.93],[-109.0,76.1],[-108.06,76.05],[-107.85,75.82],[-106.93,75.75],[-106.2,75.92],[-105.28,75.85],[-104.53,76.02],[-104.7,76.25],[-105.64,76.32],[-106.39,76.15],[-107.34,76.22],[-107.55,76.45],[-108.51,76.5],[-108.74,76.73],[-107.99,76.9],[-108.22,77.13],[-109.23,77.19],[-109.98,77.01],[-109.73,76.79],[-110.45,76.61],[-110.19,76.38],[-110.89,76.2],[-111.84,76.25],[-112.12,76.47],[-113.09,76.51],[-113.39,76.74],[-112.7,76.92],[-113.01,77.14],[-114.03,77.18],[-114.71,76.99],[-115.71,77.02],[-116.06,77.24],[-115.39,77.43],[-115.77,77.64],[-116.85,77.66],[-117.51,77.47],[-118.58,77.48],[-119.21,77.28],[-120.26,77.29],[-120.86,77.08],[-121.9,77.08],[-122.46,76.88],[-121.99,76.67],[-122.53,76.47],[-123.52,76.46]],[[-114.09,75.92],[-113.45,76.11],[-112.51,76.07],[-112.23,75.84],[-112.88,75.66],[-113.79,75.7],[-114.41,75.51],[-114.12,75.29],[-114.72,75.1],[-115.6,75.13],[-115.91,75.35],[-115.32,75.54],[-115.63,75.76],[-115.02,75.95],[-114.09,75.92]],[[-113.56,74.84],[-112.95,75.03],[-112.07,74.98],[-111.82,74.76],[-112.43,74.57],[-113.29,74.62],[-113.56,74.84]]],[[[-151.68,-80.16],[-151.63,-80.39],[-150.37,-80.48],[-150.29,-80.71],[-148.97,-80.8],[-148.84,-81.03],[-150.09,-81.17],[-151.45,-81.08],[-152.75,-81.22],[-152.72,-81.45],[-154.09,-81.58],[-154.1,-81.81],[-155.56,-81.94],[-155.61,-82.17],[-154.12,-82.28],[-154.13,-82.51],[-155.73,-82.64],[-155.79,-82.87],[-157.51,-82.99],[-157.64,-83.23],[-159.47,-83.34],[-159.68,-83.57],[-157.93,-83.7],[-156.02,-83.58],[-155.94,-83.34],[-154.16,-83.22],[-154.15,-82.98],[-152.49,-82.85],[-152.54,-82.62],[-150.99,-82.48],[-151.08,-82.25],[-152.62,-82.15],[-152.65,-81.91],[-151.24,-81.78],[-151.32,-81.55],[-149.99,-81.41],[-148.56,-81.49],[-147.28,-81.34],[-147.46,-81.11],[-146.26,-80.96],[-144.86,-81.03],[-143.71,-80.87],[-143.97,-80.64],[-142.89,-80.48],[-143.16,-80.25],[-142.13,-80.08],[-142.4,-79.86],[-143.66,-79.8],[-143.89,-79.57],[-145.09,-79.51],[-146.1,-79.66],[-147.3,-79.59],[-148.35,-79.74],[-149.53,-79.65],[-149.63,-79.43],[-150.76,-79.34],[-150.83,-79.11],[-151.91,-79.02],[-151.95,-78.8],[-153.0,-78.7],[-153.01,-78.48],[-154.02,-78.38],[-154.01,-78.16],[-154.98,-78.06],[-155.96,-78.18],[-156.91,-78.08],[-156.85,-77.86],[-157.75,-77.75],[-157.68,-77.53],[-156.73,-77.41],[-155.84,-77.52],[-154.91,-77.39],[-154.0,-77.49],[-154.0,-77.71],[-153.06,-77.81],[-152.13,-77.68],[-151.18,-77.77],[-151.12,-77.99],[-150.13,-78.07],[-149.21,-77.93],[-148.2,-78.01],[-147.31,-77.86],[-147.44,-77.64],[-146.58,-77.49],[-145.59,-77.56],[-144.76,-77.4],[-144.93,-77.18],[-144.13,-77.03],[-144.31,-76.81],[-145.25,-76.74],[-145.4,-76.53],[-144.63,-76.37],[-144.79,-76.15],[-144.06,-76.0],[-143.16,-76.05],[-142.45,-75.89],[-141.56,-75.94],[-140.87,-75.77],[-139.97,-75.82],[-139.31,-75.65],[-139.54,-75.44],[-138.9,-75.26],[-138.03,-75.3],[-137.77,-75.51],[-136.88,-75.55],[-136.26,-75.37],[-136.54,-75.16],[-135.94,-74.98],[-135.07,-75.0],[-134.78,-75.21],[-133.89,-75.23],[-133.32,-75.04],[-132.44,-75.06],[-131.9,-74.87],[-131.02,-74.88],[-130.67,-75.08],[-129.77,-75.09],[-129.26,-74.89],[-129.63,-74.69],[-130.5,-74.68],[-130.85,-74.48],[-131.7,-74.47],[-132.03,-74.27],[-132.87,-74.26],[-133.4,-74.45],[-133.09,-74.65],[-133.64,-74.84],[-134.5,-74.82],[-134.8,-74.61],[-135.64,-74.59],[-136.22,-74.77],[-137.07,-74.74],[-137.66,-74.92],[-138.52,-74.88],[-139.14,-75.05],[-139.99,-75.01],[-140.63,-75.18],[-140.42,-75.39],[-141.08,-75.56],[-141.95,-75.51],[-142.14,-75.3],[-143.0,-75.25],[-143.68,-75.41],[-143.51,-75.62],[-144.22,-75.78],[-145.09,-75.72],[-145.23,-75.5],[-146.07,-75.44],[-146.8,-75.59],[-146.68,-75.81],[-147.43,-75.95],[-148.29,-75.88],[-149.05,-76.03],[-148.97,-76.24],[-149.77,-76.38],[-149.7,-76.6],[-150.52,-76.74],[-150.46,-76.96],[-151.32,-77.1],[-152.23,-77.01],[-153.1,-77.14],[-154.0,-77.05],[-154.89,-77.17],[-155.77,-77.07],[-156.68,-77.19],[-157.54,-77.09],[-158.47,-77.2],[-158.55,-77.42],[-159.51,-77.53],[-159.62,-77.75],[-158.74,-77.86],[-158.83,-78.08],[-157.91,-78.19],[-157.99,-78.42],[-157.03,-78.52],[-157.1,-78.75],[-156.1,-78.85],[-156.15,-79.08],[-155.1,-79.18],[-154.03,-79.06],[-152.96,-79.16],[-152.94,-79.38],[-151.83,-79.48],[-151.78,-79.7],[-150.62,-79.8],[-150.54,-80.02],[-151.68,-80.16]]],[[[162.55,-66.32],[162.15,-66.46],[162.25,-66.69],[162.75,-66.78],[163.15,-66.64],[163.04,-66.41],[162.55,-66.32]]],[[[168.74,-52.77],[169.09,-52.86],[169.42,-52.72],[169.39,-52.49],[169.05,-52.4],[168.72,-52.54],[168.74,-52.77]]],[[[-80.79,-33.54],[-81.03,-33.67],[-81.0,-33.89],[-80.75,-33.97],[-80.51,-33.85],[-80.54,-33.63],[-80.79,-33.54]]],[[[165.78,55.12],[166.06,54.96],[165.92,54.74],[166.2,54.57],[166.61,54.62],[166.88,54.44],[167.29,54.49],[167.56,54.31],[167.97,54.36],[168.23,54.18],[168.64,54.22],[168.79,54.43],[168.53,54.61],[168.67,54.82],[168.41,55.0],[167.99,54.96],[167.72,55.13],[167.3,55.09],[167.03,55.26],[166.61,55.22],[166.34,55.39],[166.48,55.6],[166.21,55.77],[165.79,55.72],[165.64,55.51],[165.23,55.46],[165.09,55.24],[165.37,55.08],[165.78,55.12]]],[[[-99.94,-73.09],[-100.61,-72.96],[-101.35,-73.07],[-102.01,-72.93],[-101.92,-72.69],[-102.56,-72.56],[-103.29,-72.66],[-103.4,-72.9],[-102.76,-73.04],[-102.87,-73.28],[-102.2,-73.41],[-101.44,-73.31],[-100.76,-73.44],[-100.0,-73.33],[-99.31,-73.46],[-98.56,-73.34],[-97.85,-73.46],[-97.1,-73.34],[-96.38,-73.46],[-95.65,-73.33],[-95.65,-73.08],[-96.36,-72.97],[-97.08,-73.1],[-97.78,-72.97],[-98.51,-73.1],[-99.2,-72.97],[-99.94,-73.09]]],[[[-159.8,3.92],[-159.69,3.69],[-159.45,3.66],[-159.34,3.43],[-159.1,3.4],[-158.95,3.6],[-159.05,3.83],[-158.9,4.02],[-159.0,4.25],[-159.25,4.29],[-159.4,4.09],[-159.65,4.12],[-159.8,3.92]]],[[[178.82,-49.65],[178.5,-49.58],[178.23,-49.74],[178.29,-49.96],[178.61,-50.03],[178.88,-49.87],[179.2,-49.93],[179.46,-49.77],[179.41,-49.55],[179.09,-49.49],[178.82,-49.65]]],[[[-30.5,65.82],[-30.99,65.93],[-31.45,65.79],[-31.42,65.55],[-30.93,65.45],[-30.48,65.58],[-30.5,65.82]]],[[[152.22,46.65],[152.55,46.73],[152.62,46.97],[152.95,47.06],[153.02,47.3],[153.36,47.39],[153.43,47.62],[153.17,47.78],[153.24,48.01],[153.58,48.1],[153.65,48.34],[153.38,48.49],[153.04,48.4],[152.97,48.16],[152.63,48.08],[152.56,47.84],[152.23,47.75],[152.16,47.51],[151.83,47.42],[151.76,47.18],[151.43,47.09],[151.37,46.85],[151.63,46.71],[151.96,46.8],[152.22,46.65]]],[[[-114.29,-73.78],[-115.11,-73.84],[-115.41,-74.07],[-114.86,-74.24],[-115.15,-74.47],[-116.02,-74.52],[-116.57,-74.34],[-116.25,-74.12],[-116.78,-73.94],[-117.62,-73.99],[-117.95,-74.21],[-118.8,-74.25],[-119.16,-74.47],[-120.02,-74.51],[-120.4,-74.73],[-119.89,-74.91],[-119.0,-74.88],[-118.64,-74.66],[-117.76,-74.61],[-117.22,-74.79],[-116.34,-74.74],[-115.78,-74.92],[-114.89,-74.87],[-114.3,-75.04],[-113.41,-74.98],[-112.79,-75.15],[-111.9,-75.08],[-111.26,-75.25],[-110.36,-75.18],[-110.12,-74.94],[-110.76,-74.78],[-110.52,-74.55],[-111.14,-74.38],[-111.99,-74.45],[-112.25,-74.69],[-113.12,-74.75],[-113.72,-74.58],[-113.44,-74.35],[-114.01,-74.18],[-113.73,-73.95],[-114.29,-73.78]]],[[[-173.87,-3.79],[-173.96,-3.59],[-174.17,-3.55],[-174.29,-3.72],[-174.19,-3.92],[-173.98,-3.96],[-173.87,-3.79]]],[[[-8.22,71.53],[-8.44,71.32],[-9.06,71.27],[-9.28,71.05],[-9.89,71.0],[-10.09,70.78],[-9.69,70.62],[-9.09,70.67],[-8.88,70.89],[-8.27,70.94],[-7.88,70.77],[-7.28,70.82],[-7.05,71.03],[-7.43,71.2],[-7.2,71.41],[-7.59,71.58],[-8.22,71.53]]],[[[-155.89,-5.41],[-156.03,-5.59],[-155.94,-5.8],[-155.69,-5.83],[-155.55,-5.65],[-155.64,-5.44],[-155.89,-5.41]]],[[[164.35,-70.79],[164.96,-70.87],[165.42,-70.71],[165.27,-70.49],[164.67,-70.41],[164.21,-70.56],[163.62,-70.49],[163.15,-70.64],[163.27,-70.87],[163.88,-70.94],[164.35,-70.79]]],[[[-127.81,-74.29],[-128.28,-74.49],[-127.89,-74.69],[-128.38,-74.89],[-127.98,-75.09],[-127.08,-75.08],[-126.61,-74.88],[-125.72,-74.87],[-125.28,-75.06],[-124.38,-75.05],[-123.94,-74.83],[-124.39,-74.64],[-125.27,-74.66],[-125.69,-74.47],[-126.56,-74.48],[-126.96,-74.28],[-127.81,-74.29]]],[[[-172.42,60.14],[-171.95,60.11],[-171.64,60.29],[-171.78,60.5],[-172.26,60.54],[-172.41,60.75],[-172.89,60.78],[-173.05,60.99],[-173.53,61.02],[-173.85,60.84],[-173.68,60.63],[-173.21,60.6],[-173.05,60.39],[-173.36,60.2],[-173.83,60.23],[-174.13,60.05],[-173.97,59.84],[-173.5,59.81],[-173.2,59.99],[-172.73,59.96],[-172.42,60.14]]],[[[-155.78,55.64],[-155.45,55.76],[-155.46,55.96],[-155.81,56.04],[-156.14,55.91],[-156.12,55.71],[-155.78,55.64]]],[[[-115.07,77.83],[-113.99,77.8],[-113.65,77.58],[-112.6,77.55],[-112.3,77.33],[-111.27,77.28],[-110.52,77.46],[-109.49,77.41],[-108.71,77.59],[-108.96,77.81],[-110.03,77.86],[-110.81,77.69],[-111.86,77.73],[-112.17,77.95],[-111.4,78.13],[-111.71,78.35],[-110.91,78.53],[-111.23,78.75],[-112.4,78.79],[-113.2,78.6],[-112.84,78.39],[-113.61,78.2],[-114.73,78.23],[-115.46,78.04],[-115.07,77.83]]],[[[161.6,70.6],[162.13,70.42],[162.87,70.48],[163.1,70.72],[162.57,70.91],[161.81,70.85],[161.26,71.03],[160.5,70.96],[159.94,71.14],[159.18,71.07],[158.6,71.24],[157.84,71.16],[157.25,71.33],[156.49,71.25],[155.88,71.41],[155.13,71.33],[155.0,71.07],[155.6,70.91],[156.35,71.0],[156.94,70.83],[157.68,70.91],[158.26,70.74],[159.0,70.82],[159.56,70.64],[159.38,70.39],[159.93,70.22],[159.75,69.97],[160.28,69.79],[160.1,69.55],[160.62,69.37],[161.32,69.43],[161.51,69.68],[160.99,69.86],[161.19,70.11],[160.66,70.29],[160.85,70.53],[161.6,70.6]]],[[[48.69,68.53],[49.3,68.53],[49.66,68.72],[50.28,68.72],[50.65,68.91],[50.4,69.1],[50.78,69.29],[50.52,69.48],[49.89,69.48],[49.62,69.67],[48.98,69.67],[48.61,69.48],[47.98,69.47],[47.62,69.28],[47.9,69.1],[47.54,68.91],[47.81,68.72],[48.43,68.72],[48.69,68.53]]],[[[133.9,71.76],[133.74,72.01],[132.95,72.09],[132.33,71.92],[132.51,71.67],[133.28,71.59],[133.44,71.34],[134.2,71.25],[134.81,71.42],[134.67,71.67],[133.9,71.76]]],[[[-120.73,-73.53],[-121.55,-73.56],[-121.92,-73.77],[-122.75,-73.8],[-123.18,-73.61],[-124.0,-73.64],[-124.41,-73.45],[-125.22,-73.46],[-125.62,-73.27],[-126.42,-73.29],[-126.79,-73.09],[-127.58,-73.1],[-128.01,-73.3],[-127.65,-73.5],[-128.1,-73.7],[-127.73,-73.89],[-126.9,-73.88],[-126.51,-74.08],[-125.67,-74.07],[-125.25,-74.26],[-124.4,-74.24],[-123.96,-74.43],[-123.1,-74.41],[-122.64,-74.6],[-123.06,-74.81],[-122.58,-75.0],[-121.69,-74.98],[-121.28,-74.76],[-121.77,-74.57],[-121.38,-74.36],[-120.52,-74.33],[-120.15,-74.11],[-119.3,-74.07],[-118.96,-73.85],[-119.44,-73.67],[-120.27,-73.71],[-120.73,-73.53]]],[[[37.35,-47.14],[38.15,-47.17],[38.26,-47.0],[38.06,-46.87],[38.16,-46.7],[37.97,-46.58],[37.66,-46.62],[37.56,-46.8],[37.25,-46.84],[37.15,-47.02],[37.35,-47.14]]],[[[-72.29,-71.38],[-71.83,-71.18],[-72.13,-70.95],[-72.89,-70.93],[-73.36,-71.13],[-73.06,-71.36],[-72.29,-71.38]]],[[[-61.69,-69.22],[-62.08,-69.02],[-62.78,-69.03],[-63.16,-68.82],[-62.84,-68.6],[-63.21,-68.39],[-63.89,-68.4],[-64.24,-68.19],[-63.92,-67.97],[-64.27,-67.76],[-63.95,-67.54],[-64.29,-67.33],[-63.99,-67.11],[-63.34,-67.1],[-63.05,-66.87],[-62.41,-66.86],[-62.12,-66.63],[-61.49,-66.61],[-61.22,-66.38],[-60.6,-66.36],[-60.33,-66.13],[-60.69,-65.93],[-60.43,-65.71],[-60.77,-65.51],[-61.38,-65.53],[-61.71,-65.33],[-61.45,-65.11],[-60.86,-65.08],[-60.52,-65.28],[-59.92,-65.25],[-59.57,-65.45],[-58.98,-65.42],[-58.74,-65.19],[-59.09,-64.99],[-59.68,-65.03],[-60.02,-64.83],[-59.78,-64.6],[-59.2,-64.57],[-58.86,-64.77],[-58.27,-64.73],[-57.92,-64.92],[-57.33,-64.89],[-57.11,-64.66],[-56.54,-64.61],[-56.33,-64.38],[-56.69,-64.19],[-56.48,-63.96],[-55.92,-63.92],[-55.72,-63.69],[-55.17,-63.64],[-54.98,-63.41],[-54.43,-63.36],[-54.25,-63.12],[-54.61,-62.94],[-55.15,-62.99],[-55.5,-62.81],[-56.04,-62.85],[-56.38,-62.67],[-56.92,-62.71],[-57.12,-62.94],[-57.66,-62.98],[-57.87,-63.21],[-58.42,-63.24],[-58.75,-63.05],[-59.29,-63.09],[-59.51,-63.31],[-60.06,-63.34],[-60.3,-63.56],[-60.85,-63.59],[-61.17,-63.39],[-61.72,-63.42],[-62.02,-63.22],[-61.78,-63.0],[-61.24,-62.98],[-60.93,-63.17],[-60.38,-63.15],[-60.15,-62.92],[-59.61,-62.89],[-59.39,-62.67],[-58.85,-62.64],[-58.64,-62.41],[-58.11,-62.38],[-57.91,-62.15],[-57.38,-62.11],[-57.19,-61.89],[-57.51,-61.7],[-58.02,-61.74],[-58.23,-61.96],[-58.75,-62.0],[-58.96,-62.22],[-59.49,-62.25],[-59.8,-62.06],[-60.32,-62.09],[-60.55,-62.31],[-61.07,-62.34],[-61.31,-62.56],[-61.84,-62.58],[-62.08,-62.8],[-62.62,-62.82],[-62.87,-63.04],[-62.57,-63.24],[-62.82,-63.46],[-62.52,-63.66],[-62.78,-63.88],[-63.34,-63.9],[-63.6,-64.11],[-64.17,-64.13],[-64.45,-64.35],[-64.15,-64.55],[-64.43,-64.77],[-64.12,-64.97],[-64.41,-65.19],[-64.1,-65.4],[-64.39,-65.62],[-64.99,-65.63],[-65.29,-65.42],[-65.0,-65.2],[-65.3,-64.99],[-65.88,-65.0],[-66.18,-65.22],[-65.89,-65.43],[-66.19,-65.64],[-66.79,-65.64],[-67.11,-65.86],[-66.82,-66.07],[-67.14,-66.28],[-67.75,-66.28],[-68.08,-66.49],[-68.7,-66.49],[-69.05,-66.7],[-68.76,-66.91],[-69.11,-67.12],[-69.75,-67.11],[-70.11,-67.32],[-69.83,-67.54],[-69.18,-67.55],[-68.89,-67.77],[-68.23,-67.78],[-67.92,-67.99],[-68.28,-68.21],[-67.97,-68.43],[-67.29,-68.43],[-66.97,-68.65],[-66.28,-68.65],[-65.94,-68.86],[-65.25,-68.86],[-64.89,-69.07],[-64.19,-69.06],[-63.82,-69.27],[-63.11,-69.26],[-62.72,-69.47],[-63.06,-69.69],[-62.66,-69.91],[-63.0,-70.13],[-62.6,-70.34],[-62.94,-70.57],[-62.53,-70.78],[-62.88,-71.01],[-62.46,-71.22],[-61.67,-71.2],[-61.33,-70.97],[-61.76,-70.76],[-61.43,-70.53],[-61.85,-70.32],[-61.52,-70.1],[-61.93,-69.89],[-61.61,-69.66],[-62.01,-69.45],[-61.69,-69.22]],[[-64.02,-66.68],[-64.32,-66.9],[-64.96,-66.91],[-65.27,-67.13],[-65.91,-67.13],[-66.23,-66.92],[-65.91,-66.7],[-65.28,-66.7],[-64.97,-66.48],[-65.28,-66.27],[-64.98,-66.05],[-64.36,-66.04],[-64.07,-65.82],[-63.46,-65.81],[-63.14,-66.02],[-63.42,-66.24],[-64.04,-66.25],[-64.34,-66.47],[-64.02,-66.68]],[[-66.27,-68.21],[-66.94,-68.21],[-67.26,-68.0],[-66.91,-67.78],[-67.23,-67.57],[-66.89,-67.35],[-66.24,-67.35],[-65.92,-67.56],[-66.25,-67.78],[-65.93,-68.0],[-66.27,-68.21]],[[-62.58,-65.57],[-63.18,-65.59],[-63.5,-65.38],[-63.22,-65.16],[-62.63,-65.15],[-62.31,-65.35],[-62.58,-65.57]]],[[[-85.24,72.83],[-84.45,72.93],[-84.32,73.17],[-85.0,73.32],[-85.81,73.22],[-86.5,73.37],[-87.3,73.27],[-87.39,73.02],[-86.7,72.88],[-85.92,72.98],[-85.24,72.83]]],[[[-27.79,-56.32],[-27.74,-56.55],[-27.33,-56.64],[-27.28,-56.87],[-26.86,-56.96],[-26.8,-57.19],[-26.38,-57.28],[-26.03,-57.14],[-26.09,-56.91],[-26.51,-56.82],[-26.57,-56.59],[-26.98,-56.5],[-27.04,-56.27],[-27.44,-56.18],[-27.79,-56.32]]],[[[-170.55,64.13],[-170.92,63.95],[-171.46,63.99],[-171.83,63.8],[-172.36,63.84],[-172.72,63.65],[-172.55,63.43],[-172.02,63.4],[-171.85,63.18],[-171.33,63.14],[-170.97,63.32],[-170.45,63.28],[-170.3,63.06],[-170.66,62.88],[-170.5,62.66],[-170.0,62.62],[-169.64,62.79],[-169.13,62.75],[-168.76,62.92],[-168.9,63.15],[-168.53,63.32],[-168.66,63.54],[-169.18,63.59],[-169.33,63.81],[-169.86,63.86],[-170.01,64.08],[-170.55,64.13]]],[[[-77.84,73.57],[-78.05,73.34],[-77.43,73.17],[-77.64,72.93],[-78.47,72.86],[-78.66,72.62],[-79.47,72.55],[-80.09,72.71],[-79.91,72.95],[-80.55,73.12],[-81.37,73.04],[-81.53,72.8],[-80.9,72.64],[-81.06,72.39],[-80.44,72.23],[-79.65,72.31],[-79.05,72.14],[-78.26,72.21],[-78.06,72.45],[-77.25,72.52],[-76.66,72.34],[-75.85,72.4],[-75.62,72.64],[-76.21,72.82],[-75.98,73.05],[-76.59,73.23],[-76.36,73.47],[-76.98,73.64],[-77.84,73.57]]],[[[172.62,53.32],[172.22,53.29],[172.06,53.08],[172.31,52.89],[172.15,52.68],[172.4,52.49],[172.8,52.52],[173.04,52.33],[173.44,52.35],[173.68,52.16],[174.07,52.18],[174.24,52.4],[174.63,52.42],[174.8,52.63],[174.56,52.82],[174.16,52.8],[173.92,52.99],[173.52,52.97],[173.27,53.16],[172.87,53.13],[172.62,53.32]]],[[[-174.31,-4.65],[-174.36,-4.45],[-174.57,-4.41],[-174.73,-4.57],[-174.68,-4.77],[-174.47,-4.8],[-174.31,-4.65]]],[[[-140.7,-8.08],[-140.62,-8.29],[-140.39,-8.31],[-140.23,-8.13],[-140.31,-7.93],[-140.54,-7.91],[-140.62,-7.7],[-140.85,-7.68],[-141.01,-7.86],[-140.93,-8.06],[-140.7,-8.08]]],[[[168.75,-72.69],[168.96,-72.91],[168.49,-73.08],[168.7,-73.3],[169.4,-73.35],[169.87,-73.18],[169.65,-72.97],[170.1,-72.8],[169.88,-72.58],[169.21,-72.53],[169.01,-72.31],[168.35,-72.25],[167.89,-72.41],[168.08,-72.63],[168.75,-72.69]]],[[[169.48,-71.54],[169.68,-71.76],[169.25,-71.92],[169.45,-72.14],[170.11,-72.2],[170.54,-72.03],[171.19,-72.08],[171.6,-71.92],[171.37,-71.7],[170.74,-71.65],[170.53,-71.43],[169.9,-71.38],[169.48,-71.54]]],[[[-107.93,74.95],[-107.73,74.72],[-106.87,74.65],[-106.19,74.82],[-106.37,75.06],[-107.25,75.12],[-107.93,74.95]]],[[[-57.94,-52.35],[-57.79,-52.15],[-58.02,-51.99],[-57.88,-51.79],[-57.51,-51.75],[-57.37,-51.55],[-57.6,-51.39],[-57.46,-51.19],[-57.68,-51.03],[-58.05,-51.06],[-58.19,-51.26],[-58.56,-51.3],[-58.78,-51.14],[-59.14,-51.17],[-59.36,-51.01],[-59.72,-51.04],[-59.94,-50.88],[-60.3,-50.91],[-60.45,-51.1],[-60.82,-51.13],[-61.03,-50.96],[-61.39,-50.99],[-61.55,-51.18],[-61.34,-51.35],[-61.51,-51.54],[-61.88,-51.57],[-62.04,-51.76],[-61.84,-51.93],[-61.46,-51.91],[-61.25,-52.08],[-61.42,-52.27],[-61.2,-52.44],[-60.82,-52.42],[-60.6,-52.59],[-60.22,-52.56],[-60.0,-52.73],[-59.62,-52.69],[-59.39,-52.86],[-59.55,-53.06],[-59.32,-53.23],[-58.93,-53.2],[-58.77,-53.0],[-59.0,-52.83],[-58.85,-52.63],[-58.47,-52.59],[-58.32,-52.39],[-57.94,-52.35]]],[[[-42.38,-53.52],[-42.43,-53.74],[-42.1,-53.88],[-41.73,-53.79],[-41.68,-53.57],[-42.0,-53.43],[-42.38,-53.52]]],[[[159.35,-69.42],[158.79,-69.32],[158.3,-69.46],[158.37,-69.69],[158.94,-69.79],[159.43,-69.65],[159.35,-69.42]]],[[[165.42,-74.04],[165.96,-73.89],[165.78,-73.66],[165.07,-73.59],[164.53,-73.75],[164.7,-73.98],[165.42,-74.04]]],[[[-100.14,-73.81],[-100.84,-73.68],[-101.62,-73.79],[-102.3,-73.66],[-103.09,-73.76],[-103.21,-74.0],[-102.51,-74.14],[-101.71,-74.03],[-101.0,-74.17],[-100.21,-74.06],[-100.14,-73.81]]],[[[-93.32,72.59],[-92.59,72.71],[-92.57,72.96],[-93.3,73.08],[-94.04,72.95],[-94.04,72.7],[-93.32,72.59]]],[[[-171.42,-4.39],[-171.32,-4.6],[-171.1,-4.64],[-170.99,-4.47],[-171.08,-4.26],[-171.3,-4.23],[-171.42,-4.39]]],[[[-10.07,-40.43],[-9.74,-40.47],[-9.53,-40.27],[-9.66,-40.03],[-9.99,-40.0],[-10.2,-40.2],[-10.07,-40.43]]],[[[-130.63,-23.62],[-130.87,-23.62],[-130.97,-23.83],[-130.83,-24.03],[-130.6,-24.02],[-130.5,-23.81],[-130.63,-23.62]]],[[[57.25,73.8],[56.82,73.61],[57.2,73.4],[58.01,73.38],[58.45,73.56],[58.08,73.77],[58.54,73.96],[59.37,73.93],[59.85,74.11],[59.48,74.33],[58.62,74.36],[58.15,74.17],[57.3,74.2],[56.86,74.01],[57.25,73.8]]],[[[-157.17,55.93],[-156.82,55.86],[-156.49,55.99],[-156.51,56.19],[-156.86,56.26],[-157.2,56.13],[-157.17,55.93]]],[[[166.29,-51.17],[166.28,-50.94],[166.6,-50.8],[166.59,-50.57],[166.91,-50.43],[166.9,-50.2],[166.57,-50.1],[166.25,-50.23],[166.26,-50.47],[165.94,-50.6],[165.6,-50.5],[165.28,-50.63],[165.28,-50.86],[165.62,-50.97],[165.63,-51.2],[165.96,-51.3],[166.29,-51.17]]],[[[136.07,71.74],[136.19,71.49],[136.94,71.4],[137.58,71.55],[137.47,71.81],[136.71,71.9],[136.07,71.74]]],[[[-23.12,79.77],[-24.2,79.68],[-24.28,79.45],[-23.31,79.31],[-22.26,79.39],[-22.14,79.62],[-23.12,79.77]]],[[[-171.07,56.89],[-170.66,56.85],[-170.37,57.02],[-169.96,56.99],[-169.66,57.16],[-169.78,57.36],[-170.2,57.4],[-170.32,57.6],[-170.75,57.64],[-171.04,57.47],[-170.91,57.26],[-171.2,57.09],[-171.07,56.89]]],[[[147.02,-68.65],[147.53,-68.78],[148.09,-68.68],[148.61,-68.81],[149.16,-68.7],[149.69,-68.83],[150.23,-68.72],[150.76,-68.84],[150.74,-69.08],[151.28,-69.21],[151.83,-69.09],[151.83,-68.85],[151.3,-68.73],[151.31,-68.49],[150.79,-68.37],[150.25,-68.48],[149.74,-68.35],[149.2,-68.46],[148.68,-68.33],[148.13,-68.44],[147.63,-68.3],[147.07,-68.4],[147.02,-68.65]]],[[[50.09,-45.94],[50.0,-46.14],[50.22,-46.31],[50.13,-46.51],[50.34,-46.68],[50.64,-46.66],[50.73,-46.46],[50.52,-46.29],[50.61,-46.09],[50.4,-45.92],[50.09,-45.94]]],[[[-161.19,-78.74],[-162.29,-78.83],[-163.21,-78.71],[-164.32,-78.8],[-164.55,-79.02],[-163.62,-79.15],[-162.47,-79.06],[-161.51,-79.18],[-161.68,-79.4],[-162.86,-79.5],[-163.07,-79.72],[-162.04,-79.85],[-160.83,-79.75],[-159.77,-79.87],[-158.57,-79.76],[-158.47,-79.54],[-159.5,-79.42],[-159.38,-79.2],[-160.37,-79.08],[-160.24,-78.86],[-161.19,-78.74]]],[[[-124.96,-24.49],[-125.04,-24.7],[-124.88,-24.86],[-124.63,-24.8],[-124.55,-24.59],[-124.71,-24.44],[-124.96,-24.49]]],[[[-25.69,-58.31],[-26.12,-58.22],[-26.49,-58.36],[-26.43,-58.59],[-25.98,-58.69],[-25.61,-58.54],[-25.69,-58.31]]],[[[167.24,-70.92],[167.07,-70.69],[166.47,-70.63],[166.02,-70.78],[166.18,-71.01],[166.8,-71.07],[167.24,-70.92]]],[[[180.0,52.34],[179.62,52.34],[179.44,52.14],[179.05,52.14],[178.83,52.34],[178.44,52.33],[178.26,52.13],[177.87,52.12],[177.64,52.32],[177.25,52.31],[177.08,52.1],[176.68,52.09],[176.52,51.88],[176.74,51.68],[177.13,51.69],[177.36,51.5],[177.75,51.5],[177.92,51.71],[178.31,51.72],[178.53,51.52],[178.92,51.53],[179.13,51.32],[179.52,51.33],[179.69,51.53],[180.0,51.53],[180.0,52.34]]],[[[-180.0,51.53],[-179.74,51.74],[-179.95,51.94],[-179.77,52.14],[-179.99,52.35],[-180.0,51.53]]],[[[-99.15,-72.73],[-98.43,-72.61],[-97.75,-72.73],[-97.04,-72.61],[-96.35,-72.73],[-95.64,-72.6],[-95.64,-72.35],[-96.32,-72.24],[-96.31,-72.0],[-96.98,-71.88],[-97.66,-72.0],[-98.31,-71.88],[-99.0,-72.0],[-99.64,-71.88],[-100.33,-71.99],[-100.96,-71.86],[-101.66,-71.97],[-101.74,-72.21],[-101.11,-72.34],[-100.4,-72.23],[-99.75,-72.36],[-99.81,-72.6],[-99.15,-72.73]]],[[[-155.19,-79.87],[-155.22,-80.09],[-154.05,-80.2],[-152.88,-80.07],[-152.9,-79.84],[-154.04,-79.74],[-155.19,-79.87]]],[[[-160.23,-0.28],[-160.13,-0.5],[-159.89,-0.53],[-159.74,-0.34],[-159.84,-0.12],[-160.09,-0.09],[-160.23,-0.28]]],[[[133.66,-66.21],[133.48,-66.45],[133.88,-66.63],[134.47,-66.57],[134.89,-66.75],[135.48,-66.69],[135.64,-66.45],[135.23,-66.28],[134.65,-66.33],[134.24,-66.15],[133.66,-66.21]]],[[[-68.18,-70.16],[-68.52,-69.94],[-68.13,-69.72],[-67.41,-69.73],[-67.03,-69.51],[-66.31,-69.51],[-65.95,-69.29],[-66.3,-69.08],[-67.0,-69.08],[-67.37,-69.29],[-68.07,-69.29],[-68.4,-69.07],[-69.1,-69.06],[-69.4,-68.84],[-70.09,-68.83],[-70.39,-68.61],[-71.06,-68.59],[-71.46,-68.8],[-72.15,-68.78],[-72.56,-68.98],[-72.28,-69.2],[-72.7,-69.41],[-73.4,-69.38],[-73.84,-69.58],[-73.57,-69.81],[-72.86,-69.84],[-72.57,-70.06],[-71.85,-70.09],[-71.55,-70.31],[-71.99,-70.52],[-71.68,-70.75],[-70.93,-70.77],[-70.61,-70.99],[-69.84,-71.01],[-69.42,-70.8],[-68.65,-70.81],[-68.24,-70.59],[-67.49,-70.6],[-67.09,-70.38],[-67.45,-70.16],[-68.18,-70.16]],[[-70.39,-70.12],[-70.7,-69.9],[-71.42,-69.88],[-71.71,-69.66],[-71.3,-69.45],[-71.59,-69.23],[-71.18,-69.02],[-70.49,-69.04],[-70.19,-69.26],[-70.59,-69.47],[-70.29,-69.69],[-69.57,-69.71],[-69.25,-69.93],[-69.66,-70.14],[-70.39,-70.12]]],[[[-17.78,80.21],[-19.11,80.17],[-20.1,80.32],[-21.43,80.27],[-21.73,80.06],[-20.75,79.91],[-19.46,79.96],[-18.53,79.81],[-17.24,79.85],[-16.85,80.05],[-17.78,80.21]]],[[[-157.35,2.09],[-157.6,2.13],[-157.75,1.93],[-157.65,1.7],[-157.4,1.67],[-157.3,1.44],[-157.05,1.41],[-156.9,1.6],[-157.0,1.83],[-157.25,1.87],[-157.35,2.09]]],[[[77.87,-37.5],[77.61,-37.37],[77.33,-37.47],[77.3,-37.72],[77.56,-37.85],[77.53,-38.09],[77.79,-38.23],[78.07,-38.12],[78.1,-37.88],[77.84,-37.74],[77.87,-37.5]]],[[[72.13,-5.49],[72.32,-5.63],[72.55,-5.55],[72.58,-5.32],[72.39,-5.18],[72.16,-5.26],[71.97,-5.12],[71.74,-5.21],[71.55,-5.07],[71.32,-5.16],[71.29,-5.39],[71.48,-5.53],[71.71,-5.44],[71.9,-5.58],[72.13,-5.49]]],[[[71.54,-6.59],[71.77,-6.5],[71.8,-6.27],[71.61,-6.13],[71.64,-5.9],[71.45,-5.76],[71.22,-5.85],[71.19,-6.08],[70.96,-6.16],[70.93,-6.39],[71.12,-6.54],[71.09,-6.77],[71.28,-6.91],[71.51,-6.82],[71.54,-6.59]]],[[[154.14,70.73],[154.26,70.98],[153.64,71.14],[152.91,71.04],[152.27,71.19],[152.37,71.45],[151.72,71.6],[150.97,71.5],[150.9,71.24],[151.54,71.09],[151.46,70.84],[152.09,70.68],[152.81,70.79],[153.42,70.63],[154.14,70.73]]],[[[83.71,71.51],[84.36,71.63],[84.36,71.87],[83.69,72.0],[83.02,71.88],[82.34,72.0],[81.69,71.88],[81.73,71.64],[82.4,71.52],[82.43,71.28],[81.8,71.16],[81.83,70.92],[82.48,70.8],[82.5,70.56],[83.13,70.44],[83.74,70.55],[83.74,70.79],[84.36,70.9],[84.36,71.14],[83.72,71.27],[83.71,71.51]]],[[[-86.67,-73.54],[-86.0,-73.38],[-86.14,-73.14],[-86.93,-73.05],[-87.59,-73.21],[-88.37,-73.13],[-88.48,-72.88],[-89.24,-72.79],[-89.9,-72.94],[-90.66,-72.85],[-90.73,-72.6],[-91.46,-72.5],[-92.13,-72.65],[-92.08,-72.89],[-91.34,-72.99],[-91.27,-73.24],[-90.51,-73.34],[-89.82,-73.19],[-89.05,-73.28],[-88.95,-73.53],[-88.15,-73.62],[-87.47,-73.46],[-86.67,-73.54]]],[[[-21.53,81.04],[-21.19,81.25],[-22.34,81.4],[-23.83,81.33],[-24.11,81.12],[-22.96,80.98],[-21.53,81.04]]],[[[-172.3,-4.62],[-172.09,-4.66],[-171.97,-4.49],[-172.07,-4.29],[-172.28,-4.25],[-172.4,-4.42],[-172.3,-4.62]]],[[[-105.21,-26.3],[-105.46,-26.39],[-105.48,-26.61],[-105.26,-26.75],[-105.01,-26.66],[-104.99,-26.43],[-105.21,-26.3]]],[[[164.63,-67.7],[165.02,-67.56],[164.9,-67.33],[164.38,-67.25],[163.99,-67.4],[164.1,-67.63],[164.63,-67.7]]],[[[146.19,-67.64],[145.71,-67.5],[145.16,-67.59],[145.09,-67.84],[145.57,-67.98],[146.13,-67.88],[146.19,-67.64]]],[[[-12.98,-37.58],[-12.66,-37.62],[-12.45,-37.43],[-12.13,-37.47],[-11.92,-37.27],[-12.04,-37.03],[-12.35,-36.99],[-12.56,-37.19],[-12.88,-37.14],[-13.09,-37.34],[-12.98,-37.58]]],[[[180.0,71.66],[179.49,71.67],[179.05,71.45],[178.26,71.46],[177.85,71.24],[178.22,71.02],[177.81,70.81],[178.17,70.59],[178.93,70.58],[179.34,70.8],[180.0,70.79],[180.0,71.66]]],[[[-180.0,70.79],[-179.57,70.56],[-178.82,70.55],[-178.39,70.75],[-177.63,70.73],[-177.18,70.94],[-177.49,71.17],[-177.03,71.37],[-177.34,71.6],[-178.13,71.62],[-178.46,71.85],[-179.27,71.87],[-179.72,71.66],[-180.0,71.66],[-180.0,70.79]],[[-178.71,70.98],[-179.47,71.0],[-179.81,71.22],[-179.37,71.43],[-178.59,71.41],[-178.26,71.19],[-178.71,70.98]]],[[[15.7,79.82],[14.72,79.68],[13.48,79.76],[12.53,79.62],[11.28,79.7],[10.38,79.55],[10.72,79.34],[11.93,79.26],[12.83,79.41],[14.03,79.32],[14.29,79.11],[15.45,79.02],[16.38,79.15],[16.17,79.37],[17.14,79.5],[16.93,79.72],[15.7,79.82]]],[[[-89.0,72.56],[-89.69,72.69],[-90.44,72.58],[-90.48,72.33],[-89.8,72.2],[-89.06,72.31],[-89.0,72.56]]],[[[-24.31,60.4],[-23.95,60.28],[-23.57,60.4],[-23.53,60.63],[-23.89,60.74],[-24.28,60.63],[-24.31,60.4]]],[[[-81.55,65.89],[-81.08,65.72],[-80.48,65.8],[-80.35,66.05],[-80.83,66.22],[-81.43,66.14],[-81.55,65.89]]],[[[-103.77,74.84],[-103.05,75.0],[-103.18,75.24],[-104.06,75.31],[-104.21,75.55],[-105.11,75.62],[-105.84,75.46],[-105.67,75.22],[-104.79,75.15],[-104.63,74.92],[-103.77,74.84]]],[[[166.3,-73.5],[167.01,-73.56],[167.51,-73.4],[167.31,-73.18],[166.62,-73.12],[166.12,-73.28],[166.3,-73.5]]],[[[143.38,-68.12],[143.87,-68.27],[144.44,-68.17],[144.52,-67.93],[144.04,-67.78],[143.47,-67.88],[143.38,-68.12]]],[[[-14.58,81.64],[-15.11,81.43],[-14.09,81.26],[-12.55,81.29],[-11.97,81.49],[-12.97,81.67],[-14.58,81.64]]],[[[-100.44,-74.79],[-99.68,-74.92],[-99.75,-75.17],[-100.6,-75.28],[-101.37,-75.14],[-102.23,-75.25],[-102.34,-75.49],[-101.57,-75.63],[-100.69,-75.52],[-99.89,-75.66],[-99.02,-75.54],[-98.96,-75.3],[-98.12,-75.18],[-98.08,-74.93],[-98.85,-74.81],[-98.8,-74.56],[-99.55,-74.43],[-100.36,-74.55],[-100.44,-74.79]]],[[[-16.01,80.45],[-15.57,80.66],[-14.14,80.69],[-13.64,80.89],[-14.6,81.06],[-16.09,81.03],[-16.54,80.82],[-17.97,80.78],[-18.37,80.58],[-17.39,80.42],[-16.01,80.45]]],[[[129.43,71.03],[130.19,70.97],[130.38,70.72],[131.13,70.65],[131.69,70.82],[131.51,71.07],[130.75,71.14],[130.56,71.39],[129.78,71.46],[129.22,71.28],[129.43,71.03]]],[[[156.68,-69.39],[156.63,-69.16],[156.08,-69.05],[155.58,-69.18],[155.62,-69.42],[156.17,-69.52],[156.68,-69.39]]],[[[153.91,-68.37],[153.4,-68.49],[153.41,-68.73],[152.89,-68.85],[152.9,-69.09],[153.44,-69.21],[153.97,-69.08],[153.95,-68.85],[154.46,-68.72],[154.44,-68.48],[153.91,-68.37]]],[[[-75.63,-71.03],[-75.37,-71.26],[-74.6,-71.3],[-74.12,-71.1],[-74.4,-70.87],[-73.93,-70.67],[-74.2,-70.44],[-73.75,-70.24],[-74.02,-70.01],[-74.73,-69.98],[-74.99,-69.75],[-75.69,-69.71],[-76.16,-69.91],[-75.91,-70.14],[-75.2,-70.17],[-74.94,-70.41],[-75.41,-70.6],[-76.14,-70.56],[-76.63,-70.76],[-76.38,-70.99],[-75.63,-71.03]]],[[[-109.33,-26.88],[-109.59,-26.97],[-109.63,-27.19],[-109.41,-27.34],[-109.16,-27.25],[-109.12,-27.03],[-109.33,-26.88]]],[[[-25.89,-57.61],[-26.32,-57.52],[-26.68,-57.66],[-26.62,-57.89],[-26.19,-57.98],[-25.83,-57.84],[-25.89,-57.61]]],[[[176.46,52.28],[176.62,52.49],[176.4,52.69],[176.0,52.67],[175.83,52.47],[176.06,52.27],[176.46,52.28]]],[[[-54.26,-61.2],[-54.6,-61.02],[-55.1,-61.07],[-55.43,-60.89],[-55.93,-60.94],[-56.11,-61.16],[-55.78,-61.35],[-55.27,-61.3],[-54.94,-61.48],[-54.43,-61.43],[-54.09,-61.61],[-53.58,-61.55],[-53.41,-61.32],[-53.76,-61.15],[-54.26,-61.2]]],[[[24.87,79.41],[23.75,79.53],[22.68,79.42],[22.76,79.2],[23.85,79.08],[24.9,79.18],[24.87,79.41]]],[[[-46.62,-60.61],[-46.73,-60.85],[-46.34,-61.01],[-45.86,-60.93],[-45.47,-61.08],[-44.98,-61.0],[-44.58,-61.15],[-44.1,-61.06],[-44.02,-60.82],[-44.42,-60.67],[-44.33,-60.43],[-44.72,-60.28],[-45.19,-60.37],[-45.58,-60.22],[-46.05,-60.3],[-46.14,-60.53],[-46.62,-60.61]]],[[[166.84,19.54],[166.67,19.72],[166.41,19.68],[166.33,19.45],[166.5,19.27],[166.76,19.31],[166.84,19.54]]],[[[73.89,-53.28],[74.26,-53.19],[74.34,-52.95],[74.04,-52.8],[73.66,-52.89],[73.37,-52.74],[72.99,-52.82],[72.91,-53.06],[73.21,-53.21],[73.13,-53.45],[73.43,-53.61],[73.81,-53.52],[73.89,-53.28]]],[[[130.15,71.89],[129.94,72.14],[129.13,72.2],[128.55,72.02],[128.78,71.77],[129.57,71.71],[130.15,71.89]]],[[[-38.58,-54.04],[-38.61,-54.27],[-38.26,-54.39],[-37.89,-54.29],[-37.55,-54.41],[-37.57,-54.64],[-37.21,-54.76],[-36.84,-54.65],[-36.49,-54.77],[-36.5,-55.0],[-36.14,-55.12],[-35.77,-55.01],[-35.76,-54.78],[-35.39,-54.67],[-35.39,-54.44],[-35.75,-54.33],[-35.74,-54.1],[-36.09,-53.99],[-36.45,-54.09],[-36.8,-53.98],[-36.78,-53.75],[-37.13,-53.63],[-37.49,-53.74],[-37.83,-53.62],[-38.19,-53.72],[-38.21,-53.94],[-38.58,-54.04]]],[[[144.29,-67.06],[143.74,-67.15],[143.65,-67.39],[144.12,-67.54],[144.68,-67.45],[144.76,-67.21],[144.29,-67.06]]],[[[-13.75,57.61],[-13.37,57.69],[-13.35,57.91],[-13.72,58.04],[-14.1,57.95],[-14.11,57.73],[-13.75,57.61]]],[[[161.07,-70.99],[161.68,-71.08],[162.18,-70.93],[162.06,-70.7],[161.46,-70.62],[161.36,-70.39],[160.77,-70.3],[160.27,-70.44],[160.37,-70.67],[160.97,-70.76],[161.07,-70.99]]],[[[-26.22,-59.3],[-26.29,-59.07],[-26.74,-58.97],[-27.12,-59.12],[-27.06,-59.35],[-27.45,-59.5],[-27.39,-59.73],[-26.93,-59.83],[-26.54,-59.68],[-26.61,-59.45],[-26.22,-59.3]]],[[[153.61,24.17],[153.8,24.0],[154.05,24.07],[154.11,24.3],[153.91,24.47],[153.66,24.41],[153.61,24.17]]],[[[52.18,-46.53],[52.49,-46.5],[52.57,-46.3],[52.35,-46.13],[52.05,-46.16],[51.96,-46.36],[51.65,-46.39],[51.56,-46.59],[51.78,-46.76],[52.09,-46.73],[52.18,-46.53]]],[[[-156.88,-81.59],[-155.46,-81.47],[-155.42,-81.24],[-156.71,-81.13],[-158.08,-81.25],[-158.2,-81.48],[-156.88,-81.59]]],[[[-176.36,-0.19],[-176.25,-0.02],[-176.35,0.19],[-176.55,0.22],[-176.66,0.05],[-176.56,-0.16],[-176.36,-0.19]]],[[[-128.1,-24.53],[-128.0,-24.32],[-128.14,-24.13],[-128.37,-24.14],[-128.46,-24.34],[-128.33,-24.54],[-128.1,-24.53]]],[[[17.87,74.81],[18.0,74.6],[18.78,74.5],[18.89,74.3],[19.64,74.2],[20.31,74.3],[20.22,74.51],[19.45,74.61],[19.35,74.82],[18.55,74.92],[17.87,74.81]]],[[[60.11,74.91],[59.6,74.73],[59.98,74.51],[60.84,74.47],[61.36,74.66],[61.0,74.88],[60.11,74.91]]],[[[-130.13,-25.43],[-130.02,-25.22],[-130.16,-25.02],[-130.4,-25.03],[-130.5,-25.24],[-130.37,-25.44],[-130.13,-25.43]]],[[[-155.05,-3.69],[-155.29,-3.66],[-155.44,-3.84],[-155.34,-4.06],[-155.1,-4.09],[-155.01,-4.31],[-154.76,-4.35],[-154.61,-4.16],[-154.71,-3.94],[-154.95,-3.91],[-155.05,-3.69]]],[[[-103.98,-75.45],[-103.84,-75.21],[-104.57,-75.06],[-105.44,-75.16],[-105.61,-75.4],[-104.88,-75.55],[-103.98,-75.45]]],[[[72.3,-7.39],[72.27,-7.63],[72.46,-7.77],[72.69,-7.68],[72.72,-7.45],[72.53,-7.3],[72.56,-7.07],[72.36,-6.93],[72.13,-7.02],[72.1,-7.25],[72.3,-7.39]]],[[[140.39,71.65],[140.32,71.9],[139.57,72.01],[139.48,72.27],[138.71,72.37],[138.03,72.22],[138.13,71.96],[138.89,71.86],[138.98,71.6],[139.72,71.5],[140.39,71.65]]],[[[-17.11,81.19],[-16.65,81.4],[-17.74,81.56],[-19.3,81.51],[-19.7,81.3],[-18.6,81.15],[-17.11,81.19]]],[[[3.48,-54.29],[3.07,-54.3],[2.87,-54.5],[3.06,-54.69],[3.47,-54.68],[3.67,-54.48],[3.48,-54.29]]],[[[-75.28,72.23],[-75.51,71.99],[-74.95,71.81],[-75.18,71.57],[-74.63,71.39],[-73.86,71.44],[-73.61,71.68],[-74.16,71.86],[-73.91,72.1],[-74.47,72.28],[-75.28,72.23]]],[[[158.61,-54.53],[158.59,-54.75],[158.94,-54.87],[159.31,-54.76],[159.33,-54.54],[158.98,-54.42],[158.61,-54.53]]],[[[-34.67,-55.13],[-34.3,-55.01],[-34.31,-54.78],[-34.67,-54.67],[-35.03,-54.79],[-35.04,-55.01],[-34.67,-55.13]]],[[[63.31,68.13],[62.7,68.18],[62.24,68.02],[62.4,67.81],[63.01,67.76],[63.46,67.92],[63.31,68.13]]],[[[166.17,-48.33],[166.49,-48.43],[166.8,-48.3],[166.79,-48.06],[166.47,-47.95],[166.16,-48.09],[166.17,-48.33]]],[[[-84.29,71.8],[-85.03,71.71],[-85.67,71.85],[-85.57,72.1],[-84.81,72.2],[-84.69,72.44],[-85.35,72.59],[-86.12,72.49],[-86.22,72.25],[-86.97,72.14],[-87.06,71.9],[-86.41,71.75],[-86.51,71.51],[-85.87,71.36],[-85.14,71.46],[-84.52,71.31],[-83.78,71.4],[-83.66,71.65],[-84.29,71.8]]],[[[-160.74,-81.24],[-161.95,-81.11],[-163.38,-81.2],[-163.64,-81.43],[-162.41,-81.56],[-160.93,-81.46],[-160.74,-81.24]]],[[[-171.26,-3.47],[-171.04,-3.51],[-170.94,-3.71],[-170.72,-3.75],[-170.6,-3.58],[-170.7,-3.37],[-170.92,-3.33],[-171.02,-3.12],[-171.24,-3.09],[-171.36,-3.26],[-171.26,-3.47]]],[[[-62.38,-71.66],[-62.75,-71.88],[-62.31,-72.1],[-61.48,-72.08],[-61.13,-71.85],[-61.58,-71.64],[-62.38,-71.66]]],[[[-169.61,56.38],[-169.32,56.54],[-169.43,56.75],[-169.84,56.78],[-170.13,56.62],[-170.01,56.41],[-169.61,56.38]]],[[[20.23,79.87],[19.17,79.75],[19.33,79.53],[20.5,79.42],[21.53,79.54],[21.43,79.76],[20.23,79.87]]],[[[-33.15,64.75],[-33.2,64.99],[-33.69,65.09],[-34.13,64.94],[-34.07,64.7],[-33.59,64.61],[-33.15,64.75]]],[[[-144.46,-27.96],[-144.18,-27.98],[-144.03,-27.76],[-144.16,-27.54],[-144.44,-27.53],[-144.59,-27.74],[-144.46,-27.96]]],[[[-171.68,-3.02],[-171.56,-2.85],[-171.66,-2.64],[-171.87,-2.6],[-171.99,-2.78],[-171.89,-2.98],[-171.68,-3.02]]],[[[-108.96,10.13],[-109.0,10.37],[-109.23,10.46],[-109.44,10.31],[-109.4,10.07],[-109.16,9.98],[-108.96,10.13]]]]}}]}