{"type":"FeatureCollection","features":[{"type":"Feature","properties":{},"geometry":{"type":"MultiPolygon","coordinates":[[[[180.0,69.38],[176.65,70.15],[174.81,69.92],[172.11,70.52],[169.99,70.01],[168.06,70.14],[166.79,69.63],[163.16,70.05],[161.51,69.68],[160.66,70.29],[160.85,70.53],[162.87,70.48],[163.1,70.72],[162.57,70.91],[155.88,71.41],[152.91,71.04],[151.72,71.6],[150.31,71.64],[151.22,72.26],[150.52,72.41],[148.29,72.33],[146.87,72.86],[142.32,72.84],[142.28,73.1],[144.58,73.25],[144.57,73.51],[141.98,74.65],[144.5,74.8],[144.49,75.06],[145.36,75.19],[147.04,74.66],[150.41,74.61],[151.4,74.98],[147.2,75.95],[144.45,75.83],[142.53,76.33],[134.25,75.97],[137.74,74.67],[140.3,74.61],[140.38,74.36],[139.6,74.21],[140.53,73.84],[140.61,73.59],[139.86,73.44],[140.81,72.82],[138.61,72.63],[138.71,72.37],[137.47,71.81],[134.67,71.67],[132.95,72.09],[131.54,71.99],[130.56,71.39],[129.57,71.71],[130.94,72.74],[130.73,72.99],[127.38,73.93],[123.73,74.12],[122.24,73.96],[121.49,73.32],[117.63,74.09],[113.95,73.68],[113.49,73.9],[113.93,74.12],[113.46,74.34],[113.92,74.56],[113.43,74.78],[113.9,75.0],[113.4,75.22],[110.55,74.75],[106.76,74.66],[105.93,75.3],[103.35,74.74],[100.86,74.83],[100.2,75.02],[100.47,75.26],[102.69,75.6],[103.01,75.84],[102.33,76.03],[102.66,76.27],[104.05,76.56],[101.54,76.89],[103.34,77.42],[105.2,77.27],[104.8,77.04],[105.5,76.84],[105.11,76.6],[107.49,76.23],[110.53,76.74],[108.14,77.14],[108.6,77.37],[107.92,77.58],[104.12,77.9],[108.17,78.25],[105.41,78.62],[105.87,78.85],[105.05,79.05],[105.53,79.29],[98.08,80.11],[97.75,79.87],[99.38,79.27],[99.04,79.02],[95.34,78.8],[98.4,78.53],[98.1,78.29],[99.51,77.69],[102.95,77.86],[100.01,77.26],[99.71,77.02],[100.47,76.84],[100.18,76.59],[97.87,76.22],[97.1,76.4],[97.34,76.64],[98.64,76.95],[94.9,77.15],[91.3,75.9],[88.66,75.85],[87.65,75.25],[85.16,75.17],[84.34,74.56],[82.0,74.44],[81.35,73.83],[79.16,73.68],[79.24,73.44],[77.99,72.93],[75.45,73.72],[74.8,73.57],[74.94,73.33],[72.92,73.13],[70.15,73.84],[69.2,73.29],[69.41,73.06],[68.85,72.9],[69.07,72.67],[68.53,72.51],[68.74,72.28],[68.22,72.12],[68.43,71.9],[66.69,71.64],[66.92,71.42],[66.44,71.25],[66.67,71.03],[65.74,70.1],[66.61,69.82],[66.82,69.6],[66.38,69.44],[61.83,69.82],[59.66,70.54],[57.92,70.43],[57.66,71.02],[56.62,71.26],[56.99,71.44],[55.56,71.87],[55.95,72.45],[57.11,72.61],[56.78,73.22],[59.85,74.11],[59.48,74.33],[59.98,74.51],[61.36,74.66],[61.0,74.88],[61.53,75.06],[62.99,75.19],[62.64,75.42],[63.22,75.6],[69.56,76.05],[69.3,76.28],[70.01,76.45],[69.74,76.69],[70.48,76.85],[70.22,77.09],[68.45,76.99],[68.74,76.76],[68.03,76.59],[66.71,76.88],[67.41,77.06],[67.09,77.29],[66.03,77.35],[65.0,76.77],[58.59,76.19],[59.99,75.94],[63.71,76.41],[65.04,76.13],[61.91,75.87],[61.16,75.28],[58.81,75.16],[58.23,74.57],[56.94,74.81],[57.42,75.0],[56.99,75.22],[58.91,75.57],[58.49,75.79],[54.7,75.46],[54.25,75.27],[54.72,75.06],[54.28,74.87],[54.75,74.26],[53.49,74.08],[53.1,73.88],[53.54,73.68],[51.99,73.3],[52.49,72.71],[51.39,72.52],[51.06,72.33],[51.48,72.14],[50.12,71.75],[51.25,71.56],[51.73,70.98],[54.87,70.35],[56.56,70.49],[59.48,69.77],[59.76,69.56],[56.92,68.75],[54.59,69.22],[47.65,67.96],[46.53,68.32],[46.86,68.52],[46.59,68.7],[43.28,68.81],[42.97,68.61],[43.86,68.45],[44.11,67.89],[42.37,67.06],[41.24,67.39],[41.51,67.98],[41.21,68.15],[38.88,68.4],[38.51,68.94],[37.02,69.03],[36.48,69.55],[35.2,69.26],[33.24,69.83],[32.89,70.37],[31.23,70.58],[30.79,71.12],[28.49,71.65],[24.19,72.1],[23.03,71.71],[21.19,71.83],[20.12,71.43],[16.71,71.21],[15.92,70.6],[14.34,70.46],[14.13,69.97],[12.62,69.82],[11.49,68.63],[12.33,68.19],[10.94,66.93],[10.01,65.37],[5.86,63.76],[6.07,63.42],[5.46,63.05],[5.66,62.71],[4.76,62.49],[4.97,62.14],[4.11,61.2],[4.53,60.5],[2.99,60.38],[-1.61,57.79],[-3.0,58.0],[-2.5,58.46],[-2.76,58.81],[-0.58,59.85],[-0.76,60.4],[-0.3,60.64],[-0.88,61.14],[-2.67,60.37],[-1.68,59.92],[-2.2,59.47],[-4.48,59.36],[-3.53,58.71],[-4.97,58.89],[-7.67,58.44],[-7.36,58.09],[-7.78,57.81],[-7.52,57.25],[-8.34,56.67],[-7.3,56.46],[-6.76,55.52],[-8.5,55.59],[-9.29,54.99],[-9.02,54.41],[-10.75,54.44],[-10.44,54.08],[-10.84,53.54],[-10.21,53.03],[-10.95,52.4],[-10.67,51.8],[-14.8,47.76],[-15.75,47.67],[-16.38,46.95],[-17.33,47.09],[-18.88,46.24],[-19.83,46.36],[-20.43,45.85],[-23.25,45.9],[-23.82,45.37],[-24.77,45.45],[-26.2,44.49],[-28.37,44.44],[-28.89,43.89],[-31.25,43.39],[-31.69,42.58],[-33.33,41.85],[-33.88,40.37],[-34.7,40.12],[-34.89,39.7],[-34.46,39.12],[-34.71,38.96],[-34.35,38.62],[-34.31,37.2],[-32.91,35.84],[-30.85,35.19],[-30.15,34.24],[-29.32,34.2],[-28.96,33.59],[-28.15,33.54],[-27.79,32.92],[-25.31,32.23],[-22.57,30.86],[-21.8,31.03],[-21.26,30.54],[-20.23,30.58],[-19.68,29.58],[-18.15,29.12],[-18.37,27.72],[-17.86,27.22],[-17.63,28.11],[-17.13,27.62],[-16.15,28.14],[-15.66,27.64],[-13.95,27.77],[-13.18,28.89],[-13.4,29.52],[-12.66,29.64],[-12.11,30.63],[-10.08,31.32],[-9.94,29.94],[-10.48,29.21],[-11.21,29.11],[-11.74,28.37],[-12.46,28.51],[-13.45,28.02],[-13.71,27.65],[-13.49,27.02],[-14.21,26.9],[-15.2,25.4],[-14.97,24.78],[-15.68,24.65],[-17.32,22.03],[-17.08,21.43],[-17.54,20.69],[-16.85,20.59],[-16.85,19.64],[-16.17,18.83],[-16.18,17.89],[-16.62,17.41],[-16.4,16.83],[-16.83,16.12],[-19.61,14.5],[-20.21,13.45],[-20.15,11.9],[-18.63,9.74],[-16.6,8.82],[-15.81,7.43],[-15.23,7.37],[-14.81,6.57],[-12.57,6.14],[-12.21,5.78],[-10.53,5.97],[-9.81,5.63],[-9.5,4.9],[-7.79,4.08],[-5.22,5.13],[-4.92,4.78],[-4.0,5.16],[-2.83,4.68],[-2.43,4.94],[-2.15,4.46],[1.02,5.64],[3.44,5.17],[4.08,4.54],[4.27,3.47],[3.87,3.04],[3.91,1.55],[5.02,-0.18],[5.55,-0.3],[5.68,-0.86],[8.24,-1.9],[9.49,-4.18],[10.43,-4.48],[10.58,-5.09],[11.9,-5.56],[11.96,-6.4],[13.3,-8.38],[12.5,-9.1],[13.45,-10.52],[13.58,-12.23],[12.85,-12.29],[12.77,-12.95],[12.07,-13.43],[12.27,-14.49],[11.48,-15.61],[11.7,-17.09],[11.24,-17.54],[13.05,-20.23],[12.97,-20.87],[14.39,-22.52],[13.91,-22.96],[14.5,-23.78],[14.01,-24.22],[14.57,-24.62],[14.64,-26.9],[15.2,-27.3],[15.13,-27.92],[16.12,-28.51],[15.74,-28.72],[14.9,-28.33],[14.26,-27.11],[13.58,-26.92],[12.56,-25.49],[9.93,-24.27],[9.77,-23.66],[9.15,-23.85],[7.98,-23.22],[7.84,-22.6],[6.04,-21.72],[5.91,-21.1],[4.52,-20.01],[3.66,-18.55],[3.68,-16.57],[4.17,-16.22],[4.19,-14.68],[3.72,-13.89],[3.13,-13.65],[3.03,-13.07],[1.64,-12.19],[1.04,-12.32],[-1.14,-11.16],[-3.5,-10.88],[-5.1,-11.25],[-12.38,-9.88],[-15.96,-10.83],[-16.5,-10.55],[-18.86,-11.02],[-19.33,-10.66],[-21.03,-11.22],[-21.51,-10.86],[-22.46,-11.22],[-22.95,-10.84],[-24.33,-11.3],[-24.82,-10.92],[-28.31,-11.84],[-29.24,-11.54],[-29.43,-10.57],[-28.12,-9.4],[-27.75,-7.93],[-27.02,-7.27],[-28.68,-5.32],[-28.72,-3.92],[-29.28,-3.26],[-30.91,-2.67],[-31.52,-2.91],[-32.04,-2.49],[-32.66,-2.73],[-33.89,-2.05],[-34.52,-2.29],[-35.47,-1.94],[-35.8,-1.35],[-36.48,-1.34],[-37.05,-0.66],[-38.84,-0.71],[-40.09,-0.02],[-40.73,-0.26],[-42.41,0.36],[-44.37,-0.1],[-45.61,0.59],[-46.68,0.28],[-49.76,1.41],[-50.86,2.75],[-50.87,4.14],[-51.41,4.79],[-52.07,4.79],[-52.64,5.68],[-54.24,6.24],[-54.85,6.0],[-55.33,6.39],[-56.97,6.06],[-57.52,6.92],[-58.4,7.22],[-58.28,7.84],[-58.9,7.83],[-59.43,8.66],[-60.04,8.64],[-61.05,10.04],[-60.23,11.26],[-61.49,11.65],[-60.59,13.66],[-60.86,14.15],[-60.3,14.4],[-59.42,16.58],[-59.7,17.04],[-59.38,17.55],[-59.87,18.07],[-59.75,18.62],[-60.45,19.17],[-60.43,20.3],[-61.36,21.06],[-61.25,21.58],[-61.69,21.86],[-61.68,24.37],[-60.87,25.51],[-60.81,26.61],[-59.91,26.84],[-59.76,27.38],[-58.08,28.26],[-57.88,29.2],[-55.35,29.98],[-55.15,30.55],[-54.51,30.64],[-53.89,31.36],[-53.86,32.38],[-55.18,33.2],[-55.58,34.07],[-55.32,35.06],[-55.79,35.53],[-55.58,36.11],[-54.72,36.42],[-54.71,37.45],[-53.66,37.95],[-54.14,38.42],[-53.77,39.83],[-54.66,40.54],[-58.59,40.54],[-61.34,39.27],[-61.91,38.48],[-61.88,37.74],[-60.82,36.51],[-62.1,36.25],[-63.87,36.84],[-64.52,37.53],[-68.33,37.13],[-68.58,37.67],[-68.06,38.11],[-68.38,39.04],[-67.84,39.49],[-67.9,39.87],[-66.66,40.01],[-66.59,40.6],[-65.25,41.32],[-64.43,41.19],[-63.51,41.65],[-62.84,41.3],[-60.62,41.43],[-59.67,41.86],[-58.51,43.67],[-58.01,43.88],[-57.99,44.28],[-57.15,44.49],[-56.94,45.1],[-57.6,45.5],[-57.58,45.9],[-60.02,46.68],[-60.02,47.09],[-58.94,47.53],[-56.42,47.55],[-56.83,46.72],[-55.97,46.52],[-54.89,46.91],[-53.41,46.27],[-52.66,46.65],[-52.73,47.27],[-51.96,47.64],[-53.48,49.36],[-53.42,49.77],[-54.91,49.81],[-56.18,50.47],[-54.81,50.65],[-55.54,51.09],[-54.71,51.5],[-54.66,51.92],[-55.4,52.37],[-55.25,53.65],[-56.89,54.11],[-57.05,54.76],[-59.42,55.42],[-59.64,56.07],[-60.32,56.29],[-60.1,56.95],[-61.04,57.38],[-60.83,58.04],[-62.29,58.45],[-62.59,59.11],[-63.35,59.31],[-63.17,59.98],[-64.25,60.39],[-64.02,60.62],[-64.31,60.83],[-65.57,60.56],[-65.79,60.33],[-65.49,60.12],[-66.42,59.63],[-66.13,59.42],[-66.33,59.18],[-67.52,58.89],[-69.56,59.87],[-67.33,60.25],[-67.12,60.48],[-67.43,60.69],[-68.79,60.83],[-69.25,61.47],[-70.5,61.15],[-70.84,61.35],[-70.66,61.59],[-71.89,61.94],[-71.71,62.18],[-72.07,62.38],[-73.53,62.47],[-74.11,63.1],[-75.38,62.73],[-76.72,63.04],[-75.86,63.6],[-76.26,63.78],[-76.1,64.03],[-73.59,63.83],[-73.2,63.64],[-73.38,63.39],[-72.07,63.06],[-72.25,62.82],[-71.89,62.62],[-64.37,61.28],[-64.2,61.95],[-64.51,62.16],[-63.47,62.64],[-64.65,63.05],[-63.59,63.52],[-63.97,64.18],[-63.71,64.41],[-64.96,64.81],[-62.3,65.1],[-62.06,65.76],[-61.15,65.99],[-61.47,66.2],[-60.23,66.65],[-61.53,67.08],[-61.22,67.3],[-61.56,67.52],[-65.34,68.12],[-65.84,68.76],[-66.95,68.94],[-65.66,69.42],[-67.23,69.81],[-66.94,70.04],[-67.38,70.24],[-67.08,70.47],[-68.76,70.84],[-68.46,71.07],[-68.94,71.27],[-71.0,71.39],[-71.76,72.01],[-74.47,72.28],[-74.22,72.52],[-74.8,72.7],[-74.55,72.93],[-75.14,73.11],[-74.89,73.35],[-76.98,73.64],[-76.75,73.88],[-77.39,74.05],[-78.27,73.98],[-78.48,73.74],[-77.43,73.17],[-78.47,72.86],[-80.0,73.84],[-79.81,74.07],[-80.49,74.24],[-78.28,74.86],[-78.05,75.09],[-78.75,75.26],[-78.52,75.49],[-79.25,75.65],[-76.79,76.25],[-76.51,76.48],[-77.26,76.65],[-76.99,76.88],[-77.77,77.05],[-74.99,77.62],[-74.66,77.84],[-75.47,78.02],[-75.13,78.24],[-73.15,78.12],[-73.52,77.89],[-72.36,77.32],[-74.12,76.82],[-70.61,76.54],[-69.66,75.95],[-65.45,75.63],[-62.55,76.07],[-59.51,75.64],[-59.03,75.43],[-59.52,75.23],[-59.05,75.01],[-59.52,74.81],[-57.71,74.36],[-58.22,73.74],[-56.54,73.28],[-57.0,73.08],[-56.62,72.86],[-57.12,72.23],[-55.95,71.99],[-55.6,71.77],[-56.03,71.57],[-54.59,71.09],[-55.02,70.89],[-54.7,70.66],[-55.11,70.46],[-54.8,70.24],[-55.29,69.61],[-53.99,69.12],[-54.39,68.92],[-54.1,68.69],[-54.49,68.49],[-54.2,68.26],[-54.58,68.06],[-54.3,67.83],[-54.76,67.19],[-53.59,66.71],[-54.14,65.64],[-53.06,65.15],[-53.4,64.95],[-52.59,64.69],[-52.47,64.02],[-51.91,63.99],[-51.7,63.76],[-52.03,63.56],[-51.27,63.29],[-51.07,63.06],[-51.4,62.86],[-50.47,62.36],[-50.79,62.16],[-50.6,61.93],[-49.39,61.62],[-49.35,60.96],[-48.04,60.41],[-46.75,60.51],[-45.37,59.71],[-43.54,59.49],[-42.42,59.79],[-43.12,60.32],[-41.96,60.61],[-42.67,61.15],[-41.49,61.43],[-41.24,61.84],[-41.95,62.38],[-41.7,62.8],[-40.45,63.07],[-39.59,64.28],[-40.34,64.84],[-38.98,65.09],[-38.66,65.49],[-36.22,65.55],[-35.41,66.09],[-34.43,66.15],[-34.5,66.39],[-33.05,66.58],[-31.78,67.95],[-25.56,68.48],[-24.97,69.07],[-23.37,69.16],[-20.82,70.49],[-21.18,71.1],[-20.48,71.42],[-21.89,72.55],[-19.69,73.28],[-20.06,73.89],[-16.53,75.13],[-17.62,75.67],[-19.09,75.74],[-17.97,76.28],[-18.66,76.43],[-18.5,76.66],[-17.47,76.96],[-18.18,77.12],[-18.01,77.35],[-15.76,77.94],[-18.25,78.18],[-16.86,78.71],[-17.68,78.86],[-17.47,79.09],[-15.89,79.33],[-17.24,79.85],[-15.09,80.29],[-16.01,80.45],[-15.57,80.66],[-12.17,80.91],[-11.6,81.11],[-12.55,81.29],[-11.97,81.49],[-9.73,81.7],[-13.44,82.04],[-17.27,81.77],[-19.19,82.3],[-18.71,82.51],[-20.02,82.67],[-19.55,82.89],[-24.32,83.13],[-23.96,83.35],[-25.58,83.5],[-25.24,83.72],[-26.98,83.86],[-38.71,83.9],[-42.04,83.41],[-47.57,83.41],[-49.07,83.26],[-48.6,83.04],[-49.99,82.88],[-49.52,82.67],[-53.82,82.38],[-60.96,82.47],[-61.76,82.67],[-60.7,82.86],[-61.54,83.06],[-67.56,83.43],[-72.51,83.16],[-79.13,83.39],[-84.26,82.55],[-89.07,82.5],[-92.58,81.58],[-96.72,81.43],[-95.37,80.87],[-101.18,79.95],[-99.71,79.41],[-96.27,79.13],[-99.49,78.95],[-103.3,79.64],[-106.49,79.39],[-106.25,79.16],[-107.17,79.0],[-105.57,78.48],[-107.67,77.53],[-105.04,76.71],[-106.39,76.15],[-107.34,76.22],[-107.55,76.45],[-106.79,76.62],[-107.0,76.85],[-108.22,77.13],[-113.09,76.51],[-113.39,76.74],[-112.7,76.92],[-113.01,77.14],[-108.71,77.59],[-108.96,77.81],[-108.15,77.98],[-108.4,78.21],[-107.56,78.38],[-110.39,78.93],[-114.36,78.64],[-115.12,78.45],[-114.73,78.23],[-115.77,77.64],[-120.11,77.69],[-120.73,77.49],[-120.26,77.29],[-124.03,76.25],[-123.56,76.05],[-124.05,75.85],[-123.59,75.65],[-119.87,75.65],[-112.77,74.16],[-103.77,74.84],[-103.05,75.0],[-103.18,75.24],[-101.56,75.31],[-99.58,74.41],[-101.85,74.2],[-101.74,73.96],[-103.53,73.01],[-102.65,72.69],[-103.06,72.05],[-100.98,72.03],[-100.1,71.45],[-101.43,71.39],[-102.54,70.83],[-104.04,71.25],[-103.68,71.89],[-104.53,72.21],[-103.92,72.37],[-104.04,72.61],[-104.94,72.93],[-103.79,73.49],[-104.87,74.04],[-107.81,73.85],[-109.66,74.2],[-110.27,74.02],[-109.04,73.5],[-112.36,73.07],[-115.26,73.64],[-115.54,73.86],[-115.0,74.05],[-115.28,74.28],[-116.42,74.53],[-118.65,74.38],[-120.19,74.83],[-123.65,74.84],[-125.41,74.41],[-124.97,74.22],[-125.39,74.01],[-124.96,73.82],[-125.37,73.61],[-125.01,72.99],[-126.14,72.78],[-126.5,72.16],[-124.35,71.75],[-124.01,71.54],[-124.38,71.33],[-123.04,70.91],[-119.03,71.45],[-118.89,70.81],[-117.0,70.31],[-118.51,69.95],[-116.7,69.44],[-116.46,69.21],[-116.87,69.02],[-120.5,70.02],[-122.2,69.85],[-124.44,70.5],[-126.11,70.3],[-128.48,70.89],[-129.15,70.88],[-129.38,70.26],[-131.07,70.4],[-133.81,69.6],[-134.43,70.14],[-135.1,70.08],[-137.65,69.22],[-138.38,69.75],[-141.28,69.81],[-142.14,70.33],[-147.58,70.39],[-148.67,70.89],[-150.57,70.78],[-151.77,71.26],[-157.66,71.51],[-160.62,70.53],[-163.11,70.37],[-162.99,70.13],[-164.36,69.17],[-166.66,68.96],[-166.85,68.32],[-162.56,66.51],[-163.59,66.42],[-164.96,67.02],[-165.75,66.45],[-167.35,66.4],[-168.06,65.82],[-172.71,67.48],[-175.25,67.61],[-175.32,68.26],[-180.0,69.38],[-180.0,-90.0],[180.0,-90.0],[180.0,69.38]]],[[[158.72,-69.09],[156.08,-69.05],[154.39,-68.01],[152.9,-69.09],[154.46,-68.72],[156.17,-69.52],[157.74,-69.36],[160.0,-69.75],[160.77,-70.3],[160.37,-70.67],[161.07,-70.99],[162.18,-70.93],[162.06,-70.7],[162.55,-70.56],[163.88,-70.94],[165.42,-70.71],[169.48,-71.54],[169.45,-72.14],[171.6,-71.92],[168.1,-70.6],[161.84,-70.24],[160.39,-69.37],[158.72,-69.09]]],[[[-24.59,14.49],[-23.29,14.59],[-22.91,15.31],[-23.38,15.74],[-24.22,15.21],[-24.88,15.28],[-25.07,14.91],[-24.59,14.49]]],[[[174.29,0.44],[173.83,0.68],[173.24,0.3],[173.91,0.08],[174.29,0.44]]],[[[164.66,-74.81],[166.55,-74.56],[165.42,-74.04],[167.93,-73.85],[168.7,-73.3],[170.34,-73.62],[170.8,-73.45],[169.65,-72.97],[171.22,-72.68],[168.35,-72.25],[167.89,-72.41],[168.08,-72.63],[168.96,-72.91],[166.62,-73.12],[165.78,-73.66],[164.53,-73.75],[164.31,-74.36],[162.39,-74.6],[162.07,-75.21],[161.43,-75.36],[162.54,-75.9],[161.87,-76.05],[162.03,-76.28],[163.54,-76.19],[163.36,-75.97],[164.0,-75.81],[162.85,-75.28],[163.9,-74.74],[164.66,-74.81]]],[[[-158.25,-8.85],[-158.07,-9.28],[-157.52,-8.96],[-158.25,-8.85]]],[[[-139.18,-18.35],[-139.56,-18.54],[-139.06,-18.98],[-139.44,-19.59],[-138.44,-19.63],[-139.18,-18.35]]],[[[-180.0,-84.62],[-166.04,-84.94],[-163.97,-85.09],[-164.49,-85.32],[-154.37,-85.84],[-135.73,-85.43],[-136.63,-85.2],[-134.78,-85.01],[-135.66,-84.78],[-133.99,-84.59],[-134.83,-84.36],[-129.62,-83.99],[-130.55,-83.77],[-127.17,-83.57],[-126.06,-83.36],[-127.02,-83.15],[-125.98,-82.94],[-132.05,-82.27],[-128.33,-81.88],[-133.46,-81.19],[-132.5,-81.0],[-134.99,-80.53],[-133.68,-79.93],[-135.44,-79.69],[-135.85,-79.47],[-135.02,-79.28],[-135.42,-79.06],[-141.6,-78.63],[-149.89,-78.75],[-152.03,-78.35],[-151.12,-77.99],[-144.22,-78.07],[-144.41,-77.85],[-142.96,-77.3],[-144.13,-77.03],[-144.31,-76.81],[-143.54,-76.65],[-144.79,-76.15],[-142.45,-75.89],[-140.43,-76.2],[-139.31,-75.65],[-133.32,-75.04],[-128.48,-75.29],[-125.72,-74.87],[-123.92,-75.24],[-116.34,-74.74],[-115.52,-75.32],[-109.94,-75.58],[-108.78,-76.13],[-106.69,-75.73],[-100.87,-76.01],[-97.35,-75.55],[-99.55,-74.43],[-98.65,-73.83],[-95.65,-73.82],[-94.19,-73.31],[-91.14,-73.73],[-86.0,-73.38],[-83.17,-74.09],[-81.65,-73.99],[-80.62,-73.39],[-78.41,-73.98],[-75.48,-73.69],[-73.38,-73.99],[-67.79,-73.23],[-67.33,-73.01],[-68.58,-72.78],[-68.96,-72.56],[-68.51,-72.34],[-66.02,-72.36],[-66.42,-72.14],[-66.01,-71.92],[-67.58,-71.47],[-67.16,-71.26],[-67.53,-71.04],[-67.09,-70.38],[-68.52,-69.94],[-65.95,-69.29],[-67.0,-69.08],[-67.33,-68.86],[-66.97,-68.65],[-62.72,-69.47],[-63.0,-70.13],[-62.6,-70.34],[-62.94,-70.57],[-62.53,-70.78],[-62.88,-71.01],[-61.23,-71.41],[-62.75,-71.88],[-61.02,-72.29],[-61.38,-72.52],[-60.9,-72.73],[-62.53,-73.2],[-61.95,-73.86],[-62.37,-74.09],[-61.85,-74.3],[-62.28,-74.53],[-65.12,-75.0],[-64.61,-75.22],[-65.1,-75.44],[-64.59,-75.66],[-65.09,-75.88],[-69.95,-76.51],[-72.74,-76.67],[-77.34,-76.27],[-78.46,-76.89],[-78.13,-77.13],[-73.51,-77.98],[-75.47,-78.14],[-77.42,-77.62],[-80.49,-77.69],[-81.33,-77.87],[-81.03,-78.11],[-77.92,-78.72],[-78.8,-78.9],[-83.32,-77.97],[-85.35,-78.06],[-83.72,-78.63],[-84.66,-78.8],[-84.42,-79.05],[-82.88,-79.37],[-77.59,-79.63],[-77.15,-79.87],[-80.52,-80.18],[-80.13,-80.43],[-76.2,-80.35],[-75.69,-80.59],[-76.69,-80.78],[-76.17,-81.02],[-73.99,-81.3],[-67.33,-81.4],[-66.51,-81.63],[-67.42,-81.84],[-66.56,-82.07],[-67.52,-82.28],[-63.66,-82.73],[-64.63,-82.95],[-63.54,-83.16],[-64.57,-83.38],[-57.51,-83.77],[-56.66,-83.54],[-58.03,-83.34],[-54.45,-82.83],[-60.53,-82.93],[-61.67,-82.72],[-58.14,-82.24],[-64.73,-82.07],[-62.08,-81.84],[-61.3,-81.61],[-62.25,-81.4],[-68.84,-80.95],[-69.55,-80.72],[-68.69,-80.51],[-69.37,-80.28],[-73.23,-80.43],[-75.75,-79.92],[-74.84,-79.72],[-75.33,-79.49],[-74.47,-79.29],[-74.95,-79.05],[-74.13,-78.85],[-74.59,-78.62],[-72.57,-78.45],[-71.83,-78.25],[-72.31,-78.01],[-71.6,-77.81],[-75.2,-77.04],[-71.86,-77.14],[-63.5,-76.1],[-63.01,-75.87],[-63.56,-75.65],[-63.09,-75.43],[-60.64,-75.16],[-60.23,-74.93],[-60.79,-74.72],[-59.05,-74.23],[-59.6,-74.02],[-59.23,-73.79],[-59.91,-73.14],[-59.55,-72.91],[-60.05,-72.7],[-59.7,-72.47],[-60.19,-72.26],[-59.84,-72.03],[-60.32,-71.82],[-59.98,-71.59],[-60.44,-71.39],[-60.11,-71.15],[-60.56,-70.95],[-60.23,-70.72],[-61.85,-70.32],[-60.78,-70.07],[-60.57,-69.41],[-63.16,-68.82],[-61.85,-68.36],[-63.89,-68.4],[-64.24,-68.19],[-63.92,-67.97],[-64.29,-67.33],[-62.12,-66.63],[-60.5,-66.79],[-60.24,-66.56],[-60.6,-66.36],[-60.43,-65.71],[-61.38,-65.53],[-61.71,-65.33],[-61.45,-65.11],[-58.98,-65.42],[-58.86,-64.77],[-56.54,-64.61],[-56.48,-63.96],[-54.25,-63.12],[-56.38,-62.67],[-60.85,-63.59],[-61.72,-63.42],[-62.02,-63.22],[-61.78,-63.0],[-60.38,-63.15],[-57.19,-61.89],[-60.32,-62.09],[-62.62,-62.82],[-62.82,-63.46],[-62.52,-63.66],[-64.45,-64.35],[-64.12,-64.97],[-64.41,-65.19],[-65.88,-65.0],[-66.19,-65.64],[-67.71,-65.86],[-68.08,-66.49],[-69.05,-66.7],[-68.76,-66.91],[-70.11,-67.32],[-69.91,-67.97],[-67.92,-67.99],[-68.34,-68.64],[-68.02,-68.86],[-68.4,-69.07],[-71.06,-68.59],[-72.56,-68.98],[-72.28,-69.2],[-72.7,-69.41],[-76.16,-69.91],[-75.91,-70.14],[-76.39,-70.33],[-76.14,-70.56],[-77.87,-70.9],[-75.87,-71.46],[-75.6,-71.69],[-76.11,-71.89],[-75.84,-72.12],[-72.79,-72.69],[-72.46,-72.92],[-72.98,-73.12],[-76.09,-72.55],[-76.92,-73.17],[-78.34,-73.31],[-81.27,-72.67],[-82.71,-73.68],[-84.7,-73.05],[-86.93,-73.05],[-87.93,-72.48],[-92.13,-72.65],[-94.96,-72.22],[-96.29,-71.51],[-100.2,-71.51],[-103.08,-72.18],[-99.15,-72.73],[-99.2,-72.97],[-101.35,-73.07],[-102.56,-72.56],[-105.54,-72.95],[-105.69,-73.19],[-103.64,-73.38],[-103.76,-73.62],[-103.09,-73.76],[-104.15,-74.34],[-101.91,-74.52],[-105.44,-75.16],[-108.58,-75.03],[-110.06,-74.08],[-115.65,-73.67],[-120.02,-74.51],[-120.52,-74.33],[-119.3,-74.07],[-118.96,-73.85],[-119.44,-73.67],[-121.99,-73.38],[-124.0,-73.64],[-127.58,-73.1],[-128.1,-73.7],[-127.73,-73.89],[-123.1,-74.41],[-122.64,-74.6],[-123.06,-74.81],[-126.96,-74.28],[-130.5,-74.68],[-130.85,-74.48],[-130.35,-74.29],[-131.52,-74.08],[-133.4,-74.45],[-133.09,-74.65],[-133.64,-74.84],[-135.64,-74.59],[-139.99,-75.01],[-141.08,-75.56],[-143.0,-75.25],[-146.07,-75.44],[-147.43,-75.95],[-149.05,-76.03],[-149.7,-76.6],[-153.1,-77.14],[-154.85,-76.73],[-159.21,-76.87],[-158.55,-77.42],[-159.62,-77.75],[-155.1,-79.18],[-156.31,-79.76],[-154.05,-80.2],[-152.88,-80.07],[-154.04,-79.51],[-151.83,-79.48],[-150.54,-80.02],[-151.63,-80.39],[-148.84,-81.03],[-157.86,-80.79],[-160.74,-81.24],[-164.54,-81.07],[-166.31,-81.38],[-164.22,-81.89],[-159.82,-81.82],[-154.13,-82.51],[-157.51,-82.99],[-162.37,-82.85],[-166.43,-83.26],[-168.76,-82.73],[-173.67,-82.7],[-174.33,-82.91],[-173.08,-83.08],[-173.76,-83.3],[-172.41,-83.47],[-173.11,-83.69],[-167.92,-83.94],[-168.5,-84.17],[-166.79,-84.33],[-167.36,-84.56],[-171.53,-84.47],[-170.8,-84.24],[-172.37,-84.08],[-180.0,-84.22],[-180.0,-84.62]],[[-97.75,-72.73],[-96.35,-72.73],[-96.36,-72.97],[-97.08,-73.1],[-97.75,-72.73]]],[[[180.0,-84.22],[177.13,-84.44],[180.0,-84.62],[180.0,-84.22]]],[[[145.0,13.11],[145.23,14.33],[144.41,13.61],[145.0,13.11]]],[[[-44.31,-77.98],[-44.12,-77.73],[-45.04,-77.57],[-48.2,-77.56],[-51.16,-78.19],[-51.51,-78.44],[-50.62,-78.62],[-50.97,-78.87],[-52.66,-79.17],[-51.72,-79.36],[-52.12,-79.6],[-49.75,-79.73],[-49.39,-79.48],[-50.38,-79.3],[-48.73,-78.98],[-48.43,-78.73],[-49.37,-78.55],[-49.06,-78.31],[-46.41,-77.9],[-43.92,-78.91],[-44.14,-79.16],[-41.79,-79.22],[-41.63,-78.97],[-44.31,-77.98]]],[[[76.83,-69.3],[75.42,-69.71],[73.06,-69.53],[71.43,-70.14],[71.62,-70.79],[70.75,-71.09],[72.0,-71.2],[73.7,-70.59],[73.44,-69.94],[76.52,-70.03],[80.18,-68.08],[81.92,-68.02],[81.42,-67.63],[79.7,-67.69],[76.83,-69.3]]],[[[166.74,2.43],[167.16,2.8],[167.63,2.58],[168.59,3.15],[169.24,3.0],[169.54,3.46],[170.11,3.38],[170.14,3.88],[171.57,4.74],[171.86,5.8],[172.53,5.89],[171.93,6.86],[172.33,7.26],[171.45,7.68],[171.38,8.93],[170.85,9.23],[170.3,8.97],[170.41,9.72],[169.48,9.59],[168.88,10.25],[168.32,9.98],[164.26,11.44],[163.71,11.16],[162.53,11.54],[162.27,12.07],[162.06,11.46],[161.27,11.7],[160.8,11.35],[159.11,11.91],[158.63,11.55],[156.61,11.81],[154.36,11.11],[154.04,10.56],[153.4,10.58],[151.74,8.67],[151.83,8.02],[151.32,7.62],[152.98,6.13],[153.25,5.31],[154.3,5.22],[154.61,4.66],[155.64,4.57],[155.94,4.01],[160.41,3.2],[161.06,2.58],[161.52,2.97],[164.2,2.28],[164.64,2.66],[166.74,2.43]]],[[[-165.92,25.05],[-166.59,24.86],[-167.17,24.04],[-167.09,23.41],[-167.63,23.0],[-166.82,21.92],[-166.99,21.3],[-166.55,20.43],[-165.09,19.5],[-164.43,19.68],[-162.81,18.93],[-160.19,18.73],[-159.62,19.12],[-158.98,18.84],[-156.86,19.75],[-155.79,18.53],[-154.77,19.09],[-154.65,19.96],[-155.13,20.46],[-154.48,21.27],[-153.6,21.61],[-154.03,22.54],[-153.74,23.6],[-154.49,25.19],[-156.03,26.19],[-157.57,26.1],[-158.07,26.56],[-161.62,26.78],[-162.63,26.19],[-163.28,26.43],[-165.92,25.05]]],[[[79.16,80.5],[81.71,80.52],[78.71,81.25],[77.43,81.1],[79.16,80.5]]],[[[-136.55,-21.57],[-136.16,-22.2],[-136.05,-21.58],[-136.81,-21.15],[-136.55,-21.57]]],[[[-25.01,16.66],[-24.53,16.23],[-23.87,16.4],[-24.14,16.97],[-25.08,17.36],[-25.73,17.19],[-25.45,16.63],[-25.01,16.66]]],[[[-78.85,-33.37],[-79.05,-33.71],[-78.8,-33.8],[-78.57,-33.67],[-78.85,-33.37]]],[[[-139.05,-10.16],[-138.7,-10.0],[-138.82,-9.42],[-139.5,-9.74],[-139.39,-10.32],[-139.05,-10.16]]],[[[-46.3,-82.34],[-46.68,-82.58],[-45.17,-82.75],[-43.29,-82.66],[-41.04,-82.06],[-50.34,-81.81],[-50.83,-82.06],[-49.51,-82.24],[-46.3,-82.34]]],[[[68.72,-48.7],[68.19,-49.22],[68.74,-50.13],[69.53,-49.76],[70.73,-49.9],[70.56,-49.52],[71.07,-48.98],[69.3,-48.77],[68.91,-48.25],[68.48,-48.55],[68.72,-48.7]]],[[[170.52,-83.65],[174.75,-84.05],[178.15,-83.84],[170.86,-83.26],[167.58,-83.43],[170.52,-83.65]]],[[[-26.93,-59.83],[-26.61,-59.45],[-27.45,-59.5],[-26.93,-59.83]]],[[[56.24,-67.37],[57.99,-67.33],[60.21,-67.88],[64.45,-67.65],[69.03,-68.37],[69.15,-69.02],[67.66,-69.37],[67.74,-70.02],[66.86,-70.3],[68.51,-70.62],[67.4,-71.13],[67.9,-71.32],[67.69,-71.55],[66.74,-71.82],[67.25,-72.01],[68.94,-71.68],[69.14,-71.44],[68.62,-71.26],[69.71,-70.74],[68.9,-70.15],[70.75,-69.32],[69.66,-68.31],[70.44,-68.01],[70.59,-67.77],[70.14,-67.6],[67.71,-67.83],[61.52,-67.18],[60.1,-67.46],[57.35,-66.93],[56.99,-66.31],[54.47,-65.74],[52.31,-65.75],[48.11,-66.7],[47.79,-66.9],[48.01,-67.11],[48.79,-67.34],[48.47,-67.53],[46.37,-67.05],[45.86,-67.61],[43.32,-67.73],[42.91,-67.88],[43.09,-68.1],[47.01,-67.69],[47.8,-67.92],[47.45,-68.11],[47.68,-68.33],[49.18,-68.17],[49.6,-67.56],[51.05,-67.38],[51.36,-67.18],[51.15,-66.56],[52.28,-66.16],[55.31,-66.35],[55.63,-66.96],[55.35,-67.18],[56.24,-67.37]]],[[[53.89,-5.99],[53.14,-5.14],[53.31,-5.93],[53.89,-5.99]]],[[[99.2,80.85],[97.26,81.44],[95.37,81.12],[97.35,80.53],[99.2,80.85]]],[[[50.65,68.91],[50.52,69.48],[49.62,69.67],[47.98,69.47],[47.54,68.91],[49.3,68.53],[50.65,68.91]]],[[[-25.89,-57.61],[-26.68,-57.66],[-26.19,-57.98],[-25.89,-57.61]]],[[[164.88,-82.01],[162.73,-81.77],[160.81,-82.3],[161.29,-82.51],[166.14,-83.01],[169.26,-82.86],[164.29,-82.39],[163.74,-82.18],[164.88,-82.01]]],[[[-28.05,-76.26],[-32.69,-76.73],[-33.61,-77.37],[-28.71,-76.92],[-28.82,-76.67],[-27.93,-76.51],[-28.05,-76.26]]],[[[-145.45,-14.76],[-145.78,-14.11],[-146.56,-14.45],[-147.57,-14.34],[-148.04,-13.88],[-150.56,-13.59],[-152.28,-14.01],[-152.89,-13.72],[-155.36,-14.66],[-157.98,-17.74],[-156.08,-19.33],[-154.2,-19.58],[-153.61,-19.22],[-151.74,-19.44],[-151.16,-19.07],[-150.52,-19.36],[-149.52,-18.82],[-148.88,-19.1],[-145.09,-17.31],[-144.46,-17.57],[-143.91,-16.78],[-142.8,-17.49],[-143.56,-17.44],[-143.58,-17.86],[-142.56,-17.93],[-142.45,-18.57],[-141.83,-18.82],[-141.68,-18.2],[-142.9,-16.86],[-142.75,-16.25],[-142.14,-16.5],[-142.11,-15.68],[-143.89,-16.36],[-145.08,-15.01],[-144.2,-14.88],[-144.65,-14.01],[-145.28,-14.16],[-145.45,-14.76]]],[[[-55.64,-81.97],[-56.29,-82.2],[-55.08,-82.4],[-52.62,-82.11],[-55.64,-81.97]]],[[[176.68,-1.62],[176.4,-1.05],[175.87,-1.31],[176.68,-1.62]]],[[[-20.46,-74.34],[-19.78,-74.16],[-20.02,-73.91],[-21.58,-74.02],[-20.46,-74.34]]],[[[149.31,7.39],[149.73,7.3],[149.59,7.72],[148.93,7.72],[149.31,7.39]]],[[[-13.09,-37.34],[-12.66,-37.62],[-11.92,-37.27],[-12.35,-36.99],[-13.09,-37.34]]],[[[-55.43,-60.89],[-56.11,-61.16],[-55.78,-61.35],[-54.09,-61.61],[-53.41,-61.32],[-55.43,-60.89]]],[[[-52.26,-81.2],[-51.79,-80.95],[-52.88,-80.77],[-50.5,-80.22],[-52.98,-80.09],[-55.47,-80.62],[-54.44,-80.82],[-54.98,-81.06],[-52.26,-81.2]]],[[[-59.36,-51.01],[-61.39,-50.99],[-61.51,-51.54],[-62.04,-51.76],[-61.25,-52.08],[-61.2,-52.44],[-59.62,-52.69],[-59.32,-53.23],[-58.93,-53.2],[-58.85,-52.63],[-57.94,-52.35],[-58.02,-51.99],[-57.37,-51.55],[-57.68,-51.03],[-58.56,-51.3],[-59.36,-51.01]]],[[[134.92,73.77],[135.78,73.68],[137.1,74.26],[136.07,74.61],[135.32,74.45],[135.48,74.19],[134.76,74.03],[134.92,73.77]]],[[[-27.59,72.08],[-28.21,71.72],[-26.99,71.72],[-27.59,72.08]]],[[[-37.57,-54.64],[-36.14,-55.12],[-35.39,-54.44],[-37.83,-53.62],[-38.61,-54.27],[-37.57,-54.64]]],[[[5.92,-1.61],[5.91,-1.22],[5.37,-1.1],[5.38,-1.49],[5.92,-1.61]]],[[[51.2,-10.57],[51.4,-9.89],[50.83,-10.44],[51.2,-10.57]]],[[[51.16,81.24],[45.5,80.75],[45.01,80.53],[45.93,80.34],[45.45,80.12],[48.46,79.76],[57.76,79.74],[62.01,80.07],[62.85,80.26],[62.31,80.49],[65.61,80.81],[65.1,81.05],[66.11,81.23],[59.34,82.04],[54.22,81.67],[53.45,81.46],[54.28,81.24],[53.54,81.04],[51.16,81.24]]],[[[115.88,-67.05],[115.67,-66.38],[113.02,-65.63],[110.41,-65.94],[109.84,-66.58],[108.79,-66.73],[107.11,-66.16],[105.44,-66.24],[103.7,-65.38],[103.1,-65.32],[102.38,-65.93],[100.3,-65.21],[99.52,-65.8],[100.39,-66.38],[99.91,-66.55],[96.79,-65.88],[95.91,-66.45],[85.43,-66.58],[84.3,-67.07],[83.19,-67.05],[82.55,-67.66],[83.69,-67.69],[84.28,-67.32],[85.97,-67.47],[87.09,-66.96],[98.21,-66.55],[99.57,-66.97],[100.67,-66.88],[101.47,-66.28],[103.6,-66.06],[105.19,-66.67],[106.89,-66.59],[108.59,-67.17],[110.71,-66.85],[111.26,-66.21],[112.9,-66.07],[114.95,-66.8],[113.55,-67.2],[113.82,-67.43],[115.43,-67.7],[117.82,-67.08],[115.88,-67.05]]],[[[74.26,-53.19],[74.04,-52.8],[72.91,-53.06],[73.43,-53.61],[74.26,-53.19]]],[[[89.85,81.24],[92.18,80.69],[90.47,80.09],[91.6,79.94],[91.43,79.69],[92.51,79.54],[92.33,79.29],[94.59,79.22],[96.4,79.79],[94.52,80.37],[94.78,80.62],[93.61,80.78],[93.87,81.03],[92.62,81.19],[92.86,81.44],[91.54,81.59],[89.85,81.24]]],[[[-140.34,-21.44],[-140.99,-21.62],[-141.0,-22.05],[-140.35,-21.87],[-140.34,-21.44]]],[[[-169.35,-14.42],[-169.72,-13.92],[-170.13,-14.05],[-169.76,-14.55],[-169.35,-14.42]]],[[[168.53,14.85],[168.6,14.46],[169.25,14.36],[169.18,14.75],[168.53,14.85]]],[[[35.9,-70.06],[37.58,-69.87],[39.03,-70.27],[39.53,-70.12],[39.37,-69.89],[39.85,-69.75],[40.01,-69.15],[42.85,-68.47],[41.04,-68.25],[40.31,-68.77],[39.23,-68.84],[39.06,-69.44],[36.3,-69.69],[34.14,-68.7],[32.44,-68.62],[31.92,-68.75],[32.66,-69.32],[32.19,-69.69],[32.9,-70.03],[34.08,-70.0],[33.36,-69.66],[33.8,-69.3],[35.9,-70.06]]],[[[154.39,-5.28],[154.91,-6.82],[155.48,-7.02],[155.17,-7.57],[155.74,-7.77],[156.27,-7.12],[156.65,-7.18],[156.39,-8.57],[156.86,-8.16],[157.28,-9.03],[159.39,-9.17],[159.32,-9.81],[160.14,-9.87],[160.54,-10.32],[160.98,-9.29],[161.37,-9.95],[160.94,-10.56],[161.75,-11.04],[162.78,-10.99],[162.38,-10.12],[161.77,-9.97],[161.99,-9.46],[161.19,-8.99],[161.4,-8.48],[160.88,-8.31],[160.64,-7.58],[159.94,-8.31],[159.16,-7.39],[157.43,-7.28],[157.0,-6.39],[156.01,-6.37],[154.66,-4.96],[154.39,-5.28]],[[158.89,-8.76],[157.55,-7.65],[158.15,-7.61],[158.94,-8.53],[159.52,-8.49],[159.43,-8.94],[158.89,-8.76]]],[[[23.42,76.75],[26.01,76.39],[26.87,76.7],[23.42,76.75]]],[[[164.11,-76.87],[163.05,-76.58],[161.82,-77.12],[161.99,-77.35],[164.02,-77.71],[164.24,-77.94],[163.49,-78.1],[163.71,-78.32],[166.5,-78.83],[167.68,-78.85],[168.67,-78.32],[166.86,-77.89],[170.81,-77.44],[166.77,-77.06],[166.11,-77.22],[166.35,-77.45],[164.74,-77.55],[163.61,-77.26],[163.42,-77.03],[164.11,-76.87]]],[[[-159.34,3.43],[-158.95,3.6],[-159.0,4.25],[-159.8,3.92],[-159.34,3.43]]],[[[-10.78,-72.2],[-10.13,-71.55],[-8.18,-71.84],[-6.49,-71.43],[-3.32,-71.47],[-0.88,-71.89],[2.82,-70.94],[8.04,-70.7],[11.07,-71.15],[12.71,-70.8],[14.53,-71.08],[16.08,-70.69],[28.23,-71.26],[29.39,-70.54],[32.42,-70.39],[31.71,-70.05],[29.31,-70.07],[28.15,-70.54],[25.68,-70.03],[25.06,-70.38],[26.91,-70.53],[26.3,-70.88],[21.35,-70.25],[19.97,-70.68],[18.9,-70.13],[17.46,-70.54],[16.04,-69.57],[15.25,-69.88],[15.79,-70.05],[15.66,-70.29],[12.53,-70.14],[10.74,-70.73],[10.22,-70.55],[10.42,-70.32],[8.72,-70.0],[6.09,-70.59],[3.7,-70.25],[-0.95,-71.45],[-2.15,-71.24],[-1.78,-71.02],[-2.22,-70.37],[-2.97,-70.37],[-3.33,-71.03],[-4.5,-71.24],[-5.28,-71.23],[-5.61,-70.57],[-7.55,-70.75],[-8.08,-71.4],[-12.31,-71.01],[-13.02,-71.65],[-12.72,-71.89],[-13.24,-72.08],[-12.95,-72.32],[-16.61,-73.24],[-16.34,-73.49],[-16.95,-73.68],[-15.48,-74.22],[-16.11,-74.41],[-15.81,-74.65],[-14.86,-74.71],[-13.95,-74.07],[-15.46,-73.54],[-13.99,-73.39],[-13.18,-72.76],[-10.95,-72.64],[-10.44,-72.43],[-10.78,-72.2]]],[[[3.07,-54.3],[3.06,-54.69],[3.67,-54.48],[3.07,-54.3]]],[[[-19.82,63.31],[-16.48,63.6],[-15.84,64.14],[-14.59,64.16],[-12.72,65.27],[-13.27,65.78],[-14.11,65.86],[-14.59,66.59],[-16.35,66.72],[-17.45,66.32],[-18.15,66.83],[-19.81,66.09],[-21.49,66.62],[-23.85,66.57],[-25.38,65.52],[-24.08,65.16],[-24.6,64.58],[-22.46,64.43],[-23.0,63.86],[-21.33,63.82],[-20.32,62.98],[-19.82,63.31]]],[[[-136.61,-18.67],[-136.25,-18.89],[-136.26,-18.08],[-136.61,-18.67]]],[[[53.22,12.66],[52.94,11.93],[54.63,12.18],[54.79,12.72],[53.65,13.04],[53.22,12.66]]],[[[-134.14,-23.46],[-135.03,-22.84],[-135.39,-23.04],[-134.5,-23.67],[-134.14,-23.46]]],[[[145.4,16.43],[145.55,16.03],[146.24,16.02],[145.94,16.82],[145.4,16.43]]],[[[180.0,71.66],[178.26,71.46],[177.81,70.81],[180.0,70.79],[180.0,71.66]]],[[[-180.0,70.79],[-177.63,70.73],[-177.03,71.37],[-179.27,71.87],[-180.0,71.66],[-180.0,70.79]]],[[[144.68,-67.45],[144.36,-66.82],[143.36,-66.76],[144.12,-67.54],[143.38,-68.12],[143.87,-68.27],[146.13,-67.88],[147.53,-68.78],[150.23,-68.72],[151.28,-69.21],[152.36,-68.73],[151.83,-68.37],[148.13,-68.44],[147.23,-67.68],[144.68,-67.45]]],[[[127.03,-66.68],[127.28,-66.45],[126.91,-66.25],[125.34,-66.1],[123.56,-66.59],[123.27,-66.82],[123.61,-67.03],[126.05,-66.51],[126.51,-67.14],[129.17,-67.44],[130.03,-67.16],[130.26,-66.93],[129.87,-66.74],[130.91,-66.22],[129.1,-66.35],[129.02,-67.01],[127.03,-66.68]]],[[[-60.0,-79.6],[-64.16,-80.09],[-64.91,-79.87],[-64.22,-79.64],[-66.97,-79.2],[-66.28,-78.98],[-66.92,-78.76],[-66.26,-78.54],[-68.11,-78.31],[-72.84,-78.89],[-72.32,-79.12],[-73.13,-79.33],[-72.6,-79.56],[-73.45,-79.76],[-69.21,-79.84],[-66.38,-80.31],[-67.17,-80.52],[-66.42,-80.75],[-59.87,-81.15],[-59.2,-80.92],[-60.13,-80.72],[-57.39,-80.22],[-58.29,-80.02],[-57.74,-79.78],[-58.6,-79.58],[-60.0,-79.6]]],[[[135.97,-65.97],[134.65,-66.33],[131.7,-65.94],[131.5,-66.18],[131.89,-66.37],[134.89,-66.75],[136.22,-66.39],[141.7,-67.02],[142.36,-66.69],[135.97,-65.97]]],[[[-172.89,60.78],[-173.85,60.84],[-173.05,60.39],[-174.13,60.05],[-173.5,59.81],[-171.64,60.29],[-172.89,60.78]]],[[[-140.93,-8.06],[-140.23,-8.13],[-140.85,-7.68],[-140.93,-8.06]]],[[[55.33,-3.52],[55.06,-3.81],[55.54,-4.22],[54.89,-4.46],[55.53,-5.01],[56.08,-4.42],[55.87,-3.71],[55.33,-3.52]]],[[[-24.41,-79.91],[-25.99,-79.57],[-27.12,-79.73],[-26.93,-79.98],[-29.48,-80.03],[-29.6,-79.78],[-28.43,-79.63],[-29.95,-79.01],[-35.79,-78.92],[-33.55,-78.15],[-34.63,-77.76],[-38.1,-78.9],[-35.84,-79.43],[-33.41,-79.43],[-32.04,-80.06],[-29.2,-80.54],[-23.88,-80.42],[-22.73,-80.25],[-24.41,-79.91]]],[[[119.75,-67.52],[122.63,-66.83],[118.8,-66.86],[118.44,-67.52],[118.75,-67.74],[119.75,-67.52]]],[[[161.0,-80.94],[162.03,-80.78],[159.9,-80.32],[160.89,-80.17],[160.54,-79.96],[161.47,-79.81],[161.13,-79.6],[162.02,-79.45],[161.67,-79.25],[164.53,-78.97],[162.93,-78.48],[161.12,-78.57],[161.3,-78.79],[160.45,-78.95],[160.62,-79.17],[158.95,-79.71],[159.25,-79.91],[158.27,-80.06],[158.57,-80.27],[157.54,-80.41],[159.56,-80.89],[158.47,-81.04],[158.81,-81.25],[162.26,-81.56],[163.35,-81.4],[161.0,-80.94]]],[[[38.15,-47.17],[37.97,-46.58],[37.15,-47.02],[38.15,-47.17]]],[[[166.23,11.37],[166.7,10.87],[167.64,11.01],[168.05,11.45],[167.5,11.75],[166.23,11.37]]],[[[-155.34,-4.06],[-154.61,-4.16],[-155.29,-3.66],[-155.34,-4.06]]],[[[147.23,-1.49],[146.28,-1.85],[146.29,-3.0],[146.81,-2.57],[147.42,-2.8],[148.36,-2.45],[147.23,-1.49]]],[[[167.97,54.36],[168.67,54.82],[166.61,55.22],[166.21,55.77],[165.09,55.24],[165.78,55.12],[166.2,54.57],[167.97,54.36]]],[[[113.26,76.99],[111.63,76.76],[112.21,76.54],[111.72,76.31],[112.28,76.1],[111.8,75.87],[113.89,75.44],[115.41,75.66],[114.91,75.88],[115.45,76.1],[113.3,76.55],[113.83,76.77],[113.26,76.99]]],[[[-43.4,-81.25],[-43.65,-81.5],[-42.27,-81.66],[-31.83,-80.83],[-31.9,-80.57],[-35.96,-80.45],[-43.4,-81.25]]],[[[142.31,26.3],[142.61,26.59],[142.25,27.1],[141.95,26.81],[142.31,26.3]]],[[[-162.14,5.51],[-161.75,5.68],[-162.41,6.62],[-162.59,6.0],[-162.14,5.51]]],[[[-138.69,-20.46],[-138.81,-21.08],[-138.43,-21.31],[-138.31,-20.68],[-138.69,-20.46]]],[[[145.78,18.33],[145.49,18.02],[145.99,17.06],[146.28,17.37],[145.78,18.33]]],[[[-13.75,57.61],[-13.35,57.91],[-14.1,57.95],[-13.75,57.61]]],[[[55.3,-20.55],[54.99,-20.86],[55.41,-21.85],[56.04,-21.23],[55.3,-20.55]]],[[[-26.49,-75.69],[-27.32,-75.85],[-27.19,-76.1],[-26.19,-76.2],[-22.53,-76.05],[-18.97,-75.84],[-17.81,-75.22],[-19.05,-74.91],[-20.23,-75.52],[-26.49,-75.69]]],[[[-111.27,19.15],[-111.4,18.49],[-110.48,18.62],[-110.64,19.63],[-111.27,19.15]]],[[[66.31,-72.92],[65.27,-73.19],[65.81,-73.38],[67.96,-73.48],[68.99,-73.2],[69.2,-72.97],[68.64,-72.79],[68.85,-72.56],[71.66,-71.68],[70.39,-71.57],[68.31,-72.37],[66.27,-72.28],[66.03,-72.51],[66.56,-72.7],[66.31,-72.92]]],[[[174.07,52.18],[173.92,52.99],[172.62,53.32],[172.06,53.08],[172.4,52.49],[174.07,52.18]]],[[[-138.81,-22.35],[-138.3,-22.36],[-139.07,-21.49],[-139.19,-22.12],[-138.81,-22.35]]],[[[180.0,52.34],[177.25,52.31],[177.13,51.69],[179.52,51.33],[180.0,51.53],[180.0,52.34]]],[[[-180.0,51.53],[-179.74,51.74],[-179.99,52.35],[-180.0,51.53]]],[[[16.73,76.5],[18.41,76.53],[17.18,77.06],[19.38,77.85],[22.46,77.09],[25.11,77.17],[24.12,77.74],[25.02,78.06],[21.74,79.09],[25.97,79.06],[24.95,78.73],[25.98,78.38],[30.11,78.75],[31.41,79.28],[27.04,79.16],[29.46,80.02],[23.36,80.9],[19.62,80.78],[19.78,80.55],[17.34,80.53],[15.46,80.04],[8.74,79.83],[10.72,79.34],[9.38,78.83],[10.85,78.55],[11.15,78.33],[10.36,78.19],[10.66,77.98],[13.57,77.97],[13.81,77.75],[13.03,77.62],[13.27,77.4],[15.44,77.02],[15.63,76.81],[14.88,76.68],[15.08,76.47],[16.73,76.5]],[[16.79,78.71],[17.71,78.83],[17.53,79.06],[16.17,79.37],[17.14,79.5],[19.76,78.86],[18.05,78.39],[16.79,78.71]],[[13.4,78.97],[11.93,79.26],[14.03,79.32],[14.29,79.11],[13.4,78.97]]],[[[141.23,24.55],[141.59,24.02],[141.89,24.32],[141.22,25.58],[140.92,25.29],[141.23,24.55]]],[[[174.07,-0.35],[174.4,-1.19],[175.09,-1.68],[174.74,-0.56],[174.07,-0.35]]],[[[154.84,-2.89],[154.44,-2.83],[154.71,-3.61],[154.84,-2.89]]],[[[163.36,-67.09],[163.65,-66.72],[162.15,-66.46],[163.36,-67.09]]],[[[-9.89,71.0],[-10.09,70.78],[-9.69,70.62],[-7.05,71.03],[-7.59,71.58],[-9.89,71.0]]],[[[-92.13,1.94],[-92.33,1.56],[-91.87,1.1],[-91.68,1.49],[-92.13,1.94]]],[[[-140.85,-14.14],[-141.21,-13.91],[-141.71,-14.28],[-141.35,-14.51],[-140.85,-14.14]]],[[[172.98,0.57],[173.61,2.22],[172.67,1.94],[172.98,0.57]]],[[[-170.97,63.32],[-170.45,63.28],[-170.66,62.88],[-170.0,62.62],[-168.76,62.92],[-168.53,63.32],[-170.55,64.13],[-172.72,63.65],[-171.85,63.18],[-170.97,63.32]]],[[[145.57,14.9],[145.96,14.57],[145.95,15.7],[145.42,15.3],[145.57,14.9]]],[[[-172.02,-9.53],[-171.63,-9.41],[-171.58,-8.82],[-171.97,-8.94],[-172.02,-9.53]]],[[[-157.35,2.09],[-157.75,1.93],[-157.05,1.41],[-157.35,2.09]]],[[[-22.94,15.77],[-22.5,15.8],[-22.32,16.4],[-23.04,17.17],[-22.94,15.77]]],[[[-11.9,63.24],[-12.46,62.95],[-11.73,62.89],[-11.9,63.24]]],[[[72.55,-5.55],[72.39,-5.18],[71.32,-5.16],[71.48,-5.53],[72.55,-5.55]]],[[[-80.09,-26.43],[-79.59,-26.62],[-80.13,-25.96],[-80.09,-26.43]]],[[[180.0,-9.03],[179.68,-9.73],[180.0,-9.67],[180.0,-9.03]]],[[[152.22,46.65],[153.36,47.39],[153.24,48.01],[153.65,48.34],[153.04,48.4],[151.43,47.09],[152.22,46.65]]],[[[133.94,-5.89],[133.78,-6.86],[134.8,-7.42],[135.25,-6.11],[134.94,-5.3],[134.07,-5.15],[133.94,-5.89]]],[[[-5.72,62.07],[-6.37,62.74],[-7.76,61.97],[-6.74,61.16],[-6.28,61.42],[-6.6,61.76],[-5.72,62.07]]],[[[-47.48,-81.0],[-45.64,-80.67],[-45.36,-80.42],[-46.51,-80.25],[-50.22,-80.89],[-47.48,-81.0]]],[[[-159.88,-19.21],[-159.36,-18.63],[-160.23,-18.93],[-159.88,-19.21]]],[[[146.06,7.9],[145.63,7.98],[145.73,7.31],[146.6,7.15],[146.49,7.81],[146.06,7.9]]],[[[-150.67,-9.88],[-150.22,-10.34],[-149.83,-10.19],[-150.28,-9.73],[-150.67,-9.88]]],[[[165.64,-11.14],[166.04,-11.16],[166.61,-10.03],[166.02,-10.31],[165.41,-9.97],[165.64,-11.14]]],[[[165.6,-50.5],[165.28,-50.86],[165.96,-51.3],[166.9,-50.2],[165.6,-50.5]]],[[[-165.28,-79.68],[-163.51,-80.17],[-158.8,-80.22],[-157.48,-79.88],[-161.19,-78.74],[-165.71,-79.11],[-165.97,-79.32],[-165.03,-79.46],[-165.28,-79.68]]],[[[-141.43,-18.22],[-140.68,-18.68],[-140.66,-17.43],[-141.43,-18.22]]],[[[35.55,80.19],[33.55,80.73],[30.68,80.11],[34.08,79.89],[35.55,80.19]]],[[[176.02,-2.88],[176.23,-2.4],[175.97,-2.18],[176.02,-2.88]]],[[[81.74,75.92],[81.79,75.67],[80.98,75.54],[81.88,75.18],[84.33,76.29],[82.56,76.29],[81.74,75.92]]],[[[106.04,-10.49],[105.87,-10.15],[105.24,-10.24],[105.58,-10.92],[106.04,-10.49]]],[[[57.85,-20.47],[58.16,-20.15],[57.84,-19.57],[56.91,-20.52],[57.54,-20.79],[57.85,-20.47]]],[[[144.33,7.06],[144.42,7.56],[143.74,7.55],[144.33,7.06]]],[[[1.07,-70.11],[0.01,-70.35],[1.18,-70.55],[1.49,-70.32],[1.07,-70.11]]],[[[176.88,-12.58],[177.28,-12.69],[176.82,-12.17],[176.88,-12.58]]],[[[52.34,11.9],[52.58,12.28],[52.09,12.43],[52.34,11.9]]],[[[142.98,-1.67],[143.26,-1.33],[142.83,-1.26],[142.5,-1.85],[142.98,-1.67]]],[[[19.35,74.82],[17.87,74.81],[19.64,74.2],[20.22,74.51],[19.35,74.82]]],[[[-29.76,82.88],[-29.6,83.1],[-31.26,83.23],[-33.1,82.91],[-29.76,82.88]]],[[[145.28,-1.29],[144.51,-0.64],[143.65,-1.66],[144.37,-1.39],[144.99,-1.63],[145.28,-1.29]]],[[[-157.48,-19.58],[-159.08,-19.33],[-158.27,-20.12],[-157.19,-20.28],[-157.48,-19.58]]],[[[-8.09,58.16],[-8.82,58.23],[-9.27,57.73],[-8.54,57.67],[-8.09,58.16]]],[[[50.73,-46.46],[50.09,-45.94],[50.13,-46.51],[50.73,-46.46]]],[[[-171.55,-13.75],[-172.13,-13.2],[-172.94,-13.45],[-172.31,-14.22],[-171.6,-14.37],[-171.19,-14.25],[-171.55,-13.75]]],[[[-14.54,-7.72],[-14.31,-8.3],[-14.08,-7.79],[-14.54,-7.72]]],[[[175.62,-2.12],[175.88,-1.65],[175.44,-1.75],[175.62,-2.12]]],[[[63.38,-19.86],[63.88,-19.68],[62.97,-19.53],[63.38,-19.86]]],[[[-141.33,-19.27],[-140.57,-19.74],[-140.19,-19.55],[-141.07,-18.87],[-141.33,-19.27]]],[[[-27.04,-56.27],[-27.79,-56.32],[-27.33,-56.64],[-27.04,-56.27]]],[[[-59.35,13.51],[-59.74,13.42],[-59.85,12.83],[-59.07,13.01],[-59.35,13.51]]],[[[-141.37,-15.73],[-140.89,-16.18],[-139.79,-16.05],[-140.27,-15.61],[-141.37,-15.73]]],[[[179.2,-49.93],[179.41,-49.55],[178.23,-49.74],[179.2,-49.93]]],[[[-28.45,-4.25],[-28.17,-4.58],[-27.57,-4.33],[-27.85,-4.01],[-28.45,-4.25]]],[[[-169.78,57.36],[-171.04,57.47],[-169.96,56.99],[-169.78,57.36]]],[[[52.35,-46.13],[51.56,-46.59],[52.49,-46.5],[52.35,-46.13]]],[[[158.93,-5.59],[159.84,-5.84],[160.09,-5.52],[159.43,-4.95],[158.93,-5.59]]],[[[-171.1,-11.34],[-170.7,-11.22],[-171.28,-10.69],[-171.1,-11.34]]],[[[152.07,76.51],[151.95,76.26],[152.81,76.1],[153.97,76.46],[152.07,76.51]]],[[[96.82,-12.36],[97.26,-12.17],[96.87,-11.7],[96.41,-12.12],[96.82,-12.36]]],[[[173.27,3.14],[173.09,3.61],[172.48,3.2],[172.66,2.74],[173.27,3.14]]],[[[77.2,79.71],[74.65,79.9],[77.53,79.22],[78.58,79.36],[78.44,79.61],[77.2,79.71]]],[[[167.19,-9.74],[166.8,-9.72],[167.01,-10.04],[167.6,-9.97],[167.19,-9.74]]],[[[51.09,-9.54],[51.22,-9.08],[50.63,-9.0],[50.65,-9.63],[51.09,-9.54]]],[[[72.13,-7.02],[72.27,-7.63],[72.69,-7.68],[72.56,-7.07],[72.13,-7.02]]],[[[-163.37,-12.99],[-163.13,-13.67],[-162.88,-13.08],[-163.37,-12.99]]],[[[-16.8,-72.32],[-17.38,-72.51],[-17.13,-72.75],[-15.71,-72.62],[-16.8,-72.32]]],[[[79.56,74.79],[77.99,74.76],[78.91,74.41],[79.64,74.55],[79.56,74.79]]],[[[102.31,-5.91],[102.78,-5.46],[102.61,-5.09],[101.95,-5.17],[102.31,-5.91]]],[[[-161.22,-10.02],[-160.97,-10.67],[-160.73,-10.1],[-161.22,-10.02]]],[[[-44.72,-60.28],[-46.05,-60.3],[-46.73,-60.85],[-44.1,-61.06],[-44.72,-60.28]]],[[[78.1,-37.88],[77.33,-37.47],[77.53,-38.09],[78.1,-37.88]]],[[[176.42,-5.61],[175.87,-5.49],[176.29,-5.94],[176.42,-5.61]]],[[[-171.36,-3.26],[-170.94,-3.71],[-170.6,-3.58],[-171.02,-3.12],[-171.36,-3.26]]],[[[71.12,-6.54],[71.28,-6.91],[71.77,-6.5],[71.45,-5.76],[70.96,-6.16],[71.12,-6.54]]],[[[-143.81,-20.18],[-143.71,-20.83],[-143.06,-21.08],[-143.41,-19.99],[-143.81,-20.18]]],[[[147.35,76.98],[147.31,76.73],[148.25,76.59],[149.32,76.96],[147.35,76.98]]],[[[-60.68,-68.97],[-59.69,-68.72],[-60.78,-68.54],[-61.07,-68.77],[-60.68,-68.97]]],[[[145.37,19.75],[145.77,19.43],[145.66,20.06],[145.22,20.15],[145.37,19.75]]],[[[-170.28,-19.2],[-169.71,-19.55],[-169.48,-18.72],[-170.16,-18.79],[-170.28,-19.2]]],[[[90.95,77.04],[91.08,77.29],[90.18,77.44],[88.23,77.49],[87.17,77.13],[90.95,77.04]]],[[[-140.38,-8.89],[-140.54,-9.44],[-140.19,-9.67],[-139.5,-9.35],[-139.31,-8.8],[-140.31,-8.51],[-140.38,-8.89]]],[[[-159.93,-21.65],[-159.4,-21.06],[-160.3,-21.36],[-159.93,-21.65]]],[[[-169.52,17.15],[-169.9,16.96],[-169.81,16.32],[-169.06,16.7],[-169.52,17.15]]],[[[169.59,10.35],[170.12,10.05],[170.44,10.28],[169.91,10.58],[169.59,10.35]]],[[[140.19,33.13],[139.53,33.3],[139.29,32.97],[139.95,32.79],[140.19,33.13]]],[[[-9.66,-40.03],[-10.2,-40.2],[-10.07,-40.43],[-9.74,-40.47],[-9.66,-40.03]]],[[[-44.59,-79.67],[-44.83,-79.92],[-43.69,-80.08],[-42.13,-79.73],[-44.59,-79.67]]],[[[165.35,12.0],[165.36,11.42],[165.75,11.29],[165.75,11.87],[165.35,12.0]]],[[[176.46,52.28],[176.4,52.69],[175.83,52.47],[176.46,52.28]]],[[[-177.2,-43.95],[-176.17,-44.68],[-175.76,-44.17],[-176.5,-43.53],[-177.2,-43.95]]],[[[166.49,-48.43],[166.8,-48.3],[166.47,-47.95],[166.17,-48.33],[166.49,-48.43]]]]}}]}