{"type":"FeatureCollection","features":[{"type":"Feature","properties":{},"geometry":{"type":"MultiPolygon","coordinates":[[[[123.02,46.69],[122.86,46.03],[121.58,45.35],[121.64,44.85],[120.97,44.6],[121.03,44.11],[120.33,43.55],[118.0,43.0],[117.48,43.31],[117.46,44.04],[116.82,43.42],[114.76,44.1],[114.57,44.65],[113.9,44.37],[113.25,45.06],[112.12,44.9],[109.6,45.72],[105.72,45.04],[103.43,45.63],[102.2,45.36],[102.06,45.76],[102.9,45.73],[102.85,46.36],[103.26,46.65],[102.48,46.92],[101.91,46.16],[100.25,46.44],[99.85,47.0],[98.56,46.7],[95.37,47.24],[94.87,46.41],[94.39,46.97],[93.18,47.09],[92.71,47.89],[91.96,47.2],[92.85,46.99],[93.04,46.35],[92.11,46.3],[90.14,47.59],[88.3,48.21],[88.04,48.85],[87.08,49.03],[86.8,49.67],[85.81,49.83],[86.84,50.18],[86.56,50.82],[83.47,51.03],[83.83,51.66],[85.26,52.13],[86.3,51.97],[87.04,52.44],[86.09,53.86],[83.91,54.68],[85.78,54.75],[86.86,54.33],[87.29,54.93],[86.62,55.71],[85.5,56.13],[88.19,56.12],[88.65,56.71],[87.94,57.25],[86.76,57.19],[86.01,57.71],[85.6,57.6],[85.97,57.22],[85.55,56.87],[84.42,58.01],[83.21,58.16],[82.4,58.91],[79.04,59.15],[78.14,59.63],[76.88,59.48],[75.91,60.18],[74.58,60.25],[73.49,61.17],[69.22,61.73],[68.54,62.28],[65.62,62.49],[64.87,63.01],[63.96,62.91],[63.7,62.51],[63.06,62.8],[63.32,63.19],[61.22,63.41],[60.99,63.01],[59.73,62.71],[59.52,62.31],[60.32,61.81],[59.76,61.23],[59.27,61.27],[58.47,61.77],[58.66,62.17],[57.99,62.43],[58.19,62.84],[57.5,63.1],[54.92,62.64],[51.15,62.99],[49.52,62.62],[48.09,63.04],[46.8,62.84],[45.1,63.42],[45.42,64.02],[44.42,64.4],[44.76,65.39],[44.5,65.58],[43.15,65.35],[42.87,64.36],[41.59,64.5],[41.32,65.08],[39.74,65.39],[42.37,66.29],[43.18,66.13],[42.9,65.92],[43.17,65.74],[44.53,65.97],[44.9,66.95],[46.54,66.59],[48.0,66.8],[48.5,67.77],[50.4,68.15],[52.99,68.49],[54.66,68.06],[55.06,68.24],[54.85,68.44],[54.01,68.66],[54.41,68.84],[56.71,68.37],[58.18,68.68],[57.98,68.89],[56.29,68.77],[54.59,69.22],[47.65,67.96],[46.53,68.32],[46.86,68.52],[46.59,68.7],[43.28,68.81],[42.97,68.61],[43.86,68.45],[44.11,67.89],[42.37,67.06],[41.24,67.39],[41.51,67.98],[41.21,68.15],[38.88,68.4],[38.51,68.94],[35.89,69.5],[36.2,68.78],[37.67,68.7],[38.05,68.16],[40.66,67.75],[40.39,67.54],[40.72,66.6],[38.33,66.27],[31.69,67.21],[31.78,66.26],[32.59,66.15],[33.01,65.62],[32.17,65.14],[30.6,65.35],[29.97,65.07],[31.52,64.87],[31.77,64.12],[29.06,64.37],[28.59,64.89],[27.83,64.98],[27.79,65.55],[25.91,65.85],[25.5,66.56],[23.11,66.74],[21.34,66.41],[20.33,65.81],[20.51,65.26],[16.13,65.45],[15.75,65.36],[16.01,64.82],[14.55,64.44],[13.61,65.2],[14.39,65.81],[13.69,66.23],[14.94,66.36],[13.35,66.76],[14.92,67.17],[15.75,68.21],[17.16,68.32],[17.89,68.89],[17.15,69.36],[21.23,69.76],[22.17,70.33],[23.88,70.0],[23.25,70.51],[23.8,70.6],[26.63,70.41],[27.79,70.77],[30.63,70.52],[28.88,70.31],[29.87,69.66],[32.59,69.58],[33.5,69.1],[34.97,69.05],[35.2,69.26],[34.82,69.6],[31.7,70.25],[30.74,70.92],[28.97,70.91],[27.85,71.37],[26.65,71.01],[24.27,71.49],[21.98,71.12],[21.0,70.54],[18.76,70.54],[18.02,69.76],[13.75,69.0],[13.29,68.23],[11.93,68.08],[11.42,67.5],[13.38,67.4],[11.83,66.97],[10.9,65.85],[11.64,65.45],[10.48,65.3],[10.41,64.87],[9.6,64.53],[9.77,64.2],[6.38,63.95],[4.84,63.37],[4.95,62.85],[3.95,62.44],[2.83,62.55],[0.87,61.67],[1.04,61.14],[0.1,60.68],[-1.28,61.1],[-2.67,60.37],[-2.46,59.82],[-3.36,59.32],[-4.48,59.36],[-3.53,58.71],[-4.97,58.89],[-7.67,58.44],[-7.36,58.09],[-7.78,57.81],[-7.52,57.25],[-8.34,56.67],[-7.3,56.46],[-7.7,56.17],[-7.45,55.6],[-8.9,55.29],[-9.29,54.99],[-9.02,54.41],[-10.75,54.44],[-10.44,54.08],[-10.84,53.54],[-10.21,53.03],[-10.97,52.17],[-10.38,51.43],[-11.43,50.69],[-11.16,50.08],[-12.18,49.32],[-11.95,47.99],[-13.23,47.57],[-14.22,46.28],[-13.62,45.77],[-13.95,45.16],[-11.73,42.34],[-12.09,40.98],[-11.56,40.45],[-11.88,39.84],[-11.36,39.31],[-11.72,37.94],[-10.98,36.77],[-9.15,36.54],[-8.58,37.01],[-7.02,36.88],[-6.15,35.56],[-7.35,33.91],[-8.9,33.51],[-10.03,32.07],[-9.81,31.68],[-10.1,31.07],[-8.68,30.5],[-9.5,29.42],[-9.29,29.04],[-7.26,30.17],[-6.31,30.11],[-4.42,31.81],[-3.56,31.24],[-3.45,31.97],[-2.44,32.35],[-2.05,31.82],[2.01,33.22],[2.38,33.79],[3.93,34.04],[4.99,35.25],[5.76,35.25],[6.13,34.68],[6.75,35.08],[8.46,34.63],[10.05,35.47],[11.36,35.33],[11.1,36.17],[11.56,36.72],[11.43,37.13],[9.14,37.7],[8.11,37.0],[6.37,37.42],[5.73,37.02],[4.0,37.4],[2.56,36.73],[1.36,37.01],[0.29,36.65],[-0.07,36.09],[-1.6,35.81],[-2.2,35.15],[-3.09,35.75],[-3.66,35.32],[-4.65,35.42],[-5.08,35.96],[-3.97,36.59],[-2.26,36.26],[-1.33,37.25],[-0.58,37.26],[-0.21,37.82],[-0.38,38.21],[0.25,38.85],[-0.09,39.63],[1.23,40.9],[2.02,40.94],[2.42,41.49],[3.59,41.85],[3.25,42.6],[3.67,43.16],[6.35,42.85],[8.77,44.1],[10.12,43.78],[9.23,42.94],[8.37,42.94],[8.52,42.55],[8.05,42.01],[8.97,41.37],[8.05,41.14],[7.6,40.59],[8.35,40.35],[7.67,39.09],[8.56,38.44],[9.31,39.06],[10.14,39.04],[9.86,39.85],[10.33,40.4],[9.67,41.76],[11.02,42.28],[12.47,41.52],[12.74,40.71],[14.67,40.44],[14.8,40.03],[15.55,39.73],[15.57,39.08],[14.32,38.84],[14.35,38.19],[13.52,38.24],[13.17,38.83],[11.98,37.92],[12.33,37.33],[14.19,37.05],[14.53,36.45],[15.35,36.39],[15.61,37.77],[16.45,37.7],[16.96,38.23],[16.85,38.65],[17.58,39.0],[17.58,39.65],[16.83,39.96],[17.25,40.25],[17.79,40.12],[18.11,39.52],[19.4,39.72],[19.5,39.3],[20.24,38.97],[20.34,38.54],[19.8,38.02],[20.53,37.69],[21.24,36.68],[22.07,36.57],[22.35,35.95],[23.18,35.83],[23.34,34.96],[24.04,34.6],[24.77,34.9],[25.77,34.57],[26.75,35.33],[27.55,35.18],[27.62,35.85],[28.42,35.69],[28.49,36.36],[30.29,35.83],[31.12,36.75],[32.1,36.36],[32.32,35.72],[33.07,35.97],[33.11,35.54],[31.79,34.82],[33.21,34.23],[35.08,35.82],[34.6,36.02],[33.72,35.56],[33.68,35.99],[34.88,36.46],[35.52,36.04],[35.62,34.31],[34.64,33.19],[34.83,32.54],[33.88,31.41],[34.94,30.79],[35.66,31.04],[35.83,30.39],[38.82,30.68],[39.67,30.25],[40.78,30.26],[41.33,30.68],[42.02,30.46],[42.58,31.31],[41.62,32.39],[41.77,33.88],[42.61,33.44],[44.57,33.37],[45.87,34.76],[46.35,33.48],[47.45,33.83],[48.35,33.12],[49.06,33.23],[49.13,32.61],[50.17,32.06],[50.23,31.45],[50.87,31.14],[50.92,30.54],[51.62,30.62],[52.3,29.7],[52.53,30.26],[54.14,29.96],[53.75,30.84],[53.03,30.77],[52.63,31.65],[51.1,32.72],[51.72,33.03],[53.39,32.75],[52.24,33.56],[52.3,33.97],[52.98,33.65],[53.52,34.18],[54.68,33.35],[56.09,33.71],[56.0,33.31],[56.38,33.03],[56.95,33.55],[57.42,33.03],[58.55,32.79],[58.92,32.49],[58.9,31.86],[59.54,31.51],[60.21,31.78],[60.7,33.38],[62.7,32.9],[63.13,32.35],[64.74,32.15],[65.15,31.6],[66.26,31.29],[66.1,30.89],[66.67,29.64],[66.15,28.72],[66.47,28.41],[67.31,29.02],[67.31,30.1],[68.38,29.78],[68.77,30.32],[69.4,29.68],[69.89,29.74],[70.43,30.9],[70.07,31.46],[70.43,32.24],[71.36,32.85],[71.96,32.42],[73.94,33.12],[75.83,32.43],[77.28,30.49],[78.03,30.42],[79.33,29.2],[81.51,28.96],[82.94,27.86],[83.88,27.89],[84.36,28.36],[85.24,27.23],[92.04,26.81],[92.55,27.26],[93.26,27.11],[94.25,27.54],[94.79,28.21],[96.46,28.0],[96.37,27.06],[97.08,26.9],[97.14,27.6],[97.87,27.66],[97.81,26.96],[98.24,26.45],[97.88,25.17],[98.98,24.23],[99.73,24.53],[99.63,23.57],[100.1,23.52],[100.64,24.2],[102.05,24.06],[102.47,23.53],[103.18,23.57],[104.05,22.99],[104.13,23.71],[104.84,23.74],[104.46,24.51],[104.75,25.07],[105.46,25.1],[106.01,25.75],[107.6,25.4],[107.68,26.1],[109.11,26.35],[108.56,27.48],[109.11,28.09],[108.95,28.68],[109.77,29.56],[110.92,29.48],[111.14,30.99],[111.93,31.61],[111.61,32.54],[112.4,33.13],[113.74,32.86],[113.43,33.77],[115.98,33.95],[116.93,33.0],[118.2,32.69],[118.06,31.89],[118.57,31.03],[119.2,30.97],[119.72,31.47],[120.5,29.89],[121.58,29.99],[121.89,29.36],[122.32,29.35],[123.01,30.78],[122.38,30.89],[122.07,31.5],[122.37,31.99],[121.75,32.09],[121.63,32.59],[123.35,32.57],[124.3,32.95],[124.73,34.01],[124.05,34.98],[121.87,34.98],[121.41,35.87],[121.55,36.6],[122.64,36.64],[123.07,37.63],[121.18,37.94],[121.07,38.44],[121.59,38.85],[122.86,39.06],[123.3,38.69],[123.86,39.79],[124.69,39.45],[124.96,38.95],[124.63,37.73],[125.9,37.75],[126.13,37.44],[125.56,36.91],[125.93,36.54],[125.6,36.08],[125.97,35.7],[125.81,34.95],[125.13,34.87],[124.97,34.11],[126.06,33.98],[125.9,33.21],[126.99,33.07],[127.27,33.35],[126.95,33.95],[127.84,33.92],[128.87,34.45],[129.2,33.85],[128.45,32.5],[129.69,32.93],[130.01,32.3],[129.68,31.82],[130.34,31.67],[130.67,31.03],[131.79,31.97],[131.96,32.77],[132.88,32.69],[133.72,33.32],[134.39,33.16],[135.0,33.92],[135.85,33.43],[138.03,34.45],[138.92,34.39],[139.33,33.66],[139.78,33.63],[139.38,34.6],[140.78,34.96],[140.59,35.57],[141.29,35.64],[140.9,36.62],[141.43,37.3],[141.01,38.04],[141.74,38.11],[142.3,38.79],[142.11,39.41],[142.4,39.75],[141.51,40.99],[141.82,41.57],[141.37,42.3],[142.16,42.39],[143.14,41.87],[144.59,42.87],[145.95,42.9],[146.31,43.49],[147.16,43.55],[146.99,44.17],[147.68,44.85],[148.55,44.9],[149.27,45.57],[150.42,45.47],[151.18,46.14],[150.78,46.91],[149.64,45.91],[147.82,45.57],[147.42,44.99],[146.22,44.58],[145.42,44.75],[144.8,44.3],[142.69,44.87],[142.26,45.83],[142.86,46.28],[143.64,45.91],[144.0,46.49],[142.83,48.28],[143.8,49.08],[144.55,48.24],[145.24,48.92],[143.72,50.79],[144.02,51.34],[143.34,51.76],[143.98,52.43],[143.61,52.98],[143.94,53.31],[143.22,53.75],[143.54,54.32],[142.43,54.64],[142.11,54.29],[142.51,53.74],[141.47,53.6],[139.85,54.89],[138.46,54.59],[138.7,55.18],[138.26,55.5],[136.66,55.86],[135.33,55.29],[135.15,54.7],[136.7,54.37],[136.5,53.78],[137.31,53.39],[138.69,53.47],[139.26,54.18],[139.97,54.21],[141.17,53.25],[140.89,52.69],[140.22,52.66],[140.47,53.22],[140.11,53.32],[139.1,53.16],[139.54,52.63],[138.16,51.13],[136.96,52.03],[136.3,51.98],[136.12,51.42],[136.92,50.83],[136.45,50.15],[134.59,49.99],[132.71,49.05],[131.19,48.98],[130.68,49.45],[130.85,49.79],[129.98,50.33],[127.49,50.74],[127.11,50.23],[127.57,49.98],[127.54,49.43],[128.33,49.12],[129.5,49.29],[129.93,49.03],[129.86,48.49],[130.61,48.17],[129.88,47.75],[129.53,46.57],[127.9,46.33],[128.16,46.98],[127.65,47.42],[126.34,47.63],[125.68,47.2],[125.13,47.63],[125.24,47.96],[123.91,48.14],[123.07,47.54],[123.02,46.69]],[[63.53,53.91],[63.74,54.33],[65.63,54.46],[66.19,55.05],[68.88,55.22],[69.49,55.79],[73.38,56.1],[74.26,55.64],[76.96,55.89],[77.8,55.41],[78.94,55.56],[80.51,55.08],[80.91,54.71],[80.56,54.08],[82.05,53.57],[81.69,52.94],[82.78,51.8],[81.06,50.15],[80.02,50.26],[78.68,49.72],[77.95,50.21],[77.31,49.67],[74.22,49.64],[72.68,48.62],[71.35,48.5],[70.43,46.58],[71.42,46.55],[72.21,45.85],[72.02,45.18],[73.36,44.78],[73.16,44.11],[69.81,43.64],[68.07,44.34],[67.66,43.5],[68.6,43.49],[69.38,42.81],[69.44,42.56],[68.58,42.32],[68.17,41.48],[68.99,40.55],[65.93,40.89],[64.73,41.88],[63.33,41.51],[63.17,41.08],[63.66,40.52],[62.86,40.24],[60.61,40.72],[60.1,41.27],[58.24,41.39],[57.71,41.93],[56.83,41.85],[56.28,42.38],[57.07,43.37],[56.17,43.29],[55.15,44.1],[53.79,44.28],[53.7,43.85],[54.61,43.29],[54.06,43.14],[52.1,44.48],[51.15,43.93],[51.09,44.58],[50.21,44.45],[49.6,44.94],[49.85,46.65],[50.61,47.02],[50.54,47.68],[51.34,48.05],[51.42,48.48],[52.37,48.62],[52.69,49.25],[53.67,49.37],[54.01,50.0],[54.9,49.69],[56.41,50.18],[56.79,50.13],[56.79,49.46],[58.29,49.26],[58.15,48.83],[58.64,48.54],[59.19,49.58],[58.58,50.12],[58.73,50.55],[60.55,50.51],[61.0,51.13],[61.67,51.25],[61.06,51.8],[61.61,53.07],[63.53,53.91]],[[122.01,40.3],[121.23,40.0],[120.88,38.59],[120.39,38.35],[120.51,37.85],[119.86,37.93],[119.71,37.21],[119.29,37.32],[119.6,37.72],[119.25,38.19],[117.96,38.52],[119.36,39.07],[119.48,39.61],[121.26,40.69],[121.97,40.75],[122.01,40.3]],[[129.99,41.48],[130.37,42.17],[131.26,42.22],[131.69,42.69],[132.6,42.73],[133.08,42.3],[133.53,42.77],[134.24,42.68],[135.19,43.16],[135.68,44.08],[136.42,44.21],[136.94,45.14],[137.71,45.27],[140.93,49.1],[140.65,49.65],[141.22,50.09],[140.75,51.26],[141.35,51.71],[142.06,51.3],[141.48,50.64],[141.85,50.11],[141.55,50.0],[141.85,49.67],[141.42,48.41],[141.94,47.94],[141.62,47.59],[141.84,47.01],[140.94,46.2],[141.71,45.84],[140.87,45.5],[141.34,44.79],[141.04,44.44],[141.25,43.85],[140.18,43.4],[139.35,42.36],[140.08,41.99],[139.3,41.66],[140.03,41.28],[139.76,40.94],[139.96,40.34],[139.45,39.89],[139.65,39.29],[139.13,38.6],[138.42,38.51],[137.93,37.83],[138.14,37.24],[137.68,37.26],[137.02,38.32],[136.32,37.53],[136.54,36.95],[135.86,35.93],[133.92,35.87],[133.26,36.66],[132.85,36.22],[133.08,35.66],[131.67,34.89],[130.81,34.92],[130.94,34.43],[130.39,34.07],[129.41,34.81],[129.82,35.65],[129.7,37.18],[127.83,39.7],[129.45,40.24],[129.61,40.8],[130.25,40.94],[129.99,41.48]],[[106.9,29.11],[106.18,29.09],[105.6,28.25],[104.89,28.23],[104.5,28.97],[103.81,29.17],[103.64,29.76],[104.56,29.42],[105.67,30.64],[106.6,30.51],[107.01,30.0],[107.54,30.37],[107.72,30.0],[106.9,29.11]],[[45.6,68.12],[45.87,67.93],[45.55,67.73],[44.7,67.9],[45.05,68.48],[45.65,68.5],[45.93,68.31],[45.6,68.12]],[[88.67,34.96],[88.45,35.33],[88.72,35.45],[88.96,35.32],[88.67,34.96]],[[137.93,49.19],[138.17,49.52],[137.8,49.81],[138.33,50.28],[137.91,50.79],[139.11,51.29],[140.1,51.23],[139.56,50.56],[139.96,50.04],[139.15,49.26],[139.5,48.74],[138.37,48.26],[137.51,48.33],[137.7,48.86],[137.32,49.15],[137.93,49.19]],[[85.31,34.4],[85.58,34.77],[86.35,34.64],[86.07,34.28],[85.31,34.4]],[[24.11,35.94],[23.8,35.9],[23.52,36.53],[23.95,36.8],[24.97,36.48],[25.24,35.84],[26.18,35.94],[25.32,35.41],[24.11,35.94]],[[127.84,45.3],[127.44,45.54],[127.96,45.63],[127.84,45.3]],[[95.61,38.29],[97.29,38.84],[98.01,38.63],[96.51,37.71],[96.11,38.24],[95.28,37.95],[95.61,38.29]],[[15.57,42.54],[14.81,42.19],[14.43,43.4],[13.64,43.67],[13.74,43.9],[14.5,44.26],[14.86,43.69],[15.19,43.75],[15.44,42.95],[16.22,42.66],[15.57,42.54]],[[17.11,42.59],[18.98,42.03],[19.19,40.55],[17.78,40.77],[17.45,41.36],[16.36,41.61],[16.34,42.25],[17.11,42.59]],[[38.9,65.92],[39.95,65.98],[38.48,65.11],[36.1,65.52],[35.72,66.07],[36.46,66.32],[38.9,65.92]],[[26.15,38.13],[26.34,37.93],[25.9,37.67],[24.67,38.2],[25.11,38.47],[26.15,38.13]],[[83.79,35.86],[83.26,35.85],[83.53,36.23],[84.32,36.11],[83.79,35.86]],[[80.86,35.67],[82.73,35.85],[82.99,35.48],[82.2,34.61],[81.67,35.08],[80.88,34.93],[79.81,35.38],[79.51,35.99],[79.77,36.13],[80.86,35.67]],[[121.84,30.29],[121.46,30.5],[121.96,30.9],[121.84,30.29]],[[89.11,34.23],[89.61,34.21],[89.03,33.51],[88.82,33.88],[89.11,34.23]],[[64.14,40.86],[64.56,41.46],[65.36,40.8],[64.54,40.54],[64.14,40.86]],[[98.26,37.64],[97.5,37.6],[97.34,37.98],[98.11,38.01],[98.26,37.64]],[[88.79,36.17],[86.18,36.23],[85.87,35.38],[85.37,35.87],[85.66,36.48],[86.72,36.47],[87.28,36.95],[88.29,36.43],[89.09,36.53],[89.31,36.16],[88.79,36.17]],[[73.28,45.29],[72.85,45.9],[73.36,46.72],[74.65,46.82],[75.23,47.38],[76.97,46.57],[78.9,46.65],[78.63,45.99],[77.68,45.83],[77.42,45.17],[76.17,45.11],[75.6,44.56],[73.28,45.29]],[[81.16,34.33],[79.34,34.13],[79.06,34.48],[81.42,34.7],[81.68,34.35],[81.16,34.33]],[[43.21,66.9],[44.04,66.73],[43.19,66.51],[42.92,66.7],[43.21,66.9]],[[89.77,35.65],[89.47,35.3],[89.26,35.67],[89.85,36.38],[90.94,36.81],[91.9,36.27],[91.29,35.58],[89.77,35.65]],[[25.53,39.81],[25.86,39.84],[25.93,39.41],[25.41,39.58],[25.53,39.81]],[[77.66,35.52],[77.42,35.13],[76.82,35.84],[77.66,35.52]],[[28.68,41.98],[29.01,42.0],[29.07,41.58],[28.54,41.76],[28.68,41.98]],[[37.46,65.04],[37.74,64.87],[37.52,64.66],[36.75,64.8],[37.46,65.04]],[[24.63,39.29],[25.68,38.96],[24.71,38.86],[24.63,39.29]],[[78.74,35.33],[79.03,34.98],[78.26,34.56],[78.74,35.33]],[[9.64,62.27],[8.9,62.3],[9.44,62.55],[9.64,62.27]],[[15.88,68.87],[16.53,68.59],[15.54,68.58],[15.88,68.87]],[[-8.54,31.99],[-7.79,32.07],[-7.59,31.68],[-8.61,31.25],[-8.82,31.63],[-8.54,31.99]],[[95.79,46.44],[95.99,46.04],[95.41,46.1],[95.79,46.44]],[[8.88,61.67],[8.36,61.41],[7.42,61.73],[8.88,61.67]],[[90.4,34.54],[90.6,34.18],[90.31,33.83],[89.9,34.56],[90.4,34.54]],[[45.82,67.55],[47.57,67.57],[47.18,66.99],[45.77,67.16],[45.51,67.35],[45.82,67.55]],[[99.47,45.81],[99.3,46.21],[99.62,46.29],[100.42,46.04],[99.47,45.81]]],[[[-166.24,60.8],[-167.4,60.52],[-167.63,60.13],[-166.96,59.66],[-165.74,59.72],[-165.14,60.25],[-163.65,59.65],[-161.72,59.98],[-163.02,60.17],[-162.81,60.76],[-163.33,61.04],[-164.61,61.01],[-165.73,61.56],[-165.29,62.55],[-166.15,62.44],[-166.67,61.67],[-165.52,61.12],[-166.24,60.8]]],[[[-29.2,68.13],[-25.56,68.48],[-24.97,69.07],[-23.37,69.16],[-20.82,70.49],[-21.18,71.1],[-22.19,71.61],[-21.4,72.17],[-21.89,72.55],[-21.15,72.87],[-21.65,73.25],[-20.06,73.89],[-21.39,73.95],[-22.94,73.29],[-22.48,72.69],[-24.97,72.99],[-22.39,70.91],[-25.22,71.33],[-27.62,70.17],[-27.07,69.81],[-25.92,70.27],[-23.69,70.23],[-23.16,70.1],[-23.83,69.52],[-25.46,69.43],[-26.59,68.73],[-28.17,68.85],[-29.21,68.37],[-31.87,68.44],[-33.21,67.3],[-34.7,67.11],[-35.03,66.48],[-36.02,66.43],[-36.83,65.88],[-39.3,65.81],[-39.62,65.41],[-40.99,65.15],[-41.55,64.34],[-40.79,63.79],[-41.06,63.38],[-42.33,63.1],[-43.58,60.38],[-45.51,59.94],[-43.21,59.67],[-41.7,62.8],[-40.45,63.07],[-39.59,64.28],[-40.34,64.84],[-38.98,65.09],[-38.66,65.49],[-36.22,65.55],[-35.41,66.09],[-34.43,66.15],[-34.1,66.77],[-32.63,66.96],[-31.78,67.95],[-29.2,68.13]],[[-24.76,70.49],[-25.28,70.86],[-24.13,70.84],[-24.76,70.49]]],[[[158.14,58.58],[157.5,58.04],[156.27,58.03],[156.45,57.42],[155.51,57.03],[155.78,56.65],[155.29,56.34],[155.55,55.97],[155.0,55.43],[155.58,54.92],[155.05,54.39],[156.4,52.39],[155.85,51.85],[156.32,51.32],[155.23,51.08],[155.09,49.77],[154.11,49.75],[154.22,49.13],[153.26,49.11],[153.46,48.72],[154.42,48.74],[158.93,51.84],[158.86,52.46],[160.22,53.12],[160.05,53.5],[160.67,54.01],[160.49,54.39],[162.26,54.26],[162.22,54.86],[162.75,55.14],[161.76,55.4],[161.88,55.62],[163.54,55.85],[163.51,56.45],[164.08,56.73],[163.05,57.0],[163.76,57.51],[163.28,58.07],[162.51,58.17],[162.65,58.4],[163.87,58.35],[165.25,59.12],[162.87,59.48],[162.92,58.85],[161.29,58.22],[161.37,57.6],[160.37,57.24],[160.46,56.63],[158.48,55.68],[158.61,55.09],[157.72,54.72],[157.94,54.35],[157.45,54.05],[156.93,54.57],[157.49,55.09],[157.02,55.83],[159.51,57.11],[159.39,57.72],[159.95,58.02],[159.5,58.8],[162.49,60.28],[161.65,60.39],[158.14,58.58]],[[161.24,55.12],[160.02,54.92],[160.64,55.43],[160.24,56.19],[160.97,56.09],[161.24,55.12]]],[[[107.86,53.26],[105.18,51.87],[104.67,52.85],[102.82,53.22],[102.36,52.93],[102.78,52.36],[103.99,52.12],[104.28,51.31],[105.66,51.52],[106.22,52.01],[107.14,51.93],[107.15,52.55],[108.56,53.33],[107.86,53.26]]],[[[-17.44,33.08],[-17.7,32.69],[-16.65,32.19],[-15.87,33.34],[-16.65,32.96],[-17.44,33.08]]],[[[-175.31,51.86],[-173.04,51.75],[-169.39,52.88],[-169.93,53.12],[-171.87,52.48],[-172.81,52.74],[-173.03,52.15],[-174.54,52.63],[-175.32,52.26],[-176.28,52.49],[-177.62,51.92],[-178.6,52.14],[-179.35,51.74],[-179.12,51.13],[-177.42,51.72],[-176.45,51.49],[-175.31,51.86]]],[[[-29.13,38.24],[-27.14,38.29],[-26.67,39.1],[-27.89,39.52],[-28.95,38.9],[-29.13,38.24]]],[[[-14.43,28.02],[-13.69,28.15],[-13.18,28.89],[-13.4,29.52],[-14.16,29.15],[-14.67,28.4],[-14.43,28.02]]],[[[120.66,23.25],[120.74,22.46],[121.23,22.89],[121.11,23.46],[121.6,23.88],[121.74,24.76],[120.9,24.8],[120.66,23.25]]],[[[-17.62,27.36],[-17.88,27.98],[-17.63,28.11],[-17.13,27.62],[-16.15,28.14],[-15.66,27.64],[-14.92,28.02],[-16.14,28.9],[-17.14,28.38],[-17.9,29.25],[-18.39,28.73],[-18.13,28.35],[-18.37,27.72],[-17.62,27.36]]],[[[89.34,48.78],[91.26,48.64],[91.64,48.99],[91.08,49.54],[90.44,49.59],[89.06,49.18],[89.34,48.78]]],[[[155.39,60.28],[155.95,60.6],[155.08,60.67],[153.99,60.01],[154.23,59.39],[152.44,59.02],[151.37,59.92],[149.65,59.99],[147.86,59.31],[148.65,58.82],[150.02,59.61],[151.12,58.73],[152.76,58.64],[153.71,59.07],[154.9,58.86],[155.97,59.5],[154.76,59.72],[155.39,60.28]]],[[[146.59,59.21],[147.03,59.57],[146.18,59.57],[145.75,58.98],[146.59,59.21]]],[[[1.19,38.49],[2.02,38.76],[1.68,39.53],[1.07,39.11],[1.19,38.49]]],[[[-5.67,62.26],[-6.79,62.68],[-7.76,61.97],[-6.74,61.16],[-6.28,61.42],[-6.6,61.76],[-5.67,62.26]]],[[[-170.76,63.72],[-171.46,63.99],[-172.02,63.4],[-171.33,63.14],[-170.76,63.72]]],[[[-173.53,61.02],[-173.85,60.84],[-173.21,60.6],[-173.2,59.99],[-171.64,60.29],[-173.53,61.02]]],[[[110.01,26.21],[110.66,25.98],[110.93,26.28],[110.28,26.51],[110.01,26.21]]],[[[139.85,57.09],[140.14,57.69],[139.72,57.79],[139.02,57.29],[139.85,57.09]]],[[[151.83,47.42],[151.37,46.85],[152.55,46.73],[153.36,47.39],[153.24,48.01],[153.65,48.34],[153.04,48.4],[151.83,47.42]]],[[[168.92,60.91],[167.54,60.38],[165.43,60.61],[164.61,60.1],[163.16,59.94],[165.09,59.52],[167.01,59.71],[169.02,60.5],[169.42,59.91],[170.67,59.79],[170.88,60.0],[169.81,60.35],[170.02,60.57],[168.92,60.91]]],[[[57.62,29.24],[57.91,29.79],[57.46,30.3],[56.91,29.8],[56.28,30.14],[55.65,29.86],[56.37,29.3],[56.37,28.7],[56.91,29.19],[57.53,28.85],[57.62,29.24]]],[[[-22.42,66.65],[-23.85,66.57],[-25.41,65.29],[-24.08,65.16],[-24.6,64.58],[-22.46,64.43],[-23.0,63.86],[-21.33,63.82],[-20.32,62.98],[-14.59,64.16],[-12.72,65.27],[-13.27,65.78],[-14.11,65.86],[-14.59,66.59],[-16.35,66.72],[-17.45,66.32],[-18.15,66.83],[-19.81,66.09],[-22.42,66.65]],[[-16.64,64.19],[-17.81,64.37],[-18.01,64.96],[-16.34,64.86],[-16.08,64.5],[-16.64,64.19]]],[[[-170.08,63.46],[-170.3,63.06],[-168.53,63.32],[-170.08,63.46]]],[[[164.58,62.01],[164.75,62.24],[164.4,62.42],[163.51,62.54],[162.82,62.25],[164.58,62.01]]],[[[175.73,62.25],[170.51,60.6],[171.29,60.44],[177.3,62.28],[177.58,62.48],[177.32,62.69],[176.79,62.69],[175.73,62.25]]],[[[95.11,26.31],[94.63,26.34],[95.05,25.6],[95.11,26.31]]],[[[141.68,58.22],[142.4,59.19],[141.56,59.16],[140.52,57.82],[141.68,58.22]]],[[[174.16,52.8],[172.62,53.32],[172.06,53.08],[172.4,52.49],[173.68,52.16],[174.24,52.4],[174.16,52.8]]],[[[180.0,52.34],[177.25,52.31],[177.13,51.69],[179.52,51.33],[180.0,52.34]]],[[[-12.16,62.81],[-11.6,63.1],[-12.34,63.17],[-12.16,62.81]]],[[[166.06,54.96],[166.2,54.57],[167.56,54.31],[168.67,54.82],[166.61,55.22],[166.21,55.77],[165.64,55.51],[166.06,54.96]]],[[[12.63,35.84],[12.33,35.77],[12.46,35.35],[13.23,35.96],[12.63,35.84]]],[[[180.0,63.14],[179.26,63.31],[178.97,63.11],[179.21,62.9],[178.11,62.49],[179.69,62.48],[180.0,63.14]]],[[[162.92,60.97],[163.12,60.57],[163.77,60.85],[162.92,60.97]]],[[[-49.95,62.32],[-49.61,62.52],[-49.8,62.75],[-50.66,62.59],[-49.95,62.32]]],[[[48.98,69.67],[47.62,69.28],[47.81,68.72],[50.28,68.72],[50.78,69.29],[48.98,69.67]],[[49.51,69.29],[49.77,69.1],[49.4,68.91],[48.52,69.1],[49.51,69.29]]],[[[92.23,53.83],[91.53,53.9],[91.06,53.31],[93.14,53.12],[92.23,53.83]]],[[[3.09,39.97],[2.24,39.71],[2.58,38.94],[3.36,38.96],[3.77,39.52],[4.63,39.78],[4.25,40.32],[3.09,39.97]]],[[[159.48,61.39],[159.97,60.59],[161.44,60.79],[159.48,61.39]]],[[[-169.61,56.38],[-169.43,56.75],[-170.13,56.62],[-169.61,56.38]]],[[[-24.71,36.92],[-25.12,38.06],[-26.24,37.98],[-25.24,36.63],[-24.71,36.92]]],[[[54.74,30.86],[54.66,30.47],[55.47,30.3],[54.74,30.86]]],[[[163.9,61.72],[162.37,61.55],[164.08,61.32],[164.25,61.55],[163.9,61.72]]],[[[53.52,31.9],[54.0,31.41],[54.45,31.53],[53.97,32.03],[53.52,31.9]]],[[[-47.06,60.98],[-47.23,60.56],[-46.42,60.7],[-47.06,60.98]]],[[[66.58,48.47],[66.37,48.04],[67.02,48.13],[66.58,48.47]]],[[[64.33,42.2],[64.91,42.3],[64.83,42.55],[63.25,42.67],[63.75,42.1],[64.33,42.2]]],[[[12.25,37.09],[11.94,37.02],[12.07,36.61],[12.46,36.91],[12.25,37.09]]],[[[-8.51,57.88],[-8.09,58.16],[-8.82,58.23],[-9.27,57.73],[-8.51,57.88]]],[[[91.14,47.9],[91.1,47.65],[91.72,47.6],[91.47,48.0],[91.14,47.9]]],[[[-162.49,63.67],[-162.82,63.29],[-161.02,63.45],[-162.49,63.67]]],[[[138.4,56.55],[138.71,56.92],[137.94,56.87],[137.41,55.91],[138.15,55.95],[138.4,56.55]]],[[[-9.06,71.27],[-9.89,71.0],[-10.09,70.78],[-9.69,70.62],[-7.05,71.03],[-7.59,71.58],[-9.06,71.27]]],[[[-31.3,39.16],[-30.78,39.48],[-31.45,39.91],[-31.71,39.75],[-31.3,39.16]]],[[[176.46,52.28],[176.4,52.69],[175.83,52.47],[176.46,52.28]]],[[[-23.57,73.43],[-24.15,73.8],[-24.89,73.47],[-23.57,73.43]]],[[[-164.31,63.48],[-164.61,63.1],[-163.72,63.19],[-164.31,63.48]]],[[[144.05,59.69],[143.65,59.33],[145.33,59.34],[144.05,59.69]]],[[[14.56,35.79],[14.44,36.21],[14.13,36.15],[14.04,35.91],[14.56,35.79]]],[[[115.44,-33.72],[115.47,-33.37],[114.78,-33.47],[114.58,-33.98],[114.97,-34.2],[115.44,-33.72]]],[[[116.16,-34.85],[115.73,-34.99],[116.13,-35.2],[116.16,-34.85]]],[[[67.08,41.07],[67.65,41.15],[67.59,41.4],[67.27,41.49],[67.08,41.07]]]]}}]}