{"type":"FeatureCollection","features":[{"type":"Feature","properties":{},"geometry":{"type":"MultiPolygon","coordinates":[[[[172.15,52.68],[172.4,52.49],[172.8,52.52],[173.04,52.33],[173.44,52.35],[173.68,52.16],[174.07,52.18],[174.24,52.4],[174.0,52.59],[174.16,52.8],[173.92,52.99],[173.52,52.97],[173.27,53.16],[172.87,53.13],[172.62,53.32],[172.22,53.29],[172.06,53.08],[172.31,52.89],[172.15,52.68]]],[[[8.01,25.04],[8.27,25.11],[8.33,25.35],[8.14,25.52],[7.88,25.46],[7.81,25.22],[8.01,25.04]]],[[[66.42,70.65],[65.96,70.49],[66.18,70.26],[66.85,70.2],[67.06,69.98],[66.61,69.82],[66.82,69.6],[66.38,69.44],[65.74,69.5],[65.32,69.34],[64.68,69.4],[64.45,69.62],[63.8,69.67],[63.56,69.89],[62.9,69.94],[62.49,69.77],[62.74,69.56],[63.39,69.51],[63.63,69.29],[64.26,69.24],[64.42,69.03],[65.04,68.97],[65.53,69.12],[66.16,69.06],[66.3,68.85],[66.92,68.79],[67.05,68.57],[67.66,68.5],[67.78,68.29],[68.39,68.22],[68.88,68.36],[68.77,68.58],[69.27,68.72],[69.1,68.95],[68.48,69.02],[68.04,68.87],[67.42,68.93],[67.22,69.16],[67.66,69.31],[68.29,69.24],[68.74,69.39],[68.56,69.62],[67.91,69.69],[67.72,69.91],[68.18,70.07],[67.98,70.29],[67.31,70.36],[67.1,70.58],[67.57,70.74],[67.36,70.97],[67.85,71.12],[67.63,71.35],[66.92,71.42],[66.44,71.25],[66.67,71.03],[66.2,70.87],[66.42,70.65]]],[[[131.51,58.96],[131.97,58.89],[132.32,59.05],[132.22,59.28],[131.76,59.35],[131.4,59.19],[130.94,59.26],[130.6,59.1],[130.71,58.87],[131.17,58.8],[131.51,58.96]]],[[[37.45,10.21],[37.69,10.23],[37.81,10.05],[38.05,10.07],[38.16,10.28],[38.4,10.3],[38.51,10.51],[38.74,10.53],[38.86,10.35],[39.1,10.37],[39.22,10.19],[39.1,9.98],[38.87,9.96],[38.75,10.14],[38.52,10.12],[38.41,9.92],[38.17,9.89],[38.06,9.69],[37.83,9.66],[37.71,9.46],[37.48,9.43],[37.36,9.61],[37.47,9.82],[37.34,10.0],[37.11,9.98],[37.0,9.77],[37.12,9.59],[37.01,9.38],[37.14,9.2],[37.37,9.23],[37.49,9.05],[37.38,8.84],[37.53,8.67],[37.77,8.69],[37.92,8.52],[37.84,8.31],[37.99,8.14],[37.91,7.93],[37.68,7.91],[37.59,7.7],[37.75,7.53],[37.67,7.32],[37.82,7.14],[38.05,7.17],[38.21,6.99],[38.12,6.78],[38.28,6.6],[38.2,6.39],[38.35,6.21],[38.27,6.0],[38.42,5.82],[38.66,5.85],[38.81,5.67],[39.04,5.7],[39.12,5.9],[38.97,6.09],[39.05,6.29],[39.28,6.32],[39.36,6.53],[39.6,6.55],[39.75,6.37],[39.98,6.4],[40.06,6.6],[40.29,6.63],[40.37,6.84],[40.6,6.86],[40.68,7.06],[40.91,7.09],[40.98,7.29],[40.83,7.47],[40.6,7.45],[40.45,7.62],[40.22,7.6],[40.07,7.78],[40.15,7.98],[40.0,8.16],[40.07,8.36],[40.3,8.38],[40.38,8.58],[40.23,8.76],[40.0,8.73],[39.92,8.53],[39.69,8.51],[39.61,8.31],[39.38,8.29],[39.3,8.08],[39.07,8.06],[38.99,7.86],[38.76,7.83],[38.68,7.63],[38.83,7.45],[38.75,7.25],[38.52,7.22],[38.37,7.4],[38.45,7.6],[38.3,7.78],[38.38,7.98],[38.61,8.01],[38.69,8.21],[38.92,8.24],[39.0,8.44],[39.23,8.46],[39.31,8.66],[39.54,8.69],[39.62,8.89],[39.47,9.06],[39.58,9.26],[39.81,9.29],[39.92,9.49],[39.81,9.67],[39.92,9.87],[39.8,10.05],[39.91,10.26],[39.8,10.44],[39.91,10.64],[39.79,10.83],[39.91,11.03],[39.79,11.22],[39.9,11.42],[39.78,11.61],[39.9,11.81],[39.78,12.0],[39.54,11.98],[39.42,12.17],[39.54,12.37],[39.77,12.39],[39.89,12.6],[39.77,12.79],[39.88,13.0],[39.76,13.19],[39.88,13.4],[39.76,13.59],[39.87,13.8],[39.75,13.99],[39.87,14.2],[39.75,14.39],[39.87,14.6],[39.74,14.8],[39.5,14.78],[39.38,14.97],[39.13,14.95],[39.01,15.15],[39.13,15.36],[39.0,15.56],[38.75,15.54],[38.64,15.32],[38.76,15.13],[38.65,14.91],[38.77,14.72],[39.02,14.74],[39.14,14.55],[39.02,14.33],[38.78,14.32],[38.66,14.1],[38.79,13.91],[39.03,13.93],[39.15,13.74],[39.04,13.53],[39.16,13.34],[39.05,13.13],[39.17,12.94],[39.05,12.73],[38.81,12.71],[38.7,12.5],[38.82,12.31],[38.71,12.1],[38.47,12.08],[38.35,12.27],[38.11,12.25],[37.98,12.43],[38.1,12.64],[38.34,12.67],[38.45,12.88],[38.69,12.9],[38.81,13.11],[38.68,13.3],[38.8,13.51],[38.67,13.7],[38.43,13.68],[38.32,13.47],[38.07,13.45],[37.96,13.24],[37.72,13.21],[37.6,13.0],[37.36,12.98],[37.25,12.77],[37.37,12.58],[37.26,12.37],[37.39,12.18],[37.63,12.2],[37.75,12.01],[37.64,11.8],[37.4,11.78],[37.29,11.57],[37.05,11.55],[36.94,11.34],[36.7,11.32],[36.59,11.11],[36.71,10.92],[36.6,10.71],[36.73,10.53],[36.97,10.55],[37.08,10.76],[37.32,10.78],[37.44,10.6],[37.33,10.39],[37.45,10.21]]],[[[-179.12,51.13],[-178.73,51.13],[-178.55,51.33],[-178.17,51.32],[-177.99,51.52],[-177.6,51.52],[-177.42,51.72],[-177.03,51.71],[-176.84,51.5],[-176.45,51.49],[-176.27,51.69],[-175.88,51.68],[-175.7,51.87],[-175.31,51.86],[-175.12,52.05],[-174.74,52.04],[-174.55,51.83],[-174.17,51.81],[-173.98,52.0],[-173.6,51.99],[-173.42,51.78],[-173.04,51.75],[-172.84,51.94],[-173.03,52.15],[-173.41,52.18],[-173.59,52.38],[-173.97,52.4],[-174.16,52.61],[-174.54,52.63],[-174.74,52.44],[-175.12,52.45],[-175.32,52.26],[-175.7,52.28],[-175.9,52.48],[-176.28,52.49],[-176.47,52.3],[-176.86,52.31],[-177.05,52.11],[-177.44,52.12],[-177.62,51.92],[-178.01,51.93],[-178.21,52.13],[-178.6,52.14],[-178.78,51.94],[-179.17,51.94],[-179.35,51.74],[-179.14,51.53],[-179.32,51.33],[-179.12,51.13]]],[[[-16.65,32.96],[-16.92,33.09],[-17.18,32.96],[-17.44,33.08],[-17.7,32.95],[-17.7,32.69],[-17.43,32.57],[-17.17,32.7],[-16.91,32.58],[-16.91,32.32],[-16.65,32.19],[-16.39,32.32],[-16.39,32.58],[-16.13,32.71],[-16.13,32.96],[-15.87,33.09],[-15.87,33.34],[-16.13,33.47],[-16.39,33.34],[-16.39,33.09],[-16.65,32.96]]],[[[118.73,26.85],[118.91,26.7],[119.13,26.76],[119.17,26.97],[119.39,27.03],[119.42,27.24],[119.24,27.39],[119.02,27.34],[118.98,27.13],[118.76,27.07],[118.73,26.85]]],[[[56.74,72.82],[57.16,73.01],[56.78,73.22],[55.98,73.24],[55.58,73.05],[55.96,72.84],[56.74,72.82]]],[[[131.7,25.84],[131.74,26.06],[131.54,26.2],[131.29,26.11],[131.09,26.24],[130.84,26.15],[130.8,25.93],[131.0,25.8],[130.96,25.58],[131.17,25.44],[131.41,25.53],[131.45,25.75],[131.7,25.84]]],[[[140.18,32.89],[140.19,33.13],[139.98,33.26],[139.75,33.16],[139.53,33.3],[139.31,33.2],[139.29,32.97],[139.51,32.83],[139.73,32.93],[139.95,32.79],[140.18,32.89]]],[[[153.71,-29.18],[153.48,-29.04],[153.21,-29.14],[153.18,-29.39],[153.42,-29.54],[153.69,-29.44],[153.71,-29.18]]],[[[111.79,25.9],[111.99,25.75],[112.23,25.82],[112.26,26.05],[112.06,26.2],[111.82,26.13],[111.79,25.9]]],[[[-156.53,21.26],[-156.69,21.05],[-156.96,21.08],[-157.13,20.87],[-157.02,20.64],[-156.75,20.62],[-156.64,20.39],[-156.37,20.36],[-156.21,20.57],[-155.94,20.54],[-155.78,20.74],[-155.89,20.97],[-156.16,21.0],[-156.26,21.23],[-156.53,21.26]]],[[[-14.16,29.15],[-14.16,28.9],[-14.41,28.78],[-14.42,28.53],[-14.67,28.4],[-14.67,28.15],[-14.92,28.02],[-15.16,28.15],[-15.16,28.4],[-15.4,28.52],[-15.65,28.4],[-15.9,28.52],[-15.9,28.77],[-16.14,28.9],[-16.39,28.77],[-16.64,28.89],[-16.89,28.76],[-16.89,28.51],[-17.14,28.38],[-17.39,28.5],[-17.39,28.75],[-17.64,28.87],[-17.65,29.13],[-17.9,29.25],[-18.15,29.12],[-18.14,28.86],[-18.39,28.73],[-18.38,28.47],[-18.13,28.35],[-18.13,28.1],[-18.37,27.97],[-18.37,27.72],[-18.12,27.6],[-18.11,27.34],[-17.86,27.22],[-17.62,27.36],[-17.62,27.61],[-17.87,27.73],[-17.88,27.98],[-17.63,28.11],[-17.38,27.99],[-17.38,27.74],[-17.13,27.62],[-16.89,27.75],[-16.64,27.63],[-16.39,27.76],[-16.39,28.01],[-16.15,28.14],[-15.9,28.02],[-15.9,27.76],[-15.66,27.64],[-15.41,27.77],[-15.17,27.65],[-14.92,27.77],[-14.68,27.65],[-14.43,27.77],[-14.19,27.65],[-13.95,27.77],[-13.94,28.02],[-13.69,28.15],[-13.69,28.4],[-13.44,28.52],[-13.43,28.77],[-13.18,28.89],[-13.17,29.14],[-13.41,29.27],[-13.4,29.52],[-13.65,29.65],[-13.9,29.53],[-13.9,29.28],[-14.16,29.15]]],[[[-155.57,19.17],[-155.68,19.41],[-155.95,19.43],[-156.11,19.23],[-156.0,19.0],[-155.73,18.97],[-155.57,19.17]]],[[[73.14,7.09],[72.95,6.98],[72.76,7.11],[72.57,6.99],[72.57,6.76],[72.76,6.63],[72.76,6.4],[72.95,6.27],[72.95,6.04],[72.76,5.93],[72.76,5.69],[72.95,5.56],[72.95,5.33],[73.14,5.2],[73.33,5.31],[73.33,5.55],[73.52,5.66],[73.52,5.9],[73.33,6.02],[73.33,6.26],[73.14,6.38],[73.14,6.62],[73.33,6.73],[73.34,6.97],[73.14,7.09]]],[[[54.38,73.27],[54.78,73.46],[54.36,73.67],[54.76,73.86],[54.33,74.07],[53.49,74.08],[53.1,73.88],[53.54,73.68],[53.16,73.49],[53.58,73.29],[54.38,73.27]]],[[[40.44,19.79],[40.56,19.59],[40.81,19.6],[40.94,19.81],[40.81,20.02],[40.56,20.01],[40.43,20.21],[40.18,20.2],[40.05,20.4],[39.8,20.39],[39.67,20.17],[39.8,19.97],[40.06,19.98],[40.18,19.78],[40.44,19.79]]],[[[-16.17,19.54],[-16.4,19.65],[-16.62,19.52],[-16.62,19.29],[-16.4,19.18],[-16.4,18.94],[-16.17,18.83],[-15.95,18.95],[-15.95,19.19],[-16.17,19.3],[-16.17,19.54]]],[[[115.27,-32.66],[115.54,-32.68],[115.65,-32.87],[115.5,-33.02],[115.62,-33.21],[115.47,-33.37],[115.2,-33.34],[115.05,-33.5],[114.78,-33.47],[114.62,-33.63],[114.74,-33.82],[114.58,-33.98],[114.7,-34.17],[114.97,-34.2],[115.13,-34.04],[115.01,-33.85],[115.16,-33.69],[115.44,-33.72],[115.59,-33.56],[115.86,-33.58],[116.01,-33.42],[115.89,-33.23],[116.04,-33.08],[115.92,-32.89],[116.07,-32.73],[115.95,-32.55],[116.1,-32.39],[115.98,-32.21],[116.13,-32.05],[116.01,-31.87],[115.75,-31.85],[115.64,-31.67],[115.78,-31.51],[115.67,-31.33],[115.41,-31.31],[115.26,-31.46],[115.38,-31.64],[115.23,-31.8],[115.34,-31.98],[115.19,-32.13],[115.31,-32.31],[115.16,-32.47],[115.27,-32.66]]],[[[72.73,71.43],[72.57,71.66],[71.86,71.74],[71.32,71.59],[71.49,71.36],[72.19,71.28],[72.73,71.43]]],[[[-18.23,63.24],[-17.8,63.33],[-17.71,63.56],[-17.27,63.65],[-16.92,63.51],[-16.48,63.6],[-16.38,63.83],[-15.94,63.91],[-15.84,64.14],[-15.38,64.22],[-15.04,64.08],[-14.59,64.16],[-14.48,64.38],[-14.02,64.46],[-13.9,64.68],[-13.44,64.76],[-13.32,64.98],[-13.66,65.12],[-14.13,65.05],[-14.24,64.82],[-14.71,64.75],[-14.82,64.52],[-15.28,64.44],[-15.63,64.58],[-16.08,64.5],[-16.19,64.27],[-16.64,64.19],[-16.73,63.96],[-17.18,63.87],[-17.54,64.01],[-17.98,63.92],[-18.07,63.69],[-18.51,63.6],[-18.87,63.73],[-19.31,63.63],[-19.68,63.76],[-20.13,63.67],[-20.5,63.79],[-20.44,64.02],[-20.82,64.15],[-21.27,64.05],[-21.66,64.18],[-21.61,64.41],[-22.01,64.53],[-21.95,64.77],[-22.36,64.89],[-22.82,64.79],[-22.86,64.55],[-22.46,64.43],[-22.51,64.2],[-22.95,64.09],[-23.0,63.86],[-22.6,63.73],[-22.16,63.84],[-21.77,63.72],[-21.33,63.82],[-20.94,63.69],[-21.0,63.46],[-20.63,63.34],[-20.19,63.44],[-19.82,63.31],[-19.39,63.41],[-19.02,63.28],[-18.59,63.37],[-18.23,63.24]]],[[[48.42,15.09],[48.2,15.08],[48.07,14.88],[48.17,14.69],[48.39,14.7],[48.49,14.51],[48.71,14.52],[48.83,14.72],[48.73,14.91],[48.51,14.9],[48.42,15.09]]],[[[35.86,7.31],[35.95,7.52],[36.18,7.55],[36.27,7.75],[36.5,7.78],[36.59,7.98],[36.43,8.16],[36.52,8.36],[36.36,8.54],[36.13,8.51],[36.05,8.31],[35.81,8.28],[35.73,8.08],[35.88,7.9],[35.79,7.7],[35.56,7.67],[35.47,7.46],[35.63,7.28],[35.86,7.31]]],[[[80.99,7.18],[80.77,7.06],[80.57,7.2],[80.36,7.08],[80.35,6.83],[80.55,6.7],[80.77,6.82],[80.97,6.68],[81.19,6.8],[81.19,7.05],[80.99,7.18]]],[[[72.0,10.9],[72.0,10.66],[72.19,10.54],[72.38,10.66],[72.38,10.9],[72.19,11.02],[72.0,10.9]]],[[[122.08,25.52],[122.12,25.74],[121.93,25.85],[121.7,25.75],[121.66,25.54],[121.43,25.44],[121.4,25.22],[121.17,25.12],[120.98,25.23],[120.75,25.13],[120.71,24.91],[120.49,24.81],[120.45,24.59],[120.23,24.49],[120.19,24.27],[119.97,24.17],[119.93,23.95],[119.71,23.85],[119.52,23.96],[119.3,23.9],[119.27,23.68],[119.05,23.62],[119.02,23.39],[119.2,23.24],[119.17,23.02],[119.35,22.86],[119.57,22.96],[119.76,22.84],[119.98,22.95],[120.17,22.83],[120.14,22.6],[120.33,22.48],[120.29,22.26],[120.48,22.14],[120.44,21.91],[120.63,21.79],[120.86,21.89],[121.05,21.77],[121.28,21.87],[121.47,21.74],[121.69,21.84],[121.73,22.07],[121.54,22.19],[121.31,22.09],[121.12,22.22],[121.16,22.44],[121.38,22.54],[121.58,22.42],[121.8,22.52],[121.84,22.75],[121.65,22.87],[121.68,23.09],[121.49,23.22],[121.53,23.44],[121.76,23.54],[121.79,23.76],[122.02,23.86],[122.06,24.08],[121.86,24.2],[121.9,24.43],[122.13,24.53],[122.17,24.75],[122.4,24.85],[122.43,25.07],[122.24,25.18],[122.28,25.4],[122.08,25.52]]],[[[124.3,24.63],[124.11,24.76],[123.87,24.66],[123.68,24.78],[123.44,24.68],[123.25,24.8],[123.02,24.71],[122.98,24.48],[122.75,24.38],[122.71,24.16],[122.91,24.04],[123.14,24.14],[123.33,24.02],[123.56,24.12],[123.76,23.99],[123.99,24.09],[124.19,23.97],[124.42,24.07],[124.46,24.29],[124.7,24.39],[124.73,24.61],[124.97,24.71],[125.17,24.58],[125.4,24.68],[125.6,24.55],[125.84,24.65],[125.88,24.87],[125.68,25.0],[125.44,24.9],[125.25,25.02],[125.01,24.93],[124.81,25.05],[124.58,24.95],[124.54,24.73],[124.3,24.63]]],[[[145.42,15.3],[145.37,15.06],[145.57,14.9],[145.81,14.98],[145.85,15.22],[145.66,15.38],[145.42,15.3]]],[[[2.86,39.03],[3.08,38.88],[3.36,38.96],[3.42,39.2],[3.71,39.29],[3.77,39.52],[4.06,39.61],[4.28,39.46],[4.57,39.54],[4.63,39.78],[4.41,39.93],[4.47,40.17],[4.25,40.32],[3.96,40.23],[3.73,40.38],[3.44,40.3],[3.38,40.06],[3.09,39.97],[2.87,40.12],[2.58,40.03],[2.53,39.8],[2.24,39.71],[2.19,39.47],[2.41,39.32],[2.35,39.09],[2.58,38.94],[2.86,39.03]]],[[[80.62,35.05],[80.61,35.29],[80.34,35.41],[80.08,35.27],[79.81,35.38],[79.8,35.63],[79.52,35.74],[79.26,35.61],[78.99,35.72],[78.73,35.58],[78.74,35.33],[79.02,35.22],[79.03,34.98],[79.3,34.87],[79.56,35.0],[79.83,34.89],[80.09,35.02],[80.36,34.91],[80.37,34.67],[80.63,34.55],[80.89,34.69],[80.88,34.93],[80.62,35.05]]],[[[97.32,18.79],[97.1,18.93],[96.86,18.82],[96.83,18.57],[97.06,18.43],[97.3,18.54],[97.32,18.79]]],[[[128.57,27.34],[128.53,27.13],[128.28,27.03],[128.08,27.16],[128.12,27.38],[127.92,27.5],[127.68,27.41],[127.64,27.19],[127.84,27.07],[127.8,26.85],[127.56,26.76],[127.35,26.88],[127.11,26.79],[127.07,26.57],[126.83,26.48],[126.63,26.6],[126.39,26.51],[126.35,26.29],[126.55,26.16],[126.79,26.26],[126.99,26.13],[126.95,25.91],[127.15,25.79],[127.11,25.57],[127.31,25.44],[127.56,25.54],[127.76,25.41],[128.0,25.5],[128.04,25.72],[127.84,25.85],[127.88,26.07],[128.12,26.16],[128.16,26.38],[128.4,26.47],[128.44,26.69],[128.69,26.78],[128.73,27.0],[128.97,27.09],[129.01,27.31],[129.26,27.4],[129.3,27.61],[129.1,27.74],[129.14,27.95],[129.38,28.04],[129.58,27.92],[129.83,28.01],[129.87,28.22],[130.12,28.31],[130.16,28.52],[129.96,28.65],[129.71,28.56],[129.51,28.68],[129.26,28.59],[129.22,28.38],[128.97,28.29],[128.93,28.08],[128.69,27.99],[128.65,27.77],[128.4,27.68],[128.36,27.47],[128.57,27.34]]],[[[-170.97,63.32],[-170.45,63.28],[-170.3,63.06],[-169.78,63.02],[-169.41,63.19],[-168.9,63.15],[-168.53,63.32],[-168.66,63.54],[-169.18,63.59],[-169.56,63.41],[-170.08,63.46],[-170.23,63.68],[-170.76,63.72],[-170.92,63.95],[-171.46,63.99],[-171.83,63.8],[-171.66,63.58],[-172.02,63.4],[-171.85,63.18],[-171.33,63.14],[-170.97,63.32]]],[[[123.24,26.02],[123.2,25.8],[123.4,25.68],[123.36,25.46],[123.56,25.34],[123.79,25.44],[123.83,25.66],[124.06,25.76],[124.1,25.98],[123.9,26.1],[123.67,26.0],[123.47,26.12],[123.24,26.02]]],[[[37.22,0.31],[37.13,0.09],[36.89,0.06],[36.73,0.25],[36.49,0.21],[36.4,-0.01],[36.16,-0.04],[36.07,-0.27],[35.83,-0.3],[35.67,-0.11],[35.76,0.11],[35.6,0.31],[35.69,0.53],[35.53,0.72],[35.62,0.94],[35.46,1.13],[35.55,1.36],[35.39,1.55],[35.15,1.51],[35.06,1.29],[35.22,1.1],[35.13,0.88],[35.29,0.69],[35.2,0.46],[35.36,0.27],[35.27,0.05],[35.43,-0.14],[35.34,-0.37],[35.5,-0.56],[35.41,-0.79],[35.57,-0.98],[35.81,-0.95],[35.97,-1.14],[36.22,-1.1],[36.3,-0.88],[36.55,-0.84],[36.71,-1.04],[36.95,-1.0],[37.04,-0.78],[36.88,-0.58],[36.96,-0.36],[37.21,-0.32],[37.36,-0.52],[37.61,-0.48],[37.69,-0.26],[37.53,-0.07],[37.62,0.16],[37.46,0.35],[37.22,0.31]]],[[[74.75,70.08],[74.63,70.31],[75.17,70.45],[75.05,70.69],[74.38,70.78],[73.84,70.64],[73.97,70.41],[73.45,70.26],[73.58,70.03],[73.07,69.89],[72.42,69.98],[71.93,69.83],[72.07,69.6],[71.59,69.46],[71.74,69.23],[72.36,69.15],[72.85,69.29],[72.71,69.52],[73.21,69.66],[73.84,69.57],[74.35,69.71],[74.23,69.94],[74.75,70.08]]],[[[-6.43,59.06],[-6.08,58.91],[-5.69,58.97],[-5.65,59.18],[-5.99,59.32],[-6.38,59.26],[-6.43,59.06]]],[[[-8.86,58.02],[-9.24,57.95],[-9.27,57.73],[-8.92,57.6],[-8.54,57.67],[-8.51,57.88],[-8.13,57.95],[-8.09,58.16],[-8.44,58.3],[-8.82,58.23],[-8.86,58.02]]],[[[117.83,-34.98],[117.55,-34.96],[117.4,-35.13],[117.53,-35.32],[117.81,-35.34],[117.96,-35.17],[117.83,-34.98]]],[[[-6.65,61.56],[-6.6,61.76],[-6.19,61.82],[-6.14,62.01],[-5.72,62.07],[-5.67,62.26],[-6.04,62.4],[-5.99,62.6],[-6.37,62.74],[-6.79,62.68],[-6.84,62.49],[-7.26,62.43],[-7.3,62.23],[-7.72,62.17],[-7.76,61.97],[-7.39,61.84],[-7.43,61.64],[-7.06,61.5],[-7.1,61.3],[-6.74,61.16],[-6.33,61.22],[-6.28,61.42],[-6.65,61.56]]],[[[20.68,30.32],[20.58,30.08],[20.77,29.88],[21.06,29.93],[21.17,30.17],[20.98,30.37],[20.68,30.32]]],[[[-160.0,63.07],[-159.94,62.85],[-160.35,62.7],[-160.82,62.78],[-161.23,62.63],[-161.7,62.7],[-162.1,62.54],[-162.58,62.61],[-162.66,62.84],[-162.25,62.99],[-162.33,63.22],[-161.92,63.37],[-161.43,63.3],[-161.02,63.45],[-161.09,63.68],[-161.58,63.75],[-162.0,63.6],[-162.49,63.67],[-162.9,63.51],[-162.82,63.29],[-163.23,63.13],[-163.72,63.19],[-163.81,63.42],[-164.31,63.48],[-164.71,63.32],[-164.61,63.1],[-165.0,62.94],[-164.9,62.71],[-165.29,62.55],[-165.77,62.61],[-166.15,62.44],[-166.04,62.22],[-166.42,62.06],[-166.31,61.84],[-166.67,61.67],[-166.56,61.45],[-166.09,61.4],[-165.99,61.18],[-165.52,61.12],[-165.43,60.9],[-165.78,60.74],[-165.68,60.52],[-166.03,60.36],[-166.49,60.41],[-166.83,60.25],[-167.28,60.3],[-167.63,60.13],[-167.51,59.92],[-167.07,59.87],[-166.96,59.66],[-166.52,59.61],[-166.18,59.77],[-165.74,59.72],[-165.39,59.88],[-165.49,60.09],[-165.14,60.25],[-164.69,60.2],[-164.61,59.98],[-164.17,59.92],[-164.08,59.71],[-163.65,59.65],[-163.3,59.8],[-162.87,59.74],[-162.51,59.89],[-162.09,59.83],[-162.02,59.61],[-161.6,59.55],[-161.24,59.7],[-161.3,59.91],[-161.72,59.98],[-161.79,60.19],[-161.42,60.34],[-160.99,60.28],[-160.62,60.42],[-160.68,60.64],[-160.3,60.79],[-160.35,61.0],[-159.97,61.15],[-160.02,61.37],[-159.63,61.52],[-159.68,61.74],[-159.28,61.88],[-159.33,62.1],[-158.92,62.25],[-158.97,62.47],[-159.43,62.55],[-159.48,62.77],[-159.06,62.92],[-158.6,62.84],[-158.17,62.98],[-158.21,63.2],[-158.68,63.28],[-159.11,63.14],[-159.58,63.22],[-160.0,63.07]],[[-160.64,62.11],[-161.04,61.96],[-161.49,62.03],[-161.56,62.25],[-161.16,62.4],[-160.7,62.33],[-160.64,62.11]]],[[[111.02,25.22],[111.25,25.29],[111.28,25.52],[111.08,25.68],[110.84,25.6],[110.81,25.37],[110.57,25.29],[110.54,25.06],[110.75,24.91],[110.98,24.99],[111.02,25.22]]],[[[14.25,35.73],[14.56,35.79],[14.65,36.03],[14.44,36.21],[14.13,36.15],[14.04,35.91],[14.25,35.73]]],[[[112.53,26.35],[112.76,26.42],[112.79,26.64],[113.03,26.71],[113.06,26.93],[112.86,27.09],[112.62,27.02],[112.42,27.17],[112.18,27.1],[112.15,26.87],[112.36,26.72],[112.32,26.5],[112.53,26.35]]],[[[37.8,18.59],[37.93,18.39],[38.19,18.4],[38.31,18.62],[38.17,18.82],[37.92,18.81],[37.79,19.01],[37.53,18.99],[37.4,19.19],[37.52,19.41],[37.38,19.62],[37.5,19.84],[37.37,20.04],[37.49,20.26],[37.35,20.47],[37.48,20.69],[37.34,20.89],[37.46,21.11],[37.32,21.32],[37.06,21.3],[36.94,21.08],[37.08,20.88],[36.96,20.65],[37.09,20.45],[36.97,20.23],[37.11,20.02],[36.99,19.8],[37.13,19.6],[37.0,19.38],[37.14,19.18],[37.02,18.96],[37.16,18.75],[37.41,18.77],[37.55,18.57],[37.8,18.59]]],[[[42.28,17.19],[42.4,17.4],[42.28,17.6],[42.04,17.59],[41.92,17.38],[41.67,17.37],[41.55,17.15],[41.67,16.96],[41.55,16.75],[41.67,16.55],[41.91,16.56],[42.03,16.37],[42.27,16.38],[42.39,16.59],[42.63,16.6],[42.75,16.81],[42.64,17.01],[42.4,17.0],[42.27,16.79],[42.03,16.77],[41.91,16.97],[42.04,17.18],[42.28,17.19]]],[[[-27.24,39.06],[-27.55,39.16],[-27.58,39.41],[-27.89,39.52],[-28.15,39.36],[-28.12,39.11],[-28.38,38.95],[-28.68,39.05],[-28.95,38.9],[-28.91,38.65],[-29.17,38.49],[-29.13,38.24],[-28.83,38.14],[-28.57,38.29],[-28.26,38.19],[-28.0,38.35],[-27.7,38.24],[-27.44,38.4],[-27.14,38.29],[-26.87,38.44],[-26.91,38.7],[-26.64,38.85],[-26.67,39.1],[-26.98,39.21],[-27.24,39.06]]],[[[56.82,73.61],[57.2,73.4],[58.01,73.38],[58.45,73.56],[58.08,73.77],[57.25,73.8],[56.82,73.61]]],[[[-25.59,37.25],[-25.56,37.0],[-25.27,36.89],[-25.24,36.63],[-24.95,36.52],[-24.69,36.67],[-24.71,36.92],[-25.0,37.03],[-25.03,37.29],[-24.77,37.44],[-24.79,37.69],[-25.09,37.8],[-25.12,38.06],[-25.41,38.17],[-25.68,38.02],[-25.98,38.13],[-26.24,37.98],[-26.21,37.72],[-25.92,37.62],[-25.88,37.36],[-25.59,37.25]]],[[[9.17,24.88],[9.37,24.7],[9.63,24.76],[9.7,25.0],[9.51,25.18],[9.24,25.12],[9.05,25.3],[8.79,25.23],[8.72,24.99],[8.91,24.81],[9.17,24.88]]],[[[86.81,33.91],[86.79,33.67],[87.04,33.55],[87.3,33.67],[87.31,33.91],[87.07,34.03],[86.81,33.91]]],[[[39.36,16.2],[39.48,16.41],[39.35,16.61],[39.47,16.82],[39.34,17.02],[39.1,17.0],[38.98,16.79],[39.1,16.59],[38.98,16.38],[39.11,16.18],[39.36,16.2]]],[[[-154.87,19.32],[-154.71,19.52],[-154.82,19.76],[-155.08,19.79],[-155.25,19.58],[-155.14,19.35],[-154.87,19.32]]],[[[176.62,52.49],[176.4,52.69],[176.0,52.67],[175.83,52.47],[176.06,52.27],[176.46,52.28],[176.62,52.49]]],[[[41.55,17.98],[41.68,17.78],[41.92,17.79],[42.04,18.0],[41.92,18.2],[41.68,18.19],[41.56,18.39],[41.68,18.6],[41.56,18.8],[41.31,18.79],[41.19,18.99],[41.31,19.21],[41.19,19.41],[40.94,19.4],[40.81,19.18],[40.94,18.98],[40.81,18.77],[40.94,18.56],[41.19,18.58],[41.31,18.38],[41.19,18.16],[41.31,17.96],[41.55,17.98]]],[[[98.43,18.07],[98.18,17.96],[98.16,17.71],[98.38,17.56],[98.62,17.67],[98.65,17.92],[98.43,18.07]]],[[[143.42,56.38],[143.8,56.5],[143.78,56.73],[143.39,56.84],[143.01,56.72],[143.03,56.49],[143.42,56.38]]],[[[140.79,26.89],[141.04,26.96],[141.09,27.18],[140.88,27.32],[140.63,27.25],[140.59,27.04],[140.79,26.89]]],[[[-31.66,39.5],[-31.35,39.41],[-31.3,39.16],[-30.99,39.07],[-30.73,39.22],[-30.78,39.48],[-31.09,39.57],[-31.14,39.82],[-31.45,39.91],[-31.71,39.75],[-31.66,39.5]]],[[[93.78,35.43],[93.55,35.57],[93.29,35.46],[93.25,35.23],[93.47,35.09],[93.74,35.19],[93.96,35.06],[94.23,35.16],[94.27,35.39],[94.05,35.53],[93.78,35.43]]],[[[73.17,70.73],[73.03,70.96],[72.34,71.05],[71.81,70.9],[71.97,70.67],[72.64,70.58],[73.17,70.73]]],[[[154.11,49.75],[154.03,49.52],[154.3,49.37],[154.22,49.13],[153.88,49.05],[153.61,49.2],[153.26,49.11],[153.19,48.87],[153.46,48.72],[153.8,48.81],[154.07,48.66],[154.42,48.74],[154.49,48.98],[154.84,49.06],[154.92,49.3],[155.28,49.38],[155.36,49.61],[155.09,49.77],[154.73,49.68],[154.46,49.83],[154.11,49.75]]],[[[165.79,55.72],[165.64,55.51],[165.92,55.34],[165.78,55.12],[166.06,54.96],[165.92,54.74],[166.2,54.57],[166.61,54.62],[166.88,54.44],[167.29,54.49],[167.56,54.31],[167.97,54.36],[168.11,54.57],[168.53,54.61],[168.67,54.82],[168.41,55.0],[167.99,54.96],[167.72,55.13],[167.3,55.09],[167.03,55.26],[166.61,55.22],[166.34,55.39],[166.48,55.6],[166.21,55.77],[165.79,55.72]]],[[[92.98,20.2],[92.97,19.95],[93.19,19.81],[93.17,19.56],[93.4,19.42],[93.38,19.17],[93.6,19.04],[93.58,18.78],[93.81,18.65],[94.05,18.76],[94.07,19.01],[93.84,19.15],[93.86,19.4],[93.64,19.54],[93.66,19.79],[93.43,19.92],[93.45,20.17],[93.23,20.31],[92.98,20.2]]],[[[151.96,46.8],[152.22,46.65],[152.55,46.73],[152.62,46.97],[152.95,47.06],[153.02,47.3],[153.36,47.39],[153.43,47.62],[153.17,47.78],[153.24,48.01],[153.58,48.1],[153.65,48.34],[153.38,48.49],[153.04,48.4],[152.97,48.16],[152.63,48.08],[152.56,47.84],[152.23,47.75],[152.16,47.51],[151.83,47.42],[151.76,47.18],[151.43,47.09],[151.37,46.85],[151.63,46.71],[151.96,46.8]]],[[[-19.88,65.86],[-19.48,65.73],[-19.0,65.82],[-18.92,66.05],[-19.32,66.19],[-19.81,66.09],[-19.88,65.86]]],[[[116.99,-34.92],[116.72,-34.89],[116.56,-35.06],[116.28,-35.04],[116.16,-34.85],[115.88,-34.82],[115.73,-34.99],[115.85,-35.18],[116.13,-35.2],[116.25,-35.39],[116.54,-35.42],[116.69,-35.25],[116.97,-35.27],[117.12,-35.11],[116.99,-34.92]]],[[[97.06,4.16],[97.04,3.9],[97.25,3.76],[97.23,3.51],[97.44,3.36],[97.68,3.47],[97.7,3.73],[97.48,3.87],[97.5,4.13],[97.29,4.27],[97.06,4.16]]],[[[37.21,7.86],[36.97,7.83],[36.89,7.63],[37.04,7.45],[37.28,7.47],[37.36,7.68],[37.21,7.86]]],[[[134.73,57.11],[135.15,57.03],[135.5,57.18],[135.42,57.41],[135.77,57.55],[136.2,57.47],[136.56,57.61],[136.98,57.52],[137.34,57.66],[137.28,57.9],[136.85,57.99],[136.49,57.84],[136.06,57.93],[135.7,57.78],[135.27,57.87],[134.91,57.72],[134.99,57.49],[134.65,57.34],[134.73,57.11]]],[[[83.78,19.69],[84.01,19.82],[84.23,19.69],[84.46,19.82],[84.47,20.06],[84.25,20.18],[84.26,20.43],[84.04,20.55],[83.81,20.43],[83.8,20.18],[83.57,20.06],[83.56,19.82],[83.78,19.69]]],[[[34.66,1.45],[34.42,1.42],[34.33,1.19],[34.49,1.0],[34.73,1.04],[34.82,1.26],[34.66,1.45]]],[[[78.18,11.96],[78.17,11.71],[78.38,11.59],[78.59,11.71],[78.59,11.95],[78.39,12.08],[78.18,11.96]]],[[[93.31,34.15],[93.53,34.02],[93.49,33.79],[93.71,33.65],[93.97,33.75],[94.01,33.99],[93.79,34.12],[93.84,34.35],[94.1,34.45],[94.14,34.69],[93.92,34.82],[93.66,34.72],[93.61,34.49],[93.35,34.39],[93.13,34.52],[92.86,34.42],[92.64,34.55],[92.38,34.45],[92.34,34.21],[92.56,34.08],[92.53,33.84],[92.75,33.71],[93.01,33.82],[93.05,34.05],[93.31,34.15]]],[[[37.17,6.08],[37.33,5.89],[37.56,5.92],[37.64,6.13],[37.49,6.31],[37.25,6.29],[37.17,6.08]]],[[[117.85,28.06],[117.63,28.0],[117.59,27.78],[117.79,27.63],[118.01,27.69],[118.04,27.9],[117.85,28.06]]],[[[18.54,21.62],[18.45,21.38],[18.18,21.33],[18.09,21.09],[17.82,21.05],[17.64,21.24],[17.38,21.19],[17.29,20.95],[17.02,20.9],[16.84,21.09],[16.58,21.05],[16.49,20.81],[16.67,20.62],[16.94,20.67],[17.12,20.48],[17.38,20.52],[17.47,20.76],[17.74,20.81],[17.91,20.62],[18.18,20.66],[18.36,20.47],[18.27,20.23],[18.45,20.04],[18.36,19.8],[18.54,19.61],[18.8,19.66],[18.89,19.89],[18.71,20.09],[18.8,20.32],[18.63,20.52],[18.72,20.75],[18.54,20.95],[18.63,21.18],[18.9,21.23],[18.99,21.47],[18.81,21.66],[18.54,21.62]]],[[[-160.29,64.2],[-160.36,64.43],[-160.86,64.51],[-161.3,64.36],[-161.22,64.13],[-160.73,64.05],[-160.29,64.2]]],[[[-25.03,16.9],[-24.82,17.03],[-24.84,17.27],[-25.08,17.36],[-25.29,17.23],[-25.26,16.99],[-25.03,16.9]]],[[[6.29,23.93],[6.23,23.69],[5.98,23.62],[5.79,23.79],[5.54,23.73],[5.48,23.49],[5.23,23.42],[5.18,23.18],[5.37,23.01],[5.61,23.08],[5.8,22.9],[6.05,22.97],[6.11,23.21],[6.36,23.27],[6.42,23.51],[6.67,23.58],[6.73,23.82],[6.54,23.99],[6.29,23.93]]],[[[139.93,32.56],[139.71,32.47],[139.69,32.23],[139.91,32.1],[140.13,32.19],[140.15,32.43],[139.93,32.56]]],[[[42.35,9.15],[42.57,9.17],[42.64,9.37],[42.87,9.39],[43.02,9.22],[43.24,9.24],[43.31,9.43],[43.21,9.61],[42.98,9.59],[42.87,9.77],[42.65,9.75],[42.54,9.55],[42.31,9.53],[42.2,9.71],[41.97,9.68],[41.86,9.48],[41.63,9.46],[41.52,9.26],[41.29,9.24],[41.18,9.42],[40.95,9.4],[40.84,9.2],[40.61,9.18],[40.54,8.98],[40.69,8.8],[40.91,8.83],[40.99,9.02],[41.22,9.04],[41.37,8.87],[41.6,8.89],[41.67,9.09],[41.9,9.11],[41.97,9.31],[42.2,9.33],[42.35,9.15]]],[[[-16.85,21.08],[-16.85,21.32],[-16.63,21.45],[-16.63,21.69],[-16.86,21.8],[-16.86,22.05],[-16.63,22.17],[-16.4,22.06],[-16.16,22.19],[-16.16,22.43],[-16.4,22.55],[-16.63,22.42],[-16.86,22.53],[-17.09,22.4],[-17.09,22.16],[-17.32,22.03],[-17.32,21.79],[-17.09,21.67],[-17.08,21.43],[-17.31,21.3],[-17.31,21.06],[-17.08,20.95],[-17.08,20.71],[-16.85,20.59],[-16.62,20.72],[-16.62,20.96],[-16.85,21.08]]],[[[-159.39,22.38],[-159.66,22.4],[-159.82,22.19],[-160.08,22.21],[-160.24,22.01],[-160.13,21.78],[-159.86,21.76],[-159.71,21.97],[-159.44,21.95],[-159.28,22.15],[-159.39,22.38]]],[[[50.34,14.77],[50.46,14.97],[50.37,15.15],[50.16,15.15],[50.03,14.95],[50.13,14.77],[50.34,14.77]]],[[[1.02,38.87],[1.24,38.73],[1.19,38.49],[1.41,38.35],[1.68,38.44],[1.74,38.67],[2.02,38.76],[2.07,39.0],[1.85,39.15],[1.91,39.38],[1.68,39.53],[1.4,39.44],[1.35,39.2],[1.07,39.11],[1.02,38.87]]],[[[-166.96,64.86],[-166.83,64.63],[-166.29,64.57],[-166.17,64.35],[-165.65,64.29],[-165.24,64.45],[-164.71,64.39],[-164.29,64.55],[-164.4,64.78],[-164.93,64.84],[-165.35,64.68],[-165.88,64.74],[-166.0,64.97],[-166.54,65.03],[-166.96,64.86]]],[[[-155.62,19.84],[-155.46,20.05],[-155.57,20.28],[-155.83,20.31],[-156.0,20.1],[-155.89,19.87],[-155.62,19.84]]],[[[-173.85,60.84],[-173.68,60.63],[-173.21,60.6],[-173.05,60.39],[-172.57,60.35],[-172.42,60.14],[-171.95,60.11],[-171.64,60.29],[-171.78,60.5],[-172.26,60.54],[-172.41,60.75],[-172.89,60.78],[-173.05,60.99],[-173.53,61.02],[-173.85,60.84]]],[[[113.67,26.47],[113.63,26.25],[113.4,26.18],[113.37,25.96],[113.57,25.8],[113.54,25.58],[113.3,25.51],[113.27,25.28],[113.47,25.13],[113.7,25.2],[113.74,25.42],[113.97,25.5],[114.0,25.72],[114.23,25.79],[114.26,26.01],[114.07,26.17],[114.1,26.39],[113.9,26.54],[113.67,26.47]]],[[[114.63,56.45],[114.84,56.25],[115.27,56.23],[115.49,56.42],[115.28,56.62],[114.85,56.63],[114.63,56.45]]],[[[135.64,56.72],[135.23,56.8],[134.88,56.65],[134.96,56.43],[135.37,56.34],[135.71,56.49],[135.64,56.72]]],[[[51.1,14.98],[51.31,14.99],[51.43,15.18],[51.64,15.19],[51.77,15.38],[51.97,15.38],[52.1,15.57],[52.31,15.57],[52.43,15.76],[52.35,15.95],[52.47,16.14],[52.38,16.33],[52.17,16.33],[52.05,16.13],[52.14,15.95],[52.01,15.76],[51.8,15.75],[51.68,15.56],[51.47,15.56],[51.34,15.37],[51.13,15.36],[51.01,15.17],[51.1,14.98]]],[[[168.85,14.5],[169.01,14.33],[169.25,14.36],[169.34,14.57],[169.18,14.75],[168.94,14.71],[168.85,14.5]]],[[[-162.04,65.12],[-162.48,64.96],[-162.4,64.73],[-161.88,64.66],[-161.44,64.81],[-160.93,64.74],[-160.49,64.89],[-160.55,65.12],[-161.07,65.2],[-161.52,65.04],[-162.04,65.12]]],[[[49.76,15.52],[49.54,15.51],[49.42,15.31],[49.51,15.13],[49.73,15.13],[49.85,15.33],[49.76,15.52]]],[[[73.54,9.94],[73.73,9.82],[73.93,9.94],[73.93,10.18],[73.73,10.3],[73.54,10.18],[73.54,9.94]]],[[[168.94,9.89],[169.09,9.72],[169.33,9.75],[169.41,9.95],[169.26,10.12],[169.03,10.08],[168.94,9.89]]],[[[-167.07,65.94],[-167.64,66.0],[-168.06,65.82],[-167.92,65.6],[-167.36,65.54],[-167.22,65.31],[-166.67,65.26],[-166.25,65.42],[-166.37,65.65],[-166.93,65.71],[-167.07,65.94]]],[[[-14.35,65.41],[-13.88,65.49],[-13.75,65.71],[-14.11,65.86],[-13.98,66.08],[-14.34,66.22],[-14.83,66.15],[-14.95,65.92],[-14.59,65.78],[-14.71,65.56],[-14.35,65.41]]],[[[129.05,26.31],[129.01,26.09],[129.21,25.96],[129.46,26.05],[129.5,26.27],[129.29,26.4],[129.05,26.31]]],[[[95.06,34.38],[95.28,34.25],[95.54,34.34],[95.58,34.57],[95.37,34.71],[95.11,34.61],[95.06,34.38]]],[[[81.25,9.04],[81.26,9.29],[81.05,9.42],[80.83,9.3],[80.83,9.05],[81.03,8.92],[81.03,8.67],[81.23,8.54],[81.45,8.65],[81.46,8.9],[81.25,9.04]]],[[[-157.72,21.59],[-157.83,21.81],[-158.1,21.84],[-158.26,21.63],[-158.15,21.4],[-157.88,21.38],[-157.72,21.59]]],[[[118.97,28.34],[118.78,28.49],[118.56,28.44],[118.53,28.23],[118.71,28.07],[118.93,28.13],[118.97,28.34]]],[[[81.94,34.97],[81.67,35.08],[81.41,34.95],[81.42,34.7],[81.68,34.59],[81.94,34.72],[81.94,34.97]]],[[[49.89,69.48],[49.62,69.67],[48.98,69.67],[48.61,69.48],[47.98,69.47],[47.62,69.28],[47.9,69.1],[47.54,68.91],[47.81,68.72],[48.43,68.72],[48.69,68.53],[49.3,68.53],[49.66,68.72],[50.28,68.72],[50.65,68.91],[50.4,69.1],[50.78,69.29],[50.52,69.48],[49.89,69.48]],[[48.88,69.29],[49.51,69.29],[49.77,69.1],[49.4,68.91],[48.78,68.91],[48.52,69.1],[48.88,69.29]]],[[[73.33,4.13],[73.33,3.9],[73.52,3.77],[73.71,3.88],[73.71,4.12],[73.52,4.24],[73.33,4.13]]],[[[38.93,18.87],[38.68,18.85],[38.56,18.64],[38.69,18.44],[38.94,18.45],[39.06,18.67],[38.93,18.87]]],[[[72.76,10.9],[72.96,11.02],[72.96,11.25],[72.77,11.37],[72.57,11.25],[72.57,11.02],[72.76,10.9]]],[[[122.01,21.14],[121.78,21.03],[121.74,20.81],[121.93,20.68],[121.9,20.45],[121.67,20.35],[121.63,20.12],[121.83,19.99],[122.05,20.09],[122.09,20.32],[122.32,20.42],[122.35,20.65],[122.16,20.78],[122.2,21.01],[122.01,21.14]]],[[[133.04,59.36],[133.4,59.52],[133.3,59.75],[132.83,59.83],[132.47,59.67],[132.58,59.44],[133.04,59.36]]],[[[-180.0,51.94],[-179.77,52.14],[-179.99,52.35],[-180.0,51.94]]],[[[180.0,52.34],[179.62,52.34],[179.44,52.14],[179.05,52.14],[178.83,52.34],[178.44,52.33],[178.26,52.13],[177.87,52.12],[177.64,52.32],[177.25,52.31],[177.08,52.1],[177.3,51.9],[177.13,51.69],[177.36,51.5],[177.75,51.5],[177.92,51.71],[178.31,51.72],[178.53,51.52],[178.92,51.53],[179.13,51.32],[179.52,51.33],[179.69,51.53],[179.48,51.73],[179.66,51.94],[180.0,51.94],[180.0,52.34]]],[[[153.59,-28.02],[153.36,-27.87],[153.09,-27.98],[153.06,-28.23],[153.3,-28.38],[153.27,-28.63],[153.51,-28.78],[153.77,-28.68],[153.8,-28.42],[153.56,-28.27],[153.59,-28.02]]],[[[83.25,35.12],[83.25,35.36],[82.99,35.48],[82.73,35.35],[82.72,35.11],[82.99,34.99],[83.25,35.12]]],[[[112.34,24.99],[112.57,25.06],[112.6,25.29],[112.4,25.44],[112.17,25.37],[111.96,25.52],[111.73,25.45],[111.69,25.22],[111.9,25.07],[112.13,25.14],[112.34,24.99]]],[[[142.0,27.03],[141.95,26.81],[142.15,26.67],[142.11,26.45],[142.31,26.3],[142.56,26.37],[142.61,26.59],[142.4,26.73],[142.45,26.95],[142.25,27.1],[142.0,27.03]]],[[[13.02,36.14],[12.72,36.08],[12.63,35.84],[12.33,35.77],[12.25,35.53],[12.46,35.35],[12.75,35.42],[12.84,35.66],[13.14,35.72],[13.23,35.96],[13.02,36.14]]],[[[-169.78,57.36],[-170.2,57.4],[-170.49,57.23],[-170.37,57.02],[-169.96,56.99],[-169.66,57.16],[-169.78,57.36]]],[[[47.17,10.68],[47.27,10.5],[47.48,10.52],[47.6,10.71],[47.51,10.89],[47.29,10.87],[47.17,10.68]]],[[[-172.71,65.55],[-172.53,65.33],[-172.91,65.14],[-172.72,64.91],[-173.09,64.73],[-172.9,64.5],[-173.27,64.32],[-173.08,64.09],[-172.54,64.06],[-172.17,64.25],[-172.35,64.47],[-171.98,64.65],[-172.16,64.88],[-171.77,65.06],[-171.95,65.29],[-171.57,65.47],[-170.99,65.43],[-170.6,65.61],[-170.77,65.84],[-171.35,65.88],[-171.75,65.7],[-172.33,65.74],[-172.71,65.55]]],[[[-176.94,65.33],[-176.36,65.31],[-176.13,65.09],[-175.56,65.07],[-175.2,65.26],[-175.41,65.48],[-176.0,65.51],[-176.22,65.73],[-176.82,65.75],[-177.17,65.55],[-176.94,65.33]]],[[[-16.67,66.04],[-16.57,66.27],[-16.96,66.41],[-17.45,66.32],[-17.55,66.1],[-17.16,65.96],[-16.67,66.04]]],[[[12.37,36.67],[12.46,36.91],[12.25,37.09],[11.94,37.02],[11.86,36.78],[12.07,36.61],[12.37,36.67]]],[[[144.8,13.28],[144.85,13.52],[144.65,13.69],[144.41,13.61],[144.36,13.36],[144.56,13.2],[144.8,13.28]]],[[[112.1,21.59],[112.13,21.82],[111.93,21.98],[111.7,21.9],[111.66,21.66],[111.87,21.51],[112.1,21.59]]],[[[69.16,71.82],[69.69,71.98],[69.49,72.21],[68.74,72.28],[68.22,72.12],[68.43,71.9],[67.92,71.74],[68.13,71.51],[68.85,71.44],[69.36,71.6],[69.16,71.82]]],[[[52.2,25.85],[52.04,25.69],[52.14,25.48],[52.39,25.43],[52.54,25.59],[52.45,25.8],[52.2,25.85]]],[[[-177.34,28.52],[-177.62,28.51],[-177.75,28.28],[-177.61,28.08],[-177.33,28.09],[-177.19,28.31],[-177.34,28.52]]],[[[83.78,35.37],[83.77,35.12],[84.03,35.01],[84.3,35.13],[84.55,35.01],[84.82,35.13],[84.83,35.38],[84.57,35.5],[84.58,35.74],[84.32,35.87],[84.05,35.74],[83.79,35.86],[83.52,35.74],[83.52,35.49],[83.78,35.37]]],[[[18.61,-33.64],[18.33,-33.65],[18.21,-33.84],[18.38,-34.03],[18.66,-34.03],[18.77,-33.83],[18.61,-33.64]]],[[[135.58,60.67],[135.11,60.76],[134.72,60.61],[134.81,60.37],[135.28,60.28],[135.67,60.43],[135.58,60.67]]],[[[119.34,28.03],[119.12,27.97],[119.09,27.76],[119.27,27.61],[119.49,27.66],[119.53,27.87],[119.34,28.03]]],[[[141.23,24.55],[141.44,24.4],[141.69,24.47],[141.73,24.69],[141.53,24.84],[141.28,24.77],[141.23,24.55]]],[[[94.93,34.98],[94.71,35.12],[94.45,35.02],[94.41,34.79],[94.62,34.65],[94.89,34.75],[94.93,34.98]]],[[[131.45,24.5],[131.49,24.73],[131.28,24.86],[131.04,24.77],[131.0,24.55],[131.2,24.41],[131.45,24.5]]],[[[-178.01,65.79],[-178.61,65.8],[-178.95,65.6],[-178.7,65.38],[-178.11,65.37],[-177.76,65.57],[-178.01,65.79]]],[[[144.94,14.01],[145.14,13.85],[145.38,13.93],[145.43,14.17],[145.23,14.33],[144.99,14.26],[144.94,14.01]]],[[[113.21,24.83],[113.01,24.98],[112.77,24.91],[112.74,24.68],[112.94,24.53],[113.17,24.6],[113.21,24.83]]],[[[38.72,17.19],[38.97,17.2],[39.09,17.42],[38.96,17.62],[39.08,17.83],[38.95,18.03],[38.7,18.02],[38.58,17.8],[38.71,17.6],[38.59,17.38],[38.72,17.19]]],[[[36.57,7.39],[36.34,7.37],[36.25,7.16],[36.41,6.98],[36.64,7.01],[36.73,7.21],[36.57,7.39]]],[[[78.68,16.12],[78.88,16.0],[79.1,16.12],[79.1,16.37],[78.89,16.49],[78.68,16.36],[78.68,16.12]]],[[[73.54,10.9],[73.54,10.66],[73.73,10.54],[73.93,10.66],[73.93,10.9],[73.74,11.02],[73.54,10.9]]],[[[115.92,-34.47],[115.79,-34.28],[115.52,-34.25],[115.36,-34.42],[115.48,-34.61],[115.76,-34.63],[115.92,-34.47]]]]}}]}