{"type":"FeatureCollection","features":[{"type":"Feature","properties":{},"geometry":{"type":"MultiPolygon","coordinates":[[[[-15.04,64.08],[-14.59,64.16],[-14.48,64.38],[-14.02,64.46],[-13.9,64.68],[-13.44,64.76],[-13.32,64.98],[-13.66,65.12],[-14.13,65.05],[-14.24,64.82],[-14.71,64.75],[-14.82,64.52],[-15.28,64.44],[-15.63,64.58],[-16.08,64.5],[-16.19,64.27],[-16.64,64.19],[-16.73,63.96],[-17.18,63.87],[-17.54,64.01],[-17.98,63.92],[-18.07,63.69],[-18.51,63.6],[-18.87,63.73],[-19.31,63.63],[-19.68,63.76],[-20.13,63.67],[-20.5,63.79],[-20.44,64.02],[-20.82,64.15],[-21.27,64.05],[-21.66,64.18],[-21.61,64.41],[-22.01,64.53],[-22.46,64.43],[-22.51,64.2],[-22.95,64.09],[-23.0,63.86],[-22.6,63.73],[-22.16,63.84],[-21.77,63.72],[-21.33,63.82],[-20.94,63.69],[-21.0,63.46],[-20.63,63.34],[-20.19,63.44],[-19.82,63.31],[-19.39,63.41],[-19.02,63.28],[-18.59,63.37],[-18.23,63.24],[-17.8,63.33],[-17.71,63.56],[-17.27,63.65],[-16.92,63.51],[-16.48,63.6],[-16.38,63.83],[-15.94,63.91],[-15.84,64.14],[-15.38,64.22],[-15.04,64.08]]],[[[50.72,35.04],[51.01,34.99],[51.18,35.18],[51.47,35.13],[51.65,35.32],[51.93,35.27],[52.05,35.05],[52.33,35.0],[52.51,35.18],[52.8,35.14],[52.98,35.32],[53.28,35.27],[53.46,35.45],[53.75,35.4],[53.86,35.17],[54.15,35.12],[54.34,35.3],[54.63,35.25],[54.82,35.43],[55.11,35.38],[55.3,35.56],[55.6,35.51],[55.79,35.69],[56.09,35.63],[56.28,35.81],[56.58,35.76],[56.68,35.52],[56.97,35.47],[57.07,35.23],[57.36,35.18],[57.56,35.35],[57.47,35.59],[57.67,35.76],[57.57,36.0],[57.78,36.18],[58.08,36.12],[58.17,35.88],[58.47,35.82],[58.67,36.0],[58.58,36.23],[58.28,36.29],[58.19,36.53],[57.89,36.59],[57.79,36.83],[57.49,36.88],[57.39,37.12],[57.6,37.3],[57.91,37.24],[58.11,37.42],[58.02,37.66],[58.23,37.84],[58.54,37.78],[58.63,37.54],[58.94,37.48],[59.03,37.24],[59.33,37.18],[59.42,36.94],[59.73,36.88],[59.81,36.64],[60.12,36.57],[60.33,36.75],[60.24,36.99],[59.94,37.05],[59.85,37.29],[59.55,37.35],[59.46,37.59],[59.67,37.77],[59.98,37.71],[60.2,37.88],[60.51,37.82],[60.59,37.58],[60.9,37.51],[61.12,37.69],[61.43,37.62],[61.65,37.79],[61.57,38.04],[61.79,38.21],[62.1,38.14],[62.33,38.32],[62.64,38.24],[62.87,38.42],[62.79,38.66],[62.48,38.73],[62.4,38.98],[62.63,39.15],[62.55,39.4],[62.23,39.47],[62.15,39.71],[61.83,39.78],[61.75,40.03],[61.43,40.1],[61.34,40.34],[61.02,40.41],[60.79,40.23],[60.47,40.29],[60.38,40.54],[60.05,40.6],[59.96,40.84],[59.64,40.91],[59.54,41.15],[59.22,41.21],[59.12,41.45],[58.79,41.51],[58.69,41.76],[58.37,41.81],[58.14,41.63],[57.81,41.69],[57.71,41.93],[57.38,41.98],[57.27,42.22],[56.94,42.28],[56.84,42.52],[57.06,42.71],[57.39,42.65],[57.5,42.41],[57.83,42.35],[58.06,42.54],[57.95,42.78],[57.62,42.84],[57.51,43.08],[57.18,43.13],[57.07,43.37],[56.73,43.43],[56.62,43.67],[56.28,43.72],[56.17,43.96],[55.83,44.01],[55.72,44.25],[55.38,44.29],[55.15,44.1],[54.81,44.15],[54.69,44.39],[54.35,44.43],[54.23,44.67],[53.89,44.71],[53.67,44.52],[53.33,44.56],[53.2,44.79],[53.42,44.99],[53.3,45.22],[53.51,45.42],[53.39,45.65],[53.61,45.85],[53.48,46.08],[53.7,46.28],[54.05,46.24],[54.28,46.43],[54.15,46.67],[54.38,46.86],[54.26,47.1],[54.49,47.29],[54.36,47.53],[54.59,47.72],[54.96,47.68],[55.19,47.88],[55.56,47.83],[55.8,48.02],[56.16,47.98],[56.41,48.17],[56.77,48.12],[57.02,48.31],[57.39,48.26],[57.64,48.45],[58.01,48.4],[58.13,48.16],[57.87,47.97],[57.99,47.73],[58.35,47.67],[58.61,47.86],[58.49,48.11],[58.75,48.29],[59.12,48.24],[59.38,48.42],[59.27,48.67],[59.53,48.85],[59.42,49.1],[59.68,49.28],[60.06,49.23],[60.33,49.41],[60.71,49.35],[60.98,49.54],[61.35,49.47],[61.63,49.66],[62.01,49.59],[62.29,49.77],[62.67,49.71],[62.95,49.89],[63.33,49.82],[63.61,49.99],[63.52,50.24],[63.81,50.42],[64.19,50.35],[64.48,50.52],[64.87,50.45],[64.96,50.2],[65.34,50.13],[65.63,50.3],[66.01,50.22],[66.1,49.97],[66.48,49.89],[66.56,49.64],[66.26,49.47],[66.34,49.22],[66.05,49.05],[66.13,48.8],[66.5,48.72],[66.58,48.47],[66.29,48.3],[66.37,48.04],[66.08,47.87],[66.16,47.62],[66.52,47.54],[66.81,47.71],[66.73,47.96],[67.02,48.13],[67.38,48.05],[67.67,48.22],[68.04,48.13],[68.33,48.3],[68.7,48.21],[68.99,48.38],[68.93,48.63],[69.23,48.8],[69.59,48.71],[69.89,48.87],[70.26,48.78],[70.32,48.53],[70.68,48.43],[70.74,48.18],[70.44,48.02],[70.5,47.76],[70.85,47.67],[70.91,47.41],[71.26,47.32],[71.32,47.06],[71.67,46.97],[71.72,46.71],[72.07,46.61],[72.12,46.36],[72.46,46.26],[72.76,46.41],[72.71,46.67],[73.01,46.83],[72.97,47.08],[73.27,47.24],[73.23,47.49],[73.53,47.65],[73.49,47.9],[73.8,48.05],[74.15,47.95],[74.46,48.1],[74.81,48.0],[75.13,48.15],[75.47,48.04],[75.79,48.18],[75.76,48.44],[75.41,48.55],[75.37,48.81],[75.69,48.95],[75.66,49.21],[75.98,49.36],[76.33,49.24],[76.36,48.99],[76.04,48.84],[76.08,48.59],[76.43,48.48],[76.75,48.62],[76.72,48.88],[77.04,49.02],[77.01,49.28],[77.34,49.42],[77.69,49.3],[77.72,49.05],[78.06,48.93],[78.39,49.07],[78.74,48.95],[79.07,49.09],[79.05,49.35],[78.7,49.47],[78.68,49.72],[79.01,49.86],[78.99,50.11],[78.64,50.23],[78.31,50.1],[77.95,50.21],[77.93,50.47],[77.57,50.58],[77.23,50.44],[76.87,50.55],[76.84,50.81],[76.48,50.92],[76.14,50.78],[75.77,50.89],[75.74,51.14],[76.07,51.29],[76.04,51.54],[75.67,51.65],[75.33,51.51],[74.96,51.61],[74.92,51.87],[75.25,52.01],[75.22,52.27],[75.56,52.41],[75.94,52.3],[76.28,52.45],[76.66,52.34],[77.0,52.48],[77.38,52.36],[77.73,52.5],[77.7,52.76],[78.05,52.89],[78.43,52.78],[78.78,52.91],[79.16,52.79],[79.51,52.93],[79.88,52.81],[80.24,52.94],[80.61,52.82],[80.62,52.56],[80.27,52.43],[80.28,52.18],[80.64,52.05],[80.65,51.8],[81.01,51.68],[81.02,51.42],[81.37,51.3],[81.38,51.04],[81.03,50.91],[80.68,51.04],[80.34,50.91],[80.35,50.65],[80.7,50.53],[81.04,50.66],[81.39,50.53],[81.4,50.28],[81.74,50.15],[82.08,50.28],[82.43,50.15],[82.77,50.28],[82.77,50.53],[83.12,50.65],[83.12,50.91],[82.77,51.04],[82.77,51.29],[83.12,51.42],[83.47,51.28],[83.82,51.41],[83.83,51.66],[84.18,51.78],[84.19,52.03],[84.55,52.15],[84.9,52.01],[85.26,52.13],[85.6,51.99],[85.96,52.11],[86.3,51.97],[86.66,52.08],[86.68,52.33],[86.34,52.47],[86.36,52.72],[86.72,52.83],[86.75,53.08],[86.4,53.22],[86.42,53.47],[86.07,53.61],[86.09,53.86],[85.73,54.0],[85.36,53.89],[85.0,54.02],[85.01,54.27],[84.65,54.41],[84.66,54.66],[85.04,54.77],[85.4,54.64],[85.78,54.75],[86.15,54.61],[86.13,54.36],[86.48,54.22],[86.86,54.33],[86.88,54.58],[86.53,54.72],[86.55,54.97],[86.93,55.07],[86.96,55.32],[86.59,55.46],[86.21,55.35],[85.84,55.49],[85.86,55.74],[85.48,55.88],[85.5,56.13],[85.12,56.26],[85.14,56.51],[84.76,56.65],[84.77,56.89],[85.17,57.0],[85.18,57.25],[84.79,57.39],[84.81,57.63],[84.41,57.77],[84.01,57.65],[83.61,57.79],[83.62,58.03],[83.21,58.16],[83.22,58.41],[82.81,58.54],[82.81,58.78],[82.4,58.91],[81.98,58.79],[81.56,58.92],[81.56,59.16],[81.13,59.29],[81.13,59.53],[80.7,59.65],[80.28,59.53],[79.85,59.65],[79.83,59.89],[79.39,60.01],[79.37,60.25],[78.93,60.37],[78.51,60.24],[78.06,60.36],[78.03,60.6],[77.58,60.71],[77.54,60.95],[77.08,61.06],[76.66,60.93],[76.2,61.04],[76.16,61.28],[75.69,61.38],[75.27,61.24],[74.79,61.35],[74.74,61.59],[74.27,61.69],[73.85,61.55],[73.37,61.64],[73.31,61.88],[72.82,61.98],[72.76,62.21],[72.27,62.3],[71.84,62.16],[71.35,62.25],[71.28,62.48],[70.78,62.57],[70.36,62.42],[69.86,62.51],[69.45,62.35],[68.95,62.43],[68.85,62.67],[68.35,62.75],[67.94,62.59],[67.43,62.67],[67.03,62.51],[66.52,62.58],[66.41,62.81],[65.9,62.88],[65.79,63.11],[66.19,63.27],[66.08,63.5],[66.49,63.66],[66.38,63.89],[65.85,63.95],[65.44,63.79],[64.91,63.86],[64.51,63.69],[64.63,63.47],[64.23,63.3],[63.71,63.36],[63.58,63.59],[63.05,63.65],[62.66,63.48],[62.13,63.53],[61.99,63.76],[61.46,63.81],[61.08,63.63],[60.55,63.68],[60.17,63.51],[60.32,63.29],[59.95,63.11],[60.1,62.89],[59.73,62.71],[59.88,62.49],[59.52,62.31],[59.67,62.08],[59.32,61.9],[59.47,61.68],[59.12,61.5],[58.62,61.54],[58.47,61.77],[58.81,61.95],[58.66,62.17],[59.01,62.35],[58.86,62.57],[58.35,62.62],[58.19,62.84],[57.67,62.88],[57.5,63.1],[56.98,63.13],[56.81,63.35],[56.29,63.38],[55.94,63.2],[56.12,62.98],[55.77,62.79],[55.26,62.82],[54.92,62.64],[54.41,62.66],[54.08,62.47],[53.58,62.5],[53.39,62.71],[52.88,62.73],[52.69,62.94],[52.17,62.96],[51.86,62.77],[51.35,62.78],[51.15,62.99],[50.63,63.0],[50.33,62.81],[50.53,62.6],[50.23,62.4],[49.73,62.41],[49.52,62.62],[49.02,62.63],[48.73,62.43],[48.23,62.43],[47.95,62.23],[47.45,62.23],[47.24,62.43],[46.74,62.43],[46.52,62.63],[46.02,62.63],[45.75,62.43],[45.26,62.42],[45.04,62.62],[45.3,62.82],[45.07,63.02],[44.57,63.01],[44.31,62.81],[43.82,62.79],[43.58,62.99],[43.84,63.19],[43.6,63.39],[43.1,63.37],[42.85,63.56],[43.11,63.77],[43.61,63.79],[43.86,63.59],[44.36,63.61],[44.63,63.81],[44.39,64.0],[44.66,64.21],[44.42,64.4],[44.69,64.6],[44.44,64.8],[43.92,64.78],[43.67,64.97],[43.94,65.18],[43.69,65.36],[43.15,65.35],[42.89,65.14],[43.14,64.96],[42.88,64.75],[43.13,64.56],[42.87,64.36],[42.36,64.34],[42.1,64.52],[41.59,64.5],[41.33,64.69],[40.82,64.66],[40.55,64.85],[40.8,65.05],[40.53,65.24],[40.01,65.21],[39.74,65.39],[39.98,65.6],[40.51,65.62],[40.76,65.83],[41.29,65.86],[41.56,66.06],[42.1,66.09],[42.37,66.29],[42.91,66.31],[43.18,66.13],[43.73,66.14],[43.99,65.96],[44.53,65.97],[44.82,66.17],[44.56,66.36],[44.86,66.56],[44.6,66.75],[44.9,66.95],[45.46,66.96],[45.72,66.78],[46.29,66.78],[46.54,66.59],[47.11,66.6],[47.43,66.8],[48.0,66.8],[48.33,67.0],[48.08,67.19],[48.41,67.38],[48.16,67.58],[48.5,67.77],[49.09,67.77],[49.44,67.96],[50.04,67.96],[50.4,68.15],[51.01,68.14],[51.38,68.33],[51.99,68.32],[52.37,68.51],[52.99,68.49],[53.22,68.3],[53.83,68.28],[54.05,68.08],[54.66,68.06],[55.06,68.24],[54.85,68.44],[54.23,68.46],[54.01,68.66],[54.41,68.84],[54.18,69.04],[53.55,69.05],[53.15,68.87],[52.53,68.89],[52.14,68.7],[51.52,68.71],[51.14,68.52],[50.52,68.53],[50.16,68.34],[49.55,68.34],[49.19,68.15],[48.59,68.15],[48.25,67.96],[47.65,67.96],[47.39,68.14],[46.79,68.14],[46.53,68.32],[46.86,68.52],[46.59,68.7],[45.98,68.69],[45.7,68.88],[45.09,68.86],[44.77,68.66],[44.17,68.65],[43.88,68.83],[43.28,68.81],[42.97,68.61],[43.26,68.43],[43.86,68.45],[44.14,68.27],[43.83,68.07],[44.11,67.89],[43.81,67.69],[43.23,67.67],[42.94,67.47],[43.22,67.28],[42.93,67.08],[42.37,67.06],[42.09,67.24],[41.53,67.22],[41.24,67.39],[41.52,67.6],[41.23,67.77],[41.51,67.98],[41.21,68.15],[40.64,68.12],[40.34,68.3],[39.76,68.27],[39.45,68.44],[38.88,68.4],[38.57,68.57],[38.83,68.77],[38.51,68.94],[37.93,68.9],[37.61,69.07],[37.02,69.03],[36.7,69.19],[36.95,69.39],[36.48,69.55],[35.89,69.5],[35.78,69.3],[36.12,69.14],[35.87,68.94],[36.2,68.78],[36.78,68.82],[37.1,68.66],[37.67,68.7],[37.99,68.53],[37.74,68.33],[38.05,68.16],[38.62,68.2],[38.93,68.03],[39.49,68.06],[39.8,67.89],[40.36,67.92],[40.66,67.75],[40.39,67.54],[40.68,67.37],[40.41,67.16],[40.7,66.98],[40.44,66.78],[40.72,66.6],[41.27,66.63],[41.55,66.45],[41.28,66.24],[40.74,66.22],[40.46,66.4],[39.92,66.37],[39.64,66.54],[39.1,66.51],[38.86,66.3],[38.33,66.27],[38.04,66.44],[37.51,66.4],[37.21,66.57],[36.68,66.53],[36.38,66.7],[35.86,66.66],[35.55,66.82],[35.77,67.03],[35.46,67.2],[34.93,67.15],[34.61,67.31],[34.09,67.27],[33.77,67.42],[33.24,67.37],[33.04,67.16],[32.52,67.11],[32.2,67.26],[31.69,67.21],[31.5,67.0],[31.0,66.94],[30.67,67.09],[30.17,67.03],[30.0,66.82],[30.32,66.66],[30.15,66.45],[29.67,66.39],[29.34,66.54],[28.86,66.48],[28.53,66.62],[28.68,66.84],[29.17,66.9],[29.34,67.12],[29.0,67.26],[28.51,67.2],[28.17,67.34],[27.68,67.27],[27.34,67.42],[27.48,67.63],[27.14,67.77],[26.64,67.7],[26.5,67.49],[26.02,67.41],[25.67,67.55],[25.8,67.77],[25.45,67.9],[24.97,67.83],[24.84,67.61],[24.37,67.54],[24.01,67.67],[23.54,67.59],[23.19,67.72],[22.72,67.64],[22.62,67.43],[22.16,67.34],[22.06,67.13],[21.61,67.05],[21.52,66.83],[21.08,66.75],[20.73,66.88],[20.3,66.79],[19.95,66.91],[19.52,66.82],[19.45,66.61],[19.8,66.49],[19.72,66.28],[19.31,66.19],[18.96,66.31],[18.55,66.22],[18.49,66.01],[18.08,65.92],[17.74,66.04],[17.34,65.95],[17.29,65.73],[16.9,65.64],[16.85,65.43],[16.47,65.34],[16.13,65.45],[15.75,65.36],[15.71,65.15],[15.34,65.05],[15.31,64.85],[14.94,64.75],[14.91,64.54],[14.55,64.44],[14.23,64.56],[14.25,64.77],[13.92,64.88],[13.57,64.78],[13.23,64.89],[13.25,65.1],[12.91,65.21],[12.93,65.41],[13.29,65.51],[13.63,65.4],[13.99,65.5],[14.02,65.71],[13.54,65.79],[13.43,65.96],[13.8,66.06],[13.69,66.23],[14.07,66.34],[13.96,66.51],[13.46,66.59],[13.35,66.76],[13.73,66.87],[13.62,67.04],[14.01,67.15],[15.43,67.09],[15.84,67.19],[15.74,67.37],[15.22,67.45],[15.12,67.63],[15.53,67.74],[15.43,67.92],[15.85,68.02],[15.75,68.21],[16.19,68.31],[16.72,68.22],[17.16,68.32],[17.07,68.51],[17.52,68.61],[17.43,68.8],[17.89,68.89],[17.81,69.08],[17.25,69.17],[17.15,69.36],[17.63,69.46],[18.19,69.37],[18.67,69.47],[18.59,69.66],[19.08,69.76],[19.65,69.67],[20.15,69.76],[20.72,69.66],[21.23,69.76],[21.17,69.95],[21.69,70.04],[21.64,70.24],[22.17,70.33],[22.74,70.22],[22.78,70.03],[23.35,69.92],[23.88,70.0],[23.85,70.2],[23.28,70.31],[23.25,70.51],[23.8,70.6],[24.38,70.48],[24.93,70.57],[25.5,70.45],[26.07,70.53],[26.63,70.41],[27.2,70.49],[27.21,70.69],[27.79,70.77],[28.35,70.64],[28.94,70.71],[29.49,70.58],[30.09,70.65],[30.63,70.52],[30.58,70.32],[30.0,70.25],[29.46,70.38],[28.88,70.31],[28.85,70.11],[29.38,69.99],[29.35,69.79],[28.79,69.72],[28.76,69.52],[28.21,69.45],[28.19,69.26],[27.65,69.18],[27.13,69.31],[26.6,69.23],[26.6,69.04],[27.11,68.92],[27.1,68.72],[27.61,68.6],[28.12,68.67],[28.15,68.87],[28.67,68.94],[29.18,68.81],[29.15,68.62],[29.5,68.47],[30.02,68.53],[30.37,68.39],[30.9,68.45],[31.25,68.3],[31.78,68.36],[31.98,68.57],[32.52,68.63],[32.73,68.84],[33.28,68.89],[33.5,69.1],[34.06,69.15],[34.4,69.0],[34.97,69.05],[35.2,69.26],[34.72,69.4],[34.82,69.6],[34.33,69.74],[33.74,69.69],[33.24,69.83],[33.32,70.03],[32.81,70.17],[32.22,70.11],[31.7,70.25],[31.76,70.45],[31.23,70.58],[31.29,70.79],[30.74,70.92],[30.13,70.85],[29.57,70.99],[28.97,70.91],[28.41,71.04],[28.43,71.25],[27.85,71.37],[27.25,71.3],[27.24,71.09],[26.65,71.01],[26.06,71.14],[26.06,71.34],[25.46,71.46],[24.87,71.37],[24.89,71.17],[24.31,71.08],[23.71,71.2],[23.14,71.11],[23.18,70.91],[22.62,70.82],[22.03,70.93],[21.48,70.83],[21.53,70.63],[21.0,70.54],[21.06,70.34],[20.53,70.25],[19.95,70.35],[19.88,70.54],[19.28,70.64],[18.76,70.54],[18.84,70.35],[18.33,70.24],[18.42,70.05],[17.93,69.95],[18.02,69.76],[17.53,69.66],[16.96,69.74],[16.48,69.64],[16.58,69.45],[16.12,69.35],[15.55,69.43],[15.09,69.32],[15.2,69.14],[14.76,69.03],[14.19,69.11],[13.75,69.0],[13.88,68.81],[13.45,68.7],[13.58,68.52],[13.16,68.41],[13.29,68.23],[12.87,68.12],[12.33,68.19],[11.93,68.08],[12.07,67.9],[11.67,67.79],[11.81,67.61],[11.42,67.5],[11.56,67.33],[12.08,67.26],[12.46,67.37],[12.33,67.54],[12.73,67.65],[13.26,67.58],[13.38,67.4],[12.98,67.29],[13.11,67.12],[12.72,67.01],[12.21,67.08],[11.83,66.97],[11.96,66.8],[11.59,66.69],[11.72,66.52],[11.35,66.41],[11.48,66.24],[11.12,66.13],[11.26,65.96],[10.9,65.85],[11.03,65.68],[11.51,65.62],[11.64,65.45],[11.29,65.34],[10.82,65.41],[10.48,65.3],[10.61,65.14],[10.28,65.03],[10.41,64.87],[10.13,64.7],[9.72,64.7],[9.6,64.53],[9.88,64.36],[9.77,64.2],[9.36,64.19],[9.07,64.35],[8.66,64.35],[8.54,64.18],[8.13,64.17],[8.02,64.0],[8.32,63.83],[8.2,63.66],[7.8,63.65],[7.69,63.48],[7.29,63.47],[7.18,63.29],[6.77,63.28],[6.67,63.1],[6.27,63.08],[6.16,62.91],[5.76,62.89],[5.66,62.71],[5.26,62.69],[5.16,62.51],[4.76,62.49],[4.67,62.31],[4.97,62.14],[4.87,61.96],[4.48,61.94],[4.39,61.75],[4.69,61.59],[4.59,61.41],[4.2,61.38],[4.11,61.2],[4.41,61.04],[4.32,60.85],[4.62,60.69],[4.53,60.5],[4.82,60.34],[4.73,60.15],[5.02,59.98],[4.93,59.79],[4.55,59.77],[4.46,59.58],[4.75,59.41],[4.66,59.22],[4.94,59.06],[4.85,58.86],[5.13,58.7],[5.05,58.51],[5.32,58.34],[5.68,58.37],[5.95,58.2],[6.31,58.23],[6.58,58.06],[6.49,57.87],[6.78,57.76],[7.16,57.84],[7.45,57.72],[7.84,57.8],[7.93,57.99],[8.32,58.07],[8.61,57.95],[9.0,58.03],[9.1,58.22],[9.5,58.29],[9.6,58.48],[9.31,58.6],[9.41,58.79],[9.81,58.86],[10.11,58.74],[10.51,58.81],[10.8,58.69],[10.69,58.5],[10.98,58.38],[10.87,58.19],[11.16,58.06],[11.05,57.87],[10.65,57.8],[10.36,57.93],[9.97,57.86],[9.87,57.67],[9.48,57.59],[9.37,57.4],[8.99,57.33],[8.7,57.45],[8.31,57.37],[8.22,57.18],[7.84,57.1],[7.74,56.9],[8.02,56.79],[7.93,56.59],[7.55,56.51],[7.46,56.31],[7.74,56.19],[7.65,55.99],[7.93,55.87],[7.83,55.67],[7.46,55.59],[7.37,55.39],[7.65,55.27],[8.02,55.35],[8.29,55.23],[8.2,55.02],[7.83,54.95],[7.74,54.74],[8.02,54.62],[7.92,54.41],[7.56,54.34],[7.29,54.46],[6.92,54.38],[6.84,54.18],[6.48,54.09],[6.21,54.22],[5.85,54.13],[5.77,53.93],[5.41,53.84],[5.33,53.64],[4.98,53.55],[4.71,53.67],[4.38,53.63],[4.3,53.42],[3.97,53.38],[3.9,53.17],[3.57,53.13],[3.31,53.29],[3.38,53.5],[3.12,53.67],[2.79,53.62],[2.52,53.79],[2.18,53.74],[1.92,53.9],[1.58,53.86],[1.3,54.02],[1.37,54.23],[1.1,54.39],[0.75,54.34],[0.47,54.5],[0.13,54.45],[-0.16,54.61],[-0.51,54.56],[-0.79,54.72],[-0.73,54.93],[-1.02,55.09],[-0.96,55.3],[-1.25,55.46],[-1.19,55.67],[-1.49,55.82],[-1.43,56.03],[-1.73,56.19],[-2.09,56.13],[-2.4,56.29],[-2.34,56.5],[-1.98,56.55],[-1.92,56.76],[-1.55,56.81],[-1.49,57.02],[-1.8,57.18],[-1.74,57.38],[-1.37,57.43],[-1.3,57.64],[-1.61,57.79],[-1.99,57.74],[-2.3,57.9],[-2.68,57.84],[-3.0,58.0],[-2.94,58.2],[-2.56,58.25],[-2.5,58.46],[-2.82,58.61],[-2.76,58.81],[-2.38,58.87],[-2.32,59.07],[-1.94,59.12],[-1.87,59.32],[-1.49,59.37],[-1.42,59.57],[-1.03,59.61],[-0.97,59.81],[-0.58,59.85],[-0.51,60.05],[-0.83,60.2],[-0.76,60.4],[-0.37,60.44],[-0.3,60.64],[-0.62,60.79],[-0.55,60.99],[-0.88,61.14],[-1.28,61.1],[-1.35,60.9],[-1.75,60.86],[-1.82,60.66],[-2.21,60.61],[-2.28,60.42],[-2.67,60.37],[-2.74,60.17],[-2.4,60.02],[-2.01,60.07],[-1.68,59.92],[-1.75,59.72],[-2.14,59.67],[-2.2,59.47],[-2.59,59.42],[-2.92,59.57],[-3.31,59.52],[-3.36,59.32],[-3.75,59.26],[-4.09,59.41],[-4.48,59.36],[-4.53,59.15],[-4.19,59.0],[-3.81,59.06],[-3.48,58.91],[-3.53,58.71],[-3.91,58.65],[-4.25,58.8],[-4.63,58.74],[-4.97,58.89],[-5.35,58.83],[-5.4,58.62],[-5.79,58.56],[-6.13,58.71],[-6.51,58.64],[-6.56,58.43],[-6.94,58.37],[-7.28,58.51],[-7.67,58.44],[-7.71,58.23],[-7.36,58.09],[-7.4,57.88],[-7.78,57.81],[-7.82,57.6],[-7.48,57.46],[-7.52,57.25],[-7.89,57.17],[-7.93,56.96],[-8.3,56.89],[-8.34,56.67],[-8.0,56.53],[-7.63,56.6],[-7.3,56.46],[-7.33,56.25],[-7.01,56.1],[-7.04,55.89],[-6.72,55.74],[-6.76,55.52],[-7.12,55.45],[-7.45,55.6],[-7.81,55.52],[-8.14,55.67],[-8.5,55.59],[-8.54,55.37],[-8.9,55.29],[-8.93,55.07],[-9.29,54.99],[-9.32,54.77],[-8.99,54.63],[-9.02,54.41],[-9.38,54.33],[-9.71,54.47],[-10.06,54.38],[-10.39,54.52],[-10.75,54.44],[-10.77,54.21],[-10.44,54.08],[-10.47,53.85],[-10.82,53.76],[-10.84,53.54],[-10.51,53.4],[-10.54,53.17],[-10.21,53.03],[-10.24,52.81],[-10.58,52.72],[-10.61,52.49],[-10.95,52.4],[-10.97,52.17],[-10.65,52.03],[-10.67,51.8],[-10.36,51.66],[-10.38,51.43],[-10.07,51.29],[-9.73,51.38],[-9.42,51.24],[-9.08,51.32],[-8.77,51.18],[-8.43,51.27],[-8.4,51.49],[-8.07,51.58],[-8.03,51.81],[-7.69,51.89],[-7.39,51.74],[-7.05,51.82],[-7.01,52.05],[-6.67,52.13],[-6.37,51.98],[-6.03,52.05],[-5.99,52.28],[-5.65,52.35],[-5.61,52.58],[-5.91,52.73],[-5.87,52.95],[-5.52,53.02],[-5.48,53.25],[-5.78,53.4],[-5.74,53.62],[-6.05,53.77],[-6.01,53.99],[-5.66,54.06],[-5.62,54.28],[-5.26,54.35],[-4.95,54.2],[-5.0,53.98],[-4.7,53.83],[-4.74,53.61],[-5.09,53.54],[-5.13,53.32],[-4.83,53.17],[-4.88,52.94],[-5.22,52.87],[-5.26,52.65],[-4.97,52.5],[-5.01,52.28],[-5.35,52.2],[-5.39,51.98],[-5.73,51.9],[-5.77,51.68],[-5.48,51.53],[-5.14,51.6],[-4.85,51.45],[-4.89,51.22],[-4.6,51.07],[-4.64,50.84],[-4.98,50.77],[-5.27,50.92],[-5.6,50.85],[-5.64,50.62],[-5.97,50.54],[-6.01,50.31],[-6.34,50.23],[-6.38,50.0],[-6.7,49.92],[-6.74,49.69],[-6.45,49.54],[-6.12,49.62],[-6.09,49.85],[-5.76,49.93],[-5.47,49.78],[-5.14,49.86],[-4.86,49.7],[-4.53,49.78],[-4.49,50.01],[-4.16,50.08],[-3.88,49.93],[-3.56,50.0],[-3.28,49.85],[-2.96,49.92],[-2.68,49.76],[-2.73,49.53],[-3.05,49.46],[-3.1,49.23],[-3.42,49.16],[-3.47,48.93],[-3.79,48.86],[-4.06,49.01],[-4.39,48.94],[-4.43,48.71],[-4.75,48.63],[-5.03,48.78],[-5.35,48.7],[-5.39,48.47],[-5.11,48.32],[-5.15,48.09],[-4.87,47.93],[-4.91,47.7],[-4.64,47.55],[-4.33,47.63],[-4.06,47.47],[-3.74,47.55],[-3.47,47.39],[-3.52,47.16],[-3.25,47.0],[-2.94,47.08],[-2.68,46.92],[-2.73,46.69],[-2.47,46.53],[-2.16,46.61],[-1.91,46.45],[-1.96,46.22],[-1.7,46.06],[-1.75,45.83],[-1.5,45.67],[-1.55,45.44],[-1.3,45.28],[-1.35,45.05],[-1.65,44.97],[-1.7,44.74],[-1.45,44.58],[-1.5,44.35],[-1.8,44.27],[-1.85,44.04],[-1.6,43.88],[-1.65,43.64],[-1.94,43.57],[-2.19,43.72],[-2.48,43.64],[-2.73,43.8],[-3.02,43.72],[-3.28,43.88],[-3.57,43.79],[-3.82,43.95],[-4.12,43.86],[-4.16,43.63],[-4.46,43.54],[-4.72,43.69],[-5.01,43.61],[-5.27,43.76],[-5.57,43.67],[-5.83,43.82],[-6.13,43.73],[-6.39,43.88],[-6.69,43.79],[-6.96,43.94],[-7.26,43.85],[-7.53,44.0],[-7.83,43.9],[-8.1,44.05],[-8.4,43.95],[-8.43,43.71],[-8.73,43.61],[-9.0,43.76],[-9.3,43.66],[-9.33,43.42],[-9.63,43.32],[-9.65,43.07],[-9.38,42.93],[-9.4,42.68],[-9.13,42.54],[-9.15,42.29],[-8.88,42.14],[-8.91,41.9],[-9.2,41.8],[-9.22,41.55],[-8.96,41.41],[-8.98,41.16],[-8.72,41.01],[-8.74,40.77],[-9.03,40.67],[-9.06,40.42],[-9.34,40.31],[-9.36,40.07],[-9.1,39.92],[-9.13,39.67],[-9.41,39.57],[-9.67,39.71],[-9.96,39.61],[-9.98,39.36],[-9.72,39.21],[-9.74,38.97],[-9.48,38.82],[-9.5,38.57],[-9.24,38.43],[-9.26,38.18],[-9.01,38.04],[-9.03,37.79],[-9.31,37.68],[-9.33,37.43],[-9.08,37.29],[-9.1,37.04],[-8.85,36.9],[-8.58,37.01],[-8.33,36.86],[-8.05,36.97],[-7.81,36.82],[-7.53,36.93],[-7.29,36.78],[-7.02,36.88],[-6.77,36.74],[-6.8,36.49],[-6.56,36.35],[-6.59,36.1],[-6.35,35.95],[-6.38,35.71],[-6.15,35.56],[-6.18,35.32],[-6.44,35.21],[-6.47,34.97],[-6.74,34.86],[-6.77,34.62],[-6.53,34.47],[-6.27,34.58],[-6.24,34.82],[-5.97,34.92],[-5.94,35.17],[-5.68,35.27],[-5.64,35.52],[-5.38,35.62],[-5.14,35.47],[-5.18,35.22],[-4.95,35.08],[-4.68,35.18],[-4.45,35.03],[-4.19,35.12],[-3.96,34.98],[-3.7,35.07],[-3.66,35.32],[-3.89,35.46],[-4.15,35.37],[-4.38,35.52],[-4.65,35.42],[-4.88,35.57],[-4.84,35.81],[-5.08,35.96],[-5.04,36.2],[-4.77,36.3],[-4.54,36.15],[-4.27,36.25],[-4.24,36.49],[-3.97,36.59],[-3.74,36.44],[-3.47,36.53],[-3.24,36.38],[-2.97,36.47],[-2.75,36.32],[-2.48,36.41],[-2.26,36.26],[-1.99,36.35],[-1.95,36.59],[-1.68,36.68],[-1.64,36.92],[-1.37,37.01],[-1.33,37.25],[-1.06,37.33],[-0.84,37.18],[-0.58,37.26],[-0.53,37.5],[-0.26,37.58],[-0.21,37.82],[-0.43,37.97],[-0.38,38.21],[-0.12,38.29],[-0.07,38.53],[0.2,38.61],[0.25,38.85],[0.03,39.0],[0.08,39.24],[-0.14,39.4],[-0.09,39.63],[0.18,39.71],[0.24,39.95],[0.51,40.02],[0.56,40.26],[0.84,40.34],[0.89,40.57],[1.17,40.66],[1.23,40.9],[1.51,40.99],[1.74,40.85],[2.02,40.94],[2.08,41.17],[2.36,41.26],[2.42,41.49],[2.71,41.58],[2.94,41.44],[3.23,41.53],[3.29,41.76],[3.59,41.85],[3.65,42.08],[3.42,42.23],[3.48,42.46],[3.25,42.6],[3.31,42.84],[3.61,42.93],[3.67,43.16],[3.97,43.25],[4.21,43.1],[4.51,43.19],[4.74,43.04],[5.04,43.13],[5.28,42.98],[5.58,43.06],[5.82,42.92],[6.12,43.0],[6.35,42.85],[6.66,42.93],[6.74,43.16],[7.05,43.24],[7.12,43.48],[7.43,43.56],[7.67,43.4],[7.98,43.48],[8.06,43.71],[8.37,43.79],[8.46,44.02],[8.77,44.1],[9.01,43.94],[9.33,44.02],[9.56,43.86],[9.88,43.94],[10.12,43.78],[10.03,43.55],[9.71,43.47],[9.63,43.24],[9.31,43.17],[9.23,42.94],[8.91,42.86],[8.68,43.02],[8.37,42.94],[8.29,42.71],[8.52,42.55],[8.44,42.32],[8.13,42.24],[8.05,42.01],[8.28,41.85],[8.21,41.61],[8.43,41.46],[8.74,41.53],[8.97,41.37],[8.89,41.14],[8.58,41.06],[8.36,41.22],[8.05,41.14],[7.97,40.91],[7.67,40.83],[7.6,40.59],[7.82,40.44],[8.12,40.51],[8.35,40.35],[8.27,40.12],[7.97,40.04],[7.9,39.8],[8.12,39.64],[8.05,39.4],[7.75,39.33],[7.67,39.09],[7.9,38.93],[8.19,39.0],[8.42,38.84],[8.34,38.6],[8.56,38.44],[8.86,38.51],[8.94,38.75],[9.24,38.82],[9.31,39.06],[9.62,39.14],[9.84,38.97],[10.14,39.04],[10.22,39.28],[10.0,39.45],[10.08,39.68],[9.86,39.85],[9.94,40.09],[10.25,40.16],[10.33,40.4],[10.11,40.56],[10.19,40.8],[9.96,40.96],[10.05,41.2],[9.82,41.36],[9.9,41.59],[9.67,41.76],[9.76,41.99],[10.07,42.06],[10.3,41.9],[10.61,41.97],[10.7,42.21],[11.02,42.28],[11.24,42.11],[11.56,42.18],[11.79,42.02],[11.7,41.78],[11.93,41.62],[12.25,41.68],[12.47,41.52],[12.38,41.28],[12.61,41.11],[12.52,40.88],[12.74,40.71],[13.05,40.77],[13.28,40.6],[13.59,40.67],[13.82,40.49],[14.13,40.55],[14.36,40.38],[14.67,40.44],[14.89,40.27],[14.8,40.03],[15.02,39.85],[15.33,39.91],[15.55,39.73],[15.45,39.5],[15.67,39.32],[15.57,39.08],[15.26,39.02],[15.16,38.79],[14.85,38.73],[14.63,38.9],[14.32,38.84],[14.23,38.61],[14.44,38.43],[14.35,38.19],[14.04,38.13],[13.82,38.31],[13.52,38.24],[13.3,38.42],[13.39,38.66],[13.17,38.83],[12.86,38.77],[12.77,38.53],[12.46,38.46],[12.38,38.22],[12.07,38.16],[11.98,37.92],[12.2,37.74],[12.12,37.5],[12.33,37.33],[12.64,37.4],[12.85,37.22],[13.15,37.28],[13.37,37.11],[13.67,37.17],[13.89,36.99],[14.19,37.05],[14.41,36.87],[14.32,36.63],[14.53,36.45],[14.83,36.51],[15.04,36.33],[15.35,36.39],[15.44,36.63],[15.23,36.81],[15.33,37.05],[15.63,37.11],[15.73,37.35],[15.52,37.53],[15.61,37.77],[15.93,37.83],[16.14,37.64],[16.45,37.7],[16.55,37.94],[16.86,37.99],[16.96,38.23],[16.75,38.41],[16.85,38.65],[17.17,38.71],[17.27,38.94],[17.58,39.0],[17.69,39.23],[17.47,39.41],[17.58,39.65],[17.36,39.83],[17.04,39.78],[16.83,39.96],[16.93,40.19],[17.25,40.25],[17.47,40.07],[17.79,40.12],[18.0,39.94],[17.9,39.7],[18.11,39.52],[18.43,39.57],[18.54,39.8],[18.86,39.85],[19.07,39.67],[19.4,39.72],[19.61,39.53],[19.5,39.3],[19.71,39.11],[20.03,39.15],[20.24,38.97],[20.13,38.73],[20.34,38.54],[20.23,38.31],[19.91,38.26],[19.8,38.02],[20.01,37.84],[20.33,37.88],[20.53,37.69],[20.42,37.45],[20.63,37.26],[20.94,37.31],[21.15,37.11],[21.04,36.88],[21.24,36.68],[21.55,36.73],[21.75,36.53],[22.07,36.57],[22.27,36.38],[22.16,36.14],[22.35,35.95],[22.67,35.99],[22.86,35.79],[23.18,35.83],[23.37,35.63],[23.26,35.39],[23.45,35.2],[23.34,34.96],[23.53,34.76],[23.84,34.8],[24.04,34.6],[24.34,34.63],[24.46,34.87],[24.77,34.9],[24.96,34.7],[25.27,34.74],[25.46,34.53],[25.77,34.57],[25.89,34.8],[26.2,34.83],[26.32,35.07],[26.63,35.09],[26.75,35.33],[27.06,35.36],[27.24,35.15],[27.55,35.18],[27.68,35.41],[27.49,35.62],[27.62,35.85],[27.93,35.87],[28.11,35.67],[28.42,35.69],[28.55,35.92],[28.37,36.13],[28.49,36.36],[28.81,36.38],[28.99,36.18],[29.3,36.2],[29.49,35.99],[29.8,36.01],[29.98,35.81],[30.29,35.83],[30.42,36.05],[30.73,36.07],[30.86,36.3],[30.68,36.51],[30.81,36.73],[31.12,36.75],[31.3,36.54],[31.62,36.56],[31.79,36.35],[32.1,36.36],[32.28,36.15],[32.14,35.93],[32.32,35.72],[32.63,35.73],[32.76,35.96],[33.07,35.97],[33.24,35.76],[33.11,35.54],[32.8,35.52],[32.67,35.3],[32.36,35.29],[32.23,35.06],[31.92,35.04],[31.79,34.82],[31.96,34.61],[32.27,34.62],[32.44,34.41],[32.74,34.43],[32.91,34.22],[33.21,34.23],[33.35,34.46],[33.65,34.47],[33.79,34.69],[34.09,34.7],[34.22,34.93],[34.06,35.14],[34.19,35.36],[34.5,35.37],[34.63,35.59],[34.94,35.6],[35.08,35.82],[34.91,36.03],[34.6,36.02],[34.47,35.8],[34.16,35.79],[34.02,35.57],[33.72,35.56],[33.55,35.77],[33.68,35.99],[33.99,36.0],[34.13,36.23],[34.43,36.23],[34.57,36.45],[34.88,36.46],[35.05,36.25],[35.35,36.26],[35.52,36.04],[35.38,35.83],[35.54,35.61],[35.41,35.39],[35.57,35.18],[35.43,34.96],[35.59,34.75],[35.46,34.53],[35.62,34.31],[35.48,34.09],[35.18,34.08],[35.05,33.86],[35.21,33.65],[35.08,33.43],[34.78,33.42],[34.64,33.19],[34.81,32.98],[34.67,32.76],[34.83,32.54],[34.7,32.32],[34.41,32.31],[34.27,32.08],[34.44,31.87],[34.3,31.65],[34.01,31.63],[33.88,31.41],[34.04,31.19],[34.33,31.21],[34.47,31.43],[34.76,31.44],[34.92,31.23],[35.21,31.24],[35.34,31.47],[35.63,31.48],[35.79,31.26],[36.08,31.27],[36.21,31.5],[36.5,31.5],[36.65,31.29],[36.94,31.3],[37.1,31.08],[37.38,31.09],[37.52,31.31],[37.8,31.31],[37.94,31.53],[38.23,31.54],[38.38,31.32],[38.66,31.33],[38.8,31.54],[39.08,31.55],[39.23,31.33],[39.51,31.33],[39.65,31.55],[39.93,31.55],[40.07,31.76],[40.35,31.76],[40.49,31.98],[40.35,32.19],[40.49,32.41],[40.35,32.62],[40.49,32.84],[40.34,33.05],[40.06,33.06],[39.91,33.27],[40.05,33.48],[39.91,33.7],[39.62,33.7],[39.47,33.92],[39.61,34.13],[39.46,34.35],[39.17,34.35],[39.02,34.56],[39.16,34.78],[39.45,34.78],[39.6,34.56],[39.9,34.56],[40.04,34.77],[39.89,34.99],[40.03,35.2],[40.33,35.19],[40.47,34.98],[40.76,34.97],[40.91,35.18],[41.2,35.17],[41.35,35.38],[41.64,35.38],[41.78,35.58],[42.07,35.57],[42.21,35.36],[42.5,35.35],[42.65,35.55],[42.94,35.54],[43.08,35.75],[43.37,35.73],[43.52,35.94],[43.8,35.92],[43.95,36.13],[44.24,36.11],[44.39,36.31],[44.67,36.3],[44.81,36.08],[45.09,36.06],[45.22,35.85],[45.07,35.65],[45.2,35.43],[45.48,35.41],[45.63,35.61],[45.91,35.59],[46.04,35.38],[45.89,35.18],[46.02,34.96],[45.87,34.76],[46.0,34.55],[45.85,34.35],[45.98,34.13],[46.25,34.11],[46.37,33.9],[46.65,33.88],[46.79,34.08],[47.06,34.06],[47.21,34.26],[47.09,34.47],[47.24,34.67],[47.11,34.89],[47.27,35.07],[47.55,35.04],[47.71,35.22],[47.99,35.19],[48.16,35.37],[48.44,35.34],[48.56,35.12],[48.84,35.08],[48.96,34.86],[49.24,34.83],[49.41,35.01],[49.29,35.23],[49.46,35.41],[49.75,35.38],[49.86,35.15],[49.7,34.97],[49.81,34.75],[50.1,34.71],[50.21,34.49],[50.49,34.45],[50.61,34.23],[50.89,34.19],[51.06,34.37],[50.95,34.59],[50.66,34.63],[50.55,34.85],[50.72,35.04]],[[-4.04,53.74],[-4.35,53.9],[-4.3,54.11],[-3.95,54.18],[-3.65,54.03],[-3.7,53.81],[-4.04,53.74]],[[45.65,68.5],[45.93,68.31],[45.6,68.12],[45.87,67.93],[45.55,67.73],[44.97,67.72],[44.7,67.9],[45.01,68.1],[44.73,68.29],[45.05,68.48],[45.65,68.5]],[[-2.88,48.85],[-2.83,49.08],[-2.51,49.15],[-2.24,48.99],[-2.29,48.76],[-2.61,48.69],[-2.88,48.85]],[[39.33,64.19],[39.1,63.98],[38.61,63.95],[38.34,64.13],[38.57,64.34],[39.07,64.37],[39.33,64.19]],[[31.63,68.72],[31.09,68.66],[30.74,68.81],[30.21,68.75],[29.71,68.88],[29.75,69.07],[29.24,69.2],[29.28,69.39],[29.83,69.46],[29.87,69.66],[30.43,69.72],[30.95,69.59],[31.51,69.65],[32.02,69.52],[31.96,69.32],[32.45,69.18],[32.38,68.99],[31.83,68.93],[31.63,68.72]],[[17.66,42.47],[17.88,42.29],[18.21,42.34],[18.43,42.16],[18.76,42.21],[18.98,42.03],[18.87,41.8],[19.09,41.62],[18.98,41.39],[19.19,41.2],[19.08,40.97],[19.3,40.79],[19.19,40.55],[18.86,40.51],[18.65,40.69],[18.32,40.64],[18.11,40.82],[17.78,40.77],[17.56,40.95],[17.67,41.18],[17.45,41.36],[17.13,41.31],[16.91,41.49],[16.58,41.43],[16.36,41.61],[16.46,41.84],[16.24,42.02],[16.34,42.25],[16.67,42.31],[16.78,42.54],[17.11,42.59],[17.33,42.42],[17.66,42.47]],[[36.61,65.56],[36.1,65.52],[35.89,65.31],[35.39,65.27],[35.1,65.44],[35.3,65.65],[35.81,65.69],[36.02,65.9],[35.72,66.07],[35.94,66.28],[36.46,66.32],[36.76,66.15],[37.28,66.19],[37.57,66.02],[38.09,66.06],[38.38,65.88],[38.9,65.92],[39.14,66.13],[39.67,66.16],[39.95,65.98],[39.71,65.77],[39.18,65.74],[38.94,65.53],[39.22,65.36],[38.99,65.15],[38.48,65.11],[38.2,65.29],[37.69,65.26],[37.4,65.43],[36.9,65.39],[36.61,65.56]],[[38.78,44.2],[38.95,43.99],[38.79,43.79],[38.96,43.58],[39.28,43.57],[39.45,43.37],[39.77,43.35],[39.93,43.14],[40.25,43.13],[40.41,42.92],[40.73,42.91],[40.89,42.7],[41.21,42.68],[41.36,42.47],[41.21,42.27],[41.36,42.06],[41.21,41.87],[41.36,41.65],[41.21,41.46],[40.9,41.47],[40.74,41.27],[40.43,41.28],[40.27,41.08],[39.96,41.09],[39.8,41.3],[39.49,41.31],[39.33,41.11],[39.02,41.12],[38.86,41.33],[38.54,41.34],[38.39,41.13],[38.07,41.14],[37.9,41.35],[37.59,41.35],[37.42,41.56],[37.1,41.57],[36.93,41.78],[36.6,41.78],[36.43,41.99],[36.11,41.99],[35.96,41.78],[35.64,41.78],[35.46,41.99],[35.61,42.2],[35.43,42.4],[35.1,42.4],[34.96,42.19],[34.63,42.19],[34.48,41.98],[34.15,41.98],[33.97,42.18],[33.64,42.18],[33.46,42.38],[33.13,42.38],[32.99,42.16],[32.66,42.15],[32.51,41.94],[32.18,41.93],[32.04,41.72],[31.71,41.71],[31.57,41.49],[31.24,41.48],[31.1,41.26],[30.77,41.24],[30.58,41.45],[30.26,41.43],[30.12,41.21],[29.79,41.2],[29.6,41.4],[29.27,41.38],[29.07,41.58],[28.74,41.56],[28.54,41.76],[28.68,41.98],[28.48,42.18],[28.15,42.15],[27.95,42.35],[28.08,42.57],[27.88,42.77],[28.02,42.99],[28.36,43.01],[28.49,43.23],[28.83,43.25],[28.97,43.46],[28.77,43.66],[28.91,43.88],[29.25,43.89],[29.45,43.7],[29.78,43.71],[29.98,43.51],[29.84,43.3],[30.04,43.1],[30.37,43.12],[30.57,42.92],[30.9,42.93],[31.1,42.73],[31.43,42.74],[31.62,42.54],[31.95,42.55],[32.1,42.76],[32.43,42.77],[32.62,42.57],[32.95,42.58],[33.09,42.79],[33.42,42.8],[33.57,43.01],[33.9,43.01],[34.05,43.22],[34.38,43.23],[34.53,43.43],[34.86,43.43],[35.04,43.23],[35.37,43.23],[35.53,43.44],[35.86,43.44],[36.01,43.64],[36.34,43.64],[36.51,43.43],[36.84,43.43],[37.0,43.63],[37.33,43.62],[37.48,43.83],[37.81,43.82],[37.96,44.02],[38.29,44.01],[38.45,44.21],[38.78,44.2]],[[26.06,35.7],[25.75,35.67],[25.63,35.44],[25.32,35.41],[25.12,35.61],[24.81,35.57],[24.62,35.77],[24.31,35.74],[24.11,35.94],[23.8,35.9],[23.6,36.1],[23.72,36.34],[23.52,36.53],[23.64,36.77],[23.95,36.8],[24.15,36.61],[24.47,36.64],[24.66,36.44],[24.97,36.48],[25.17,36.28],[25.05,36.04],[25.24,35.84],[25.55,35.87],[25.67,36.11],[25.99,36.14],[26.18,35.94],[26.06,35.7]],[[47.25,67.38],[47.5,67.19],[47.18,66.99],[46.6,66.98],[46.35,67.17],[45.77,67.16],[45.51,67.35],[45.82,67.55],[46.4,67.56],[46.73,67.75],[47.32,67.76],[47.57,67.57],[47.25,67.38]],[[14.5,44.26],[14.73,44.09],[14.63,43.86],[14.86,43.69],[15.19,43.75],[15.42,43.58],[15.32,43.35],[15.54,43.18],[15.44,42.95],[15.67,42.78],[16.0,42.83],[16.22,42.66],[16.12,42.43],[15.79,42.37],[15.57,42.54],[15.24,42.49],[15.14,42.25],[14.81,42.19],[14.59,42.37],[14.69,42.6],[14.46,42.77],[14.56,43.0],[14.33,43.17],[14.43,43.4],[14.2,43.57],[13.87,43.51],[13.64,43.67],[13.74,43.9],[13.51,44.07],[13.18,44.01],[12.95,44.17],[13.04,44.4],[12.81,44.56],[12.9,44.79],[12.67,44.95],[12.77,45.18],[13.1,45.25],[13.33,45.08],[13.24,44.86],[13.47,44.69],[13.8,44.76],[14.04,44.59],[13.94,44.36],[14.17,44.2],[14.5,44.26]],[[26.06,39.64],[25.93,39.41],[25.61,39.38],[25.41,39.58],[25.53,39.81],[25.86,39.84],[26.06,39.64]],[[17.44,58.1],[17.58,58.28],[17.3,58.42],[17.43,58.61],[17.85,58.65],[18.13,58.51],[18.54,58.56],[18.68,58.74],[19.1,58.78],[19.25,58.97],[18.97,59.11],[19.11,59.29],[19.53,59.33],[19.68,59.51],[20.1,59.55],[20.25,59.72],[20.68,59.76],[20.96,59.62],[21.39,59.65],[21.66,59.51],[22.09,59.54],[22.37,59.4],[22.21,59.22],[21.79,59.19],[21.64,59.01],[21.91,58.86],[21.76,58.69],[21.33,58.65],[21.19,58.47],[21.46,58.32],[21.31,58.14],[21.58,57.99],[21.43,57.81],[21.02,57.78],[20.87,57.59],[20.46,57.55],[20.19,57.7],[19.78,57.66],[19.64,57.47],[19.23,57.43],[18.95,57.58],[19.09,57.76],[19.51,57.81],[19.65,57.99],[19.37,58.13],[19.51,58.32],[19.24,58.46],[18.82,58.42],[18.68,58.23],[18.27,58.19],[18.13,58.0],[18.41,57.86],[18.27,57.68],[17.86,57.63],[17.59,57.77],[17.18,57.72],[16.9,57.86],[17.03,58.05],[17.44,58.1]],[[44.06,67.12],[43.79,67.3],[44.09,67.5],[44.66,67.52],[44.93,67.34],[44.63,67.14],[44.06,67.12]],[[24.87,38.0],[24.67,38.2],[24.79,38.43],[25.11,38.47],[25.31,38.27],[25.63,38.3],[25.83,38.1],[26.15,38.13],[26.34,37.93],[26.22,37.7],[25.9,37.67],[25.7,37.87],[25.38,37.84],[25.19,38.04],[24.87,38.0]],[[25.23,38.7],[25.04,38.89],[24.71,38.86],[24.51,39.06],[24.63,39.29],[24.96,39.32],[25.16,39.12],[25.48,39.15],[25.68,38.96],[25.56,38.73],[25.23,38.7]],[[6.74,61.88],[6.84,62.06],[7.24,62.08],[7.34,62.25],[7.73,62.27],[7.84,62.45],[8.23,62.46],[8.34,62.64],[8.73,62.65],[8.84,62.82],[9.23,62.83],[9.55,62.72],[9.99,62.79],[10.3,62.69],[10.74,62.75],[11.05,62.64],[10.93,62.47],[10.5,62.4],[10.38,62.23],[10.7,62.12],[10.58,61.94],[10.15,61.87],[10.04,61.7],[9.62,61.63],[9.5,61.45],[9.81,61.34],[9.7,61.16],[9.28,61.09],[8.98,61.2],[8.56,61.13],[8.46,60.95],[8.76,60.84],[8.66,60.65],[8.25,60.58],[8.14,60.4],[8.45,60.29],[8.34,60.1],[7.94,60.03],[7.84,59.84],[7.44,59.77],[7.17,59.93],[6.8,59.91],[6.52,60.08],[6.62,60.27],[6.99,60.29],[7.09,60.47],[6.81,60.64],[6.91,60.82],[7.29,60.84],[7.39,61.02],[7.77,61.04],[7.87,61.22],[7.6,61.38],[7.7,61.57],[7.42,61.73],[7.03,61.71],[6.93,61.53],[6.54,61.52],[6.25,61.68],[6.35,61.86],[6.74,61.88]],[[12.24,56.85],[12.52,56.72],[12.41,56.53],[12.02,56.46],[11.74,56.59],[11.85,56.79],[12.24,56.85]],[[53.06,35.73],[52.88,35.55],[52.58,35.59],[52.47,35.82],[52.66,36.0],[52.95,35.96],[53.06,35.73]],[[16.43,68.78],[16.53,68.59],[16.08,68.49],[15.54,68.58],[15.43,68.76],[15.88,68.87],[16.43,68.78]],[[24.35,39.91],[24.48,40.14],[24.8,40.17],[25.0,39.97],[24.88,39.75],[24.56,39.71],[24.35,39.91]],[[11.57,56.92],[11.18,56.85],[11.07,56.65],[10.69,56.58],[10.4,56.71],[10.51,56.91],[10.9,56.98],[11.01,57.17],[11.4,57.24],[11.68,57.11],[11.57,56.92]],[[12.24,62.66],[11.8,62.6],[11.49,62.71],[11.61,62.88],[12.05,62.94],[12.18,63.11],[12.62,63.17],[12.94,63.06],[12.81,62.89],[12.37,62.83],[12.24,62.66]],[[56.99,36.76],[57.29,36.71],[57.38,36.47],[57.18,36.29],[56.88,36.35],[56.78,36.58],[56.99,36.76]],[[43.21,66.9],[43.77,66.92],[44.04,66.73],[43.75,66.53],[43.19,66.51],[42.92,66.7],[43.21,66.9]]],[[[66.65,39.32],[66.34,39.4],[66.27,39.65],[66.52,39.81],[66.84,39.73],[67.09,39.9],[67.4,39.82],[67.65,39.98],[67.59,40.23],[67.27,40.32],[67.21,40.57],[66.89,40.65],[66.82,40.9],[66.5,40.98],[66.25,40.81],[65.93,40.89],[65.68,40.72],[65.36,40.8],[65.11,40.63],[65.18,40.38],[64.93,40.21],[65.01,39.96],[65.33,39.89],[65.4,39.64],[65.71,39.56],[65.78,39.31],[66.09,39.23],[66.16,38.98],[65.92,38.81],[65.99,38.57],[66.3,38.49],[66.54,38.65],[66.47,38.9],[66.72,39.07],[66.65,39.32]]],[[[9.33,35.75],[9.41,35.99],[9.7,36.06],[9.78,36.3],[10.07,36.37],[10.15,36.61],[10.45,36.68],[10.67,36.51],[10.96,36.58],[11.04,36.82],[11.34,36.89],[11.43,37.13],[11.21,37.3],[10.91,37.23],[10.69,37.41],[10.39,37.34],[10.18,37.51],[9.88,37.43],[9.66,37.6],[9.36,37.53],[9.14,37.7],[8.85,37.63],[8.77,37.38],[8.48,37.31],[8.4,37.07],[8.11,37.0],[7.89,37.16],[7.6,37.08],[7.38,37.25],[7.09,37.17],[6.87,37.33],[6.59,37.26],[6.37,37.42],[6.08,37.34],[6.01,37.1],[5.73,37.02],[5.66,36.78],[5.38,36.7],[5.16,36.86],[5.22,37.1],[5.01,37.25],[4.72,37.17],[4.66,36.93],[4.38,36.85],[4.16,37.01],[3.88,36.92],[3.66,37.08],[3.39,36.99],[3.17,37.15],[2.89,37.06],[2.83,36.82],[2.56,36.73],[2.34,36.89],[2.07,36.8],[1.85,36.95],[1.58,36.86],[1.36,37.01],[1.09,36.92],[1.04,36.68],[0.77,36.6],[0.56,36.74],[0.29,36.65],[0.24,36.42],[-0.02,36.33],[-0.07,36.09],[-0.33,36.0],[-0.38,35.77],[-0.16,35.61],[0.1,35.7],[0.14,35.94],[0.41,36.03],[0.46,36.27],[0.72,36.36],[0.94,36.21],[1.21,36.3],[1.42,36.15],[1.37,35.91],[1.58,35.76],[1.85,35.84],[2.07,35.69],[2.34,35.78],[2.55,35.62],[2.82,35.71],[3.04,35.55],[3.31,35.64],[3.37,35.88],[3.64,35.96],[3.86,35.81],[4.13,35.89],[4.35,35.73],[4.63,35.81],[4.84,35.65],[5.12,35.73],[5.33,35.57],[5.61,35.65],[5.83,35.49],[5.76,35.25],[5.98,35.09],[6.26,35.16],[6.47,35.0],[6.75,35.08],[6.97,34.91],[7.25,34.99],[7.32,35.23],[7.6,35.3],[7.82,35.14],[8.1,35.21],[8.32,35.04],[8.6,35.12],[8.68,35.36],[8.97,35.43],[9.04,35.67],[9.33,35.75]]],[[[70.96,42.6],[71.24,42.76],[71.56,42.66],[71.84,42.82],[71.79,43.08],[71.46,43.17],[71.19,43.01],[70.86,43.11],[70.58,42.95],[70.25,43.04],[70.2,43.3],[69.87,43.39],[69.81,43.64],[69.48,43.73],[69.2,43.57],[68.87,43.66],[68.81,43.91],[68.47,44.0],[68.41,44.25],[68.07,44.34],[67.8,44.17],[67.86,43.92],[68.2,43.83],[68.26,43.58],[68.6,43.49],[68.66,43.24],[68.99,43.15],[69.26,43.32],[69.6,43.23],[69.65,42.97],[69.98,42.88],[70.04,42.63],[69.77,42.46],[69.82,42.21],[70.15,42.12],[70.42,42.28],[70.36,42.53],[70.64,42.69],[70.96,42.6]]],[[[59.24,68.82],[58.8,68.65],[58.99,68.44],[59.61,68.41],[60.05,68.58],[60.68,68.53],[61.13,68.7],[60.95,68.91],[60.32,68.95],[59.87,68.78],[59.24,68.82]]],[[[-14.35,65.41],[-13.88,65.49],[-13.75,65.71],[-14.11,65.86],[-14.59,65.78],[-14.71,65.56],[-14.35,65.41]]],[[[14.65,36.03],[14.44,36.21],[14.13,36.15],[14.04,35.91],[14.25,35.73],[14.56,35.79],[14.65,36.03]]],[[[-16.91,32.32],[-16.65,32.19],[-16.39,32.32],[-16.39,32.58],[-16.65,32.71],[-16.65,32.96],[-16.92,33.09],[-17.18,32.96],[-17.44,33.08],[-17.7,32.95],[-17.7,32.69],[-17.43,32.57],[-17.17,32.7],[-16.91,32.58],[-16.91,32.32]]],[[[-7.43,61.64],[-7.06,61.5],[-7.1,61.3],[-6.74,61.16],[-6.33,61.22],[-6.28,61.42],[-6.65,61.56],[-6.6,61.76],[-6.19,61.82],[-6.14,62.01],[-5.72,62.07],[-5.67,62.26],[-6.04,62.4],[-5.99,62.6],[-6.37,62.74],[-6.79,62.68],[-6.84,62.49],[-7.26,62.43],[-7.3,62.23],[-7.72,62.17],[-7.76,61.97],[-7.39,61.84],[-7.43,61.64]]],[[[-16.15,28.39],[-16.39,28.51],[-16.64,28.38],[-16.89,28.51],[-17.14,28.38],[-17.14,28.12],[-16.89,28.0],[-16.64,28.13],[-16.39,28.01],[-16.15,28.14],[-16.15,28.39]]],[[[63.66,42.35],[63.91,42.53],[63.83,42.78],[63.5,42.85],[63.25,42.67],[63.33,42.43],[63.66,42.35]]],[[[49.89,69.48],[49.62,69.67],[48.98,69.67],[48.61,69.48],[47.98,69.47],[47.62,69.28],[47.9,69.1],[47.54,68.91],[47.81,68.72],[48.43,68.72],[48.69,68.53],[49.3,68.53],[49.66,68.72],[50.28,68.72],[50.65,68.91],[50.4,69.1],[50.78,69.29],[50.52,69.48],[49.89,69.48]],[[48.88,69.29],[49.51,69.29],[49.77,69.1],[49.4,68.91],[48.78,68.91],[48.52,69.1],[48.88,69.29]]],[[[-28.57,38.29],[-28.26,38.19],[-28.0,38.35],[-28.04,38.6],[-28.34,38.7],[-28.6,38.55],[-28.57,38.29]]],[[[4.06,39.61],[4.28,39.46],[4.57,39.54],[4.63,39.78],[4.41,39.93],[4.47,40.17],[4.25,40.32],[3.96,40.23],[3.73,40.38],[3.44,40.3],[3.38,40.06],[3.09,39.97],[2.87,40.12],[2.58,40.03],[2.53,39.8],[2.24,39.71],[2.19,39.47],[2.41,39.32],[2.35,39.09],[2.58,38.94],[2.86,39.03],[3.08,38.88],[3.36,38.96],[3.42,39.2],[3.71,39.29],[3.77,39.52],[4.06,39.61]]],[[[1.02,38.87],[1.24,38.73],[1.19,38.49],[1.41,38.35],[1.68,38.44],[1.74,38.67],[2.02,38.76],[2.07,39.0],[1.85,39.15],[1.91,39.38],[1.68,39.53],[1.4,39.44],[1.35,39.2],[1.07,39.11],[1.02,38.87]]],[[[-8.09,58.16],[-8.44,58.3],[-8.82,58.23],[-8.86,58.02],[-9.24,57.95],[-9.27,57.73],[-8.92,57.6],[-8.54,57.67],[-8.51,57.88],[-8.13,57.95],[-8.09,58.16]]],[[[64.48,41.71],[64.15,41.78],[63.91,41.61],[63.99,41.36],[64.31,41.28],[64.56,41.46],[64.48,41.71]]],[[[115.57,-32.34],[115.69,-32.52],[115.95,-32.55],[116.1,-32.39],[115.98,-32.21],[116.13,-32.05],[116.01,-31.87],[115.75,-31.85],[115.6,-32.0],[115.72,-32.18],[115.57,-32.34]]],[[[69.72,66.6],[69.82,66.38],[70.38,66.3],[70.85,66.44],[71.41,66.36],[71.5,66.14],[72.05,66.05],[72.52,66.19],[72.45,66.41],[71.89,66.5],[71.81,66.72],[72.29,66.86],[72.21,67.08],[71.64,67.17],[71.15,67.03],[71.24,66.81],[70.76,66.67],[70.19,66.75],[69.72,66.6]]],[[[69.23,42.14],[68.96,41.98],[69.02,41.72],[69.34,41.63],[69.61,41.8],[69.55,42.05],[69.23,42.14]]],[[[12.37,36.67],[12.46,36.91],[12.25,37.09],[11.94,37.02],[11.86,36.78],[12.07,36.61],[12.37,36.67]]],[[[-25.65,37.76],[-25.35,37.66],[-25.09,37.8],[-25.12,38.06],[-25.41,38.17],[-25.68,38.02],[-25.65,37.76]]],[[[-0.64,35.68],[-0.85,35.83],[-1.12,35.74],[-1.16,35.51],[-0.94,35.35],[-0.68,35.44],[-0.64,35.68]]],[[[10.29,36.2],[10.21,35.96],[10.42,35.79],[10.72,35.85],[10.8,36.1],[10.58,36.27],[10.29,36.2]]],[[[-6.38,59.26],[-6.43,59.06],[-6.08,58.91],[-5.69,58.97],[-5.65,59.18],[-5.99,59.32],[-6.38,59.26]]],[[[-17.89,28.74],[-17.89,28.49],[-17.63,28.37],[-17.39,28.5],[-17.39,28.75],[-17.64,28.87],[-17.65,29.13],[-17.9,29.25],[-18.15,29.12],[-18.14,28.86],[-17.89,28.74]]],[[[-16.13,32.96],[-15.87,33.09],[-15.87,33.34],[-16.13,33.47],[-16.39,33.34],[-16.39,33.09],[-16.13,32.96]]],[[[13.02,36.14],[12.72,36.08],[12.63,35.84],[12.84,35.66],[13.14,35.72],[13.23,35.96],[13.02,36.14]]],[[[56.92,68.75],[56.29,68.77],[55.88,68.6],[56.09,68.39],[56.71,68.37],[57.12,68.54],[57.75,68.51],[58.18,68.68],[57.98,68.89],[57.35,68.92],[56.92,68.75]]],[[[63.82,40.94],[63.74,41.18],[63.42,41.26],[63.17,41.08],[63.25,40.84],[63.58,40.76],[63.82,40.94]]],[[[-18.37,27.72],[-18.12,27.6],[-17.87,27.73],[-17.88,27.98],[-18.13,28.1],[-18.37,27.97],[-18.37,27.72]]]]}}]}