{"type":"FeatureCollection","features":[{"type":"Feature","properties":{},"geometry":{"type":"MultiPolygon","coordinates":[[[[45.54,36.66],[51.53,35.54],[50.61,37.35],[54.86,37.78],[55.48,37.03],[51.85,36.54],[52.11,35.45],[54.23,35.53],[54.51,36.13],[55.6,35.51],[56.38,36.22],[56.68,35.52],[60.5,34.73],[61.27,35.65],[59.46,37.59],[61.96,37.72],[63.41,35.81],[61.59,34.7],[62.76,34.42],[63.76,32.84],[66.74,32.47],[67.47,30.49],[69.93,30.84],[70.48,33.36],[72.15,34.43],[75.03,32.73],[76.79,30.45],[82.71,27.51],[85.24,27.23],[89.15,22.2],[87.5,21.62],[88.85,21.1],[91.69,21.75],[94.42,17.47],[93.83,15.72],[95.43,15.49],[96.91,16.66],[97.73,15.32],[97.4,8.51],[98.07,8.33],[98.2,7.16],[98.9,7.49],[98.56,6.1],[101.14,2.44],[98.05,5.37],[96.48,5.36],[95.43,6.34],[94.87,4.83],[97.17,2.75],[94.96,2.91],[97.32,1.85],[96.61,1.27],[98.08,0.27],[98.56,-1.88],[101.17,-4.39],[101.3,-2.94],[104.4,-6.27],[105.27,-6.08],[105.17,-7.01],[107.36,-7.94],[117.44,-9.46],[118.51,-8.9],[119.12,-10.2],[120.69,-10.56],[121.19,-9.97],[120.1,-9.03],[124.3,-8.74],[122.54,-10.62],[122.84,-11.38],[127.09,-8.7],[129.28,-8.64],[128.97,-7.84],[127.55,-7.2],[119.81,-8.26],[118.08,-7.75],[119.58,-7.03],[118.9,-6.17],[118.8,-6.86],[116.96,-7.27],[117.21,-8.25],[114.9,-8.21],[114.84,-7.2],[116.17,-7.32],[116.26,-6.64],[107.76,-6.21],[105.98,-5.29],[106.16,-3.62],[108.49,-3.41],[108.82,-2.35],[107.33,-2.61],[105.35,-1.25],[105.27,0.11],[104.64,0.28],[105.17,1.24],[104.36,1.81],[104.69,2.91],[107.18,1.95],[106.68,1.25],[107.28,0.83],[106.6,0.51],[107.39,-0.05],[107.55,1.43],[108.62,1.46],[108.7,0.35],[108.04,0.03],[109.07,-0.17],[108.46,-1.84],[109.7,-1.92],[109.78,-3.01],[111.4,-3.11],[111.91,-3.97],[114.33,-3.64],[114.81,-4.47],[115.87,-3.75],[115.31,-5.07],[116.07,-5.2],[116.71,-1.9],[118.02,-0.94],[117.76,0.07],[119.25,0.66],[118.1,4.05],[121.31,5.16],[122.87,7.19],[125.35,5.17],[126.93,6.97],[125.64,12.72],[124.59,12.97],[124.58,14.33],[123.47,14.09],[121.98,15.46],[122.91,17.42],[122.3,17.59],[122.2,21.01],[120.11,18.35],[120.28,16.69],[119.65,16.62],[120.81,11.8],[119.2,13.55],[113.96,14.32],[109.75,13.29],[109.58,15.58],[106.09,18.41],[106.01,19.79],[107.24,20.5],[107.87,20.04],[107.98,21.01],[108.93,21.36],[109.91,20.12],[108.23,19.25],[109.4,17.85],[111.65,19.85],[110.9,20.94],[112.1,21.59],[113.85,21.52],[114.6,22.21],[115.95,21.13],[119.45,20.82],[122.54,21.79],[125.84,24.65],[125.2,26.03],[125.71,28.81],[129.11,32.36],[129.72,32.02],[129.27,30.92],[130.09,30.44],[128.81,28.63],[133.47,33.24],[135.0,33.92],[135.63,33.1],[137.59,34.48],[139.78,33.63],[139.38,34.6],[141.29,35.64],[141.01,38.04],[142.3,38.79],[141.37,42.3],[143.14,41.87],[145.95,42.9],[147.68,44.85],[151.18,46.14],[150.78,46.91],[144.8,44.3],[142.69,44.87],[142.26,45.83],[144.0,46.49],[142.83,48.28],[143.8,49.08],[144.55,48.24],[145.24,48.92],[143.34,51.76],[143.94,53.31],[142.79,54.76],[142.17,53.62],[139.85,54.89],[138.46,54.59],[138.7,55.18],[137.07,55.77],[138.71,56.92],[143.65,59.33],[148.65,58.82],[150.02,59.61],[150.3,58.76],[154.9,58.86],[155.97,59.5],[154.84,59.95],[157.71,61.56],[160.82,60.49],[163.23,61.44],[157.5,58.04],[156.27,58.03],[156.45,57.42],[155.51,57.03],[155.05,54.39],[156.4,52.39],[155.85,51.85],[156.32,51.32],[155.23,51.08],[154.89,50.15],[155.8,49.93],[158.93,51.84],[158.68,52.84],[160.22,53.12],[160.49,54.39],[162.26,54.26],[162.75,55.14],[161.88,55.62],[163.54,55.85],[164.08,56.73],[163.05,57.0],[163.76,57.51],[162.65,58.4],[165.25,59.12],[163.49,59.76],[167.01,59.71],[166.74,60.52],[167.6,61.01],[165.43,60.61],[164.93,61.19],[167.14,61.61],[168.54,63.2],[167.51,63.77],[165.98,62.57],[163.3,62.95],[155.92,61.71],[156.13,61.08],[152.61,59.73],[149.27,60.36],[145.33,59.58],[142.74,60.03],[142.8,59.31],[133.42,54.43],[131.33,54.2],[129.31,55.34],[125.02,55.52],[124.21,55.01],[126.24,54.18],[120.91,54.36],[117.52,53.09],[116.59,53.7],[111.5,51.79],[111.75,52.92],[108.07,52.45],[110.69,53.84],[109.3,54.02],[110.03,54.4],[109.63,55.72],[108.71,54.17],[106.2,53.27],[108.63,55.51],[108.16,56.84],[110.14,58.05],[109.82,58.64],[105.55,57.72],[103.83,58.22],[103.54,58.99],[99.77,59.66],[92.65,58.97],[90.83,59.97],[89.94,61.83],[85.9,61.23],[80.54,62.53],[69.18,63.05],[68.9,63.75],[65.2,64.24],[60.17,63.51],[59.52,62.31],[60.32,61.81],[58.98,59.59],[58.36,59.86],[59.07,60.87],[58.27,61.36],[58.81,61.95],[57.5,63.1],[55.61,62.39],[50.63,63.0],[50.23,62.4],[46.69,62.03],[42.35,63.15],[42.1,64.13],[40.61,63.67],[41.39,62.31],[39.92,63.04],[39.25,62.4],[36.67,62.43],[34.86,63.26],[32.53,62.44],[30.38,62.77],[29.81,63.68],[28.94,62.98],[26.07,63.33],[25.58,63.84],[26.62,64.99],[25.46,65.78],[21.59,66.07],[20.52,64.27],[16.76,63.41],[17.65,62.83],[16.14,62.52],[15.18,61.3],[10.73,61.0],[7.94,58.68],[6.59,58.8],[5.17,61.8],[4.48,61.94],[4.11,61.2],[5.02,59.98],[4.46,59.58],[5.32,58.34],[7.45,57.72],[9.81,58.86],[11.16,58.06],[7.84,57.1],[7.37,55.39],[8.29,55.23],[7.92,54.41],[4.98,53.55],[2.28,51.11],[1.51,51.61],[1.98,53.11],[0.49,53.49],[-1.43,56.03],[-2.4,56.29],[-1.3,57.64],[-3.0,58.0],[-2.76,58.81],[-0.58,59.85],[-0.55,60.99],[-2.67,60.37],[-1.68,59.92],[-2.2,59.47],[-4.48,59.36],[-3.53,58.71],[-7.67,58.44],[-7.93,56.96],[-6.89,56.75],[-7.33,56.25],[-6.76,55.52],[-8.5,55.59],[-9.29,54.99],[-9.02,54.41],[-10.82,53.76],[-9.54,52.98],[-10.95,52.4],[-10.38,51.43],[-9.08,51.32],[-9.99,51.98],[-8.79,53.6],[-9.76,54.02],[-8.73,54.04],[-7.85,55.3],[-6.56,54.72],[-8.4,53.9],[-8.53,53.0],[-7.17,53.1],[-8.4,51.49],[-5.65,52.35],[-5.62,54.28],[-4.7,53.83],[-5.77,51.68],[-4.64,50.84],[-5.6,50.85],[-6.45,49.54],[-2.81,50.59],[0.93,50.68],[-0.02,49.45],[-0.91,49.49],[-0.13,49.0],[1.89,50.84],[6.91,48.79],[6.76,47.54],[4.69,46.58],[4.2,45.0],[2.73,43.72],[0.18,43.23],[-1.11,43.56],[-0.76,45.19],[-1.97,47.53],[-3.7,47.78],[-2.33,47.23],[-1.3,45.28],[-1.65,43.64],[-9.3,43.66],[-8.74,40.77],[-9.98,39.36],[-9.1,37.04],[-6.77,36.74],[-6.24,34.82],[-5.38,35.62],[-4.68,35.18],[-5.04,36.2],[-2.26,36.26],[-0.58,37.26],[0.25,38.85],[-0.09,39.63],[3.59,41.85],[3.67,43.16],[6.35,42.85],[8.77,44.1],[10.12,43.78],[8.37,42.94],[8.05,42.01],[8.97,41.37],[7.6,40.59],[8.35,40.35],[7.67,39.09],[8.56,38.44],[10.14,39.04],[9.67,41.76],[11.02,42.28],[12.74,40.71],[15.55,39.73],[14.35,38.19],[13.17,38.83],[11.98,37.92],[14.53,36.45],[15.35,36.39],[15.61,37.77],[16.45,37.7],[17.58,39.0],[16.83,39.96],[17.25,40.25],[18.11,39.52],[19.4,39.72],[20.24,38.97],[19.8,38.02],[22.58,36.42],[24.04,34.6],[27.55,35.18],[28.49,36.36],[30.29,35.83],[31.12,36.75],[32.32,35.72],[33.07,35.97],[31.79,34.82],[33.21,34.23],[35.08,35.82],[33.68,35.99],[34.88,36.46],[35.62,34.31],[34.64,33.19],[34.47,31.43],[36.15,32.8],[35.51,33.66],[36.39,36.92],[34.06,37.09],[33.96,36.44],[33.03,36.4],[34.93,37.97],[38.94,37.98],[45.54,36.66]],[[140.91,45.97],[141.71,45.84],[140.87,45.5],[141.25,43.85],[139.35,42.36],[140.08,41.99],[139.3,41.66],[140.03,41.28],[139.65,39.29],[137.9,37.13],[136.79,38.21],[135.64,35.83],[132.84,36.67],[132.5,39.92],[129.63,40.58],[130.37,42.17],[134.24,42.68],[137.71,45.27],[140.93,49.1],[141.04,51.59],[142.08,51.08],[141.48,50.64],[141.84,47.01],[140.91,45.97]],[[12.67,44.95],[14.73,44.09],[16.12,42.43],[14.81,42.19],[12.67,44.95]],[[116.01,6.28],[114.38,7.83],[116.87,8.25],[116.01,6.28]],[[32.11,45.64],[30.53,45.8],[31.52,46.23],[32.11,45.64]],[[160.53,55.21],[160.14,55.96],[160.66,56.25],[161.35,55.34],[160.53,55.21]],[[109.83,8.36],[107.35,7.49],[103.03,8.42],[100.94,7.7],[99.68,11.3],[100.27,12.79],[101.6,12.41],[102.64,11.41],[102.73,9.99],[103.64,10.16],[103.1,9.18],[104.25,9.46],[105.26,8.46],[108.6,10.91],[110.5,8.67],[109.83,8.36]],[[37.59,41.35],[35.43,42.4],[33.46,42.38],[29.79,41.2],[27.88,42.77],[29.33,44.52],[32.05,43.18],[38.78,44.2],[41.21,42.68],[41.36,41.65],[40.27,41.08],[37.59,41.35]],[[16.33,54.78],[14.94,54.22],[12.19,54.87],[14.22,55.38],[15.68,54.87],[14.84,55.83],[17.46,57.06],[18.68,56.68],[19.65,57.99],[18.82,58.42],[17.32,57.39],[17.43,58.61],[20.25,59.72],[22.37,59.4],[21.19,58.47],[21.7,57.66],[20.56,56.7],[21.07,55.86],[20.51,55.09],[16.33,54.78]],[[102.68,52.13],[102.04,51.37],[105.78,51.11],[102.52,50.16],[101.17,50.78],[100.48,49.77],[98.67,50.06],[98.63,48.94],[95.9,50.56],[97.78,50.31],[97.44,51.36],[95.87,51.69],[97.59,51.84],[97.46,52.48],[93.4,52.72],[94.5,52.98],[94.75,53.95],[93.54,54.82],[98.33,55.09],[102.68,52.13]],[[78.93,41.39],[76.91,40.91],[77.1,42.07],[81.85,42.49],[80.1,41.69],[79.48,42.18],[78.93,41.39]],[[90.04,51.38],[89.61,50.78],[91.21,50.29],[90.2,50.24],[90.06,49.24],[87.73,49.0],[88.13,49.61],[87.17,50.04],[89.13,49.68],[88.68,51.47],[89.43,51.93],[90.44,51.73],[90.04,51.38]],[[119.15,8.81],[120.21,9.04],[120.19,10.4],[121.49,10.74],[121.6,11.46],[121.64,10.35],[123.12,8.91],[119.58,6.04],[119.88,5.25],[118.75,5.91],[118.74,7.27],[118.0,6.27],[117.37,7.57],[119.15,8.81]],[[76.38,34.81],[76.59,35.45],[74.29,36.52],[72.95,36.27],[73.06,35.52],[72.32,36.71],[70.92,35.29],[70.3,35.72],[71.99,37.05],[71.9,39.21],[73.53,39.89],[75.73,38.41],[74.97,37.71],[80.05,36.01],[84.07,36.48],[89.02,38.37],[89.16,37.26],[90.15,36.73],[90.02,37.84],[90.83,37.92],[91.8,37.37],[91.66,36.41],[94.58,35.73],[98.27,35.73],[99.19,36.45],[100.08,34.46],[99.49,33.85],[99.88,32.94],[97.26,33.49],[95.66,32.47],[95.79,31.24],[94.35,31.54],[95.24,30.6],[92.78,30.25],[93.67,29.31],[92.46,29.24],[91.59,30.4],[90.55,29.29],[88.2,29.77],[86.76,29.32],[88.38,28.97],[86.71,28.63],[87.4,28.29],[86.68,27.94],[84.13,28.7],[84.4,29.75],[83.42,28.57],[83.19,29.61],[79.0,30.96],[78.96,31.68],[80.48,31.28],[79.69,32.08],[77.67,31.96],[75.93,34.03],[76.38,34.81]],[[84.84,43.25],[84.86,43.76],[86.35,43.6],[84.84,43.25]],[[25.12,35.61],[23.8,35.9],[23.64,36.77],[27.12,36.02],[25.12,35.61]],[[162.3,62.19],[163.18,62.08],[161.72,61.25],[160.62,61.76],[162.3,62.19]],[[135.18,51.23],[136.4,50.36],[134.32,49.86],[132.52,50.42],[133.47,51.4],[131.21,51.25],[132.43,52.4],[131.42,53.18],[135.29,54.26],[136.0,53.07],[135.21,52.23],[135.7,51.71],[134.76,51.52],[135.18,51.23]],[[96.27,38.95],[96.44,39.66],[96.84,39.13],[98.47,39.42],[100.11,38.0],[98.96,37.43],[95.51,37.81],[95.3,39.29],[96.27,38.95]],[[87.83,27.59],[88.34,28.29],[88.54,27.7],[87.83,27.59]],[[89.39,54.06],[88.98,53.71],[88.35,54.5],[89.39,54.06]],[[19.19,40.55],[16.58,41.43],[16.34,42.25],[18.76,42.21],[19.19,40.55]],[[89.98,48.74],[91.35,47.25],[90.1,47.34],[89.98,48.74]],[[138.96,50.31],[138.54,50.82],[139.56,50.56],[138.96,50.31]],[[21.81,64.73],[24.34,65.2],[22.77,64.33],[21.81,64.73]],[[159.51,57.11],[160.66,59.4],[162.34,60.05],[162.87,59.48],[157.72,54.72],[158.7,53.67],[156.67,53.9],[157.49,55.09],[157.02,55.83],[159.51,57.11]],[[99.52,-0.96],[100.48,-2.39],[99.25,-1.56],[99.52,-0.96]],[[106.98,56.42],[107.41,55.48],[106.06,54.3],[106.42,54.96],[104.76,55.82],[106.04,55.55],[106.98,56.42]],[[35.72,45.47],[35.32,46.27],[37.87,46.43],[37.72,45.84],[35.72,45.47]],[[124.3,9.63],[124.61,8.83],[123.96,8.79],[124.3,9.63]],[[123.51,51.27],[121.22,51.14],[122.82,52.28],[123.51,51.27]],[[90.71,28.25],[89.75,28.04],[90.05,29.07],[92.68,28.89],[90.71,28.25]],[[136.47,47.18],[137.54,47.67],[138.04,46.99],[136.47,47.18]],[[25.63,38.3],[26.22,37.7],[24.67,38.2],[25.63,38.3]],[[138.91,48.93],[139.51,48.97],[138.66,48.61],[138.9,48.04],[137.28,48.0],[137.7,48.86],[138.91,48.93]],[[98.12,47.26],[97.34,47.74],[98.15,48.38],[101.61,46.95],[98.12,47.26]],[[104.63,53.48],[105.58,54.03],[105.6,53.4],[104.63,53.48]],[[96.21,30.54],[97.32,29.44],[95.45,30.25],[96.21,30.54]],[[110.88,49.72],[109.28,49.52],[111.26,50.36],[111.77,50.21],[110.88,49.72]]],[[[165.6,10.32],[165.84,9.8],[166.46,10.27],[165.6,10.32]]],[[[-174.54,52.63],[-178.6,52.14],[-179.32,51.33],[-173.04,51.75],[-174.54,52.63]]],[[[92.25,12.74],[92.32,10.29],[94.27,12.23],[93.16,12.68],[93.98,14.56],[93.57,15.35],[92.25,12.74]]],[[[169.77,9.26],[170.22,8.77],[170.56,9.56],[169.8,9.82],[169.77,9.26]]],[[[73.52,5.19],[73.72,6.25],[72.57,6.99],[72.95,4.62],[72.39,3.83],[73.51,1.67],[73.52,5.19]]],[[[127.05,-0.72],[127.28,-2.03],[129.34,-1.51],[130.27,-2.57],[126.06,-2.94],[125.75,-3.51],[126.52,-4.15],[130.11,-3.55],[131.32,-4.28],[131.74,-5.74],[133.19,-6.38],[133.64,-5.07],[132.49,-5.25],[130.97,-3.71],[130.7,-2.64],[131.49,-1.89],[131.52,-3.04],[132.58,-3.36],[133.05,-4.59],[133.84,-3.84],[137.98,-5.82],[138.44,-7.04],[137.72,-7.29],[137.47,-8.74],[139.57,-8.22],[141.51,-9.77],[142.65,-9.57],[141.94,-9.83],[141.26,-12.28],[141.59,-15.15],[142.11,-14.76],[143.68,-15.67],[141.79,-12.95],[142.62,-10.91],[143.66,-14.63],[144.37,-14.37],[145.84,-15.72],[145.82,-14.67],[144.5,-13.69],[143.8,-13.94],[142.9,-10.59],[143.66,-10.09],[142.89,-9.49],[144.06,-7.94],[146.04,-7.86],[143.14,-6.92],[142.62,-7.34],[142.26,-5.65],[143.62,-6.74],[147.59,-7.72],[146.9,-9.1],[146.19,-8.26],[147.19,-9.87],[147.32,-9.16],[148.11,-9.51],[148.15,-8.18],[149.55,-9.83],[147.75,-10.31],[154.39,-11.72],[153.17,-10.53],[151.74,-10.47],[151.15,-9.2],[148.85,-9.01],[147.26,-7.18],[148.38,-5.86],[148.7,-6.4],[151.28,-6.29],[153.99,-4.12],[153.32,-3.27],[152.65,-3.53],[152.65,-2.41],[151.33,-2.69],[149.89,-1.18],[149.24,-1.2],[149.62,-2.66],[152.01,-3.55],[150.87,-5.12],[150.32,-4.66],[149.54,-5.41],[149.07,-4.46],[148.7,-5.28],[146.31,-5.28],[146.44,-4.55],[144.53,-2.96],[142.28,-3.1],[138.13,-1.1],[137.17,-1.46],[136.23,-0.39],[134.55,-1.0],[131.34,-0.06],[131.55,1.19],[130.88,1.18],[130.71,0.18],[129.18,0.31],[128.92,2.8],[127.28,2.17],[127.05,-0.72]],[[142.21,-8.39],[143.49,-8.59],[142.5,-9.18],[140.78,-8.91],[140.33,-7.72],[142.21,-8.39]],[[134.81,-2.08],[136.17,-2.06],[135.32,-3.07],[134.81,-2.08]],[[129.22,-0.85],[128.05,0.12],[129.34,-0.1],[129.22,-0.85]]],[[[145.51,-16.26],[146.02,-18.22],[146.59,-17.57],[145.51,-16.26]]],[[[4.38,36.85],[1.36,37.01],[-0.07,36.09],[4.38,36.85]]],[[[114.37,-25.9],[113.8,-26.03],[114.08,-25.42],[112.96,-26.08],[113.58,-26.77],[114.37,-25.9]]],[[[39.74,65.39],[42.37,66.29],[44.53,65.97],[44.9,66.95],[46.6,66.98],[45.51,67.35],[46.73,67.75],[46.86,68.52],[45.65,68.5],[45.55,67.73],[44.14,68.27],[43.81,67.69],[44.93,67.34],[41.28,66.24],[32.52,67.11],[34.4,66.14],[34.59,64.42],[35.72,63.73],[38.39,63.74],[38.3,64.52],[36.75,64.8],[39.8,64.61],[40.8,65.05],[39.74,65.39]],[[37.4,65.43],[35.1,65.44],[35.94,66.28],[39.95,65.98],[38.99,65.15],[37.4,65.43]]],[[[145.29,13.44],[145.23,14.33],[144.36,13.36],[145.29,13.44]]],[[[-157.78,22.25],[-158.58,21.22],[-156.37,20.36],[-156.06,18.56],[-154.93,18.88],[-154.76,20.19],[-157.72,21.59],[-157.78,22.25]],[[-156.05,19.67],[-155.08,19.79],[-155.3,19.15],[-156.05,19.67]]],[[[121.66,-5.42],[122.77,-6.38],[122.87,-5.67],[123.84,-6.23],[124.59,-5.52],[123.76,-5.36],[122.44,-1.52],[123.97,-2.55],[126.82,-2.2],[126.51,-1.39],[123.93,-1.42],[122.47,0.09],[124.15,0.04],[125.59,1.06],[125.73,4.85],[125.08,4.83],[125.13,2.28],[124.33,1.27],[123.43,0.93],[121.05,1.83],[119.68,0.83],[118.51,-3.21],[119.34,-4.47],[118.7,-4.7],[119.72,-6.1],[120.36,-5.88],[121.1,-7.83],[120.66,-3.76],[121.66,-5.42]],[[120.27,-0.75],[120.62,0.29],[121.43,0.15],[121.04,-1.14],[120.27,-0.75]]],[[[115.85,-21.45],[117.14,-20.64],[116.39,-20.43],[115.85,-21.45]]],[[[173.23,1.07],[173.61,2.22],[172.67,1.94],[172.85,0.71],[173.23,1.07]]],[[[131.62,-6.47],[130.56,-7.53],[130.59,-8.64],[132.36,-7.36],[131.62,-6.47]]],[[[153.8,-28.42],[153.64,-25.35],[152.67,-25.26],[153.39,-29.8],[152.9,-31.69],[149.93,-35.41],[150.01,-36.59],[153.42,-31.74],[153.8,-28.42]]],[[[-122.24,48.42],[-123.87,49.37],[-122.9,47.73],[-123.22,47.0],[-122.1,47.24],[-122.24,48.42]]],[[[-164.43,60.57],[-163.33,61.04],[-166.09,61.4],[-164.61,59.98],[-163.81,60.08],[-164.43,60.57]]],[[[161.18,-9.41],[161.55,-10.92],[162.78,-10.78],[160.64,-7.58],[160.42,-8.71],[154.43,-5.05],[155.17,-7.57],[156.65,-7.18],[156.39,-8.57],[156.86,-8.16],[157.28,-9.03],[158.26,-9.03],[158.56,-8.49],[157.12,-7.83],[158.15,-7.61],[160.05,-8.67],[159.93,-9.96],[161.18,-9.41]]],[[[1.24,38.73],[2.02,38.76],[1.91,39.38],[1.24,38.73]]],[[[10.53,36.92],[9.14,37.7],[8.11,37.0],[4.66,36.93],[5.53,36.3],[6.52,37.01],[10.53,36.92]]],[[[114.51,-29.07],[115.65,-32.87],[114.58,-33.98],[115.76,-34.63],[115.01,-33.85],[116.01,-33.42],[116.16,-31.72],[115.0,-30.27],[114.82,-28.47],[114.09,-28.39],[114.51,-29.07]]],[[[144.7,-0.81],[143.65,-1.66],[145.23,-1.54],[144.7,-0.81]]],[[[180.0,63.14],[178.5,63.94],[178.17,63.32],[178.92,62.69],[177.6,62.9],[170.51,60.6],[168.3,61.28],[167.54,60.38],[170.67,59.79],[170.8,60.41],[177.58,62.48],[179.69,62.48],[180.0,63.14]]],[[[80.32,13.91],[79.85,11.93],[80.73,13.16],[80.32,13.91]]],[[[-95.24,39.09],[-90.25,38.11],[-87.67,39.1],[-85.0,39.03],[-83.85,40.6],[-81.32,41.65],[-87.33,43.54],[-90.85,43.33],[-90.8,44.03],[-91.67,44.19],[-91.48,42.44],[-92.31,42.83],[-94.29,42.11],[-94.49,40.38],[-95.86,40.75],[-95.24,39.09]]],[[[8.32,63.83],[4.67,62.31],[10.9,63.55],[9.93,63.86],[10.29,64.37],[8.32,63.83]]],[[[152.66,6.7],[151.6,7.94],[151.28,7.37],[152.66,6.7]]],[[[40.7,66.98],[41.27,66.63],[41.52,67.6],[40.66,67.75],[40.7,66.98]]],[[[88.59,31.51],[90.03,31.48],[89.63,32.19],[86.45,32.12],[88.59,31.51]]],[[[155.25,8.04],[155.29,7.15],[155.83,7.78],[155.25,8.04]]],[[[114.57,-4.81],[114.25,-5.82],[114.84,-5.73],[114.57,-4.81]]],[[[76.5,9.05],[76.89,8.07],[77.9,7.91],[78.74,9.12],[79.78,8.96],[79.34,7.99],[80.32,5.6],[82.25,7.12],[79.84,11.69],[77.91,8.4],[77.09,8.43],[76.11,10.27],[76.5,9.05]],[[81.63,7.52],[81.38,6.42],[80.33,6.09],[79.76,8.22],[80.41,9.31],[81.63,7.52]]],[[[70.76,66.67],[69.82,66.38],[72.05,66.05],[72.93,66.55],[72.05,67.53],[70.76,66.67]]],[[[54.23,68.46],[53.55,69.05],[48.25,67.96],[54.23,68.46]]],[[[151.63,46.71],[152.55,46.73],[153.65,48.34],[151.63,46.71]]],[[[135.84,-12.85],[136.14,-13.61],[137.21,-12.6],[136.89,-10.74],[134.24,-11.85],[133.16,-10.45],[129.96,-11.07],[130.3,-12.92],[133.49,-12.32],[135.84,-12.85]]],[[[85.11,24.41],[85.29,23.34],[86.03,24.42],[85.11,24.41]]],[[[130.8,25.93],[131.17,25.44],[131.74,26.06],[130.8,25.93]]],[[[102.31,-5.91],[102.61,-5.09],[101.95,-5.17],[102.31,-5.91]]],[[[177.67,64.15],[178.54,64.36],[178.31,65.0],[175.68,64.77],[177.67,64.15]]],[[[119.49,-34.74],[119.64,-34.22],[117.4,-35.13],[119.49,-34.74]]],[[[72.96,-0.97],[73.88,0.02],[73.32,1.1],[72.96,-0.97]]],[[[172.31,52.89],[174.24,52.4],[173.27,53.16],[172.31,52.89]]],[[[157.94,6.94],[158.67,6.52],[158.42,7.32],[157.94,6.94]]],[[[86.77,20.78],[85.81,19.8],[86.72,19.79],[86.77,20.78]]],[[[92.7,9.23],[93.86,6.32],[94.02,8.63],[93.32,8.29],[93.17,9.46],[92.7,9.23]]],[[[134.31,-5.06],[133.78,-6.86],[134.56,-7.5],[135.25,-6.11],[134.31,-5.06]]],[[[120.74,54.57],[123.65,55.27],[122.5,55.78],[120.41,54.98],[120.74,54.57]]],[[[140.77,10.04],[139.4,10.02],[139.75,9.44],[140.77,10.04]]],[[[158.93,-5.59],[159.68,-5.7],[159.6,-5.09],[158.93,-5.59]]],[[[148.36,-2.45],[147.23,-1.49],[146.28,-1.85],[146.1,-2.84],[148.36,-2.45]]],[[[128.57,27.34],[126.35,26.29],[128.0,25.5],[129.14,27.95],[130.12,28.31],[129.26,28.59],[128.57,27.34]]],[[[129.63,-6.48],[129.09,-7.13],[129.74,-8.48],[130.29,-7.85],[129.55,-6.97],[130.37,-6.0],[129.63,-6.48]]],[[[-2.46,49.38],[-1.34,48.97],[-1.12,49.87],[-2.31,50.05],[-2.46,49.38]]],[[[4.28,39.46],[4.47,40.17],[3.73,40.38],[2.19,39.47],[3.08,38.88],[4.28,39.46]]],[[[15.54,68.58],[14.13,68.44],[14.9,68.0],[14.01,67.15],[16.19,68.31],[15.54,68.58]]],[[[10.41,64.53],[11.53,64.6],[13.62,67.04],[12.72,67.01],[10.41,64.53]]],[[[160.07,-11.8],[160.91,-11.64],[160.09,-11.15],[160.07,-11.8]]],[[[57.97,-19.98],[57.29,-19.96],[57.54,-20.79],[57.97,-19.98]]],[[[151.87,-8.69],[153.18,-9.46],[152.91,-8.71],[151.87,-8.69]]],[[[171.51,7.33],[170.91,7.43],[171.02,6.73],[172.33,7.26],[171.51,7.33]]],[[[167.99,54.96],[167.3,55.09],[167.29,54.49],[167.97,54.36],[167.99,54.96]]],[[[114.23,-22.11],[115.26,-21.56],[113.74,-21.68],[114.23,-22.11]]],[[[167.83,8.8],[167.54,9.68],[166.61,9.54],[167.83,8.8]]],[[[144.07,-38.12],[142.96,-39.1],[145.65,-38.62],[145.09,-37.37],[144.07,-38.12]]],[[[-159.39,22.38],[-160.98,21.41],[-159.06,21.7],[-159.39,22.38]]],[[[-6.6,61.76],[-6.04,62.4],[-7.72,62.17],[-6.74,61.16],[-6.6,61.76]]],[[[37.1,68.66],[37.61,69.07],[35.87,68.94],[37.1,68.66]]],[[[155.36,49.61],[154.11,49.75],[154.22,49.13],[153.19,48.87],[154.42,48.74],[155.36,49.61]]],[[[134.46,6.56],[135.0,8.42],[133.91,7.3],[134.46,6.56]]],[[[-93.11,45.32],[-93.71,45.57],[-94.31,44.65],[-92.84,44.25],[-93.11,45.32]]],[[[171.43,8.58],[170.62,9.2],[170.8,8.13],[171.43,8.58]]],[[[166.46,11.41],[166.7,10.87],[168.05,11.45],[166.46,11.41]]],[[[145.4,16.43],[146.24,16.02],[145.94,16.82],[145.4,16.43]]],[[[117.86,-5.0],[117.1,-4.83],[117.0,-5.52],[118.75,-5.78],[117.86,-5.0]]],[[[168.66,8.19],[167.9,8.44],[167.89,7.9],[169.09,7.17],[168.66,8.19]]],[[[121.34,-10.35],[121.89,-10.82],[122.39,-10.23],[121.34,-10.35]]],[[[47.81,68.72],[50.78,69.29],[48.98,69.67],[47.62,69.28],[47.81,68.72]]],[[[-73.57,40.69],[-72.94,40.79],[-73.27,41.35],[-74.0,41.03],[-73.57,40.69]]],[[[153.25,5.31],[153.94,5.55],[153.21,6.21],[153.25,5.31]]],[[[55.73,-21.54],[55.73,-20.64],[55.11,-21.27],[55.73,-21.54]]],[[[96.87,-11.7],[96.6,-12.46],[97.24,-12.39],[96.87,-11.7]]],[[[143.42,56.38],[143.78,56.73],[143.01,56.72],[143.42,56.38]]],[[[177.25,52.31],[177.36,51.5],[179.69,51.53],[177.25,52.31]]],[[[83.69,30.32],[83.2,30.31],[83.68,29.62],[83.69,30.32]]],[[[112.53,-5.4],[112.26,-5.96],[113.05,-6.0],[112.53,-5.4]]],[[[126.78,4.56],[126.81,3.4],[127.47,4.84],[126.78,4.56]]]]}}]}