{"type":"FeatureCollection","features":[{"type":"Feature","properties":{},"geometry":{"type":"MultiPolygon","coordinates":[[[[30.29,35.83],[31.12,36.75],[32.1,36.36],[32.32,35.72],[33.07,35.97],[33.11,35.54],[31.79,34.82],[33.21,34.23],[35.08,35.82],[34.6,36.02],[33.72,35.56],[33.68,35.99],[34.88,36.46],[35.52,36.04],[35.62,34.31],[34.64,33.19],[34.83,32.54],[34.41,32.31],[34.3,31.65],[32.71,31.35],[31.61,31.94],[30.42,31.86],[29.58,31.35],[29.63,30.91],[30.47,31.42],[31.4,31.04],[32.12,31.31],[32.58,31.12],[32.78,30.47],[33.94,30.53],[35.28,29.93],[35.49,28.84],[36.3,29.75],[36.75,29.11],[37.99,29.8],[39.95,29.82],[40.51,29.4],[42.01,29.61],[43.75,28.95],[45.21,29.12],[45.72,28.69],[48.27,28.58],[48.35,27.96],[49.66,27.28],[50.04,26.03],[50.8,26.4],[50.01,27.05],[50.08,27.87],[49.45,27.7],[48.74,28.15],[48.3,29.0],[49.26,29.97],[50.91,28.58],[50.96,27.99],[51.67,27.47],[52.34,27.54],[53.83,26.28],[55.51,26.7],[53.56,26.91],[52.05,28.18],[51.37,28.11],[50.34,30.24],[49.29,30.38],[48.76,30.01],[48.13,30.25],[48.05,30.88],[48.59,31.26],[47.37,32.58],[47.93,32.96],[49.79,32.32],[49.8,31.32],[51.56,30.23],[51.61,29.63],[52.23,29.32],[52.63,28.46],[54.1,28.37],[54.34,28.92],[55.32,28.32],[56.37,28.7],[56.89,27.98],[57.71,29.01],[57.96,28.35],[58.85,28.55],[58.16,29.12],[58.18,29.73],[57.55,30.07],[56.93,31.66],[57.97,32.28],[59.15,31.17],[59.9,31.21],[59.67,30.42],[60.1,29.9],[59.79,29.35],[60.1,28.45],[61.38,27.52],[62.49,27.85],[61.14,29.02],[61.18,29.64],[60.49,30.23],[60.8,30.79],[60.37,31.31],[61.05,31.58],[61.3,32.37],[63.27,31.88],[63.2,31.25],[64.45,31.35],[64.37,30.72],[66.13,29.8],[65.44,27.66],[64.78,27.43],[65.1,27.13],[66.69,27.5],[67.79,30.18],[69.5,29.21],[70.38,29.8],[70.52,30.42],[70.2,30.75],[70.61,31.29],[70.25,31.85],[71.36,32.85],[71.96,32.42],[74.24,32.78],[75.43,31.42],[76.2,31.37],[76.79,30.45],[77.54,30.39],[77.83,29.81],[80.32,28.79],[81.03,28.94],[81.52,28.27],[83.17,27.53],[84.34,27.68],[85.92,26.89],[87.09,27.01],[87.53,26.54],[88.5,27.01],[89.41,26.52],[90.39,26.97],[90.83,26.49],[91.81,26.93],[92.99,26.77],[92.71,26.19],[91.76,26.23],[90.29,25.56],[91.21,25.05],[93.1,24.98],[93.29,24.37],[92.57,24.28],[92.29,23.68],[92.94,22.8],[92.66,22.2],[93.92,20.15],[94.03,21.63],[94.55,22.34],[93.93,23.48],[95.24,24.99],[95.45,24.61],[94.38,23.21],[94.86,23.19],[95.14,23.78],[96.13,24.2],[96.82,24.04],[97.01,23.41],[96.02,22.99],[96.43,22.22],[96.23,19.75],[97.04,18.18],[97.72,18.0],[98.1,16.95],[98.78,16.77],[98.62,14.99],[99.34,15.32],[99.43,16.33],[98.82,17.27],[99.37,18.24],[100.56,18.51],[100.27,17.91],[100.86,16.71],[101.72,16.12],[101.87,17.63],[101.22,18.07],[101.92,18.13],[102.45,18.83],[102.86,18.28],[103.82,18.68],[106.58,16.72],[106.47,15.73],[105.94,15.03],[106.6,14.82],[107.09,15.27],[107.01,14.52],[107.66,14.32],[108.01,13.51],[108.79,14.55],[108.44,15.35],[107.8,15.56],[108.09,16.15],[107.0,16.42],[106.84,17.07],[106.19,17.27],[105.85,18.32],[105.18,18.52],[105.11,19.91],[105.64,20.58],[105.08,21.76],[106.69,21.68],[107.08,21.13],[108.04,21.49],[108.84,22.47],[109.67,21.86],[110.62,22.19],[111.43,21.58],[112.63,22.22],[112.99,21.67],[113.48,22.06],[114.11,21.83],[114.63,22.45],[116.37,22.57],[116.92,23.39],[117.55,23.37],[119.51,25.21],[120.14,25.26],[120.02,25.81],[121.03,26.85],[120.91,27.39],[121.98,28.63],[122.64,28.72],[122.36,29.56],[123.17,30.47],[122.07,31.5],[122.37,31.99],[121.01,32.68],[121.31,33.17],[121.0,33.8],[119.54,35.2],[119.84,35.61],[121.15,35.65],[121.04,36.17],[121.67,36.08],[121.55,36.6],[122.41,36.55],[122.92,36.91],[123.07,37.63],[121.37,37.79],[121.03,38.27],[121.33,38.65],[122.86,39.06],[123.3,38.69],[123.86,39.79],[124.69,39.45],[124.96,38.95],[124.63,37.73],[125.9,37.75],[126.13,37.44],[125.56,36.91],[125.93,36.54],[125.6,36.08],[125.97,35.7],[125.81,34.95],[125.13,34.87],[124.97,34.11],[126.06,33.98],[125.9,33.21],[126.99,33.07],[127.27,33.35],[126.95,33.95],[127.84,33.92],[128.87,34.45],[129.61,33.63],[128.91,33.57],[128.29,32.81],[128.66,32.39],[129.69,32.93],[130.01,32.3],[129.68,31.82],[130.34,31.67],[130.67,31.03],[131.79,31.97],[131.96,32.77],[133.13,32.77],[135.0,33.92],[135.85,33.43],[137.15,34.5],[138.25,34.32],[138.71,34.76],[139.14,34.26],[139.41,35.06],[140.07,34.66],[140.59,35.57],[141.29,35.64],[140.9,36.62],[141.43,37.3],[141.01,38.04],[141.74,38.11],[142.3,38.79],[142.11,39.41],[142.4,39.75],[141.51,40.99],[141.82,41.57],[141.37,42.3],[142.16,42.39],[143.14,41.87],[144.59,42.87],[145.95,42.9],[146.31,43.49],[147.16,43.55],[146.99,44.17],[147.68,44.85],[150.8,45.8],[150.66,46.43],[151.04,46.76],[150.46,46.82],[149.64,45.91],[147.82,45.57],[147.42,44.99],[146.22,44.58],[145.42,44.75],[144.8,44.3],[143.71,44.36],[142.69,44.87],[142.26,45.83],[142.86,46.28],[143.64,45.91],[144.0,46.49],[142.83,48.28],[143.8,49.08],[144.55,48.24],[145.24,48.92],[143.72,50.79],[144.02,51.34],[143.34,51.76],[143.98,52.43],[143.61,52.98],[143.94,53.31],[143.22,53.75],[143.54,54.32],[142.43,54.64],[142.11,54.29],[142.51,53.74],[141.47,53.6],[139.85,54.89],[138.46,54.59],[138.7,55.18],[137.07,55.77],[138.15,55.95],[138.71,56.92],[139.85,57.09],[140.14,57.69],[141.32,57.85],[142.42,58.95],[141.96,59.29],[141.22,58.56],[140.02,58.39],[139.39,57.42],[138.24,57.24],[137.7,56.27],[136.6,56.09],[136.39,55.49],[135.08,54.93],[133.97,54.94],[133.42,54.43],[131.33,54.2],[129.31,55.34],[125.98,55.2],[125.02,55.52],[124.06,55.23],[125.17,54.71],[125.04,54.33],[124.09,54.63],[121.87,54.08],[120.91,54.36],[118.38,53.78],[118.12,53.24],[116.59,53.7],[114.81,53.21],[114.61,52.67],[114.04,52.87],[114.03,53.24],[113.06,53.45],[111.19,52.74],[109.79,52.64],[109.61,53.44],[110.52,53.66],[110.65,54.22],[111.22,54.4],[109.8,54.59],[109.69,55.34],[110.46,55.73],[110.22,55.91],[109.22,55.71],[109.28,55.33],[108.7,55.14],[108.24,56.46],[109.57,57.45],[109.5,57.84],[111.28,57.86],[111.44,58.45],[112.11,58.65],[111.87,58.85],[110.02,58.84],[108.29,59.4],[106.44,59.34],[106.54,58.94],[105.92,58.72],[104.89,59.07],[104.76,59.46],[105.56,59.9],[103.23,60.37],[102.75,60.95],[101.65,60.66],[99.69,61.1],[98.63,60.8],[96.4,61.57],[95.41,61.21],[93.75,61.39],[93.43,61.78],[94.82,61.99],[90.61,62.85],[90.29,63.46],[88.94,63.66],[86.84,65.51],[84.83,65.13],[80.81,66.35],[79.27,66.24],[76.52,67.0],[74.4,66.95],[74.78,67.52],[74.21,67.61],[73.35,66.91],[72.29,66.86],[73.56,67.93],[72.9,68.24],[71.55,67.39],[70.29,67.77],[68.13,67.64],[65.93,66.66],[63.31,66.52],[63.17,66.74],[63.6,66.9],[64.63,67.0],[63.76,67.49],[61.68,67.27],[59.29,67.44],[58.32,67.89],[56.29,67.61],[55.48,67.84],[56.09,68.39],[58.18,68.68],[58.8,68.65],[58.75,68.07],[60.41,68.16],[61.41,69.07],[60.59,69.32],[59.87,68.78],[58.42,69.06],[54.85,68.44],[54.01,68.66],[54.41,68.84],[54.18,69.04],[53.55,69.05],[48.25,67.96],[46.79,68.14],[46.59,68.7],[45.7,68.88],[43.28,68.81],[42.97,68.61],[43.86,68.45],[44.11,67.89],[42.37,67.06],[41.24,67.39],[41.51,67.98],[41.21,68.15],[38.88,68.4],[38.51,68.94],[37.02,69.03],[36.48,69.55],[35.2,69.26],[31.23,70.58],[28.88,70.31],[29.35,69.79],[26.6,69.23],[27.1,68.72],[29.5,68.47],[29.5,67.9],[27.48,67.63],[25.45,67.9],[22.16,67.34],[21.61,67.05],[21.78,66.49],[17.63,65.62],[16.71,64.8],[15.64,64.73],[14.82,63.91],[13.33,63.57],[13.39,63.12],[10.5,62.4],[10.58,61.94],[8.04,60.87],[8.34,60.1],[6.52,60.08],[7.47,60.49],[7.39,61.02],[7.87,61.22],[7.42,61.73],[6.54,61.52],[6.35,61.86],[7.24,62.08],[7.16,62.6],[11.3,62.99],[11.22,63.44],[12.24,63.73],[12.05,64.01],[12.53,64.48],[11.88,65.11],[10.61,65.14],[10.28,65.03],[10.87,64.6],[7.29,63.47],[7.37,62.95],[5.76,62.89],[5.86,62.37],[4.48,61.94],[4.69,61.59],[4.11,61.2],[5.02,59.98],[4.46,59.58],[5.05,58.51],[7.45,57.72],[9.5,58.29],[9.41,58.79],[10.51,58.81],[11.16,58.06],[7.84,57.1],[8.02,56.79],[7.46,56.31],[7.93,55.87],[7.37,55.39],[8.29,55.23],[7.83,54.95],[7.92,54.41],[7.02,53.84],[4.98,53.55],[4.15,53.01],[4.25,52.42],[2.28,51.11],[1.51,51.61],[2.17,52.73],[1.98,53.11],[0.49,53.49],[0.13,54.45],[-0.79,54.72],[-1.43,56.03],[-2.4,56.29],[-1.55,56.81],[-1.74,57.38],[-1.3,57.64],[-3.0,58.0],[-2.5,58.46],[-2.76,58.81],[-0.58,59.85],[-0.76,60.4],[-0.3,60.64],[-1.35,60.9],[-2.21,60.61],[-1.75,59.72],[-3.31,59.52],[-3.75,59.26],[-3.53,58.71],[-4.97,58.89],[-7.67,58.44],[-7.36,58.09],[-7.78,57.81],[-7.48,57.46],[-7.93,56.96],[-6.76,55.52],[-8.5,55.59],[-9.29,54.99],[-9.02,54.41],[-10.75,54.44],[-10.44,54.08],[-10.84,53.54],[-10.21,53.03],[-10.97,52.17],[-10.38,51.43],[-8.77,51.18],[-8.03,51.81],[-6.03,52.05],[-5.48,53.25],[-6.01,53.99],[-5.26,54.35],[-4.7,53.83],[-5.09,53.54],[-5.01,52.28],[-5.77,51.68],[-4.85,51.45],[-4.64,50.84],[-5.6,50.85],[-6.74,49.69],[-3.56,50.0],[-2.81,50.59],[-1.34,50.25],[-0.63,50.6],[1.18,50.52],[0.74,50.02],[-0.16,50.06],[-0.02,49.45],[-0.91,49.49],[-1.98,50.12],[-3.47,48.93],[-5.35,48.7],[-4.91,47.7],[-3.74,47.55],[-1.91,46.45],[-1.3,45.28],[-1.65,44.97],[-1.65,43.64],[-3.82,43.95],[-4.46,43.54],[-8.1,44.05],[-9.63,43.32],[-8.88,42.14],[-9.22,41.55],[-8.72,41.01],[-9.34,40.31],[-9.13,39.67],[-9.96,39.61],[-9.01,38.04],[-9.33,37.43],[-8.85,36.9],[-7.02,36.88],[-6.15,35.56],[-7.35,33.91],[-8.9,33.51],[-9.47,32.79],[-9.25,32.41],[-7.93,33.2],[-7.48,32.67],[-6.5,32.6],[-7.1,31.65],[-8.12,31.22],[-9.34,31.41],[-9.04,32.02],[-9.53,32.04],[-10.1,31.07],[-8.68,30.5],[-9.5,29.42],[-9.29,29.04],[-7.26,30.17],[-6.31,30.11],[-6.0,30.71],[-5.28,30.78],[-4.68,31.71],[-3.73,31.63],[-2.9,32.4],[-2.05,31.82],[2.01,33.22],[2.38,33.79],[3.93,34.04],[4.65,34.93],[5.76,35.25],[6.13,34.68],[6.75,35.08],[8.46,34.63],[9.97,35.23],[10.69,34.95],[10.32,34.64],[10.45,34.22],[11.62,34.49],[11.1,36.17],[11.56,36.72],[11.43,37.13],[9.14,37.7],[8.11,37.0],[6.37,37.42],[5.73,37.02],[4.0,37.4],[2.56,36.73],[1.36,37.01],[0.29,36.65],[-0.07,36.09],[-1.6,35.81],[-2.2,35.15],[-3.09,35.75],[-3.66,35.32],[-4.65,35.42],[-5.08,35.96],[-3.97,36.59],[-2.26,36.26],[-1.33,37.25],[-0.58,37.26],[-0.21,37.82],[-0.38,38.21],[0.25,38.85],[-0.09,39.63],[1.23,40.9],[2.02,40.94],[2.42,41.49],[3.59,41.85],[3.25,42.6],[3.67,43.16],[6.35,42.85],[8.77,44.1],[10.12,43.78],[9.23,42.94],[8.37,42.94],[8.52,42.55],[8.05,42.01],[8.97,41.37],[8.05,41.14],[7.6,40.59],[8.35,40.35],[7.67,39.09],[8.56,38.44],[9.31,39.06],[10.14,39.04],[9.86,39.85],[10.33,40.4],[9.67,41.76],[11.02,42.28],[12.47,41.52],[12.74,40.71],[14.67,40.44],[14.8,40.03],[15.55,39.73],[15.57,39.08],[14.32,38.84],[14.35,38.19],[13.52,38.24],[13.17,38.83],[11.98,37.92],[12.33,37.33],[14.19,37.05],[14.53,36.45],[15.35,36.39],[15.61,37.77],[16.45,37.7],[16.96,38.23],[16.85,38.65],[17.58,39.0],[17.58,39.65],[16.83,39.96],[17.25,40.25],[17.79,40.12],[18.11,39.52],[19.4,39.72],[19.5,39.3],[20.24,38.97],[20.34,38.54],[19.8,38.02],[20.53,37.69],[21.24,36.68],[22.07,36.57],[22.35,35.95],[23.18,35.83],[23.53,34.76],[24.77,34.9],[25.77,34.57],[26.75,35.33],[27.55,35.18],[27.62,35.85],[28.42,35.69],[28.49,36.36],[30.29,35.83]],[[30.77,41.24],[28.74,41.56],[28.48,42.18],[27.95,42.35],[28.42,42.59],[31.05,41.68],[31.24,41.48],[30.77,41.24]],[[23.26,65.4],[24.02,65.34],[24.23,64.99],[21.7,63.53],[21.0,63.58],[22.05,64.39],[21.57,65.08],[23.26,65.4]],[[91.35,43.47],[90.19,43.55],[91.12,43.87],[91.5,44.47],[90.99,45.01],[89.8,45.09],[89.58,45.73],[89.93,46.09],[89.12,47.02],[89.48,47.38],[90.03,46.84],[90.4,47.19],[88.33,48.46],[89.03,48.93],[89.61,48.38],[90.32,48.84],[92.14,48.19],[93.64,49.31],[94.78,48.68],[94.39,48.35],[94.61,47.95],[95.82,47.81],[96.22,48.14],[96.01,48.54],[97.81,48.3],[98.55,48.7],[100.32,48.42],[100.89,47.45],[101.78,47.42],[102.6,48.02],[105.87,47.36],[106.19,46.79],[107.23,46.55],[107.94,46.88],[108.23,46.31],[109.22,46.06],[108.71,45.57],[109.54,44.5],[108.65,43.75],[109.3,43.46],[110.36,44.04],[111.06,43.37],[110.56,42.89],[111.24,42.23],[110.75,41.76],[110.98,41.22],[110.07,40.85],[110.49,39.2],[109.69,38.46],[108.65,38.23],[108.8,37.49],[108.37,37.0],[106.92,36.84],[106.24,36.28],[105.2,36.59],[103.83,36.01],[103.2,36.23],[103.31,37.27],[102.37,36.59],[101.79,37.04],[101.25,36.05],[99.86,36.24],[100.0,35.87],[102.54,35.63],[103.33,35.06],[102.53,34.62],[103.73,34.38],[102.94,33.94],[103.65,33.75],[104.04,33.05],[102.54,30.68],[102.06,30.73],[102.37,31.26],[102.17,31.62],[101.69,31.67],[101.89,31.31],[101.58,30.78],[102.21,29.92],[102.11,29.02],[101.58,28.61],[100.91,29.03],[100.08,28.06],[99.24,29.29],[98.99,29.2],[99.17,28.61],[98.49,29.01],[98.24,28.92],[98.42,28.32],[97.69,28.26],[96.08,29.18],[95.68,30.12],[94.97,30.27],[94.72,30.17],[94.91,29.59],[94.17,29.51],[93.62,28.62],[92.89,28.53],[93.08,27.94],[92.09,27.51],[91.65,27.99],[90.67,27.55],[89.75,28.04],[89.24,27.58],[87.83,27.59],[87.39,28.06],[86.89,27.59],[84.61,28.71],[83.42,28.57],[82.95,29.25],[82.23,29.34],[81.98,29.92],[79.78,30.17],[79.25,30.85],[78.5,30.93],[77.65,32.2],[76.88,32.27],[74.76,34.93],[73.42,34.93],[73.63,35.33],[74.7,35.42],[74.89,36.07],[73.74,36.47],[73.06,35.52],[72.24,35.56],[71.57,36.25],[70.92,35.29],[69.76,35.65],[71.24,36.59],[71.86,37.8],[71.12,38.74],[71.59,39.31],[72.73,39.43],[72.34,40.03],[72.6,40.18],[73.26,39.73],[73.49,40.14],[74.07,40.19],[73.87,39.53],[74.74,39.48],[76.7,37.08],[77.8,37.15],[80.05,36.01],[81.66,36.07],[82.19,36.58],[83.53,36.48],[84.9,37.35],[85.97,37.34],[86.56,38.07],[87.36,37.93],[89.64,39.09],[90.96,38.89],[91.57,39.35],[92.88,39.13],[93.49,39.58],[94.54,39.49],[94.4,40.11],[94.74,40.45],[93.96,40.65],[93.56,41.43],[93.95,42.01],[93.53,42.8],[92.5,43.38],[91.35,43.47]],[[140.44,43.51],[139.35,42.36],[140.08,41.99],[139.3,41.66],[140.03,41.28],[139.76,40.94],[139.96,40.34],[139.45,39.89],[139.65,39.29],[139.13,38.6],[138.42,38.51],[137.93,37.83],[138.14,37.24],[137.68,37.26],[137.02,38.32],[136.32,37.53],[136.54,36.95],[135.86,35.93],[134.56,35.97],[134.14,35.53],[132.67,35.66],[131.86,35.22],[131.69,34.67],[129.9,33.91],[129.41,34.81],[129.82,35.65],[129.7,37.18],[127.83,39.7],[128.65,39.75],[129.45,40.24],[129.61,40.8],[130.25,40.94],[129.99,41.48],[130.37,42.17],[131.26,42.22],[131.69,42.69],[132.6,42.73],[133.08,42.3],[133.53,42.77],[134.24,42.68],[135.19,43.16],[135.68,44.08],[136.42,44.21],[136.94,45.14],[137.71,45.27],[140.93,49.1],[140.65,49.65],[141.22,50.09],[140.75,51.26],[141.35,51.71],[142.06,51.3],[141.48,50.64],[141.85,49.67],[141.42,48.41],[141.94,47.94],[141.62,47.59],[141.84,47.01],[140.91,45.97],[141.69,45.6],[140.87,45.5],[141.34,44.79],[141.04,44.44],[141.25,43.85],[140.44,43.51]],[[18.54,57.01],[19.65,57.99],[19.51,58.32],[18.27,58.19],[18.27,57.68],[17.32,57.39],[16.9,57.86],[17.58,58.28],[17.43,58.61],[18.54,58.56],[19.25,58.97],[19.11,59.29],[20.25,59.72],[22.37,59.4],[21.19,58.47],[21.7,57.66],[20.56,56.7],[21.07,55.86],[19.33,54.97],[17.63,55.13],[14.94,54.22],[13.87,54.78],[12.08,54.67],[12.68,55.14],[14.22,55.38],[14.64,54.9],[15.68,54.87],[15.65,55.41],[14.84,55.83],[15.9,55.8],[16.94,56.3],[16.93,56.82],[17.46,57.06],[18.28,56.63],[18.81,56.87],[18.54,57.01]],[[64.48,50.52],[66.48,49.89],[66.05,49.05],[66.58,48.47],[65.64,48.2],[66.6,47.29],[66.96,47.21],[67.46,47.8],[68.47,47.79],[68.99,48.38],[70.02,48.36],[69.84,47.69],[70.61,47.25],[70.43,46.58],[72.74,44.72],[72.5,44.31],[70.93,44.29],[70.7,43.87],[69.81,43.64],[68.47,44.0],[68.01,44.59],[67.39,44.51],[67.26,43.84],[68.6,43.49],[69.38,42.81],[68.37,41.9],[67.07,42.24],[65.9,42.07],[64.68,43.05],[62.92,42.75],[62.67,42.57],[63.09,42.25],[62.92,41.83],[61.61,42.1],[61.09,42.66],[59.62,42.49],[58.21,43.64],[57.3,43.56],[56.28,44.39],[55.38,44.29],[54.8,44.82],[53.89,44.71],[53.3,45.22],[54.1,48.0],[57.78,48.88],[58.49,48.11],[60.49,49.84],[64.48,50.52]],[[133.97,50.9],[133.34,50.84],[133.68,51.75],[132.43,52.4],[132.55,52.97],[132.09,53.26],[134.2,54.27],[135.29,54.26],[135.74,53.95],[135.25,53.23],[135.75,52.71],[134.83,51.31],[133.97,50.9]],[[98.96,49.01],[98.37,49.1],[98.44,49.34],[98.78,49.41],[98.96,49.01]],[[78.27,42.38],[81.85,42.49],[82.45,43.0],[83.34,42.88],[82.15,42.11],[81.26,42.22],[80.69,41.7],[79.21,41.78],[76.96,40.4],[75.5,40.43],[74.98,39.88],[74.3,40.59],[75.47,40.68],[75.99,41.23],[76.58,41.27],[76.22,41.89],[76.5,42.03],[78.0,41.99],[78.27,42.38]],[[134.8,50.33],[133.91,50.14],[133.49,50.42],[134.61,50.96],[135.37,50.6],[134.8,50.33]],[[119.36,39.42],[121.26,40.69],[122.08,40.59],[121.23,40.0],[120.88,38.59],[120.39,38.35],[120.51,37.85],[119.86,37.93],[119.71,37.21],[119.29,37.32],[119.6,37.72],[119.25,38.19],[117.96,38.52],[119.36,39.07],[119.36,39.42]],[[24.63,39.29],[25.68,38.96],[24.71,38.86],[24.63,39.29]],[[33.97,67.64],[33.41,68.53],[34.97,69.05],[35.4,68.52],[37.67,68.7],[38.05,68.16],[39.8,67.89],[37.31,67.54],[35.17,68.31],[33.97,67.64]],[[30.34,69.33],[31.4,69.26],[30.79,69.0],[30.34,69.33]],[[108.61,54.57],[108.01,54.72],[108.54,54.94],[108.61,54.57]],[[83.66,44.02],[86.06,43.73],[87.21,43.19],[87.45,42.55],[85.7,42.6],[85.09,42.11],[84.52,42.62],[84.84,43.25],[84.56,43.63],[83.66,44.02]],[[18.86,40.51],[17.78,40.77],[17.45,41.36],[16.58,41.43],[16.34,42.25],[17.11,42.59],[18.76,42.21],[19.3,40.79],[18.86,40.51]],[[15.24,42.49],[14.81,42.19],[14.33,43.17],[15.19,43.75],[15.44,42.95],[16.22,42.66],[15.24,42.49]],[[25.67,36.11],[26.18,35.94],[25.32,35.41],[23.8,35.9],[23.52,36.53],[23.95,36.8],[24.97,36.48],[25.24,35.84],[25.67,36.11]],[[100.74,53.1],[101.37,52.99],[101.45,52.35],[102.33,52.07],[101.18,51.65],[102.65,51.26],[103.44,51.6],[103.69,51.43],[103.15,50.91],[100.38,51.29],[100.47,50.65],[98.05,50.15],[98.25,49.74],[97.83,49.43],[97.36,49.99],[96.11,50.16],[96.53,50.48],[97.78,50.31],[98.51,51.58],[98.03,52.15],[98.55,52.7],[98.34,53.1],[96.05,53.54],[95.89,54.18],[96.34,54.5],[97.62,54.08],[98.13,53.51],[99.45,53.31],[100.27,53.67],[100.74,53.1]],[[76.44,45.51],[75.5,45.32],[74.98,44.51],[73.65,44.93],[73.87,45.6],[73.1,46.31],[74.05,46.52],[74.31,46.93],[75.61,47.01],[76.69,46.17],[76.44,45.51]],[[38.2,65.29],[35.1,65.44],[36.02,65.9],[35.72,66.07],[35.94,66.28],[36.46,66.32],[38.38,65.88],[39.67,66.16],[39.95,65.98],[39.18,65.74],[38.99,65.15],[38.2,65.29]],[[79.94,45.26],[80.26,45.14],[79.96,44.75],[79.63,45.13],[79.94,45.26]],[[130.56,53.53],[129.28,53.94],[130.25,54.18],[131.91,53.69],[130.56,53.53]],[[109.01,52.97],[109.1,52.57],[108.54,52.71],[109.01,52.97]],[[111.2,49.75],[110.69,49.9],[111.13,50.15],[111.2,49.75]],[[25.11,38.47],[26.15,38.13],[26.22,37.7],[24.87,38.0],[24.79,38.43],[25.11,38.47]],[[40.27,41.91],[40.74,42.09],[41.36,41.65],[40.27,41.08],[38.07,41.14],[36.43,41.99],[35.46,41.99],[36.41,42.4],[37.08,41.98],[40.27,41.91]],[[17.81,61.59],[17.8,62.07],[20.3,63.63],[20.62,63.5],[20.09,62.99],[21.3,61.46],[19.27,60.45],[17.38,61.07],[18.1,61.46],[17.81,61.59]],[[23.36,57.79],[23.93,58.0],[24.29,57.51],[23.72,57.3],[23.36,57.79]],[[77.34,42.72],[77.0,43.09],[77.29,43.24],[77.61,43.12],[77.34,42.72]],[[59.61,65.0],[59.45,65.22],[59.84,65.39],[60.8,65.52],[61.51,65.25],[60.56,65.13],[59.93,64.56],[59.23,64.82],[59.61,65.0]],[[32.79,67.9],[31.06,68.09],[32.66,68.26],[32.99,68.11],[32.79,67.9]],[[47.18,66.99],[45.51,67.35],[47.32,67.76],[47.57,67.57],[47.18,66.99]],[[41.27,66.63],[41.55,66.45],[41.28,66.24],[40.46,66.4],[41.27,66.63]],[[83.93,42.62],[84.22,42.49],[83.92,42.12],[83.63,42.5],[83.93,42.62]],[[88.47,49.72],[89.13,49.68],[89.93,50.63],[90.59,50.59],[89.41,49.28],[87.73,49.0],[88.47,49.72]],[[11.07,56.65],[10.51,56.91],[11.68,57.11],[11.07,56.65]],[[107.76,54.28],[108.35,54.13],[107.87,53.88],[107.76,54.28]],[[91.47,49.89],[91.73,49.49],[91.08,49.54],[91.47,49.89]],[[43.19,66.51],[42.92,66.7],[43.21,66.9],[44.04,66.73],[43.19,66.51]],[[62.04,66.03],[62.75,65.76],[61.77,65.64],[61.62,65.86],[62.04,66.03]],[[-3.45,53.44],[-4.09,53.52],[-4.3,54.11],[-3.65,54.03],[-3.45,53.44]],[[25.86,39.84],[26.06,39.64],[25.61,39.38],[25.53,39.81],[25.86,39.84]],[[110.32,49.25],[109.81,49.39],[109.84,50.0],[110.37,49.86],[110.32,49.25]]],[[[-25.98,38.13],[-26.21,37.72],[-25.24,36.63],[-24.69,36.67],[-25.12,38.06],[-25.98,38.13]]],[[[152.76,58.64],[155.89,59.27],[155.6,59.65],[154.76,59.72],[157.01,61.0],[156.42,61.8],[155.92,61.71],[156.13,61.08],[154.45,60.1],[152.61,59.73],[147.06,60.05],[146.18,59.57],[142.78,59.55],[143.23,59.2],[145.33,59.34],[146.16,58.86],[147.86,59.31],[148.65,58.82],[150.02,59.61],[150.73,58.87],[152.76,58.64]]],[[[180.0,63.14],[179.26,63.31],[178.92,62.69],[177.6,62.9],[174.18,61.8],[174.96,61.62],[177.58,62.48],[178.88,62.28],[179.98,62.68],[179.75,62.89],[180.0,63.14]]],[[[155.14,50.85],[155.42,50.7],[154.89,50.15],[156.16,50.01],[158.93,51.84],[158.68,52.84],[160.22,53.12],[160.05,53.5],[160.67,54.01],[160.49,54.39],[162.26,54.26],[162.22,54.86],[162.75,55.14],[161.76,55.4],[161.88,55.62],[163.54,55.85],[163.51,56.45],[164.08,56.73],[163.05,57.0],[163.76,57.51],[163.28,58.07],[162.51,58.17],[162.65,58.4],[163.87,58.35],[165.25,59.12],[163.67,59.37],[163.49,59.76],[164.78,59.7],[166.07,60.25],[166.22,59.85],[167.01,59.71],[167.05,60.34],[166.74,60.52],[167.6,61.01],[166.77,61.15],[165.43,60.61],[164.93,61.19],[165.78,61.7],[164.58,62.01],[165.45,62.52],[163.67,62.78],[162.82,62.25],[163.7,62.13],[164.06,61.96],[163.9,61.72],[162.37,61.55],[163.23,61.44],[163.58,61.26],[163.42,61.03],[159.26,59.19],[159.38,58.57],[156.27,58.03],[156.45,57.42],[155.51,57.03],[155.78,56.65],[155.29,56.34],[155.55,55.97],[155.0,55.43],[155.58,54.92],[155.05,54.39],[156.4,52.39],[155.85,51.85],[156.32,51.32],[155.14,50.85]],[[161.08,58.61],[160.75,58.77],[161.46,59.3],[161.25,59.69],[162.68,59.88],[162.07,59.59],[162.13,58.96],[161.08,58.61]],[[158.45,56.51],[159.19,56.43],[159.08,57.04],[159.51,57.11],[160.04,56.57],[157.98,55.39],[157.52,56.14],[158.45,56.51]],[[160.86,55.87],[160.14,55.96],[160.66,56.25],[160.86,55.87]],[[160.51,58.31],[161.29,58.22],[160.72,57.92],[160.51,58.31]],[[160.16,57.63],[160.92,57.54],[160.37,57.24],[160.16,57.63]]],[[[170.88,60.0],[170.59,60.19],[170.8,60.41],[173.46,61.16],[173.7,61.37],[173.42,61.57],[170.02,60.57],[168.3,61.28],[168.1,61.06],[168.41,60.87],[167.54,60.38],[169.81,60.35],[170.19,59.75],[170.88,60.0]]],[[[119.98,22.95],[120.48,22.14],[121.12,22.22],[121.0,22.79],[122.13,24.53],[121.85,25.42],[120.75,25.13],[120.09,23.61],[119.3,23.9],[119.42,23.3],[119.98,22.95]]],[[[50.52,69.48],[48.98,69.67],[47.98,69.47],[47.54,68.91],[48.69,68.53],[50.28,68.72],[50.78,69.29],[50.52,69.48]]],[[[22.34,32.82],[23.02,32.46],[23.43,32.73],[22.25,33.25],[21.84,32.97],[22.34,32.82]]],[[[177.75,51.5],[179.69,51.53],[177.64,52.32],[177.08,52.1],[177.36,51.5],[177.75,51.5]]],[[[99.33,51.08],[99.25,50.84],[99.86,50.75],[99.76,51.39],[99.14,51.49],[99.33,51.08]]],[[[21.17,69.95],[21.64,70.24],[21.06,70.34],[18.84,70.35],[17.53,69.66],[18.19,69.37],[21.17,69.95]]],[[[-16.15,28.14],[-15.9,28.77],[-16.14,28.9],[-17.14,28.38],[-17.9,29.25],[-18.39,28.73],[-17.38,27.99],[-16.15,28.14]]],[[[-31.71,39.75],[-31.3,39.16],[-30.73,39.22],[-31.14,39.82],[-31.71,39.75]]],[[[15.21,68.29],[16.19,68.31],[15.43,68.76],[15.88,68.87],[17.07,68.51],[17.89,68.89],[15.2,69.14],[14.13,68.44],[15.21,68.29]]],[[[92.98,44.47],[93.82,44.27],[94.18,44.61],[93.34,44.81],[92.98,44.47]]],[[[-178.01,51.93],[-177.99,51.52],[-176.45,51.49],[-175.7,51.87],[-178.01,51.93]]],[[[93.49,36.65],[94.49,36.57],[94.9,36.06],[95.48,36.49],[97.65,36.15],[97.97,36.47],[97.44,37.37],[95.86,37.05],[94.95,37.62],[94.59,38.38],[92.31,38.93],[90.3,37.95],[91.88,37.86],[92.28,37.1],[93.49,36.65]]],[[[11.97,66.17],[11.51,65.62],[12.11,65.38],[13.46,66.59],[12.46,66.73],[11.97,66.17]]],[[[-26.98,39.21],[-27.89,39.52],[-28.95,38.9],[-29.13,38.24],[-27.14,38.29],[-26.64,38.85],[-26.98,39.21]]],[[[160.85,61.36],[160.75,62.0],[161.41,62.3],[161.03,62.47],[158.84,61.95],[160.11,61.69],[159.36,61.15],[159.97,60.59],[161.3,60.55],[161.08,60.96],[160.22,61.06],[160.85,61.36]]],[[[121.14,16.86],[121.4,17.19],[120.83,17.59],[120.95,16.99],[120.43,16.32],[120.84,16.28],[121.14,16.86]]],[[[133.05,36.55],[132.86,35.99],[133.71,35.99],[133.48,36.55],[133.05,36.55]]],[[[115.33,4.16],[115.88,3.74],[116.0,4.7],[115.61,4.74],[115.33,4.16]]],[[[64.69,29.56],[64.09,29.94],[63.27,29.31],[63.61,29.01],[64.55,29.18],[64.69,29.56]]],[[[-164.88,60.63],[-165.23,60.47],[-164.69,60.2],[-163.25,60.82],[-165.73,61.56],[-165.99,61.18],[-164.88,60.63]]],[[[12.63,35.84],[12.33,35.77],[12.46,35.35],[13.23,35.96],[12.63,35.84]]],[[[107.56,11.41],[108.2,11.21],[108.94,12.01],[108.42,13.21],[108.34,12.46],[107.23,12.46],[107.56,11.41]]],[[[74.66,67.96],[75.71,68.0],[75.03,68.33],[74.66,67.96]]],[[[2.19,39.47],[3.08,38.88],[4.63,39.78],[3.73,40.38],[2.58,40.03],[2.19,39.47]]],[[[153.02,47.3],[153.36,47.39],[153.24,48.01],[153.65,48.34],[153.04,48.4],[152.63,48.08],[152.76,47.45],[151.83,47.42],[151.37,46.85],[152.55,46.73],[153.02,47.3]]],[[[-170.76,63.72],[-171.13,63.54],[-170.3,63.06],[-168.53,63.32],[-170.76,63.72]]],[[[153.46,48.72],[154.42,48.74],[155.36,49.61],[154.11,49.75],[154.22,49.13],[153.26,49.11],[153.46,48.72]]],[[[109.76,18.91],[110.02,19.24],[109.38,19.46],[108.85,18.79],[109.49,18.58],[109.76,18.91]]],[[[-13.65,29.65],[-14.67,28.15],[-13.94,28.02],[-13.18,28.89],[-13.65,29.65]]],[[[-16.91,32.58],[-16.39,32.32],[-15.87,33.34],[-17.7,32.95],[-16.91,32.58]]],[[[95.66,43.45],[95.27,44.24],[94.39,44.21],[95.66,43.45]]],[[[115.75,-31.85],[115.57,-32.34],[115.95,-32.55],[116.13,-32.05],[115.75,-31.85]]],[[[-160.73,64.05],[-160.36,64.43],[-161.3,64.36],[-160.73,64.05]]],[[[27.21,70.69],[30.09,70.65],[27.85,71.37],[22.12,70.53],[23.35,69.92],[23.85,70.2],[23.25,70.51],[26.63,70.41],[27.21,70.69]]],[[[71.74,69.23],[72.85,69.29],[72.07,69.6],[71.59,69.46],[71.74,69.23]]],[[[68.56,69.62],[67.72,69.91],[68.18,70.07],[67.98,70.29],[66.85,70.2],[67.06,69.98],[66.61,69.82],[68.29,69.24],[68.74,69.39],[68.56,69.62]]],[[[-179.14,51.53],[-179.12,51.13],[-178.55,51.33],[-178.78,51.94],[-179.17,51.94],[-179.14,51.53]]],[[[-172.41,60.75],[-173.21,60.6],[-172.57,60.35],[-172.41,60.75]]],[[[60.52,69.91],[59.57,70.16],[59.95,70.33],[59.66,70.54],[58.98,70.58],[58.53,70.02],[60.41,69.53],[61.83,69.82],[60.52,69.91]]],[[[180.0,52.34],[179.44,52.14],[180.0,51.94],[180.0,52.34]]],[[[165.78,55.12],[166.2,54.57],[167.16,54.88],[167.56,54.31],[168.67,54.82],[166.34,55.39],[165.78,55.12]]],[[[173.92,52.99],[172.62,53.32],[172.06,53.08],[172.4,52.49],[173.68,52.16],[174.24,52.4],[173.92,52.99]]],[[[104.39,47.3],[103.03,46.82],[104.11,46.61],[104.61,47.13],[104.39,47.3]]],[[[122.14,55.22],[120.48,55.36],[120.17,54.8],[120.74,54.57],[123.38,55.1],[123.5,55.48],[122.5,55.78],[122.14,55.22]]],[[[94.12,38.67],[94.45,39.01],[94.21,39.15],[93.93,39.05],[94.12,38.67]]],[[[15.22,67.45],[15.43,67.92],[14.9,68.0],[13.9,67.33],[14.52,67.07],[15.22,67.45]]],[[[65.32,69.34],[63.39,69.51],[65.04,68.97],[65.53,69.12],[65.32,69.34]]],[[[103.35,11.73],[104.06,12.04],[103.4,12.24],[103.35,11.73]]],[[[12.37,36.67],[12.25,37.09],[11.94,37.02],[11.86,36.78],[12.37,36.67]]],[[[115.62,-33.21],[116.04,-33.08],[115.65,-32.87],[115.62,-33.21]]],[[[-163.23,63.13],[-163.72,63.19],[-164.02,62.81],[-162.66,62.84],[-161.92,63.37],[-162.49,63.67],[-163.23,63.13]]],[[[77.99,67.59],[78.42,67.95],[77.35,67.93],[77.99,67.59]]],[[[115.23,54.7],[114.62,54.53],[115.22,54.32],[115.23,54.7]]],[[[114.62,54.15],[113.43,53.81],[114.62,53.78],[114.62,54.15]]],[[[1.35,39.2],[1.02,38.87],[1.41,38.35],[2.07,39.0],[1.68,39.53],[1.35,39.2]]],[[[68.39,68.22],[68.77,68.58],[67.66,68.5],[68.39,68.22]]],[[[-15.66,27.64],[-15.16,28.15],[-15.4,28.52],[-15.9,28.02],[-15.66,27.64]]],[[[102.34,47.32],[101.93,47.02],[102.48,46.92],[102.34,47.32]]],[[[14.44,36.21],[14.13,36.15],[14.25,35.73],[14.65,36.03],[14.44,36.21]]],[[[178.5,63.94],[178.2,63.73],[178.46,63.53],[179.31,63.73],[178.5,63.94]]]]}}]}