{"type":"FeatureCollection","features":[{"type":"Feature","properties":{},"geometry":{"type":"MultiPolygon","coordinates":[[[[87.8,43.17],[88.44,43.65],[88.97,43.12],[89.27,43.23],[90.13,43.05],[90.77,43.51],[90.81,43.76],[90.53,43.91],[89.88,43.44],[89.36,43.98],[88.46,43.9],[88.18,44.04],[87.54,43.56],[87.25,43.69],[86.95,43.58],[86.39,44.1],[84.27,44.02],[83.67,44.53],[82.14,44.4],[81.51,44.91],[81.81,45.55],[81.17,46.06],[80.86,45.92],[80.87,45.67],[79.92,45.52],[79.94,45.26],[79.63,45.13],[78.68,45.23],[78.38,45.09],[78.4,44.83],[77.81,44.29],[77.84,44.03],[78.77,43.94],[79.35,44.48],[79.67,44.36],[80.59,44.51],[81.22,44.01],[82.14,44.15],[82.44,44.02],[82.44,43.77],[83.35,43.64],[83.35,43.39],[83.05,43.26],[82.14,43.38],[82.14,43.64],[81.84,43.76],[80.32,43.61],[80.01,43.73],[79.43,43.2],[78.79,43.69],[78.49,43.55],[78.17,43.66],[77.88,43.52],[77.56,43.63],[77.0,43.09],[76.08,43.17],[75.79,43.02],[75.12,43.49],[74.83,43.34],[74.86,43.08],[75.18,42.98],[75.21,42.72],[74.93,42.57],[74.26,43.04],[71.56,42.66],[71.24,42.76],[70.96,42.6],[70.64,42.69],[70.15,42.12],[70.2,41.87],[69.72,41.29],[69.78,41.04],[71.26,41.08],[71.75,41.65],[72.07,41.55],[72.34,41.71],[73.37,40.9],[73.18,40.24],[72.91,40.09],[72.6,40.18],[72.34,40.03],[72.03,40.13],[71.76,39.97],[71.45,40.07],[71.19,39.91],[68.03,39.64],[67.78,39.48],[67.84,39.23],[67.03,38.98],[67.09,38.74],[67.4,38.65],[68.77,38.97],[69.08,38.88],[69.13,38.63],[70.0,38.61],[70.05,38.36],[70.35,38.27],[70.2,37.61],[70.5,37.52],[70.89,36.93],[70.65,36.78],[70.35,36.87],[70.1,36.71],[70.15,36.46],[69.37,36.24],[69.23,35.58],[68.99,35.43],[68.7,35.51],[68.28,34.95],[67.47,34.96],[67.58,35.61],[67.29,35.69],[67.06,35.53],[66.23,35.53],[66.0,35.37],[65.9,34.72],[66.19,34.64],[66.42,34.8],[67.06,34.39],[67.81,34.63],[68.45,34.22],[69.04,35.18],[69.86,35.16],[70.1,35.32],[70.73,34.89],[71.17,35.45],[71.46,35.35],[71.7,35.51],[71.99,35.41],[72.03,35.17],[72.85,35.13],[73.31,35.67],[73.6,35.58],[73.85,35.72],[74.13,35.63],[74.17,35.38],[73.38,35.18],[73.73,34.59],[75.07,34.58],[75.1,34.34],[75.38,34.24],[75.4,33.99],[75.68,33.89],[75.71,33.65],[75.98,33.54],[76.0,33.3],[76.27,33.2],[76.3,32.96],[77.43,31.82],[77.44,31.58],[78.21,31.51],[78.77,30.59],[79.26,30.62],[79.78,30.17],[80.51,30.33],[81.26,29.54],[81.5,29.66],[81.5,29.9],[81.98,29.92],[81.99,29.68],[82.95,28.55],[84.13,28.7],[84.59,28.26],[85.53,28.27],[85.52,28.04],[86.21,27.94],[86.2,27.71],[86.42,27.59],[87.6,27.71],[88.04,27.24],[88.54,27.7],[88.99,27.23],[89.7,27.34],[89.72,27.57],[89.96,27.69],[90.67,27.55],[90.65,27.32],[90.88,27.2],[91.39,27.65],[92.57,27.49],[93.08,27.94],[93.1,28.17],[93.58,28.15],[94.1,28.59],[94.58,28.57],[94.87,29.13],[95.39,29.57],[95.62,29.44],[95.33,28.88],[96.04,28.72],[96.02,28.49],[96.25,28.36],[96.5,28.46],[96.94,27.96],[98.15,27.99],[98.58,27.49],[99.06,27.45],[99.03,27.22],[99.46,26.71],[99.71,26.8],[99.74,27.04],[100.46,27.09],[100.48,27.32],[100.96,27.28],[101.48,27.69],[101.96,27.64],[101.78,28.25],[102.03,28.33],[102.06,28.56],[103.26,28.55],[103.28,28.77],[103.06,28.92],[102.11,29.02],[102.41,29.56],[102.19,29.7],[102.21,29.92],[102.46,30.01],[102.49,30.23],[102.74,30.32],[103.88,31.75],[104.13,31.83],[103.96,32.41],[104.78,33.07],[104.61,33.63],[104.86,33.71],[104.89,33.92],[104.66,34.05],[104.97,34.55],[104.27,34.74],[104.86,35.51],[104.38,35.57],[104.09,36.08],[103.83,36.01],[103.87,35.42],[102.99,35.56],[102.83,36.52],[103.28,36.45],[103.88,36.82],[103.84,37.42],[102.47,37.64],[102.28,37.79],[102.35,38.02],[101.68,38.25],[101.75,38.47],[101.55,38.62],[100.31,38.69],[99.96,39.22],[98.69,39.27],[98.31,39.81],[95.74,40.1],[95.11,39.68],[94.88,39.82],[94.59,39.73],[94.54,39.49],[94.26,39.39],[92.96,39.62],[92.35,39.17],[89.95,39.44],[89.35,38.98],[88.55,39.13],[87.66,38.3],[86.85,38.44],[86.28,37.95],[86.02,38.08],[85.74,37.96],[85.73,37.71],[85.45,37.59],[84.64,37.72],[84.37,37.6],[84.36,37.35],[83.54,37.22],[83.54,36.97],[83.27,36.84],[82.46,36.95],[81.92,36.45],[81.11,36.55],[80.84,36.42],[80.29,36.89],[79.47,36.74],[79.2,36.85],[79.18,37.1],[78.35,37.18],[78.34,37.43],[78.05,37.54],[77.23,37.37],[76.95,37.48],[76.61,38.09],[76.88,38.23],[76.85,38.48],[76.0,38.55],[75.64,39.16],[75.34,39.27],[75.31,39.52],[76.16,39.71],[76.13,39.96],[76.41,40.11],[78.43,40.09],[78.98,40.63],[79.28,40.51],[79.56,40.65],[79.82,41.29],[80.11,41.43],[80.99,41.33],[81.57,41.85],[83.62,41.74],[84.22,42.24],[84.5,42.11],[85.39,42.23],[85.94,41.71],[86.24,41.83],[86.25,42.08],[85.97,42.22],[85.99,42.47],[86.29,42.59],[86.57,42.45],[88.03,42.53],[87.8,43.17]],[[80.59,35.79],[80.86,35.67],[80.87,35.43],[80.61,35.29],[80.34,35.41],[80.33,35.65],[80.59,35.79]]],[[[24.55,49.04],[23.6,49.16],[23.27,49.72],[21.47,50.13],[20.6,49.84],[20.25,50.38],[20.38,50.59],[20.14,50.76],[18.54,50.95],[18.42,50.74],[18.79,50.2],[18.66,49.99],[18.3,49.94],[17.93,50.48],[16.95,50.54],[16.57,51.06],[13.12,51.47],[12.71,51.97],[12.82,52.18],[11.93,52.4],[12.03,52.61],[11.77,52.75],[11.14,52.82],[11.25,53.03],[10.98,53.17],[10.35,53.24],[9.98,53.16],[9.89,52.96],[10.15,52.82],[9.6,52.33],[8.62,52.31],[8.09,51.81],[7.13,51.79],[6.62,51.28],[6.02,51.33],[5.26,50.94],[4.07,51.02],[3.63,51.53],[3.31,51.48],[3.24,51.26],[3.67,50.72],[3.59,50.5],[4.04,50.03],[3.97,49.82],[5.13,49.73],[5.57,49.25],[6.15,49.2],[6.07,48.98],[6.33,48.84],[6.91,48.79],[6.83,48.57],[6.09,48.18],[5.84,48.32],[5.92,48.54],[5.34,48.59],[5.44,48.01],[6.26,47.82],[6.19,47.6],[5.86,47.51],[5.96,46.93],[5.64,46.84],[5.17,46.31],[4.61,46.36],[3.92,45.96],[2.27,46.09],[2.04,46.25],[1.74,46.19],[1.68,45.96],[1.91,45.8],[2.03,45.18],[2.27,45.05],[2.21,44.82],[2.98,44.64],[2.92,44.41],[3.16,44.27],[2.73,43.72],[2.97,43.58],[4.75,44.94],[4.99,44.8],[5.09,44.2],[6.18,44.07],[6.58,43.54],[6.89,43.63],[6.96,43.86],[7.82,43.87],[7.9,44.1],[8.22,44.17],[8.3,44.4],[7.75,44.48],[7.35,45.01],[7.82,45.54],[8.71,45.55],[8.79,45.78],[9.12,45.85],[11.06,45.46],[11.82,45.82],[12.39,45.73],[12.92,46.25],[13.25,46.31],[13.63,45.76],[14.54,45.73],[14.78,45.56],[14.67,45.33],[14.91,45.17],[14.8,44.94],[15.17,44.38],[16.06,44.32],[16.29,44.15],[16.19,43.92],[16.98,43.63],[16.87,43.4],[17.09,43.23],[17.87,43.56],[18.09,43.39],[17.98,43.16],[18.76,42.85],[18.65,42.62],[18.87,42.44],[19.75,42.35],[19.97,42.17],[20.3,42.22],[20.42,42.45],[20.2,42.63],[20.32,42.86],[21.2,42.76],[21.22,43.4],[21.01,43.58],[20.11,43.67],[19.78,44.26],[18.88,44.34],[18.54,44.92],[17.75,44.59],[16.95,44.89],[17.06,45.11],[16.83,45.28],[15.69,45.51],[16.24,46.02],[16.59,46.07],[16.57,46.69],[16.33,46.85],[16.9,47.35],[16.54,47.9],[16.65,48.12],[15.82,48.39],[15.8,48.98],[16.62,49.31],[17.22,49.2],[17.59,48.66],[18.54,48.59],[19.37,48.3],[19.73,48.35],[19.85,48.56],[20.8,48.48],[21.42,48.94],[22.97,48.71],[23.2,48.53],[23.16,47.93],[23.74,47.78],[24.06,47.21],[24.41,47.24],[24.63,47.06],[24.5,46.84],[25.29,46.5],[25.15,46.29],[25.37,46.1],[25.24,45.89],[24.32,46.01],[24.19,45.8],[23.84,45.76],[23.53,46.35],[23.66,46.56],[23.44,46.74],[23.57,46.96],[23.35,47.14],[22.41,47.25],[22.28,47.03],[22.51,46.85],[22.48,46.24],[23.27,45.91],[23.14,45.69],[22.23,45.8],[22.1,45.58],[22.32,45.4],[21.73,44.92],[21.95,44.74],[22.76,45.04],[22.89,45.26],[23.8,45.14],[24.02,44.96],[24.36,44.99],[24.49,45.21],[25.4,45.08],[26.01,45.54],[26.92,45.4],[27.06,45.62],[26.77,46.21],[26.42,46.18],[26.21,46.37],[26.27,46.98],[26.05,47.17],[26.19,47.38],[25.97,47.56],[26.11,47.77],[25.31,48.11],[25.45,48.32],[25.23,48.5],[24.64,48.66],[24.78,48.86],[24.55,49.04]],[[7.49,48.73],[8.08,48.67],[7.99,48.45],[7.66,48.37],[7.41,48.51],[7.49,48.73]]],[[[113.33,45.65],[113.78,45.51],[113.66,45.3],[113.86,44.75],[114.72,44.48],[115.92,45.19],[115.72,46.12],[115.03,45.85],[114.59,46.0],[114.39,46.55],[113.69,46.28],[113.24,46.42],[113.11,46.21],[113.33,45.65]]],[[[-8.25,40.23],[-7.96,40.33],[-8.17,40.97],[-7.88,41.07],[-7.85,41.31],[-8.35,41.85],[-8.0,42.44],[-8.27,42.59],[-8.24,42.83],[-7.94,42.93],[-7.68,42.78],[-7.05,43.22],[-7.26,43.85],[-7.53,44.0],[-7.83,43.9],[-8.19,43.32],[-9.05,43.27],[-9.08,43.03],[-9.38,42.93],[-9.4,42.68],[-8.64,41.75],[-8.67,41.51],[-8.96,41.41],[-8.98,41.16],[-8.72,41.01],[-8.74,40.77],[-9.03,40.67],[-8.82,40.03],[-9.41,39.57],[-9.74,38.97],[-9.24,38.43],[-9.03,37.79],[-8.78,37.65],[-8.5,37.75],[-8.71,38.39],[-8.43,38.5],[-8.4,38.74],[-8.66,38.89],[-8.63,39.14],[-8.35,39.24],[-8.33,39.49],[-8.58,39.63],[-8.56,39.88],[-8.27,39.98],[-8.25,40.23]]],[[[11.59,55.67],[11.69,55.87],[11.42,56.0],[11.03,55.93],[10.93,55.73],[11.59,55.67]]],[[[102.51,28.28],[102.26,28.19],[102.23,27.96],[102.46,27.82],[102.71,27.91],[102.73,28.14],[102.51,28.28]]],[[[35.12,66.4],[37.28,66.19],[38.38,65.88],[38.9,65.92],[39.14,66.13],[38.04,66.44],[36.68,66.53],[36.38,66.7],[36.61,66.91],[36.3,67.08],[33.77,67.42],[33.24,67.37],[33.04,67.16],[32.2,67.26],[31.69,67.21],[31.5,67.0],[30.17,67.03],[30.0,66.82],[28.86,66.48],[28.53,66.62],[28.68,66.84],[28.35,66.98],[27.53,67.06],[26.43,66.71],[24.01,66.9],[23.9,66.68],[22.66,66.66],[22.56,66.44],[22.12,66.36],[22.02,66.15],[21.59,66.07],[21.51,65.85],[21.08,65.77],[21.0,65.56],[20.58,65.47],[20.51,65.26],[19.17,64.58],[19.1,64.36],[18.28,63.98],[18.22,63.76],[16.85,63.83],[15.7,63.14],[14.28,63.23],[14.15,63.06],[14.46,62.94],[14.32,62.77],[13.12,62.78],[11.87,62.13],[10.7,62.12],[10.58,61.94],[10.89,61.83],[10.77,61.65],[9.62,61.63],[9.5,61.45],[9.81,61.34],[9.7,61.16],[8.56,61.13],[8.46,60.95],[8.76,60.84],[8.14,60.4],[8.45,60.29],[8.34,60.1],[8.64,59.99],[8.54,59.81],[7.84,59.84],[6.97,59.56],[6.7,59.73],[6.8,59.91],[6.52,60.08],[7.09,60.47],[6.81,60.64],[6.91,60.82],[7.77,61.04],[7.87,61.22],[7.6,61.38],[6.54,61.52],[5.96,61.13],[4.89,61.25],[4.8,61.06],[5.09,60.9],[5.0,60.71],[5.49,60.2],[4.93,59.79],[5.21,59.63],[5.12,59.44],[6.05,59.14],[5.5,58.73],[7.06,58.34],[6.96,58.14],[7.26,58.03],[8.13,58.38],[8.81,58.33],[9.92,59.05],[11.31,58.94],[10.69,58.5],[10.98,58.38],[10.87,58.19],[11.84,58.01],[11.73,57.81],[12.02,57.69],[11.9,57.5],[12.19,57.37],[12.07,57.17],[12.36,57.05],[12.24,56.85],[12.69,56.39],[12.58,56.2],[12.19,56.13],[12.08,55.94],[12.35,55.8],[12.24,55.61],[10.89,55.0],[10.79,54.8],[11.06,54.67],[12.08,54.67],[12.19,54.87],[12.57,54.94],[12.68,55.14],[12.41,55.27],[12.52,55.47],[14.22,55.38],[14.34,55.58],[14.06,55.72],[14.18,55.91],[15.24,55.89],[15.36,56.09],[15.75,56.14],[16.42,56.05],[16.54,56.25],[16.94,56.3],[17.07,56.49],[16.8,56.63],[16.93,56.82],[17.46,57.06],[17.04,57.53],[17.18,57.72],[16.9,57.86],[17.58,58.28],[17.3,58.42],[17.43,58.61],[20.25,59.72],[22.37,59.4],[21.79,59.19],[21.64,59.01],[21.91,58.86],[21.19,58.47],[21.46,58.32],[21.31,58.14],[21.7,57.66],[21.14,57.44],[20.99,57.26],[21.26,57.11],[20.56,56.7],[20.83,56.55],[20.69,56.36],[21.07,55.86],[20.93,55.67],[20.53,55.63],[20.39,55.44],[20.65,55.29],[20.51,55.09],[19.46,55.16],[19.33,54.97],[19.59,54.82],[19.45,54.62],[19.06,54.58],[18.67,55.08],[17.63,55.13],[15.97,54.18],[15.32,54.27],[14.44,53.95],[13.16,54.12],[12.73,54.6],[12.35,54.53],[12.24,54.33],[12.51,54.19],[12.4,53.99],[11.76,54.06],[11.39,53.99],[11.29,53.79],[10.28,53.78],[10.18,53.58],[10.45,53.44],[11.45,53.45],[11.88,52.96],[13.14,52.81],[14.48,53.4],[14.74,53.26],[14.62,53.05],[15.52,52.81],[16.39,53.13],[17.02,53.03],[17.15,53.23],[18.16,53.18],[18.8,53.63],[19.18,53.67],[19.44,53.52],[19.31,53.32],[20.19,53.04],[21.62,53.56],[21.97,53.03],[23.23,52.77],[23.09,52.57],[23.43,52.04],[24.66,51.76],[25.56,52.01],[25.71,52.2],[26.7,52.08],[29.0,53.11],[29.99,52.95],[31.24,53.53],[32.23,53.36],[32.84,53.82],[33.19,53.85],[33.98,53.52],[34.33,53.55],[34.98,54.01],[35.92,53.87],[36.07,54.08],[36.44,54.11],[37.23,53.75],[37.59,53.77],[38.85,54.45],[39.82,54.28],[40.57,54.72],[41.54,54.54],[41.74,54.33],[42.72,54.56],[43.5,54.15],[44.49,54.36],[44.68,54.15],[44.47,53.94],[44.65,53.72],[45.65,53.93],[45.83,53.71],[45.62,53.5],[46.37,53.06],[47.37,53.25],[47.59,53.46],[47.42,53.68],[47.64,53.88],[47.47,54.1],[48.33,54.5],[49.32,54.25],[49.49,54.03],[50.54,54.19],[50.79,54.39],[51.2,54.37],[51.92,53.89],[53.0,54.03],[53.15,53.81],[53.56,53.77],[53.71,53.54],[55.21,52.97],[55.48,53.17],[55.34,53.4],[55.6,53.59],[54.91,54.1],[55.18,54.29],[56.15,53.98],[56.29,53.75],[56.01,53.55],[56.15,53.32],[56.56,53.28],[56.69,53.04],[56.42,52.85],[57.08,52.33],[56.82,52.14],[56.95,51.9],[57.86,51.57],[58.28,52.18],[60.04,52.4],[60.33,52.58],[60.21,52.82],[60.5,53.01],[60.91,52.95],[61.2,53.13],[61.09,53.38],[61.38,53.56],[61.27,53.8],[61.57,53.98],[61.46,54.22],[61.76,54.4],[62.91,54.46],[63.22,54.64],[63.11,54.88],[63.43,55.06],[64.6,55.09],[64.92,55.27],[64.82,55.51],[65.15,55.68],[65.05,55.93],[65.39,56.1],[66.59,56.12],[66.68,55.87],[67.1,55.8],[67.45,55.96],[72.91,56.44],[73.8,56.0],[76.52,56.25],[77.37,55.78],[78.52,55.93],[78.92,55.81],[78.94,55.56],[79.34,55.45],[79.72,55.58],[80.11,55.45],[80.12,55.2],[81.27,55.08],[81.28,54.83],[80.91,54.71],[80.91,54.46],[81.29,54.33],[81.3,54.08],[82.42,53.95],[82.42,53.7],[82.78,53.57],[82.78,53.32],[82.42,53.19],[82.42,52.94],[84.22,52.79],[84.21,52.54],[83.85,52.42],[83.84,52.16],[82.78,52.05],[82.78,51.8],[82.42,51.68],[82.42,51.42],[81.73,50.92],[81.73,50.66],[82.08,50.53],[82.08,50.28],[83.11,50.15],[83.11,49.89],[82.43,49.39],[82.43,49.13],[83.43,49.0],[83.77,49.12],[83.77,49.37],[83.44,49.51],[83.44,49.76],[84.46,49.87],[84.79,49.74],[84.78,49.48],[84.44,49.36],[84.09,48.73],[84.42,48.6],[86.06,48.68],[86.68,48.15],[87.66,48.24],[87.97,48.1],[87.94,47.85],[88.25,47.7],[88.58,47.81],[88.88,47.67],[88.85,47.42],[89.15,47.27],[89.48,47.38],[89.77,47.24],[89.74,46.98],[90.03,46.84],[90.36,46.94],[90.65,46.8],[90.61,46.55],[91.51,46.35],[91.47,46.11],[91.75,45.96],[93.26,45.95],[93.76,45.4],[94.66,45.43],[94.71,45.68],[94.23,46.23],[94.28,46.48],[94.01,46.63],[94.06,46.88],[92.57,47.15],[93.0,47.74],[92.71,47.89],[92.01,47.45],[91.47,48.0],[91.51,48.24],[91.22,48.39],[90.88,48.29],[90.47,47.69],[90.14,47.59],[89.84,47.74],[89.61,48.38],[89.95,48.49],[89.98,48.74],[92.23,48.69],[92.28,48.94],[91.98,49.09],[91.64,48.99],[91.34,49.14],[91.13,49.79],[90.82,49.94],[89.82,49.89],[90.06,49.24],[89.06,49.18],[89.03,48.93],[89.34,48.78],[89.31,48.53],[88.97,48.42],[88.38,48.96],[87.39,48.89],[87.08,49.03],[87.46,49.64],[86.48,49.81],[86.5,50.06],[87.51,50.15],[87.91,50.76],[86.91,50.93],[86.93,51.18],[86.6,51.32],[86.24,51.21],[85.91,51.35],[85.92,51.6],[86.28,51.72],[86.3,51.97],[87.36,52.05],[87.38,52.3],[87.04,52.44],[87.07,52.69],[87.43,52.8],[87.46,53.05],[86.79,53.58],[86.42,53.47],[86.07,53.61],[86.09,53.86],[85.39,54.39],[85.4,54.64],[84.29,54.79],[84.3,55.04],[83.93,55.18],[83.94,55.43],[82.79,55.57],[82.79,55.82],[83.18,55.94],[83.18,56.19],[82.8,56.32],[82.8,56.57],[83.19,56.68],[83.19,56.93],[82.01,57.07],[82.0,57.32],[81.6,57.44],[81.59,57.69],[81.19,57.82],[81.18,58.06],[81.58,58.18],[81.58,58.43],[80.73,58.92],[80.72,59.16],[79.45,59.28],[79.43,59.52],[78.99,59.64],[77.73,59.5],[77.29,59.61],[77.26,59.85],[75.95,59.94],[75.91,60.18],[75.45,60.28],[75.04,60.15],[74.58,60.25],[74.53,60.49],[74.07,60.59],[73.66,60.45],[73.2,60.54],[73.14,60.78],[72.66,60.88],[71.38,60.68],[70.91,60.77],[70.83,61.0],[69.47,61.02],[69.39,61.26],[68.9,61.34],[67.63,61.1],[66.55,61.49],[65.29,61.23],[64.8,61.3],[64.69,61.53],[64.19,61.59],[63.81,61.42],[62.69,61.77],[60.11,61.41],[59.76,61.23],[59.9,61.0],[59.56,60.82],[59.7,60.59],[59.36,60.41],[59.5,60.18],[59.16,60.0],[58.69,60.05],[58.54,60.27],[58.87,60.46],[58.73,60.68],[59.07,60.87],[58.92,61.09],[58.43,61.14],[58.27,61.36],[57.78,61.4],[57.44,61.22],[56.95,61.25],[56.79,61.48],[56.29,61.51],[55.96,61.32],[54.8,61.6],[53.67,61.25],[52.5,61.51],[51.41,61.14],[50.24,61.38],[49.19,60.99],[48.02,61.21],[47.75,61.01],[45.09,60.39],[44.85,60.18],[44.39,60.17],[44.17,60.37],[43.02,60.15],[42.12,60.53],[42.34,60.74],[42.11,60.93],[41.65,60.91],[41.42,61.11],[41.65,61.32],[41.41,61.51],[40.95,61.49],[40.0,61.85],[40.22,62.06],[39.97,62.24],[40.2,62.46],[40.67,62.48],[40.9,62.69],[40.65,62.88],[40.89,63.09],[40.63,63.27],[40.87,63.48],[39.86,63.83],[40.84,64.27],[39.8,64.61],[37.74,64.87],[37.46,65.04],[37.69,65.26],[37.4,65.43],[36.9,65.39],[36.68,65.18],[35.39,65.27],[35.1,65.44],[35.3,65.65],[35.01,65.81],[35.21,66.03],[34.1,66.31],[34.3,66.52],[34.82,66.57],[35.12,66.4]],[[21.7,63.53],[21.0,63.58],[21.08,63.8],[21.96,64.17],[22.05,64.39],[21.49,64.87],[21.57,65.08],[21.99,65.16],[22.08,65.38],[23.26,65.4],[23.36,65.61],[23.8,65.69],[24.89,65.49],[24.78,65.28],[23.81,64.91],[23.7,64.7],[24.02,64.56],[23.92,64.34],[22.77,64.33],[22.68,64.11],[21.79,63.74],[21.7,63.53]],[[35.56,64.5],[35.27,64.67],[35.48,64.89],[35.97,64.93],[37.03,64.62],[36.82,64.41],[35.56,64.5]],[[18.21,62.36],[19.85,63.34],[19.92,63.55],[20.3,63.63],[20.62,63.5],[20.09,62.99],[20.4,62.86],[20.33,62.65],[20.63,62.51],[20.56,62.3],[20.86,62.16],[20.78,61.95],[21.3,61.46],[20.79,60.95],[19.7,60.49],[18.55,60.55],[18.26,60.68],[18.4,60.85],[17.38,61.07],[17.52,61.25],[17.23,61.38],[17.81,61.59],[17.95,61.77],[17.66,61.89],[18.15,62.15],[18.21,62.36]],[[36.88,64.02],[37.09,64.24],[37.58,64.27],[37.85,64.1],[37.64,63.88],[37.15,63.85],[36.88,64.02]],[[23.62,57.63],[23.36,57.79],[23.51,57.97],[23.93,58.0],[24.29,57.51],[23.72,57.3],[23.46,57.45],[23.62,57.63]],[[90.73,47.3],[90.76,47.55],[91.1,47.65],[91.39,47.5],[91.35,47.25],[91.02,47.15],[90.73,47.3]],[[25.5,60.07],[25.77,59.92],[25.67,59.7],[25.03,59.79],[25.13,60.01],[25.5,60.07]],[[26.64,60.26],[26.91,60.1],[26.8,59.88],[26.15,59.98],[26.26,60.2],[26.64,60.26]]],[[[48.24,40.57],[49.05,40.7],[49.23,40.9],[48.65,41.38],[47.89,41.66],[47.79,42.3],[47.02,42.58],[46.91,43.22],[46.59,43.24],[45.92,42.87],[45.6,42.89],[45.45,43.1],[44.65,42.94],[44.5,43.16],[44.19,43.17],[42.15,44.29],[41.36,44.1],[41.2,44.31],[40.89,44.31],[40.73,44.12],[39.92,44.36],[39.76,44.16],[39.43,44.18],[39.27,43.98],[39.44,43.77],[41.21,43.09],[42.76,42.2],[42.61,41.99],[41.83,41.83],[41.67,41.23],[40.9,41.06],[40.28,40.67],[39.97,40.68],[39.81,40.89],[39.03,40.7],[38.87,40.92],[38.55,40.92],[37.94,40.52],[38.1,40.3],[39.36,39.86],[39.53,39.23],[39.83,39.22],[39.98,39.85],[40.29,39.84],[40.44,39.2],[40.75,39.19],[40.9,39.4],[41.66,39.16],[42.27,39.55],[43.02,39.72],[43.17,39.5],[43.01,39.3],[43.6,38.86],[43.44,38.66],[43.58,38.44],[43.43,38.24],[42.7,38.49],[42.55,38.29],[42.69,38.07],[43.85,37.59],[44.45,37.97],[44.31,38.19],[44.46,38.39],[44.75,38.37],[44.91,38.57],[44.34,39.02],[44.51,39.62],[44.37,39.84],[43.62,39.68],[43.48,39.89],[43.63,40.09],[44.39,40.25],[45.84,39.32],[46.14,39.29],[46.33,39.9],[46.64,39.87],[46.8,40.07],[46.7,40.7],[45.92,40.56],[45.33,41.02],[44.58,41.27],[44.43,41.49],[44.6,41.69],[45.86,42.03],[47.8,40.82],[48.11,40.79],[48.24,40.57]]],[[[127.03,39.65],[127.55,40.44],[128.59,40.41],[128.97,40.87],[129.82,40.92],[129.99,41.48],[129.74,41.8],[130.39,41.95],[130.37,42.17],[130.59,42.29],[131.03,42.32],[131.02,42.54],[131.24,42.66],[131.69,42.69],[131.68,42.91],[131.9,43.03],[132.38,42.61],[133.77,42.66],[134.23,43.13],[134.71,43.14],[134.71,43.37],[135.43,43.5],[135.93,44.43],[136.68,44.56],[137.21,45.49],[137.98,45.62],[138.27,46.2],[138.82,46.66],[138.59,47.23],[139.4,47.36],[140.02,48.29],[140.61,48.75],[140.63,48.98],[140.36,49.09],[140.38,49.32],[140.68,49.44],[140.65,49.65],[140.32,49.74],[140.29,49.95],[140.86,50.4],[140.47,50.92],[141.06,51.38],[141.04,51.59],[141.35,51.71],[141.33,51.93],[141.99,51.95],[142.01,51.73],[142.35,51.63],[142.37,51.42],[142.06,51.3],[142.08,51.08],[142.41,50.98],[142.43,50.77],[142.12,50.65],[142.48,50.13],[142.18,50.02],[142.4,49.44],[141.77,48.98],[141.99,48.4],[142.56,48.4],[143.25,49.32],[144.14,49.42],[143.94,50.0],[143.41,50.47],[143.71,51.01],[143.38,51.11],[143.36,51.33],[143.69,51.44],[143.68,51.66],[142.98,52.08],[143.29,52.64],[142.94,52.74],[142.92,52.96],[143.26,53.08],[143.24,53.3],[142.89,53.41],[142.87,53.63],[142.17,53.62],[142.19,53.39],[141.86,53.27],[142.26,52.73],[141.62,52.27],[141.27,52.37],[141.25,52.59],[141.57,52.71],[141.55,52.93],[141.19,53.03],[141.17,53.25],[141.5,53.37],[141.47,53.6],[140.41,53.67],[139.97,54.21],[138.88,54.27],[138.27,53.79],[137.46,54.19],[136.76,54.14],[136.7,54.37],[137.03,54.5],[136.97,54.73],[135.15,54.7],[135.08,54.93],[136.12,55.12],[136.06,55.35],[137.13,55.54],[137.07,55.77],[137.41,55.91],[137.35,56.14],[136.94,56.23],[136.33,55.72],[135.92,55.8],[135.33,55.29],[133.48,55.24],[133.17,55.09],[133.25,54.87],[133.65,54.8],[133.73,54.57],[133.42,54.43],[132.55,54.8],[131.14,54.64],[130.54,55.15],[130.13,55.21],[129.83,55.06],[128.9,55.4],[127.91,55.14],[126.96,55.47],[126.68,55.31],[126.81,55.1],[125.84,54.82],[125.98,54.61],[125.71,54.44],[125.04,54.33],[124.09,54.63],[117.73,53.26],[117.52,53.09],[117.69,52.89],[117.48,52.72],[116.92,52.93],[115.95,52.8],[115.75,52.62],[115.93,52.43],[115.74,52.25],[114.61,51.94],[113.67,52.15],[112.57,51.81],[112.42,51.28],[113.16,50.9],[112.67,50.7],[112.6,50.1],[111.39,49.57],[110.83,49.11],[110.01,49.21],[109.89,48.99],[109.57,48.95],[109.45,48.73],[109.65,48.55],[109.11,48.07],[108.28,48.16],[108.17,47.94],[107.34,48.01],[107.23,47.79],[107.44,47.62],[107.75,47.67],[108.05,47.1],[108.78,47.41],[109.47,47.11],[109.78,47.15],[109.89,47.37],[110.69,47.28],[111.65,48.0],[113.25,48.77],[113.37,48.98],[113.2,49.16],[112.71,49.31],[113.28,49.76],[115.62,49.05],[115.78,48.87],[115.27,48.72],[115.1,48.56],[115.26,48.38],[116.09,48.16],[116.25,47.98],[116.07,47.82],[116.71,47.45],[117.55,47.56],[118.49,47.15],[118.63,46.97],[118.45,46.81],[119.05,46.43],[118.06,46.18],[117.89,46.03],[118.03,45.85],[119.01,46.1],[119.46,45.89],[119.28,45.75],[119.41,45.57],[119.19,45.1],[118.4,45.01],[117.45,44.41],[116.77,44.53],[116.38,44.3],[116.25,44.1],[116.8,43.79],[116.68,43.59],[116.01,43.69],[115.62,43.46],[115.55,42.51],[114.8,42.03],[114.12,42.12],[114.01,41.92],[114.16,41.75],[114.83,41.66],[114.97,41.5],[114.86,41.3],[115.4,41.01],[115.28,40.81],[115.42,40.64],[115.79,40.88],[115.65,41.05],[115.76,41.25],[116.41,41.15],[116.51,41.72],[116.88,41.95],[117.27,41.82],[117.89,42.08],[118.01,42.63],[118.39,42.86],[117.48,43.31],[117.99,43.73],[117.86,43.9],[117.98,44.1],[119.11,44.46],[119.32,44.93],[119.8,45.04],[119.72,45.54],[120.4,45.8],[120.71,45.77],[120.84,45.59],[120.66,45.45],[121.21,45.06],[121.03,44.92],[121.15,44.74],[120.97,44.6],[121.09,44.42],[120.91,44.28],[120.97,43.79],[122.89,42.93],[122.93,42.45],[123.39,42.55],[124.07,42.3],[124.72,42.52],[125.38,42.26],[125.39,41.79],[125.67,41.75],[126.0,41.28],[126.63,41.23],[126.65,41.02],[126.06,40.86],[125.94,40.31],[126.55,40.26],[127.03,39.65]],[[134.81,53.53],[134.43,53.61],[134.35,53.83],[135.04,53.89],[135.11,53.67],[134.81,53.53]]],[[[24.52,42.49],[24.86,42.53],[24.99,42.75],[24.78,42.94],[24.44,42.91],[24.32,42.68],[24.52,42.49]]],[[[-4.4,50.46],[-3.79,50.38],[-3.37,50.91],[-3.98,50.99],[-4.4,50.46]]],[[[111.78,47.22],[111.29,47.36],[110.34,46.63],[110.53,46.46],[110.83,46.5],[110.94,46.72],[111.72,46.62],[112.25,47.08],[113.02,46.98],[113.14,47.19],[112.97,47.37],[112.49,47.51],[111.78,47.22]]],[[[-8.28,37.36],[-8.55,37.25],[-8.8,37.4],[-9.08,37.29],[-9.1,37.04],[-8.85,36.9],[-7.53,36.93],[-7.51,37.17],[-7.75,37.32],[-8.03,37.22],[-8.28,37.36]]],[[[84.66,46.43],[84.97,46.3],[85.29,46.42],[85.3,46.67],[86.26,46.77],[86.62,47.39],[86.31,47.53],[83.41,47.47],[83.08,47.6],[82.76,47.47],[82.11,47.98],[81.78,47.85],[81.45,47.98],[80.81,47.46],[80.82,47.2],[81.14,47.08],[82.76,47.22],[83.08,47.09],[83.08,46.83],[84.03,46.7],[84.03,46.44],[84.34,46.31],[84.66,46.43]]],[[[0.53,51.44],[0.59,51.66],[0.32,51.82],[-0.4,51.49],[-1.0,51.58],[-1.5,52.12],[-2.22,51.78],[-2.5,51.93],[-2.45,52.15],[-2.11,52.22],[-2.06,52.44],[-2.57,52.97],[-2.92,52.91],[-2.73,52.31],[-3.07,52.24],[-3.51,51.73],[-2.6,51.49],[-3.04,50.97],[-1.55,50.64],[-0.84,50.98],[-0.57,50.82],[-0.25,50.88],[-0.19,51.1],[0.73,51.06],[0.79,51.28],[0.53,51.44]]],[[[92.5,43.38],[92.76,43.24],[93.63,43.29],[94.09,42.74],[94.95,42.78],[95.0,43.03],[94.75,43.18],[94.8,43.42],[93.98,43.63],[94.03,43.87],[93.77,44.02],[93.11,43.58],[92.27,43.78],[91.96,43.68],[91.92,43.43],[92.19,43.28],[92.5,43.38]]],[[[-1.65,43.64],[-1.94,43.57],[-1.99,43.33],[-1.75,43.17],[-1.11,43.56],[-1.06,43.8],[-1.6,43.88],[-1.65,43.64]]],[[[75.48,50.49],[75.15,50.34],[74.78,50.45],[74.46,50.3],[74.5,50.04],[74.86,49.94],[75.88,50.12],[76.24,50.01],[76.27,49.76],[75.94,49.61],[75.59,49.72],[75.26,49.57],[75.3,49.32],[74.3,49.13],[74.34,48.87],[74.02,48.72],[74.07,48.46],[74.42,48.36],[74.74,48.51],[75.09,48.4],[75.41,48.55],[75.76,48.44],[78.76,48.7],[79.1,48.58],[79.47,47.95],[79.81,47.83],[80.13,47.96],[80.12,48.22],[79.43,48.72],[79.41,48.97],[77.72,49.05],[77.31,49.67],[77.64,49.82],[77.62,50.07],[76.57,50.16],[76.54,50.41],[76.17,50.52],[75.84,50.38],[75.48,50.49]]],[[[-6.13,43.73],[-6.16,43.49],[-5.9,43.34],[-5.61,43.43],[-5.35,43.28],[-5.38,43.04],[-4.58,42.82],[-3.95,43.23],[-3.91,43.47],[-5.27,43.76],[-6.13,43.73]]],[[[11.78,43.51],[12.11,43.58],[12.2,43.81],[11.97,43.97],[12.06,44.2],[11.26,44.45],[10.38,44.47],[9.99,45.01],[9.11,45.02],[8.62,44.48],[11.41,44.06],[11.78,43.51]]],[[[12.89,43.31],[12.8,43.08],[13.03,42.92],[12.93,42.68],[13.3,42.12],[13.2,41.88],[13.97,41.6],[14.3,41.67],[14.39,41.9],[14.17,42.07],[13.84,42.01],[13.62,42.18],[13.71,42.41],[13.35,42.98],[13.45,43.21],[13.22,43.38],[12.89,43.31]]],[[[107.38,52.99],[106.56,52.69],[105.53,51.92],[104.59,51.99],[104.04,51.49],[104.28,51.31],[104.62,51.36],[104.73,51.59],[105.66,51.52],[106.22,52.01],[107.14,51.93],[107.15,52.55],[107.5,52.59],[108.09,53.07],[107.86,53.26],[107.5,53.22],[107.38,52.99]]],[[[98.3,46.86],[97.4,46.86],[97.14,47.02],[96.82,46.93],[96.75,46.69],[98.73,46.3],[99.05,46.37],[99.13,46.61],[98.3,46.86]]],[[[-2.02,47.3],[-1.97,47.53],[-2.23,47.69],[-2.54,47.62],[-2.59,47.39],[-2.11,46.84],[-1.81,46.91],[-1.76,47.14],[-2.02,47.3]]],[[[114.23,41.01],[114.6,41.26],[114.45,41.42],[114.19,41.38],[114.08,41.18],[114.23,41.01]]],[[[25.06,49.28],[25.65,49.13],[25.79,49.33],[25.56,49.51],[25.7,49.72],[26.07,49.74],[26.21,49.95],[25.62,50.1],[25.48,49.9],[25.11,49.87],[24.97,49.66],[25.2,49.49],[25.06,49.28]]],[[[-5.38,35.62],[-4.74,36.54],[-4.97,36.69],[-5.24,36.6],[-5.28,36.35],[-5.55,36.25],[-5.99,36.79],[-5.96,37.04],[-6.71,37.23],[-6.68,37.48],[-6.93,37.62],[-7.2,37.52],[-6.8,36.49],[-6.05,36.3],[-5.88,35.66],[-5.64,35.52],[-5.38,35.62]]],[[[-2.17,36.74],[-2.13,36.98],[-2.36,37.14],[-2.62,37.05],[-2.67,36.8],[-2.44,36.65],[-2.17,36.74]]],[[[68.17,52.58],[69.03,52.15],[70.07,52.39],[70.46,52.3],[71.05,52.87],[70.99,53.12],[70.6,53.21],[69.54,52.98],[68.66,53.41],[68.34,53.24],[68.41,52.99],[68.09,52.83],[68.17,52.58]]],[[[111.25,41.27],[110.55,41.33],[110.44,41.12],[111.04,40.84],[111.41,41.1],[111.25,41.27]]],[[[-3.56,48.47],[-3.24,48.55],[-3.2,48.78],[-3.79,48.86],[-3.83,48.63],[-3.56,48.47]]],[[[21.4,41.93],[20.52,42.03],[20.51,41.39],[20.72,41.2],[21.5,41.52],[21.61,41.75],[21.4,41.93]]],[[[-2.49,54.65],[-1.96,54.12],[-1.61,54.18],[-1.79,54.76],[-2.43,54.86],[-2.49,54.65]]],[[[96.43,46.61],[95.97,47.17],[95.04,47.15],[94.99,46.9],[95.25,46.75],[95.58,46.84],[96.05,46.28],[95.61,45.7],[95.87,45.55],[96.19,45.64],[96.64,45.08],[99.18,44.86],[99.25,45.1],[99.01,45.26],[97.58,45.33],[97.33,45.49],[97.78,46.06],[97.52,46.22],[96.82,45.81],[96.57,45.97],[96.43,46.61]]],[[[104.45,52.4],[103.6,52.7],[103.24,52.64],[103.14,52.41],[103.99,52.12],[104.35,52.17],[104.45,52.4]]],[[[102.22,46.22],[100.25,46.44],[100.01,46.6],[99.69,46.53],[99.62,46.29],[102.06,45.76],[102.37,45.83],[102.45,46.06],[102.22,46.22]]],[[[1.73,42.99],[1.21,43.05],[1.16,42.82],[0.87,42.75],[-0.92,43.17],[-1.21,43.09],[-1.26,42.86],[2.08,42.24],[2.37,42.34],[2.43,42.57],[2.2,42.71],[2.26,42.94],[1.73,42.99]]],[[[9.01,63.68],[8.32,63.83],[8.2,63.66],[8.5,63.5],[8.9,63.51],[9.01,63.68]]],[[[112.58,41.5],[112.16,41.62],[111.68,41.15],[112.93,40.8],[113.0,41.38],[112.58,41.5]]],[[[14.1,45.44],[13.77,45.38],[13.67,45.15],[13.9,44.98],[14.24,45.05],[14.34,45.27],[14.1,45.44]]],[[[108.83,51.51],[108.95,51.73],[108.73,51.91],[107.83,52.01],[106.8,51.26],[106.46,51.21],[106.35,50.99],[106.58,50.81],[107.47,50.72],[108.04,51.21],[107.82,51.39],[107.94,51.61],[108.83,51.51]]],[[[73.25,51.12],[73.2,51.37],[72.83,51.47],[72.5,51.32],[72.55,51.06],[72.93,50.96],[73.25,51.12]]],[[[88.47,49.72],[88.78,49.57],[89.13,49.68],[89.16,49.93],[88.85,50.07],[88.5,49.97],[88.47,49.72]]],[[[113.63,41.67],[113.75,41.88],[113.59,42.04],[113.33,42.0],[113.22,41.79],[113.63,41.67]]],[[[11.02,63.72],[10.7,63.82],[10.13,63.59],[10.9,63.55],[11.02,63.72]]],[[[-3.93,36.83],[-4.16,36.98],[-4.43,36.88],[-4.47,36.64],[-4.24,36.49],[-3.97,36.59],[-3.93,36.83]]],[[[23.48,41.75],[24.23,41.4],[25.02,41.69],[25.15,41.92],[24.94,42.11],[24.61,42.08],[24.48,41.85],[24.15,41.82],[23.85,42.43],[23.52,42.39],[22.76,42.73],[23.34,43.22],[23.13,43.41],[22.24,43.52],[22.12,43.29],[22.33,43.11],[21.75,42.62],[21.97,42.43],[21.85,42.2],[22.06,42.01],[22.85,42.32],[23.15,41.71],[23.48,41.75]]],[[[118.77,41.64],[118.4,41.78],[118.28,41.58],[118.4,41.42],[118.77,41.64]]],[[[105.73,36.14],[105.81,36.36],[105.64,36.51],[105.38,36.44],[105.3,36.22],[105.73,36.14]]],[[[18.81,56.87],[18.54,57.01],[18.68,57.2],[19.23,57.43],[18.95,57.58],[19.65,57.99],[18.27,58.19],[18.13,58.0],[18.41,57.86],[17.73,57.44],[18.0,57.3],[17.87,57.11],[18.28,56.63],[18.81,56.87]]],[[[-7.3,41.27],[-7.33,41.02],[-7.07,40.87],[-6.78,40.97],[-6.98,41.61],[-7.24,41.75],[-7.53,41.66],[-7.56,41.41],[-7.3,41.27]]],[[[25.22,51.03],[24.84,51.01],[24.7,50.81],[24.93,50.63],[25.9,50.51],[26.05,50.71],[25.22,51.03]]],[[[4.09,47.44],[3.77,47.35],[3.7,47.13],[4.51,46.95],[5.22,47.34],[5.29,47.57],[5.04,47.7],[4.33,47.31],[4.09,47.44]]],[[[33.94,44.45],[34.28,44.46],[34.43,44.66],[34.24,44.86],[33.91,44.86],[33.76,44.65],[33.94,44.45]]],[[[111.79,38.52],[112.14,38.77],[111.99,38.93],[111.73,38.88],[111.63,38.67],[111.79,38.52]]],[[[142.39,47.0],[142.1,46.89],[142.07,46.65],[142.34,46.53],[142.95,46.99],[142.98,47.22],[142.47,47.7],[142.18,47.59],[142.39,47.0]]],[[[-1.08,48.81],[-1.66,48.9],[-1.71,48.67],[-1.45,48.52],[-1.13,48.58],[-1.08,48.81]]],[[[108.47,50.85],[108.69,50.67],[109.02,50.72],[109.14,50.93],[108.92,51.11],[108.59,51.07],[108.47,50.85]]],[[[138.71,56.92],[139.07,57.05],[139.02,57.29],[138.24,57.24],[138.3,57.01],[137.64,56.5],[137.7,56.27],[138.45,56.32],[138.4,56.55],[138.76,56.69],[138.71,56.92]]],[[[105.88,35.79],[106.3,35.31],[106.55,35.38],[106.39,35.92],[105.91,35.99],[105.88,35.79]]],[[[95.12,44.88],[95.07,44.64],[95.33,44.49],[95.64,44.58],[95.69,44.82],[95.44,44.97],[95.12,44.88]]],[[[20.15,51.33],[20.02,51.13],[20.88,50.84],[21.25,50.88],[21.38,51.08],[20.15,51.33]]],[[[7.16,62.6],[6.46,62.74],[6.36,62.57],[6.66,62.4],[7.05,62.42],[7.16,62.6]]],[[[-5.71,42.71],[-5.68,42.95],[-5.94,43.1],[-6.23,43.01],[-6.27,42.77],[-6.01,42.62],[-5.71,42.71]]],[[[14.64,54.9],[15.03,54.96],[15.14,55.16],[14.49,55.24],[14.37,55.04],[14.64,54.9]]],[[[113.54,38.85],[113.65,39.06],[113.5,39.22],[113.25,39.17],[113.15,38.97],[113.54,38.85]]],[[[83.69,45.55],[84.63,45.67],[84.64,45.92],[83.07,46.07],[82.75,45.94],[82.44,45.3],[83.37,45.17],[83.69,45.3],[83.69,45.55]]],[[[115.45,44.0],[115.57,44.2],[115.42,44.37],[115.15,44.34],[115.03,44.14],[115.45,44.0]]],[[[23.21,50.68],[23.08,50.48],[23.31,50.3],[23.68,50.34],[23.82,50.54],[23.21,50.68]]],[[[116.7,46.02],[116.58,45.82],[117.0,45.68],[117.13,45.88],[116.98,46.05],[116.7,46.02]]],[[[17.97,45.67],[17.74,45.84],[17.39,45.79],[17.28,45.56],[17.51,45.39],[17.86,45.44],[17.97,45.67]]],[[[139.72,57.79],[139.35,57.65],[139.39,57.42],[140.18,57.46],[140.14,57.69],[139.72,57.79]]],[[[-2.66,48.46],[-2.39,48.31],[-2.08,48.38],[-2.03,48.61],[-2.61,48.69],[-2.66,48.46]]],[[[40.04,64.82],[40.55,64.85],[40.8,65.05],[40.53,65.24],[40.01,65.21],[39.77,65.0],[40.04,64.82]]],[[[137.24,55.09],[137.3,54.86],[138.02,54.91],[137.97,55.14],[137.58,55.23],[137.24,55.09]]],[[[47.39,38.14],[47.52,37.92],[47.82,37.89],[47.99,38.08],[47.86,38.3],[47.56,38.33],[47.39,38.14]]],[[[67.93,34.14],[67.64,34.23],[67.41,34.07],[67.47,33.83],[67.75,33.74],[67.98,33.9],[67.93,34.14]]]]}}]}