{"type":"FeatureCollection","features":[{"type":"Feature","properties":{},"geometry":{"type":"MultiPolygon","coordinates":[[[[88.49,58.32],[88.52,58.56],[88.14,58.7],[87.72,58.61],[87.69,58.36],[87.27,58.26],[86.88,58.4],[86.91,58.65],[87.33,58.75],[87.36,58.99],[86.96,59.13],[86.54,59.03],[86.14,59.17],[85.72,59.06],[85.31,59.2],[84.89,59.09],[84.48,59.23],[84.06,59.12],[83.65,59.25],[83.23,59.14],[82.81,59.27],[82.81,59.51],[82.39,59.64],[81.97,59.52],[81.55,59.65],[81.54,59.89],[81.11,60.01],[80.68,59.89],[80.25,60.02],[80.24,60.26],[79.79,60.38],[79.37,60.25],[78.93,60.37],[78.9,60.61],[78.45,60.73],[78.03,60.6],[77.58,60.71],[77.54,60.95],[77.08,61.06],[76.66,60.93],[76.2,61.04],[76.16,61.28],[75.69,61.38],[75.27,61.24],[74.79,61.35],[74.38,61.21],[73.9,61.31],[73.85,61.55],[73.37,61.64],[72.95,61.5],[72.47,61.59],[72.06,61.45],[71.57,61.54],[71.5,61.78],[71.01,61.87],[70.6,61.72],[70.11,61.8],[69.71,61.65],[69.22,61.73],[69.13,61.97],[68.63,62.05],[68.23,61.89],[67.73,61.97],[67.63,62.2],[67.13,62.27],[66.74,62.11],[66.23,62.19],[65.84,62.02],[65.34,62.09],[64.95,61.93],[64.45,61.99],[64.07,61.82],[63.57,61.88],[63.19,61.71],[62.69,61.77],[62.56,62.0],[62.06,62.06],[61.93,62.29],[61.42,62.34],[61.05,62.16],[60.54,62.21],[60.18,62.04],[60.32,61.81],[59.97,61.63],[60.11,61.41],[59.76,61.23],[59.9,61.0],[59.56,60.82],[59.7,60.59],[59.36,60.41],[59.5,60.18],[59.16,60.0],[59.31,59.77],[58.98,59.59],[58.5,59.63],[58.36,59.86],[58.69,60.05],[58.54,60.27],[58.87,60.46],[58.73,60.68],[59.07,60.87],[58.92,61.09],[58.43,61.14],[58.27,61.36],[57.78,61.4],[57.62,61.62],[57.12,61.66],[56.96,61.88],[56.46,61.92],[56.12,61.73],[55.62,61.76],[55.45,61.98],[54.95,62.01],[54.62,61.82],[54.12,61.85],[53.8,61.66],[53.31,61.68],[53.0,61.49],[52.5,61.51],[52.31,61.72],[52.62,61.92],[52.44,62.13],[51.93,62.15],[51.63,61.95],[51.13,61.97],[50.83,61.77],[50.34,61.79],[50.04,61.59],[49.55,61.6],[49.35,61.81],[48.86,61.81],[48.58,61.61],[48.09,61.62],[47.88,61.82],[47.39,61.83],[47.12,61.62],[46.64,61.62],[46.42,61.82],[45.93,61.82],[45.71,62.02],[45.23,62.02],[45.0,62.22],[44.52,62.21],[44.29,62.4],[43.8,62.39],[43.56,62.59],[43.82,62.79],[43.58,62.99],[43.09,62.97],[42.85,63.17],[42.35,63.15],[42.11,62.94],[42.35,62.75],[42.11,62.54],[42.35,62.35],[42.11,62.14],[42.35,61.95],[42.11,61.74],[41.64,61.72],[41.4,61.91],[40.93,61.89],[40.69,62.08],[40.92,62.29],[40.67,62.48],[40.2,62.46],[39.95,62.64],[39.47,62.62],[39.25,62.4],[39.5,62.22],[39.97,62.24],[40.22,62.06],[40.0,61.85],[39.53,61.82],[39.29,62.01],[38.82,61.98],[38.61,61.77],[38.15,61.74],[37.95,61.52],[37.5,61.49],[37.3,61.28],[36.86,61.25],[36.6,61.43],[36.8,61.64],[37.25,61.68],[37.44,61.89],[37.19,62.07],[36.73,62.04],[36.47,62.21],[36.02,62.18],[35.75,62.35],[35.95,62.57],[35.68,62.74],[35.22,62.7],[34.95,62.88],[34.49,62.84],[34.31,62.62],[34.58,62.45],[34.4,62.23],[33.96,62.19],[33.78,61.97],[34.05,61.8],[34.49,61.84],[34.75,61.67],[34.58,61.45],[34.14,61.41],[33.97,61.2],[33.54,61.15],[33.28,61.33],[33.44,61.54],[33.18,61.71],[32.74,61.67],[32.47,61.84],[32.04,61.79],[31.77,61.96],[31.34,61.91],[31.07,62.07],[30.64,62.02],[30.49,61.8],[30.07,61.75],[29.8,61.91],[29.38,61.85],[29.1,62.01],[28.68,61.95],[28.55,61.74],[28.14,61.68],[27.86,61.84],[27.45,61.77],[27.33,61.56],[26.93,61.5],[26.65,61.65],[26.25,61.59],[25.97,61.74],[25.57,61.67],[25.29,61.82],[24.89,61.75],[24.61,61.9],[24.22,61.83],[23.93,61.98],[23.54,61.9],[23.25,62.05],[23.34,62.26],[23.05,62.41],[23.14,62.62],[23.53,62.69],[23.62,62.91],[23.32,63.05],[23.42,63.27],[23.11,63.41],[23.21,63.62],[23.61,63.7],[23.71,63.91],[24.12,63.99],[24.23,64.2],[24.65,64.27],[24.76,64.49],[24.44,64.63],[24.02,64.56],[23.92,64.34],[23.5,64.27],[23.4,64.05],[22.99,63.98],[22.68,64.11],[22.27,64.04],[22.19,63.82],[21.79,63.74],[21.7,63.53],[21.31,63.45],[21.0,63.58],[21.08,63.8],[20.77,63.93],[20.84,64.14],[21.24,64.22],[21.32,64.44],[21.73,64.52],[21.81,64.73],[21.49,64.87],[21.57,65.08],[21.99,65.16],[22.08,65.38],[22.5,65.46],[22.6,65.67],[22.27,65.8],[21.84,65.72],[21.75,65.51],[21.33,65.43],[21.25,65.21],[20.84,65.13],[20.76,64.92],[21.08,64.78],[21.0,64.57],[20.6,64.49],[20.52,64.27],[20.13,64.19],[19.81,64.32],[19.42,64.24],[19.36,64.02],[18.98,63.94],[18.66,64.06],[18.28,63.98],[18.22,63.76],[17.85,63.68],[17.54,63.8],[17.59,64.01],[17.27,64.13],[16.9,64.04],[16.58,64.17],[16.62,64.38],[16.29,64.5],[15.93,64.4],[15.6,64.52],[15.24,64.43],[14.91,64.54],[14.55,64.44],[14.53,64.24],[14.18,64.14],[13.85,64.25],[13.87,64.46],[14.23,64.56],[14.25,64.77],[13.92,64.88],[13.57,64.78],[13.23,64.89],[13.25,65.1],[12.91,65.21],[12.93,65.41],[12.46,65.48],[12.34,65.65],[12.7,65.76],[12.58,65.93],[12.95,66.03],[12.83,66.2],[13.2,66.31],[13.08,66.48],[13.46,66.59],[13.35,66.76],[12.84,66.83],[12.46,66.73],[12.59,66.55],[12.21,66.45],[12.34,66.27],[11.97,66.17],[12.1,66.0],[11.74,65.89],[11.86,65.72],[11.51,65.62],[11.64,65.45],[12.11,65.38],[12.23,65.21],[11.88,65.11],[10.61,65.14],[10.28,65.03],[10.41,64.87],[10.87,64.8],[10.87,64.6],[10.41,64.53],[10.29,64.37],[9.88,64.36],[9.77,64.2],[9.36,64.19],[9.24,64.02],[8.84,64.01],[8.72,63.84],[8.32,63.83],[8.2,63.66],[7.8,63.65],[7.69,63.48],[7.29,63.47],[7.18,63.29],[6.77,63.28],[6.67,63.1],[6.97,62.94],[6.86,62.76],[6.46,62.74],[6.16,62.91],[5.76,62.89],[5.66,62.71],[5.96,62.55],[5.86,62.37],[5.46,62.35],[5.37,62.17],[4.97,62.14],[4.87,61.96],[4.48,61.94],[4.39,61.75],[4.69,61.59],[4.59,61.41],[4.2,61.38],[4.11,61.2],[4.41,61.04],[4.32,60.85],[4.62,60.69],[4.53,60.5],[4.82,60.34],[4.73,60.15],[5.02,59.98],[4.93,59.79],[4.55,59.77],[4.46,59.58],[4.75,59.41],[4.66,59.22],[4.94,59.06],[4.85,58.86],[5.13,58.7],[5.05,58.51],[5.32,58.34],[5.68,58.37],[5.95,58.2],[6.31,58.23],[6.58,58.06],[6.49,57.87],[6.78,57.76],[7.16,57.84],[7.45,57.72],[7.84,57.8],[7.93,57.99],[8.32,58.07],[8.42,58.26],[8.81,58.33],[8.91,58.52],[9.31,58.6],[9.41,58.79],[9.81,58.86],[10.11,58.74],[10.51,58.81],[10.8,58.69],[10.69,58.5],[10.98,58.38],[10.87,58.19],[11.16,58.06],[11.05,57.87],[11.33,57.75],[11.22,57.56],[10.83,57.49],[10.54,57.61],[10.65,57.8],[10.36,57.93],[9.97,57.86],[9.87,57.67],[9.48,57.59],[9.37,57.4],[8.99,57.33],[8.7,57.45],[8.31,57.37],[8.22,57.18],[7.84,57.1],[7.74,56.9],[8.02,56.79],[7.93,56.59],[7.55,56.51],[7.46,56.31],[7.74,56.19],[7.65,55.99],[7.93,55.87],[7.83,55.67],[8.11,55.55],[8.02,55.35],[8.29,55.23],[8.2,55.02],[7.83,54.95],[7.74,54.74],[8.02,54.62],[7.92,54.41],[8.2,54.29],[8.1,54.08],[7.74,54.0],[7.47,54.13],[7.11,54.05],[7.02,53.84],[6.66,53.76],[6.39,53.89],[6.04,53.81],[5.95,53.6],[5.6,53.51],[5.33,53.64],[4.98,53.55],[4.9,53.34],[4.56,53.26],[4.48,53.05],[4.15,53.01],[4.07,52.8],[4.33,52.63],[4.25,52.42],[3.93,52.38],[3.85,52.16],[3.53,52.12],[3.45,51.91],[3.13,51.86],[3.06,51.64],[2.74,51.6],[2.67,51.38],[2.35,51.33],[2.28,51.11],[1.96,51.06],[1.7,51.22],[1.77,51.44],[1.51,51.61],[1.57,51.82],[1.9,51.87],[1.97,52.09],[1.7,52.25],[1.77,52.47],[2.1,52.52],[2.17,52.73],[1.91,52.89],[1.57,52.84],[1.31,53.01],[0.97,52.95],[0.7,53.12],[0.36,53.06],[0.09,53.22],[0.15,53.44],[-0.13,53.6],[-0.06,53.81],[-0.35,53.97],[-0.28,54.19],[-0.57,54.35],[-0.51,54.56],[-0.79,54.72],[-1.14,54.66],[-1.43,54.82],[-1.37,55.03],[-1.67,55.19],[-1.61,55.4],[-1.25,55.46],[-1.19,55.67],[-1.49,55.82],[-1.85,55.77],[-2.15,55.92],[-2.09,56.13],[-2.4,56.29],[-2.34,56.5],[-1.98,56.55],[-1.92,56.76],[-2.22,56.92],[-2.17,57.12],[-1.8,57.18],[-1.74,57.38],[-1.37,57.43],[-1.3,57.64],[-1.61,57.79],[-1.99,57.74],[-2.3,57.9],[-2.68,57.84],[-3.0,58.0],[-3.37,57.94],[-3.7,58.09],[-3.64,58.3],[-3.26,58.35],[-3.2,58.56],[-2.82,58.61],[-2.76,58.81],[-2.38,58.87],[-2.32,59.07],[-2.65,59.22],[-3.03,59.17],[-3.09,58.96],[-3.48,58.91],[-3.53,58.71],[-3.91,58.65],[-3.97,58.45],[-4.35,58.39],[-4.68,58.54],[-5.07,58.48],[-5.11,58.27],[-5.5,58.21],[-5.54,58.0],[-5.92,57.94],[-5.97,57.73],[-6.35,57.66],[-6.39,57.45],[-6.06,57.31],[-6.1,57.09],[-5.77,56.95],[-5.82,56.74],[-6.19,56.67],[-6.23,56.46],[-5.9,56.31],[-5.95,56.09],[-6.31,56.03],[-6.35,55.81],[-6.03,55.66],[-5.67,55.73],[-5.35,55.58],[-4.99,55.65],[-4.68,55.5],[-4.72,55.28],[-5.08,55.22],[-5.13,55.0],[-4.82,54.85],[-4.46,54.92],[-4.15,54.77],[-3.8,54.83],[-3.49,54.68],[-3.55,54.46],[-3.25,54.31],[-3.3,54.09],[-3.0,53.94],[-3.05,53.72],[-3.4,53.65],[-3.45,53.44],[-3.8,53.37],[-4.09,53.52],[-4.44,53.46],[-4.49,53.24],[-4.19,53.08],[-4.24,52.86],[-3.94,52.71],[-3.99,52.49],[-4.33,52.42],[-4.37,52.19],[-4.71,52.12],[-4.76,51.9],[-4.47,51.75],[-4.13,51.82],[-3.84,51.66],[-3.89,51.44],[-4.22,51.37],[-4.27,51.14],[-4.6,51.07],[-4.64,50.84],[-4.98,50.77],[-5.02,50.54],[-5.35,50.47],[-5.39,50.24],[-5.1,50.09],[-4.77,50.16],[-4.73,50.39],[-4.4,50.46],[-4.12,50.31],[-3.79,50.38],[-3.74,50.61],[-3.41,50.68],[-3.13,50.52],[-2.81,50.59],[-2.53,50.44],[-2.2,50.5],[-2.15,50.73],[-1.82,50.79],[-1.55,50.64],[-1.23,50.7],[-0.96,50.54],[-0.63,50.6],[-0.57,50.82],[-0.25,50.88],[0.02,50.72],[0.34,50.78],[0.6,50.62],[0.93,50.68],[0.99,50.9],[1.31,50.95],[1.57,50.79],[1.5,50.57],[1.18,50.52],[1.12,50.3],[0.8,50.24],[0.74,50.02],[0.42,49.96],[0.36,49.74],[0.04,49.67],[-0.02,49.45],[-0.33,49.39],[-0.59,49.55],[-0.91,49.49],[-1.18,49.65],[-1.5,49.58],[-1.55,49.35],[-1.29,49.19],[-1.34,48.97],[-1.66,48.9],[-1.71,48.67],[-2.03,48.61],[-2.29,48.76],[-2.61,48.69],[-2.66,48.46],[-2.97,48.39],[-3.24,48.55],[-3.2,48.78],[-3.47,48.93],[-3.79,48.86],[-3.83,48.63],[-4.15,48.55],[-4.43,48.71],[-4.75,48.63],[-4.79,48.4],[-4.51,48.24],[-4.56,48.01],[-4.28,47.86],[-3.97,47.94],[-3.7,47.78],[-3.38,47.86],[-3.12,47.7],[-3.16,47.47],[-2.9,47.31],[-2.59,47.39],[-2.33,47.23],[-2.37,47.0],[-2.11,46.84],[-2.16,46.61],[-1.91,46.45],[-1.6,46.52],[-1.35,46.36],[-1.4,46.13],[-1.15,45.97],[-1.2,45.74],[-0.95,45.58],[-1.0,45.35],[-1.3,45.28],[-1.35,45.05],[-1.11,44.89],[-1.16,44.66],[-0.91,44.5],[-0.96,44.26],[-1.26,44.19],[-1.31,43.95],[-1.06,43.8],[-1.11,43.56],[-1.41,43.49],[-1.45,43.25],[-1.75,43.17],[-1.99,43.33],[-2.28,43.25],[-2.53,43.41],[-2.82,43.33],[-3.07,43.48],[-3.36,43.4],[-3.61,43.56],[-3.91,43.47],[-3.95,43.23],[-4.24,43.15],[-4.28,42.91],[-4.58,42.82],[-4.83,42.97],[-5.13,42.89],[-5.16,42.65],[-5.46,42.56],[-5.71,42.71],[-6.01,42.62],[-6.04,42.37],[-5.78,42.22],[-5.82,41.98],[-6.11,41.89],[-6.14,41.65],[-5.89,41.5],[-5.6,41.59],[-5.34,41.44],[-5.38,41.19],[-5.13,41.04],[-4.84,41.13],[-4.6,40.98],[-4.31,41.07],[-4.27,41.31],[-3.98,41.4],[-3.74,41.25],[-3.45,41.33],[-3.41,41.57],[-3.13,41.66],[-2.88,41.5],[-2.93,41.27],[-3.21,41.18],[-3.25,40.94],[-3.54,40.85],[-3.58,40.61],[-3.86,40.53],[-4.1,40.68],[-4.39,40.59],[-4.43,40.35],[-4.18,40.19],[-3.9,40.28],[-3.66,40.13],[-3.38,40.22],[-3.34,40.46],[-3.05,40.55],[-3.01,40.79],[-2.73,40.87],[-2.69,41.11],[-2.4,41.19],[-2.16,41.04],[-1.88,41.12],[-1.65,40.97],[-1.36,41.05],[-1.32,41.28],[-1.03,41.36],[-0.8,41.21],[-0.52,41.28],[-0.47,41.52],[-0.19,41.6],[0.04,41.44],[0.32,41.51],[0.55,41.35],[0.83,41.43],[1.05,41.27],[1.34,41.36],[1.56,41.22],[1.85,41.31],[1.91,41.55],[2.19,41.64],[2.42,41.49],[2.71,41.58],[2.77,41.82],[3.06,41.91],[3.13,42.14],[3.42,42.23],[3.48,42.46],[3.25,42.6],[3.31,42.84],[3.08,42.98],[3.14,43.21],[3.44,43.3],[3.67,43.16],[3.97,43.25],[4.04,43.48],[4.34,43.56],[4.57,43.42],[4.51,43.19],[4.74,43.04],[5.04,43.13],[5.28,42.98],[5.58,43.06],[5.82,42.92],[6.12,43.0],[6.35,42.85],[6.66,42.93],[6.74,43.16],[7.05,43.24],[7.12,43.48],[7.43,43.56],[7.51,43.79],[7.82,43.87],[7.9,44.1],[8.22,44.17],[8.3,44.4],[8.62,44.48],[8.85,44.33],[9.17,44.4],[9.41,44.25],[9.73,44.32],[9.97,44.17],[10.29,44.24],[10.38,44.47],[10.7,44.54],[10.94,44.38],[11.26,44.45],[11.5,44.29],[11.82,44.36],[12.06,44.2],[12.39,44.27],[12.48,44.5],[12.24,44.66],[12.34,44.89],[12.1,45.05],[12.2,45.28],[12.53,45.34],[12.63,45.57],[12.96,45.64],[13.2,45.47],[13.53,45.54],[13.77,45.38],[13.67,45.15],[13.9,44.98],[13.8,44.76],[14.04,44.59],[14.37,44.65],[14.6,44.49],[14.93,44.55],[15.17,44.38],[15.5,44.44],[15.6,44.66],[15.94,44.72],[16.17,44.55],[16.51,44.61],[16.74,44.44],[17.07,44.49],[17.3,44.32],[17.64,44.37],[17.87,44.19],[18.2,44.24],[18.43,44.07],[18.77,44.12],[18.99,43.94],[19.33,43.99],[19.55,43.81],[19.89,43.85],[20.11,43.67],[20.45,43.72],[20.67,43.54],[21.01,43.58],[21.22,43.4],[21.56,43.44],[21.68,43.66],[22.02,43.7],[22.24,43.52],[22.58,43.56],[22.79,43.37],[23.13,43.41],[23.34,43.22],[23.68,43.25],[23.89,43.06],[24.23,43.1],[24.36,43.32],[24.7,43.35],[24.91,43.16],[25.25,43.19],[25.38,43.41],[25.71,43.44],[25.92,43.25],[26.26,43.28],[26.39,43.5],[26.73,43.52],[26.87,43.74],[27.21,43.77],[27.34,43.99],[27.68,44.01],[27.89,43.81],[28.23,43.84],[28.43,43.64],[28.77,43.66],[28.91,43.88],[28.71,44.07],[28.85,44.29],[29.19,44.3],[29.33,44.52],[29.67,44.53],[29.81,44.75],[29.61,44.94],[29.27,44.93],[29.06,45.12],[29.21,45.33],[29.0,45.53],[28.66,45.51],[28.45,45.7],[28.59,45.91],[28.38,46.1],[28.53,46.31],[28.88,46.33],[29.02,46.54],[29.37,46.56],[29.52,46.77],[29.87,46.78],[30.07,46.59],[30.42,46.6],[30.63,46.41],[30.48,46.2],[30.13,46.19],[29.98,45.98],[29.64,45.96],[29.49,45.75],[29.7,45.56],[29.55,45.35],[29.75,45.15],[30.1,45.17],[30.24,45.38],[30.04,45.57],[30.19,45.78],[30.53,45.8],[30.68,46.0],[31.03,46.02],[31.18,46.22],[31.52,46.23],[31.72,46.04],[32.07,46.04],[32.26,45.85],[32.11,45.64],[32.31,45.44],[32.16,45.24],[32.35,45.04],[32.7,45.05],[32.85,45.25],[33.19,45.26],[33.38,45.06],[33.23,44.85],[33.42,44.65],[33.27,44.44],[33.46,44.24],[33.79,44.25],[33.94,44.45],[34.28,44.46],[34.43,44.66],[34.77,44.66],[34.92,44.86],[35.26,44.86],[35.41,45.07],[35.75,45.06],[35.93,44.86],[36.27,44.86],[36.42,45.06],[36.76,45.05],[36.93,44.85],[37.27,44.84],[37.44,44.64],[37.78,44.63],[37.95,44.42],[38.28,44.42],[38.45,44.21],[38.78,44.2],[38.95,43.99],[39.27,43.98],[39.44,43.77],[39.76,43.76],[39.93,43.55],[40.25,43.54],[40.41,43.73],[40.24,43.94],[40.4,44.14],[40.73,44.12],[40.89,43.91],[41.21,43.9],[41.37,43.69],[41.68,43.68],[41.83,43.88],[42.15,43.87],[42.31,44.08],[42.62,44.07],[42.78,44.27],[42.63,44.49],[42.31,44.49],[42.15,44.71],[42.31,44.91],[42.15,45.12],[41.83,45.13],[41.67,44.92],[41.83,44.71],[41.67,44.51],[41.36,44.51],[41.19,44.72],[40.88,44.73],[40.73,44.52],[40.4,44.54],[40.24,44.75],[39.91,44.76],[39.75,44.57],[39.42,44.58],[39.26,44.38],[38.94,44.4],[38.77,44.6],[38.44,44.61],[38.26,44.82],[37.93,44.83],[37.76,45.03],[37.43,45.04],[37.25,45.25],[37.41,45.44],[37.74,45.44],[37.9,45.63],[38.24,45.62],[38.4,45.82],[38.22,46.02],[38.38,46.21],[38.21,46.42],[38.37,46.61],[38.71,46.6],[38.87,46.79],[39.19,46.79],[39.34,47.0],[39.17,47.21],[39.32,47.42],[39.65,47.42],[39.82,47.21],[40.15,47.22],[40.31,47.43],[40.64,47.43],[40.8,47.64],[41.13,47.64],[41.3,47.85],[41.64,47.84],[41.8,48.05],[42.14,48.05],[42.31,48.26],[42.66,48.26],[42.83,48.46],[43.18,48.46],[43.36,48.67],[43.7,48.66],[43.89,48.87],[44.24,48.86],[44.42,49.07],[44.78,49.06],[44.97,49.27],[45.32,49.26],[45.52,49.47],[45.88,49.46],[46.08,49.66],[46.44,49.65],[46.64,49.86],[47.0,49.84],[47.21,50.05],[47.58,50.03],[47.79,50.24],[48.16,50.22],[48.37,50.42],[48.74,50.4],[48.96,50.61],[49.34,50.59],[49.56,50.79],[49.94,50.77],[50.09,50.54],[50.47,50.52],[50.69,50.72],[51.07,50.69],[51.3,50.89],[51.69,50.86],[51.92,51.06],[52.31,51.03],[52.45,50.8],[52.83,50.77],[53.08,50.97],[53.46,50.93],[53.71,51.13],[54.09,51.1],[54.34,51.29],[54.73,51.25],[54.87,51.02],[55.25,50.98],[55.51,51.17],[55.9,51.13],[56.03,50.89],[56.41,50.85],[56.67,51.04],[57.06,50.99],[57.19,50.76],[57.57,50.71],[57.7,50.47],[58.08,50.42],[58.35,50.61],[58.23,50.85],[58.5,51.04],[58.38,51.28],[58.65,51.46],[59.04,51.41],[59.16,51.17],[59.55,51.11],[59.82,51.3],[60.22,51.24],[60.33,51.0],[60.72,50.94],[61.0,51.13],[60.89,51.37],[61.17,51.55],[61.57,51.49],[61.85,51.67],[62.25,51.61],[62.54,51.79],[62.93,51.72],[63.23,51.9],[63.13,52.15],[63.43,52.33],[63.83,52.26],[64.13,52.43],[64.53,52.36],[64.83,52.54],[65.23,52.46],[65.32,52.22],[65.72,52.14],[66.03,52.31],[66.43,52.23],[66.51,51.99],[66.9,51.91],[66.98,51.66],[67.37,51.58],[67.69,51.74],[68.08,51.66],[68.39,51.83],[68.78,51.74],[69.1,51.9],[69.49,51.82],[69.81,51.98],[70.2,51.89],[70.26,51.63],[70.65,51.54],[70.71,51.29],[71.09,51.2],[71.41,51.35],[71.35,51.61],[71.68,51.76],[72.06,51.67],[72.12,51.41],[71.79,51.26],[71.85,51.01],[72.23,50.91],[72.28,50.65],[72.65,50.55],[72.7,50.3],[73.07,50.2],[73.4,50.35],[73.76,50.25],[73.81,50.0],[74.17,49.89],[74.5,50.04],[74.86,49.94],[74.9,49.68],[74.58,49.53],[74.22,49.64],[73.9,49.49],[73.94,49.23],[73.62,49.08],[73.67,48.82],[74.02,48.72],[74.07,48.46],[74.42,48.36],[74.74,48.51],[75.09,48.4],[75.41,48.55],[75.76,48.44],[76.08,48.59],[76.43,48.48],[76.75,48.62],[77.09,48.51],[77.42,48.65],[77.76,48.54],[78.09,48.68],[78.43,48.56],[78.76,48.7],[79.1,48.58],[79.12,48.32],[79.46,48.2],[79.78,48.34],[79.77,48.6],[79.43,48.72],[79.41,48.97],[79.74,49.11],[80.08,48.99],[80.41,49.12],[80.76,49.0],[81.09,49.13],[81.43,49.0],[81.76,49.13],[82.1,49.0],[82.43,49.13],[82.76,49.0],[83.1,49.13],[83.43,49.0],[83.77,49.12],[83.77,49.37],[84.11,49.5],[84.44,49.36],[84.43,49.11],[84.1,48.99],[84.09,48.73],[84.42,48.6],[84.75,48.72],[84.76,48.97],[85.1,49.09],[85.42,48.96],[85.76,49.07],[85.78,49.33],[85.45,49.47],[85.46,49.72],[85.14,49.85],[85.15,50.11],[85.49,50.23],[85.82,50.09],[86.17,50.2],[86.5,50.06],[86.84,50.18],[86.86,50.43],[87.21,50.54],[87.24,50.79],[86.91,50.93],[86.93,51.18],[86.6,51.32],[86.62,51.58],[86.97,51.69],[87.31,51.54],[87.28,51.29],[87.61,51.15],[87.97,51.26],[88.0,51.51],[88.35,51.62],[88.38,51.87],[88.74,51.97],[88.78,52.22],[89.14,52.32],[89.47,52.18],[89.83,52.28],[89.87,52.52],[90.23,52.62],[90.56,52.47],[90.93,52.57],[91.25,52.42],[91.61,52.51],[91.66,52.76],[92.03,52.85],[92.35,52.7],[92.71,52.79],[92.77,53.03],[93.14,53.12],[93.45,52.97],[93.82,53.05],[93.88,53.3],[94.25,53.38],[94.31,53.62],[94.69,53.7],[94.75,53.95],[94.44,54.11],[94.06,54.02],[93.74,54.18],[93.8,54.42],[93.48,54.58],[93.1,54.5],[92.77,54.65],[92.82,54.9],[93.21,54.98],[93.27,55.22],[92.94,55.38],[92.99,55.62],[93.39,55.71],[93.72,55.55],[94.11,55.63],[94.44,55.47],[94.37,55.23],[94.7,55.07],[95.08,55.15],[95.4,54.99],[95.79,55.07],[95.86,55.3],[96.25,55.38],[96.32,55.62],[96.0,55.78],[96.08,56.02],[96.47,56.09],[96.79,55.93],[97.18,56.0],[97.26,56.23],[96.95,56.4],[96.55,56.33],[96.23,56.49],[95.83,56.42],[95.5,56.58],[95.1,56.51],[95.03,56.27],[94.64,56.19],[94.3,56.35],[94.37,56.59],[94.03,56.75],[94.1,56.99],[93.76,57.15],[93.82,57.39],[93.48,57.54],[93.07,57.46],[93.01,57.22],[92.6,57.14],[92.25,57.3],[92.3,57.54],[91.95,57.69],[91.54,57.6],[91.18,57.76],[90.76,57.67],[90.4,57.82],[90.44,58.06],[90.07,58.21],[89.66,58.12],[89.28,58.27],[88.87,58.17],[88.49,58.32]],[[-2.8,41.98],[-3.08,41.9],[-3.33,42.05],[-3.28,42.29],[-3.0,42.38],[-2.75,42.22],[-2.46,42.3],[-2.22,42.15],[-2.27,41.91],[-2.55,41.83],[-2.8,41.98]],[[75.77,50.89],[75.74,51.14],[75.37,51.25],[75.33,51.51],[74.96,51.61],[74.62,51.46],[74.24,51.57],[74.2,51.82],[73.82,51.93],[73.78,52.18],[73.39,52.28],[73.06,52.13],[73.11,51.88],[72.78,51.72],[72.39,51.82],[72.34,52.08],[72.67,52.23],[72.62,52.48],[72.96,52.64],[73.34,52.54],[73.68,52.69],[74.07,52.58],[74.41,52.73],[74.79,52.63],[75.14,52.77],[75.52,52.67],[75.56,52.41],[75.94,52.3],[76.28,52.45],[76.66,52.34],[77.0,52.48],[77.38,52.36],[77.41,52.11],[77.78,52.0],[78.13,52.13],[78.5,52.02],[78.84,52.15],[79.21,52.03],[79.23,51.78],[79.59,51.66],[79.61,51.4],[79.26,51.27],[79.28,51.02],[79.64,50.9],[79.65,50.64],[80.01,50.52],[80.35,50.65],[80.7,50.53],[80.71,50.27],[80.37,50.14],[80.02,50.26],[79.68,50.13],[79.7,49.87],[79.36,49.74],[79.01,49.86],[78.99,50.11],[78.64,50.23],[78.31,50.1],[77.95,50.21],[77.93,50.47],[77.57,50.58],[77.23,50.44],[76.87,50.55],[76.84,50.81],[76.48,50.92],[76.14,50.78],[75.77,50.89]],[[88.73,54.6],[89.08,54.45],[89.46,54.55],[89.8,54.4],[89.77,54.16],[90.1,54.01],[90.06,53.76],[89.69,53.66],[89.35,53.81],[88.98,53.71],[88.63,53.86],[88.67,54.11],[88.32,54.25],[88.35,54.5],[88.0,54.64],[88.03,54.89],[88.42,54.99],[88.45,55.24],[88.84,55.34],[89.19,55.19],[89.15,54.95],[88.77,54.85],[88.73,54.6]],[[2.08,42.24],[1.85,42.38],[1.56,42.29],[1.33,42.43],[1.05,42.36],[0.82,42.52],[0.53,42.45],[0.3,42.61],[0.02,42.53],[-0.21,42.69],[-0.5,42.62],[-0.74,42.78],[-0.69,43.01],[-0.4,43.09],[-0.16,42.93],[0.12,43.0],[0.36,42.84],[0.64,42.91],[0.87,42.75],[1.16,42.82],[1.38,42.66],[1.67,42.76],[1.91,42.62],[2.2,42.71],[2.43,42.57],[2.37,42.34],[2.08,42.24]],[[33.68,45.47],[33.34,45.46],[33.15,45.66],[33.3,45.86],[33.64,45.87],[33.79,46.07],[33.6,46.27],[33.26,46.27],[33.1,46.06],[32.76,46.06],[32.56,46.26],[32.22,46.25],[32.02,46.45],[32.17,46.65],[32.52,46.66],[32.72,46.46],[33.06,46.46],[33.22,46.67],[33.56,46.67],[33.72,46.87],[34.07,46.87],[34.26,46.67],[34.6,46.67],[34.76,46.87],[35.11,46.87],[35.26,47.07],[35.61,47.07],[35.77,47.26],[36.11,47.26],[36.27,47.45],[36.62,47.44],[36.8,47.24],[37.15,47.24],[37.33,47.03],[37.17,46.84],[36.83,46.85],[36.64,47.05],[36.3,47.06],[36.14,46.86],[35.8,46.87],[35.64,46.67],[35.29,46.67],[35.14,46.47],[34.79,46.47],[34.64,46.27],[34.82,46.07],[34.67,45.87],[34.86,45.67],[34.7,45.47],[34.89,45.27],[34.74,45.07],[34.4,45.07],[34.21,45.27],[33.87,45.27],[33.68,45.47]],[[25.03,59.79],[25.13,60.01],[25.5,60.07],[25.77,59.92],[25.67,59.7],[25.3,59.64],[25.03,59.79]],[[12.08,54.67],[12.19,54.87],[12.57,54.94],[12.68,55.14],[13.06,55.2],[13.33,55.06],[13.72,55.12],[13.83,55.32],[14.22,55.38],[14.49,55.24],[14.37,55.04],[14.64,54.9],[15.03,54.96],[15.29,54.82],[15.68,54.87],[15.8,55.07],[15.53,55.21],[15.65,55.41],[15.39,55.55],[15.0,55.5],[14.72,55.64],[14.84,55.83],[15.24,55.89],[15.51,55.75],[15.9,55.8],[16.02,56.0],[16.42,56.05],[16.54,56.25],[16.94,56.3],[17.07,56.49],[16.8,56.63],[16.93,56.82],[17.33,56.87],[17.46,57.06],[17.19,57.2],[17.32,57.39],[17.04,57.53],[17.18,57.72],[16.9,57.86],[17.03,58.05],[17.44,58.1],[17.58,58.28],[17.3,58.42],[17.43,58.61],[17.85,58.65],[17.99,58.84],[18.4,58.88],[18.68,58.74],[19.1,58.78],[19.25,58.97],[18.97,59.11],[19.11,59.29],[19.53,59.33],[19.68,59.51],[20.1,59.55],[20.25,59.72],[20.68,59.76],[20.96,59.62],[21.39,59.65],[21.66,59.51],[22.09,59.54],[22.37,59.4],[22.21,59.22],[21.79,59.19],[21.64,59.01],[21.91,58.86],[21.76,58.69],[21.33,58.65],[21.19,58.47],[21.46,58.32],[21.31,58.14],[21.58,57.99],[21.43,57.81],[21.7,57.66],[21.55,57.48],[21.14,57.44],[20.99,57.26],[21.26,57.11],[21.11,56.92],[20.71,56.88],[20.56,56.7],[20.83,56.55],[20.69,56.36],[20.95,56.2],[20.81,56.01],[21.07,55.86],[20.93,55.67],[20.53,55.63],[20.39,55.44],[20.65,55.29],[20.51,55.09],[20.12,55.05],[19.86,55.21],[19.46,55.16],[19.33,54.97],[19.59,54.82],[19.45,54.62],[19.06,54.58],[18.8,54.73],[18.94,54.92],[18.67,55.08],[18.28,55.03],[18.02,55.18],[17.63,55.13],[17.5,54.93],[17.11,54.88],[16.98,54.69],[16.6,54.63],[16.33,54.78],[15.95,54.73],[15.82,54.53],[15.44,54.47],[15.32,54.27],[14.94,54.22],[14.67,54.36],[14.29,54.3],[14.03,54.44],[14.14,54.64],[13.87,54.78],[13.49,54.72],[13.22,54.86],[12.84,54.8],[12.73,54.6],[12.35,54.53],[12.08,54.67]],[[26.8,59.88],[26.42,59.82],[26.15,59.98],[26.26,60.2],[26.64,60.26],[26.91,60.1],[26.8,59.88]],[[36.89,45.65],[36.71,45.86],[36.37,45.86],[36.22,45.66],[35.88,45.67],[35.72,45.47],[35.38,45.47],[35.2,45.67],[35.35,45.87],[35.17,46.07],[35.32,46.27],[35.67,46.27],[35.82,46.47],[36.17,46.46],[36.32,46.66],[36.67,46.65],[36.85,46.45],[37.19,46.45],[37.35,46.64],[37.69,46.63],[37.87,46.43],[37.71,46.23],[37.88,46.03],[37.72,45.84],[37.39,45.84],[37.23,45.65],[36.89,45.65]],[[7.82,45.54],[7.74,45.31],[7.43,45.24],[7.35,45.01],[7.03,44.93],[6.95,44.7],[7.19,44.55],[7.11,44.32],[6.8,44.24],[6.56,44.39],[6.64,44.62],[6.4,44.76],[6.09,44.68],[5.85,44.83],[5.92,45.05],[6.24,45.14],[6.31,45.37],[6.63,45.45],[6.7,45.68],[6.46,45.82],[6.54,46.05],[6.86,46.13],[7.1,45.98],[7.42,46.06],[7.5,46.29],[7.83,46.37],[7.91,46.6],[8.23,46.67],[8.32,46.9],[8.65,46.98],[8.89,46.83],[9.22,46.91],[9.46,46.76],[9.8,46.83],[9.88,47.05],[10.22,47.13],[10.46,46.98],[10.8,47.05],[11.04,46.89],[10.95,46.67],[11.19,46.52],[11.1,46.29],[10.76,46.22],[10.67,45.99],[10.34,45.92],[10.1,46.08],[9.77,46.0],[9.53,46.15],[9.2,46.08],[8.96,46.23],[8.64,46.15],[8.39,46.3],[8.07,46.22],[7.99,46.0],[8.23,45.85],[8.15,45.62],[7.82,45.54]],[[20.63,62.51],[20.56,62.3],[20.86,62.16],[20.78,61.95],[21.08,61.81],[21.01,61.6],[21.3,61.46],[21.22,61.25],[20.86,61.17],[20.79,60.95],[20.44,60.88],[20.29,60.7],[19.85,60.67],[19.7,60.49],[19.27,60.45],[18.98,60.59],[18.55,60.55],[18.26,60.68],[18.4,60.85],[18.11,60.99],[17.67,60.94],[17.38,61.07],[17.52,61.25],[17.23,61.38],[17.37,61.55],[17.81,61.59],[17.95,61.77],[17.66,61.89],[17.8,62.07],[18.15,62.15],[18.21,62.36],[18.56,62.45],[18.62,62.66],[18.98,62.74],[19.04,62.96],[19.41,63.04],[19.48,63.25],[19.85,63.34],[19.92,63.55],[20.3,63.63],[20.62,63.5],[20.54,63.29],[20.85,63.15],[20.78,62.94],[21.08,62.81],[21.0,62.59],[20.63,62.51]],[[10.3,62.69],[10.74,62.75],[11.05,62.64],[10.93,62.47],[10.5,62.4],[10.38,62.23],[9.95,62.16],[9.84,61.98],[8.68,61.95],[8.57,61.77],[8.88,61.67],[8.78,61.49],[9.08,61.38],[8.98,61.2],[8.56,61.13],[8.46,60.95],[8.04,60.87],[7.94,60.69],[8.25,60.58],[8.14,60.4],[8.45,60.29],[8.34,60.1],[7.94,60.03],[7.64,60.14],[7.27,60.12],[7.17,59.93],[6.8,59.91],[6.52,60.08],[6.62,60.27],[6.99,60.29],[7.09,60.47],[7.47,60.49],[7.57,60.67],[7.29,60.84],[7.39,61.02],[7.77,61.04],[7.87,61.22],[7.6,61.38],[7.7,61.57],[7.42,61.73],[7.03,61.71],[6.74,61.88],[6.84,62.06],[7.24,62.08],[7.34,62.25],[7.73,62.27],[7.84,62.45],[8.23,62.46],[8.34,62.64],[8.73,62.65],[8.84,62.82],[9.23,62.83],[9.55,62.72],[9.99,62.79],[10.3,62.69]],[[23.51,57.97],[23.93,58.0],[24.19,57.84],[24.03,57.66],[24.29,57.51],[24.14,57.33],[23.72,57.3],[23.46,57.45],[23.62,57.63],[23.36,57.79],[23.51,57.97]],[[11.18,56.85],[11.07,56.65],[10.69,56.58],[10.4,56.71],[10.51,56.91],[10.9,56.98],[11.01,57.17],[11.4,57.24],[11.68,57.11],[12.07,57.17],[12.36,57.05],[12.24,56.85],[12.52,56.72],[12.41,56.53],[12.02,56.46],[11.91,56.27],[11.52,56.2],[11.42,56.0],[11.03,55.93],[10.75,56.06],[10.86,56.26],[11.25,56.33],[11.35,56.52],[11.74,56.59],[11.85,56.79],[11.57,56.92],[11.18,56.85]],[[11.95,46.88],[12.05,47.1],[12.39,47.17],[12.63,47.01],[12.53,46.79],[12.2,46.72],[11.95,46.88]],[[12.81,62.89],[12.37,62.83],[12.24,62.66],[11.8,62.6],[11.49,62.71],[11.61,62.88],[12.05,62.94],[12.18,63.11],[12.62,63.17],[12.94,63.06],[12.81,62.89]],[[43.78,61.99],[44.26,62.0],[44.49,61.8],[44.24,61.6],[43.76,61.59],[43.52,61.38],[43.05,61.36],[42.82,61.56],[43.06,61.77],[43.53,61.78],[43.78,61.99]]],[[[17.87,57.11],[18.14,56.97],[18.01,56.78],[18.28,56.63],[18.68,56.68],[18.81,56.87],[18.54,57.01],[18.68,57.2],[19.09,57.25],[19.23,57.43],[18.95,57.58],[19.09,57.76],[19.51,57.81],[19.65,57.99],[19.37,58.13],[19.51,58.32],[19.24,58.46],[18.82,58.42],[18.68,58.23],[18.27,58.19],[18.13,58.0],[18.41,57.86],[18.27,57.68],[17.86,57.63],[17.73,57.44],[18.0,57.3],[17.87,57.11]]],[[[95.45,51.37],[95.51,51.61],[95.22,51.77],[94.86,51.69],[94.56,51.85],[94.2,51.76],[93.9,51.92],[93.54,51.83],[93.48,51.59],[93.78,51.43],[93.73,51.18],[94.03,51.03],[94.38,51.11],[94.68,50.96],[95.03,51.04],[95.32,50.88],[95.67,50.96],[95.74,51.21],[95.45,51.37]]],[[[37.4,65.43],[36.9,65.39],[36.68,65.18],[36.96,65.01],[37.46,65.04],[37.69,65.26],[37.4,65.43]]],[[[-6.64,58.02],[-6.26,58.08],[-6.22,58.29],[-6.56,58.43],[-6.94,58.37],[-6.98,58.16],[-6.64,58.02]]],[[[102.76,53.86],[102.66,53.63],[102.29,53.57],[102.02,53.74],[102.12,53.97],[101.85,54.15],[101.48,54.09],[101.38,53.86],[101.01,53.8],[100.92,53.57],[101.19,53.39],[101.56,53.45],[101.83,53.28],[101.73,53.05],[102.0,52.88],[102.36,52.93],[102.62,52.76],[102.52,52.53],[102.78,52.36],[103.14,52.41],[103.39,52.24],[103.74,52.29],[103.99,52.12],[103.89,51.89],[104.14,51.71],[104.04,51.49],[104.28,51.31],[104.62,51.36],[104.73,51.59],[105.07,51.64],[105.31,51.47],[105.66,51.52],[105.77,51.74],[106.11,51.79],[106.22,52.01],[106.57,52.06],[106.68,52.28],[107.03,52.33],[107.15,52.55],[107.5,52.59],[107.61,52.81],[107.96,52.85],[108.09,53.07],[107.86,53.26],[107.5,53.22],[107.38,52.99],[107.03,52.95],[106.91,52.73],[106.56,52.69],[106.45,52.46],[106.1,52.42],[105.99,52.19],[105.64,52.14],[105.53,51.92],[105.18,51.87],[104.94,52.05],[105.05,52.27],[104.8,52.45],[104.91,52.68],[104.67,52.85],[104.31,52.8],[104.06,52.98],[104.16,53.21],[103.91,53.38],[104.02,53.61],[103.76,53.79],[103.39,53.73],[103.13,53.91],[102.76,53.86]]],[[[41.29,65.86],[41.56,66.06],[42.1,66.09],[42.37,66.29],[42.09,66.47],[41.55,66.45],[41.28,66.24],[40.74,66.22],[40.49,66.01],[40.76,65.83],[41.29,65.86]]],[[[16.98,43.63],[16.75,43.81],[16.42,43.75],[16.19,43.92],[15.85,43.87],[15.75,43.64],[15.98,43.47],[16.31,43.52],[16.54,43.35],[16.87,43.4],[16.98,43.63]]],[[[-1.09,60.55],[-1.48,60.51],[-1.55,60.31],[-1.22,60.16],[-0.83,60.2],[-0.76,60.4],[-1.09,60.55]]],[[[37.91,63.71],[38.39,63.74],[38.61,63.95],[38.34,64.13],[38.57,64.34],[38.3,64.52],[37.8,64.48],[37.52,64.66],[37.03,64.62],[36.82,64.41],[36.33,64.37],[36.05,64.54],[35.56,64.5],[35.27,64.67],[35.48,64.89],[35.97,64.93],[36.18,65.14],[35.89,65.31],[35.39,65.27],[35.19,65.06],[34.7,65.01],[34.5,64.8],[34.79,64.63],[34.59,64.42],[34.88,64.25],[35.36,64.29],[35.64,64.12],[36.12,64.16],[36.4,63.99],[36.2,63.77],[36.47,63.6],[36.95,63.64],[37.15,63.85],[36.88,64.02],[37.09,64.24],[37.58,64.27],[37.85,64.1],[37.64,63.88],[37.91,63.71]]],[[[90.4,51.48],[90.04,51.38],[90.0,51.13],[90.32,50.98],[90.67,51.08],[90.99,50.93],[91.34,51.03],[91.39,51.28],[91.74,51.37],[92.05,51.22],[92.41,51.31],[92.71,51.16],[93.07,51.25],[93.12,51.5],[92.82,51.65],[92.46,51.56],[92.15,51.71],[91.79,51.62],[91.48,51.77],[91.12,51.68],[91.07,51.43],[90.71,51.33],[90.4,51.48]]],[[[-5.24,40.32],[-5.27,40.07],[-5.03,39.92],[-4.75,40.01],[-4.71,40.26],[-4.95,40.41],[-5.24,40.32]]],[[[35.3,65.65],[35.01,65.81],[35.21,66.03],[34.91,66.19],[34.4,66.14],[34.2,65.93],[34.5,65.77],[34.3,65.56],[34.6,65.39],[35.1,65.44],[35.3,65.65]]],[[[14.48,67.9],[14.59,67.71],[15.12,67.63],[15.53,67.74],[15.43,67.92],[14.9,68.0],[14.48,67.9]]],[[[-5.68,42.95],[-5.38,43.04],[-5.35,43.28],[-5.61,43.43],[-5.9,43.34],[-5.94,43.1],[-5.68,42.95]]],[[[13.9,67.33],[14.01,67.15],[14.52,67.07],[14.92,67.17],[14.81,67.35],[14.3,67.43],[13.9,67.33]]],[[[38.86,66.3],[38.33,66.27],[38.04,66.44],[37.51,66.4],[37.28,66.19],[37.57,66.02],[38.09,66.06],[38.38,65.88],[38.9,65.92],[39.14,66.13],[38.86,66.3]]],[[[25.34,65.56],[25.46,65.78],[25.13,65.92],[24.68,65.84],[24.57,65.63],[24.89,65.49],[24.78,65.28],[25.1,65.13],[24.98,64.92],[25.3,64.78],[25.74,64.85],[25.86,65.06],[25.54,65.21],[25.66,65.42],[25.34,65.56]]],[[[95.24,56.98],[95.32,57.22],[94.98,57.38],[94.57,57.3],[94.5,57.07],[94.84,56.91],[95.24,56.98]]],[[[-6.48,55.16],[-6.84,55.09],[-6.88,54.87],[-6.56,54.72],[-6.6,54.5],[-6.28,54.36],[-5.93,54.43],[-5.88,54.65],[-6.2,54.79],[-6.16,55.01],[-6.48,55.16]]],[[[40.01,65.21],[39.77,65.0],[40.04,64.82],[40.55,64.85],[40.8,65.05],[40.53,65.24],[40.01,65.21]]],[[[27.55,42.75],[27.88,42.77],[28.02,42.99],[27.82,43.18],[27.48,43.16],[27.35,42.94],[27.55,42.75]]]]}}]}