{"type":"FeatureCollection","features":[{"type":"Feature","properties":{},"geometry":{"type":"MultiPolygon","coordinates":[[[[152.27,58.31],[153.26,58.97],[154.9,58.86],[155.89,59.27],[155.97,59.5],[154.76,59.72],[154.84,59.95],[157.71,61.56],[159.48,61.39],[160.2,60.19],[161.65,60.39],[157.5,58.04],[156.27,58.03],[156.45,57.42],[155.51,57.03],[155.78,56.65],[155.29,56.34],[155.55,55.97],[155.0,55.43],[155.58,54.92],[155.05,54.39],[156.4,52.39],[155.85,51.85],[156.32,51.32],[155.23,51.08],[155.42,50.7],[154.89,50.15],[155.8,49.93],[158.93,51.84],[158.68,52.84],[160.22,53.12],[160.05,53.5],[160.67,54.01],[160.49,54.39],[162.26,54.26],[162.22,54.86],[162.75,55.14],[161.76,55.4],[161.88,55.62],[163.54,55.85],[163.51,56.45],[164.08,56.73],[163.05,57.0],[163.76,57.51],[163.28,58.07],[162.51,58.17],[162.65,58.4],[163.87,58.35],[165.09,58.9],[165.09,59.52],[166.36,59.44],[168.53,60.46],[170.19,59.75],[170.88,60.0],[168.92,60.91],[167.54,60.38],[165.92,60.66],[164.61,60.1],[163.31,60.17],[162.68,59.88],[162.73,59.25],[161.67,58.9],[161.74,58.28],[160.72,57.92],[160.81,57.31],[159.83,56.95],[159.93,56.34],[157.98,55.39],[158.21,55.02],[157.72,54.72],[157.84,54.13],[157.45,54.05],[156.93,54.57],[157.49,55.09],[157.02,55.83],[160.05,57.4],[159.95,58.02],[160.51,58.31],[160.29,58.7],[160.87,59.0],[160.66,59.4],[164.26,60.91],[164.25,61.55],[164.93,61.83],[164.58,62.01],[165.45,62.52],[164.21,62.83],[162.98,62.48],[163.03,61.84],[161.08,60.96],[160.22,61.06],[160.99,61.59],[160.37,62.17],[155.92,61.71],[156.13,61.08],[153.99,60.01],[147.52,60.4],[146.63,59.93],[145.33,60.06],[144.48,59.57],[142.74,60.03],[141.96,59.29],[140.72,59.14],[139.39,57.42],[138.24,57.24],[137.35,56.14],[136.19,56.17],[136.41,56.77],[135.92,57.09],[137.28,57.9],[134.91,57.72],[134.47,56.74],[135.92,55.8],[133.72,55.61],[132.24,54.65],[131.25,55.23],[128.37,55.68],[127.37,55.42],[126.41,55.75],[124.74,55.35],[122.5,55.78],[121.82,55.64],[121.48,55.09],[120.48,55.36],[119.46,54.28],[118.43,54.16],[118.38,53.78],[117.55,53.46],[116.98,53.68],[117.23,54.23],[116.64,54.45],[116.02,54.29],[115.8,53.73],[114.81,53.59],[114.61,53.03],[114.03,53.24],[114.03,53.61],[114.82,53.96],[114.22,54.17],[113.63,53.99],[113.45,53.44],[112.46,53.64],[112.31,53.09],[111.19,52.74],[108.76,52.53],[108.66,52.93],[110.69,53.84],[109.3,54.02],[110.03,54.4],[109.63,55.72],[109.04,55.52],[109.17,54.77],[108.25,54.53],[108.23,53.91],[107.63,54.06],[107.64,54.68],[108.14,54.94],[107.82,55.49],[108.56,55.89],[108.16,56.84],[108.95,57.25],[108.69,57.44],[107.39,57.4],[107.82,56.45],[107.07,56.04],[107.41,55.48],[106.91,55.23],[106.91,54.6],[106.06,54.3],[105.93,54.7],[106.42,54.96],[104.9,55.42],[104.45,56.63],[104.96,56.89],[104.96,57.5],[102.76,57.69],[102.69,58.32],[103.24,58.57],[102.95,58.75],[101.46,58.17],[100.95,58.74],[99.7,58.58],[99.25,59.38],[96.27,58.94],[95.15,59.19],[94.22,58.81],[93.57,59.36],[92.65,58.97],[91.97,59.51],[91.17,59.58],[89.44,61.51],[88.01,60.76],[83.25,60.59],[82.39,61.09],[82.83,61.68],[78.7,62.52],[78.17,63.11],[78.6,63.46],[78.08,63.81],[76.07,64.24],[73.74,63.8],[74.07,64.4],[72.58,64.45],[71.9,65.0],[70.37,65.03],[69.09,65.64],[68.3,65.11],[67.76,65.19],[68.33,66.16],[65.04,66.35],[60.87,64.69],[60.78,64.08],[59.49,63.77],[59.43,63.15],[58.55,63.02],[58.79,64.04],[59.17,64.21],[58.3,64.69],[58.89,65.26],[58.72,65.47],[61.31,66.29],[61.15,66.51],[57.84,66.54],[56.29,67.02],[54.35,66.7],[54.49,67.68],[54.88,67.86],[54.66,68.06],[58.18,68.68],[58.8,68.65],[58.75,68.07],[60.41,68.16],[61.41,69.07],[60.41,69.53],[61.83,69.82],[59.66,70.54],[57.92,70.43],[57.66,71.02],[56.62,71.26],[56.99,71.44],[55.56,71.87],[55.95,72.45],[57.11,72.61],[56.78,73.22],[55.98,73.24],[55.58,73.05],[55.96,72.84],[54.43,72.49],[54.81,72.28],[54.47,71.71],[55.91,71.28],[55.54,70.71],[53.81,70.95],[53.44,71.15],[53.78,71.34],[52.29,71.74],[52.62,71.93],[52.22,72.13],[53.67,72.5],[53.21,73.09],[53.58,73.29],[54.38,73.27],[54.76,73.86],[56.02,74.03],[55.61,74.64],[56.06,74.83],[55.62,75.05],[58.4,75.38],[58.91,75.57],[58.49,75.79],[54.25,75.27],[54.72,75.06],[54.28,74.87],[54.75,74.26],[53.49,74.08],[53.1,73.88],[53.54,73.68],[51.99,73.3],[52.49,72.71],[51.39,72.52],[51.06,72.33],[51.48,72.14],[50.12,71.75],[51.25,71.56],[51.73,70.98],[54.87,70.35],[56.56,70.49],[59.76,69.56],[56.92,68.75],[55.23,69.2],[52.68,69.26],[52.14,68.7],[48.25,67.96],[47.65,67.96],[47.47,68.53],[46.59,68.7],[46.93,68.9],[45.76,69.25],[46.09,69.45],[45.81,69.63],[44.89,69.79],[44.89,70.35],[43.35,70.68],[43.3,71.25],[41.66,71.56],[41.85,71.76],[39.44,72.03],[36.83,73.03],[34.79,73.08],[29.69,74.44],[17.62,75.23],[13.13,75.12],[10.67,74.6],[8.77,74.93],[5.43,74.61],[3.43,74.9],[2.07,74.78],[1.45,74.29],[-1.8,74.02],[-2.08,73.43],[-3.77,73.17],[-3.97,72.58],[-6.47,72.05],[-6.58,71.46],[-8.22,71.53],[-10.09,70.78],[-7.88,70.77],[-8.7,70.51],[-8.91,70.29],[-8.53,70.13],[-9.51,69.64],[-9.13,69.48],[-10.07,68.99],[-9.52,68.45],[-10.41,67.96],[-9.71,67.06],[-10.54,66.57],[-9.57,64.95],[-10.33,64.46],[-10.02,63.73],[-9.0,63.5],[-9.58,63.23],[-9.22,62.9],[-9.68,62.64],[-9.33,62.31],[-9.81,61.85],[-9.08,61.38],[-9.52,61.11],[-9.18,60.78],[-9.62,60.51],[-9.31,59.96],[-10.14,59.61],[-9.8,59.27],[-10.25,58.78],[-9.56,58.29],[-9.97,58.01],[-9.65,57.66],[-10.08,57.15],[-9.42,56.66],[-9.82,56.37],[-9.51,56.01],[-9.9,55.71],[-9.59,55.35],[-9.98,55.05],[-9.71,54.47],[-10.75,54.44],[-10.44,54.08],[-10.84,53.54],[-10.21,53.03],[-10.97,52.17],[-9.78,50.92],[-10.49,50.27],[-10.23,49.66],[-10.91,49.23],[-10.63,48.86],[-10.99,48.29],[-10.41,47.76],[-10.75,47.43],[-10.5,46.8],[-11.8,45.67],[-11.55,45.05],[-12.17,44.59],[-11.63,43.82],[-11.95,43.47],[-11.68,43.08],[-12.09,40.98],[-11.56,40.45],[-11.92,39.09],[-11.41,38.56],[-11.72,37.94],[-10.98,36.77],[-9.96,36.22],[-6.59,36.1],[-6.18,35.32],[-7.35,33.91],[-8.9,33.51],[-10.03,32.07],[-9.94,29.94],[-10.48,29.21],[-11.21,29.11],[-11.49,28.49],[-12.46,28.51],[-13.45,28.02],[-13.71,27.65],[-13.49,27.02],[-14.46,26.52],[-15.2,25.4],[-14.97,24.78],[-15.92,24.27],[-16.16,23.65],[-12.59,25.53],[-12.09,26.27],[-11.39,26.13],[-9.42,27.31],[-7.08,27.46],[-3.91,28.83],[-3.59,29.41],[-2.16,29.76],[-1.84,30.34],[-1.14,30.38],[-0.52,31.27],[0.18,31.28],[0.52,31.84],[2.47,32.03],[3.16,32.92],[3.64,32.84],[4.24,31.22],[8.58,32.41],[9.01,32.97],[9.78,32.94],[9.72,33.6],[11.0,33.45],[10.38,33.98],[10.82,34.54],[11.7,34.74],[10.98,35.02],[11.44,35.57],[11.1,36.17],[11.56,36.72],[11.43,37.13],[9.14,37.7],[8.11,37.0],[6.37,37.42],[5.73,37.02],[4.0,37.4],[2.56,36.73],[1.36,37.01],[0.29,36.65],[-0.07,36.09],[-1.6,35.81],[-2.2,35.15],[-3.09,35.75],[-3.66,35.32],[-4.88,35.57],[-5.04,36.2],[-3.97,36.59],[-2.26,36.26],[-1.33,37.25],[-0.58,37.26],[-0.21,37.82],[-0.38,38.21],[0.25,38.85],[-0.09,39.63],[1.23,40.9],[2.02,40.94],[2.42,41.49],[3.59,41.85],[3.25,42.6],[3.67,43.16],[6.35,42.85],[8.46,44.02],[9.88,43.94],[10.03,43.55],[9.23,42.94],[8.37,42.94],[8.52,42.55],[8.05,42.01],[8.97,41.37],[7.67,40.83],[8.35,40.35],[7.67,39.09],[8.56,38.44],[9.31,39.06],[10.14,39.04],[9.86,39.85],[10.33,40.4],[9.76,41.99],[11.56,42.18],[11.7,41.78],[12.47,41.52],[12.74,40.71],[14.67,40.44],[14.8,40.03],[15.55,39.73],[15.57,39.08],[14.32,38.84],[14.35,38.19],[13.52,38.24],[13.17,38.83],[11.98,37.92],[12.33,37.33],[14.19,37.05],[14.32,36.63],[15.04,36.33],[15.73,37.35],[15.61,37.77],[16.45,37.7],[16.96,38.23],[16.85,38.65],[17.58,39.0],[17.58,39.65],[16.83,39.96],[17.25,40.25],[17.79,40.12],[18.11,39.52],[19.4,39.72],[19.5,39.3],[20.24,38.97],[20.34,38.54],[19.8,38.02],[20.53,37.69],[21.24,36.68],[22.07,36.57],[22.35,35.95],[23.18,35.83],[23.34,34.96],[24.04,34.6],[24.77,34.9],[25.77,34.57],[26.75,35.33],[27.55,35.18],[27.62,35.85],[28.42,35.69],[28.49,36.36],[30.29,35.83],[31.12,36.75],[32.1,36.36],[32.32,35.72],[33.07,35.97],[33.11,35.54],[31.79,34.82],[33.21,34.23],[35.08,35.82],[34.6,36.02],[33.72,35.56],[33.68,35.99],[34.88,36.46],[35.52,36.04],[35.62,34.31],[34.64,33.19],[34.83,32.54],[33.88,31.41],[34.49,30.99],[35.66,31.04],[36.21,31.5],[37.38,31.09],[37.33,32.39],[36.46,32.37],[37.45,33.05],[36.1,33.67],[36.06,34.54],[36.81,34.34],[36.93,34.99],[38.25,35.64],[39.0,35.42],[39.88,35.84],[40.02,36.48],[40.46,36.68],[41.35,36.65],[40.31,37.32],[39.42,36.91],[38.66,37.13],[38.94,37.98],[37.73,37.56],[37.61,36.92],[36.65,37.78],[35.41,37.76],[33.61,36.86],[33.58,37.29],[34.34,37.53],[34.45,38.17],[35.24,37.97],[35.36,38.62],[35.82,38.84],[35.77,39.68],[37.16,40.32],[37.95,40.1],[38.09,40.72],[39.81,40.47],[40.9,41.06],[41.21,41.04],[41.36,40.42],[43.05,40.95],[43.19,40.32],[44.81,39.6],[44.83,40.01],[44.09,40.27],[44.1,40.68],[45.78,40.78],[46.67,40.29],[46.74,39.24],[48.8,38.62],[49.25,37.31],[50.43,37.16],[51.03,38.14],[51.7,38.47],[52.06,40.57],[51.18,41.11],[51.12,41.76],[50.35,42.06],[50.29,42.72],[48.44,43.75],[47.6,43.6],[46.04,44.55],[46.25,45.18],[45.61,45.63],[46.01,48.81],[43.73,49.51],[43.93,50.14],[42.68,51.2],[43.43,51.62],[43.44,52.04],[45.77,52.86],[47.32,52.83],[48.43,52.36],[49.28,52.75],[50.23,52.48],[53.04,53.38],[55.21,52.97],[55.6,53.59],[56.69,53.04],[58.31,52.85],[58.75,53.47],[59.69,53.12],[60.15,53.73],[61.27,53.8],[61.76,54.4],[64.38,54.68],[64.92,55.27],[65.86,54.88],[66.43,55.46],[68.72,55.72],[70.41,55.37],[74.63,55.79],[75.49,55.33],[77.4,55.53],[78.22,55.05],[79.36,55.2],[80.56,54.08],[81.68,53.95],[82.05,53.57],[81.69,52.94],[83.85,52.42],[82.78,52.05],[82.08,51.04],[83.11,49.89],[84.79,49.74],[84.09,48.73],[86.06,48.68],[87.61,47.73],[88.58,47.81],[89.15,47.27],[89.51,47.63],[89.24,48.03],[87.37,48.63],[86.48,49.81],[88.56,50.47],[87.97,51.26],[88.38,51.87],[89.83,52.28],[90.84,52.08],[91.61,52.51],[91.88,52.11],[91.07,51.43],[90.04,51.38],[90.32,50.98],[91.65,50.88],[92.41,51.31],[95.32,50.88],[96.81,51.45],[95.51,51.61],[93.45,52.97],[94.5,52.98],[96.59,51.85],[97.82,52.56],[97.61,52.96],[94.93,53.3],[95.44,53.87],[94.88,54.43],[94.18,54.51],[94.63,54.83],[99.42,54.18],[102.17,52.47],[102.49,51.66],[105.21,51.24],[105.34,50.84],[103.98,50.62],[104.25,49.82],[103.72,49.3],[104.52,49.01],[105.83,49.23],[105.74,48.38],[107.13,48.19],[107.13,48.81],[109.37,49.13],[109.54,48.34],[107.86,47.89],[107.96,47.49],[107.43,47.0],[108.45,46.75],[109.22,46.06],[110.34,46.63],[110.6,46.07],[111.95,46.06],[110.36,44.04],[110.5,43.28],[111.12,42.99],[110.69,42.13],[109.04,41.83],[110.24,40.69],[111.52,40.36],[111.05,39.89],[111.63,39.62],[111.22,38.78],[111.39,37.69],[111.79,37.59],[112.79,38.71],[112.92,37.63],[113.27,36.97],[113.73,36.87],[114.04,37.3],[113.27,37.88],[113.33,38.45],[113.93,38.74],[114.14,37.87],[114.81,38.72],[115.43,38.64],[115.59,38.13],[116.64,37.6],[117.13,36.6],[116.83,36.18],[117.46,35.93],[117.32,35.16],[117.94,34.91],[117.43,33.3],[117.75,32.6],[116.72,31.79],[117.31,31.33],[116.48,30.34],[119.2,30.97],[119.8,30.71],[120.25,29.64],[121.15,29.99],[121.5,29.58],[121.25,28.12],[120.34,27.72],[120.46,27.19],[119.47,26.23],[119.58,25.64],[118.57,24.53],[117.94,24.55],[117.39,23.75],[116.09,23.57],[115.79,23.04],[114.89,22.75],[112.75,23.15],[112.46,22.6],[114.11,21.83],[114.63,22.45],[116.37,22.57],[116.66,23.1],[117.29,23.08],[118.09,24.18],[119.62,24.62],[120.14,25.26],[120.02,25.81],[120.93,26.21],[120.81,26.75],[121.6,27.69],[123.49,28.69],[125.18,30.72],[125.86,30.79],[127.84,32.83],[127.72,33.33],[128.58,34.18],[129.2,33.85],[128.33,33.01],[128.45,32.5],[129.56,32.33],[129.68,31.82],[130.34,31.67],[130.67,31.03],[131.79,31.97],[131.96,32.77],[132.88,32.69],[133.47,33.24],[134.18,33.28],[133.97,33.62],[132.8,33.4],[133.34,33.98],[133.96,33.84],[134.37,34.28],[134.38,33.6],[135.0,33.92],[135.85,33.43],[136.28,34.09],[135.64,33.78],[135.43,34.13],[136.07,34.9],[136.71,34.07],[137.82,34.81],[138.93,34.63],[139.41,35.06],[140.32,35.0],[140.83,35.67],[140.64,36.28],[141.41,37.06],[141.01,38.04],[141.74,38.11],[142.3,38.79],[142.11,39.41],[142.4,39.75],[141.51,40.99],[141.82,41.57],[141.37,42.3],[142.16,42.39],[143.14,41.87],[144.59,42.87],[145.95,42.9],[146.31,43.49],[147.16,43.55],[146.99,44.17],[147.68,44.85],[150.8,45.8],[150.66,46.43],[151.04,46.76],[150.46,46.82],[149.64,45.91],[147.82,45.57],[147.42,44.99],[146.22,44.58],[145.42,44.75],[144.8,44.3],[143.71,44.36],[142.69,44.87],[142.26,45.83],[142.86,46.28],[143.64,45.91],[144.0,46.49],[142.83,48.28],[143.8,49.08],[144.55,48.24],[145.24,48.92],[143.72,50.79],[144.02,51.34],[143.33,51.98],[143.97,52.65],[147.44,53.75],[148.23,54.64],[149.32,54.72],[151.45,56.36],[151.18,56.95],[152.53,57.71],[152.27,58.31]],[[37.98,43.61],[38.78,44.2],[38.96,43.58],[41.21,42.68],[41.36,41.65],[40.27,41.08],[38.07,41.14],[36.43,41.99],[35.64,41.78],[35.43,42.4],[34.48,41.98],[33.97,42.18],[35.07,42.82],[35.91,42.61],[37.98,43.61]],[[132.69,40.71],[132.44,41.26],[133.3,42.64],[135.19,43.16],[135.68,44.08],[136.42,44.21],[136.94,45.14],[137.71,45.27],[140.93,49.1],[140.65,49.65],[141.22,50.09],[140.75,51.26],[141.69,51.61],[142.08,51.08],[141.48,50.64],[141.85,49.67],[141.42,48.41],[141.94,47.94],[141.62,47.59],[141.84,47.01],[140.91,45.97],[141.69,45.6],[140.87,45.5],[141.34,44.79],[141.04,44.44],[141.25,43.85],[140.18,43.4],[139.35,42.36],[140.08,41.99],[139.3,41.66],[140.03,41.28],[139.76,40.94],[139.96,40.34],[139.45,39.89],[139.65,39.29],[139.13,38.6],[138.42,38.51],[137.93,37.83],[138.14,37.24],[137.68,37.26],[137.02,38.32],[136.32,37.53],[136.54,36.95],[135.86,35.93],[133.92,35.87],[133.26,36.66],[132.85,36.22],[133.08,35.66],[131.67,34.89],[130.81,34.92],[130.64,34.16],[129.57,34.51],[129.57,35.57],[130.4,35.99],[131.7,38.33],[131.42,39.55],[132.27,40.02],[132.02,40.58],[132.69,40.71]],[[131.3,32.92],[131.08,31.92],[130.76,32.56],[131.3,32.92]],[[110.88,49.72],[110.01,49.21],[109.28,49.52],[109.84,50.0],[111.13,50.15],[111.33,49.97],[110.88,49.72]],[[139.58,38.11],[140.09,38.56],[140.8,38.41],[140.53,38.07],[140.95,37.33],[140.67,36.75],[139.96,36.68],[139.06,37.2],[139.58,38.11]],[[12.67,44.95],[13.1,45.25],[14.73,44.09],[16.12,42.43],[14.81,42.19],[14.43,43.4],[12.95,44.17],[12.67,44.95]],[[-2.25,44.82],[-2.96,45.53],[-1.5,45.67],[-1.35,45.05],[-2.25,44.82]],[[113.44,47.22],[114.44,47.53],[113.34,48.0],[112.62,47.72],[112.94,48.74],[114.67,48.33],[115.32,47.61],[115.22,47.02],[114.39,46.55],[113.24,46.42],[113.44,47.22]],[[138.3,35.71],[139.46,36.0],[139.2,35.43],[138.28,35.02],[137.39,35.07],[136.96,35.55],[137.19,35.88],[137.62,35.4],[138.3,35.71]],[[29.09,42.63],[29.15,42.22],[31.71,41.71],[31.1,41.26],[28.74,41.56],[27.88,42.77],[28.36,43.01],[29.09,42.63]],[[163.23,61.44],[163.58,61.26],[163.42,61.03],[161.93,60.85],[163.23,61.44]],[[8.66,60.65],[8.14,60.4],[8.54,59.81],[6.97,59.56],[6.52,60.08],[7.09,60.47],[6.91,60.82],[7.87,61.22],[7.42,61.73],[6.54,61.52],[6.35,61.86],[8.84,62.82],[11.05,62.64],[10.5,62.4],[10.58,61.94],[9.62,61.63],[9.7,61.16],[8.56,61.13],[8.66,60.65]],[[24.8,40.17],[24.88,39.75],[24.35,39.91],[24.8,40.17]],[[42.84,49.31],[43.37,49.09],[42.84,48.89],[42.84,49.31]],[[18.89,67.68],[17.34,67.95],[19.13,68.33],[19.72,68.05],[18.89,67.68]],[[160.34,55.58],[160.24,56.19],[160.66,56.25],[161.35,55.34],[160.32,54.77],[160.12,55.14],[160.64,55.43],[160.34,55.58]],[[10.37,46.75],[11.04,46.89],[10.19,46.3],[10.04,46.68],[10.37,46.75]],[[8.23,46.67],[8.39,46.3],[7.42,46.06],[8.23,46.67]],[[122.05,54.84],[122.97,55.14],[123.53,54.89],[122.61,54.59],[122.05,54.84]],[[158.7,53.67],[158.03,53.75],[158.52,54.05],[158.7,53.67]],[[140.95,40.3],[141.68,40.15],[141.88,39.54],[140.91,39.83],[141.11,39.22],[140.58,38.77],[140.42,39.85],[140.95,40.3]],[[25.83,38.1],[26.34,37.93],[25.9,37.67],[24.67,38.2],[25.11,38.47],[25.83,38.1]],[[18.87,41.8],[19.3,40.79],[18.86,40.51],[17.78,40.77],[17.45,41.36],[16.58,41.43],[16.24,42.02],[17.11,42.59],[18.76,42.21],[18.87,41.8]],[[16.12,66.65],[15.72,66.55],[16.3,66.3],[15.87,65.99],[14.24,66.79],[16.12,66.65]],[[163.67,59.37],[163.49,59.76],[164.3,59.65],[163.67,59.37]],[[23.64,36.77],[24.97,36.48],[25.24,35.84],[26.18,35.94],[25.32,35.41],[23.8,35.9],[23.64,36.77]],[[105.93,49.46],[105.81,49.86],[106.37,49.73],[105.93,49.46]],[[70.19,64.2],[69.57,64.51],[70.55,64.57],[70.19,64.2]],[[55.04,68.82],[55.25,68.62],[54.85,68.44],[54.01,68.66],[55.04,68.82]],[[142.53,43.45],[143.14,44.14],[143.62,43.64],[142.78,43.32],[143.19,42.35],[142.67,42.37],[142.23,43.11],[142.53,43.45]],[[109.55,46.72],[109.47,47.11],[109.78,47.15],[109.97,46.98],[109.55,46.72]],[[12.62,63.17],[12.81,62.89],[11.49,62.71],[12.62,63.17]],[[24.96,39.32],[25.48,39.15],[25.56,38.73],[24.51,39.06],[24.96,39.32]],[[18.18,67.13],[15.74,67.37],[18.02,67.49],[18.53,67.4],[18.18,67.13]],[[47.8,40.82],[47.84,41.24],[48.16,41.21],[48.29,40.99],[47.8,40.82]]],[[[72.62,67.44],[73.49,68.15],[75.03,68.33],[75.31,68.92],[75.82,69.05],[77.11,68.62],[76.78,68.03],[77.35,67.93],[78.28,68.41],[76.85,69.32],[73.97,69.34],[74.23,69.94],[75.17,70.45],[73.57,71.11],[73.84,71.72],[75.13,71.77],[74.81,71.16],[77.99,71.13],[78.5,71.49],[76.42,71.81],[78.34,71.97],[78.26,72.21],[78.89,72.34],[80.36,71.88],[81.57,72.61],[78.65,73.07],[77.99,72.93],[78.08,72.69],[76.08,72.52],[75.22,72.86],[77.24,73.04],[76.24,73.62],[74.8,73.57],[74.94,73.33],[73.85,72.81],[70.15,73.84],[69.2,73.29],[69.41,73.06],[68.85,72.9],[69.07,72.67],[68.53,72.51],[68.74,72.28],[68.22,72.12],[68.43,71.9],[66.69,71.64],[66.92,71.42],[66.44,71.25],[66.67,71.03],[65.74,70.1],[66.82,69.6],[65.32,69.34],[63.56,69.89],[62.49,69.77],[64.42,69.03],[66.16,69.06],[67.78,68.29],[68.88,68.36],[69.27,68.72],[68.29,69.24],[68.74,69.39],[67.72,69.91],[68.18,70.07],[67.98,70.29],[67.1,70.58],[67.85,71.12],[67.63,71.35],[69.36,71.6],[69.16,71.82],[69.69,71.98],[69.49,72.21],[70.03,72.37],[69.83,72.6],[72.49,72.75],[72.66,72.51],[71.32,71.59],[72.19,71.28],[71.97,70.67],[73.97,70.41],[72.28,70.21],[72.42,69.98],[71.59,69.46],[73.24,68.6],[71.24,66.81],[69.52,67.05],[68.68,66.53],[72.05,66.05],[72.93,66.55],[73.97,66.59],[75.29,67.65],[74.14,67.84],[72.85,66.77],[72.21,67.08],[72.62,67.44]],[[74.28,72.1],[73.4,72.42],[74.74,72.48],[74.87,72.24],[74.28,72.1]]],[[[-175.7,64.65],[-175.35,64.85],[-175.56,65.07],[-176.49,64.89],[-175.7,64.65]]],[[[76.56,14.16],[75.95,14.27],[75.14,13.78],[75.73,12.7],[75.53,12.34],[74.74,13.78],[74.34,13.53],[76.11,10.52],[75.9,9.91],[76.89,8.07],[77.9,7.91],[78.53,9.0],[79.57,9.09],[79.77,8.71],[79.34,7.99],[80.11,5.73],[80.73,5.58],[81.58,6.03],[82.26,7.37],[81.05,9.42],[80.83,9.05],[81.23,8.29],[79.75,7.97],[80.63,9.68],[79.82,10.94],[79.39,10.21],[80.01,9.82],[78.33,9.37],[77.7,8.29],[76.9,8.8],[76.7,9.41],[77.51,9.15],[77.74,10.49],[76.92,10.5],[76.72,10.87],[79.04,13.42],[78.63,13.92],[77.59,13.8],[77.18,14.28],[76.76,13.79],[76.56,14.16]]],[[[74.15,15.56],[73.56,16.6],[73.16,16.35],[74.54,14.13],[74.74,14.5],[74.15,15.56]]],[[[85.46,43.75],[86.93,43.33],[87.45,42.55],[88.03,42.53],[87.25,43.69],[86.39,44.1],[85.18,44.13],[84.86,43.76],[85.46,43.75]]],[[[76.66,40.51],[75.83,40.07],[77.6,39.67],[77.92,39.31],[77.41,38.52],[77.74,37.9],[77.19,37.87],[76.56,38.59],[76.08,37.8],[76.7,37.08],[77.8,37.15],[80.05,36.01],[81.66,36.07],[82.19,36.58],[83.53,36.48],[84.9,37.35],[85.97,37.34],[86.56,38.07],[87.36,37.93],[89.32,38.73],[88.55,39.13],[87.96,38.66],[86.87,38.69],[86.37,39.45],[85.26,39.46],[84.15,39.97],[83.88,40.6],[83.03,40.72],[82.74,41.35],[81.87,41.47],[82.15,42.11],[81.86,42.23],[80.69,41.7],[79.21,41.78],[76.66,40.51]]],[[[100.54,18.26],[100.86,16.71],[101.96,16.22],[101.19,17.82],[101.72,18.53],[101.63,19.92],[99.42,21.37],[98.85,22.78],[97.48,23.38],[97.77,23.97],[97.3,24.0],[96.74,23.06],[96.02,22.99],[96.43,22.22],[96.03,20.14],[97.24,17.78],[97.92,17.6],[98.71,16.01],[98.19,15.28],[98.58,14.48],[98.49,13.46],[98.95,13.42],[99.04,14.44],[99.54,14.91],[99.15,15.72],[99.43,16.33],[99.02,16.88],[99.55,17.59],[99.37,18.24],[100.34,18.66],[100.54,18.26]]],[[[153.19,48.87],[154.42,48.74],[155.36,49.61],[154.11,49.75],[154.22,49.13],[153.19,48.87]]],[[[73.37,-52.74],[72.91,-53.06],[73.21,-53.21],[74.26,-53.19],[74.34,-52.95],[73.37,-52.74]]],[[[97.87,27.66],[97.81,26.96],[98.44,26.08],[97.36,24.72],[97.57,24.35],[98.35,25.13],[100.24,24.97],[100.67,24.44],[101.46,25.21],[102.35,24.63],[104.26,24.9],[105.08,25.87],[104.92,26.48],[105.66,26.74],[105.27,27.49],[104.34,27.61],[103.95,28.35],[103.26,28.55],[103.36,29.45],[102.46,30.01],[102.77,30.54],[103.5,30.57],[103.3,30.93],[102.57,30.9],[102.01,30.29],[101.83,28.7],[100.91,29.03],[101.08,28.43],[100.08,28.06],[98.49,29.01],[98.24,28.92],[98.42,28.32],[97.42,27.93],[97.21,28.3],[97.48,28.62],[96.29,28.82],[95.68,30.12],[94.97,30.27],[94.72,30.17],[94.91,29.59],[94.17,29.51],[94.37,28.93],[92.89,28.53],[93.08,27.94],[92.09,27.51],[91.65,27.99],[90.67,27.55],[89.75,28.04],[89.24,27.58],[87.83,27.59],[87.39,28.06],[86.89,27.59],[86.45,28.05],[85.52,28.04],[85.08,28.72],[83.19,28.68],[82.23,30.04],[81.01,29.88],[78.5,30.93],[77.37,32.54],[76.59,32.61],[74.76,34.93],[73.42,34.93],[73.63,35.33],[74.7,35.42],[74.89,36.07],[73.06,35.52],[72.85,35.13],[73.21,34.54],[72.44,34.33],[72.79,33.75],[72.19,32.57],[72.98,32.53],[73.42,33.07],[74.51,32.68],[74.81,32.34],[74.63,31.72],[75.19,31.28],[75.01,30.66],[75.59,30.0],[76.34,29.94],[76.64,29.37],[77.65,28.97],[80.55,28.92],[82.71,27.51],[83.88,27.67],[85.46,26.89],[86.16,27.01],[86.6,26.55],[88.47,26.54],[88.97,27.0],[89.88,26.51],[90.39,26.97],[90.83,26.49],[91.34,26.95],[93.72,26.86],[94.0,27.43],[94.73,27.51],[94.79,28.21],[96.46,28.0],[96.6,26.93],[97.33,27.0],[97.14,27.6],[97.87,27.66]]],[[[-18.76,77.5],[-19.67,77.42],[-19.81,77.19],[-19.07,77.04],[-20.08,76.73],[-20.21,76.5],[-19.5,76.35],[-20.46,76.04],[-20.57,75.81],[-19.89,75.66],[-20.9,75.11],[-20.25,74.97],[-19.84,74.36],[-22.94,73.29],[-22.48,72.69],[-24.97,72.99],[-22.39,70.91],[-25.22,71.33],[-25.82,71.22],[-25.31,70.62],[-27.04,70.52],[-26.49,70.16],[-23.69,70.23],[-23.21,69.86],[-25.46,69.43],[-26.59,68.73],[-32.37,68.3],[-33.63,66.92],[-35.1,66.72],[-35.41,66.09],[-33.05,66.58],[-31.78,67.95],[-25.56,68.48],[-24.97,69.07],[-23.37,69.16],[-20.82,70.49],[-21.18,71.1],[-20.48,71.42],[-21.97,72.31],[-21.15,72.87],[-21.65,73.25],[-19.69,73.28],[-20.06,73.89],[-16.53,75.13],[-17.62,75.67],[-19.09,75.74],[-17.97,76.28],[-18.66,76.43],[-18.5,76.66],[-17.47,76.96],[-18.76,77.5]]],[[[50.28,68.72],[50.78,69.29],[50.52,69.48],[48.71,69.85],[47.71,69.66],[47.98,69.47],[47.54,68.91],[48.69,68.53],[50.28,68.72]]],[[[167.29,54.49],[167.97,54.36],[168.67,54.82],[165.79,55.72],[165.92,54.74],[167.29,54.49]]],[[[-170.76,63.72],[-171.46,63.99],[-172.02,63.4],[-171.33,63.14],[-170.76,63.72]]],[[[94.42,26.7],[93.36,25.33],[92.66,25.48],[92.24,26.21],[91.25,25.77],[90.55,25.91],[90.29,25.56],[91.21,25.05],[93.57,24.96],[93.02,24.01],[92.29,23.68],[92.94,22.8],[92.66,22.2],[94.73,18.59],[95.0,18.95],[94.16,20.26],[94.23,21.25],[94.76,21.96],[93.93,23.48],[94.44,23.94],[94.25,24.56],[96.12,26.96],[94.42,26.7]]],[[[83.72,46.83],[84.34,46.31],[86.27,47.03],[85.67,47.55],[84.36,47.07],[83.73,47.59],[81.78,47.6],[81.47,47.21],[83.72,46.83]]],[[[-160.36,66.19],[-159.95,66.58],[-160.98,66.51],[-160.36,66.19]]],[[[112.54,36.82],[112.12,37.1],[111.8,36.66],[112.54,36.82]]],[[[105.17,34.2],[104.58,35.23],[105.34,35.44],[104.38,35.57],[104.09,36.08],[103.87,35.42],[103.17,35.42],[102.76,36.3],[101.85,36.44],[102.06,37.12],[101.33,37.11],[101.52,36.13],[99.86,36.24],[100.0,35.87],[102.54,35.63],[102.84,35.12],[102.53,34.62],[103.73,34.38],[102.94,33.94],[103.65,33.75],[104.04,33.05],[103.2,32.17],[103.32,31.15],[104.33,31.48],[104.16,32.05],[104.69,32.43],[104.61,33.63],[105.17,34.2]]],[[[2.35,39.09],[3.08,38.88],[4.63,39.78],[4.25,40.32],[3.44,40.3],[2.24,39.71],[2.35,39.09]]],[[[77.29,43.24],[78.21,43.15],[77.94,42.75],[76.74,42.69],[76.08,43.17],[75.28,42.21],[73.73,42.48],[73.53,41.82],[72.66,41.61],[73.96,40.95],[76.3,41.12],[76.55,41.52],[75.62,41.85],[78.0,41.99],[79.44,42.94],[80.06,42.45],[83.04,43.01],[83.34,42.62],[82.45,42.49],[82.74,42.11],[85.97,42.22],[85.7,42.6],[84.52,42.62],[85.44,43.24],[83.66,43.77],[83.97,44.4],[81.83,44.53],[81.51,45.16],[81.81,45.55],[81.17,46.06],[80.55,45.53],[80.88,45.16],[80.59,44.51],[82.14,44.15],[83.35,43.39],[81.84,43.25],[80.62,43.74],[80.03,43.22],[78.82,43.18],[78.17,43.66],[77.56,43.63],[77.29,43.24]]],[[[-165.56,62.16],[-165.29,62.55],[-166.15,62.44],[-166.56,61.45],[-165.73,61.56],[-165.56,62.16]]],[[[-66.14,62.1],[-70.59,62.95],[-71.34,62.67],[-64.37,61.28],[-64.34,62.84],[-64.65,63.05],[-65.21,63.03],[-65.45,62.8],[-65.13,62.59],[-66.14,62.1]]],[[[115.38,-31.64],[115.16,-32.47],[115.62,-33.21],[114.62,-33.63],[114.7,-34.17],[116.01,-33.42],[116.13,-32.05],[115.67,-31.33],[115.38,-31.64]]],[[[123.56,24.12],[123.99,24.09],[124.3,24.63],[123.87,24.66],[123.56,24.12]]],[[[-162.49,63.67],[-162.82,63.29],[-161.02,63.45],[-162.49,63.67]]],[[[69.18,-49.83],[70.13,-49.83],[70.05,-49.22],[71.07,-48.98],[68.72,-48.7],[68.19,-49.22],[68.49,-49.98],[69.18,-49.83]],[[69.37,-49.38],[68.78,-49.3],[69.21,-49.0],[69.37,-49.38]]],[[[-172.89,60.78],[-173.85,60.84],[-173.21,60.6],[-173.2,59.99],[-171.64,60.29],[-172.89,60.78]]],[[[-44.98,-61.0],[-45.19,-60.37],[-46.05,-60.3],[-45.86,-60.93],[-44.98,-61.0]]],[[[96.52,36.63],[96.13,37.15],[95.36,37.1],[94.45,37.67],[94.31,38.28],[93.36,38.85],[92.31,38.93],[90.33,38.19],[90.55,37.81],[91.91,38.1],[92.28,37.1],[93.22,36.55],[97.65,36.15],[97.76,36.62],[96.52,36.63]]],[[[121.7,25.75],[119.02,23.39],[120.24,23.27],[120.12,23.83],[121.13,24.9],[121.74,24.76],[121.34,23.56],[121.76,23.54],[122.43,25.07],[122.12,25.74],[121.7,25.75]]],[[[84.62,23.7],[85.05,22.98],[85.08,23.7],[85.78,24.06],[85.1,24.18],[84.62,23.7]]],[[[97.04,3.9],[97.63,2.97],[98.12,3.44],[97.57,4.89],[96.23,4.99],[95.59,5.42],[95.32,4.8],[96.21,4.74],[96.6,3.94],[97.04,3.9]]],[[[-64.83,60.82],[-65.05,60.58],[-64.76,60.37],[-64.02,60.62],[-64.83,60.82]]],[[[12.25,35.53],[12.75,35.42],[13.23,35.96],[12.72,36.08],[12.25,35.53]]],[[[-15.87,33.34],[-16.65,32.96],[-17.44,33.08],[-17.7,32.69],[-16.65,32.19],[-15.87,33.34]]],[[[-18.12,27.6],[-17.88,27.98],[-18.13,28.1],[-18.37,27.97],[-18.12,27.6]]],[[[103.7,46.32],[104.2,46.84],[103.44,47.11],[102.63,46.52],[103.7,46.32]]],[[[14.56,35.79],[14.44,36.21],[14.13,36.15],[14.04,35.91],[14.56,35.79]]],[[[-40.45,63.07],[-39.59,64.28],[-40.22,64.6],[-41.06,63.38],[-42.33,63.1],[-42.81,62.27],[-42.2,61.97],[-41.7,62.8],[-40.45,63.07]]],[[[73.7,0.61],[72.94,0.67],[73.1,0.09],[73.51,0.05],[73.7,0.61]]],[[[31.78,79.96],[35.55,80.19],[32.06,80.42],[30.79,80.34],[30.68,80.11],[31.78,79.96]]],[[[15.99,76.38],[18.41,76.53],[17.18,77.06],[19.38,77.85],[22.46,77.09],[25.11,77.17],[24.12,77.74],[25.02,78.06],[21.74,79.09],[25.97,79.06],[24.95,78.73],[25.98,78.38],[30.11,78.75],[31.41,79.28],[27.04,79.16],[29.46,80.02],[23.36,80.9],[19.62,80.78],[19.78,80.55],[17.34,80.53],[15.46,80.04],[8.74,79.83],[10.72,79.34],[9.38,78.83],[10.85,78.55],[11.15,78.33],[10.36,78.19],[10.66,77.98],[13.57,77.97],[13.81,77.75],[12.51,77.27],[12.75,77.06],[15.44,77.02],[15.63,76.81],[14.88,76.68],[15.99,76.38]],[[19.76,78.86],[17.34,78.05],[16.3,78.14],[16.1,78.36],[16.98,78.49],[16.79,78.71],[15.45,79.02],[17.14,79.5],[19.76,78.86]],[[25.95,80.2],[27.1,79.84],[24.81,79.87],[22.68,79.42],[20.09,80.1],[25.95,80.2]],[[14.03,79.32],[14.29,79.11],[13.4,78.97],[11.93,79.26],[14.03,79.32]],[[15.65,77.8],[16.85,77.49],[15.05,77.45],[14.84,77.67],[15.65,77.8]]],[[[89.03,48.93],[91.26,48.64],[92.03,49.34],[93.64,49.31],[93.4,49.71],[92.42,49.68],[92.17,50.08],[93.56,50.45],[95.14,50.15],[95.55,50.48],[92.66,50.91],[91.25,50.53],[91.73,49.49],[90.17,49.99],[89.82,49.89],[90.06,49.24],[89.03,48.93]]],[[[-24.15,73.8],[-24.89,73.47],[-23.57,73.43],[-24.15,73.8]]],[[[102.06,30.73],[102.37,31.26],[102.14,31.4],[101.61,31.0],[102.06,30.73]]],[[[82.39,17.98],[82.83,17.97],[83.3,18.71],[82.88,19.45],[81.73,17.85],[81.93,17.48],[82.39,17.98]]],[[[-41.84,61.26],[-41.6,61.67],[-42.44,61.56],[-41.84,61.26]]],[[[-43.71,60.61],[-43.58,60.38],[-44.71,60.07],[-46.57,60.93],[-49.53,61.19],[-48.04,60.41],[-46.75,60.51],[-45.37,59.71],[-43.54,59.49],[-43.12,60.32],[-41.96,60.61],[-42.55,60.91],[-43.71,60.61]]],[[[-164.12,63.04],[-163.81,63.42],[-164.71,63.32],[-164.12,63.04]]],[[[72.76,42.78],[72.16,42.72],[71.98,42.06],[73.41,42.58],[72.76,42.78]]],[[[-20.63,63.34],[-20.32,62.98],[-19.39,63.41],[-18.23,63.24],[-16.48,63.6],[-15.84,64.14],[-14.59,64.16],[-12.72,65.27],[-13.27,65.78],[-14.11,65.86],[-14.59,66.59],[-16.35,66.72],[-17.45,66.32],[-18.15,66.83],[-19.81,66.09],[-21.49,66.62],[-23.85,66.57],[-25.41,65.29],[-24.08,65.16],[-24.6,64.58],[-22.46,64.43],[-23.0,63.86],[-21.33,63.82],[-20.63,63.34]],[[-18.6,65.69],[-16.88,65.59],[-15.81,65.98],[-14.71,64.75],[-16.08,64.5],[-16.73,63.96],[-18.35,64.05],[-19.31,63.63],[-19.92,64.35],[-21.09,64.74],[-19.48,65.73],[-18.6,65.69]],[[-23.49,65.97],[-22.15,65.82],[-23.57,65.5],[-23.97,65.86],[-23.49,65.97]]],[[[71.43,33.97],[71.24,33.58],[72.27,33.69],[71.43,33.97]]],[[[19.72,-34.58],[19.1,-34.21],[18.71,-34.41],[19.32,-34.78],[19.72,-34.58]]],[[[165.63,-51.2],[166.29,-51.17],[166.59,-50.57],[165.94,-50.6],[165.63,-51.2]]],[[[69.74,76.69],[68.03,76.59],[69.3,76.28],[70.01,76.45],[69.74,76.69]]],[[[72.95,5.56],[72.95,4.86],[73.71,5.53],[73.14,6.38],[73.34,6.97],[72.76,7.11],[72.95,5.56]]],[[[-17.63,28.37],[-17.13,27.62],[-16.15,28.14],[-15.66,27.64],[-14.92,27.77],[-15.16,28.4],[-16.14,28.9],[-17.14,28.38],[-17.9,29.25],[-18.38,28.47],[-17.63,28.37]]],[[[-165.16,61.28],[-165.43,60.9],[-164.61,61.01],[-165.16,61.28]]],[[[89.89,38.95],[90.96,38.89],[91.28,39.24],[89.95,39.44],[89.66,39.33],[89.89,38.95]]],[[[26.86,76.48],[26.01,76.83],[23.42,76.75],[24.33,76.42],[26.86,76.48]]],[[[-173.08,64.09],[-172.17,64.25],[-171.95,65.29],[-172.91,65.14],[-173.08,64.09]]],[[[-35.39,-54.44],[-36.09,-53.99],[-38.21,-53.94],[-38.61,-54.27],[-36.14,-55.12],[-35.39,-54.44]]],[[[-40.86,64.91],[-35.78,65.7],[-36.38,66.03],[-39.3,65.81],[-39.62,65.41],[-40.99,65.15],[-40.86,64.91]]],[[[-162.83,64.58],[-163.35,64.65],[-163.68,64.26],[-160.29,64.2],[-161.44,64.81],[-162.83,64.58]]],[[[80.32,13.91],[79.9,14.16],[79.85,11.93],[80.5,12.79],[80.32,13.91]]],[[[82.81,17.48],[82.37,17.48],[81.9,16.5],[82.34,16.49],[82.81,17.48]]],[[[67.93,75.95],[66.67,76.25],[64.42,75.95],[65.69,75.67],[67.93,75.95]]],[[[-26.62,-57.89],[-25.83,-57.84],[-26.32,-57.52],[-26.62,-57.89]]],[[[180.0,63.14],[179.26,63.31],[178.97,63.11],[179.21,62.9],[178.11,62.49],[179.64,62.07],[180.0,63.14]]],[[[172.01,60.68],[177.58,62.48],[176.79,62.69],[172.91,61.55],[170.72,60.82],[170.51,60.6],[170.8,60.41],[172.01,60.68]]],[[[-63.59,63.52],[-63.97,64.18],[-64.8,63.93],[-64.41,63.28],[-63.59,63.52]]],[[[-168.53,63.32],[-169.18,63.59],[-170.45,63.28],[-169.78,63.02],[-168.53,63.32]]],[[[75.34,39.27],[75.56,39.92],[74.41,39.83],[75.11,38.87],[75.67,38.91],[75.34,39.27]]],[[[73.14,3.09],[72.76,2.88],[73.51,1.67],[73.7,2.0],[73.14,3.09]]],[[[-24.29,76.29],[-22.08,75.87],[-22.63,76.48],[-21.69,76.8],[-23.32,76.85],[-24.29,76.29]]],[[[-78.21,58.43],[-78.45,58.86],[-79.04,58.54],[-78.21,58.43]]],[[[-26.93,-59.83],[-26.61,-59.45],[-27.45,-59.5],[-26.93,-59.83]]],[[[102.83,36.52],[103.95,37.04],[103.05,37.19],[102.83,36.52]]],[[[-71.21,60.87],[-70.5,61.15],[-71.37,61.31],[-71.55,61.06],[-71.21,60.87]]],[[[-64.98,60.14],[-65.71,59.89],[-64.91,59.7],[-64.69,59.93],[-64.98,60.14]]],[[[-50.47,62.36],[-49.61,62.52],[-50.33,62.79],[-50.66,62.59],[-50.47,62.36]]],[[[59.99,75.94],[62.11,76.27],[59.14,76.38],[58.59,76.19],[59.99,75.94]]],[[[-68.99,60.59],[-68.79,60.83],[-69.12,61.03],[-69.83,60.75],[-68.99,60.59]]],[[[78.72,44.71],[79.05,44.34],[79.97,44.5],[79.31,45.25],[78.72,44.71]]],[[[-14.18,28.15],[-13.69,28.15],[-13.18,28.89],[-13.65,29.65],[-14.67,28.4],[-14.18,28.15]]],[[[61.0,74.88],[62.99,75.19],[62.64,75.42],[60.24,75.32],[59.72,75.13],[60.11,74.91],[56.86,74.01],[57.25,73.8],[56.82,73.61],[58.01,73.38],[58.54,73.96],[59.85,74.11],[59.48,74.33],[61.36,74.66],[61.0,74.88]]],[[[73.33,3.9],[73.71,3.88],[73.9,4.46],[73.52,4.48],[73.33,3.9]]],[[[105.91,35.99],[106.07,35.45],[106.55,35.38],[106.39,35.92],[105.91,35.99]]],[[[146.2,-43.83],[147.13,-43.83],[147.56,-43.25],[146.0,-43.42],[146.2,-43.83]]],[[[72.77,19.38],[72.97,19.04],[73.17,19.4],[72.77,19.84],[72.77,19.38]]],[[[179.42,64.57],[178.58,64.78],[177.4,64.36],[178.24,64.15],[178.46,63.53],[179.01,63.52],[179.42,64.57]]],[[[-51.15,63.73],[-52.03,63.56],[-51.27,63.29],[-50.94,63.49],[-51.15,63.73]]],[[[116.16,-34.85],[115.73,-34.99],[116.25,-35.39],[117.12,-35.11],[116.16,-34.85]]],[[[12.12,32.81],[12.0,33.23],[11.21,33.28],[11.34,32.86],[12.12,32.81]]],[[[-73.33,62.03],[-72.61,62.33],[-72.98,62.52],[-74.61,62.36],[-73.33,62.03]]],[[[71.26,34.95],[71.46,35.35],[71.17,35.45],[70.92,35.29],[71.26,34.95]]],[[[119.08,-34.89],[119.09,-34.54],[118.25,-34.84],[119.08,-34.89]]],[[[98.69,2.25],[99.08,1.71],[99.59,2.43],[98.94,2.61],[98.56,3.41],[98.06,2.68],[98.69,2.25]]],[[[80.37,15.64],[81.02,16.01],[80.38,16.13],[79.94,15.64],[80.14,15.27],[80.37,15.64]]],[[[100.81,6.17],[101.37,4.97],[101.3,4.21],[102.06,5.3],[101.48,6.24],[100.81,6.17]]],[[[-78.47,60.72],[-77.18,61.36],[-78.08,62.4],[-78.74,62.08],[-78.08,61.47],[-78.73,61.15],[-78.47,60.72]]],[[[-161.53,66.59],[-162.27,67.13],[-163.33,67.05],[-162.56,66.51],[-161.53,66.59]]],[[[-163.59,66.42],[-163.94,66.02],[-162.93,66.11],[-163.59,66.42]]],[[[152.16,47.51],[151.37,46.85],[152.55,46.73],[153.36,47.39],[153.24,48.01],[153.65,48.34],[153.04,48.4],[152.63,48.08],[152.76,47.45],[152.16,47.51]]],[[[-122.74,47.33],[-122.34,47.08],[-122.01,47.81],[-122.74,47.33]]],[[[80.69,73.46],[82.15,73.46],[81.35,73.83],[80.64,73.7],[80.69,73.46]]],[[[81.8,71.16],[82.48,70.8],[83.71,71.51],[82.34,72.0],[81.69,71.88],[82.4,71.52],[81.8,71.16]]],[[[-28.57,38.29],[-28.0,38.35],[-27.81,39.01],[-28.38,38.95],[-28.57,38.29]]],[[[-25.68,38.02],[-26.21,37.72],[-25.09,37.8],[-25.68,38.02]]],[[[-166.17,64.35],[-165.24,64.45],[-166.54,65.03],[-166.96,64.86],[-166.17,64.35]]],[[[70.59,20.95],[70.01,21.74],[69.57,21.68],[70.16,20.9],[70.59,20.95]]],[[[98.77,11.37],[99.03,11.74],[98.62,12.29],[98.36,11.92],[98.77,11.37]]],[[[90.03,46.84],[90.4,47.19],[89.77,47.24],[90.03,46.84]]],[[[-69.93,59.39],[-69.24,59.67],[-70.07,59.83],[-70.25,59.59],[-69.93,59.39]]],[[[-73.41,64.07],[-73.59,63.83],[-73.2,63.64],[-72.45,63.93],[-73.41,64.07]]],[[[145.01,-42.51],[145.15,-43.17],[145.73,-43.25],[145.59,-42.6],[145.01,-42.51]]],[[[1.35,39.2],[1.02,38.87],[1.41,38.35],[2.07,39.0],[1.68,39.53],[1.35,39.2]]],[[[-176.36,65.31],[-176.0,65.51],[-176.22,65.73],[-177.17,65.55],[-176.36,65.31]]],[[[49.54,80.19],[51.69,79.99],[52.31,80.2],[51.53,80.41],[52.17,80.62],[49.0,81.02],[45.01,80.53],[49.28,80.6],[50.12,80.4],[49.54,80.19]]],[[[71.16,41.58],[71.75,41.65],[71.7,41.9],[71.38,42.0],[71.16,41.58]]],[[[130.19,70.97],[131.69,70.82],[130.56,71.39],[129.22,71.28],[130.19,70.97]]],[[[83.37,45.17],[84.01,45.93],[82.75,45.94],[83.37,45.17]]],[[[3.07,-54.3],[3.06,-54.69],[3.67,-54.48],[3.07,-54.3]]],[[[-166.07,66.05],[-165.63,66.22],[-165.75,66.45],[-166.77,66.34],[-166.07,66.05]]],[[[73.99,40.7],[73.72,40.54],[74.07,40.19],[74.3,40.59],[73.99,40.7]]],[[[73.16,17.3],[73.36,16.95],[73.56,17.31],[73.16,17.76],[73.16,17.3]]],[[[66.35,76.48],[67.03,76.65],[66.71,76.88],[65.0,76.77],[66.35,76.48]]],[[[52.57,-46.3],[52.05,-46.16],[51.56,-46.59],[52.09,-46.73],[52.57,-46.3]]],[[[114.93,-30.92],[115.3,-31.13],[115.48,-30.65],[114.75,-30.24],[114.93,-30.92]]],[[[115.48,-34.61],[115.92,-34.47],[115.52,-34.25],[115.48,-34.61]]],[[[-94.02,60.85],[-93.57,61.24],[-94.48,61.24],[-94.02,60.85]]],[[[102.34,47.32],[101.93,47.02],[102.48,46.92],[102.34,47.32]]],[[[-49.76,62.09],[-50.08,61.89],[-49.9,61.66],[-49.06,61.82],[-49.76,62.09]]],[[[-71.69,63.54],[-72.44,63.25],[-71.51,63.11],[-71.32,63.35],[-71.69,63.54]]],[[[83.92,23.09],[84.38,23.33],[83.71,23.45],[83.47,23.09],[83.92,23.09]]],[[[172.87,53.13],[172.96,52.73],[173.52,52.97],[172.87,53.13]]],[[[12.37,36.67],[12.25,37.09],[11.94,37.02],[11.86,36.78],[12.37,36.67]]]]}}]}