{"type":"FeatureCollection","features":[{"type":"Feature","properties":{},"geometry":{"type":"MultiPolygon","coordinates":[[[[17.34,78.05],[16.1,78.36],[16.98,78.49],[16.79,78.71],[12.8,78.61],[14.39,78.1],[13.57,77.97],[13.81,77.75],[13.03,77.62],[13.27,77.4],[16.57,76.72],[19.38,77.85],[19.25,78.07],[21.17,78.08],[20.49,77.53],[22.46,77.09],[25.05,77.84],[22.9,78.75],[20.62,79.2],[17.34,78.05]],[[15.05,77.45],[14.84,77.67],[15.65,77.8],[16.85,77.49],[15.05,77.45]]],[[[7.93,56.59],[7.46,56.31],[7.83,55.67],[5.19,54.9],[-0.73,54.93],[-1.43,56.03],[-2.4,56.29],[-1.55,56.81],[-1.74,57.38],[-1.3,57.64],[-3.0,58.0],[-2.5,58.46],[-2.76,58.81],[-0.58,59.85],[-0.76,60.4],[-0.3,60.64],[-1.28,61.1],[-2.67,60.37],[-1.68,59.92],[-2.2,59.47],[-4.48,59.36],[-3.53,58.71],[-4.97,58.89],[-7.67,58.44],[-7.36,58.09],[-7.78,57.81],[-7.52,57.25],[-8.34,56.67],[-7.3,56.46],[-6.76,55.52],[-8.5,55.59],[-9.29,54.99],[-9.02,54.41],[-10.75,54.44],[-10.44,54.08],[-10.84,53.54],[-10.21,53.03],[-10.97,52.17],[-10.38,51.43],[-8.77,51.18],[-8.03,51.81],[-5.65,52.35],[-5.87,52.95],[-5.48,53.25],[-6.01,53.99],[-4.95,54.2],[-4.7,53.83],[-5.09,53.54],[-5.01,52.28],[-5.77,51.68],[-4.85,51.45],[-4.64,50.84],[-5.6,50.85],[-6.74,49.69],[-4.86,49.7],[-5.23,49.4],[-5.03,48.78],[-5.35,48.7],[-5.11,48.32],[-5.51,47.77],[-4.99,47.23],[-5.39,46.68],[-4.31,46.07],[-3.44,46.07],[-2.96,45.53],[-1.75,45.83],[-1.3,45.28],[-1.65,44.97],[-1.65,43.64],[-1.94,43.57],[-8.1,44.05],[-9.63,43.32],[-8.88,42.14],[-9.22,41.55],[-8.72,41.01],[-9.34,40.31],[-9.13,39.67],[-9.96,39.61],[-9.01,38.04],[-9.33,37.43],[-8.85,36.9],[-7.02,36.88],[-6.15,35.56],[-7.32,34.16],[-7.12,33.77],[-5.38,35.62],[-4.95,35.08],[-2.25,34.91],[-3.09,35.75],[-3.66,35.32],[-4.65,35.42],[-5.04,36.2],[-3.97,36.59],[-2.26,36.26],[-1.33,37.25],[-0.58,37.26],[-0.21,37.82],[-0.38,38.21],[0.25,38.85],[-0.09,39.63],[1.23,40.9],[2.02,40.94],[2.42,41.49],[3.59,41.85],[3.25,42.6],[3.67,43.16],[6.35,42.85],[8.77,44.1],[10.12,43.78],[9.23,42.94],[8.37,42.94],[8.52,42.55],[8.05,42.01],[8.97,41.37],[8.05,41.14],[7.6,40.59],[8.35,40.35],[7.67,39.09],[8.56,38.44],[10.22,39.28],[9.86,39.85],[10.33,40.4],[9.76,41.99],[11.56,42.18],[11.7,41.78],[12.47,41.52],[12.74,40.71],[14.67,40.44],[14.8,40.03],[15.55,39.73],[15.57,39.08],[14.32,38.84],[14.35,38.19],[13.52,38.24],[13.17,38.83],[11.98,37.92],[12.33,37.33],[14.19,37.05],[14.53,36.45],[15.35,36.39],[15.61,37.77],[16.45,37.7],[16.96,38.23],[16.85,38.65],[17.58,39.0],[17.58,39.65],[16.83,39.96],[17.25,40.25],[17.79,40.12],[18.11,39.52],[19.4,39.72],[19.5,39.3],[20.24,38.97],[20.34,38.54],[19.8,38.02],[20.53,37.69],[21.24,36.68],[22.07,36.57],[22.35,35.95],[23.18,35.83],[23.34,34.96],[24.04,34.6],[24.77,34.9],[25.77,34.57],[26.75,35.33],[27.55,35.18],[27.62,35.85],[28.42,35.69],[28.49,36.36],[30.29,35.83],[31.12,36.75],[32.1,36.36],[32.32,35.72],[33.07,35.97],[33.11,35.54],[31.79,34.82],[33.21,34.23],[35.08,35.82],[34.6,36.02],[33.72,35.56],[33.68,35.99],[34.57,36.45],[35.35,36.26],[35.62,34.31],[34.64,33.19],[34.83,32.54],[34.27,32.08],[34.04,31.19],[36.94,31.3],[38.82,30.68],[41.61,30.68],[42.56,30.03],[44.05,30.21],[44.97,29.55],[45.63,29.74],[46.14,29.3],[47.94,29.22],[48.38,28.37],[48.77,28.56],[48.3,29.0],[48.72,29.59],[49.51,29.96],[49.94,29.11],[50.91,28.58],[50.96,27.99],[51.99,27.8],[52.44,27.33],[52.76,27.65],[51.27,28.32],[51.91,28.98],[52.63,28.46],[54.46,28.1],[55.32,28.32],[56.02,27.77],[58.22,28.29],[58.2,27.68],[58.81,27.34],[59.54,27.97],[60.59,27.72],[60.89,26.83],[61.48,26.47],[63.47,26.96],[64.82,26.38],[65.16,26.9],[66.65,26.67],[67.01,27.19],[67.42,26.44],[71.31,27.31],[73.52,28.73],[74.28,30.48],[75.01,30.66],[75.43,31.42],[75.03,32.73],[75.27,32.87],[75.86,32.19],[76.63,32.13],[76.92,31.78],[76.72,31.17],[77.28,30.49],[78.53,30.45],[78.81,29.88],[79.81,29.46],[80.28,29.96],[80.78,29.28],[82.23,28.88],[82.71,28.2],[84.83,28.37],[86.64,27.25],[87.13,27.71],[87.57,27.25],[89.23,27.35],[89.67,26.87],[91.39,27.65],[91.83,27.17],[92.82,27.6],[92.61,27.96],[91.4,27.88],[90.96,28.36],[90.45,27.91],[89.75,28.04],[89.55,28.62],[90.07,29.3],[89.62,29.76],[85.81,29.31],[85.36,29.77],[84.4,29.75],[83.93,30.45],[83.2,30.31],[82.22,30.75],[82.47,31.11],[83.46,31.14],[83.94,30.68],[86.1,30.36],[86.61,30.83],[87.57,30.82],[87.38,31.41],[87.63,31.53],[88.59,31.51],[89.03,31.04],[90.31,31.82],[89.91,32.54],[86.94,32.12],[86.72,32.48],[87.26,33.19],[87.02,33.31],[85.48,32.6],[85.76,33.2],[85.02,33.56],[86.03,33.56],[86.3,33.92],[85.31,34.4],[84.26,33.91],[83.76,34.39],[82.72,34.37],[82.46,33.52],[81.68,34.35],[80.64,34.31],[80.14,33.8],[78.26,34.56],[78.48,35.19],[79.02,35.22],[79.58,34.51],[81.68,34.59],[81.94,34.97],[79.81,35.38],[79.51,35.99],[80.33,35.65],[82.46,35.72],[82.99,36.22],[85.38,36.11],[85.93,36.6],[85.7,37.22],[85.97,37.34],[86.48,36.84],[91.46,36.78],[91.9,36.27],[94.18,36.24],[94.58,35.73],[95.17,36.16],[97.8,35.78],[98.45,36.42],[99.19,36.45],[99.86,36.24],[100.27,35.13],[100.99,35.15],[101.64,35.76],[102.21,35.33],[102.49,36.22],[101.71,35.99],[101.46,36.73],[102.06,37.12],[102.64,36.67],[102.86,37.34],[101.47,37.56],[100.86,37.17],[99.23,37.51],[98.63,37.11],[97.77,37.69],[95.51,37.81],[95.1,38.34],[95.48,38.91],[95.3,39.29],[95.99,38.86],[96.44,39.66],[98.97,39.36],[99.97,38.38],[100.73,38.39],[101.54,37.79],[102.23,38.4],[101.49,39.23],[102.32,39.46],[101.71,39.92],[103.43,39.75],[104.96,41.16],[106.08,41.41],[106.37,40.87],[107.94,41.61],[109.94,41.61],[110.35,42.47],[111.89,43.5],[111.37,45.98],[111.89,46.45],[111.53,47.79],[112.38,48.29],[112.83,49.52],[113.72,50.0],[115.64,49.75],[117.45,50.35],[118.83,49.9],[121.08,50.42],[121.29,50.58],[120.64,51.01],[120.71,51.37],[122.49,51.75],[122.82,52.28],[123.2,52.24],[123.24,51.67],[124.22,51.74],[123.41,50.91],[124.03,50.47],[125.45,50.28],[126.42,50.89],[127.25,50.59],[127.22,50.03],[129.98,50.33],[130.85,52.1],[131.78,52.32],[130.85,52.89],[130.94,53.47],[129.28,53.94],[132.12,54.06],[132.98,53.7],[134.2,54.27],[136.7,54.37],[135.45,52.58],[135.88,52.28],[135.7,51.71],[136.92,50.83],[136.45,50.15],[134.93,49.91],[134.58,49.03],[133.71,48.84],[134.11,48.56],[134.17,47.43],[136.32,48.24],[137.18,49.77],[138.09,49.94],[137.51,51.08],[137.76,51.43],[137.36,51.73],[137.62,52.08],[137.21,52.38],[137.46,52.73],[136.68,53.12],[136.93,53.48],[138.41,53.12],[138.19,52.55],[139.22,52.5],[138.46,51.25],[139.76,51.32],[140.47,50.92],[140.2,50.59],[140.59,50.07],[140.03,49.62],[140.36,49.09],[137.47,45.61],[136.69,45.48],[136.18,44.55],[135.43,44.42],[134.95,43.49],[134.0,43.01],[132.59,42.95],[131.65,43.35],[130.77,42.86],[130.82,42.19],[131.69,42.69],[134.24,42.68],[135.19,43.16],[135.68,44.08],[136.42,44.21],[136.94,45.14],[137.71,45.27],[140.93,49.1],[140.65,49.65],[141.22,50.09],[140.75,51.26],[141.04,51.59],[142.06,51.3],[141.48,50.64],[141.85,49.67],[141.42,48.41],[141.94,47.94],[141.52,46.66],[142.0,45.95],[142.54,45.94],[142.34,46.53],[142.63,46.64],[143.97,46.25],[142.8,48.04],[143.49,48.96],[144.89,48.58],[145.24,48.92],[144.04,50.69],[143.4,50.68],[143.94,50.0],[143.59,49.66],[143.1,50.36],[142.14,50.44],[144.03,51.12],[143.34,51.76],[143.98,52.43],[143.61,52.98],[143.94,53.31],[143.22,53.75],[143.54,54.32],[143.16,54.65],[142.11,54.29],[142.51,53.74],[141.47,53.6],[139.85,54.89],[138.84,54.5],[138.46,54.59],[138.7,55.18],[138.26,55.5],[137.13,55.54],[138.15,55.95],[138.71,56.92],[139.85,57.09],[140.14,57.69],[141.32,57.85],[142.4,59.19],[141.56,59.16],[141.22,58.56],[140.02,58.39],[139.39,57.42],[138.24,57.24],[137.7,56.27],[136.6,56.09],[136.39,55.49],[135.33,55.29],[134.12,54.5],[131.33,54.2],[130.84,54.49],[131.04,54.86],[129.94,54.84],[129.31,55.34],[125.98,55.2],[125.02,55.52],[124.33,55.39],[123.94,54.85],[122.87,54.76],[122.52,54.21],[121.47,54.12],[120.74,54.57],[120.99,54.74],[123.65,55.27],[122.5,55.78],[122.14,55.22],[120.48,55.36],[120.41,54.98],[119.52,54.66],[119.63,54.08],[118.38,53.78],[118.12,53.24],[117.16,53.48],[117.01,54.05],[116.61,54.07],[115.4,53.75],[114.61,52.67],[113.66,52.51],[113.65,52.88],[114.23,53.05],[114.22,53.79],[115.42,54.13],[115.23,54.7],[114.82,54.71],[114.02,54.36],[114.22,54.17],[113.63,53.99],[113.45,53.44],[112.46,53.64],[112.31,53.09],[109.79,52.64],[109.61,53.44],[110.52,53.66],[110.65,54.22],[111.22,54.4],[109.8,54.59],[109.69,55.34],[110.46,55.73],[110.22,55.91],[109.22,55.71],[109.28,55.33],[108.7,55.14],[108.24,56.46],[109.57,57.45],[109.5,57.84],[111.28,57.86],[111.19,58.65],[109.37,58.63],[109.03,59.22],[107.92,58.99],[106.9,59.36],[105.92,58.72],[104.89,59.07],[104.76,59.46],[105.56,59.9],[104.02,60.22],[103.55,60.8],[96.76,61.4],[96.12,61.96],[93.11,62.16],[92.38,62.7],[91.5,62.78],[92.1,63.31],[91.74,63.69],[89.48,63.98],[88.67,64.72],[89.27,65.27],[88.84,65.64],[89.41,65.96],[88.54,66.72],[89.13,67.04],[87.56,67.23],[89.45,68.45],[87.17,68.32],[86.67,68.93],[87.3,69.27],[86.17,69.78],[86.84,70.36],[83.74,70.55],[84.36,71.14],[83.71,71.51],[84.36,71.87],[83.68,72.24],[82.31,72.25],[81.69,71.88],[80.95,72.24],[81.57,72.61],[78.65,73.07],[77.99,72.93],[78.08,72.69],[76.08,72.52],[75.22,72.86],[77.24,73.04],[76.24,73.62],[74.8,73.57],[74.94,73.33],[73.85,72.81],[70.15,73.84],[69.2,73.29],[69.41,73.06],[68.85,72.9],[69.07,72.67],[68.53,72.51],[68.74,72.28],[68.22,72.12],[68.43,71.9],[66.69,71.64],[66.92,71.42],[65.96,70.49],[67.06,69.98],[66.38,69.44],[61.83,69.82],[59.66,70.54],[57.92,70.43],[57.66,71.02],[56.62,71.26],[56.99,71.44],[55.56,71.87],[55.95,72.45],[57.11,72.61],[56.78,73.22],[59.85,74.11],[59.48,74.33],[59.98,74.51],[61.36,74.66],[61.0,74.88],[61.53,75.06],[62.99,75.19],[62.64,75.42],[63.22,75.6],[67.93,75.95],[66.67,76.25],[61.91,75.87],[61.34,75.69],[61.71,75.46],[60.24,75.32],[59.72,75.13],[60.11,74.91],[58.72,74.76],[58.23,74.57],[58.62,74.36],[55.59,73.45],[55.96,72.84],[54.8,72.68],[54.45,72.1],[53.31,72.31],[53.63,72.89],[53.21,73.09],[56.02,74.03],[55.6,74.24],[56.04,74.43],[57.36,74.6],[56.94,74.81],[57.42,75.0],[56.99,75.22],[58.91,75.57],[58.49,75.79],[56.1,75.64],[55.62,75.45],[56.08,75.24],[55.62,75.05],[56.06,74.83],[54.73,74.66],[54.31,74.47],[54.75,74.26],[53.49,74.08],[53.1,73.88],[53.54,73.68],[51.99,73.3],[52.49,72.71],[51.06,72.33],[51.48,72.14],[51.16,71.94],[51.57,71.75],[51.34,71.18],[59.48,69.77],[59.76,69.56],[58.66,69.43],[57.98,68.89],[56.29,68.77],[54.59,69.22],[47.65,67.96],[46.53,68.32],[46.86,68.52],[46.59,68.7],[43.28,68.81],[42.97,68.61],[43.86,68.45],[44.11,67.89],[42.37,67.06],[41.24,67.39],[41.51,67.98],[41.21,68.15],[38.88,68.4],[38.51,68.94],[37.02,69.03],[36.48,69.55],[35.2,69.26],[31.7,70.25],[30.74,70.92],[28.97,70.91],[27.85,71.37],[26.65,71.01],[24.27,71.49],[21.98,71.12],[21.0,70.54],[18.76,70.54],[18.02,69.76],[13.75,69.0],[13.29,68.23],[11.93,68.08],[11.42,67.5],[13.38,67.4],[11.83,66.97],[10.9,65.85],[11.64,65.45],[10.48,65.3],[10.41,64.87],[9.6,64.53],[9.77,64.2],[8.13,64.17],[8.2,63.66],[4.76,62.49],[4.97,62.14],[4.11,61.2],[5.02,59.98],[4.46,59.58],[5.05,58.51],[6.31,58.23],[6.78,57.76],[9.0,58.03],[9.6,58.48],[9.41,58.79],[10.8,58.69],[11.05,57.87],[8.31,57.37],[7.84,57.1],[7.93,56.59]],[[15.79,42.37],[14.59,42.37],[14.43,43.4],[12.95,44.17],[12.9,44.79],[13.8,44.76],[15.42,43.58],[15.44,42.95],[16.22,42.66],[15.79,42.37]],[[18.13,58.51],[19.1,58.78],[19.11,59.29],[20.25,59.72],[22.37,59.4],[21.19,58.47],[21.7,57.66],[21.14,57.44],[21.11,56.92],[19.09,57.25],[19.09,57.76],[19.65,57.99],[19.24,58.46],[18.27,58.19],[18.41,57.86],[17.73,57.44],[17.04,57.53],[16.9,57.86],[17.58,58.28],[17.43,58.61],[18.13,58.51]],[[43.77,66.92],[44.04,66.73],[43.75,66.53],[42.92,66.7],[43.77,66.92]],[[40.9,41.47],[40.27,41.08],[38.07,41.14],[36.43,41.99],[35.64,41.78],[35.43,42.4],[38.35,42.37],[40.9,41.47]],[[38.94,65.53],[39.22,65.36],[38.48,65.11],[36.61,65.56],[35.1,65.44],[36.02,65.9],[35.72,66.07],[35.94,66.28],[36.46,66.32],[38.38,65.88],[39.67,66.16],[39.95,65.98],[38.94,65.53]],[[110.01,49.21],[109.84,50.0],[112.73,50.31],[112.65,49.7],[111.83,49.82],[111.27,49.36],[110.01,49.21]],[[18.3,67.96],[17.7,68.23],[18.14,68.33],[19.72,68.05],[18.3,67.96]],[[97.8,47.18],[96.95,47.42],[97.81,48.3],[99.91,48.11],[102.31,46.46],[101.91,46.16],[100.25,46.44],[99.85,47.0],[98.7,47.18],[97.98,46.78],[97.8,47.18]],[[142.74,47.58],[142.98,47.22],[142.65,46.88],[142.18,47.59],[142.74,47.58]],[[25.31,38.27],[26.34,37.93],[25.9,37.67],[24.87,38.0],[24.79,38.43],[25.31,38.27]],[[12.02,56.46],[11.85,56.79],[12.52,56.72],[12.02,56.46]],[[88.15,29.09],[88.13,28.63],[86.95,28.75],[87.21,29.09],[88.15,29.09]],[[86.46,28.28],[87.17,28.4],[87.39,28.06],[86.68,27.94],[86.46,28.28]],[[23.8,35.9],[23.52,36.53],[23.95,36.8],[24.97,36.48],[25.24,35.84],[26.18,35.94],[25.32,35.41],[23.8,35.9]],[[17.66,42.47],[18.98,42.03],[19.19,40.55],[17.78,40.77],[17.45,41.36],[16.36,41.61],[16.34,42.25],[16.78,42.54],[17.66,42.47]],[[88.66,37.52],[88.36,37.17],[87.58,37.31],[87.87,37.67],[88.66,37.52]],[[84.7,31.76],[85.94,31.89],[86.39,31.18],[84.94,31.41],[84.7,31.76]],[[96.5,53.86],[95.82,53.94],[95.89,54.18],[96.72,54.57],[98.13,53.51],[100.46,53.27],[100.82,52.46],[102.33,52.07],[101.18,51.65],[102.39,51.43],[102.55,51.03],[101.0,51.18],[100.56,51.76],[99.95,50.98],[99.76,51.39],[99.14,51.49],[99.25,50.84],[98.47,50.46],[98.0,51.03],[98.51,51.58],[98.03,52.15],[98.55,52.7],[98.34,53.1],[97.02,53.29],[96.5,53.86]],[[28.54,41.76],[27.88,42.77],[29.31,43.48],[29.56,42.87],[30.43,42.7],[30.67,42.08],[31.48,42.33],[32.18,41.93],[31.1,41.26],[29.79,41.2],[28.54,41.76]],[[24.63,39.29],[25.68,38.96],[24.71,38.86],[24.63,39.29]],[[25.93,39.41],[25.41,39.58],[25.53,39.81],[25.86,39.84],[25.93,39.41]],[[47.18,66.99],[45.51,67.35],[47.32,67.76],[47.57,67.57],[47.18,66.99]],[[10.51,56.91],[11.68,57.11],[10.69,56.58],[10.51,56.91]],[[24.03,57.66],[23.36,57.79],[23.93,58.0],[24.03,57.66]],[[34.15,41.98],[34.12,42.39],[35.1,42.4],[34.15,41.98]],[[73.55,72.19],[73.4,72.42],[74.0,72.57],[74.87,72.24],[73.55,72.19]],[[97.2,45.01],[97.01,45.41],[97.33,45.49],[97.58,45.33],[97.2,45.01]],[[76.84,35.59],[77.36,35.87],[77.68,35.27],[76.84,35.59]],[[108.12,54.32],[108.23,53.91],[107.63,54.06],[108.12,54.32]],[[97.98,49.91],[96.11,50.16],[97.16,50.4],[97.78,50.31],[97.98,49.91]],[[142.15,49.79],[142.48,50.13],[143.01,49.67],[142.67,49.32],[142.88,48.74],[142.31,48.75],[142.09,49.33],[142.42,49.67],[142.15,49.79]],[[88.84,28.74],[89.29,28.28],[89.03,27.93],[88.58,28.4],[88.84,28.74]],[[109.52,53.84],[109.46,54.21],[110.08,54.03],[109.52,53.84]],[[91.29,37.4],[91.77,37.13],[90.73,37.19],[91.29,37.4]],[[72.21,67.08],[73.49,68.15],[74.66,67.96],[73.35,66.91],[72.21,67.08]],[[73.45,70.26],[72.64,70.58],[73.84,70.64],[73.97,70.41],[73.45,70.26]],[[24.88,39.75],[24.35,39.91],[24.48,40.14],[24.8,40.17],[24.88,39.75]],[[109.1,52.57],[108.54,52.71],[109.01,52.97],[109.1,52.57]],[[54.85,68.44],[54.01,68.66],[55.04,68.82],[55.25,68.62],[54.85,68.44]],[[93.75,61.39],[93.43,61.78],[94.28,61.69],[93.75,61.39]],[[59.61,65.0],[59.45,65.22],[59.84,65.39],[60.56,65.13],[59.61,65.0]]],[[[-17.8,63.33],[-16.48,63.6],[-15.84,64.14],[-14.59,64.16],[-13.44,64.76],[-13.66,65.12],[-18.51,63.6],[-19.99,64.12],[-21.66,64.18],[-22.31,65.13],[-19.88,65.86],[-17.26,65.73],[-16.08,66.35],[-15.19,65.48],[-13.06,65.42],[-13.27,65.78],[-14.11,65.86],[-14.59,66.59],[-18.74,66.51],[-19.81,66.09],[-21.61,66.16],[-22.42,66.65],[-23.49,65.97],[-22.58,65.95],[-22.21,65.59],[-24.48,65.51],[-23.73,64.57],[-22.46,64.43],[-23.0,63.86],[-21.33,63.82],[-20.63,63.34],[-17.8,63.33]]],[[[-7.39,61.84],[-7.1,61.3],[-6.33,61.22],[-6.6,61.76],[-5.67,62.26],[-6.79,62.68],[-7.72,62.17],[-7.39,61.84]]],[[[155.8,49.93],[158.93,51.84],[158.68,52.84],[160.22,53.12],[160.05,53.5],[160.67,54.01],[160.49,54.39],[162.26,54.26],[162.22,54.86],[162.75,55.14],[161.76,55.4],[161.88,55.62],[163.54,55.85],[163.51,56.45],[164.08,56.73],[163.05,57.0],[163.76,57.51],[163.59,57.9],[162.51,58.17],[163.87,58.35],[165.25,59.12],[163.67,59.37],[163.49,59.76],[164.78,59.7],[166.07,60.25],[166.53,59.67],[167.18,59.94],[166.59,60.93],[165.26,60.38],[164.44,60.5],[164.43,61.14],[164.08,61.32],[164.93,61.83],[164.58,62.01],[164.75,62.24],[165.45,62.52],[164.21,62.83],[162.98,62.48],[162.82,62.25],[164.06,61.96],[162.51,61.78],[162.37,61.55],[163.58,61.26],[163.42,61.03],[159.26,59.19],[159.5,58.8],[158.83,58.26],[156.27,58.03],[156.7,57.04],[155.51,57.03],[155.78,56.65],[155.29,56.34],[155.55,55.97],[155.0,55.43],[155.58,54.92],[155.05,54.39],[156.4,52.39],[155.85,51.85],[156.23,51.09],[155.23,51.08],[155.42,50.7],[154.89,50.15],[155.8,49.93]],[[160.53,59.16],[162.34,60.05],[162.73,59.25],[161.67,58.9],[161.74,58.28],[160.72,57.92],[160.92,57.54],[160.37,57.24],[160.46,56.63],[158.99,55.98],[159.11,55.38],[157.72,54.72],[157.84,54.13],[158.52,54.05],[158.7,53.67],[156.87,53.53],[156.67,53.9],[157.24,54.42],[157.01,54.79],[157.49,55.09],[157.02,55.83],[160.05,57.4],[159.95,58.02],[160.51,58.31],[160.29,58.7],[160.87,59.0],[160.53,59.16]],[[161.35,55.34],[160.21,54.55],[159.52,54.63],[160.64,55.43],[160.24,56.19],[160.97,56.09],[161.35,55.34]],[[157.91,52.7],[158.1,52.31],[157.44,52.39],[157.91,52.7]],[[163.06,59.08],[163.85,58.97],[163.24,58.68],[163.06,59.08]]],[[[144.49,59.33],[146.16,58.86],[147.02,59.33],[149.11,59.16],[150.02,59.61],[151.12,58.73],[152.76,58.64],[153.71,59.07],[154.9,58.86],[155.97,59.5],[154.76,59.72],[154.84,59.95],[157.11,61.24],[156.82,61.64],[155.92,61.71],[156.13,61.08],[154.45,60.1],[153.14,60.07],[153.46,59.68],[152.94,59.35],[152.22,59.88],[146.2,60.05],[145.33,59.58],[142.32,59.9],[142.8,59.31],[144.49,59.33]]],[[[-0.38,35.77],[0.1,35.7],[0.46,36.27],[1.53,36.62],[2.5,36.5],[3.37,35.88],[4.47,36.21],[4.84,35.65],[5.83,35.49],[6.53,36.13],[7.53,35.95],[9.05,36.57],[10.07,36.37],[11.06,35.26],[11.44,35.57],[11.18,36.41],[11.56,36.72],[11.21,37.3],[9.14,37.7],[8.11,37.0],[6.37,37.42],[5.73,37.02],[4.0,37.4],[2.56,36.73],[1.36,37.01],[0.29,36.65],[-0.07,36.09],[-1.9,35.48],[-1.73,35.09],[-0.38,35.77]]],[[[82.15,73.46],[83.62,73.46],[83.6,73.7],[81.35,73.83],[80.0,73.33],[80.8,72.97],[82.15,73.46]]],[[[118.77,39.87],[116.44,40.43],[115.74,39.6],[117.58,39.7],[118.42,39.29],[119.48,39.61],[118.77,39.87]]],[[[-161.07,65.2],[-162.48,64.96],[-160.73,64.05],[-160.29,64.2],[-160.93,64.74],[-160.55,65.12],[-161.07,65.2]]],[[[65.35,76.54],[67.03,76.65],[65.68,76.94],[65.0,76.77],[65.35,76.54]]],[[[3.09,39.97],[2.24,39.71],[2.58,38.94],[3.36,38.96],[3.77,39.52],[4.63,39.78],[4.25,40.32],[3.09,39.97]]],[[[141.87,44.78],[142.69,44.87],[142.49,45.47],[140.87,45.5],[141.87,44.78]]],[[[48.98,69.67],[47.62,69.28],[47.81,68.72],[50.28,68.72],[50.78,69.29],[48.98,69.67]]],[[[115.54,-32.68],[115.62,-33.21],[114.62,-33.63],[114.7,-34.17],[116.01,-33.42],[116.13,-32.05],[115.19,-32.13],[115.54,-32.68]]],[[[115.88,-34.82],[115.85,-35.18],[116.28,-35.04],[115.88,-34.82]]],[[[-16.39,32.58],[-15.87,33.09],[-16.13,33.47],[-16.65,32.96],[-17.7,32.95],[-16.65,32.19],[-16.39,32.58]]],[[[56.8,27.01],[57.23,27.11],[56.89,27.38],[55.85,27.02],[56.2,26.75],[56.8,27.01]]],[[[12.72,36.08],[12.33,35.77],[12.46,35.35],[13.23,35.96],[12.72,36.08]]],[[[-25.98,38.13],[-26.21,37.72],[-25.56,37.0],[-25.0,37.03],[-25.35,37.66],[-25.12,38.06],[-25.98,38.13]]],[[[-17.14,28.12],[-16.15,28.14],[-15.9,28.77],[-16.64,28.89],[-17.14,28.38],[-17.65,29.13],[-18.15,29.12],[-18.38,28.47],[-17.14,28.12]]],[[[-165.29,62.55],[-166.15,62.44],[-166.67,61.67],[-165.52,61.12],[-165.93,60.15],[-167.28,60.3],[-167.51,59.92],[-166.52,59.61],[-165.14,60.25],[-163.65,59.65],[-161.72,59.98],[-161.48,60.56],[-160.3,60.79],[-159.33,62.1],[-158.06,62.31],[-156.89,63.4],[-157.42,63.94],[-158.82,63.96],[-159.58,63.22],[-162.1,62.54],[-162.66,62.84],[-162.33,63.22],[-161.09,63.68],[-162.49,63.67],[-163.23,63.13],[-164.31,63.48],[-165.29,62.55]]],[[[159.47,62.26],[158.84,61.95],[160.11,61.69],[159.48,61.39],[159.6,60.75],[161.3,60.55],[161.08,60.96],[160.22,61.06],[160.99,61.59],[160.75,62.0],[159.47,62.26]]],[[[174.16,52.8],[172.62,53.32],[172.06,53.08],[172.4,52.49],[173.36,52.76],[173.68,52.16],[174.24,52.4],[174.16,52.8]]],[[[-170.97,63.32],[-169.78,63.02],[-168.53,63.32],[-171.46,63.99],[-172.02,63.4],[-170.97,63.32]]],[[[157.71,61.56],[158.33,61.88],[157.43,61.96],[157.71,61.56]]],[[[116.43,54.27],[117.26,54.61],[116.04,54.67],[115.83,54.49],[116.43,54.27]]],[[[94.17,29.51],[93.42,29.2],[93.85,28.49],[95.39,29.57],[96.08,29.18],[95.68,30.12],[94.76,30.62],[94.48,30.3],[94.91,29.59],[94.21,29.97],[93.96,29.87],[94.17,29.51]]],[[[102.56,34.83],[102.76,34.49],[103.33,35.06],[102.66,35.26],[102.33,34.96],[102.56,34.83]]],[[[-172.33,65.74],[-172.91,65.14],[-173.08,64.09],[-172.17,64.25],[-171.95,65.29],[-171.57,65.47],[-172.33,65.74]]],[[[-27.44,38.4],[-26.91,38.7],[-27.55,39.16],[-28.95,38.9],[-28.26,38.19],[-27.44,38.4]]],[[[-9.24,57.95],[-8.92,57.6],[-8.09,58.16],[-9.24,57.95]]],[[[154.22,49.13],[153.8,48.81],[154.42,48.74],[155.36,49.61],[154.11,49.75],[154.22,49.13]]],[[[-155.07,63.04],[-155.93,62.77],[-154.18,62.85],[-155.07,63.04]]],[[[1.41,38.35],[2.07,39.0],[1.68,39.53],[1.07,39.11],[1.41,38.35]]],[[[61.52,76.09],[62.11,76.27],[61.72,76.5],[60.71,76.54],[58.59,76.19],[61.52,76.09]]],[[[173.42,61.57],[170.51,60.6],[171.29,60.44],[173.46,61.16],[173.7,61.37],[173.42,61.57]]],[[[180.0,63.14],[179.01,63.52],[179.31,63.73],[179.06,63.94],[178.5,63.94],[178.17,63.32],[178.97,63.11],[179.21,62.9],[178.92,62.69],[177.6,62.9],[174.18,61.8],[174.96,61.62],[177.58,62.48],[178.88,62.28],[179.98,62.68],[179.75,62.89],[180.0,63.14]]],[[[69.46,-49.15],[69.89,-48.85],[69.3,-48.77],[69.46,-49.15]]],[[[82.99,34.99],[85.07,35.01],[85.35,35.38],[84.84,35.87],[83.26,35.85],[82.73,35.35],[82.99,34.99]]],[[[-8.97,32.77],[-7.93,33.2],[-7.61,33.81],[-8.9,33.51],[-9.47,32.79],[-9.25,32.41],[-8.97,32.77]]],[[[21.53,79.54],[20.09,80.1],[21.2,80.22],[21.07,80.44],[19.78,80.55],[12.53,79.62],[15.45,79.02],[17.14,79.5],[21.53,79.54]]],[[[166.61,55.22],[165.92,55.34],[165.92,54.74],[166.61,54.62],[166.61,55.22]]],[[[178.24,64.15],[178.54,64.36],[178.27,64.57],[177.4,64.36],[178.24,64.15]]],[[[124.07,39.71],[124.0,40.12],[123.02,39.87],[124.07,39.71]]],[[[90.53,29.06],[91.97,29.02],[91.29,29.62],[92.04,29.94],[91.08,29.96],[90.53,29.06]]],[[[-14.43,28.02],[-13.69,28.15],[-13.18,28.89],[-13.4,29.52],[-14.16,29.15],[-14.67,28.4],[-14.43,28.02]]],[[[149.53,45.43],[150.28,46.1],[149.7,46.15],[149.33,45.81],[149.53,45.43]]],[[[68.34,-49.6],[69.78,-49.91],[70.21,-49.6],[68.78,-49.3],[68.34,-49.6]]],[[[-15.4,28.52],[-15.9,28.02],[-15.66,27.64],[-15.16,28.15],[-15.4,28.52]]],[[[169.72,60.76],[168.41,60.87],[167.54,60.38],[169.81,60.35],[170.02,60.57],[169.72,60.76]]],[[[167.84,54.75],[167.72,55.13],[167.16,54.88],[167.56,54.31],[168.11,54.57],[167.84,54.75]]],[[[115.48,-34.61],[115.92,-34.47],[115.52,-34.25],[115.48,-34.61]]],[[[87.4,74.02],[85.94,74.78],[84.34,74.8],[85.85,73.8],[87.4,74.02]]],[[[116.97,-35.27],[116.99,-34.92],[116.56,-35.06],[116.97,-35.27]]],[[[-175.56,65.07],[-175.2,65.26],[-175.41,65.48],[-176.36,65.31],[-175.56,65.07]]],[[[153.38,48.49],[152.97,48.16],[153.58,48.1],[153.38,48.49]]],[[[-164.29,64.55],[-166.96,64.86],[-166.17,64.35],[-164.29,64.55]]],[[[177.7,51.91],[177.64,52.32],[177.08,52.1],[177.7,51.91]]],[[[-163.17,64.19],[-162.83,64.58],[-163.77,64.49],[-163.17,64.19]]],[[[120.79,40.64],[120.2,40.39],[120.19,40.05],[120.79,40.64]]],[[[22.76,79.2],[24.9,79.18],[23.75,79.53],[22.76,79.2]]],[[[-30.78,39.48],[-31.09,39.57],[-31.3,39.16],[-30.78,39.48]]],[[[-172.57,60.35],[-172.41,60.75],[-173.21,60.6],[-172.57,60.35]]],[[[18.89,74.3],[20.31,74.3],[19.45,74.61],[18.89,74.3]]],[[[11.94,37.02],[11.86,36.78],[12.37,36.67],[12.25,37.09],[11.94,37.02]]],[[[14.56,35.79],[14.44,36.21],[14.13,36.15],[14.04,35.91],[14.56,35.79]]]]}}]}