{"type":"FeatureCollection","features":[{"type":"Feature","properties":{},"geometry":{"type":"MultiPolygon","coordinates":[[[[-8.54,55.37],[-9.29,54.99],[-9.02,54.41],[-10.75,54.44],[-10.44,54.08],[-10.84,53.54],[-10.21,53.03],[-10.97,52.17],[-10.38,51.43],[-8.77,51.18],[-8.03,51.81],[-6.03,52.05],[-5.48,53.25],[-6.01,53.99],[-4.95,54.2],[-4.7,53.83],[-5.09,53.54],[-5.01,52.28],[-5.77,51.68],[-4.85,51.45],[-4.64,50.84],[-5.6,50.85],[-6.74,49.69],[-4.86,49.7],[-4.39,48.94],[-5.35,48.7],[-4.91,47.7],[-3.74,47.55],[-1.91,46.45],[-1.3,45.28],[-1.65,44.97],[-1.65,43.64],[-1.94,43.57],[-8.1,44.05],[-9.63,43.32],[-8.88,42.14],[-9.2,41.8],[-8.98,41.16],[-9.83,41.1],[-10.47,40.14],[-11.31,40.06],[-11.07,39.42],[-11.66,38.95],[-11.42,38.31],[-12.01,37.58],[-11.02,36.27],[-7.62,36.18],[-6.18,35.32],[-7.35,33.91],[-8.9,33.51],[-10.03,32.07],[-9.94,29.94],[-10.48,29.21],[-11.21,29.11],[-11.74,28.37],[-12.46,28.51],[-13.45,28.02],[-13.71,27.65],[-13.49,27.02],[-14.21,26.9],[-15.2,25.4],[-14.98,24.29],[-13.98,26.52],[-12.27,27.38],[-11.56,27.25],[-11.06,27.73],[-10.35,27.59],[-9.84,28.07],[-9.14,27.92],[-8.63,28.39],[-7.93,28.24],[-6.21,29.0],[-5.53,28.83],[-0.86,30.7],[0.99,30.66],[1.55,31.06],[2.21,30.83],[2.78,31.23],[4.53,30.41],[5.92,31.03],[6.59,30.76],[9.34,31.48],[10.12,32.34],[11.59,32.01],[13.99,32.75],[15.18,32.31],[15.2,31.64],[15.7,31.51],[16.0,30.89],[16.68,31.24],[17.66,30.96],[18.93,30.05],[20.4,30.96],[20.32,32.08],[21.43,32.69],[22.12,32.34],[22.83,32.66],[23.1,32.02],[24.08,31.69],[24.79,32.0],[24.86,31.56],[25.53,31.19],[26.24,31.49],[27.38,30.93],[28.09,31.23],[29.21,30.65],[29.93,30.94],[30.15,30.29],[30.86,30.56],[32.24,29.99],[32.31,29.11],[33.87,27.44],[33.94,26.56],[34.34,26.8],[34.28,27.68],[35.54,27.96],[34.95,28.38],[35.05,29.04],[35.79,28.41],[35.9,29.08],[36.32,29.31],[37.46,28.91],[38.01,29.36],[40.37,29.18],[40.92,29.61],[44.44,29.57],[45.33,28.91],[46.77,29.07],[47.26,28.63],[48.27,28.58],[48.68,27.32],[49.98,26.65],[49.91,25.83],[50.68,25.19],[51.09,25.77],[50.01,27.05],[50.08,27.87],[49.45,27.7],[48.74,28.15],[48.3,29.0],[48.87,29.79],[49.51,29.96],[51.67,27.47],[52.34,27.54],[53.83,26.28],[55.09,26.59],[56.11,26.37],[55.61,25.9],[56.37,25.73],[56.54,26.47],[57.14,26.73],[57.15,27.32],[56.02,27.18],[55.77,26.64],[55.17,26.97],[54.58,26.7],[53.56,26.91],[52.05,28.18],[51.37,28.11],[51.02,29.34],[49.33,30.79],[48.93,32.04],[48.16,32.53],[47.49,32.37],[47.13,33.02],[47.81,33.18],[49.79,32.32],[49.22,33.41],[49.89,33.11],[50.77,33.38],[51.27,32.9],[51.15,32.1],[51.87,32.19],[52.63,31.65],[53.77,32.47],[53.47,33.15],[54.13,32.82],[54.39,33.4],[55.16,32.84],[55.62,32.96],[54.76,33.75],[55.32,34.28],[53.44,33.78],[53.12,34.46],[56.18,35.4],[56.96,34.82],[56.19,34.12],[56.09,33.08],[56.57,33.2],[56.76,34.01],[57.42,33.03],[58.66,33.19],[58.78,33.59],[58.02,34.18],[59.09,34.17],[58.62,34.7],[58.83,34.88],[59.5,34.52],[60.21,34.8],[59.45,35.4],[58.44,35.17],[58.47,35.82],[59.18,36.11],[58.7,36.65],[58.91,36.82],[59.6,36.46],[59.57,35.81],[60.37,35.85],[60.25,35.44],[60.63,35.14],[61.35,35.42],[60.89,35.96],[61.24,36.55],[62.58,36.68],[63.34,36.05],[64.77,36.82],[65.98,36.51],[67.83,36.92],[68.48,36.5],[70.0,37.21],[70.0,38.61],[68.77,38.97],[67.65,38.82],[67.22,38.24],[66.85,38.57],[67.03,38.98],[67.84,39.23],[68.03,39.64],[73.49,40.14],[73.99,40.7],[73.29,41.41],[73.49,42.07],[73.17,42.17],[71.98,42.06],[70.68,41.01],[70.36,41.11],[70.52,41.77],[70.15,42.12],[70.42,42.28],[75.21,42.72],[77.41,41.96],[77.96,42.5],[78.87,42.41],[80.33,43.35],[80.95,42.85],[83.95,43.39],[82.75,44.15],[83.06,44.53],[84.27,44.02],[86.68,43.97],[87.92,44.43],[87.4,45.46],[88.41,46.3],[88.17,46.95],[88.52,47.31],[87.94,47.85],[87.3,47.88],[86.74,48.91],[85.41,48.7],[86.13,49.7],[85.15,50.11],[86.5,50.06],[87.21,50.54],[86.62,51.58],[87.31,51.54],[87.61,51.15],[88.78,52.22],[90.16,52.13],[90.93,52.57],[91.93,52.36],[92.77,53.03],[93.82,53.05],[94.75,53.95],[92.77,54.65],[92.82,54.9],[94.37,55.23],[96.79,54.81],[97.64,55.19],[99.01,54.99],[99.42,54.18],[100.74,53.97],[100.92,53.57],[101.83,53.28],[101.9,52.64],[103.14,52.41],[104.28,51.31],[105.66,51.52],[106.22,52.01],[107.14,51.93],[107.15,52.55],[108.44,53.11],[108.46,53.73],[108.94,53.99],[107.87,53.88],[107.86,53.26],[106.91,52.73],[105.97,52.82],[105.99,52.19],[105.05,52.27],[104.91,52.68],[105.38,52.95],[104.31,52.8],[103.86,54.01],[102.6,54.26],[102.15,54.84],[101.5,54.96],[102.08,55.47],[100.74,55.71],[100.34,56.51],[99.34,56.8],[100.43,57.61],[99.4,57.89],[99.18,58.29],[98.26,57.94],[97.45,58.9],[94.5,58.41],[92.29,59.12],[92.03,59.75],[90.83,59.97],[89.8,61.13],[90.35,61.68],[88.98,61.42],[88.19,61.95],[86.42,62.04],[87.95,63.26],[87.03,63.3],[85.55,62.31],[83.74,62.37],[80.49,63.47],[81.9,63.58],[82.84,63.09],[83.79,63.77],[80.92,64.29],[80.4,64.87],[78.9,64.98],[78.33,65.55],[76.79,65.64],[75.88,65.16],[74.71,65.82],[72.52,66.19],[73.97,66.59],[75.71,68.0],[74.92,68.56],[75.82,69.05],[77.11,68.62],[76.69,68.26],[77.43,67.7],[78.49,67.71],[77.78,68.28],[78.21,68.64],[76.85,69.32],[73.47,69.2],[72.71,69.52],[74.35,69.71],[74.63,70.31],[75.17,70.45],[73.57,71.11],[73.84,71.72],[75.13,71.77],[74.81,71.16],[77.99,71.13],[78.5,71.49],[76.42,71.81],[78.34,71.97],[78.81,72.58],[77.44,72.56],[77.54,72.32],[76.92,72.18],[75.35,72.62],[74.28,72.1],[72.08,72.36],[72.25,72.13],[71.32,71.59],[72.19,71.28],[71.97,70.67],[73.97,70.41],[72.28,70.21],[72.42,69.98],[71.59,69.46],[73.24,68.6],[71.24,66.81],[69.52,67.05],[68.68,66.53],[67.42,66.9],[65.35,66.72],[64.91,66.57],[65.04,66.35],[62.33,65.59],[62.22,64.98],[60.32,64.74],[59.71,64.17],[59.17,64.21],[59.23,64.82],[58.51,65.08],[58.89,65.26],[58.72,65.47],[61.31,66.29],[61.15,66.51],[59.58,66.42],[58.95,65.86],[56.1,66.63],[55.14,66.47],[54.59,65.9],[53.11,65.75],[53.19,66.74],[53.56,66.92],[52.54,67.34],[52.91,67.53],[52.68,67.73],[52.08,67.74],[51.58,67.17],[49.82,67.19],[52.47,66.36],[50.31,65.81],[48.96,66.02],[48.72,66.22],[49.05,66.41],[48.0,66.8],[48.33,67.0],[48.08,67.19],[50.4,68.15],[54.66,68.06],[58.18,68.68],[58.8,68.65],[58.75,68.07],[60.85,68.33],[60.95,68.91],[61.41,69.07],[60.41,69.53],[61.83,69.82],[59.66,70.54],[57.92,70.43],[57.66,71.02],[56.62,71.26],[56.99,71.44],[55.56,71.87],[55.95,72.45],[57.11,72.61],[56.78,73.22],[55.98,73.24],[55.58,73.05],[55.96,72.84],[54.43,72.49],[54.81,72.28],[54.47,71.71],[55.91,71.28],[55.54,70.71],[53.81,70.95],[53.4,71.53],[52.29,71.74],[52.56,72.32],[53.67,72.5],[53.21,73.09],[52.42,73.1],[52.07,72.91],[52.49,72.71],[51.06,72.33],[51.48,72.14],[51.16,71.94],[51.57,71.75],[51.34,71.18],[54.87,70.35],[56.56,70.49],[59.76,69.56],[58.66,69.43],[57.98,68.89],[56.29,68.77],[54.59,69.22],[48.25,67.96],[46.79,68.14],[46.59,68.7],[45.7,68.88],[43.28,68.81],[42.97,68.61],[43.86,68.45],[44.11,67.89],[43.23,67.67],[42.93,67.08],[41.24,67.39],[41.51,67.98],[41.21,68.15],[38.88,68.4],[38.51,68.94],[37.02,69.03],[36.48,69.55],[35.2,69.26],[31.7,70.25],[31.29,70.79],[28.97,70.91],[27.85,71.37],[26.65,71.01],[24.27,71.49],[21.98,71.12],[21.0,70.54],[18.76,70.54],[18.02,69.76],[13.75,69.0],[13.29,68.23],[11.93,68.08],[11.56,67.33],[12.73,67.65],[13.38,67.4],[11.83,66.97],[10.9,65.85],[11.64,65.45],[10.48,65.3],[10.41,64.87],[9.6,64.53],[9.77,64.2],[8.13,64.17],[8.2,63.66],[4.76,62.49],[4.97,62.14],[4.11,61.2],[5.02,59.98],[4.46,59.58],[5.05,58.51],[7.45,57.72],[9.5,58.29],[9.41,58.79],[10.51,58.81],[11.16,58.06],[7.84,57.1],[8.02,56.79],[7.46,56.31],[7.93,55.87],[6.91,55.11],[2.59,54.0],[-0.79,54.72],[-1.43,56.03],[-2.4,56.29],[-1.55,56.81],[-1.74,57.38],[-1.3,57.64],[-3.0,58.0],[-2.5,58.46],[-2.76,58.81],[-0.58,59.85],[-0.76,60.4],[-0.3,60.64],[-0.88,61.14],[-2.67,60.37],[-1.68,59.92],[-2.2,59.47],[-4.48,59.36],[-3.53,58.71],[-4.97,58.89],[-7.67,58.44],[-7.36,58.09],[-7.78,57.81],[-7.52,57.25],[-8.34,56.67],[-7.3,56.46],[-6.76,55.52],[-8.14,55.67],[-8.54,55.37]],[[15.42,43.58],[15.44,42.95],[16.22,42.66],[14.81,42.19],[14.43,43.4],[12.95,44.17],[12.77,45.18],[15.42,43.58]],[[68.02,45.77],[70.14,44.98],[69.64,44.4],[68.41,44.25],[67.66,44.68],[66.78,44.43],[68.0,43.41],[68.06,43.16],[67.2,42.91],[65.45,43.57],[64.6,43.3],[63.84,43.7],[63.0,43.42],[61.64,43.69],[60.77,44.32],[60.83,44.99],[60.38,45.3],[61.55,46.46],[64.68,47.0],[66.54,46.36],[67.46,46.62],[68.87,46.27],[68.93,46.02],[68.02,45.77]],[[27.62,35.85],[28.42,35.69],[28.49,36.36],[28.81,36.38],[30.29,35.83],[31.12,36.75],[32.1,36.36],[32.32,35.72],[33.07,35.97],[33.11,35.54],[31.79,34.82],[32.74,34.43],[32.78,33.99],[31.83,34.38],[30.18,34.06],[29.52,34.45],[28.65,33.94],[27.86,34.1],[27.31,33.61],[27.8,33.43],[28.04,32.78],[28.77,33.07],[29.9,32.49],[30.63,32.76],[31.74,32.17],[32.46,32.44],[33.55,31.83],[34.27,32.08],[34.3,31.65],[32.71,31.35],[31.61,31.94],[30.42,31.86],[29.16,31.1],[27.56,31.85],[25.46,31.63],[25.21,32.27],[24.23,32.61],[23.51,32.3],[23.24,32.93],[21.75,33.41],[19.83,32.23],[19.91,31.11],[18.83,30.48],[18.54,31.11],[15.79,31.75],[15.36,32.8],[11.5,33.34],[11.45,34.01],[10.74,34.29],[11.7,34.74],[11.1,36.17],[11.56,36.72],[11.21,37.3],[9.14,37.7],[8.11,37.0],[6.37,37.42],[5.73,37.02],[4.0,37.4],[2.56,36.73],[1.09,36.92],[1.08,38.02],[2.07,39.0],[1.68,39.53],[0.85,39.25],[0.51,40.02],[1.23,40.9],[2.02,40.94],[2.42,41.49],[3.59,41.85],[3.25,42.6],[3.67,43.16],[6.35,42.85],[8.46,44.02],[9.88,43.94],[10.03,43.55],[9.23,42.94],[8.37,42.94],[8.52,42.55],[8.05,42.01],[8.89,41.14],[8.05,41.14],[7.6,40.59],[8.35,40.35],[7.67,39.09],[8.56,38.44],[9.31,39.06],[10.14,39.04],[9.86,39.85],[10.33,40.4],[9.67,41.76],[11.02,42.28],[12.47,41.52],[12.74,40.71],[14.67,40.44],[14.8,40.03],[15.55,39.73],[15.57,39.08],[14.32,38.84],[14.35,38.19],[13.52,38.24],[13.17,38.83],[11.98,37.92],[12.33,37.33],[14.19,37.05],[14.53,36.45],[15.35,36.39],[15.61,37.77],[16.45,37.7],[16.96,38.23],[16.85,38.65],[17.58,39.0],[17.58,39.65],[16.83,39.96],[17.25,40.25],[17.79,40.12],[18.11,39.52],[19.4,39.72],[19.5,39.3],[20.24,38.97],[20.34,38.54],[19.8,38.02],[20.53,37.69],[21.24,36.68],[22.07,36.57],[22.35,35.95],[23.18,35.83],[23.53,34.76],[24.77,34.9],[25.77,34.57],[26.75,35.33],[27.55,35.18],[27.62,35.85]],[[34.22,28.56],[34.19,29.0],[34.48,29.01],[34.64,28.8],[34.22,28.56]],[[79.67,44.36],[79.0,45.11],[80.26,45.14],[80.87,45.67],[81.81,45.55],[80.88,45.16],[81.21,44.52],[79.67,44.36]],[[-3.05,35.99],[-2.08,35.87],[-1.51,36.29],[-0.81,36.07],[-2.2,35.15],[-2.91,35.35],[-3.05,35.99]],[[33.34,28.95],[32.85,29.59],[33.59,29.41],[33.65,28.53],[33.34,28.95]],[[74.14,67.84],[73.35,66.91],[72.29,66.86],[73.49,68.15],[74.55,68.19],[74.66,67.96],[74.14,67.84]],[[32.47,42.36],[32.95,42.58],[32.99,42.16],[31.1,41.26],[29.79,41.2],[28.74,41.56],[27.88,42.77],[28.83,43.25],[31.67,42.12],[32.47,42.36]],[[47.18,66.99],[45.51,67.35],[47.32,67.76],[47.57,67.57],[47.18,66.99]],[[22.3,69.74],[22.78,70.03],[23.38,69.72],[21.11,68.32],[19.27,67.96],[19.91,67.49],[18.53,67.4],[17.91,66.67],[16.61,66.57],[17.05,66.27],[16.56,65.76],[14.73,65.7],[15.75,65.36],[15.31,64.85],[14.25,64.77],[13.61,65.2],[14.94,66.36],[13.35,66.76],[15.53,66.91],[16.72,68.22],[18.14,68.33],[17.43,68.8],[22.3,69.74]],[[7.44,59.77],[6.97,59.56],[6.52,60.08],[7.09,60.47],[6.91,60.82],[7.87,61.22],[6.54,61.52],[6.35,61.86],[8.84,62.82],[10.3,62.69],[12.62,63.17],[13.12,62.78],[11.44,62.07],[11.25,62.36],[11.8,62.6],[10.5,62.4],[10.77,61.65],[9.62,61.63],[9.7,61.16],[8.56,61.13],[8.96,60.54],[8.45,60.29],[8.54,59.81],[7.44,59.77]],[[38.98,42.77],[41.21,42.68],[41.36,41.65],[40.27,41.08],[38.07,41.14],[36.43,41.99],[35.64,41.78],[35.43,42.4],[34.15,41.98],[33.46,42.38],[34.56,43.02],[36.39,42.82],[37.02,43.22],[38.32,43.2],[38.98,42.77]],[[88.67,54.11],[88.35,54.5],[88.73,54.6],[90.1,54.01],[88.98,53.71],[88.67,54.11]],[[-4.84,35.81],[-3.58,35.8],[-3.4,35.41],[-4.65,35.42],[-4.84,35.81]],[[23.6,36.1],[23.64,36.77],[23.95,36.8],[24.97,36.48],[25.24,35.84],[26.18,35.94],[25.32,35.41],[23.6,36.1]],[[77.0,43.09],[77.9,43.27],[78.23,42.9],[76.74,42.69],[76.39,43.06],[77.0,43.09]],[[33.68,34.03],[33.21,34.23],[33.35,34.46],[34.09,34.7],[34.19,35.36],[35.08,35.82],[34.6,36.02],[33.72,35.56],[33.68,35.99],[34.57,36.45],[35.35,36.26],[35.48,34.09],[33.68,34.03]],[[35.72,66.07],[36.46,66.32],[38.38,65.88],[39.95,65.98],[38.48,65.11],[36.61,65.56],[35.39,65.27],[35.1,65.44],[35.3,65.65],[36.02,65.9],[35.72,66.07]],[[26.15,38.13],[26.34,37.93],[25.9,37.67],[24.67,38.2],[25.11,38.47],[26.15,38.13]],[[50.42,65.22],[49.55,65.03],[48.55,65.43],[49.42,65.63],[50.42,65.22]],[[25.61,39.38],[25.53,39.81],[25.86,39.84],[26.06,39.64],[25.61,39.38]],[[57.35,34.53],[57.64,34.47],[57.53,34.07],[57.15,34.36],[57.35,34.53]],[[51.78,33.43],[51.33,33.3],[50.83,33.78],[51.28,33.92],[51.78,33.43]],[[18.87,41.8],[19.3,40.79],[18.86,40.51],[17.78,40.77],[17.45,41.36],[16.58,41.43],[16.24,42.02],[17.11,42.59],[18.76,42.21],[18.87,41.8]],[[24.88,39.75],[24.35,39.91],[24.48,40.14],[24.8,40.17],[24.88,39.75]],[[85.33,47.18],[86.31,47.53],[86.89,46.75],[85.3,46.67],[85.0,47.06],[85.33,47.18]],[[52.83,32.85],[52.0,32.99],[52.62,33.29],[52.83,32.85]],[[54.23,68.46],[54.01,68.66],[54.41,68.84],[55.25,68.62],[54.23,68.46]],[[25.16,39.12],[25.48,39.15],[25.56,38.73],[24.51,39.06],[25.16,39.12]]],[[[121.1,-34.07],[121.74,-34.2],[121.92,-34.78],[122.89,-34.27],[123.7,-34.57],[124.42,-34.07],[124.41,-33.05],[124.01,-32.91],[123.6,-33.77],[120.34,-33.76],[120.75,-34.31],[121.1,-34.07]]],[[[-73.08,-36.26],[-72.74,-36.54],[-72.41,-35.85],[-73.08,-36.26]]],[[[146.89,-40.86],[145.75,-40.7],[145.3,-40.12],[144.43,-40.11],[144.0,-39.53],[143.63,-39.85],[144.06,-40.44],[144.62,-40.53],[144.18,-41.1],[145.15,-43.17],[146.2,-43.83],[147.4,-43.99],[148.48,-43.23],[148.26,-42.82],[148.83,-41.49],[148.35,-40.92],[148.77,-40.33],[148.34,-39.5],[147.78,-39.43],[147.32,-38.85],[148.08,-37.92],[146.18,-37.53],[146.05,-36.86],[146.69,-36.44],[146.5,-36.02],[145.5,-36.78],[143.13,-36.27],[141.94,-36.58],[140.9,-36.39],[140.52,-35.8],[139.71,-35.76],[139.06,-34.33],[137.57,-34.01],[137.21,-34.32],[137.34,-34.74],[136.56,-34.69],[136.44,-34.27],[137.08,-33.9],[136.95,-33.49],[135.87,-34.4],[134.99,-33.93],[134.86,-35.06],[135.63,-35.12],[136.58,-36.25],[137.59,-36.48],[138.33,-35.86],[139.13,-35.9],[139.87,-38.0],[140.94,-38.21],[141.33,-38.8],[142.55,-38.51],[142.96,-39.1],[143.51,-39.19],[144.55,-38.45],[146.29,-39.62],[147.16,-39.61],[147.57,-40.43],[146.89,-40.86]]],[[[12.25,37.09],[11.94,37.02],[12.07,36.61],[12.46,36.91],[12.25,37.09]]],[[[174.4,-41.59],[175.81,-41.8],[176.22,-41.01],[176.99,-40.79],[177.34,-39.76],[178.08,-39.54],[178.94,-37.33],[176.69,-37.5],[176.07,-36.83],[176.26,-36.44],[175.92,-35.86],[175.16,-35.81],[174.52,-34.88],[172.68,-34.16],[172.47,-34.55],[173.05,-35.26],[172.84,-35.65],[174.62,-37.48],[173.6,-39.69],[174.41,-39.73],[175.08,-40.65],[173.44,-40.58],[172.84,-40.14],[171.81,-40.72],[172.15,-41.31],[171.33,-41.51],[170.62,-42.93],[167.22,-44.37],[166.09,-46.15],[167.71,-47.65],[169.19,-46.71],[170.11,-46.76],[171.26,-46.18],[170.9,-45.6],[171.65,-44.44],[173.07,-44.18],[173.31,-43.79],[172.95,-43.22],[173.77,-43.01],[174.4,-41.59]]],[[[-24.08,65.16],[-24.6,64.58],[-22.46,64.43],[-23.0,63.86],[-18.23,63.24],[-16.48,63.6],[-15.84,64.14],[-14.59,64.16],[-12.72,65.27],[-13.27,65.78],[-14.11,65.86],[-14.59,66.59],[-18.74,66.51],[-19.81,66.09],[-23.36,66.67],[-24.89,65.87],[-24.08,65.16]],[[-19.0,65.82],[-17.74,65.64],[-16.08,66.35],[-15.55,65.62],[-13.53,65.34],[-14.82,64.52],[-19.31,63.63],[-19.92,64.35],[-21.27,64.05],[-21.61,64.41],[-21.09,64.74],[-22.36,64.89],[-21.79,65.46],[-19.0,65.82]],[[-23.49,65.97],[-22.15,65.82],[-23.57,65.5],[-23.97,65.86],[-23.49,65.97]]],[[[15.68,78.8],[13.57,77.97],[15.65,77.8],[15.45,78.01],[16.3,78.14],[16.1,78.36],[16.98,78.49],[15.68,78.8]]],[[[86.47,40.95],[86.76,41.06],[86.52,41.7],[86.83,42.07],[86.29,42.59],[85.67,42.1],[81.86,42.23],[81.27,41.71],[79.21,41.78],[78.65,41.25],[78.98,40.63],[76.66,40.51],[75.56,39.92],[75.34,39.27],[76.63,37.84],[78.63,37.07],[79.45,37.24],[80.02,36.76],[83.27,36.84],[83.82,37.34],[86.26,37.71],[86.85,38.44],[86.47,40.95]]],[[[65.04,68.97],[66.16,69.06],[67.78,68.29],[68.88,68.36],[69.27,68.72],[68.29,69.24],[68.74,69.39],[67.72,69.91],[68.18,70.07],[67.98,70.29],[67.1,70.58],[67.85,71.12],[67.63,71.35],[69.36,71.6],[69.16,71.82],[69.69,71.98],[69.49,72.21],[70.03,72.37],[69.83,72.6],[71.73,72.83],[71.55,73.06],[72.15,73.22],[71.17,73.53],[69.2,73.29],[69.41,73.06],[68.85,72.9],[69.07,72.67],[68.53,72.51],[68.74,72.28],[68.22,72.12],[68.43,71.9],[66.69,71.64],[66.92,71.42],[65.96,70.49],[67.06,69.98],[66.38,69.44],[62.49,69.77],[65.04,68.97]]],[[[95.74,51.21],[96.16,51.53],[95.87,51.69],[94.86,51.69],[94.32,52.25],[92.98,52.39],[92.61,52.3],[92.82,51.65],[91.48,51.77],[90.0,51.13],[95.74,51.21]]],[[[-11.73,62.89],[-11.9,63.24],[-12.46,62.95],[-11.73,62.89]]],[[[159.22,-31.33],[158.94,-31.7],[159.19,-31.84],[159.46,-31.72],[159.22,-31.33]]],[[[-6.33,61.22],[-6.6,61.76],[-5.72,62.07],[-5.99,62.6],[-6.79,62.68],[-7.72,62.17],[-7.1,61.3],[-6.33,61.22]]],[[[18.21,78.17],[17.34,78.05],[17.51,77.83],[16.67,77.71],[16.85,77.49],[14.26,77.32],[16.57,76.72],[19.38,77.85],[19.25,78.07],[22.97,78.52],[20.62,79.2],[18.81,78.74],[18.96,78.51],[18.05,78.39],[18.21,78.17]]],[[[-54.27,-34.57],[-54.87,-34.87],[-54.19,-34.95],[-54.27,-34.57]]],[[[151.53,-33.9],[153.42,-31.74],[153.21,-31.33],[153.63,-29.95],[152.81,-30.26],[152.9,-31.69],[151.64,-33.13],[150.51,-33.53],[150.88,-34.61],[149.93,-35.41],[149.84,-37.61],[148.73,-37.48],[148.38,-37.83],[149.75,-38.12],[150.4,-37.67],[150.35,-36.24],[151.31,-35.43],[151.1,-35.02],[151.75,-34.31],[151.53,-33.9]]],[[[57.39,26.08],[57.05,26.36],[56.96,25.99],[57.63,25.44],[58.06,25.53],[57.39,26.08]]],[[[-16.91,32.32],[-16.39,32.32],[-15.87,33.34],[-17.7,32.95],[-16.91,32.32]]],[[[-116.33,31.2],[-116.16,31.61],[-116.5,31.94],[-117.0,31.85],[-116.33,31.2]]],[[[-57.15,-35.54],[-57.23,-35.17],[-57.74,-35.82],[-57.2,-36.37],[-57.15,-35.54]]],[[[-8.54,57.67],[-8.09,58.16],[-8.44,58.3],[-9.24,57.95],[-8.54,57.67]]],[[[153.47,-26.86],[153.33,-25.96],[152.75,-26.67],[153.18,-27.22],[152.86,-27.83],[153.51,-28.78],[153.18,-29.39],[153.42,-29.54],[154.01,-28.82],[153.56,-28.27],[153.88,-27.66],[153.47,-26.86]]],[[[13.06,31.65],[13.44,31.96],[13.23,32.14],[12.94,32.08],[13.06,31.65]]],[[[-25.0,37.03],[-24.79,37.69],[-25.12,38.06],[-26.24,37.98],[-25.24,36.63],[-24.69,36.67],[-25.0,37.03]]],[[[19.64,74.2],[20.22,74.51],[18.78,74.5],[19.64,74.2]]],[[[54.15,32.2],[55.07,32.44],[54.69,32.72],[54.15,32.2]]],[[[116.59,-34.71],[115.4,-34.06],[116.01,-33.42],[116.16,-31.72],[115.41,-31.31],[115.16,-32.47],[115.62,-33.21],[114.78,-33.47],[114.58,-33.98],[115.76,-34.63],[116.25,-35.39],[117.12,-35.11],[116.59,-34.71]]],[[[82.4,71.52],[81.83,70.92],[83.72,71.27],[83.02,71.88],[81.69,71.88],[82.4,71.52]]],[[[48.61,69.48],[47.98,69.47],[47.54,68.91],[48.69,68.53],[50.28,68.72],[50.78,69.29],[49.62,69.67],[48.61,69.48]],[[49.4,68.91],[48.52,69.1],[49.51,69.29],[49.77,69.1],[49.4,68.91]]],[[[3.08,38.88],[3.77,39.52],[4.57,39.54],[4.47,40.17],[3.73,40.38],[2.58,40.03],[2.19,39.47],[3.08,38.88]]],[[[-176.48,-44.59],[-175.93,-44.54],[-175.83,-43.94],[-176.5,-43.53],[-177.27,-43.72],[-176.48,-44.59]]],[[[80.69,73.46],[80.0,73.33],[80.06,73.09],[81.49,73.1],[80.69,73.46]]],[[[-15.16,28.15],[-16.14,28.9],[-17.14,28.38],[-17.9,29.25],[-18.39,28.73],[-18.13,28.35],[-18.37,27.72],[-17.86,27.22],[-17.63,28.11],[-17.13,27.62],[-16.15,28.14],[-15.66,27.64],[-14.19,27.65],[-13.18,28.89],[-13.65,29.65],[-14.67,28.15],[-15.16,28.15]]],[[[178.5,-49.58],[178.29,-49.96],[178.88,-49.87],[178.5,-49.58]]],[[[-122.21,36.46],[-121.86,36.17],[-121.56,36.98],[-122.2,37.33],[-122.13,37.96],[-123.51,38.86],[-123.44,39.49],[-123.73,39.54],[-124.02,38.74],[-122.64,37.85],[-122.71,37.21],[-122.06,36.87],[-122.21,36.46]]],[[[80.95,72.24],[81.57,72.61],[80.85,72.73],[79.6,72.23],[80.36,71.88],[80.95,72.24]]],[[[23.32,77.19],[25.02,78.06],[20.38,77.75],[21.53,77.2],[23.32,77.19]]],[[[-64.73,32.66],[-65.07,32.11],[-64.31,32.52],[-64.73,32.66]]],[[[132.36,43.05],[131.65,43.35],[131.24,42.66],[131.9,43.03],[132.84,42.63],[133.06,42.97],[132.36,43.05]]],[[[137.79,-33.29],[137.38,-32.94],[137.44,-33.6],[137.93,-33.7],[137.79,-33.29]]],[[[51.42,25.56],[51.39,25.15],[51.75,25.34],[51.75,26.31],[51.37,26.16],[51.42,25.56]]],[[[12.72,36.08],[12.33,35.77],[12.46,35.35],[13.23,35.96],[12.72,36.08]]],[[[-15.92,24.27],[-15.93,23.54],[-15.45,24.28],[-15.92,24.27]]],[[[120.01,-34.38],[119.61,-33.84],[119.5,-34.39],[117.4,-35.13],[117.81,-35.34],[120.01,-34.38]]],[[[58.62,74.36],[59.98,74.51],[58.72,74.76],[58.23,74.57],[58.62,74.36]]],[[[61.0,74.88],[61.53,75.06],[61.16,75.28],[59.72,75.13],[61.0,74.88]]],[[[-36.49,-54.77],[-35.77,-55.01],[-36.45,-54.09],[-37.87,-54.06],[-36.49,-54.77]]],[[[55.6,74.24],[56.04,74.43],[55.61,74.64],[54.73,74.66],[54.31,74.47],[54.75,74.26],[53.1,73.88],[53.54,73.68],[53.16,73.49],[54.38,73.27],[54.76,73.86],[56.02,74.03],[55.6,74.24]]],[[[-56.63,-34.89],[-55.32,-34.88],[-55.59,-34.59],[-56.63,-34.89]]],[[[125.12,-32.54],[124.82,-33.2],[125.43,-32.9],[125.12,-32.54]]],[[[121.7,40.78],[122.14,40.88],[121.76,41.07],[121.7,40.78]]],[[[-64.57,-54.5],[-64.56,-54.88],[-63.96,-54.67],[-64.57,-54.5]]],[[[74.12,41.87],[73.84,41.71],[74.23,41.1],[75.99,41.23],[74.12,41.87]]],[[[-73.25,-37.58],[-73.25,-36.99],[-73.68,-37.08],[-73.78,-38.04],[-73.25,-37.58]]],[[[-66.39,-54.75],[-67.22,-55.14],[-66.61,-55.32],[-65.18,-54.71],[-66.39,-54.75]]],[[[166.29,-51.17],[166.6,-50.8],[166.26,-50.47],[165.63,-51.2],[166.29,-51.17]]],[[[49.85,31.71],[50.18,31.06],[51.04,31.32],[50.17,32.06],[49.85,31.71]]],[[[150.02,-34.9],[150.35,-34.55],[150.14,-34.14],[149.48,-34.84],[150.02,-34.9]]],[[[89.52,42.84],[88.97,43.12],[89.46,42.34],[89.79,42.7],[89.52,42.84]]],[[[-12.04,-37.03],[-12.56,-37.19],[-12.45,-37.43],[-12.13,-37.47],[-12.04,-37.03]]],[[[166.47,-47.95],[166.17,-48.33],[166.49,-48.43],[166.8,-48.3],[166.47,-47.95]]],[[[58.45,73.56],[58.08,73.77],[58.54,73.96],[58.15,74.17],[56.86,74.01],[57.2,73.4],[58.45,73.56]]],[[[14.44,36.21],[14.13,36.15],[14.25,35.73],[14.65,36.03],[14.44,36.21]]],[[[-28.83,38.14],[-27.14,38.29],[-26.67,39.1],[-27.89,39.52],[-28.95,38.9],[-29.17,38.49],[-28.83,38.14]]],[[[57.54,75.81],[57.04,75.62],[57.48,75.41],[58.91,75.57],[57.54,75.81]]],[[[-30.78,39.48],[-31.71,39.75],[-30.99,39.07],[-30.78,39.48]]],[[[-56.88,-36.83],[-57.24,-37.18],[-56.97,-37.45],[-56.45,-36.83],[-56.72,-36.56],[-56.88,-36.83]]],[[[-66.59,-54.56],[-66.58,-54.19],[-67.18,-54.39],[-66.59,-54.56]]]]}}]}