{"type":"FeatureCollection","features":[{"type":"Feature","properties":{},"geometry":{"type":"MultiPolygon","coordinates":[[[[-18.07,63.69],[-18.51,63.6],[-18.87,63.73],[-19.31,63.63],[-19.68,63.76],[-20.13,63.67],[-20.5,63.79],[-20.44,64.02],[-20.82,64.15],[-21.27,64.05],[-21.33,63.82],[-20.94,63.69],[-21.0,63.46],[-20.63,63.34],[-20.19,63.44],[-19.82,63.31],[-19.39,63.41],[-19.02,63.28],[-18.59,63.37],[-18.23,63.24],[-17.8,63.33],[-17.71,63.56],[-17.27,63.65],[-17.18,63.87],[-17.54,64.01],[-17.98,63.92],[-18.07,63.69]]],[[[19.26,48.69],[19.62,48.73],[19.74,48.95],[20.1,48.99],[20.22,49.2],[19.99,49.37],[20.11,49.58],[20.48,49.63],[20.71,49.46],[21.08,49.5],[21.21,49.71],[21.57,49.75],[21.7,49.96],[22.07,49.99],[22.31,49.82],[22.67,49.86],[22.81,50.06],[22.57,50.24],[22.71,50.44],[23.08,50.48],[23.21,50.68],[22.98,50.85],[22.6,50.82],[22.37,50.99],[22.5,51.19],[22.88,51.23],[23.01,51.43],[23.39,51.46],[23.53,51.67],[23.29,51.84],[23.43,52.04],[23.19,52.21],[23.33,52.41],[23.71,52.44],[23.85,52.64],[23.61,52.8],[23.76,53.0],[23.51,53.17],[23.66,53.36],[24.04,53.39],[24.19,53.59],[24.58,53.62],[24.72,53.81],[25.11,53.84],[25.26,54.03],[25.65,54.05],[25.89,53.88],[26.28,53.91],[26.52,53.74],[26.91,53.76],[27.07,53.95],[27.46,53.96],[27.61,54.15],[28.0,54.17],[28.24,54.0],[28.63,54.01],[28.79,54.2],[29.18,54.21],[29.34,54.39],[29.73,54.4],[29.89,54.59],[30.29,54.6],[30.45,54.78],[30.8,54.82],[31.03,54.64],[31.38,54.68],[31.51,54.9],[31.86,54.94],[32.09,54.76],[32.44,54.8],[32.58,55.01],[32.94,55.05],[33.08,55.27],[33.44,55.3],[33.67,55.12],[34.03,55.15],[34.18,55.37],[34.55,55.4],[34.77,55.21],[35.15,55.24],[35.3,55.46],[35.68,55.49],[35.9,55.3],[35.74,55.08],[35.36,55.06],[35.21,54.84],[35.43,54.65],[35.28,54.44],[35.49,54.25],[35.34,54.03],[35.55,53.84],[35.92,53.87],[36.13,53.68],[36.49,53.7],[36.65,53.92],[37.02,53.94],[37.23,53.75],[37.59,53.77],[37.76,53.98],[38.13,54.0],[38.3,54.21],[38.68,54.23],[38.85,54.45],[39.23,54.46],[39.41,54.68],[39.79,54.69],[39.97,54.91],[40.36,54.92],[40.55,55.13],[40.94,55.15],[41.13,55.36],[41.53,55.37],[41.73,55.17],[42.13,55.17],[42.33,55.39],[42.73,55.39],[42.93,55.19],[43.33,55.19],[43.53,55.4],[43.94,55.41],[44.15,55.62],[44.56,55.62],[44.75,55.41],[45.16,55.41],[45.38,55.62],[45.79,55.61],[46.01,55.82],[46.43,55.82],[46.62,55.6],[47.03,55.6],[47.26,55.8],[47.68,55.79],[47.92,56.0],[48.34,55.99],[48.58,56.19],[49.01,56.18],[49.25,56.38],[49.68,56.37],[49.94,56.57],[50.37,56.55],[50.62,56.75],[50.45,56.97],[50.71,57.18],[50.54,57.4],[50.8,57.6],[50.63,57.82],[50.89,58.02],[51.34,58.0],[51.62,58.2],[51.44,58.42],[51.72,58.61],[51.54,58.83],[51.08,58.85],[50.9,59.07],[51.18,59.27],[51.0,59.48],[50.54,59.5],[50.26,59.3],[49.8,59.31],[49.61,59.53],[49.15,59.54],[48.88,59.34],[48.42,59.35],[48.22,59.56],[47.77,59.56],[47.57,59.77],[47.83,59.98],[47.63,60.18],[47.16,60.19],[46.95,60.39],[46.49,60.4],[46.23,60.19],[45.77,60.19],[45.52,59.98],[45.06,59.98],[44.82,59.77],[44.36,59.76],[44.15,59.97],[44.39,60.17],[44.17,60.37],[43.71,60.37],[43.47,60.16],[43.02,60.15],[42.8,60.34],[42.34,60.33],[42.12,60.53],[41.66,60.51],[41.44,60.3],[40.99,60.28],[40.76,60.47],[40.31,60.45],[40.07,60.64],[39.62,60.62],[39.38,60.81],[39.59,61.02],[39.35,61.21],[38.9,61.18],[38.65,61.37],[38.2,61.34],[38.0,61.13],[37.55,61.1],[37.3,61.28],[36.86,61.25],[36.6,61.43],[36.8,61.64],[37.25,61.68],[37.44,61.89],[37.19,62.07],[36.73,62.04],[36.47,62.21],[36.02,62.18],[35.75,62.35],[35.95,62.57],[35.68,62.74],[35.22,62.7],[34.95,62.88],[34.49,62.84],[34.22,63.01],[33.76,62.96],[33.59,62.75],[33.14,62.7],[32.86,62.87],[32.42,62.82],[32.14,62.99],[31.69,62.93],[31.41,63.1],[31.57,63.31],[31.28,63.48],[31.44,63.69],[31.15,63.85],[30.7,63.8],[30.41,63.96],[29.96,63.9],[29.66,64.06],[29.81,64.27],[29.51,64.43],[29.06,64.37],[28.91,64.15],[28.47,64.09],[28.17,64.24],[28.31,64.46],[28.0,64.61],[27.55,64.54],[27.24,64.69],[27.38,64.91],[27.06,65.06],[27.2,65.27],[26.88,65.42],[26.43,65.35],[26.11,65.49],[26.23,65.71],[25.91,65.85],[25.46,65.78],[25.13,65.92],[25.25,66.13],[24.92,66.27],[24.46,66.2],[24.13,66.33],[23.68,66.26],[23.34,66.39],[22.9,66.31],[22.8,66.1],[22.36,66.02],[22.02,66.15],[21.59,66.07],[21.51,65.85],[21.08,65.77],[21.0,65.56],[21.33,65.43],[21.25,65.21],[20.84,65.13],[20.76,64.92],[20.35,64.83],[20.28,64.62],[20.6,64.49],[20.52,64.27],[20.13,64.19],[19.81,64.32],[19.42,64.24],[19.36,64.02],[18.98,63.94],[18.91,63.72],[18.54,63.64],[18.22,63.76],[17.85,63.68],[17.8,63.46],[17.44,63.38],[17.12,63.5],[16.76,63.41],[16.72,63.2],[17.03,63.08],[17.39,63.17],[17.7,63.04],[17.65,62.83],[17.29,62.74],[16.98,62.87],[16.63,62.78],[16.59,62.57],[16.14,62.52],[16.0,62.35],[16.31,62.22],[16.17,62.05],[15.73,62.0],[15.59,61.83],[15.15,61.78],[15.01,61.6],[15.32,61.48],[15.18,61.3],[14.75,61.25],[14.45,61.37],[14.02,61.32],[13.89,61.14],[14.19,61.02],[14.06,60.84],[13.63,60.78],[13.51,60.6],[13.08,60.54],[12.78,60.66],[12.36,60.6],[12.06,60.72],[12.18,60.9],[11.88,61.02],[11.46,60.95],[11.15,61.07],[10.73,61.0],[10.62,60.82],[10.2,60.75],[10.09,60.57],[10.39,60.46],[10.81,60.53],[11.11,60.41],[10.99,60.23],[10.58,60.16],[10.28,60.28],[9.87,60.21],[9.76,60.02],[9.35,59.95],[9.24,59.77],[8.84,59.69],[8.74,59.51],[8.34,59.43],[8.23,59.25],[8.53,59.13],[8.43,58.95],[8.03,58.87],[7.94,58.68],[7.54,58.6],[7.25,58.72],[6.86,58.64],[6.59,58.8],[6.69,58.99],[6.41,59.16],[6.51,59.35],[6.23,59.52],[6.33,59.7],[6.05,59.87],[6.15,60.06],[5.86,60.22],[5.96,60.41],[5.67,60.57],[5.77,60.76],[5.48,60.92],[5.57,61.11],[5.28,61.27],[5.38,61.45],[5.08,61.62],[5.17,61.8],[5.57,61.82],[5.67,62.0],[6.06,62.02],[6.16,62.21],[5.86,62.37],[5.96,62.55],[6.36,62.57],[6.66,62.4],[7.05,62.42],[7.16,62.6],[7.55,62.61],[7.66,62.79],[8.05,62.8],[8.16,62.98],[8.56,62.99],[8.67,63.16],[9.07,63.17],[9.18,63.34],[9.58,63.35],[9.9,63.24],[10.34,63.31],[10.46,63.48],[10.9,63.55],[11.02,63.72],[11.47,63.78],[11.6,63.95],[11.27,64.05],[10.82,63.99],[10.7,63.82],[10.25,63.76],[9.93,63.86],[10.05,64.03],[10.5,64.1],[10.62,64.26],[10.29,64.37],[9.88,64.36],[9.77,64.2],[9.36,64.19],[9.24,64.02],[8.84,64.01],[8.54,64.18],[8.13,64.17],[8.02,64.0],[8.32,63.83],[8.2,63.66],[7.8,63.65],[7.69,63.48],[7.29,63.47],[7.18,63.29],[6.77,63.28],[6.67,63.1],[6.27,63.08],[6.16,62.91],[5.76,62.89],[5.66,62.71],[5.26,62.69],[5.16,62.51],[4.76,62.49],[4.67,62.31],[4.97,62.14],[4.87,61.96],[4.48,61.94],[4.39,61.75],[4.69,61.59],[4.59,61.41],[4.2,61.38],[4.11,61.2],[4.41,61.04],[4.32,60.85],[4.62,60.69],[4.53,60.5],[4.82,60.34],[4.73,60.15],[5.02,59.98],[4.93,59.79],[4.55,59.77],[4.46,59.58],[4.75,59.41],[4.66,59.22],[4.94,59.06],[4.85,58.86],[5.13,58.7],[5.05,58.51],[5.32,58.34],[5.68,58.37],[5.95,58.2],[6.31,58.23],[6.58,58.06],[6.49,57.87],[6.78,57.76],[7.16,57.84],[7.45,57.72],[7.84,57.8],[7.93,57.99],[8.32,58.07],[8.61,57.95],[9.0,58.03],[9.1,58.22],[9.5,58.29],[9.6,58.48],[9.31,58.6],[9.41,58.79],[9.81,58.86],[10.11,58.74],[10.51,58.81],[10.8,58.69],[10.69,58.5],[10.98,58.38],[10.87,58.19],[11.16,58.06],[11.05,57.87],[10.65,57.8],[10.36,57.93],[9.97,57.86],[9.87,57.67],[9.48,57.59],[9.37,57.4],[8.99,57.33],[8.7,57.45],[8.31,57.37],[8.22,57.18],[7.84,57.1],[7.74,56.9],[8.02,56.79],[7.93,56.59],[7.55,56.51],[7.46,56.31],[7.74,56.19],[7.65,55.99],[7.93,55.87],[7.83,55.67],[7.46,55.59],[7.37,55.39],[7.65,55.27],[8.02,55.35],[8.29,55.23],[8.2,55.02],[7.83,54.95],[7.74,54.74],[8.02,54.62],[7.92,54.41],[7.56,54.34],[7.47,54.13],[7.11,54.05],[7.02,53.84],[6.66,53.76],[6.39,53.89],[6.04,53.81],[5.95,53.6],[5.6,53.51],[5.33,53.64],[4.98,53.55],[4.9,53.34],[4.56,53.26],[4.48,53.05],[4.15,53.01],[4.07,52.8],[4.33,52.63],[4.25,52.42],[3.93,52.38],[3.85,52.16],[3.53,52.12],[3.45,51.91],[3.13,51.86],[3.06,51.64],[2.74,51.6],[2.67,51.38],[2.35,51.33],[2.28,51.11],[1.96,51.06],[1.7,51.22],[1.77,51.44],[1.51,51.61],[1.57,51.82],[1.9,51.87],[1.97,52.09],[1.7,52.25],[1.77,52.47],[2.1,52.52],[2.17,52.73],[1.91,52.89],[1.98,53.11],[1.71,53.27],[1.37,53.22],[1.1,53.38],[0.76,53.33],[0.49,53.49],[0.56,53.71],[0.28,53.87],[0.34,54.08],[0.06,54.24],[0.13,54.45],[-0.16,54.61],[-0.51,54.56],[-0.79,54.72],[-0.73,54.93],[-1.02,55.09],[-0.96,55.3],[-1.25,55.46],[-1.19,55.67],[-1.49,55.82],[-1.43,56.03],[-1.73,56.19],[-2.09,56.13],[-2.4,56.29],[-2.34,56.5],[-1.98,56.55],[-1.92,56.76],[-1.55,56.81],[-1.49,57.02],[-1.8,57.18],[-1.74,57.38],[-1.37,57.43],[-1.3,57.64],[-1.61,57.79],[-1.99,57.74],[-2.3,57.9],[-2.68,57.84],[-3.0,58.0],[-2.94,58.2],[-2.56,58.25],[-2.5,58.46],[-2.82,58.61],[-2.76,58.81],[-2.38,58.87],[-2.32,59.07],[-1.94,59.12],[-1.87,59.32],[-1.49,59.37],[-1.42,59.57],[-1.03,59.61],[-0.97,59.81],[-0.58,59.85],[-0.51,60.05],[-0.83,60.2],[-0.76,60.4],[-0.37,60.44],[-0.3,60.64],[-0.62,60.79],[-0.55,60.99],[-0.88,61.14],[-1.28,61.1],[-1.35,60.9],[-1.75,60.86],[-1.82,60.66],[-2.21,60.61],[-2.28,60.42],[-2.67,60.37],[-2.74,60.17],[-2.4,60.02],[-2.01,60.07],[-1.68,59.92],[-1.75,59.72],[-2.14,59.67],[-2.2,59.47],[-2.59,59.42],[-2.92,59.57],[-3.31,59.52],[-3.36,59.32],[-3.75,59.26],[-4.09,59.41],[-4.48,59.36],[-4.53,59.15],[-4.19,59.0],[-3.81,59.06],[-3.48,58.91],[-3.53,58.71],[-3.91,58.65],[-4.25,58.8],[-4.63,58.74],[-4.97,58.89],[-5.35,58.83],[-5.4,58.62],[-5.79,58.56],[-6.13,58.71],[-6.51,58.64],[-6.56,58.43],[-6.94,58.37],[-7.28,58.51],[-7.67,58.44],[-7.71,58.23],[-7.36,58.09],[-7.4,57.88],[-7.78,57.81],[-7.82,57.6],[-7.48,57.46],[-7.52,57.25],[-7.89,57.17],[-7.93,56.96],[-8.3,56.89],[-8.34,56.67],[-8.0,56.53],[-7.63,56.6],[-7.3,56.46],[-7.33,56.25],[-7.01,56.1],[-7.04,55.89],[-6.72,55.74],[-6.76,55.52],[-7.12,55.45],[-7.45,55.6],[-7.81,55.52],[-8.14,55.67],[-8.5,55.59],[-8.54,55.37],[-8.9,55.29],[-8.93,55.07],[-9.29,54.99],[-9.32,54.77],[-8.99,54.63],[-9.02,54.41],[-9.38,54.33],[-9.71,54.47],[-10.06,54.38],[-10.39,54.52],[-10.75,54.44],[-10.77,54.21],[-10.44,54.08],[-10.47,53.85],[-10.82,53.76],[-10.84,53.54],[-10.51,53.4],[-10.54,53.17],[-10.21,53.03],[-10.24,52.81],[-10.58,52.72],[-10.61,52.49],[-10.95,52.4],[-10.97,52.17],[-10.65,52.03],[-10.67,51.8],[-10.36,51.66],[-10.38,51.43],[-10.07,51.29],[-9.73,51.38],[-9.42,51.24],[-9.08,51.32],[-8.77,51.18],[-8.43,51.27],[-8.4,51.49],[-8.07,51.58],[-8.03,51.81],[-7.69,51.89],[-7.39,51.74],[-7.05,51.82],[-7.01,52.05],[-6.67,52.13],[-6.37,51.98],[-6.03,52.05],[-5.99,52.28],[-5.65,52.35],[-5.61,52.58],[-5.91,52.73],[-5.87,52.95],[-5.52,53.02],[-5.48,53.25],[-5.78,53.4],[-5.74,53.62],[-6.05,53.77],[-6.01,53.99],[-5.66,54.06],[-5.62,54.28],[-5.26,54.35],[-4.95,54.2],[-5.0,53.98],[-4.7,53.83],[-4.74,53.61],[-5.09,53.54],[-5.13,53.32],[-4.83,53.17],[-4.88,52.94],[-5.22,52.87],[-5.26,52.65],[-4.97,52.5],[-5.01,52.28],[-5.35,52.2],[-5.39,51.98],[-5.73,51.9],[-5.77,51.68],[-5.48,51.53],[-5.14,51.6],[-4.85,51.45],[-4.89,51.22],[-4.6,51.07],[-4.64,50.84],[-4.98,50.77],[-5.27,50.92],[-5.6,50.85],[-5.64,50.62],[-5.97,50.54],[-6.01,50.31],[-6.34,50.23],[-6.38,50.0],[-6.7,49.92],[-6.74,49.69],[-6.45,49.54],[-6.12,49.62],[-6.09,49.85],[-5.76,49.93],[-5.47,49.78],[-5.14,49.86],[-4.86,49.7],[-4.53,49.78],[-4.49,50.01],[-4.16,50.08],[-3.88,49.93],[-3.56,50.0],[-3.51,50.23],[-3.18,50.3],[-3.13,50.52],[-2.81,50.59],[-2.53,50.44],[-2.2,50.5],[-1.93,50.35],[-1.61,50.41],[-1.34,50.25],[-1.01,50.32],[-0.96,50.54],[-0.63,50.6],[-0.37,50.44],[-0.04,50.5],[0.22,50.34],[0.54,50.4],[0.6,50.62],[0.93,50.68],[1.18,50.52],[1.12,50.3],[0.8,50.24],[0.74,50.02],[0.42,49.96],[0.16,50.12],[-0.16,50.06],[-0.22,49.84],[0.04,49.67],[-0.02,49.45],[-0.33,49.39],[-0.59,49.55],[-0.91,49.49],[-1.18,49.65],[-1.12,49.87],[-1.39,50.03],[-1.71,49.96],[-1.98,50.12],[-2.31,50.05],[-2.36,49.83],[-2.68,49.76],[-2.73,49.53],[-3.05,49.46],[-3.1,49.23],[-3.42,49.16],[-3.47,48.93],[-3.79,48.86],[-4.06,49.01],[-4.39,48.94],[-4.43,48.71],[-4.75,48.63],[-5.03,48.78],[-5.35,48.7],[-5.39,48.47],[-5.11,48.32],[-5.15,48.09],[-4.87,47.93],[-4.91,47.7],[-4.64,47.55],[-4.33,47.63],[-4.06,47.47],[-3.74,47.55],[-3.47,47.39],[-3.52,47.16],[-3.25,47.0],[-2.94,47.08],[-2.68,46.92],[-2.73,46.69],[-2.47,46.53],[-2.16,46.61],[-1.91,46.45],[-1.96,46.22],[-1.7,46.06],[-1.75,45.83],[-1.5,45.67],[-1.55,45.44],[-1.3,45.28],[-1.35,45.05],[-1.65,44.97],[-1.7,44.74],[-1.45,44.58],[-1.5,44.35],[-1.8,44.27],[-1.85,44.04],[-1.6,43.88],[-1.65,43.64],[-1.94,43.57],[-2.19,43.72],[-2.48,43.64],[-2.73,43.8],[-3.02,43.72],[-3.28,43.88],[-3.57,43.79],[-3.82,43.95],[-4.12,43.86],[-4.16,43.63],[-4.46,43.54],[-4.72,43.69],[-5.01,43.61],[-5.27,43.76],[-5.57,43.67],[-5.83,43.82],[-6.13,43.73],[-6.39,43.88],[-6.69,43.79],[-6.96,43.94],[-7.26,43.85],[-7.53,44.0],[-7.83,43.9],[-8.1,44.05],[-8.4,43.95],[-8.43,43.71],[-8.73,43.61],[-9.0,43.76],[-9.3,43.66],[-9.33,43.42],[-9.63,43.32],[-9.65,43.07],[-9.38,42.93],[-9.4,42.68],[-9.13,42.54],[-9.15,42.29],[-8.88,42.14],[-8.91,41.9],[-9.2,41.8],[-9.22,41.55],[-8.96,41.41],[-8.98,41.16],[-8.72,41.01],[-8.74,40.77],[-9.03,40.67],[-9.06,40.42],[-9.34,40.31],[-9.36,40.07],[-9.1,39.92],[-9.13,39.67],[-9.41,39.57],[-9.67,39.71],[-9.96,39.61],[-9.98,39.36],[-9.72,39.21],[-9.74,38.97],[-9.48,38.82],[-9.5,38.57],[-9.24,38.43],[-9.26,38.18],[-9.01,38.04],[-9.03,37.79],[-9.31,37.68],[-9.33,37.43],[-9.08,37.29],[-9.1,37.04],[-8.85,36.9],[-8.58,37.01],[-8.33,36.86],[-8.05,36.97],[-7.81,36.82],[-7.53,36.93],[-7.29,36.78],[-7.02,36.88],[-6.77,36.74],[-6.8,36.49],[-6.56,36.35],[-6.59,36.1],[-6.35,35.95],[-6.38,35.71],[-6.15,35.56],[-6.18,35.32],[-6.44,35.21],[-6.47,34.97],[-6.74,34.86],[-6.77,34.62],[-7.03,34.51],[-7.06,34.27],[-6.82,34.12],[-6.56,34.23],[-6.53,34.47],[-6.27,34.58],[-6.24,34.82],[-5.97,34.92],[-5.94,35.17],[-5.68,35.27],[-5.64,35.52],[-5.38,35.62],[-5.14,35.47],[-5.18,35.22],[-4.95,35.08],[-4.68,35.18],[-4.45,35.03],[-4.19,35.12],[-3.96,34.98],[-3.7,35.07],[-3.66,35.32],[-3.89,35.46],[-4.15,35.37],[-4.38,35.52],[-4.65,35.42],[-4.88,35.57],[-4.84,35.81],[-5.08,35.96],[-5.04,36.2],[-4.77,36.3],[-4.54,36.15],[-4.27,36.25],[-4.24,36.49],[-3.97,36.59],[-3.74,36.44],[-3.47,36.53],[-3.24,36.38],[-2.97,36.47],[-2.75,36.32],[-2.48,36.41],[-2.26,36.26],[-1.99,36.35],[-1.95,36.59],[-1.68,36.68],[-1.64,36.92],[-1.37,37.01],[-1.33,37.25],[-1.06,37.33],[-0.84,37.18],[-0.58,37.26],[-0.53,37.5],[-0.26,37.58],[-0.21,37.82],[-0.43,37.97],[-0.38,38.21],[-0.12,38.29],[-0.07,38.53],[0.2,38.61],[0.25,38.85],[0.03,39.0],[0.08,39.24],[-0.14,39.4],[-0.09,39.63],[0.18,39.71],[0.24,39.95],[0.51,40.02],[0.56,40.26],[0.84,40.34],[0.89,40.57],[1.17,40.66],[1.23,40.9],[1.51,40.99],[1.74,40.85],[2.02,40.94],[2.08,41.17],[2.36,41.26],[2.42,41.49],[2.71,41.58],[2.94,41.44],[3.23,41.53],[3.29,41.76],[3.59,41.85],[3.65,42.08],[3.42,42.23],[3.48,42.46],[3.25,42.6],[3.31,42.84],[3.61,42.93],[3.67,43.16],[3.97,43.25],[4.21,43.1],[4.51,43.19],[4.74,43.04],[5.04,43.13],[5.28,42.98],[5.58,43.06],[5.82,42.92],[6.12,43.0],[6.35,42.85],[6.66,42.93],[6.74,43.16],[7.05,43.24],[7.12,43.48],[7.43,43.56],[7.67,43.4],[7.98,43.48],[8.06,43.71],[8.37,43.79],[8.46,44.02],[8.77,44.1],[9.01,43.94],[9.33,44.02],[9.56,43.86],[9.88,43.94],[10.12,43.78],[10.03,43.55],[9.71,43.47],[9.63,43.24],[9.31,43.17],[9.23,42.94],[8.91,42.86],[8.68,43.02],[8.37,42.94],[8.29,42.71],[8.52,42.55],[8.44,42.32],[8.13,42.24],[8.05,42.01],[8.28,41.85],[8.21,41.61],[8.43,41.46],[8.74,41.53],[8.97,41.37],[8.89,41.14],[8.58,41.06],[8.36,41.22],[8.05,41.14],[7.97,40.91],[7.67,40.83],[7.6,40.59],[7.82,40.44],[8.12,40.51],[8.35,40.35],[8.27,40.12],[7.97,40.04],[7.9,39.8],[8.12,39.64],[8.05,39.4],[7.75,39.33],[7.67,39.09],[7.9,38.93],[8.19,39.0],[8.42,38.84],[8.34,38.6],[8.56,38.44],[8.86,38.51],[8.94,38.75],[9.24,38.82],[9.31,39.06],[9.62,39.14],[9.84,38.97],[10.14,39.04],[10.22,39.28],[10.0,39.45],[10.08,39.68],[9.86,39.85],[9.94,40.09],[10.25,40.16],[10.33,40.4],[10.11,40.56],[10.19,40.8],[9.96,40.96],[10.05,41.2],[9.82,41.36],[9.9,41.59],[9.67,41.76],[9.76,41.99],[10.07,42.06],[10.3,41.9],[10.61,41.97],[10.7,42.21],[11.02,42.28],[11.24,42.11],[11.56,42.18],[11.79,42.02],[11.7,41.78],[11.93,41.62],[12.25,41.68],[12.47,41.52],[12.38,41.28],[12.61,41.11],[12.52,40.88],[12.74,40.71],[13.05,40.77],[13.28,40.6],[13.59,40.67],[13.82,40.49],[14.13,40.55],[14.36,40.38],[14.67,40.44],[14.89,40.27],[14.8,40.03],[15.02,39.85],[15.33,39.91],[15.55,39.73],[15.45,39.5],[15.67,39.32],[15.57,39.08],[15.26,39.02],[15.16,38.79],[14.85,38.73],[14.63,38.9],[14.32,38.84],[14.23,38.61],[14.44,38.43],[14.35,38.19],[14.04,38.13],[13.82,38.31],[13.52,38.24],[13.3,38.42],[13.39,38.66],[13.17,38.83],[12.86,38.77],[12.77,38.53],[12.46,38.46],[12.38,38.22],[12.07,38.16],[11.98,37.92],[12.2,37.74],[12.12,37.5],[12.33,37.33],[12.64,37.4],[12.85,37.22],[13.15,37.28],[13.37,37.11],[13.67,37.17],[13.89,36.99],[14.19,37.05],[14.41,36.87],[14.32,36.63],[14.53,36.45],[14.83,36.51],[15.04,36.33],[15.35,36.39],[15.44,36.63],[15.23,36.81],[15.33,37.05],[15.63,37.11],[15.73,37.35],[15.52,37.53],[15.61,37.77],[15.93,37.83],[16.14,37.64],[16.45,37.7],[16.55,37.94],[16.86,37.99],[16.96,38.23],[16.75,38.41],[16.85,38.65],[17.17,38.71],[17.27,38.94],[17.58,39.0],[17.69,39.23],[17.47,39.41],[17.58,39.65],[17.36,39.83],[17.04,39.78],[16.83,39.96],[16.93,40.19],[17.25,40.25],[17.47,40.07],[17.79,40.12],[18.0,39.94],[17.9,39.7],[18.11,39.52],[18.43,39.57],[18.54,39.8],[18.86,39.85],[19.07,39.67],[19.4,39.72],[19.61,39.53],[19.5,39.3],[19.71,39.11],[20.03,39.15],[20.24,38.97],[20.13,38.73],[20.34,38.54],[20.23,38.31],[19.91,38.26],[19.8,38.02],[20.01,37.84],[20.33,37.88],[20.53,37.69],[20.42,37.45],[20.63,37.26],[20.94,37.31],[21.15,37.11],[21.04,36.88],[21.24,36.68],[21.55,36.73],[21.75,36.53],[22.07,36.57],[22.27,36.38],[22.16,36.14],[22.35,35.95],[22.67,35.99],[22.86,35.79],[23.18,35.83],[23.37,35.63],[23.26,35.39],[23.45,35.2],[23.34,34.96],[23.53,34.76],[23.84,34.8],[24.04,34.6],[24.34,34.63],[24.46,34.87],[24.77,34.9],[24.96,34.7],[25.27,34.74],[25.46,34.53],[25.77,34.57],[25.89,34.8],[26.2,34.83],[26.32,35.07],[26.63,35.09],[26.75,35.33],[27.06,35.36],[27.24,35.15],[27.55,35.18],[27.68,35.41],[27.49,35.62],[27.62,35.85],[27.93,35.87],[28.05,36.1],[28.37,36.13],[28.49,36.36],[28.31,36.56],[28.43,36.79],[28.25,37.0],[27.93,36.97],[27.74,37.18],[27.87,37.4],[27.68,37.61],[27.36,37.58],[27.24,37.35],[26.92,37.32],[26.79,37.09],[26.99,36.89],[26.86,36.66],[27.05,36.46],[27.36,36.49],[27.55,36.28],[27.43,36.05],[27.12,36.02],[26.99,35.79],[26.68,35.76],[26.56,35.53],[26.25,35.5],[26.06,35.7],[25.75,35.67],[25.63,35.44],[25.32,35.41],[25.12,35.61],[24.81,35.57],[24.62,35.77],[24.31,35.74],[24.11,35.94],[23.8,35.9],[23.6,36.1],[23.72,36.34],[23.52,36.53],[23.64,36.77],[23.44,36.97],[23.56,37.2],[23.87,37.24],[23.99,37.47],[24.31,37.51],[24.51,37.31],[24.39,37.07],[24.07,37.04],[23.95,36.8],[24.15,36.61],[24.47,36.64],[24.66,36.44],[24.97,36.48],[25.17,36.28],[25.48,36.31],[25.6,36.54],[25.92,36.57],[26.04,36.8],[25.85,37.01],[25.97,37.24],[25.77,37.44],[25.46,37.41],[25.26,37.61],[25.38,37.84],[25.19,38.04],[24.87,38.0],[24.67,38.2],[24.35,38.17],[24.15,38.36],[24.27,38.6],[24.07,38.79],[23.75,38.76],[23.55,38.95],[23.66,39.18],[23.46,39.38],[23.14,39.34],[22.93,39.53],[23.05,39.76],[22.85,39.96],[22.96,40.19],[23.29,40.22],[23.5,40.03],[23.82,40.07],[23.94,40.3],[23.74,40.49],[23.86,40.72],[24.19,40.75],[24.39,40.56],[24.72,40.59],[24.85,40.82],[24.64,41.01],[24.31,40.98],[24.11,41.17],[23.78,41.14],[23.65,40.91],[23.33,40.87],[23.2,40.65],[22.88,40.61],[22.67,40.8],[22.34,40.76],[22.22,40.53],[22.43,40.34],[22.31,40.11],[22.52,39.92],[22.4,39.69],[22.08,39.65],[21.96,39.42],[22.17,39.22],[22.49,39.26],[22.7,39.07],[22.58,38.84],[22.78,38.64],[23.11,38.68],[23.31,38.49],[23.63,38.52],[23.83,38.33],[23.71,38.1],[23.39,38.06],[23.19,38.26],[22.87,38.22],[22.67,38.41],[22.35,38.37],[22.14,38.57],[21.82,38.52],[21.62,38.72],[21.73,38.95],[21.52,39.14],[21.2,39.1],[20.99,39.29],[21.11,39.52],[20.9,39.71],[20.58,39.67],[20.36,39.86],[20.48,40.09],[20.27,40.28],[20.38,40.51],[20.17,40.69],[20.28,40.93],[20.06,41.11],[20.18,41.34],[19.96,41.53],[20.08,41.76],[19.86,41.94],[19.53,41.9],[19.31,42.08],[19.42,42.31],[19.2,42.49],[18.87,42.44],[18.65,42.62],[18.32,42.57],[18.1,42.75],[18.21,42.98],[17.98,43.16],[17.65,43.11],[17.43,43.28],[17.09,43.23],[16.87,43.4],[16.98,43.63],[16.75,43.81],[16.42,43.75],[16.19,43.92],[16.29,44.15],[16.06,44.32],[15.73,44.27],[15.5,44.44],[15.17,44.38],[14.93,44.55],[15.04,44.77],[14.8,44.94],[14.91,45.17],[14.67,45.33],[14.78,45.56],[15.11,45.62],[15.22,45.85],[15.56,45.9],[15.67,46.13],[16.01,46.18],[16.12,46.41],[16.46,46.46],[16.57,46.69],[16.92,46.74],[17.03,46.96],[17.38,47.01],[17.49,47.23],[17.84,47.29],[17.95,47.51],[18.31,47.56],[18.42,47.77],[18.78,47.82],[18.9,48.04],[19.25,48.09],[19.37,48.3],[19.14,48.47],[18.78,48.42],[18.54,48.59],[18.66,48.81],[19.02,48.85],[19.26,48.69]],[[20.09,62.99],[20.4,62.86],[20.33,62.65],[20.63,62.51],[20.56,62.3],[20.86,62.16],[20.78,61.95],[21.08,61.81],[21.01,61.6],[21.3,61.46],[21.22,61.25],[20.86,61.17],[20.79,60.95],[20.44,60.88],[20.29,60.7],[19.85,60.67],[19.7,60.49],[19.27,60.45],[18.98,60.59],[18.55,60.55],[18.26,60.68],[18.4,60.85],[18.11,60.99],[17.67,60.94],[17.38,61.07],[17.52,61.25],[17.96,61.29],[18.1,61.46],[17.81,61.59],[17.95,61.77],[17.66,61.89],[17.8,62.07],[18.15,62.15],[18.21,62.36],[18.56,62.45],[18.62,62.66],[18.98,62.74],[19.04,62.96],[19.41,63.04],[19.48,63.25],[19.85,63.34],[19.92,63.55],[20.3,63.63],[20.62,63.5],[20.54,63.29],[20.16,63.21],[20.09,62.99]],[[21.46,58.32],[21.31,58.14],[21.58,57.99],[21.43,57.81],[21.7,57.66],[21.55,57.48],[21.14,57.44],[20.99,57.26],[21.26,57.11],[21.11,56.92],[20.71,56.88],[20.56,56.7],[20.83,56.55],[20.69,56.36],[20.95,56.2],[20.81,56.01],[21.07,55.86],[20.93,55.67],[20.53,55.63],[20.39,55.44],[20.65,55.29],[20.51,55.09],[20.12,55.05],[19.86,55.21],[19.46,55.16],[19.33,54.97],[19.59,54.82],[19.45,54.62],[19.06,54.58],[18.8,54.73],[18.94,54.92],[18.67,55.08],[18.28,55.03],[18.02,55.18],[17.63,55.13],[17.5,54.93],[17.11,54.88],[16.98,54.69],[16.6,54.63],[16.33,54.78],[15.95,54.73],[15.82,54.53],[15.44,54.47],[15.32,54.27],[14.94,54.22],[14.67,54.36],[14.29,54.3],[14.03,54.44],[14.14,54.64],[13.87,54.78],[13.49,54.72],[13.22,54.86],[12.84,54.8],[12.73,54.6],[12.35,54.53],[12.08,54.67],[12.19,54.87],[12.57,54.94],[12.68,55.14],[13.06,55.2],[13.33,55.06],[13.72,55.12],[13.83,55.32],[14.22,55.38],[14.49,55.24],[14.37,55.04],[14.64,54.9],[15.03,54.96],[15.29,54.82],[15.68,54.87],[15.8,55.07],[15.53,55.21],[15.65,55.41],[15.39,55.55],[15.0,55.5],[14.72,55.64],[14.84,55.83],[15.24,55.89],[15.51,55.75],[15.9,55.8],[16.02,56.0],[16.42,56.05],[16.54,56.25],[16.94,56.3],[17.07,56.49],[16.8,56.63],[16.93,56.82],[17.33,56.87],[17.46,57.06],[17.87,57.11],[18.14,56.97],[18.01,56.78],[18.28,56.63],[18.68,56.68],[18.81,56.87],[18.54,57.01],[18.68,57.2],[19.09,57.25],[19.23,57.43],[18.95,57.58],[19.09,57.76],[19.51,57.81],[19.65,57.99],[19.37,58.13],[19.51,58.32],[19.24,58.46],[18.82,58.42],[18.68,58.23],[18.27,58.19],[18.13,58.0],[18.41,57.86],[18.27,57.68],[17.86,57.63],[17.73,57.44],[17.32,57.39],[17.04,57.53],[17.18,57.72],[16.9,57.86],[17.03,58.05],[17.44,58.1],[17.58,58.28],[17.3,58.42],[17.43,58.61],[17.85,58.65],[18.13,58.51],[18.54,58.56],[18.68,58.74],[19.1,58.78],[19.25,58.97],[18.97,59.11],[19.11,59.29],[19.53,59.33],[19.68,59.51],[20.1,59.55],[20.25,59.72],[20.68,59.76],[20.96,59.62],[21.39,59.65],[21.66,59.51],[22.09,59.54],[22.37,59.4],[22.21,59.22],[21.79,59.19],[21.64,59.01],[21.91,58.86],[21.76,58.69],[21.33,58.65],[21.19,58.47],[21.46,58.32]],[[-2.61,48.69],[-2.88,48.85],[-2.83,49.08],[-2.51,49.15],[-2.24,48.99],[-2.29,48.76],[-2.61,48.69]],[[21.96,64.17],[22.05,64.39],[21.73,64.52],[21.81,64.73],[21.49,64.87],[21.57,65.08],[21.99,65.16],[22.32,65.03],[22.74,65.11],[22.83,65.32],[23.26,65.4],[23.59,65.26],[24.02,65.34],[24.34,65.2],[24.23,64.99],[23.81,64.91],[23.7,64.7],[23.28,64.62],[23.18,64.41],[22.77,64.33],[22.68,64.11],[22.27,64.04],[22.19,63.82],[21.79,63.74],[21.7,63.53],[21.31,63.45],[21.0,63.58],[21.08,63.8],[21.47,63.88],[21.56,64.09],[21.96,64.17]],[[13.51,44.07],[13.18,44.01],[12.95,44.17],[13.04,44.4],[12.81,44.56],[12.9,44.79],[12.67,44.95],[12.77,45.18],[13.1,45.25],[13.33,45.08],[13.24,44.86],[13.47,44.69],[13.8,44.76],[14.04,44.59],[13.94,44.36],[14.17,44.2],[14.5,44.26],[14.73,44.09],[14.63,43.86],[14.86,43.69],[15.19,43.75],[15.42,43.58],[15.32,43.35],[15.54,43.18],[15.44,42.95],[15.67,42.78],[16.0,42.83],[16.22,42.66],[16.12,42.43],[15.79,42.37],[15.57,42.54],[15.24,42.49],[15.14,42.25],[14.81,42.19],[14.59,42.37],[14.69,42.6],[14.46,42.77],[14.56,43.0],[14.33,43.17],[14.43,43.4],[14.2,43.57],[13.87,43.51],[13.64,43.67],[13.74,43.9],[13.51,44.07]],[[19.3,40.79],[19.19,40.55],[18.86,40.51],[18.65,40.69],[18.32,40.64],[18.11,40.82],[17.78,40.77],[17.56,40.95],[17.67,41.18],[17.45,41.36],[17.13,41.31],[16.91,41.49],[16.58,41.43],[16.36,41.61],[16.46,41.84],[16.24,42.02],[16.34,42.25],[16.67,42.31],[16.78,42.54],[17.11,42.59],[17.33,42.42],[17.66,42.47],[17.88,42.29],[18.21,42.34],[18.43,42.16],[18.76,42.21],[18.98,42.03],[18.87,41.8],[19.09,41.62],[18.98,41.39],[19.19,41.2],[19.08,40.97],[19.3,40.79]],[[9.95,46.45],[9.62,46.38],[9.38,46.53],[9.46,46.76],[9.8,46.83],[9.88,47.05],[10.22,47.13],[10.46,46.98],[10.8,47.05],[10.89,47.27],[11.23,47.34],[11.47,47.19],[11.81,47.26],[12.05,47.1],[12.39,47.17],[12.63,47.01],[12.53,46.79],[12.2,46.72],[11.95,46.88],[11.62,46.81],[11.38,46.96],[11.04,46.89],[10.95,46.67],[10.61,46.6],[10.52,46.37],[10.19,46.3],[9.95,46.45]],[[21.8,37.86],[21.91,38.1],[22.23,38.14],[22.44,37.94],[22.32,37.71],[22.0,37.67],[21.8,37.86]],[[25.67,59.7],[25.3,59.64],[25.03,59.79],[25.13,60.01],[25.5,60.07],[25.77,59.92],[25.67,59.7]],[[-2.69,38.16],[-2.92,38.31],[-2.88,38.56],[-2.6,38.64],[-2.56,38.88],[-2.28,38.97],[-2.05,38.82],[-2.1,38.58],[-1.87,38.42],[-1.91,38.18],[-2.18,38.1],[-2.41,38.25],[-2.69,38.16]],[[10.9,56.98],[11.01,57.17],[11.4,57.24],[11.68,57.11],[11.57,56.92],[11.18,56.85],[11.07,56.65],[10.69,56.58],[10.4,56.71],[10.51,56.91],[10.9,56.98]],[[23.93,58.0],[24.19,57.84],[24.03,57.66],[24.29,57.51],[24.14,57.33],[23.72,57.3],[23.46,57.45],[23.62,57.63],[23.36,57.79],[23.51,57.97],[23.93,58.0]],[[-4.04,53.74],[-4.35,53.9],[-4.3,54.11],[-3.95,54.18],[-3.65,54.03],[-3.7,53.81],[-3.4,53.65],[-3.45,53.44],[-3.8,53.37],[-4.09,53.52],[-4.04,53.74]],[[7.83,46.37],[7.91,46.6],[8.23,46.67],[8.48,46.53],[8.39,46.3],[8.07,46.22],[7.99,46.0],[7.66,45.92],[7.42,46.06],[7.5,46.29],[7.83,46.37]],[[13.41,47.37],[13.66,47.21],[13.55,46.98],[13.21,46.92],[12.97,47.08],[13.07,47.3],[13.41,47.37]],[[12.52,56.72],[12.41,56.53],[12.02,56.46],[11.74,56.59],[11.85,56.79],[12.24,56.85],[12.52,56.72]],[[26.8,59.88],[26.42,59.82],[26.15,59.98],[26.26,60.2],[26.64,60.26],[26.91,60.1],[26.8,59.88]]],[[[13.66,67.69],[13.26,67.58],[13.38,67.4],[12.98,67.29],[13.11,67.12],[12.72,67.01],[12.84,66.83],[12.46,66.73],[11.96,66.8],[11.59,66.69],[11.72,66.52],[12.21,66.45],[12.34,66.27],[11.97,66.17],[12.1,66.0],[11.74,65.89],[11.86,65.72],[11.51,65.62],[11.64,65.45],[11.29,65.34],[11.42,65.18],[11.08,65.07],[10.61,65.14],[10.28,65.03],[10.41,64.87],[10.13,64.7],[10.41,64.53],[10.87,64.6],[11.2,64.49],[11.53,64.6],[11.53,64.8],[11.87,64.9],[11.88,65.11],[12.23,65.21],[12.11,65.38],[12.46,65.48],[12.34,65.65],[12.7,65.76],[12.58,65.93],[12.95,66.03],[12.83,66.2],[13.2,66.31],[13.08,66.48],[13.46,66.59],[13.35,66.76],[13.73,66.87],[13.62,67.04],[14.01,67.15],[14.52,67.07],[14.92,67.17],[14.81,67.35],[15.22,67.45],[15.12,67.63],[15.53,67.74],[15.43,67.92],[15.85,68.02],[15.75,68.21],[16.19,68.31],[16.08,68.49],[15.54,68.58],[15.43,68.76],[15.88,68.87],[16.43,68.78],[16.53,68.59],[17.07,68.51],[17.52,68.61],[17.43,68.8],[17.89,68.89],[17.81,69.08],[17.25,69.17],[17.15,69.36],[17.63,69.46],[17.53,69.66],[16.96,69.74],[16.48,69.64],[16.58,69.45],[16.12,69.35],[15.55,69.43],[15.09,69.32],[15.2,69.14],[14.76,69.03],[14.87,68.84],[14.44,68.74],[14.56,68.55],[14.13,68.44],[13.58,68.52],[13.16,68.41],[13.29,68.23],[12.87,68.12],[13.0,67.94],[13.54,67.87],[13.95,67.97],[14.48,67.9],[14.59,67.71],[14.18,67.61],[13.66,67.69]]],[[[-22.95,64.09],[-23.0,63.86],[-22.6,63.73],[-22.16,63.84],[-22.11,64.07],[-21.66,64.18],[-21.61,64.41],[-22.01,64.53],[-22.46,64.43],[-22.51,64.2],[-22.95,64.09]]],[[[171.93,-44.29],[172.23,-44.39],[172.5,-44.24],[172.8,-44.33],[173.07,-44.18],[173.04,-43.94],[173.31,-43.79],[173.27,-43.55],[172.98,-43.46],[172.95,-43.22],[173.21,-43.07],[173.51,-43.16],[173.77,-43.01],[173.73,-42.77],[173.99,-42.62],[173.96,-42.37],[174.22,-42.22],[174.18,-41.98],[174.44,-41.83],[174.4,-41.59],[174.66,-41.44],[174.94,-41.53],[174.98,-41.77],[175.27,-41.86],[175.52,-41.71],[175.81,-41.8],[176.06,-41.64],[176.02,-41.4],[176.26,-41.25],[176.22,-41.01],[176.46,-40.85],[176.75,-40.94],[176.99,-40.79],[176.95,-40.55],[177.19,-40.39],[177.14,-40.15],[177.38,-40.0],[177.34,-39.76],[177.57,-39.6],[177.85,-39.69],[178.08,-39.54],[178.04,-39.3],[178.27,-39.14],[178.22,-38.9],[178.45,-38.75],[178.4,-38.51],[178.63,-38.35],[178.58,-38.12],[178.81,-37.96],[178.76,-37.72],[178.98,-37.57],[178.94,-37.33],[178.67,-37.25],[178.45,-37.4],[178.18,-37.31],[177.96,-37.46],[177.69,-37.38],[177.46,-37.53],[177.19,-37.44],[176.96,-37.59],[176.69,-37.5],[176.65,-37.26],[176.38,-37.17],[176.34,-36.92],[176.07,-36.83],[176.03,-36.59],[176.26,-36.44],[176.23,-36.19],[175.96,-36.1],[175.92,-35.86],[175.66,-35.76],[175.42,-35.91],[175.16,-35.81],[175.12,-35.57],[174.86,-35.47],[174.82,-35.22],[174.56,-35.12],[174.52,-34.88],[174.26,-34.78],[174.03,-34.92],[173.76,-34.82],[173.73,-34.58],[173.47,-34.47],[173.44,-34.23],[173.18,-34.12],[172.94,-34.27],[172.68,-34.16],[172.44,-34.3],[172.47,-34.55],[172.73,-34.66],[172.76,-34.9],[173.02,-35.01],[173.05,-35.26],[172.81,-35.4],[172.84,-35.65],[173.11,-35.75],[173.14,-36.0],[173.41,-36.1],[173.44,-36.35],[173.71,-36.45],[173.74,-36.69],[174.01,-36.79],[174.04,-37.04],[174.32,-37.14],[174.35,-37.38],[174.62,-37.48],[174.66,-37.72],[174.42,-37.87],[174.45,-38.12],[174.21,-38.27],[174.24,-38.51],[174.0,-38.66],[174.03,-38.9],[173.78,-39.05],[173.81,-39.3],[173.56,-39.45],[173.6,-39.69],[173.88,-39.79],[174.13,-39.64],[174.41,-39.73],[174.44,-39.98],[174.73,-40.07],[174.76,-40.32],[175.05,-40.41],[175.08,-40.65],[174.83,-40.8],[174.55,-40.71],[174.51,-40.47],[174.23,-40.37],[173.98,-40.52],[173.69,-40.43],[173.44,-40.58],[173.15,-40.48],[173.12,-40.23],[172.84,-40.14],[172.58,-40.28],[172.61,-40.53],[172.35,-40.68],[172.07,-40.58],[171.81,-40.72],[171.83,-40.97],[172.12,-41.07],[172.15,-41.31],[171.89,-41.46],[171.6,-41.36],[171.33,-41.51],[171.36,-41.75],[171.09,-41.9],[171.12,-42.14],[170.85,-42.29],[170.87,-42.54],[170.6,-42.68],[170.62,-42.93],[170.35,-43.07],[170.05,-42.97],[169.78,-43.11],[169.8,-43.36],[169.52,-43.5],[169.22,-43.4],[168.94,-43.54],[168.96,-43.78],[168.67,-43.92],[168.37,-43.82],[168.08,-43.96],[168.1,-44.2],[167.81,-44.34],[167.51,-44.24],[167.22,-44.37],[167.23,-44.62],[166.94,-44.76],[166.95,-45.0],[166.65,-45.14],[166.67,-45.38],[166.37,-45.52],[166.38,-45.77],[166.08,-45.9],[166.09,-46.15],[166.4,-46.25],[166.41,-46.5],[166.72,-46.61],[167.02,-46.47],[167.34,-46.58],[167.35,-46.82],[167.05,-46.95],[167.06,-47.2],[167.38,-47.3],[167.39,-47.54],[167.71,-47.65],[168.01,-47.51],[168.0,-47.27],[168.3,-47.13],[168.61,-47.23],[168.91,-47.09],[168.89,-46.85],[169.19,-46.71],[169.5,-46.8],[169.79,-46.66],[170.11,-46.76],[170.4,-46.62],[170.37,-46.38],[170.66,-46.23],[170.97,-46.33],[171.26,-46.18],[171.23,-45.94],[170.92,-45.85],[170.9,-45.6],[171.18,-45.46],[171.15,-45.22],[171.43,-45.07],[171.4,-44.83],[171.68,-44.68],[171.65,-44.44],[171.93,-44.29]]],[[[34.19,66.89],[33.88,67.05],[33.36,67.0],[33.04,67.16],[32.52,67.11],[32.33,66.9],[32.65,66.74],[33.16,66.79],[33.48,66.63],[33.28,66.42],[33.59,66.26],[34.1,66.31],[34.3,66.52],[34.82,66.57],[35.12,66.4],[35.64,66.45],[35.94,66.28],[36.46,66.32],[36.76,66.15],[37.28,66.19],[37.57,66.02],[38.09,66.06],[38.38,65.88],[38.9,65.92],[39.14,66.13],[38.86,66.3],[38.33,66.27],[38.04,66.44],[37.51,66.4],[37.21,66.57],[36.68,66.53],[36.38,66.7],[35.86,66.66],[35.55,66.82],[35.03,66.78],[34.72,66.94],[34.19,66.89]]],[[[-28.15,39.36],[-28.12,39.11],[-28.38,38.95],[-28.68,39.05],[-28.95,38.9],[-28.91,38.65],[-29.17,38.49],[-29.13,38.24],[-28.83,38.14],[-28.57,38.29],[-28.26,38.19],[-28.0,38.35],[-27.7,38.24],[-27.44,38.4],[-27.14,38.29],[-26.87,38.44],[-26.91,38.7],[-26.64,38.85],[-26.67,39.1],[-26.98,39.21],[-27.24,39.06],[-27.55,39.16],[-27.58,39.41],[-27.89,39.52],[-28.15,39.36]]],[[[-18.37,27.72],[-18.12,27.6],[-17.87,27.73],[-17.88,27.98],[-18.13,28.1],[-18.37,27.97],[-18.37,27.72]]],[[[-177.84,-29.46],[-177.64,-29.3],[-177.69,-29.06],[-177.95,-28.98],[-178.15,-29.15],[-178.1,-29.39],[-177.84,-29.46]]],[[[21.17,69.95],[21.69,70.04],[21.64,70.24],[22.17,70.33],[22.74,70.22],[23.28,70.31],[23.25,70.51],[23.8,70.6],[23.77,70.8],[23.18,70.91],[22.62,70.82],[22.67,70.62],[22.12,70.53],[21.53,70.63],[21.0,70.54],[21.06,70.34],[20.53,70.25],[19.95,70.35],[19.43,70.25],[18.84,70.35],[18.33,70.24],[18.42,70.05],[17.93,69.95],[18.02,69.76],[18.59,69.66],[19.08,69.76],[19.0,69.96],[19.51,70.05],[20.09,69.96],[20.15,69.76],[20.72,69.66],[21.23,69.76],[21.17,69.95]]],[[[40.49,66.01],[39.95,65.98],[39.71,65.77],[39.98,65.6],[40.51,65.62],[40.76,65.83],[41.29,65.86],[41.56,66.06],[42.1,66.09],[42.37,66.29],[42.09,66.47],[41.55,66.45],[41.28,66.24],[40.74,66.22],[40.49,66.01]]],[[[3.09,39.97],[2.87,40.12],[2.58,40.03],[2.53,39.8],[2.24,39.71],[2.19,39.47],[2.41,39.32],[2.35,39.09],[2.58,38.94],[2.86,39.03],[3.08,38.88],[3.36,38.96],[3.42,39.2],[3.71,39.29],[3.77,39.52],[4.06,39.61],[4.28,39.46],[4.57,39.54],[4.63,39.78],[4.41,39.93],[4.47,40.17],[4.25,40.32],[3.96,40.23],[3.73,40.38],[3.44,40.3],[3.38,40.06],[3.09,39.97]]],[[[-14.67,28.4],[-14.67,28.15],[-14.43,28.02],[-14.18,28.15],[-13.94,28.02],[-13.69,28.15],[-13.69,28.4],[-13.93,28.52],[-13.92,28.77],[-13.67,28.9],[-13.43,28.77],[-13.18,28.89],[-13.17,29.14],[-13.41,29.27],[-13.4,29.52],[-13.65,29.65],[-13.9,29.53],[-13.9,29.28],[-14.16,29.15],[-14.16,28.9],[-14.41,28.78],[-14.42,28.53],[-14.67,28.4]]],[[[-8.92,57.6],[-8.54,57.67],[-8.51,57.88],[-8.86,58.02],[-9.24,57.95],[-9.27,57.73],[-8.92,57.6]]],[[[1.85,36.95],[1.58,36.86],[1.36,37.01],[1.09,36.92],[1.04,36.68],[0.77,36.6],[0.56,36.74],[0.29,36.65],[0.24,36.42],[-0.02,36.33],[-0.07,36.09],[-0.33,36.0],[-0.55,36.16],[-0.81,36.07],[-0.85,35.83],[-0.64,35.68],[-0.38,35.77],[-0.16,35.61],[0.1,35.7],[0.14,35.94],[0.41,36.03],[0.46,36.27],[0.72,36.36],[0.94,36.21],[1.21,36.3],[1.26,36.54],[1.53,36.62],[1.74,36.47],[2.01,36.56],[2.23,36.41],[2.5,36.5],[2.72,36.34],[2.99,36.43],[3.05,36.67],[3.33,36.75],[3.54,36.6],[3.82,36.68],[4.04,36.53],[4.32,36.61],[4.53,36.45],[4.81,36.53],[5.03,36.37],[5.31,36.46],[5.53,36.3],[5.81,36.38],[6.03,36.21],[6.31,36.29],[6.38,36.53],[6.67,36.61],[6.88,36.45],[7.17,36.53],[7.39,36.36],[7.68,36.44],[7.89,36.27],[8.18,36.35],[8.25,36.59],[8.55,36.66],[8.76,36.49],[9.05,36.57],[9.27,36.4],[9.56,36.47],[9.78,36.3],[10.07,36.37],[10.29,36.2],[10.21,35.96],[10.42,35.79],[10.72,35.85],[10.93,35.68],[10.85,35.44],[11.06,35.26],[11.36,35.33],[11.44,35.57],[11.23,35.75],[11.31,35.99],[11.1,36.17],[11.18,36.41],[11.48,36.47],[11.56,36.72],[11.34,36.89],[11.43,37.13],[11.21,37.3],[10.91,37.23],[10.69,37.41],[10.39,37.34],[10.18,37.51],[9.88,37.43],[9.66,37.6],[9.36,37.53],[9.14,37.7],[8.85,37.63],[8.77,37.38],[8.48,37.31],[8.4,37.07],[8.11,37.0],[7.89,37.16],[7.6,37.08],[7.38,37.25],[7.09,37.17],[6.87,37.33],[6.59,37.26],[6.37,37.42],[6.08,37.34],[6.01,37.1],[5.73,37.02],[5.51,37.18],[5.22,37.1],[5.01,37.25],[4.72,37.17],[4.5,37.33],[4.22,37.24],[4.0,37.4],[3.72,37.32],[3.66,37.08],[3.39,36.99],[3.17,37.15],[2.89,37.06],[2.83,36.82],[2.56,36.73],[2.34,36.89],[2.07,36.8],[1.85,36.95]]],[[[32.01,52.25],[31.84,52.06],[32.06,51.88],[32.43,51.88],[32.59,52.07],[32.97,52.07],[33.13,52.26],[33.51,52.26],[33.64,52.47],[33.43,52.66],[33.09,52.63],[32.92,52.44],[32.55,52.44],[32.38,52.25],[32.01,52.25]]],[[[37.15,63.85],[37.64,63.88],[37.91,63.71],[38.39,63.74],[38.61,63.95],[38.34,64.13],[38.57,64.34],[38.3,64.52],[37.8,64.48],[37.52,64.66],[37.03,64.62],[36.75,64.8],[36.96,65.01],[37.46,65.04],[37.74,64.87],[38.25,64.9],[38.52,64.73],[39.03,64.76],[39.3,64.58],[39.8,64.61],[40.04,64.82],[40.55,64.85],[40.8,65.05],[40.53,65.24],[40.01,65.21],[39.77,65.0],[39.26,64.97],[38.99,65.15],[38.48,65.11],[38.2,65.29],[37.69,65.26],[37.4,65.43],[36.9,65.39],[36.68,65.18],[36.18,65.14],[35.89,65.31],[35.39,65.27],[35.1,65.44],[35.3,65.65],[35.01,65.81],[35.21,66.03],[34.91,66.19],[34.4,66.14],[34.2,65.93],[34.5,65.77],[34.3,65.56],[34.6,65.39],[34.4,65.18],[34.7,65.01],[34.5,64.8],[34.79,64.63],[34.59,64.42],[34.88,64.25],[35.36,64.29],[35.64,64.12],[36.12,64.16],[36.4,63.99],[36.2,63.77],[36.47,63.6],[36.95,63.64],[37.15,63.85]]],[[[27.79,70.77],[28.35,70.64],[28.94,70.71],[29.49,70.58],[30.09,70.65],[30.13,70.85],[29.57,70.99],[28.97,70.91],[28.41,71.04],[27.81,70.97],[27.24,71.09],[26.65,71.01],[26.06,71.14],[25.48,71.05],[24.89,71.17],[24.31,71.08],[24.33,70.88],[24.92,70.77],[24.93,70.57],[25.5,70.45],[26.07,70.53],[26.63,70.41],[27.2,70.49],[27.21,70.69],[27.79,70.77]]],[[[168.06,-29.25],[168.3,-29.12],[168.29,-28.87],[168.04,-28.75],[167.8,-28.88],[167.81,-29.13],[168.06,-29.25]]],[[[33.5,69.1],[34.06,69.15],[34.15,69.35],[33.66,69.49],[33.74,69.69],[33.24,69.83],[32.66,69.77],[32.59,69.58],[33.09,69.44],[33.01,69.24],[33.5,69.1]]],[[[-17.7,32.95],[-17.7,32.69],[-17.43,32.57],[-17.17,32.7],[-16.91,32.58],[-16.91,32.32],[-16.65,32.19],[-16.39,32.32],[-16.39,32.58],[-16.13,32.71],[-16.13,32.96],[-15.87,33.09],[-15.87,33.34],[-16.13,33.47],[-16.39,33.34],[-16.39,33.09],[-16.65,32.96],[-16.92,33.09],[-17.18,32.96],[-17.44,33.08],[-17.7,32.95]]],[[[-15.84,64.14],[-16.19,64.27],[-16.64,64.19],[-16.73,63.96],[-16.38,63.83],[-15.94,63.91],[-15.84,64.14]]],[[[-17.63,28.37],[-17.63,28.11],[-17.38,27.99],[-17.14,28.12],[-16.89,28.0],[-16.89,27.75],[-16.64,27.63],[-16.39,27.76],[-16.39,28.01],[-16.15,28.14],[-16.15,28.39],[-15.9,28.52],[-15.9,28.77],[-16.14,28.9],[-16.39,28.77],[-16.64,28.89],[-16.89,28.76],[-16.89,28.51],[-17.14,28.38],[-17.39,28.5],[-17.39,28.75],[-17.64,28.87],[-17.65,29.13],[-17.9,29.25],[-18.15,29.12],[-18.14,28.86],[-18.39,28.73],[-18.38,28.47],[-18.13,28.35],[-17.89,28.49],[-17.63,28.37]]],[[[-6.43,59.06],[-6.08,58.91],[-5.69,58.97],[-5.65,59.18],[-5.99,59.32],[-6.38,59.26],[-6.43,59.06]]],[[[38.62,68.2],[38.93,68.03],[39.49,68.06],[39.76,68.27],[39.45,68.44],[38.88,68.4],[38.62,68.2]]],[[[37.61,69.07],[37.02,69.03],[36.7,69.19],[36.12,69.14],[35.87,68.94],[36.2,68.78],[36.78,68.82],[37.1,68.66],[37.67,68.7],[37.93,68.9],[37.61,69.07]]],[[[166.8,-48.3],[166.79,-48.06],[166.47,-47.95],[166.16,-48.09],[166.17,-48.33],[166.49,-48.43],[166.8,-48.3]]],[[[-31.14,39.82],[-31.45,39.91],[-31.71,39.75],[-31.66,39.5],[-31.35,39.41],[-31.3,39.16],[-30.99,39.07],[-30.73,39.22],[-30.78,39.48],[-31.09,39.57],[-31.14,39.82]]],[[[-24.77,37.44],[-24.79,37.69],[-25.09,37.8],[-25.12,38.06],[-25.41,38.17],[-25.68,38.02],[-25.98,38.13],[-26.24,37.98],[-26.21,37.72],[-25.92,37.62],[-25.88,37.36],[-25.59,37.25],[-25.56,37.0],[-25.27,36.89],[-25.24,36.63],[-24.95,36.52],[-24.69,36.67],[-24.71,36.92],[-25.0,37.03],[-25.03,37.29],[-24.77,37.44]]],[[[-176.13,-43.85],[-176.2,-43.62],[-176.5,-43.53],[-176.73,-43.67],[-177.03,-43.58],[-177.27,-43.72],[-177.2,-43.95],[-176.91,-44.04],[-176.84,-44.27],[-176.54,-44.36],[-176.48,-44.59],[-176.17,-44.68],[-175.93,-44.54],[-176.0,-44.31],[-175.76,-44.17],[-175.83,-43.94],[-176.13,-43.85]]],[[[-6.65,61.56],[-6.6,61.76],[-6.19,61.82],[-6.14,62.01],[-5.72,62.07],[-5.67,62.26],[-6.04,62.4],[-6.46,62.35],[-6.84,62.49],[-7.26,62.43],[-7.3,62.23],[-7.72,62.17],[-7.76,61.97],[-7.39,61.84],[-7.43,61.64],[-7.06,61.5],[-7.1,61.3],[-6.74,61.16],[-6.33,61.22],[-6.28,61.42],[-6.65,61.56]]],[[[30.43,69.72],[30.95,69.59],[31.51,69.65],[31.57,69.85],[31.05,69.99],[30.48,69.92],[29.95,70.05],[29.38,69.99],[29.35,69.79],[29.87,69.66],[30.43,69.72]]],[[[12.75,35.42],[12.84,35.66],[13.14,35.72],[13.23,35.96],[13.02,36.14],[12.72,36.08],[12.63,35.84],[12.33,35.77],[12.25,35.53],[12.46,35.35],[12.75,35.42]]],[[[146.2,-43.83],[146.53,-43.75],[146.8,-43.91],[147.13,-43.83],[147.18,-43.58],[147.51,-43.49],[147.56,-43.25],[147.89,-43.16],[147.94,-42.91],[148.26,-42.82],[148.31,-42.58],[148.04,-42.42],[147.72,-42.5],[147.67,-42.75],[147.35,-42.84],[147.29,-43.09],[146.97,-43.17],[146.91,-43.42],[146.59,-43.5],[146.32,-43.34],[146.0,-43.42],[145.94,-43.66],[146.2,-43.83]]],[[[-178.6,-30.34],[-178.4,-30.19],[-178.45,-29.95],[-178.7,-29.86],[-178.9,-30.02],[-178.85,-30.26],[-178.6,-30.34]]],[[[1.74,38.67],[2.02,38.76],[2.07,39.0],[1.85,39.15],[1.91,39.38],[1.68,39.53],[1.4,39.44],[1.35,39.2],[1.07,39.11],[1.02,38.87],[1.24,38.73],[1.19,38.49],[1.41,38.35],[1.68,38.44],[1.74,38.67]]],[[[166.59,-50.57],[166.26,-50.47],[165.94,-50.6],[165.94,-50.83],[165.62,-50.97],[165.63,-51.2],[165.96,-51.3],[166.29,-51.17],[166.28,-50.94],[166.6,-50.8],[166.59,-50.57]]],[[[-15.65,28.4],[-15.65,28.14],[-15.9,28.02],[-15.9,27.76],[-15.66,27.64],[-15.41,27.77],[-15.41,28.02],[-15.16,28.15],[-15.16,28.4],[-15.4,28.52],[-15.65,28.4]]],[[[35.26,32.78],[35.1,32.99],[34.81,32.98],[34.67,32.76],[34.83,32.54],[34.7,32.32],[34.41,32.31],[34.27,32.08],[34.44,31.87],[34.73,31.88],[34.86,32.11],[35.16,32.12],[35.29,32.34],[35.13,32.55],[35.26,32.78]]],[[[171.67,-34.23],[171.94,-34.34],[172.17,-34.2],[172.15,-33.95],[171.89,-33.84],[171.65,-33.98],[171.67,-34.23]]],[[[-64.81,32.13],[-64.69,32.31],[-64.84,32.47],[-65.11,32.44],[-65.22,32.26],[-65.07,32.11],[-64.81,32.13]]],[[[41.54,66.83],[41.26,67.01],[40.7,66.98],[40.44,66.78],[40.72,66.6],[41.27,66.63],[41.54,66.83]]],[[[35.53,33.22],[35.67,33.44],[35.51,33.66],[35.21,33.65],[35.08,33.43],[35.24,33.21],[35.53,33.22]]],[[[-15.38,64.22],[-15.04,64.08],[-14.59,64.16],[-14.48,64.38],[-14.02,64.46],[-13.9,64.68],[-13.44,64.76],[-13.32,64.98],[-13.66,65.12],[-14.13,65.05],[-14.24,64.82],[-14.71,64.75],[-14.82,64.52],[-15.28,64.44],[-15.38,64.22]]],[[[42.35,61.14],[42.11,60.93],[42.34,60.74],[42.8,60.75],[43.04,60.96],[42.81,61.16],[43.05,61.36],[42.82,61.56],[43.06,61.77],[42.82,61.96],[42.35,61.95],[42.11,61.74],[42.35,61.54],[42.11,61.34],[42.35,61.14]]],[[[168.74,-52.77],[169.09,-52.86],[169.42,-52.72],[169.39,-52.49],[169.05,-52.4],[168.72,-52.54],[168.74,-52.77]]],[[[12.37,36.67],[12.46,36.91],[12.25,37.09],[11.94,37.02],[11.86,36.78],[12.07,36.61],[12.37,36.67]]],[[[29.49,35.99],[29.8,36.01],[29.93,36.24],[29.74,36.45],[29.43,36.43],[29.3,36.2],[29.49,35.99]]],[[[14.25,35.73],[14.56,35.79],[14.65,36.03],[14.44,36.21],[14.13,36.15],[14.04,35.91],[14.25,35.73]]],[[[178.23,-49.74],[178.29,-49.96],[178.61,-50.03],[178.88,-49.87],[178.82,-49.65],[178.5,-49.58],[178.23,-49.74]]],[[[32.88,34.65],[32.7,34.86],[32.4,34.85],[32.27,34.62],[32.44,34.41],[32.74,34.43],[32.88,34.65]]],[[[148.2,-41.67],[147.88,-41.76],[147.83,-42.01],[148.1,-42.17],[148.42,-42.08],[148.47,-41.83],[148.2,-41.67]]]]}}]}