{"type":"FeatureCollection","features":[{"type":"Feature","properties":{},"geometry":{"type":"MultiPolygon","coordinates":[[[[74.63,31.72],[75.03,32.73],[74.24,32.78],[73.9,33.36],[73.11,33.41],[72.44,34.33],[72.15,34.43],[71.39,34.22],[71.43,33.97],[71.71,33.88],[71.56,33.24],[71.32,33.09],[70.53,33.12],[69.93,32.18],[69.97,31.94],[70.25,31.85],[70.29,31.61],[70.07,31.46],[70.11,31.22],[70.38,31.14],[70.43,30.9],[70.2,30.75],[70.56,30.19],[70.34,30.04],[70.2,29.42],[69.72,29.36],[69.33,28.83],[68.12,29.86],[68.06,30.1],[67.79,30.18],[67.58,30.02],[67.63,29.79],[67.1,28.87],[67.15,28.64],[67.42,28.56],[67.47,28.33],[67.26,28.18],[67.63,27.64],[67.42,27.49],[67.32,26.89],[67.88,26.51],[68.81,26.64],[69.18,27.16],[69.9,27.13],[70.12,27.28],[70.07,27.51],[70.76,27.71],[70.72,27.94],[70.94,28.09],[71.67,28.06],[72.08,28.58],[73.04,28.68],[73.2,29.29],[73.91,29.48],[73.88,29.72],[74.11,29.86],[73.79,30.43],[74.63,31.72]],[[72.9,33.02],[73.18,32.92],[73.22,32.68],[72.98,32.53],[72.19,32.57],[72.15,32.82],[72.39,32.96],[72.67,32.87],[72.9,33.02]]],[[[49.14,14.54],[49.67,14.37],[50.46,14.97],[50.98,14.79],[52.31,15.57],[52.47,16.14],[53.47,16.71],[53.96,16.53],[54.41,16.9],[54.89,16.71],[55.69,17.21],[56.65,17.3],[56.73,17.62],[56.13,17.6],[56.06,17.79],[56.96,18.08],[57.12,18.73],[58.27,18.96],[57.9,19.41],[58.23,20.22],[58.77,19.9],[59.03,20.38],[59.43,20.46],[59.05,20.92],[59.62,21.14],[59.95,22.75],[58.35,24.1],[57.52,23.92],[56.94,24.25],[56.95,24.82],[56.62,25.09],[56.78,25.25],[56.7,25.46],[56.37,25.73],[56.54,25.89],[57.21,25.93],[57.63,25.44],[58.31,25.47],[58.64,25.2],[59.25,25.44],[59.83,25.1],[60.26,25.19],[60.58,24.91],[61.02,24.99],[61.34,24.71],[63.28,25.18],[63.84,24.82],[64.16,25.34],[64.73,24.98],[65.82,25.27],[65.76,25.49],[65.51,25.56],[64.86,25.34],[64.61,25.41],[64.55,25.64],[63.85,25.63],[63.79,25.85],[63.53,25.92],[63.08,25.84],[63.02,26.06],[62.76,26.13],[62.32,26.05],[61.99,26.34],[60.92,26.01],[60.59,26.3],[60.15,26.21],[59.56,26.56],[58.68,26.37],[58.01,26.93],[57.93,27.15],[58.11,27.3],[58.71,26.96],[59.33,27.21],[59.93,26.87],[60.11,27.02],[59.36,27.82],[58.65,27.78],[58.22,28.29],[57.96,28.35],[57.59,27.42],[57.24,27.7],[56.54,27.66],[56.63,28.64],[55.93,28.59],[55.13,29.36],[54.69,29.25],[55.05,28.98],[55.14,28.76],[54.96,28.59],[54.34,28.92],[54.33,29.52],[53.96,29.79],[53.26,29.73],[52.53,30.26],[52.36,30.09],[52.46,29.87],[52.03,29.75],[51.99,30.36],[51.62,30.62],[50.92,30.54],[50.82,30.75],[50.98,30.93],[50.5,31.4],[50.66,31.58],[50.55,31.8],[49.51,32.36],[49.4,32.57],[49.56,32.75],[49.06,33.23],[49.22,33.41],[49.1,33.62],[48.83,33.66],[48.67,33.48],[48.0,33.77],[47.88,33.99],[48.04,34.17],[48.31,34.13],[48.47,34.32],[47.95,34.79],[47.67,34.82],[47.55,35.04],[47.71,35.22],[48.44,35.34],[48.52,34.72],[49.2,34.42],[49.71,33.95],[49.99,33.91],[50.16,34.09],[50.83,33.78],[51.0,33.96],[51.28,33.92],[52.17,33.16],[52.91,33.25],[53.01,33.02],[52.76,32.45],[51.72,33.03],[51.61,33.25],[51.33,33.3],[51.1,32.72],[53.0,31.38],[53.03,30.77],[53.75,30.84],[54.12,30.57],[54.21,30.35],[54.04,30.18],[54.5,29.69],[54.94,29.8],[54.48,30.3],[54.66,30.47],[54.56,30.69],[53.17,31.56],[53.14,32.18],[53.32,32.35],[54.72,31.48],[54.74,30.86],[55.38,30.53],[56.01,30.81],[56.01,31.43],[55.73,31.48],[55.64,31.71],[55.82,31.88],[56.1,31.83],[56.19,31.6],[57.56,30.69],[57.55,30.07],[58.53,29.44],[59.31,28.64],[59.76,28.74],[59.79,29.35],[59.98,29.51],[59.56,30.03],[59.98,30.98],[60.96,30.33],[60.91,29.71],[61.65,29.73],[61.72,29.5],[61.99,29.43],[62.93,29.61],[63.27,30.16],[63.2,30.39],[63.41,30.55],[63.68,30.48],[63.75,30.25],[64.02,30.17],[64.52,31.12],[64.45,31.35],[65.15,31.6],[64.74,32.15],[63.97,32.13],[63.9,32.37],[63.62,32.44],[63.41,32.28],[63.13,32.35],[63.19,32.99],[62.41,32.97],[62.48,33.61],[62.19,33.68],[62.11,33.92],[62.83,34.18],[62.39,34.73],[63.63,35.09],[63.71,35.74],[63.93,35.91],[66.87,36.26],[67.29,36.84],[67.59,36.75],[67.64,36.51],[68.48,36.5],[68.54,36.25],[68.83,36.16],[69.26,36.73],[69.56,36.64],[69.81,36.8],[69.4,37.39],[69.85,37.95],[69.8,38.2],[69.49,38.29],[68.69,38.06],[68.02,38.48],[67.77,38.32],[67.46,38.4],[67.04,37.83],[66.19,37.82],[66.12,38.07],[66.54,38.65],[66.47,38.9],[66.72,39.07],[66.65,39.32],[67.46,39.57],[67.4,39.82],[67.65,39.98],[70.83,40.26],[71.09,40.41],[71.4,40.32],[71.67,40.48],[71.98,40.38],[72.25,40.54],[72.56,40.44],[72.83,40.59],[73.14,40.49],[73.41,40.65],[73.02,41.25],[72.7,41.35],[72.43,41.2],[70.94,41.17],[70.46,40.6],[69.57,40.62],[69.72,41.29],[69.99,41.45],[69.55,42.05],[70.42,42.28],[70.36,42.53],[70.64,42.69],[72.16,42.72],[72.44,42.88],[72.76,42.78],[74.26,43.04],[74.58,42.93],[74.61,42.68],[75.53,42.62],[76.08,43.17],[77.0,43.09],[77.56,43.63],[77.88,43.52],[78.17,43.66],[78.82,43.18],[79.72,43.33],[79.71,43.59],[80.01,43.73],[80.32,43.61],[81.23,43.75],[81.84,43.25],[83.35,43.39],[83.35,43.64],[82.44,43.77],[82.44,44.02],[82.14,44.15],[81.22,44.01],[80.59,44.51],[79.05,44.34],[78.73,44.46],[79.0,45.11],[79.94,45.26],[79.92,45.52],[80.23,45.66],[80.55,45.53],[80.87,45.67],[80.86,45.92],[81.17,46.06],[81.49,45.93],[81.5,45.68],[82.44,45.55],[82.75,45.68],[82.75,45.94],[83.07,46.07],[83.38,45.94],[84.03,46.44],[84.03,46.7],[83.08,46.83],[83.08,47.09],[82.76,47.22],[81.14,47.08],[80.82,47.2],[80.81,47.46],[81.45,47.98],[81.44,48.24],[81.77,48.37],[82.1,48.24],[82.11,47.98],[82.76,47.47],[84.38,47.58],[85.98,47.42],[86.66,47.9],[86.68,48.15],[86.36,48.29],[84.73,48.21],[84.41,48.35],[84.1,48.99],[84.43,49.11],[84.44,49.36],[83.79,49.88],[83.44,49.76],[83.77,49.12],[82.76,49.0],[82.43,49.13],[82.43,49.39],[83.11,49.89],[83.11,50.15],[82.43,50.66],[82.43,50.91],[82.08,51.04],[82.07,51.3],[81.72,51.42],[81.72,51.68],[81.36,51.8],[81.01,51.68],[81.02,51.42],[80.67,51.29],[79.61,51.4],[78.94,50.88],[77.18,50.95],[76.14,50.78],[75.37,51.25],[74.33,51.06],[73.96,51.17],[73.63,51.01],[73.67,50.76],[72.65,50.55],[72.28,50.65],[72.23,50.91],[72.55,51.06],[72.5,51.32],[72.12,51.41],[71.53,50.85],[70.45,50.88],[69.44,50.64],[68.61,51.07],[66.92,50.74],[66.53,50.82],[66.45,51.07],[65.37,51.05],[64.81,51.62],[64.41,51.69],[64.11,51.52],[63.23,51.9],[63.13,52.15],[63.43,52.33],[63.33,52.57],[62.93,52.64],[62.82,52.88],[63.12,53.06],[63.02,53.31],[62.1,53.68],[61.99,53.92],[62.29,54.1],[62.18,54.34],[61.76,54.4],[61.65,54.65],[59.79,54.45],[59.49,54.27],[59.62,54.03],[58.62,53.7],[58.75,53.47],[58.47,53.28],[58.59,53.04],[58.31,52.85],[56.83,53.47],[56.7,53.7],[56.97,53.89],[57.39,53.85],[57.67,54.04],[57.54,54.28],[57.82,54.46],[57.69,54.7],[58.69,55.03],[58.56,55.27],[58.86,55.45],[58.73,55.69],[59.03,55.88],[58.9,56.11],[59.2,56.3],[58.5,56.81],[58.06,56.86],[57.92,57.09],[58.23,57.28],[58.09,57.51],[56.44,58.1],[56.29,58.32],[55.83,58.36],[55.53,58.17],[55.07,58.2],[54.92,58.43],[54.46,58.46],[54.16,58.27],[53.09,58.54],[52.8,58.35],[52.35,58.37],[52.17,58.59],[52.46,58.79],[52.28,59.01],[51.18,59.27],[51.0,59.48],[49.8,59.31],[48.95,59.75],[48.49,59.76],[48.22,59.56],[47.1,59.78],[46.14,59.37],[45.03,59.57],[44.79,59.36],[44.34,59.35],[44.13,59.56],[43.0,59.33],[42.78,59.53],[43.01,59.74],[42.79,59.94],[42.34,59.92],[42.12,59.71],[41.0,59.88],[40.79,59.66],[40.35,59.64],[40.12,59.84],[40.33,60.05],[40.1,60.24],[39.65,60.22],[37.36,60.88],[35.08,60.1],[34.83,60.28],[35.0,60.49],[34.74,60.67],[34.92,60.89],[36.04,60.78],[36.86,61.25],[36.6,61.43],[36.8,61.64],[35.83,61.96],[36.02,62.18],[35.75,62.35],[35.3,62.32],[35.12,62.1],[33.96,62.19],[33.78,61.97],[34.75,61.67],[34.58,61.45],[33.54,61.15],[33.28,61.33],[33.44,61.54],[33.18,61.71],[29.66,62.29],[29.23,62.23],[29.1,62.01],[27.99,62.05],[27.86,61.84],[27.45,61.77],[25.79,62.1],[25.39,62.04],[25.29,61.82],[24.22,61.83],[24.12,61.61],[23.74,61.54],[22.41,61.69],[21.9,62.18],[21.98,62.4],[21.0,62.59],[20.63,62.51],[20.56,62.3],[21.08,61.81],[21.01,61.6],[21.3,61.46],[21.22,61.25],[20.29,60.7],[19.27,60.45],[18.26,60.68],[18.4,60.85],[18.11,60.99],[17.38,61.07],[17.52,61.25],[17.23,61.38],[17.37,61.55],[17.95,61.77],[17.66,61.89],[17.8,62.07],[17.06,62.15],[16.91,61.98],[17.21,61.85],[16.49,61.46],[16.79,61.33],[16.65,61.15],[16.94,61.03],[16.8,60.85],[17.25,60.41],[16.68,60.18],[16.55,60.01],[16.84,59.87],[16.7,59.69],[15.99,59.77],[15.02,59.49],[14.89,59.3],[15.34,58.86],[14.14,58.18],[14.43,58.05],[15.37,58.35],[16.34,58.14],[15.68,57.71],[16.1,57.24],[15.98,57.05],[16.25,56.91],[16.13,56.72],[15.21,56.42],[14.78,56.89],[14.1,56.97],[13.19,56.65],[12.92,56.78],[13.03,56.98],[12.58,57.43],[12.7,57.62],[12.24,58.07],[13.94,59.0],[13.24,59.07],[11.67,58.32],[11.2,58.76],[11.31,58.94],[11.02,59.06],[11.13,59.25],[10.84,59.37],[10.95,59.56],[10.25,59.61],[10.14,59.42],[10.43,59.3],[10.32,59.12],[9.23,59.09],[7.64,58.11],[7.26,58.03],[6.96,58.14],[7.06,58.34],[6.14,58.59],[5.77,58.56],[5.68,58.37],[6.31,58.23],[6.58,58.06],[6.49,57.87],[6.78,57.76],[7.45,57.72],[7.84,57.8],[7.93,57.99],[9.0,58.03],[9.1,58.22],[9.5,58.29],[9.6,58.48],[9.31,58.6],[9.41,58.79],[10.8,58.69],[10.69,58.5],[11.16,58.06],[11.05,57.87],[9.97,57.86],[9.37,57.4],[8.7,57.45],[7.84,57.1],[7.74,56.9],[8.02,56.79],[7.46,56.31],[7.93,55.87],[7.37,55.39],[8.02,55.35],[8.29,55.23],[8.2,55.02],[7.56,55.07],[6.74,54.71],[6.46,54.83],[6.1,54.75],[6.02,54.54],[5.03,54.49],[4.95,54.29],[4.02,54.38],[3.53,53.92],[2.93,54.04],[2.18,53.74],[1.58,53.86],[1.1,53.38],[0.49,53.49],[0.56,53.71],[0.06,54.24],[0.13,54.45],[-0.79,54.72],[-0.73,54.93],[-1.25,55.46],[-1.19,55.67],[-1.49,55.82],[-1.43,56.03],[-2.4,56.29],[-1.92,56.76],[-1.55,56.81],[-1.49,57.02],[-1.8,57.18],[-1.74,57.38],[-1.37,57.43],[-1.3,57.64],[-3.7,58.09],[-4.07,58.03],[-4.13,57.83],[-2.73,57.64],[-2.42,57.48],[-2.48,57.28],[-2.17,57.12],[-2.22,56.92],[-3.02,56.59],[-3.7,56.69],[-3.75,56.48],[-4.53,56.14],[-4.58,55.93],[-4.94,55.86],[-5.54,56.38],[-6.23,56.46],[-5.77,56.95],[-6.1,57.09],[-6.06,57.31],[-6.77,57.38],[-6.81,57.17],[-6.47,57.03],[-6.51,56.81],[-6.89,56.75],[-6.93,56.53],[-6.6,56.39],[-6.64,56.17],[-7.01,56.1],[-7.04,55.89],[-6.72,55.74],[-6.76,55.52],[-7.45,55.6],[-7.81,55.52],[-7.85,55.3],[-6.16,55.01],[-6.2,54.79],[-6.56,54.72],[-6.32,54.14],[-6.67,54.06],[-7.1,53.54],[-8.12,53.53],[-8.15,53.31],[-8.88,52.92],[-9.2,53.06],[-9.17,53.29],[-8.82,53.37],[-8.79,53.6],[-9.79,53.8],[-9.76,54.02],[-9.08,53.96],[-8.34,54.35],[-8.31,54.57],[-8.63,54.71],[-8.6,54.93],[-8.24,55.01],[-8.21,55.23],[-8.54,55.37],[-9.29,54.99],[-9.32,54.77],[-8.99,54.63],[-9.02,54.41],[-10.75,54.44],[-10.77,54.21],[-10.44,54.08],[-10.84,53.54],[-10.21,53.03],[-10.24,52.81],[-10.95,52.4],[-10.97,52.17],[-10.65,52.03],[-10.38,51.43],[-8.77,51.18],[-8.07,51.58],[-8.03,51.81],[-7.39,51.74],[-7.05,51.82],[-7.01,52.05],[-6.37,51.98],[-5.65,52.35],[-5.87,52.95],[-5.52,53.02],[-5.48,53.25],[-6.05,53.77],[-6.01,53.99],[-5.66,54.06],[-5.62,54.28],[-4.95,54.2],[-5.0,53.98],[-4.7,53.83],[-4.74,53.61],[-5.09,53.54],[-5.13,53.32],[-4.83,53.17],[-4.88,52.94],[-5.22,52.87],[-5.01,52.28],[-5.35,52.2],[-5.77,51.68],[-4.85,51.45],[-4.64,50.84],[-5.6,50.85],[-5.64,50.62],[-6.7,49.92],[-6.49,49.31],[-7.17,48.91],[-7.56,48.35],[-8.49,48.32],[-8.52,48.09],[-8.84,48.0],[-8.87,47.76],[-9.19,47.67],[-9.21,47.43],[-9.53,47.33],[-9.55,47.1],[-9.87,47.0],[-9.89,46.76],[-10.21,46.66],[-10.23,46.42],[-10.54,46.32],[-10.56,46.08],[-10.87,45.98],[-10.89,45.74],[-11.85,44.94],[-11.87,44.7],[-11.58,44.56],[-11.6,44.31],[-11.9,44.2],[-11.65,43.57],[-12.26,43.11],[-12.01,42.47],[-12.3,42.37],[-12.32,42.12],[-12.61,42.01],[-12.62,41.76],[-13.52,40.92],[-13.26,40.28],[-14.14,39.42],[-13.88,38.78],[-14.44,38.29],[-14.45,38.04],[-15.01,37.54],[-15.02,37.29],[-15.29,37.16],[-15.56,37.3],[-16.12,36.79],[-16.39,36.92],[-16.66,36.79],[-16.66,36.54],[-16.94,36.41],[-16.93,36.15],[-17.2,36.03],[-17.2,35.77],[-17.47,35.64],[-17.47,35.39],[-17.74,35.25],[-17.73,35.0],[-18.0,34.87],[-17.99,34.61],[-18.77,33.7],[-18.77,33.44],[-18.5,33.32],[-18.74,32.68],[-18.48,32.55],[-18.2,31.92],[-18.71,31.4],[-18.44,30.76],[-19.18,29.85],[-19.17,29.6],[-18.91,29.48],[-19.15,28.83],[-18.89,28.71],[-18.88,28.46],[-17.86,27.22],[-17.13,27.37],[-16.39,27.26],[-15.9,27.76],[-14.19,27.65],[-13.69,28.15],[-13.69,28.4],[-13.44,28.52],[-13.2,28.39],[-12.69,28.89],[-11.48,28.74],[-11.49,28.49],[-11.74,28.37],[-12.46,28.51],[-12.97,28.02],[-13.21,28.14],[-13.45,28.02],[-13.46,27.77],[-13.71,27.65],[-13.49,27.02],[-14.21,26.9],[-14.22,26.65],[-14.46,26.52],[-14.47,26.27],[-15.2,25.4],[-14.97,24.78],[-15.68,24.65],[-15.69,24.4],[-15.92,24.27],[-15.92,24.03],[-17.32,22.03],[-17.08,21.43],[-17.54,20.93],[-17.54,20.69],[-16.85,20.59],[-16.85,20.35],[-16.62,20.24],[-16.85,19.64],[-16.17,18.83],[-16.17,18.59],[-16.4,18.47],[-16.18,17.89],[-16.62,17.41],[-16.4,16.83],[-16.83,16.35],[-16.61,15.79],[-17.04,15.09],[-17.68,14.94],[-17.68,14.72],[-16.82,13.64],[-17.03,13.29],[-17.03,13.07],[-16.82,12.97],[-17.02,12.41],[-16.4,11.68],[-16.6,11.13],[-16.2,10.73],[-15.58,10.87],[-15.39,10.56],[-14.78,10.48],[-14.59,9.97],[-13.99,9.89],[-13.24,8.69],[-13.45,8.17],[-12.91,7.3],[-12.52,7.32],[-12.16,6.95],[-11.58,7.08],[-11.57,7.27],[-12.14,7.34],[-12.32,7.63],[-12.7,7.61],[-12.49,8.12],[-12.86,8.51],[-12.43,9.35],[-11.84,9.48],[-11.63,9.79],[-8.15,9.93],[-5.14,10.01],[-4.82,9.62],[-4.46,9.63],[-4.04,9.98],[-3.17,9.62],[-2.76,9.92],[-1.88,9.55],[-1.45,9.85],[-1.15,9.34],[-0.92,9.59],[-0.36,9.53],[-0.12,9.78],[0.18,9.26],[0.66,9.76],[1.4,9.54],[1.86,9.84],[2.78,9.45],[3.25,9.75],[4.94,9.12],[5.43,9.42],[6.37,9.01],[6.92,9.52],[7.7,9.28],[8.2,9.58],[8.59,9.45],[8.87,8.9],[9.67,9.46],[9.94,8.9],[10.73,8.65],[11.03,8.9],[11.65,8.81],[11.95,9.07],[12.91,8.64],[13.45,8.93],[14.41,8.49],[14.95,8.78],[15.51,8.48],[16.06,8.77],[17.02,8.32],[17.58,8.61],[18.54,8.16],[19.1,8.45],[20.45,7.85],[21.34,8.39],[22.68,7.78],[23.25,8.06],[24.19,7.6],[24.76,7.88],[25.3,7.56],[25.88,7.83],[27.04,7.4],[27.25,6.83],[27.82,7.11],[29.15,6.49],[29.81,6.97],[30.45,6.85],[32.87,8.72],[33.24,8.57],[33.82,8.84],[34.71,8.35],[35.05,6.42],[34.64,5.97],[34.79,5.79],[35.42,5.67],[35.75,5.91],[35.76,6.51],[36.32,6.77],[36.53,5.6],[37.08,5.26],[37.06,4.65],[37.22,4.47],[37.78,4.74],[37.92,3.95],[38.47,3.6],[38.71,3.63],[39.1,4.09],[38.88,5.28],[39.66,4.97],[39.89,4.99],[39.9,5.6],[40.52,5.47],[40.44,5.86],[39.67,6.17],[40.06,6.6],[40.44,6.45],[40.98,6.71],[40.91,7.09],[41.52,7.54],[41.52,8.12],[42.12,8.56],[42.5,8.41],[43.02,8.65],[43.77,8.34],[44.06,8.56],[44.06,9.12],[44.35,9.34],[44.21,9.88],[42.66,10.51],[42.67,10.89],[43.01,11.11],[42.9,11.29],[41.98,10.83],[41.3,11.16],[41.3,11.54],[41.87,11.4],[42.57,11.84],[43.24,11.51],[43.34,10.94],[43.9,10.8],[43.89,10.42],[44.32,10.08],[45.0,10.51],[45.54,10.37],[46.21,10.79],[47.46,10.15],[48.12,10.56],[48.26,11.12],[48.59,11.33],[48.5,11.51],[47.96,11.29],[47.65,11.45],[47.31,11.24],[47.0,11.41],[46.88,11.21],[47.29,10.87],[47.84,11.09],[47.93,10.92],[47.48,10.52],[46.23,11.17],[45.56,10.74],[45.01,10.89],[44.34,10.46],[44.24,11.02],[43.58,11.34],[43.6,12.11],[44.06,12.53],[44.62,12.38],[46.11,13.44],[46.98,13.1],[48.12,13.93],[48.65,13.76],[49.11,14.16],[49.14,14.54]],[[76.27,49.76],[76.63,49.64],[76.66,49.39],[77.69,49.3],[77.72,49.05],[77.39,48.91],[77.42,48.65],[74.42,48.36],[74.07,48.46],[74.02,48.72],[74.34,48.87],[74.3,49.13],[75.3,49.32],[75.26,49.57],[75.59,49.72],[75.94,49.61],[76.27,49.76]],[[41.9,15.35],[42.02,14.75],[42.61,14.99],[42.71,14.0],[42.36,13.78],[41.66,14.13],[41.54,14.72],[40.95,14.88],[40.82,15.08],[41.3,15.51],[40.82,15.89],[40.94,16.1],[40.82,16.29],[40.58,16.28],[40.46,16.48],[40.58,16.69],[40.45,16.89],[39.84,16.64],[39.72,16.84],[39.47,16.82],[39.34,17.02],[39.46,17.23],[38.96,17.62],[39.08,17.83],[38.95,18.03],[38.7,18.02],[38.57,18.22],[39.06,18.67],[38.9,20.56],[39.02,20.77],[39.28,20.79],[39.41,20.58],[39.29,20.36],[39.8,19.97],[39.68,19.75],[39.81,19.13],[40.44,18.95],[40.94,18.56],[40.57,18.34],[40.45,18.12],[40.57,17.92],[41.19,18.16],[41.31,17.55],[41.68,17.78],[41.92,17.79],[42.04,17.59],[41.19,16.93],[41.31,16.73],[41.55,16.75],[41.67,16.55],[41.55,16.34],[42.03,15.96],[41.54,15.53],[41.66,15.33],[41.9,15.35]],[[47.83,36.44],[47.66,36.25],[46.93,36.13],[46.84,36.75],[47.0,36.94],[47.29,36.91],[47.83,36.44]],[[10.69,56.58],[10.4,56.71],[10.51,56.91],[10.9,56.98],[11.01,57.17],[11.68,57.11],[11.57,56.92],[10.69,56.58]],[[49.16,28.74],[49.77,28.5],[50.29,28.88],[50.55,28.83],[50.91,28.58],[50.96,27.99],[51.67,27.47],[52.34,27.54],[54.52,25.75],[55.19,25.8],[55.2,25.22],[54.37,25.02],[54.36,25.59],[54.11,25.65],[53.88,25.12],[54.21,24.86],[54.3,24.66],[54.14,24.5],[53.49,24.45],[53.07,24.92],[53.22,25.07],[53.13,25.28],[52.88,25.33],[52.48,25.22],[52.33,25.07],[52.42,24.86],[52.04,24.72],[51.98,25.32],[51.66,25.54],[51.85,26.1],[51.75,26.31],[51.41,26.57],[50.8,26.4],[50.35,26.83],[50.11,26.84],[50.08,27.87],[49.45,27.7],[48.63,28.36],[48.8,28.97],[49.05,28.96],[49.16,28.74]],[[37.96,13.24],[38.07,13.45],[38.32,13.47],[38.44,13.28],[38.08,13.05],[37.96,13.24]],[[15.65,55.41],[14.72,55.64],[14.84,55.83],[15.9,55.8],[16.54,56.25],[16.94,56.3],[17.07,56.49],[16.8,56.63],[16.93,56.82],[17.46,57.06],[17.87,57.11],[18.28,56.63],[18.68,56.68],[18.81,56.87],[18.54,57.01],[18.68,57.2],[19.23,57.43],[18.95,57.58],[19.65,57.99],[19.37,58.13],[19.51,58.32],[18.82,58.42],[18.27,58.19],[18.13,58.0],[18.41,57.86],[18.27,57.68],[17.32,57.39],[16.9,57.86],[17.58,58.28],[17.3,58.42],[17.43,58.61],[18.54,58.56],[19.25,58.97],[18.97,59.11],[19.11,59.29],[20.25,59.72],[22.37,59.4],[21.79,59.19],[21.64,59.01],[21.91,58.86],[21.19,58.47],[21.46,58.32],[21.31,58.14],[21.7,57.66],[21.14,57.44],[20.99,57.26],[21.26,57.11],[20.56,56.7],[20.83,56.55],[20.69,56.36],[20.95,56.2],[20.81,56.01],[21.07,55.86],[20.93,55.67],[19.99,55.4],[19.34,55.51],[19.2,55.31],[18.81,55.27],[17.88,55.52],[16.97,55.23],[15.65,55.41]],[[25.3,59.64],[25.03,59.79],[25.13,60.01],[25.77,59.92],[25.67,59.7],[25.3,59.64]],[[39.11,9.6],[39.57,10.03],[39.1,10.37],[39.09,10.76],[38.73,10.92],[39.2,11.36],[38.72,11.71],[39.42,12.17],[39.43,11.38],[39.91,11.03],[39.92,9.87],[39.57,9.65],[39.58,9.26],[39.16,8.84],[38.19,9.12],[38.08,8.92],[38.62,8.59],[38.69,8.21],[38.3,7.78],[37.91,7.93],[38.3,8.36],[37.77,8.69],[37.73,9.07],[38.18,9.51],[38.54,9.35],[39.11,9.6]],[[-3.75,55.05],[-4.05,55.2],[-4.82,54.85],[-5.13,55.0],[-5.08,55.22],[-4.31,55.56],[-4.27,55.78],[-3.59,55.69],[-2.82,56.02],[-2.27,55.5],[-2.32,55.29],[-3.34,55.32],[-3.39,55.11],[-3.75,55.05]],[[-2.19,54.49],[-2.49,54.65],[-2.43,54.86],[-1.79,54.76],[-1.84,54.55],[-2.19,54.49]],[[49.29,35.23],[48.6,35.52],[48.48,35.74],[48.65,35.93],[49.34,35.64],[49.51,35.82],[49.8,35.78],[49.86,35.15],[49.7,34.97],[49.41,35.01],[49.29,35.23]],[[41.98,10.06],[41.64,9.84],[41.52,10.02],[41.64,10.61],[42.21,10.47],[42.32,10.29],[41.98,10.06]],[[42.7,13.22],[42.71,13.61],[42.94,13.63],[43.05,13.44],[42.7,13.22]],[[31.97,56.77],[31.36,56.9],[31.49,57.12],[31.87,57.16],[32.11,56.99],[31.97,56.77]],[[46.19,37.84],[46.48,37.81],[46.61,37.59],[46.45,37.4],[46.16,37.43],[46.03,37.65],[46.19,37.84]],[[44.17,42.76],[44.48,42.74],[44.63,42.52],[44.47,42.32],[44.16,42.34],[42.15,43.46],[42.31,43.66],[42.62,43.65],[44.17,42.76]],[[65.88,47.45],[65.96,47.2],[66.31,47.12],[67.24,47.38],[67.6,47.29],[68.11,47.88],[69.78,47.95],[69.84,47.69],[69.55,47.53],[69.61,47.27],[69.96,47.18],[70.02,46.93],[69.73,46.77],[69.79,46.51],[70.55,46.07],[70.37,45.4],[70.71,45.31],[70.77,45.05],[71.73,45.02],[71.78,44.77],[71.49,44.61],[68.68,44.42],[68.41,44.25],[67.66,44.68],[67.39,44.51],[67.05,44.59],[66.78,44.43],[66.85,44.17],[67.19,44.09],[67.66,43.5],[66.79,43.25],[66.46,43.33],[66.39,43.58],[65.45,43.57],[65.38,43.82],[65.04,43.9],[64.78,43.72],[64.02,44.12],[63.76,43.95],[63.42,44.02],[62.9,44.59],[62.56,44.66],[62.63,45.34],[62.28,45.4],[62.19,45.65],[62.62,46.26],[62.08,46.82],[62.52,47.43],[62.42,47.68],[62.69,47.86],[62.6,48.11],[62.87,48.29],[62.77,48.54],[63.05,48.72],[62.96,48.96],[63.24,49.14],[63.14,49.39],[63.42,49.57],[63.33,49.82],[64.96,50.2],[65.34,50.13],[65.42,49.88],[66.26,49.47],[66.34,49.22],[66.05,49.05],[66.13,48.8],[65.64,48.2],[65.72,47.95],[66.08,47.87],[66.16,47.62],[65.88,47.45]],[[38.12,11.85],[38.36,11.87],[38.37,11.48],[38.0,11.64],[38.12,11.85]],[[27.22,57.35],[26.62,57.46],[26.72,57.67],[27.08,57.73],[27.33,57.57],[27.22,57.35]],[[54.61,32.32],[54.89,32.27],[54.99,32.04],[54.8,31.87],[54.53,31.92],[54.43,32.15],[54.61,32.32]],[[-3.25,54.31],[-3.55,54.46],[-3.49,54.68],[-2.84,54.59],[-2.89,54.37],[-3.25,54.31]],[[-8.99,52.01],[-9.65,52.07],[-9.62,52.3],[-9.28,52.38],[-8.97,52.24],[-8.99,52.01]],[[59.03,37.24],[59.73,36.88],[59.81,36.64],[59.48,36.05],[59.57,35.81],[60.25,35.44],[60.33,35.21],[60.12,35.03],[59.45,35.4],[59.24,35.22],[58.44,35.17],[57.96,35.7],[58.67,36.0],[58.97,35.93],[59.18,36.11],[59.09,36.35],[58.28,36.29],[57.79,36.83],[57.09,37.18],[56.99,37.41],[57.2,37.59],[57.91,37.24],[58.23,37.84],[58.54,37.78],[59.03,37.24]],[[43.25,11.89],[42.91,12.06],[43.04,12.65],[43.38,12.48],[43.25,11.89]],[[60.25,32.41],[60.69,31.88],[60.49,31.71],[59.26,31.57],[59.18,31.8],[59.37,31.97],[58.92,32.49],[59.12,32.66],[59.03,32.9],[58.75,32.96],[58.66,33.19],[58.86,33.36],[58.78,33.59],[58.11,33.95],[58.02,34.18],[58.22,34.36],[58.51,34.29],[58.98,33.77],[59.75,33.81],[59.84,33.58],[60.13,33.51],[60.21,33.28],[60.01,33.11],[60.45,32.57],[60.25,32.41]],[[37.33,5.89],[37.17,6.08],[37.49,6.31],[37.56,5.92],[37.33,5.89]],[[12.05,47.1],[12.83,47.46],[13.41,47.37],[13.66,47.21],[13.55,46.98],[12.97,47.08],[12.2,46.72],[11.04,46.89],[10.95,46.67],[11.19,46.52],[11.1,46.29],[10.76,46.22],[8.8,46.6],[8.07,46.22],[7.19,45.38],[6.63,45.45],[6.7,45.68],[8.23,46.67],[8.32,46.9],[9.8,46.83],[10.31,47.35],[10.64,47.42],[12.05,47.1]],[[-7.17,53.1],[-7.59,52.57],[-8.25,52.63],[-7.83,53.16],[-7.17,53.1]],[[11.74,56.59],[11.85,56.79],[12.24,56.85],[12.52,56.72],[12.41,56.53],[11.74,56.59]],[[43.58,38.44],[43.88,38.42],[44.03,38.62],[44.32,38.6],[44.46,38.39],[44.31,38.19],[44.02,38.21],[43.85,37.59],[43.56,37.61],[43.42,37.83],[43.58,38.44]],[[38.28,6.6],[38.51,6.63],[38.52,7.22],[39.07,7.48],[39.07,8.06],[39.92,8.53],[40.15,7.98],[39.76,7.55],[40.53,7.24],[40.6,6.86],[39.99,6.99],[38.42,5.82],[38.28,6.6]],[[37.79,10.83],[38.03,10.85],[38.04,10.46],[37.68,10.62],[37.79,10.83]],[[-3.8,53.37],[-4.35,53.9],[-4.3,54.11],[-3.65,54.03],[-3.7,53.81],[-3.4,53.65],[-3.45,53.44],[-3.8,53.37]],[[55.43,26.33],[55.69,26.27],[55.77,26.06],[55.61,25.9],[55.27,26.17],[55.43,26.33]],[[25.54,58.68],[24.29,58.86],[24.39,59.08],[24.74,59.14],[25.37,59.05],[25.64,58.9],[25.54,58.68]],[[44.48,15.1],[44.12,14.88],[44.02,15.47],[43.68,15.65],[43.8,15.86],[44.72,15.51],[44.83,15.32],[44.48,15.1]],[[53.35,35.68],[52.11,35.45],[51.6,35.95],[50.84,35.85],[50.32,36.34],[50.96,36.67],[51.66,36.36],[51.85,36.54],[52.14,36.5],[52.25,36.27],[52.95,35.96],[53.62,36.27],[53.91,36.22],[54.02,35.99],[53.35,35.68]],[[49.64,34.57],[49.81,34.75],[50.1,34.71],[50.21,34.49],[50.04,34.31],[49.76,34.35],[49.64,34.57]],[[44.34,14.5],[44.69,14.72],[44.67,13.93],[44.33,14.11],[44.34,14.5]],[[49.12,29.78],[49.26,29.97],[49.51,29.96],[49.62,29.74],[49.23,29.56],[49.12,29.78]],[[24.03,57.66],[24.29,57.51],[23.72,57.3],[23.36,57.79],[23.93,58.0],[24.19,57.84],[24.03,57.66]],[[26.8,59.88],[26.15,59.98],[26.26,60.2],[26.64,60.26],[26.91,60.1],[26.8,59.88]],[[79.07,49.09],[79.41,48.97],[79.78,48.34],[79.46,48.2],[78.76,48.7],[78.43,48.56],[78.09,48.68],[78.06,48.93],[78.39,49.07],[78.74,48.95],[79.07,49.09]],[[16.56,32.35],[16.57,31.67],[15.79,31.75],[15.47,32.37],[15.57,32.61],[14.86,32.93],[14.96,33.17],[15.64,33.53],[16.34,33.21],[16.64,33.27],[16.84,33.08],[16.75,32.83],[16.45,32.78],[16.36,32.54],[16.56,32.35]],[[41.97,9.31],[41.67,9.09],[41.52,9.26],[41.63,9.46],[41.97,9.31]],[[45.11,42.7],[45.43,42.69],[45.57,42.47],[45.4,42.27],[45.09,42.29],[44.95,42.5],[45.11,42.7]],[[46.49,41.98],[45.89,42.45],[46.06,42.65],[46.38,42.62],[47.89,41.66],[47.71,41.46],[47.39,41.49],[47.26,41.71],[46.49,41.98]],[[45.73,39.95],[45.89,40.14],[46.2,40.12],[46.33,39.9],[46.17,39.7],[45.87,39.73],[45.73,39.95]],[[46.77,35.94],[46.9,35.72],[46.47,35.56],[46.34,35.77],[46.49,35.97],[46.77,35.94]],[[-6.17,53.1],[-6.83,53.17],[-6.79,53.4],[-6.44,53.47],[-6.13,53.32],[-6.17,53.1]],[[47.99,38.08],[47.82,37.89],[47.52,37.92],[47.39,38.14],[47.56,38.33],[47.86,38.3],[47.99,38.08]],[[56.88,26.2],[56.54,26.47],[56.71,26.63],[56.97,26.57],[57.05,26.36],[56.88,26.2]],[[26.29,57.1],[25.72,56.9],[25.47,57.06],[25.63,57.24],[26.29,57.1]],[[54.4,36.36],[54.1,36.41],[54.0,36.64],[54.19,36.82],[54.49,36.77],[54.59,36.54],[54.4,36.36]]],[[[-22.52,16.03],[-22.31,16.16],[-22.32,16.4],[-23.04,17.17],[-23.26,17.03],[-23.24,16.8],[-23.01,16.7],[-23.19,16.1],[-22.71,15.67],[-22.5,15.8],[-22.52,16.03]]],[[[80.54,37.53],[81.91,37.69],[82.46,37.2],[82.73,37.33],[83.54,37.22],[84.1,37.72],[84.91,37.59],[85.47,38.09],[86.28,37.95],[86.56,38.07],[86.57,38.32],[86.85,38.44],[87.12,38.31],[87.4,38.43],[87.42,38.67],[87.7,38.79],[87.96,38.66],[88.24,38.77],[88.27,39.02],[88.55,39.13],[88.81,39.0],[89.09,39.11],[89.12,39.36],[89.41,39.47],[89.66,39.33],[89.95,39.44],[89.98,39.69],[90.27,39.8],[90.52,39.66],[91.14,40.12],[91.39,39.98],[91.68,40.08],[91.72,40.33],[91.24,40.86],[91.28,41.1],[91.02,41.25],[90.4,40.79],[89.02,40.98],[87.6,40.91],[87.07,41.43],[86.78,41.31],[86.5,41.45],[86.52,41.7],[86.81,41.82],[87.09,41.68],[87.39,41.8],[87.41,42.05],[87.13,42.18],[86.25,42.08],[86.24,41.83],[85.94,41.71],[85.08,41.85],[85.09,42.11],[84.8,42.24],[84.5,42.11],[84.22,42.24],[83.62,41.74],[80.98,41.84],[80.41,41.31],[79.52,41.41],[79.23,41.27],[79.56,40.65],[78.7,40.49],[78.71,40.23],[78.43,40.09],[78.14,40.21],[77.6,39.67],[77.31,39.78],[77.28,40.03],[76.98,40.14],[76.71,40.0],[76.73,39.75],[76.21,39.2],[76.56,38.59],[76.85,38.48],[77.12,38.63],[77.72,38.16],[78.55,38.33],[79.14,37.85],[79.97,38.01],[80.54,37.53]]],[[[90.7,43.02],[89.27,43.23],[88.38,43.14],[88.03,42.53],[89.46,42.34],[89.43,42.09],[88.56,42.0],[88.53,41.75],[88.8,41.62],[89.67,41.7],[90.03,42.31],[90.33,42.41],[90.6,42.27],[93.7,42.16],[93.53,42.8],[93.28,42.94],[90.7,43.02]]],[[[-25.45,16.63],[-25.01,16.66],[-24.53,16.23],[-23.87,16.4],[-24.14,16.97],[-24.82,17.03],[-24.84,17.27],[-25.08,17.36],[-25.73,17.19],[-25.45,16.63]]],[[[62.54,28.45],[62.61,28.23],[63.21,27.86],[63.54,28.4],[63.47,28.63],[63.21,28.7],[62.54,28.45]]],[[[39.66,-3.62],[39.82,-3.82],[40.39,-3.51],[40.39,-2.87],[41.9,-1.78],[41.82,-1.37],[39.99,-2.71],[39.99,-3.36],[39.74,-3.4],[39.66,-3.62]]],[[[51.28,10.24],[51.59,10.43],[51.23,10.77],[51.45,12.04],[51.36,12.22],[50.83,12.01],[50.54,12.18],[50.5,11.81],[51.09,11.48],[50.87,10.21],[50.96,10.04],[51.28,10.24]]],[[[84.63,45.67],[83.99,45.17],[82.44,45.3],[81.51,45.16],[81.51,44.91],[82.14,44.4],[84.28,44.53],[84.87,44.01],[86.98,44.08],[87.54,43.56],[88.51,44.4],[88.8,44.26],[88.77,44.01],[89.64,43.84],[90.64,44.65],[90.68,44.9],[90.4,45.05],[89.48,44.98],[89.2,45.12],[88.97,45.77],[88.68,45.91],[89.06,46.52],[88.49,47.06],[88.52,47.31],[88.22,47.45],[88.25,47.7],[87.94,47.85],[86.97,47.76],[86.95,47.51],[86.62,47.39],[86.89,46.75],[85.93,46.66],[85.92,46.4],[85.6,46.28],[84.66,46.43],[84.34,46.31],[84.63,45.67]]],[[[83.87,53.17],[83.51,53.31],[83.15,53.19],[83.14,52.93],[82.78,52.81],[82.78,52.56],[83.14,52.43],[83.13,52.18],[82.78,52.05],[82.78,51.8],[82.42,51.68],[82.42,51.42],[82.77,51.29],[83.12,51.42],[83.13,51.67],[83.48,51.79],[83.49,52.04],[83.84,52.16],[84.19,52.03],[85.26,52.13],[85.27,52.38],[84.92,52.52],[84.93,52.77],[83.86,52.92],[83.87,53.17]]],[[[50.68,8.58],[50.6,8.93],[51.12,9.33],[50.9,9.86],[50.63,9.66],[50.72,9.3],[50.25,9.09],[50.27,8.55],[49.73,8.13],[50.08,7.98],[50.68,8.58]]],[[[34.61,2.49],[34.66,1.45],[35.06,1.29],[35.15,1.51],[35.39,1.55],[35.41,2.18],[35.01,2.33],[34.79,2.93],[34.54,2.9],[34.46,2.68],[34.61,2.49]]],[[[33.16,-25.52],[33.26,-25.29],[33.09,-25.1],[32.81,-25.15],[32.71,-25.38],[32.89,-25.57],[33.16,-25.52]]],[[[49.23,6.59],[49.44,6.62],[49.35,6.98],[49.08,6.77],[49.23,6.59]]],[[[-24.65,15.18],[-25.09,15.14],[-25.07,14.91],[-24.59,14.49],[-23.29,14.59],[-22.89,15.08],[-23.15,15.64],[-23.38,15.74],[-23.82,15.71],[-24.03,15.57],[-24.01,15.34],[-24.65,15.18]]],[[[48.56,5.19],[48.84,5.41],[48.48,5.57],[47.92,5.12],[47.93,4.54],[46.86,3.82],[46.94,3.44],[48.3,4.38],[48.22,4.76],[48.56,5.19]]],[[[46.96,2.84],[46.87,3.23],[46.65,3.2],[45.41,2.04],[45.79,1.88],[46.96,2.84]]],[[[35.46,1.13],[35.69,0.53],[36.33,0.41],[36.42,0.63],[36.02,0.79],[35.79,1.39],[35.55,1.36],[35.46,1.13]]],[[[-30.99,39.07],[-30.73,39.22],[-30.78,39.48],[-31.09,39.57],[-31.14,39.82],[-31.45,39.91],[-31.71,39.75],[-31.66,39.5],[-30.99,39.07]]],[[[45.19,9.78],[45.51,9.62],[45.53,9.99],[44.99,10.14],[44.53,9.72],[44.64,9.55],[45.19,9.78]]],[[[33.68,3.61],[33.59,3.4],[33.75,3.21],[34.39,3.08],[34.41,3.71],[34.01,3.86],[33.79,4.45],[33.55,4.42],[33.46,4.2],[33.68,3.61]]],[[[36.35,1.04],[36.92,1.33],[37.15,0.73],[37.06,0.5],[37.46,0.35],[37.54,0.57],[37.17,1.99],[36.28,1.45],[36.19,1.23],[36.35,1.04]]],[[[53.85,13.04],[53.34,12.85],[53.3,12.49],[52.86,12.11],[52.94,11.93],[53.26,12.13],[53.73,11.97],[54.67,12.54],[54.71,12.89],[54.2,12.7],[53.85,13.04]],[[53.57,12.32],[53.61,12.68],[53.81,12.68],[53.89,12.51],[53.57,12.32]]],[[[42.22,-0.89],[43.07,-0.35],[42.99,0.06],[41.82,-0.74],[41.9,-1.15],[42.14,-1.11],[42.22,-0.89]]],[[[39.41,-4.32],[39.57,-4.51],[39.82,-4.47],[39.9,-4.24],[39.74,-4.05],[39.5,-4.08],[39.41,-4.32]]],[[[49.96,7.6],[49.61,7.75],[49.54,7.56],[49.69,7.39],[49.96,7.6]]],[[[48.8,11.34],[48.9,11.16],[49.23,11.37],[48.92,11.53],[48.8,11.34]]],[[[43.68,0.78],[45.11,1.79],[45.03,2.19],[43.6,1.18],[43.68,0.78]]],[[[-11.03,6.81],[-11.23,6.7],[-11.06,6.42],[-10.85,6.72],[-11.03,6.81]]],[[[32.86,-26.21],[32.96,-25.98],[32.79,-25.8],[32.51,-25.84],[32.41,-26.07],[32.58,-26.25],[32.86,-26.21]]],[[[49.53,11.2],[50.06,11.42],[50.09,11.79],[49.55,11.57],[49.53,11.2]]],[[[94.7,44.3],[94.39,44.21],[94.34,43.97],[94.6,43.81],[94.91,43.91],[94.96,44.15],[94.7,44.3]]],[[[-28.38,38.95],[-28.68,39.05],[-28.95,38.9],[-28.91,38.65],[-29.17,38.49],[-29.13,38.24],[-28.83,38.14],[-28.0,38.35],[-27.14,38.29],[-26.64,38.85],[-26.67,39.1],[-27.55,39.16],[-27.58,39.41],[-27.89,39.52],[-28.38,38.95]]],[[[49.16,6.4],[48.68,6.16],[48.76,5.79],[49.24,6.03],[49.16,6.4]]],[[[21.7,63.53],[20.85,63.15],[20.78,62.94],[21.08,62.81],[21.46,62.88],[21.54,63.1],[22.9,63.76],[22.99,63.98],[22.27,64.04],[21.7,63.53]]],[[[-25.92,37.62],[-25.88,37.36],[-25.27,36.89],[-25.24,36.63],[-24.95,36.52],[-24.69,36.67],[-25.03,37.29],[-24.77,37.44],[-24.79,37.69],[-25.09,37.8],[-25.12,38.06],[-25.98,38.13],[-26.24,37.98],[-26.21,37.72],[-25.92,37.62]]],[[[52.34,11.9],[52.66,12.1],[52.58,12.28],[52.09,12.43],[51.97,12.25],[52.34,11.9]]],[[[52.39,25.43],[52.54,25.59],[52.45,25.8],[52.2,25.85],[52.04,25.69],[52.39,25.43]]],[[[36.33,64.37],[35.27,64.67],[34.79,64.63],[34.59,64.42],[35.64,64.12],[36.12,64.16],[36.33,64.37]]],[[[38.99,-5.47],[39.24,-5.43],[39.32,-5.2],[39.16,-5.01],[38.92,-5.05],[38.83,-5.28],[38.99,-5.47]]]]}}]}