{"type":"FeatureCollection","features":[{"type":"Feature","properties":{},"geometry":{"type":"MultiPolygon","coordinates":[[[[-9.06,15.32],[-9.83,15.98],[-10.66,15.97],[-11.11,15.51],[-11.07,16.18],[-11.92,15.94],[-12.51,16.95],[-13.38,16.47],[-14.0,17.49],[-15.08,17.58],[-14.63,18.52],[-15.72,20.03],[-15.71,20.99],[-15.02,22.09],[-14.33,22.22],[-14.54,22.83],[-13.85,22.96],[-13.6,23.57],[-12.92,23.21],[-12.44,23.69],[-11.76,23.57],[-10.11,24.4],[-9.83,25.0],[-9.14,25.1],[-8.86,25.7],[-7.9,26.15],[-7.23,26.0],[-3.84,27.73],[-2.74,27.52],[-1.79,27.92],[-0.33,27.32],[-0.45,27.95],[0.42,28.9],[1.11,28.91],[1.75,29.79],[2.66,29.62],[3.23,30.02],[3.58,29.45],[4.5,29.27],[5.08,29.67],[6.21,29.31],[8.09,29.8],[8.5,30.36],[9.25,30.32],[9.95,30.95],[9.89,31.61],[10.25,31.92],[11.39,32.19],[12.08,31.89],[13.61,32.45],[13.84,31.59],[14.33,31.47],[14.65,30.85],[16.68,31.24],[18.15,30.82],[18.44,30.19],[19.22,30.09],[19.99,29.31],[20.67,29.64],[22.11,29.18],[22.13,29.86],[22.42,29.9],[25.75,28.74],[25.88,27.85],[26.35,27.68],[26.59,27.04],[27.33,26.89],[27.45,26.01],[28.12,25.19],[29.02,24.83],[29.17,23.51],[28.66,23.02],[29.31,22.2],[30.83,22.13],[30.64,21.23],[31.72,21.33],[31.8,22.0],[32.46,22.27],[33.51,20.83],[34.25,21.76],[34.93,21.59],[35.0,22.68],[35.85,21.87],[35.89,21.01],[36.5,22.13],[36.54,21.27],[37.08,20.88],[37.02,18.96],[37.56,18.15],[38.58,17.8],[38.72,17.19],[39.08,17.83],[38.57,18.22],[39.06,18.67],[37.4,19.19],[37.45,21.54],[36.46,22.99],[35.64,23.38],[36.57,23.65],[35.74,24.04],[34.7,25.51],[35.2,26.41],[34.21,26.58],[34.28,27.68],[35.43,27.3],[36.91,25.19],[36.95,24.32],[38.44,23.74],[38.46,22.88],[38.99,22.48],[38.48,22.02],[39.01,21.62],[38.89,20.98],[39.42,20.16],[40.44,19.79],[41.68,17.78],[42.04,18.0],[40.81,20.02],[39.67,20.59],[39.24,23.34],[40.02,23.8],[40.14,24.44],[41.19,24.47],[41.72,25.33],[43.29,26.19],[44.71,25.98],[45.49,26.38],[46.34,25.74],[46.98,25.94],[48.4,25.07],[48.48,24.45],[49.5,23.81],[50.11,24.0],[51.84,22.73],[53.48,22.98],[55.81,21.54],[56.84,22.21],[56.45,23.8],[57.43,23.56],[57.66,22.94],[57.92,23.45],[58.9,23.2],[59.61,22.46],[58.39,22.76],[59.02,22.23],[58.91,21.33],[57.54,20.94],[57.93,20.48],[57.58,19.14],[56.66,18.84],[56.96,18.59],[57.89,18.88],[58.23,20.22],[58.93,20.04],[59.14,21.27],[59.72,21.49],[60.02,22.54],[58.35,24.1],[57.52,23.92],[56.94,24.25],[56.54,25.89],[61.34,24.71],[66.27,25.34],[66.43,24.68],[67.12,24.67],[67.03,24.09],[67.62,23.5],[68.31,23.49],[68.88,22.9],[68.77,22.34],[70.32,22.43],[70.2,23.08],[69.08,23.04],[67.42,24.37],[69.22,24.63],[69.54,25.35],[70.2,25.55],[70.33,26.14],[71.18,26.71],[72.36,26.74],[75.46,28.92],[76.42,29.0],[77.04,30.35],[75.93,31.47],[76.35,32.47],[74.54,34.54],[73.42,34.93],[74.13,35.63],[73.31,35.67],[72.32,35.07],[71.7,35.51],[69.57,35.25],[69.91,36.3],[71.24,36.59],[70.7,37.93],[71.12,38.74],[70.46,39.18],[68.52,38.81],[68.15,39.14],[69.27,39.29],[69.73,39.87],[70.97,39.5],[71.45,40.07],[74.07,40.19],[74.3,40.59],[73.96,40.95],[74.23,41.1],[75.99,41.23],[75.65,41.59],[74.47,41.51],[74.68,42.17],[74.36,42.27],[72.57,42.12],[72.81,42.53],[75.21,42.72],[77.41,41.96],[77.96,42.5],[78.87,42.41],[80.33,43.35],[80.64,43.23],[80.35,42.84],[80.66,42.47],[81.25,42.99],[82.15,42.87],[82.75,43.39],[83.95,43.39],[82.75,44.15],[83.06,44.53],[84.27,44.02],[85.78,44.12],[86.35,43.6],[87.54,43.56],[88.18,44.04],[90.53,43.91],[91.27,44.86],[90.08,44.94],[89.55,45.48],[90.25,46.19],[90.03,46.84],[89.12,47.02],[88.88,47.67],[86.72,48.66],[84.75,48.72],[85.45,49.47],[85.15,50.11],[83.45,50.27],[83.81,50.9],[83.47,51.28],[83.82,51.41],[87.67,51.65],[88.08,52.26],[87.46,53.05],[88.26,53.76],[86.96,55.32],[85.05,55.02],[83.57,56.31],[82.79,55.82],[81.25,55.83],[80.45,56.33],[77.72,56.16],[76.87,56.64],[74.91,56.43],[74.02,56.89],[72.06,56.64],[71.14,57.07],[67.88,57.02],[66.02,57.57],[64.44,57.38],[63.44,57.75],[61.54,57.34],[61.66,57.1],[60.58,56.8],[60.2,55.96],[57.33,57.37],[56.14,57.26],[55.39,57.75],[53.19,57.26],[48.78,57.45],[47.97,57.89],[46.61,57.49],[45.34,57.91],[43.62,57.9],[42.76,57.47],[40.45,57.61],[39.05,56.93],[38.02,57.08],[36.88,56.6],[36.93,56.19],[35.74,55.08],[35.8,54.68],[33.41,53.67],[33.35,53.06],[31.9,52.99],[31.08,53.34],[25.53,52.94],[25.21,53.47],[24.58,53.62],[24.04,53.39],[24.67,53.25],[24.77,52.89],[22.88,53.3],[20.31,52.68],[18.16,53.18],[17.28,52.88],[15.38,53.17],[14.97,53.67],[16.09,54.38],[17.12,54.34],[17.76,54.79],[19.19,54.22],[21.7,55.2],[21.23,56.58],[21.93,56.99],[21.55,57.48],[20.56,56.7],[21.07,55.86],[20.53,55.63],[20.51,55.09],[19.46,55.16],[19.59,54.82],[19.06,54.58],[18.67,55.08],[17.63,55.13],[14.94,54.22],[13.87,54.78],[11.43,54.74],[14.22,55.38],[14.64,54.9],[15.68,54.87],[15.65,55.41],[14.72,55.64],[15.36,56.09],[14.02,56.25],[14.06,55.72],[13.17,55.4],[12.74,55.87],[13.36,56.32],[13.03,56.98],[12.36,57.05],[12.41,56.53],[11.03,55.93],[10.86,56.26],[11.35,56.52],[10.69,56.58],[10.2,56.32],[10.27,55.79],[9.41,55.45],[9.67,54.59],[10.58,54.4],[10.92,53.72],[13.53,54.18],[13.84,53.49],[12.98,53.16],[11.45,53.45],[10.15,52.82],[8.9,52.94],[8.18,52.03],[7.74,52.5],[6.16,52.51],[5.71,52.97],[6.22,53.47],[7.65,53.8],[8.1,53.34],[9.37,53.98],[8.56,54.36],[9.12,54.85],[8.58,55.83],[7.93,55.87],[8.29,55.23],[7.74,54.74],[8.1,54.08],[4.98,53.55],[4.15,53.01],[4.25,52.42],[2.28,51.11],[1.51,51.61],[1.97,52.09],[1.7,52.25],[0.92,51.71],[-0.28,51.92],[-1.0,51.58],[-0.19,51.1],[-1.17,50.92],[-0.96,50.54],[1.31,50.95],[2.46,50.73],[2.89,50.19],[2.51,49.91],[2.08,50.46],[1.18,50.52],[0.74,50.02],[-0.16,50.06],[0.04,49.67],[-0.33,49.39],[-1.71,49.96],[-2.29,48.76],[-3.2,48.78],[-2.39,48.31],[-1.13,48.58],[-1.29,49.19],[0.18,49.07],[1.69,50.19],[2.13,49.64],[1.38,49.09],[1.56,48.7],[1.13,48.19],[-0.67,48.04],[-1.4,47.44],[-3.7,47.78],[-3.25,47.0],[-2.33,47.23],[-2.73,46.69],[-1.91,46.45],[-1.3,45.28],[-1.65,44.97],[-1.65,43.64],[-3.82,43.95],[-4.46,43.54],[-8.1,44.05],[-8.76,43.37],[-9.63,43.32],[-8.88,42.14],[-9.22,41.55],[-8.72,41.01],[-9.34,40.31],[-9.13,39.67],[-9.96,39.61],[-9.01,38.04],[-9.33,37.43],[-8.85,36.9],[-6.77,36.74],[-6.18,35.32],[-7.35,33.91],[-8.9,33.51],[-10.03,32.07],[-9.94,29.94],[-10.48,29.21],[-11.21,29.11],[-11.49,28.49],[-12.46,28.51],[-13.45,28.02],[-13.71,27.65],[-13.49,27.02],[-14.21,26.9],[-15.2,25.4],[-14.97,24.78],[-15.68,24.65],[-17.32,22.03],[-17.08,21.43],[-17.54,20.69],[-16.62,20.24],[-16.85,19.64],[-16.17,18.83],[-16.18,17.89],[-16.62,17.41],[-16.61,15.79],[-17.68,14.72],[-16.82,13.64],[-17.02,12.41],[-16.4,11.68],[-16.4,10.82],[-14.98,10.79],[-13.24,8.69],[-13.03,9.01],[-13.78,10.22],[-14.58,10.6],[-14.56,11.45],[-13.34,11.5],[-12.3,12.3],[-11.33,11.58],[-7.59,11.8],[-7.24,11.39],[-4.01,11.55],[-2.77,11.09],[-2.34,11.4],[-0.1,10.97],[0.35,11.28],[1.27,10.9],[2.37,11.36],[4.73,10.88],[5.5,11.45],[7.24,10.8],[7.75,11.11],[8.04,10.55],[11.44,11.01],[12.11,10.32],[12.31,10.97],[12.96,10.88],[12.86,11.28],[11.81,11.5],[11.53,12.07],[3.75,13.94],[3.44,14.49],[2.95,14.16],[0.82,14.87],[-0.67,14.47],[-0.98,15.0],[-1.44,14.67],[-2.37,15.03],[-3.41,14.52],[-3.88,15.32],[-5.44,15.33],[-6.28,14.9],[-6.63,15.33],[-9.06,15.32]],[[30.81,36.73],[32.1,36.36],[32.32,35.72],[33.07,35.97],[33.11,35.54],[31.79,34.82],[32.91,34.22],[34.09,34.7],[34.19,35.36],[35.08,35.82],[34.6,36.02],[33.72,35.56],[33.68,35.99],[34.57,36.45],[35.52,36.04],[35.62,34.31],[34.64,33.19],[34.83,32.54],[33.88,31.41],[32.71,31.35],[31.61,31.94],[30.42,31.86],[29.16,31.1],[27.56,31.85],[25.46,31.63],[25.21,32.27],[24.23,32.61],[23.51,32.3],[23.24,32.93],[21.75,33.41],[19.83,32.23],[19.91,31.11],[18.83,30.48],[18.54,31.11],[15.79,31.75],[15.36,32.8],[11.5,33.34],[11.45,34.01],[10.74,34.29],[11.7,34.74],[11.1,36.17],[11.56,36.72],[11.21,37.3],[9.14,37.7],[8.11,37.0],[6.37,37.42],[5.73,37.02],[4.0,37.4],[2.56,36.73],[1.36,37.01],[0.29,36.65],[-0.07,36.09],[-1.6,35.81],[-2.2,35.15],[-3.09,35.75],[-3.66,35.32],[-4.65,35.42],[-5.08,35.96],[-3.97,36.59],[-2.26,36.26],[-1.33,37.25],[-0.58,37.26],[-0.21,37.82],[-0.38,38.21],[0.25,38.85],[-0.09,39.63],[1.23,40.9],[2.02,40.94],[2.42,41.49],[3.59,41.85],[3.25,42.6],[3.67,43.16],[6.35,42.85],[8.77,44.1],[10.12,43.78],[9.23,42.94],[8.37,42.94],[8.52,42.55],[8.05,42.01],[8.97,41.37],[8.05,41.14],[7.6,40.59],[8.35,40.35],[7.67,39.09],[8.56,38.44],[9.31,39.06],[10.14,39.04],[9.86,39.85],[10.33,40.4],[9.67,41.76],[11.02,42.28],[12.47,41.52],[12.74,40.71],[14.67,40.44],[14.8,40.03],[15.55,39.73],[15.57,39.08],[14.32,38.84],[14.35,38.19],[13.52,38.24],[13.17,38.83],[11.98,37.92],[12.33,37.33],[14.19,37.05],[14.53,36.45],[15.35,36.39],[15.61,37.77],[16.45,37.7],[16.96,38.23],[16.85,38.65],[17.58,39.0],[17.58,39.65],[16.83,39.96],[17.25,40.25],[17.79,40.12],[18.11,39.52],[19.4,39.72],[19.5,39.3],[20.24,38.97],[20.34,38.54],[19.8,38.02],[20.53,37.69],[21.24,36.68],[22.07,36.57],[22.35,35.95],[23.18,35.83],[23.34,34.96],[24.04,34.6],[24.77,34.9],[25.77,34.57],[26.75,35.33],[27.55,35.18],[27.62,35.85],[28.42,35.69],[28.49,36.36],[30.29,35.83],[30.86,36.3],[30.81,36.73]],[[55.19,25.8],[55.03,25.07],[54.37,25.02],[54.36,25.59],[53.95,25.49],[54.14,24.5],[53.49,24.45],[52.88,25.33],[52.04,24.72],[51.75,26.31],[50.11,26.84],[50.08,27.87],[49.45,27.7],[48.74,28.15],[48.3,29.0],[48.87,29.79],[49.51,29.96],[49.94,29.11],[50.91,28.58],[50.96,27.99],[51.67,27.47],[52.34,27.54],[54.52,25.75],[55.19,25.8]],[[7.22,51.23],[9.77,51.98],[11.01,51.85],[11.26,51.7],[10.71,51.21],[11.74,50.63],[12.7,50.62],[13.63,51.17],[14.03,50.66],[13.46,50.17],[14.07,50.08],[14.46,49.56],[15.28,49.89],[16.13,49.63],[15.55,49.14],[14.0,49.28],[14.14,48.91],[15.33,48.71],[14.87,48.43],[13.09,48.72],[12.69,49.24],[11.3,48.97],[11.15,49.34],[11.59,49.62],[10.58,50.21],[9.03,50.27],[8.61,50.77],[7.83,50.39],[7.22,51.23]],[[25.17,36.28],[25.24,35.84],[26.18,35.94],[25.32,35.41],[23.8,35.9],[23.52,36.53],[23.95,36.8],[25.17,36.28]],[[11.9,47.48],[15.36,48.11],[15.73,47.57],[15.17,47.07],[13.21,46.92],[12.34,46.34],[11.19,46.52],[10.34,45.92],[9.38,46.53],[8.48,46.53],[6.87,45.3],[7.11,44.32],[5.85,44.83],[7.34,46.66],[8.23,46.67],[8.73,47.2],[9.64,47.2],[10.49,47.8],[11.9,47.48]],[[24.99,47.09],[25.12,47.3],[23.65,48.17],[23.56,48.56],[22.61,48.67],[21.81,49.58],[24.19,49.01],[24.05,48.8],[26.19,47.38],[26.21,46.37],[25.29,46.5],[24.99,47.09]],[[28.15,42.15],[28.02,42.99],[28.97,43.46],[30.67,42.08],[32.0,42.13],[33.57,43.01],[34.42,42.81],[35.53,43.44],[36.36,43.23],[37.0,43.63],[37.83,43.41],[38.79,43.79],[41.21,42.68],[41.36,41.65],[40.27,41.08],[38.07,41.14],[36.43,41.99],[35.64,41.78],[35.43,42.4],[34.15,41.98],[33.13,42.38],[31.1,41.26],[29.79,41.2],[28.15,42.15]],[[3.77,47.35],[4.33,47.31],[3.95,46.99],[3.77,47.35]],[[7.74,47.78],[8.24,48.3],[8.08,48.67],[9.16,48.31],[10.02,48.9],[9.95,49.49],[10.55,49.41],[10.61,48.83],[9.32,47.95],[7.74,47.78]],[[66.72,25.41],[66.81,26.0],[66.25,26.38],[66.41,25.71],[64.86,25.34],[64.3,25.71],[63.4,25.55],[62.76,26.13],[60.48,25.93],[58.61,26.59],[59.33,27.21],[59.93,26.87],[60.33,27.78],[61.0,27.2],[60.37,26.96],[60.59,26.3],[63.92,27.04],[64.82,26.38],[65.16,26.9],[66.65,26.67],[67.01,27.19],[67.17,26.52],[68.38,25.31],[67.57,24.74],[66.72,25.41]],[[7.0,48.21],[7.17,47.84],[6.59,47.9],[7.0,48.21]],[[74.75,32.83],[75.24,33.12],[75.57,32.53],[74.75,32.83]],[[13.51,44.07],[12.95,44.17],[12.67,44.95],[13.1,45.25],[15.42,43.58],[15.44,42.95],[16.0,42.83],[16.12,42.43],[14.81,42.19],[14.43,43.4],[13.64,43.67],[13.51,44.07]],[[6.98,49.8],[7.57,49.74],[7.15,49.45],[6.98,49.8]],[[3.83,44.68],[2.74,44.78],[2.63,45.37],[1.85,45.57],[1.74,46.19],[2.82,46.05],[3.11,45.1],[3.83,44.68]],[[81.82,45.3],[80.88,45.16],[81.2,44.78],[80.9,44.39],[79.67,44.36],[79.02,44.85],[79.31,45.25],[80.26,45.14],[80.87,45.67],[81.82,45.3]],[[17.69,50.06],[16.61,49.9],[16.23,50.43],[15.0,50.63],[15.96,51.16],[17.69,50.06]],[[20.7,48.86],[19.85,48.56],[18.3,49.35],[18.91,49.83],[19.87,49.75],[21.31,49.33],[20.7,48.86]],[[4.04,50.03],[4.62,49.99],[4.22,49.69],[4.04,50.03]],[[5.39,49.6],[5.03,50.3],[5.86,50.9],[7.23,50.45],[6.73,49.94],[5.39,49.6]],[[67.81,33.5],[67.24,33.67],[67.64,34.23],[67.93,34.14],[67.81,33.5]],[[18.11,40.82],[16.36,41.61],[16.34,42.25],[17.11,42.59],[18.76,42.21],[19.3,40.79],[18.86,40.51],[18.11,40.82]],[[66.94,34.88],[67.12,35.29],[67.99,35.03],[68.68,34.38],[66.94,34.88]],[[86.09,53.86],[85.75,54.25],[86.48,54.22],[86.09,53.86]],[[77.9,43.27],[78.21,43.15],[77.94,42.75],[76.42,42.8],[76.68,43.2],[77.9,43.27]],[[24.88,39.75],[24.35,39.91],[24.48,40.14],[24.8,40.17],[24.88,39.75]],[[85.3,46.67],[85.0,47.06],[85.34,47.43],[85.98,47.42],[86.27,47.03],[85.3,46.67]],[[25.63,38.3],[26.15,38.13],[26.22,37.7],[24.67,38.2],[25.63,38.3]],[[12.24,55.61],[11.1,55.4],[11.69,55.87],[12.24,55.61]],[[58.69,55.03],[59.24,54.74],[58.53,54.61],[58.69,55.03]],[[24.96,39.32],[25.48,39.15],[25.56,38.73],[24.51,39.06],[24.96,39.32]],[[57.24,27.7],[57.68,27.8],[58.45,27.02],[58.01,26.93],[57.24,27.7]],[[70.74,42.19],[71.61,42.41],[71.98,42.06],[71.11,41.84],[70.74,42.19]],[[22.96,46.49],[22.38,46.64],[22.86,46.89],[22.96,46.49]]],[[[10.53,5.1],[10.95,6.52],[11.57,6.43],[11.92,6.88],[12.84,7.03],[15.34,6.08],[15.88,6.36],[15.87,6.94],[13.73,7.78],[12.9,7.24],[11.72,7.63],[11.76,7.05],[11.14,7.14],[10.22,6.2],[9.62,6.29],[10.53,5.1]]],[[[35.1,5.43],[36.32,6.77],[36.62,5.81],[36.28,4.96],[35.65,5.09],[35.39,4.45],[34.77,5.18],[33.09,4.97],[31.11,5.74],[30.9,6.31],[29.87,6.58],[29.66,7.15],[28.88,7.44],[26.24,6.1],[21.17,7.96],[21.7,7.05],[22.72,6.8],[22.91,6.23],[23.48,6.51],[23.68,5.95],[24.69,5.69],[25.33,4.56],[25.97,4.45],[26.57,3.71],[26.58,2.67],[27.18,1.92],[27.98,1.61],[28.0,0.55],[26.97,-0.23],[27.18,-0.84],[27.99,-1.16],[27.2,-1.92],[27.47,-2.97],[27.02,-3.46],[27.64,-4.26],[27.66,-5.35],[28.23,-5.72],[28.47,-7.47],[27.7,-7.57],[26.64,-8.38],[26.59,-9.06],[25.88,-9.6],[25.41,-8.99],[26.11,-7.34],[25.84,-6.26],[24.06,-7.6],[22.99,-7.29],[22.94,-7.96],[22.28,-7.82],[21.87,-8.76],[20.85,-8.87],[19.81,-7.45],[18.37,-6.97],[18.22,-9.39],[17.51,-9.9],[17.33,-9.27],[16.69,-9.12],[16.12,-8.31],[16.04,-7.45],[15.03,-7.13],[15.06,-9.07],[15.59,-9.45],[14.54,-10.2],[14.85,-9.52],[13.89,-8.11],[13.27,-7.96],[12.67,-6.32],[12.33,-6.57],[12.86,-7.36],[12.79,-8.01],[13.3,-8.38],[12.85,-8.86],[12.91,-9.71],[14.29,-11.74],[13.55,-11.8],[13.86,-12.64],[12.88,-12.72],[12.13,-14.28],[12.29,-14.92],[11.97,-15.58],[12.68,-15.11],[13.06,-15.3],[12.25,-15.99],[12.31,-16.85],[11.62,-15.81],[11.65,-18.16],[13.48,-20.85],[13.4,-21.49],[14.39,-22.52],[14.6,-26.49],[15.16,-26.89],[15.13,-27.92],[15.97,-28.31],[16.59,-29.11],[16.51,-29.72],[17.1,-30.11],[17.03,-30.71],[18.1,-31.68],[18.19,-32.47],[17.68,-32.88],[17.82,-34.04],[19.77,-34.96],[20.57,-34.55],[22.17,-34.67],[22.23,-34.08],[24.46,-34.53],[26.53,-33.78],[27.28,-33.91],[28.47,-33.19],[28.52,-32.59],[30.37,-31.57],[30.41,-30.95],[31.08,-30.66],[31.42,-29.38],[32.85,-28.55],[32.7,-27.73],[33.18,-27.23],[32.93,-26.63],[33.34,-25.71],[35.54,-24.71],[35.93,-23.78],[35.6,-22.74],[36.05,-22.23],[35.9,-21.37],[35.29,-21.04],[35.23,-19.94],[36.93,-18.76],[36.94,-18.09],[37.65,-17.52],[39.45,-17.19],[40.14,-16.61],[40.14,-15.94],[41.07,-15.32],[40.58,-12.74],[41.0,-12.22],[40.6,-10.07],[40.02,-9.72],[40.03,-9.06],[39.37,-8.28],[40.2,-7.92],[39.63,-7.57],[39.47,-6.72],[39.88,-6.21],[39.32,-5.86],[40.13,-5.51],[39.82,-3.82],[40.39,-3.51],[40.39,-2.87],[41.9,-1.78],[41.9,-1.15],[43.38,-0.09],[43.37,0.53],[45.19,2.01],[45.79,1.88],[46.96,2.84],[46.94,3.44],[48.3,4.38],[48.28,4.97],[48.84,5.41],[46.25,5.13],[45.67,4.67],[44.54,5.13],[44.55,4.54],[43.65,4.44],[41.97,5.24],[41.51,4.58],[40.9,5.31],[41.59,7.74],[43.47,8.12],[44.22,7.82],[44.21,8.38],[44.79,8.82],[44.64,9.55],[45.59,9.26],[45.63,9.82],[44.99,10.14],[44.31,9.71],[42.66,10.51],[42.2,9.71],[40.61,9.56],[40.54,8.98],[39.93,9.11],[40.25,11.26],[39.78,11.61],[39.77,12.39],[40.24,12.83],[39.76,13.19],[39.87,14.6],[39.38,14.97],[40.1,15.02],[40.11,13.82],[40.59,13.06],[41.3,13.51],[40.59,14.66],[41.18,14.5],[41.3,13.91],[42.01,13.56],[42.36,13.78],[41.66,14.13],[41.54,14.72],[40.58,15.06],[40.94,15.69],[40.46,16.48],[39.48,16.41],[39.34,17.02],[38.98,16.79],[38.99,15.96],[38.62,16.14],[38.6,16.97],[37.88,16.09],[38.75,15.54],[37.92,14.45],[37.95,13.64],[37.33,13.79],[36.54,12.3],[36.57,11.5],[35.96,11.64],[36.23,10.87],[35.51,10.8],[35.92,9.85],[34.57,10.3],[34.14,9.46],[35.1,8.2],[34.69,7.77],[35.24,7.44],[34.83,6.99],[35.05,6.42],[34.64,5.97],[35.1,5.43]],[[21.91,-29.69],[22.58,-30.47],[23.48,-30.81],[24.27,-30.35],[25.0,-30.49],[25.05,-29.87],[27.03,-29.69],[28.97,-28.43],[29.01,-27.79],[29.67,-27.5],[29.53,-28.36],[29.04,-28.84],[29.95,-29.15],[30.19,-29.74],[29.77,-30.62],[29.1,-30.9],[28.73,-32.16],[28.05,-32.44],[28.01,-33.04],[27.26,-32.92],[27.22,-33.52],[25.6,-33.46],[24.4,-34.14],[22.46,-33.68],[23.31,-33.63],[23.77,-32.81],[24.51,-32.95],[24.91,-32.72],[24.85,-32.33],[22.8,-32.07],[20.76,-32.78],[20.1,-32.01],[20.61,-31.59],[20.9,-30.57],[21.57,-30.33],[21.91,-29.69]],[[39.2,11.36],[39.55,11.19],[39.44,10.6],[38.73,10.92],[39.2,11.36]],[[18.27,-26.99],[18.81,-26.96],[18.31,-27.4],[17.88,-27.21],[18.27,-26.99]]],[[[47.53,11.26],[47.17,10.68],[46.55,11.0],[46.21,10.79],[46.84,10.47],[46.92,9.92],[48.21,10.39],[48.5,11.51],[47.96,11.29],[47.81,10.72],[47.53,11.26]]],[[[23.64,54.82],[22.46,54.73],[23.75,54.47],[24.44,54.88],[23.64,54.82]]],[[[16.02,10.6],[20.07,9.2],[20.7,8.49],[21.67,8.63],[22.08,9.1],[21.79,10.07],[19.76,10.79],[19.19,10.49],[16.57,11.52],[16.01,11.21],[15.34,11.93],[14.78,11.62],[14.51,12.2],[13.69,12.47],[13.14,12.16],[13.24,11.76],[15.93,10.99],[16.02,10.6]]],[[[-16.92,33.09],[-17.7,32.69],[-16.65,32.19],[-16.39,32.58],[-16.92,33.09]]],[[[42.96,15.21],[43.11,16.63],[42.64,17.42],[42.04,17.59],[41.55,16.75],[42.39,16.18],[42.26,15.17],[42.72,14.4],[43.07,14.62],[42.96,15.21]]],[[[41.93,19.44],[42.41,18.22],[43.01,18.05],[43.48,17.25],[43.35,16.64],[43.81,16.26],[43.65,14.46],[44.1,14.09],[44.08,13.31],[46.7,14.05],[46.72,14.43],[46.15,14.21],[46.06,14.79],[45.17,15.14],[45.07,15.72],[44.39,16.09],[44.88,16.91],[44.08,17.48],[44.11,18.7],[42.43,19.46],[41.94,20.69],[41.31,20.88],[40.81,21.7],[40.04,21.25],[41.19,20.66],[41.93,19.44]]],[[[-15.4,28.52],[-16.64,28.89],[-17.14,28.38],[-17.9,29.25],[-18.39,28.73],[-18.13,28.35],[-18.37,27.72],[-17.86,27.22],[-17.63,28.11],[-17.13,27.62],[-16.15,28.14],[-15.66,27.64],[-14.19,27.65],[-13.18,28.89],[-13.4,29.52],[-13.9,29.53],[-14.92,28.02],[-15.4,28.52]]],[[[51.31,10.59],[51.33,11.85],[50.54,12.18],[50.5,11.81],[51.09,11.48],[50.91,10.57],[51.31,10.59]]],[[[5.19,5.87],[4.93,5.63],[5.43,4.41],[6.44,4.03],[7.29,4.18],[6.9,4.67],[6.43,4.4],[5.69,4.65],[5.19,5.87]]],[[[89.72,39.83],[90.27,39.8],[91.28,41.1],[89.84,40.82],[89.37,41.59],[90.23,41.67],[90.9,42.38],[92.84,42.11],[93.53,42.8],[92.41,42.89],[91.35,43.47],[90.7,43.02],[88.97,43.12],[88.44,43.65],[87.8,43.17],[88.06,42.78],[87.73,42.42],[86.29,42.59],[85.67,42.1],[81.86,42.23],[81.27,41.71],[79.21,41.78],[78.12,40.46],[76.08,40.47],[75.56,39.92],[74.41,39.83],[75.11,38.87],[76.29,38.45],[76.08,37.8],[76.7,37.08],[78.35,37.18],[78.93,36.71],[80.29,36.89],[80.84,36.42],[82.46,36.46],[84.36,37.35],[85.16,37.22],[86.26,37.71],[86.57,38.32],[88.24,38.77],[88.57,39.38],[89.72,39.83]],[[88.21,41.39],[87.64,41.41],[87.96,41.78],[88.8,41.62],[88.21,41.39]]],[[[43.28,13.45],[43.41,14.05],[43.06,14.23],[42.59,13.8],[42.93,13.23],[42.24,13.18],[43.6,12.11],[43.73,13.09],[43.28,13.45]]],[[[45.66,10.56],[45.89,10.95],[45.34,10.72],[45.32,10.35],[45.66,10.56]]],[[[43.54,-11.52],[43.05,-11.61],[43.3,-12.23],[43.54,-11.52]]],[[[-0.7,5.48],[-0.38,5.17],[-0.12,5.59],[-0.7,5.48]]],[[[-25.08,17.36],[-25.73,17.19],[-25.45,16.63],[-24.53,16.23],[-23.87,16.4],[-24.14,16.97],[-25.08,17.36]]],[[[-11.76,7.36],[-12.7,7.61],[-13.06,8.4],[-13.45,8.38],[-12.91,7.3],[-11.6,6.68],[-11.4,6.99],[-11.76,7.36]]],[[[29.25,60.45],[28.59,60.55],[28.6,59.96],[26.95,59.51],[27.86,59.25],[28.87,59.79],[29.91,59.74],[29.92,60.34],[29.25,60.45]]],[[[56.28,18.25],[55.53,18.09],[55.46,17.77],[56.43,17.87],[56.28,18.25]]],[[[10.23,57.03],[9.74,56.76],[10.4,56.71],[10.23,57.03]]],[[[45.99,13.24],[45.79,13.61],[44.63,12.77],[44.96,12.6],[45.99,13.24]]],[[[-22.91,15.31],[-24.44,15.31],[-24.82,14.59],[-23.73,14.56],[-22.91,15.31]]],[[[13.74,11.23],[13.77,10.62],[14.17,10.48],[14.15,11.1],[13.74,11.23]]],[[[8.83,10.31],[8.59,9.45],[9.38,9.2],[9.23,10.18],[8.83,10.31]]],[[[18.41,57.35],[18.0,57.3],[18.14,56.97],[19.23,57.43],[18.41,57.35]]],[[[8.9,4.64],[8.25,4.53],[8.92,4.26],[8.9,4.64]]],[[[12.27,-5.73],[12.35,-5.09],[11.98,-4.93],[11.93,-5.98],[12.3,-6.15],[12.27,-5.73]]],[[[9.98,3.09],[9.25,4.13],[8.3,3.4],[8.66,2.88],[9.28,3.75],[9.8,2.28],[10.13,2.53],[9.98,3.09]]],[[[11.2,-3.77],[10.74,-3.82],[11.25,-4.59],[11.85,-4.73],[11.2,-3.77]]],[[[53.8,16.9],[53.51,17.09],[52.84,16.71],[52.8,16.33],[53.8,16.9]]],[[[48.25,6.12],[48.97,5.81],[49.5,6.81],[49.14,6.96],[48.25,6.12]]],[[[53.81,12.68],[53.85,12.15],[54.48,12.53],[54.13,12.87],[53.81,12.68]]],[[[25.2,59.42],[25.03,59.79],[24.57,59.51],[25.2,59.42]]],[[[46.88,-14.99],[46.66,-15.7],[47.52,-15.07],[47.43,-14.65],[46.88,-14.99]]],[[[22.9,57.24],[23.27,56.75],[24.96,57.38],[24.19,57.84],[24.14,57.33],[22.9,57.24]]],[[[-22.5,15.8],[-22.57,16.73],[-23.04,17.17],[-23.19,16.1],[-22.5,15.8]]],[[[10.08,-2.47],[8.99,-1.2],[8.91,-1.81],[9.4,-2.56],[10.08,-2.47]]],[[[48.15,14.31],[47.12,13.68],[47.1,13.3],[48.12,13.93],[48.99,13.97],[49.02,14.35],[48.15,14.31]]],[[[52.17,16.33],[51.1,14.98],[52.31,15.57],[52.47,16.14],[52.17,16.33]]],[[[10.71,-3.41],[10.69,-3.01],[10.11,-2.88],[10.13,-3.28],[10.71,-3.41]]],[[[-3.51,4.9],[-3.45,5.27],[-3.97,5.34],[-3.51,4.9]]],[[[3.45,6.11],[4.86,6.19],[3.58,6.71],[2.76,6.54],[3.45,6.11]]],[[[44.33,-17.96],[44.33,-17.31],[43.91,-17.18],[43.92,-17.83],[44.33,-17.96]]],[[[8.85,-0.62],[8.52,-0.86],[8.87,-1.02],[9.62,-0.31],[9.47,0.27],[9.9,0.72],[9.7,2.07],[9.08,1.2],[9.27,-0.16],[8.85,-0.62]]],[[[92.18,53.59],[91.06,53.31],[92.45,53.19],[92.18,53.59]]],[[[2.87,40.12],[2.24,39.71],[2.58,38.94],[3.36,38.96],[3.77,39.52],[4.63,39.78],[4.25,40.32],[2.87,40.12]]],[[[50.03,14.95],[49.79,14.57],[50.46,14.97],[50.03,14.95]]],[[[2.27,6.07],[2.51,6.3],[1.98,6.58],[1.18,6.41],[0.67,5.75],[2.27,6.07]]],[[[11.94,37.02],[11.86,36.78],[12.37,36.67],[12.25,37.09],[11.94,37.02]]],[[[94.6,43.81],[94.96,44.15],[94.7,44.3],[94.39,44.21],[94.6,43.81]]],[[[-0.31,52.95],[0.57,52.69],[1.37,53.22],[-0.28,54.19],[0.15,53.44],[-0.31,52.95]]],[[[48.39,14.7],[48.83,14.72],[48.2,15.08],[48.39,14.7]]],[[[1.77,52.47],[2.17,52.73],[1.57,52.84],[1.77,52.47]]],[[[6.29,0.0],[6.84,-0.11],[6.8,0.66],[6.27,0.39],[6.29,0.0]]],[[[1.4,39.44],[1.02,38.87],[1.41,38.35],[2.07,39.0],[1.4,39.44]]],[[[-2.15,4.46],[-0.92,5.25],[-1.84,5.24],[-2.15,4.46]]],[[[43.24,11.51],[43.34,10.94],[43.9,10.8],[43.59,11.73],[42.68,12.04],[42.68,11.66],[43.24,11.51]]],[[[-9.62,5.73],[-9.83,5.44],[-9.49,5.08],[-9.28,5.38],[-9.62,5.73]]],[[[-6.11,4.99],[-6.48,4.79],[-5.78,4.83],[-6.11,4.99]]],[[[16.02,56.0],[17.07,56.49],[15.73,56.67],[16.02,56.0]]],[[[-10.85,6.72],[-11.23,6.7],[-10.89,6.14],[-10.85,6.72]]],[[[44.66,10.3],[44.9,10.69],[43.89,10.42],[44.32,10.08],[44.66,10.3]]],[[[50.86,9.14],[50.51,9.29],[50.19,8.9],[50.53,8.75],[50.86,9.14]]],[[[55.02,16.89],[55.31,17.63],[54.94,17.08],[54.33,17.08],[54.69,16.71],[55.02,16.89]]],[[[50.15,8.17],[50.41,8.37],[50.06,8.53],[49.73,8.13],[50.15,8.17]]],[[[12.63,35.84],[12.33,35.77],[12.46,35.35],[13.23,35.96],[12.63,35.84]]]]}}]}