{"type":"FeatureCollection","features":[{"type":"Feature","properties":{},"geometry":{"type":"MultiPolygon","coordinates":[[[[8.02,56.79],[7.46,56.31],[7.93,55.87],[7.37,55.39],[8.29,55.23],[8.2,55.02],[7.83,54.95],[7.74,54.74],[8.02,54.62],[7.92,54.41],[7.56,54.34],[7.02,53.84],[6.39,53.89],[6.04,53.81],[5.95,53.6],[4.98,53.55],[4.48,53.05],[4.15,53.01],[4.25,52.42],[3.93,52.38],[3.06,51.64],[2.74,51.6],[2.67,51.38],[2.35,51.33],[2.28,51.11],[1.96,51.06],[1.51,51.61],[1.97,52.09],[1.7,52.25],[1.77,52.47],[2.1,52.52],[2.17,52.73],[1.91,52.89],[1.98,53.11],[0.49,53.49],[0.56,53.71],[0.06,54.24],[0.13,54.45],[-0.79,54.72],[-0.73,54.93],[-1.25,55.46],[-1.19,55.67],[-1.49,55.82],[-1.43,56.03],[-2.4,56.29],[-1.92,56.76],[-2.22,56.92],[-2.17,57.12],[-1.37,57.43],[-1.3,57.64],[-2.68,57.84],[-3.16,57.37],[-2.85,57.22],[-2.9,57.01],[-2.59,56.86],[-2.65,56.65],[-3.7,56.69],[-3.75,56.48],[-4.12,56.42],[-4.17,56.2],[-5.35,55.58],[-5.4,55.37],[-5.08,55.22],[-5.13,55.0],[-5.88,54.65],[-6.32,54.14],[-5.66,54.06],[-5.22,54.57],[-4.56,54.48],[-5.0,53.98],[-4.7,53.83],[-4.74,53.61],[-5.09,53.54],[-5.13,53.32],[-4.83,53.17],[-4.88,52.94],[-5.22,52.87],[-5.01,52.28],[-5.35,52.2],[-5.77,51.68],[-4.85,51.45],[-4.64,50.84],[-5.6,50.85],[-5.64,50.62],[-6.7,49.92],[-6.74,49.69],[-6.45,49.54],[-5.76,49.93],[-4.86,49.7],[-4.53,49.78],[-4.49,50.01],[-3.56,50.0],[-3.13,50.52],[-2.81,50.59],[-1.34,50.25],[-0.63,50.6],[0.22,50.34],[0.54,50.4],[0.6,50.62],[1.18,50.52],[0.74,50.02],[-0.16,50.06],[-0.02,49.45],[-0.91,49.49],[-1.39,50.03],[-1.98,50.12],[-2.68,49.76],[-2.73,49.53],[-3.42,49.16],[-3.47,48.93],[-4.06,49.01],[-4.75,48.63],[-5.35,48.7],[-5.39,48.47],[-4.87,47.93],[-4.91,47.7],[-3.74,47.55],[-3.47,47.39],[-3.52,47.16],[-2.94,47.08],[-2.68,46.92],[-2.73,46.69],[-1.91,46.45],[-1.96,46.22],[-1.3,45.28],[-1.35,45.05],[-1.65,44.97],[-1.7,44.74],[-1.45,44.58],[-1.5,44.35],[-1.8,44.27],[-1.65,43.64],[-3.82,43.95],[-4.46,43.54],[-8.1,44.05],[-8.73,43.61],[-9.0,43.76],[-9.3,43.66],[-9.33,43.42],[-9.63,43.32],[-9.65,43.07],[-8.88,42.14],[-9.22,41.55],[-8.72,41.01],[-8.74,40.77],[-9.34,40.31],[-9.13,39.67],[-9.96,39.61],[-9.98,39.36],[-9.72,39.21],[-9.74,38.97],[-9.01,38.04],[-9.03,37.79],[-9.31,37.68],[-9.1,37.04],[-8.85,36.9],[-7.02,36.88],[-6.77,36.74],[-6.8,36.49],[-6.56,36.35],[-6.59,36.1],[-5.94,35.17],[-5.68,35.27],[-5.64,35.52],[-4.88,35.57],[-5.04,36.2],[-4.77,36.3],[-4.54,36.15],[-3.97,36.59],[-3.74,36.44],[-1.99,36.35],[-1.33,37.25],[-1.06,37.33],[-0.84,37.18],[-0.26,37.58],[-0.38,38.21],[0.2,38.61],[0.25,38.85],[-0.14,39.4],[-0.09,39.63],[0.84,40.34],[1.23,40.9],[2.02,40.94],[2.42,41.49],[3.23,41.53],[3.29,41.76],[3.59,41.85],[3.48,42.46],[3.25,42.6],[3.67,43.16],[5.04,43.13],[6.35,42.85],[7.05,43.24],[7.12,43.48],[7.98,43.48],[8.46,44.02],[8.77,44.1],[10.12,43.78],[9.23,42.94],[8.37,42.94],[8.29,42.71],[8.52,42.55],[8.05,42.01],[8.43,41.46],[8.74,41.53],[8.97,41.37],[8.89,41.14],[8.05,41.14],[7.6,40.59],[8.35,40.35],[8.27,40.12],[7.97,40.04],[7.9,39.8],[8.12,39.64],[7.67,39.09],[8.42,38.84],[8.34,38.6],[8.56,38.44],[9.24,38.82],[9.31,39.06],[10.14,39.04],[10.22,39.28],[9.86,39.85],[10.33,40.4],[9.96,40.96],[10.05,41.2],[9.82,41.36],[9.9,41.59],[9.67,41.76],[9.76,41.99],[10.61,41.97],[10.7,42.21],[11.02,42.28],[11.24,42.11],[11.56,42.18],[11.79,42.02],[11.7,41.78],[12.47,41.52],[12.38,41.28],[12.74,40.71],[14.67,40.44],[14.89,40.27],[14.8,40.03],[15.55,39.73],[15.45,39.5],[15.67,39.32],[15.16,38.79],[14.32,38.84],[14.23,38.61],[14.44,38.43],[14.35,38.19],[14.04,38.13],[13.3,38.42],[13.39,38.66],[13.17,38.83],[12.86,38.77],[12.77,38.53],[12.07,38.16],[11.98,37.92],[12.33,37.33],[14.19,37.05],[14.53,36.45],[15.35,36.39],[15.44,36.63],[15.23,36.81],[15.73,37.35],[15.52,37.53],[15.61,37.77],[16.45,37.7],[16.96,38.23],[16.75,38.41],[16.85,38.65],[17.58,39.0],[17.58,39.65],[16.83,39.96],[16.93,40.19],[17.25,40.25],[17.47,40.07],[17.79,40.12],[18.11,39.52],[18.86,39.85],[19.07,39.67],[19.4,39.72],[19.61,39.53],[19.5,39.3],[20.24,38.97],[20.13,38.73],[20.34,38.54],[19.8,38.02],[20.53,37.69],[20.42,37.45],[20.63,37.26],[20.94,37.31],[21.24,36.68],[22.07,36.57],[22.35,35.95],[23.18,35.83],[23.37,35.63],[23.26,35.39],[23.96,35.03],[23.84,34.8],[24.04,34.6],[24.77,34.9],[25.46,34.53],[26.63,35.09],[26.75,35.33],[27.55,35.18],[27.62,35.85],[28.37,36.13],[28.49,36.36],[29.8,36.01],[29.93,36.24],[29.74,36.45],[28.43,36.79],[28.25,37.0],[28.31,37.66],[28.63,37.68],[29.66,38.4],[29.42,39.03],[29.1,39.01],[28.91,39.22],[29.95,39.93],[30.28,39.94],[30.46,39.74],[31.25,39.99],[31.34,40.63],[31.66,40.65],[32.27,41.09],[34.01,41.77],[35.19,41.15],[35.98,41.36],[36.65,40.95],[37.44,41.15],[38.09,40.72],[38.4,40.72],[39.02,41.12],[38.86,41.33],[38.54,41.34],[38.39,41.13],[38.07,41.14],[36.43,41.99],[35.64,41.78],[35.43,42.4],[34.15,41.98],[33.46,42.38],[33.13,42.38],[31.57,41.49],[31.24,41.48],[31.1,41.26],[30.26,41.43],[30.12,41.21],[29.79,41.2],[29.07,41.58],[28.74,41.56],[28.54,41.76],[28.68,41.98],[27.95,42.35],[28.08,42.57],[27.88,42.77],[28.02,42.99],[28.83,43.25],[28.91,43.88],[28.71,44.07],[28.85,44.29],[29.67,44.53],[29.75,45.15],[30.64,44.99],[30.79,45.2],[30.04,45.57],[30.19,45.78],[30.53,45.8],[31.18,46.22],[32.07,46.04],[32.26,45.85],[32.16,45.24],[32.35,45.04],[32.7,45.05],[32.93,44.44],[33.27,44.44],[33.98,44.04],[34.31,44.05],[34.46,44.25],[34.8,44.25],[36.42,45.06],[37.78,44.63],[37.96,44.02],[38.78,44.2],[38.96,43.58],[40.25,43.13],[41.36,42.47],[41.21,42.27],[41.36,42.06],[41.21,41.46],[40.43,41.28],[40.27,41.08],[39.49,41.31],[39.33,41.11],[39.97,40.68],[42.14,41.41],[42.3,42.01],[42.61,41.99],[42.76,41.78],[43.53,41.95],[47.55,39.79],[47.68,39.57],[48.46,39.7],[48.59,39.48],[48.9,39.45],[50.55,40.11],[51.87,40.38],[52.14,40.99],[52.01,41.22],[52.21,41.42],[52.09,41.65],[52.29,41.84],[52.17,42.07],[50.48,42.91],[50.35,43.14],[49.5,43.01],[48.44,43.75],[47.6,43.6],[46.98,44.07],[46.15,43.91],[45.53,44.37],[44.73,44.62],[44.59,45.26],[44.26,45.27],[43.13,45.94],[43.8,46.34],[43.64,46.55],[43.82,46.76],[45.72,47.33],[45.91,47.54],[45.75,47.76],[46.49,48.15],[46.33,48.37],[46.52,48.58],[46.88,48.56],[47.08,48.77],[46.92,48.99],[47.12,49.19],[49.8,49.91],[50.02,50.11],[50.39,50.09],[50.62,50.29],[50.99,50.26],[51.22,50.46],[51.6,50.43],[51.83,50.63],[52.74,50.34],[53.6,50.7],[54.5,50.39],[55.39,50.74],[56.29,50.42],[56.54,50.61],[56.93,50.56],[57.05,50.33],[58.44,49.69],[58.85,50.31],[58.73,50.55],[59.0,50.74],[59.89,50.39],[60.83,50.7],[61.21,50.64],[61.67,51.25],[63.43,51.41],[63.92,52.01],[63.83,52.26],[64.83,52.54],[65.72,52.14],[66.03,52.31],[66.43,52.23],[66.51,51.99],[67.37,51.58],[69.81,51.98],[70.2,51.89],[70.26,51.63],[71.09,51.2],[71.68,51.76],[71.62,52.02],[71.95,52.17],[71.9,52.43],[72.23,52.58],[72.18,52.83],[72.51,52.99],[72.9,52.89],[76.18,53.21],[76.98,52.73],[78.05,52.89],[78.43,52.78],[78.45,52.52],[79.55,52.42],[79.56,52.17],[80.3,51.67],[80.31,51.42],[79.26,51.27],[79.28,51.02],[79.64,50.9],[79.65,50.64],[78.99,50.11],[78.64,50.23],[78.62,50.49],[77.57,50.58],[77.54,50.84],[77.18,50.95],[76.14,50.78],[75.77,50.89],[75.74,51.14],[75.37,51.25],[75.33,51.51],[74.96,51.61],[73.91,51.42],[73.11,51.88],[72.78,51.72],[72.83,51.47],[71.79,51.26],[71.85,51.01],[71.53,50.85],[71.58,50.59],[71.96,50.5],[72.01,50.24],[73.07,50.2],[73.53,49.59],[73.9,49.49],[76.96,49.79],[77.31,49.67],[77.34,49.42],[78.37,49.33],[78.39,49.07],[78.74,48.95],[78.76,48.7],[77.76,48.54],[77.79,48.28],[77.17,47.74],[76.46,48.22],[76.14,48.07],[75.79,48.18],[75.2,47.63],[73.53,47.65],[73.23,47.49],[73.27,47.24],[72.32,47.03],[72.37,46.77],[73.36,46.72],[73.92,47.29],[74.27,47.18],[75.89,47.42],[76.23,47.31],[76.26,47.05],[77.25,46.97],[77.28,46.71],[77.61,46.6],[77.92,46.74],[78.9,46.65],[79.22,46.78],[79.2,47.04],[79.52,47.18],[79.85,47.06],[79.56,46.41],[78.61,46.25],[78.97,45.62],[78.66,45.48],[77.99,45.97],[77.68,45.83],[78.05,45.2],[77.12,45.03],[77.15,44.77],[76.58,44.23],[75.63,44.3],[74.72,44.11],[74.39,44.21],[74.36,44.47],[74.03,44.57],[73.74,44.42],[73.78,44.16],[74.1,44.06],[74.14,43.8],[73.86,43.65],[74.26,43.04],[74.58,42.93],[75.12,43.49],[75.44,43.38],[75.73,43.53],[76.39,43.06],[77.29,43.24],[77.27,43.49],[77.56,43.63],[77.88,43.52],[78.79,43.69],[79.43,43.2],[80.01,43.73],[80.32,43.61],[81.84,43.76],[81.83,44.02],[80.91,44.13],[80.9,44.39],[80.59,44.51],[80.29,44.37],[79.97,44.5],[79.38,43.96],[77.84,44.03],[78.09,44.69],[78.68,45.23],[79.63,45.13],[79.94,45.26],[79.92,45.52],[80.87,45.67],[80.86,45.92],[81.17,46.06],[81.81,45.55],[82.44,46.07],[82.75,45.94],[83.7,46.06],[84.03,46.7],[83.08,46.83],[83.08,47.09],[82.76,47.22],[81.14,47.08],[80.82,47.2],[81.12,47.85],[81.45,47.98],[81.78,47.85],[82.11,47.98],[82.76,47.47],[83.08,47.6],[83.41,47.47],[86.31,47.53],[86.91,47.0],[86.89,46.75],[85.93,46.66],[85.92,46.4],[85.6,46.28],[84.66,46.43],[84.34,46.31],[84.63,45.67],[83.99,45.17],[82.44,45.3],[81.51,45.16],[81.83,44.53],[82.14,44.4],[82.75,44.92],[83.36,44.41],[84.28,44.53],[84.87,44.01],[86.98,44.08],[87.54,43.56],[88.51,44.4],[88.8,44.26],[88.77,44.01],[89.64,43.84],[89.95,43.94],[89.98,44.19],[90.88,44.26],[90.92,44.51],[90.4,45.05],[89.48,44.98],[89.2,45.12],[88.97,45.77],[88.68,45.91],[89.06,46.52],[88.49,47.06],[88.52,47.31],[88.22,47.45],[88.25,47.7],[87.3,47.88],[87.32,48.13],[87.01,48.27],[84.73,48.21],[84.41,48.35],[84.1,48.99],[84.78,49.48],[84.79,49.74],[83.79,49.88],[83.79,50.14],[83.12,50.65],[83.12,50.91],[83.47,51.03],[83.47,51.28],[83.82,51.41],[84.17,51.27],[84.89,51.76],[86.62,51.58],[86.97,51.69],[87.0,51.94],[88.05,52.01],[88.48,52.62],[88.84,52.72],[88.87,52.97],[88.54,53.11],[88.57,53.36],[88.23,53.51],[88.26,53.76],[88.63,53.86],[88.67,54.11],[88.0,54.64],[88.03,54.89],[87.68,55.04],[87.7,55.28],[87.34,55.43],[87.37,55.67],[90.75,55.58],[90.79,55.82],[91.19,55.91],[91.23,56.15],[90.88,56.31],[90.93,56.55],[91.79,56.97],[91.84,57.21],[90.72,57.43],[90.76,57.67],[90.4,57.82],[88.42,57.83],[88.04,57.98],[88.07,58.22],[86.88,58.4],[86.91,58.65],[86.51,58.79],[82.81,58.78],[81.97,59.28],[79.04,59.15],[78.14,59.63],[76.88,59.48],[75.95,59.94],[74.68,59.76],[73.72,60.21],[73.66,60.45],[72.32,60.49],[71.92,60.35],[71.45,60.44],[71.38,60.68],[70.04,60.7],[69.96,60.94],[69.47,61.02],[69.08,60.87],[68.6,60.95],[68.51,61.19],[68.02,61.26],[65.03,60.83],[63.93,61.19],[60.53,60.72],[60.19,60.54],[60.32,60.31],[59.98,60.14],[60.12,59.91],[59.78,59.72],[59.92,59.49],[59.59,59.31],[59.72,59.08],[59.4,58.9],[59.53,58.67],[59.21,58.48],[58.14,58.81],[58.0,59.04],[58.32,59.22],[57.55,59.72],[57.88,59.91],[57.73,60.13],[55.96,60.69],[55.8,60.91],[55.31,60.95],[54.2,60.59],[53.05,60.86],[51.97,60.49],[50.82,60.74],[50.63,60.95],[50.15,60.97],[49.86,60.77],[49.39,60.78],[49.19,60.99],[48.71,61.0],[48.43,60.79],[47.96,60.8],[47.75,61.01],[47.27,61.01],[47.01,60.81],[45.85,61.01],[45.59,60.8],[44.41,60.58],[42.81,61.16],[43.05,61.36],[42.82,61.56],[43.06,61.77],[42.82,61.96],[42.35,61.95],[42.11,61.74],[42.35,61.54],[42.11,61.34],[41.65,61.32],[41.42,61.11],[41.65,60.91],[41.43,60.7],[40.29,60.86],[40.05,61.05],[40.26,61.26],[40.02,61.45],[39.56,61.42],[39.32,61.61],[37.55,61.1],[36.6,61.43],[37.44,61.89],[36.47,62.21],[36.67,62.43],[36.41,62.61],[34.22,63.01],[33.76,62.96],[32.97,62.48],[31.09,62.67],[30.81,62.83],[30.97,63.05],[29.95,63.31],[30.1,63.53],[29.81,63.68],[28.79,63.35],[27.03,63.68],[26.61,63.62],[26.48,63.4],[25.35,63.41],[25.24,63.2],[24.32,62.84],[23.82,63.34],[24.43,63.84],[24.12,63.99],[24.23,64.2],[24.65,64.27],[24.76,64.49],[24.44,64.63],[24.55,64.85],[25.74,64.85],[25.86,65.06],[25.54,65.21],[25.66,65.42],[25.34,65.56],[25.46,65.78],[24.35,65.98],[23.91,65.91],[23.8,65.69],[24.57,65.63],[24.89,65.49],[24.78,65.28],[23.28,64.62],[23.18,64.41],[21.79,63.74],[21.7,63.53],[21.31,63.45],[21.0,63.58],[21.08,63.8],[21.96,64.17],[22.05,64.39],[21.73,64.52],[21.81,64.73],[21.08,64.78],[21.0,64.57],[21.32,64.44],[20.77,63.93],[19.67,63.89],[19.61,63.68],[18.79,63.3],[18.73,63.09],[17.7,63.04],[17.65,62.83],[16.75,62.27],[17.06,62.15],[16.91,61.98],[15.73,62.0],[15.59,61.83],[15.89,61.71],[15.75,61.53],[14.19,61.02],[14.06,60.84],[14.36,60.72],[14.23,60.54],[13.51,60.6],[12.54,60.3],[12.06,60.72],[10.99,60.23],[9.87,60.21],[9.76,60.02],[10.06,59.91],[9.95,59.72],[9.03,59.39],[7.94,58.68],[6.23,58.78],[5.96,58.95],[6.05,59.14],[6.41,59.16],[6.51,59.35],[5.58,59.66],[6.15,60.06],[4.82,60.34],[4.73,60.15],[5.21,59.63],[4.66,59.22],[4.94,59.06],[4.85,58.86],[5.13,58.7],[5.05,58.51],[6.31,58.23],[6.58,58.06],[6.49,57.87],[6.78,57.76],[7.84,57.8],[7.93,57.99],[8.32,58.07],[9.0,58.03],[9.6,58.48],[9.31,58.6],[9.41,58.79],[10.8,58.69],[10.69,58.5],[11.16,58.06],[11.05,57.87],[9.97,57.86],[9.37,57.4],[8.31,57.37],[8.22,57.18],[7.84,57.1],[7.74,56.9],[8.02,56.79]],[[16.91,41.49],[16.58,41.43],[16.24,42.02],[16.78,42.54],[18.76,42.21],[18.98,42.03],[18.87,41.8],[19.09,41.62],[18.98,41.39],[19.3,40.79],[19.19,40.55],[18.86,40.51],[18.65,40.69],[17.78,40.77],[17.45,41.36],[17.13,41.31],[16.91,41.49]],[[82.43,49.13],[82.43,49.39],[82.77,49.51],[83.1,49.38],[83.1,49.13],[82.76,49.0],[82.43,49.13]],[[42.62,44.07],[42.78,43.86],[43.1,43.84],[43.24,43.21],[44.02,42.97],[44.17,42.76],[44.97,42.92],[45.14,43.12],[45.92,42.87],[46.09,43.07],[46.41,43.04],[47.47,42.33],[47.79,42.3],[47.89,41.66],[48.65,41.38],[49.23,40.9],[49.05,40.7],[48.24,40.57],[48.11,40.79],[47.8,40.82],[47.67,41.04],[47.36,41.07],[45.4,42.27],[44.61,42.11],[44.01,42.55],[43.23,42.38],[41.68,43.26],[40.89,43.1],[40.73,43.31],[40.41,43.33],[40.24,43.94],[40.4,44.14],[40.73,44.12],[41.37,43.69],[42.62,44.07]],[[-3.65,55.48],[-4.41,55.13],[-4.72,55.28],[-4.27,55.78],[-3.23,55.75],[-2.93,55.6],[-2.98,55.38],[-3.65,55.48]],[[25.93,39.41],[25.61,39.38],[25.41,39.58],[25.53,39.81],[25.86,39.84],[26.06,39.64],[25.93,39.41]],[[18.13,58.0],[18.41,57.86],[18.27,57.68],[17.32,57.39],[17.04,57.53],[17.18,57.72],[16.9,57.86],[17.58,58.28],[17.3,58.42],[17.43,58.61],[18.54,58.56],[19.25,58.97],[18.97,59.11],[19.11,59.29],[20.25,59.72],[22.37,59.4],[21.79,59.19],[21.64,59.01],[21.91,58.86],[21.19,58.47],[21.46,58.32],[21.31,58.14],[21.7,57.66],[21.14,57.44],[20.99,57.26],[21.26,57.11],[20.56,56.7],[20.83,56.55],[20.69,56.36],[21.07,55.86],[20.93,55.67],[20.53,55.63],[20.39,55.44],[20.65,55.29],[20.51,55.09],[19.46,55.16],[19.33,54.97],[19.59,54.82],[19.45,54.62],[19.06,54.58],[18.67,55.08],[17.63,55.13],[16.98,54.69],[15.95,54.73],[15.82,54.53],[14.94,54.22],[14.03,54.44],[14.14,54.64],[13.87,54.78],[13.22,54.86],[12.35,54.53],[12.08,54.67],[12.68,55.14],[13.72,55.12],[13.83,55.32],[14.22,55.38],[14.64,54.9],[15.68,54.87],[15.8,55.07],[15.53,55.21],[15.65,55.41],[14.72,55.64],[14.84,55.83],[15.9,55.8],[16.54,56.25],[16.94,56.3],[17.07,56.49],[16.8,56.63],[16.93,56.82],[17.46,57.06],[17.87,57.11],[18.28,56.63],[18.68,56.68],[18.81,56.87],[18.54,57.01],[19.23,57.43],[18.95,57.58],[19.09,57.76],[19.65,57.99],[19.37,58.13],[19.51,58.32],[18.82,58.42],[18.13,58.0]],[[6.7,45.68],[7.26,45.61],[7.19,45.38],[6.87,45.3],[6.63,45.45],[6.7,45.68]],[[21.3,61.46],[20.79,60.95],[19.7,60.49],[18.55,60.55],[18.11,60.99],[17.38,61.07],[18.1,61.46],[17.66,61.89],[17.8,62.07],[19.41,63.04],[19.48,63.25],[19.85,63.34],[19.92,63.55],[20.3,63.63],[20.62,63.5],[20.09,62.99],[20.4,62.86],[20.33,62.65],[20.63,62.51],[20.56,62.3],[20.86,62.16],[20.78,61.95],[21.3,61.46]],[[27.12,36.02],[26.56,35.53],[25.75,35.67],[25.63,35.44],[25.32,35.41],[24.62,35.77],[23.8,35.9],[23.52,36.53],[23.64,36.77],[23.95,36.8],[25.67,36.11],[26.42,36.4],[27.12,36.02]],[[25.19,38.04],[24.87,38.0],[24.67,38.2],[24.79,38.43],[25.11,38.47],[26.34,37.93],[26.22,37.7],[25.9,37.67],[25.19,38.04]],[[36.71,45.86],[35.38,45.47],[35.17,46.07],[36.32,46.66],[36.67,46.65],[36.85,46.45],[37.69,46.63],[37.87,46.43],[37.72,45.84],[36.89,45.65],[36.71,45.86]],[[10.69,56.58],[10.4,56.71],[10.51,56.91],[10.9,56.98],[11.01,57.17],[11.68,57.11],[11.57,56.92],[10.69,56.58]],[[9.88,47.05],[10.8,47.05],[10.89,47.27],[11.23,47.34],[11.47,47.19],[11.38,46.96],[10.19,46.3],[9.38,46.53],[9.88,47.05]],[[25.77,59.92],[25.67,59.7],[25.03,59.79],[25.13,60.01],[25.5,60.07],[25.77,59.92]],[[24.19,57.84],[24.03,57.66],[24.29,57.51],[23.72,57.3],[23.36,57.79],[23.51,57.97],[24.19,57.84]],[[16.0,42.83],[16.22,42.66],[16.12,42.43],[15.79,42.37],[15.57,42.54],[14.81,42.19],[14.46,42.77],[14.56,43.0],[14.33,43.17],[14.43,43.4],[14.2,43.57],[14.3,43.8],[15.19,43.75],[15.42,43.58],[15.44,42.95],[15.67,42.78],[16.0,42.83]],[[-2.24,48.99],[-2.29,48.76],[-2.61,48.69],[-2.88,48.85],[-2.83,49.08],[-2.24,48.99]],[[-3.65,54.03],[-3.7,53.81],[-3.4,53.65],[-3.45,53.44],[-3.8,53.37],[-4.35,53.9],[-4.3,54.11],[-3.65,54.03]],[[11.85,56.79],[12.52,56.72],[12.41,56.53],[12.02,56.46],[11.74,56.59],[11.85,56.79]],[[12.63,47.01],[12.53,46.79],[11.95,46.88],[12.05,47.1],[12.39,47.17],[12.63,47.01]],[[7.42,46.06],[7.91,46.6],[8.48,46.53],[7.99,46.0],[7.42,46.06]],[[24.48,40.14],[24.8,40.17],[25.0,39.97],[24.88,39.75],[24.56,39.71],[24.35,39.91],[24.48,40.14]],[[26.26,60.2],[26.91,60.1],[26.8,59.88],[26.42,59.82],[26.15,59.98],[26.26,60.2]],[[25.48,39.15],[25.68,38.96],[25.56,38.73],[24.71,38.86],[24.51,39.06],[24.63,39.29],[24.96,39.32],[25.16,39.12],[25.48,39.15]]],[[[93.77,44.02],[94.03,43.87],[94.34,43.97],[94.8,43.42],[95.66,43.45],[95.52,44.09],[94.7,44.3],[94.39,44.21],[93.92,44.76],[93.03,44.72],[92.98,44.47],[93.82,44.27],[93.77,44.02]]],[[[121.98,46.47],[121.28,46.21],[121.34,45.7],[120.66,45.45],[120.78,45.27],[120.6,45.12],[120.67,44.63],[119.71,44.4],[119.53,44.26],[119.62,43.78],[118.77,43.44],[118.64,43.25],[118.77,42.72],[118.39,42.5],[118.27,41.94],[117.89,42.08],[117.27,41.82],[116.88,41.95],[116.51,41.72],[116.41,41.15],[115.76,41.25],[115.4,41.01],[114.86,41.3],[114.97,41.5],[114.83,41.66],[114.42,41.79],[113.78,41.5],[113.71,40.93],[114.26,40.65],[113.79,40.2],[113.13,40.27],[113.02,40.06],[113.17,39.9],[112.81,39.65],[112.7,39.44],[112.85,39.28],[112.39,38.82],[112.59,38.3],[112.23,38.05],[112.18,37.48],[111.37,36.94],[111.52,36.41],[111.28,36.35],[110.88,36.83],[111.19,37.27],[110.93,38.15],[111.38,38.62],[111.17,39.15],[111.63,39.62],[110.79,39.83],[110.81,38.89],[109.85,38.3],[109.75,38.09],[109.91,37.93],[109.47,37.45],[109.66,36.74],[108.85,36.17],[109.19,35.28],[108.48,35.3],[107.87,36.12],[106.77,35.25],[106.74,35.04],[106.97,34.9],[106.66,34.42],[107.6,34.28],[107.82,34.14],[107.79,33.93],[108.48,33.72],[108.45,33.51],[107.04,33.73],[106.51,33.37],[106.29,33.51],[106.32,33.72],[106.57,33.8],[106.6,34.0],[105.65,34.14],[105.62,33.93],[105.37,33.85],[105.53,33.29],[104.16,32.05],[104.33,31.48],[103.8,31.1],[103.32,31.15],[103.5,30.57],[102.77,30.54],[102.74,30.32],[102.49,30.23],[102.66,29.65],[103.36,29.45],[103.92,28.12],[104.39,28.06],[104.81,27.55],[105.52,27.57],[105.93,27.05],[107.1,27.0],[107.31,26.86],[107.28,26.63],[107.96,26.41],[107.93,26.18],[108.14,26.03],[109.05,25.89],[109.56,26.28],[109.41,26.88],[109.92,27.26],[110.13,27.11],[110.1,26.89],[109.86,26.81],[109.83,26.58],[110.04,26.43],[109.74,25.9],[110.39,25.67],[110.63,25.75],[111.2,26.58],[110.55,26.81],[110.58,27.04],[110.82,27.11],[110.85,27.34],[111.53,27.33],[111.39,27.93],[112.07,27.92],[112.11,28.14],[111.9,28.29],[111.45,28.37],[111.31,28.96],[111.1,29.11],[111.68,29.9],[113.01,29.65],[113.52,29.99],[114.16,29.75],[114.39,29.81],[114.69,30.3],[115.13,30.21],[115.36,30.26],[115.39,30.48],[115.82,30.38],[116.32,30.7],[116.52,30.55],[116.48,30.34],[116.25,30.29],[116.41,29.92],[117.17,30.51],[117.33,30.15],[117.94,29.89],[118.17,29.95],[118.2,30.15],[117.59,30.41],[117.89,30.87],[118.72,30.67],[119.2,30.97],[119.8,30.71],[120.1,30.0],[120.73,29.99],[121.08,29.58],[121.5,29.58],[121.63,29.06],[122.05,29.05],[122.86,29.96],[122.74,30.48],[123.01,30.78],[122.38,30.89],[122.42,31.09],[122.07,31.5],[122.37,31.99],[121.75,32.09],[121.63,32.59],[121.01,32.68],[121.31,33.17],[121.12,33.26],[121.0,33.8],[120.41,34.06],[120.15,34.94],[119.54,35.2],[119.84,35.61],[120.25,35.5],[120.74,35.76],[121.15,35.65],[121.04,36.17],[121.67,36.08],[121.55,36.6],[122.41,36.55],[122.92,36.91],[122.79,37.36],[123.07,37.63],[121.37,37.79],[121.07,38.44],[121.59,38.85],[122.22,38.76],[122.5,39.02],[123.06,38.98],[123.3,38.69],[123.86,39.79],[124.31,39.42],[124.69,39.45],[124.93,39.16],[124.47,37.99],[124.67,37.91],[124.63,37.73],[126.1,37.66],[126.13,37.44],[125.56,36.91],[125.93,36.54],[125.6,36.08],[125.97,35.7],[125.69,35.43],[125.81,34.95],[125.13,34.87],[125.09,34.68],[125.29,34.58],[124.97,34.11],[126.06,33.98],[126.02,33.79],[126.22,33.69],[125.9,33.21],[127.23,33.16],[126.95,33.95],[127.64,34.02],[127.97,34.5],[128.66,34.56],[129.82,35.65],[129.58,36.19],[129.75,36.52],[129.53,36.84],[129.7,37.18],[127.83,39.7],[128.65,39.75],[129.03,40.21],[129.45,40.24],[129.61,40.8],[130.25,40.94],[129.99,41.48],[130.59,42.29],[131.26,42.22],[131.69,42.69],[132.6,42.73],[133.08,42.3],[133.53,42.77],[134.24,42.68],[134.71,43.14],[135.19,43.16],[135.68,44.08],[136.42,44.21],[136.94,45.14],[137.71,45.27],[137.99,45.85],[139.11,47.01],[139.12,47.24],[139.4,47.36],[139.42,47.59],[139.7,47.71],[139.71,47.94],[140.0,48.06],[140.02,48.29],[140.3,48.4],[140.32,48.63],[140.61,48.75],[140.63,48.98],[140.07,48.97],[140.05,48.74],[139.77,48.63],[139.75,48.4],[139.46,48.28],[139.45,48.05],[139.17,47.93],[139.15,47.7],[138.87,47.58],[138.86,47.35],[138.59,47.23],[138.57,47.0],[137.47,45.84],[137.47,45.61],[136.69,45.48],[136.69,45.25],[135.93,44.43],[134.94,44.4],[134.94,44.17],[134.23,43.36],[133.28,43.32],[133.04,43.42],[133.03,43.65],[133.49,44.12],[133.97,44.14],[134.44,45.06],[135.18,45.88],[134.92,46.44],[135.18,46.56],[135.18,46.79],[134.36,46.84],[134.3,47.03],[134.75,47.49],[135.32,47.54],[135.47,48.07],[134.56,48.09],[134.5,48.29],[134.18,48.36],[133.59,48.3],[133.52,48.51],[133.19,48.58],[132.75,48.11],[131.27,48.04],[131.02,47.9],[131.1,47.71],[130.3,47.5],[130.23,46.97],[129.67,46.9],[129.3,46.43],[128.22,46.27],[127.81,46.52],[128.16,46.98],[128.07,47.18],[126.35,48.16],[125.46,48.11],[125.46,48.65],[124.66,48.93],[124.1,48.83],[123.79,48.33],[122.69,48.11],[122.74,47.58],[122.0,47.32],[122.13,47.14],[121.93,46.99],[121.98,46.47]],[[104.7,28.6],[104.28,29.11],[103.81,29.17],[103.84,29.4],[104.09,29.48],[106.18,29.09],[105.6,28.25],[105.36,28.17],[104.67,28.38],[104.7,28.6]],[[127.02,43.12],[127.72,43.32],[127.63,43.5],[127.83,43.63],[127.36,44.04],[127.57,44.17],[127.48,44.35],[128.2,44.57],[128.11,44.75],[128.32,44.88],[128.84,44.96],[128.89,45.46],[129.11,45.6],[129.02,45.79],[129.24,45.92],[129.95,45.62],[131.02,45.76],[131.09,45.57],[130.33,45.37],[130.41,45.18],[131.24,45.19],[131.56,44.91],[131.36,44.34],[130.68,44.18],[131.19,43.33],[130.07,43.14],[129.84,43.24],[129.82,43.45],[129.38,43.42],[129.02,42.52],[129.69,42.45],[129.71,42.23],[129.31,41.77],[128.97,40.87],[128.55,40.84],[128.17,40.38],[127.55,40.44],[127.19,39.98],[126.49,40.68],[126.79,41.57],[126.57,41.66],[126.41,41.32],[126.0,41.28],[126.13,41.83],[125.76,42.05],[126.42,42.25],[126.33,42.43],[126.53,42.56],[127.49,42.71],[127.02,43.12]],[[110.01,27.94],[110.22,27.79],[110.19,27.56],[109.95,27.49],[109.74,27.64],[109.77,27.86],[110.01,27.94]],[[130.39,46.58],[131.18,46.79],[131.49,46.73],[131.95,46.27],[130.86,46.14],[130.39,46.58]],[[121.85,40.17],[121.23,40.0],[121.2,39.31],[120.73,38.91],[120.88,38.59],[120.39,38.35],[120.51,37.85],[119.86,37.93],[120.01,37.6],[119.71,37.21],[119.29,37.32],[119.6,37.72],[119.25,38.19],[117.96,38.52],[118.42,38.94],[118.78,38.82],[119.36,39.07],[119.48,39.61],[121.26,40.69],[121.97,40.75],[122.08,40.59],[121.85,40.17]],[[113.82,39.83],[113.93,40.03],[114.33,39.92],[113.86,39.47],[114.04,38.95],[113.68,38.7],[113.29,38.81],[113.11,39.33],[113.21,39.54],[113.82,39.83]],[[108.92,31.81],[108.95,32.03],[109.41,31.95],[109.38,31.74],[109.13,31.67],[108.92,31.81]],[[113.59,37.4],[113.55,37.21],[113.31,37.16],[113.1,37.3],[113.13,37.49],[113.59,37.4]],[[133.79,46.78],[133.55,46.65],[133.61,46.46],[133.06,46.4],[133.17,46.92],[133.42,47.05],[133.73,46.98],[133.79,46.78]],[[110.22,35.73],[109.76,35.81],[109.79,36.01],[110.04,36.07],[110.25,35.93],[110.22,35.73]],[[111.84,36.85],[112.08,36.9],[112.12,37.1],[112.57,37.01],[112.26,36.57],[112.02,36.52],[111.8,36.66],[111.84,36.85]],[[118.77,41.64],[118.4,41.42],[118.28,41.58],[118.4,41.78],[118.77,41.64]],[[108.95,33.64],[108.73,33.79],[108.76,33.99],[109.01,34.06],[109.23,33.92],[109.2,33.71],[108.95,33.64]],[[122.11,30.59],[121.61,30.19],[121.42,30.29],[121.72,30.8],[122.15,30.79],[122.11,30.59]],[[127.44,45.54],[127.65,45.68],[128.05,45.44],[127.53,45.36],[127.44,45.54]],[[114.49,41.05],[114.08,41.18],[114.19,41.38],[114.45,41.42],[114.6,41.26],[114.49,41.05]]],[[[-77.09,34.59],[-76.15,34.4],[-76.2,34.95],[-75.45,34.91],[-75.09,35.16],[-75.24,36.08],[-75.44,36.23],[-75.36,36.44],[-75.69,36.96],[-75.23,37.43],[-75.44,37.59],[-75.36,37.8],[-74.68,38.11],[-74.71,38.7],[-74.41,38.75],[-74.32,38.96],[-74.53,39.13],[-74.44,39.34],[-73.74,39.66],[-73.76,40.26],[-73.04,40.57],[-72.52,40.45],[-72.0,40.93],[-71.16,40.85],[-71.05,41.07],[-70.73,41.11],[-70.21,40.98],[-70.1,41.19],[-69.78,41.24],[-69.75,41.84],[-69.95,42.02],[-69.84,42.24],[-70.58,42.55],[-70.01,43.03],[-70.23,43.21],[-70.11,43.43],[-69.77,43.47],[-69.65,43.69],[-68.77,43.59],[-68.64,43.81],[-66.4,44.86],[-66.25,45.08],[-65.91,45.11],[-65.76,45.33],[-65.96,45.52],[-66.31,45.49],[-67.91,44.51],[-68.8,44.62],[-68.93,44.4],[-69.27,44.36],[-69.49,44.54],[-70.29,44.24],[-70.61,44.82],[-71.53,44.91],[-71.75,45.09],[-71.17,45.59],[-71.98,45.91],[-71.39,46.41],[-71.74,47.01],[-72.1,46.96],[-72.22,46.73],[-73.17,46.81],[-73.29,46.58],[-74.11,46.24],[-74.95,46.54],[-75.31,46.48],[-75.71,47.07],[-76.07,47.01],[-76.62,46.47],[-78.19,46.62],[-78.45,46.79],[-78.36,47.03],[-79.26,47.29],[-79.17,47.53],[-79.45,47.7],[-79.8,47.63],[-80.31,47.08],[-80.66,47.0],[-80.94,47.17],[-81.7,46.77],[-83.23,47.09],[-84.2,47.08],[-84.73,47.63],[-84.67,47.87],[-84.97,48.02],[-85.31,47.93],[-86.25,48.14],[-86.47,48.78],[-88.09,49.03],[-88.44,48.93],[-88.47,48.69],[-89.46,48.63],[-89.49,48.39],[-89.82,48.28],[-90.78,48.46],[-90.76,48.7],[-91.08,48.84],[-92.06,48.76],[-92.08,48.51],[-91.46,48.0],[-91.81,47.41],[-91.21,46.9],[-89.01,46.89],[-88.45,46.37],[-87.5,46.42],[-86.96,45.89],[-87.36,45.32],[-86.75,45.27],[-86.23,44.74],[-85.32,44.77],[-84.9,45.32],[-84.57,45.41],[-84.29,45.26],[-84.35,45.02],[-83.48,44.8],[-83.53,44.56],[-83.86,44.48],[-83.91,44.25],[-83.64,44.1],[-83.7,43.86],[-84.01,43.78],[-83.85,43.17],[-85.59,43.37],[-86.25,42.96],[-87.66,43.21],[-89.12,43.22],[-89.47,42.66],[-89.19,42.52],[-89.22,42.29],[-88.39,42.11],[-88.73,41.57],[-88.0,40.7],[-88.65,39.86],[-89.47,39.82],[-89.47,39.58],[-89.73,39.48],[-90.51,39.64],[-91.02,39.2],[-92.33,39.37],[-92.85,38.92],[-94.7,39.08],[-95.21,38.61],[-95.75,38.62],[-95.73,38.38],[-95.99,38.26],[-95.98,38.02],[-96.24,37.9],[-96.23,37.66],[-96.48,37.54],[-96.47,37.29],[-96.73,37.17],[-96.71,36.93],[-96.97,36.8],[-96.95,36.56],[-97.21,36.44],[-97.19,36.19],[-97.45,36.07],[-97.43,35.82],[-97.69,35.69],[-97.67,35.45],[-98.39,34.57],[-98.37,34.32],[-97.59,34.22],[-97.29,33.6],[-97.02,33.48],[-96.78,33.61],[-96.24,33.12],[-95.75,33.63],[-94.99,33.51],[-94.5,34.0],[-93.23,33.87],[-92.74,34.35],[-91.49,34.2],[-91.24,34.32],[-91.25,34.56],[-90.5,34.65],[-90.25,34.52],[-90.25,34.28],[-89.52,34.13],[-89.52,33.89],[-89.28,33.76],[-89.28,33.52],[-89.77,33.05],[-89.77,32.81],[-89.53,32.68],[-89.78,32.08],[-89.54,31.95],[-89.3,32.06],[-88.83,31.56],[-88.59,31.67],[-87.88,31.52],[-87.4,31.98],[-85.78,31.76],[-85.3,32.21],[-84.17,32.01],[-83.94,32.11],[-83.93,32.34],[-83.48,32.31],[-83.0,32.73],[-82.34,32.55],[-81.86,32.98],[-81.21,32.79],[-80.98,32.88],[-80.96,33.11],[-80.53,33.06],[-80.3,33.15],[-80.28,33.38],[-79.85,33.33],[-79.37,33.73],[-79.17,33.59],[-79.19,33.36],[-79.42,33.28],[-79.24,32.91],[-78.7,33.51],[-77.09,34.59]],[[-85.06,41.55],[-85.7,41.16],[-85.96,41.3],[-85.58,41.84],[-85.28,41.92],[-85.02,41.78],[-85.06,41.55]]],[[[141.31,41.59],[140.84,42.09],[140.86,42.32],[142.67,42.37],[142.7,42.61],[142.45,42.74],[141.93,42.76],[142.26,43.34],[142.01,43.47],[142.03,43.71],[142.61,44.16],[142.41,44.76],[142.69,44.87],[142.72,45.11],[142.23,45.59],[140.87,45.5],[140.85,45.27],[141.64,45.14],[141.85,44.54],[141.28,44.08],[141.48,43.49],[140.18,43.4],[140.16,43.17],[139.35,42.36],[139.33,42.12],[140.08,41.99],[140.06,41.75],[139.8,41.64],[139.79,41.41],[140.03,41.28],[140.01,41.05],[139.76,40.94],[139.74,40.7],[139.98,40.58],[139.96,40.34],[139.71,40.23],[139.7,40.0],[139.93,39.87],[139.92,39.63],[139.67,39.53],[139.87,38.93],[139.62,38.82],[139.35,38.24],[139.11,38.14],[138.66,38.62],[138.42,38.51],[138.41,38.28],[138.17,38.17],[138.38,37.58],[137.9,37.13],[137.46,37.61],[136.77,37.52],[136.77,37.29],[135.43,35.49],[134.99,35.96],[134.57,35.52],[133.08,35.66],[132.88,35.55],[132.89,35.32],[132.27,35.22],[132.49,34.88],[133.32,34.87],[133.72,35.31],[133.94,34.97],[133.73,34.86],[133.74,34.64],[133.12,34.54],[132.92,34.21],[132.31,34.33],[132.01,34.06],[133.55,33.86],[133.95,34.29],[134.38,33.83],[134.58,33.93],[134.58,34.16],[134.37,34.51],[134.58,34.61],[135.21,33.57],[135.85,33.43],[136.28,33.86],[136.28,34.09],[136.93,34.17],[136.93,34.4],[137.15,34.5],[137.81,34.35],[138.27,34.79],[138.93,34.63],[139.41,35.06],[140.32,35.0],[140.59,35.57],[140.83,35.67],[140.64,36.28],[141.41,37.06],[141.01,38.04],[141.74,38.11],[141.55,38.72],[142.37,39.51],[142.4,39.75],[141.73,40.62],[141.75,40.86],[141.51,40.99],[141.53,41.23],[141.29,41.36],[141.31,41.59]],[[141.62,39.43],[141.17,39.93],[140.64,39.48],[140.4,39.61],[140.42,39.85],[140.95,40.3],[141.45,40.28],[141.9,39.78],[141.88,39.54],[141.62,39.43]],[[141.42,42.78],[141.15,42.67],[140.9,42.79],[140.92,43.03],[141.44,43.01],[141.42,42.78]],[[136.99,37.16],[137.45,37.15],[137.44,36.92],[137.21,36.81],[136.99,36.93],[136.99,37.16]],[[137.85,35.51],[138.09,36.08],[138.32,36.18],[139.0,36.03],[138.99,35.79],[138.54,35.82],[138.07,35.38],[137.85,35.51]],[[140.85,39.12],[140.84,38.88],[140.35,38.9],[140.37,39.14],[140.62,39.25],[140.85,39.12]],[[137.42,36.22],[137.43,36.45],[137.66,36.56],[137.88,36.43],[137.87,36.2],[137.42,36.22]],[[139.27,36.83],[139.29,37.07],[139.53,37.17],[139.75,37.04],[139.74,36.81],[139.27,36.83]],[[135.43,34.13],[135.85,34.11],[135.85,33.88],[135.64,33.78],[135.43,34.13]]],[[[91.82,55.36],[91.48,55.52],[91.09,55.42],[91.04,55.18],[90.23,54.75],[90.19,54.5],[91.24,54.29],[91.19,54.05],[90.82,53.95],[90.77,53.71],[89.98,53.27],[89.95,53.02],[90.28,52.87],[91.06,53.31],[92.77,53.03],[93.57,53.45],[93.62,53.7],[94.0,53.78],[94.06,54.02],[93.74,54.18],[92.66,54.17],[92.05,54.72],[91.67,54.63],[91.34,54.78],[91.38,55.03],[91.77,55.12],[92.11,54.96],[92.49,55.05],[92.55,55.29],[92.21,55.45],[91.82,55.36]]],[[[36.47,63.6],[37.64,63.88],[37.91,63.71],[38.39,63.74],[38.61,63.95],[38.34,64.13],[38.57,64.34],[38.3,64.52],[37.03,64.62],[36.75,64.8],[36.96,65.01],[38.25,64.9],[39.3,64.58],[40.55,64.85],[40.8,65.05],[40.53,65.24],[40.01,65.21],[39.77,65.0],[39.26,64.97],[37.4,65.43],[36.9,65.39],[36.68,65.18],[35.39,65.27],[35.1,65.44],[35.3,65.65],[35.01,65.81],[35.21,66.03],[34.91,66.19],[34.4,66.14],[34.2,65.93],[34.5,65.77],[34.3,65.56],[34.6,65.39],[34.4,65.18],[34.7,65.01],[34.5,64.8],[34.79,64.63],[34.59,64.42],[36.12,64.16],[36.4,63.99],[36.2,63.77],[36.47,63.6]]],[[[89.1,41.73],[89.93,41.56],[90.9,42.38],[91.16,42.23],[92.03,42.3],[92.29,42.15],[92.24,41.91],[93.05,41.72],[93.35,41.82],[93.4,42.06],[94.25,42.11],[94.3,42.35],[93.84,42.89],[92.41,42.89],[91.92,43.43],[91.27,42.98],[88.69,43.26],[88.38,43.14],[88.03,42.53],[89.46,42.34],[89.43,42.09],[88.56,42.0],[88.53,41.75],[88.8,41.62],[89.1,41.73]]],[[[114.1,26.39],[113.67,26.47],[113.37,25.96],[114.23,25.79],[114.1,26.39]]],[[[141.93,52.61],[142.26,52.73],[142.24,52.95],[141.88,53.05],[140.87,52.91],[140.89,52.69],[141.93,52.61]]],[[[-123.79,48.41],[-123.3,47.98],[-122.98,47.94],[-122.9,47.73],[-123.3,47.2],[-123.22,47.0],[-122.34,47.08],[-121.76,47.97],[-121.84,48.18],[-122.57,48.46],[-122.48,49.02],[-122.81,49.06],[-122.89,49.26],[-124.03,49.01],[-123.95,48.81],[-123.63,48.78],[-123.54,48.58],[-123.79,48.41]]],[[[105.66,51.52],[106.68,52.28],[108.44,53.11],[108.56,53.33],[108.33,53.51],[107.98,53.48],[106.91,52.73],[106.56,52.69],[106.45,52.46],[106.1,52.42],[105.99,52.19],[105.64,52.14],[105.53,51.92],[105.18,51.87],[104.8,52.45],[104.91,52.68],[104.67,52.85],[103.7,52.93],[103.29,53.51],[102.46,53.16],[102.36,52.93],[102.62,52.76],[102.52,52.53],[102.78,52.36],[103.74,52.29],[103.99,52.12],[103.89,51.89],[104.28,51.31],[104.62,51.36],[104.73,51.59],[105.66,51.52]]],[[[31.57,36.99],[30.76,37.16],[30.63,36.94],[30.32,36.92],[30.19,36.7],[30.42,36.05],[30.73,36.07],[30.86,36.3],[30.68,36.51],[30.81,36.73],[31.12,36.75],[32.76,35.96],[33.07,35.97],[33.2,36.19],[31.57,36.99]]],[[[111.18,42.61],[111.62,42.49],[112.27,42.79],[112.48,42.25],[112.91,42.12],[113.55,42.41],[114.39,42.16],[114.88,42.61],[114.73,42.78],[114.85,42.98],[115.24,43.22],[113.97,43.62],[113.78,44.17],[113.34,44.3],[112.67,44.01],[111.78,44.27],[110.99,43.75],[110.82,43.92],[110.93,44.14],[111.33,44.39],[110.69,44.69],[111.2,45.16],[110.56,45.46],[109.86,45.16],[109.83,44.55],[109.14,44.24],[108.67,44.36],[107.4,43.31],[107.59,43.15],[107.49,42.92],[107.96,42.82],[108.83,43.58],[109.58,43.51],[109.69,43.73],[110.36,44.04],[110.6,43.49],[111.5,43.25],[111.12,42.99],[110.67,43.11],[110.63,42.51],[110.8,42.35],[111.18,42.61]]],[[[6.23,36.94],[6.01,37.1],[5.73,37.02],[5.66,36.78],[5.38,36.7],[5.31,36.46],[5.03,36.37],[4.97,36.13],[5.18,35.97],[5.96,35.97],[6.03,36.21],[6.31,36.29],[7.53,35.95],[7.82,36.03],[7.89,36.27],[7.68,36.44],[6.38,36.53],[6.16,36.7],[6.23,36.94]]],[[[104.37,41.64],[103.88,41.73],[103.8,41.5],[104.76,41.32],[104.85,41.54],[104.65,41.7],[104.37,41.64]]],[[[92.89,56.74],[92.83,56.5],[92.43,56.42],[92.37,56.18],[92.71,56.02],[93.84,56.03],[93.91,56.27],[93.57,56.43],[93.63,56.67],[93.29,56.83],[92.89,56.74]]],[[[119.04,28.76],[118.56,28.44],[118.71,28.07],[119.19,28.39],[119.04,28.76]]],[[[130.5,31.35],[130.96,31.32],[131.5,31.68],[131.54,31.89],[131.33,32.01],[130.79,31.64],[130.42,32.07],[131.01,32.64],[130.72,33.46],[131.56,34.09],[131.6,34.29],[131.39,34.4],[130.69,34.35],[130.81,33.85],[130.35,33.88],[129.81,33.52],[129.36,33.55],[128.5,32.7],[128.45,32.5],[128.66,32.39],[129.48,33.04],[129.85,32.62],[130.3,32.59],[129.97,32.1],[130.5,31.35]]],[[[3.96,40.23],[3.73,40.38],[3.44,40.3],[3.38,40.06],[2.58,40.03],[2.53,39.8],[2.24,39.71],[2.35,39.09],[3.08,38.88],[3.71,39.29],[3.77,39.52],[4.57,39.54],[4.47,40.17],[4.25,40.32],[3.96,40.23]]],[[[137.2,53.83],[137.14,54.06],[138.17,54.23],[138.12,54.46],[136.7,54.37],[136.76,54.14],[136.44,54.01],[136.5,53.78],[137.2,53.83]]],[[[84.8,42.24],[84.2,41.74],[81.57,41.85],[80.99,41.33],[80.11,41.43],[79.82,41.29],[79.56,40.65],[78.7,40.49],[78.45,39.84],[77.6,39.67],[77.62,39.42],[78.23,38.94],[78.25,38.69],[79.1,38.6],[79.41,37.99],[79.7,37.87],[79.97,38.01],[80.54,37.53],[81.36,37.68],[81.91,37.19],[82.73,37.33],[84.08,37.22],[84.36,37.35],[84.37,37.6],[85.18,37.72],[85.19,37.97],[85.47,38.09],[86.28,37.95],[86.56,38.07],[86.57,38.32],[86.85,38.44],[87.12,38.31],[87.4,38.43],[87.42,38.67],[87.7,38.79],[87.96,38.66],[88.55,39.13],[89.35,38.98],[89.64,39.09],[89.66,39.33],[89.95,39.44],[90.21,39.31],[90.49,39.41],[90.52,39.66],[90.81,39.77],[91.07,39.63],[91.68,40.08],[93.0,39.86],[93.62,40.31],[93.67,40.55],[93.42,40.69],[92.05,40.68],[91.79,40.82],[92.16,41.41],[91.91,41.56],[91.05,41.49],[91.02,41.25],[90.72,41.14],[90.46,41.28],[89.84,40.82],[89.34,41.34],[89.05,41.23],[88.78,41.37],[88.16,40.89],[87.64,41.41],[86.78,41.31],[86.5,41.45],[86.52,41.7],[86.81,41.82],[87.09,41.68],[87.39,41.8],[87.41,42.05],[87.13,42.18],[86.83,42.07],[86.55,42.2],[85.94,41.71],[85.66,41.84],[85.36,41.72],[84.8,42.24]]],[[[142.5,47.93],[143.13,48.39],[143.16,48.62],[142.58,48.63],[142.07,49.1],[141.77,48.98],[141.74,48.75],[142.26,48.28],[142.23,48.05],[141.62,47.59],[141.6,47.36],[141.86,47.24],[141.52,46.66],[142.26,45.83],[142.54,45.94],[142.57,46.17],[142.31,46.3],[142.34,46.53],[143.44,46.5],[143.74,46.61],[143.77,46.85],[142.39,47.0],[142.18,47.59],[142.47,47.7],[142.5,47.93]]],[[[144.87,42.97],[145.12,42.84],[145.73,43.28],[145.77,43.52],[145.3,44.04],[145.34,44.27],[145.09,44.41],[144.8,44.3],[144.76,44.07],[144.47,43.96],[144.0,44.46],[143.17,44.38],[143.14,44.14],[143.68,44.12],[144.15,43.62],[144.44,43.72],[144.69,43.59],[144.66,43.35],[144.37,43.25],[144.12,43.38],[143.31,43.3],[143.28,43.06],[143.0,42.95],[142.98,42.72],[143.22,42.58],[142.89,42.0],[143.41,41.97],[144.06,42.9],[144.87,42.97]]],[[[-5.78,53.4],[-5.74,53.62],[-6.05,53.77],[-6.4,53.69],[-6.17,53.1],[-6.9,52.73],[-7.32,52.2],[-6.03,52.05],[-5.61,52.58],[-5.91,52.73],[-5.87,52.95],[-5.52,53.02],[-5.48,53.25],[-5.78,53.4]]],[[[4.88,36.77],[4.16,37.01],[3.88,36.92],[3.82,36.68],[4.53,36.45],[4.81,36.53],[4.88,36.77]]],[[[121.52,28.43],[121.94,28.42],[121.98,28.63],[121.78,28.74],[121.52,28.43]]],[[[128.46,44.02],[128.25,43.89],[128.33,43.71],[128.83,43.78],[128.46,44.02]]],[[[-15.87,33.34],[-16.13,33.47],[-16.39,33.34],[-16.39,33.09],[-16.13,32.96],[-15.87,33.09],[-15.87,33.34]]],[[[-79.66,32.96],[-80.09,33.01],[-80.12,32.78],[-79.91,32.64],[-79.69,32.73],[-79.66,32.96]]],[[[129.12,34.54],[129.57,34.51],[129.61,34.7],[129.41,34.81],[129.12,34.54]]],[[[-15.9,28.77],[-16.14,28.9],[-16.39,28.77],[-16.39,28.51],[-17.14,28.38],[-17.64,28.87],[-17.65,29.13],[-17.9,29.25],[-18.15,29.12],[-18.14,28.86],[-17.38,27.99],[-16.15,28.14],[-15.9,28.77]]],[[[108.38,40.9],[108.55,40.74],[108.92,41.02],[108.48,41.12],[108.38,40.9]]],[[[1.35,39.2],[1.07,39.11],[1.02,38.87],[1.41,38.35],[2.02,38.76],[2.07,39.0],[1.68,39.53],[1.4,39.44],[1.35,39.2]]],[[[38.33,66.27],[38.09,66.06],[38.38,65.88],[38.9,65.92],[39.14,66.13],[38.86,66.3],[38.33,66.27]]],[[[10.18,37.51],[9.36,37.53],[8.91,36.98],[9.13,36.81],[9.8,37.19],[10.15,36.61],[10.45,36.68],[10.39,37.34],[10.18,37.51]]],[[[119.93,27.77],[119.12,27.97],[119.09,27.76],[118.87,27.71],[119.02,27.34],[118.73,26.85],[119.13,26.76],[119.93,27.77]]],[[[34.7,32.32],[34.86,32.11],[35.16,32.12],[35.29,32.34],[35.13,32.55],[34.83,32.54],[34.7,32.32]]],[[[142.35,51.63],[141.69,51.61],[141.72,51.4],[142.06,51.3],[141.79,50.75],[142.12,50.65],[142.73,51.1],[142.35,51.63]]],[[[143.34,51.76],[143.01,51.65],[143.03,51.43],[143.69,51.44],[143.68,51.66],[143.34,51.76]]],[[[-93.42,45.21],[-93.42,44.97],[-92.82,44.95],[-92.82,45.19],[-93.11,45.32],[-93.42,45.21]]],[[[33.14,35.1],[33.28,35.33],[33.11,35.54],[32.36,35.29],[32.27,34.62],[32.44,34.41],[32.74,34.43],[32.84,35.09],[33.14,35.1]]],[[[119.13,30.57],[119.1,30.36],[118.87,30.31],[118.46,30.41],[118.77,29.69],[119.51,30.26],[119.36,30.62],[119.13,30.57]]],[[[14.65,36.03],[14.44,36.21],[14.13,36.15],[14.04,35.91],[14.25,35.73],[14.56,35.79],[14.65,36.03]]],[[[147.08,44.65],[147.33,44.51],[147.64,44.61],[148.03,45.19],[147.78,45.33],[147.47,45.23],[147.08,44.65]]],[[[95.32,57.22],[94.98,57.38],[94.57,57.3],[94.5,57.07],[94.84,56.91],[95.24,56.98],[95.32,57.22]]],[[[-16.91,32.32],[-16.65,32.19],[-16.39,32.32],[-16.39,32.58],[-16.92,33.09],[-17.18,32.96],[-16.91,32.32]]],[[[137.57,53.74],[137.62,53.52],[138.32,53.57],[138.27,53.79],[137.9,53.88],[137.57,53.74]]],[[[114.74,-33.82],[114.58,-33.98],[114.7,-34.17],[114.97,-34.2],[115.13,-34.04],[115.01,-33.85],[115.59,-33.56],[115.47,-33.37],[114.78,-33.47],[114.62,-33.63],[114.74,-33.82]]],[[[8.4,37.07],[8.11,37.0],[7.38,37.25],[7.09,37.17],[7.02,36.93],[8.25,36.59],[8.55,36.66],[8.62,36.9],[8.4,37.07]]],[[[148.34,45.28],[148.6,45.14],[148.91,45.24],[148.96,45.48],[148.7,45.62],[148.39,45.52],[148.34,45.28]]],[[[35.8,36.48],[35.96,36.27],[36.27,36.27],[36.39,36.92],[36.22,37.13],[35.47,36.91],[35.33,36.69],[35.49,36.48],[35.8,36.48]]],[[[96.32,55.62],[95.76,56.18],[95.83,56.42],[95.5,56.58],[95.1,56.51],[94.57,55.95],[95.15,55.39],[96.25,55.38],[96.32,55.62]]],[[[131.67,32.49],[132.25,33.05],[131.8,33.08],[131.5,32.8],[131.46,32.61],[131.67,32.49]]],[[[-122.98,45.59],[-122.9,45.38],[-123.14,45.21],[-123.06,45.0],[-122.75,44.96],[-122.35,45.5],[-122.43,45.71],[-122.98,45.59]]],[[[140.68,49.44],[140.92,49.98],[140.59,50.07],[140.03,49.62],[140.06,49.41],[140.68,49.44]]],[[[113.62,29.19],[113.59,28.98],[114.03,28.89],[114.06,29.11],[113.86,29.26],[113.62,29.19]]],[[[110.24,40.69],[110.14,40.48],[110.31,40.32],[111.58,39.99],[111.84,40.03],[111.89,40.61],[112.26,40.87],[112.1,41.03],[111.47,40.73],[111.04,40.84],[110.67,40.58],[110.24,40.69]]],[[[-17.87,27.73],[-17.88,27.98],[-18.13,28.1],[-18.37,27.97],[-18.37,27.72],[-18.12,27.6],[-17.87,27.73]]],[[[46.58,61.21],[47.06,61.21],[47.33,61.42],[47.12,61.62],[46.64,61.62],[46.42,61.82],[45.93,61.82],[45.67,61.62],[46.58,61.21]]],[[[115.69,-32.52],[115.5,-33.02],[115.89,-33.23],[116.13,-32.05],[115.75,-31.85],[115.6,-32.0],[115.69,-32.52]]],[[[142.09,49.33],[142.4,49.44],[142.42,49.67],[141.85,49.67],[141.82,49.44],[142.09,49.33]]],[[[-70.26,47.84],[-70.63,47.79],[-70.76,47.56],[-70.42,46.96],[-70.06,47.0],[-69.92,47.23],[-70.16,47.42],[-70.02,47.65],[-69.66,47.69],[-69.52,47.92],[-69.76,48.11],[-70.13,48.07],[-70.26,47.84]]],[[[40.74,66.22],[39.71,65.77],[39.98,65.6],[41.29,65.86],[41.56,66.06],[41.28,66.24],[40.74,66.22]]],[[[-14.42,28.53],[-14.18,28.4],[-13.93,28.52],[-13.66,29.15],[-13.9,29.28],[-14.16,29.15],[-14.42,28.53]]],[[[11.86,36.78],[12.07,36.61],[12.37,36.67],[12.46,36.91],[12.25,37.09],[11.94,37.02],[11.86,36.78]]],[[[130.19,45.05],[129.66,44.98],[130.04,44.74],[130.27,44.86],[130.19,45.05]]],[[[142.14,50.44],[141.83,50.33],[141.85,50.11],[142.48,50.13],[142.46,50.34],[142.14,50.44]]],[[[130.9,37.65],[130.7,37.53],[130.93,37.21],[131.12,37.54],[130.9,37.65]]],[[[136.12,55.12],[136.06,55.35],[135.66,55.43],[135.08,54.93],[135.15,54.7],[135.54,54.62],[136.12,55.12]]],[[[106.83,41.98],[106.92,42.2],[106.73,42.37],[106.45,42.31],[106.35,42.08],[106.83,41.98]]],[[[129.23,44.72],[128.88,44.28],[129.26,44.04],[129.61,44.48],[129.23,44.72]]],[[[140.23,50.37],[140.86,50.4],[140.84,50.61],[140.5,50.71],[140.2,50.59],[140.23,50.37]]],[[[-15.16,28.15],[-15.16,28.4],[-15.4,28.52],[-15.65,28.4],[-15.9,27.76],[-15.66,27.64],[-15.16,28.15]]],[[[137.07,55.77],[136.33,55.72],[136.39,55.49],[136.79,55.4],[137.13,55.54],[137.07,55.77]]],[[[132.55,33.32],[132.84,33.6],[132.39,33.63],[132.34,33.44],[132.55,33.32]]],[[[34.4,36.67],[33.65,36.43],[33.51,36.21],[33.68,35.99],[33.99,36.0],[34.13,36.23],[34.88,36.46],[35.02,36.68],[34.85,36.89],[34.54,36.89],[34.4,36.67]]],[[[33.28,66.42],[34.1,66.31],[34.3,66.52],[33.99,66.68],[33.48,66.63],[33.28,66.42]]],[[[-65.71,44.92],[-66.34,44.45],[-66.13,44.26],[-65.31,44.54],[-65.16,44.75],[-65.36,44.95],[-65.71,44.92]]],[[[-123.61,46.46],[-123.93,46.5],[-124.16,46.34],[-124.08,46.13],[-123.53,46.26],[-123.61,46.46]]],[[[-66.08,43.86],[-66.22,43.64],[-66.02,43.46],[-65.69,43.49],[-65.55,43.7],[-65.74,43.89],[-66.08,43.86]]],[[[34.19,35.36],[34.02,35.57],[33.72,35.56],[33.58,35.34],[33.75,35.13],[34.06,35.14],[34.19,35.36]]],[[[10.83,36.99],[11.04,36.82],[11.34,36.89],[11.43,37.13],[11.21,37.3],[10.91,37.23],[10.83,36.99]]],[[[118.04,27.9],[117.63,28.0],[117.59,27.78],[117.79,27.63],[118.01,27.69],[118.04,27.9]]],[[[142.91,48.97],[143.22,49.09],[143.25,49.32],[142.67,49.32],[142.64,49.09],[142.91,48.97]]],[[[105.5,41.9],[105.22,41.83],[105.13,41.61],[105.33,41.45],[105.61,41.51],[105.7,41.74],[105.5,41.9]]],[[[133.17,32.97],[132.71,33.01],[132.67,32.81],[132.88,32.69],[133.17,32.97]]],[[[114.23,28.74],[114.39,28.37],[114.63,28.43],[114.93,28.93],[114.49,29.02],[114.46,28.8],[114.23,28.74]]],[[[114.99,29.36],[114.83,29.72],[114.59,29.66],[114.56,29.45],[114.99,29.36]]],[[[143.72,50.79],[143.4,50.68],[143.41,50.47],[144.01,50.46],[144.04,50.69],[143.72,50.79]]],[[[132.08,34.89],[131.87,35.0],[131.69,34.67],[132.09,34.67],[132.08,34.89]]],[[[82.14,43.64],[82.14,43.38],[82.45,43.26],[82.75,43.39],[82.75,43.64],[82.44,43.77],[82.14,43.64]]],[[[120.71,28.66],[120.52,28.76],[120.25,28.45],[120.67,28.45],[120.71,28.66]]]]}}]}