{"type":"FeatureCollection","features":[{"type":"Feature","properties":{},"geometry":{"type":"MultiPolygon","coordinates":[[[[15.67,39.32],[15.57,39.08],[15.26,39.02],[15.16,38.79],[14.85,38.73],[14.63,38.9],[14.32,38.84],[14.23,38.61],[14.44,38.43],[14.35,38.19],[14.04,38.13],[13.82,38.31],[13.52,38.24],[13.3,38.42],[13.39,38.66],[13.17,38.83],[12.86,38.77],[12.77,38.53],[12.46,38.46],[12.38,38.22],[12.07,38.16],[11.98,37.92],[12.2,37.74],[12.12,37.5],[12.33,37.33],[12.64,37.4],[12.85,37.22],[13.15,37.28],[13.37,37.11],[13.67,37.17],[13.89,36.99],[14.19,37.05],[14.41,36.87],[14.32,36.63],[14.53,36.45],[14.83,36.51],[15.04,36.33],[15.35,36.39],[15.44,36.63],[15.23,36.81],[15.33,37.05],[15.63,37.11],[15.73,37.35],[15.52,37.53],[15.61,37.77],[15.93,37.83],[16.14,37.64],[16.45,37.7],[16.55,37.94],[16.86,37.99],[16.96,38.23],[16.75,38.41],[16.85,38.65],[17.17,38.71],[17.27,38.94],[17.58,39.0],[17.69,39.23],[17.47,39.41],[17.58,39.65],[17.36,39.83],[17.04,39.78],[16.83,39.96],[16.93,40.19],[17.25,40.25],[17.47,40.07],[17.79,40.12],[18.0,39.94],[17.9,39.7],[18.11,39.52],[18.43,39.57],[18.54,39.8],[18.86,39.85],[19.07,39.67],[19.4,39.72],[19.61,39.53],[19.5,39.3],[19.71,39.11],[20.03,39.15],[20.24,38.97],[20.13,38.73],[20.34,38.54],[20.23,38.31],[19.91,38.26],[19.8,38.02],[20.01,37.84],[20.33,37.88],[20.53,37.69],[20.42,37.45],[20.63,37.26],[20.94,37.31],[21.15,37.11],[21.04,36.88],[21.24,36.68],[21.55,36.73],[21.75,36.53],[22.07,36.57],[22.27,36.38],[22.16,36.14],[22.35,35.95],[22.67,35.99],[22.86,35.79],[23.18,35.83],[23.37,35.63],[23.26,35.39],[23.45,35.2],[23.34,34.96],[23.53,34.76],[23.84,34.8],[24.04,34.6],[24.34,34.63],[24.46,34.87],[24.77,34.9],[24.96,34.7],[25.27,34.74],[25.46,34.53],[25.77,34.57],[25.89,34.8],[26.2,34.83],[26.32,35.07],[26.63,35.09],[26.75,35.33],[27.06,35.36],[27.24,35.15],[27.55,35.18],[27.68,35.41],[27.49,35.62],[27.62,35.85],[27.93,35.87],[28.11,35.67],[28.42,35.69],[28.55,35.92],[28.37,36.13],[28.49,36.36],[28.81,36.38],[28.99,36.18],[29.3,36.2],[29.49,35.99],[29.8,36.01],[29.98,35.81],[30.29,35.83],[30.42,36.05],[30.73,36.07],[30.86,36.3],[30.68,36.51],[30.81,36.73],[31.12,36.75],[31.3,36.54],[31.62,36.56],[31.79,36.35],[32.1,36.36],[32.28,36.15],[32.14,35.93],[32.32,35.72],[32.63,35.73],[32.76,35.96],[33.07,35.97],[33.24,35.76],[33.11,35.54],[32.8,35.52],[32.67,35.3],[32.36,35.29],[32.23,35.06],[31.92,35.04],[31.79,34.82],[31.96,34.61],[32.27,34.62],[32.44,34.41],[32.74,34.43],[32.91,34.22],[33.21,34.23],[33.35,34.46],[33.65,34.47],[33.79,34.69],[34.09,34.7],[34.22,34.93],[34.06,35.14],[34.19,35.36],[34.5,35.37],[34.63,35.59],[34.47,35.8],[34.16,35.79],[34.02,35.57],[33.72,35.56],[33.55,35.77],[33.68,35.99],[33.99,36.0],[34.13,36.23],[34.43,36.23],[34.57,36.45],[34.88,36.46],[35.05,36.25],[35.35,36.26],[35.49,36.48],[35.8,36.48],[35.96,36.27],[35.82,36.05],[35.52,36.04],[35.38,35.83],[35.54,35.61],[35.85,35.62],[35.99,35.84],[36.29,35.84],[36.43,36.06],[36.27,36.27],[36.41,36.49],[36.24,36.7],[36.39,36.92],[36.22,37.13],[35.92,37.13],[35.77,36.91],[35.47,36.91],[35.33,36.69],[35.02,36.68],[34.85,36.89],[34.54,36.89],[34.4,36.67],[34.1,36.66],[33.96,36.44],[33.65,36.43],[33.51,36.21],[33.2,36.19],[33.03,36.4],[32.72,36.39],[32.55,36.6],[32.24,36.59],[32.06,36.8],[31.75,36.78],[31.57,36.99],[31.71,37.21],[31.53,37.42],[31.21,37.41],[31.03,37.61],[31.16,37.84],[31.48,37.85],[31.62,38.08],[31.93,38.09],[32.07,38.31],[32.39,38.32],[32.52,38.54],[32.34,38.75],[32.48,38.97],[32.8,38.98],[32.94,39.2],[32.76,39.41],[32.9,39.63],[32.72,39.83],[32.86,40.05],[33.18,40.06],[33.32,40.28],[33.14,40.48],[33.29,40.7],[33.61,40.71],[33.75,40.92],[33.57,41.13],[33.72,41.34],[34.04,41.35],[34.22,41.14],[34.55,41.15],[34.69,41.36],[35.02,41.36],[35.16,41.57],[35.49,41.57],[35.66,41.36],[35.98,41.36],[36.16,41.16],[36.48,41.16],[36.63,41.36],[36.95,41.36],[37.12,41.15],[37.44,41.15],[37.6,40.94],[37.92,40.93],[38.09,40.72],[38.4,40.72],[38.55,40.92],[38.87,40.92],[39.02,41.12],[38.86,41.33],[38.54,41.34],[38.39,41.13],[38.07,41.14],[37.9,41.35],[37.59,41.35],[37.42,41.56],[37.1,41.57],[36.93,41.78],[36.6,41.78],[36.43,41.99],[36.11,41.99],[35.96,41.78],[35.64,41.78],[35.46,41.99],[35.61,42.2],[35.43,42.4],[35.1,42.4],[34.96,42.19],[34.63,42.19],[34.48,41.98],[34.15,41.98],[33.97,42.18],[33.64,42.18],[33.46,42.38],[33.13,42.38],[32.99,42.16],[32.66,42.15],[32.51,41.94],[32.18,41.93],[32.04,41.72],[31.71,41.71],[31.57,41.49],[31.24,41.48],[31.1,41.26],[30.77,41.24],[30.58,41.45],[30.26,41.43],[30.12,41.21],[29.79,41.2],[29.6,41.4],[29.27,41.38],[29.07,41.58],[28.74,41.56],[28.54,41.76],[28.68,41.98],[28.48,42.18],[28.15,42.15],[27.95,42.35],[28.08,42.57],[27.88,42.77],[28.02,42.99],[28.36,43.01],[28.49,43.23],[28.83,43.25],[28.97,43.46],[28.77,43.66],[28.91,43.88],[28.71,44.07],[28.85,44.29],[29.19,44.3],[29.33,44.52],[29.67,44.53],[29.87,44.34],[30.21,44.35],[30.41,44.16],[30.75,44.17],[30.89,44.38],[30.7,44.58],[30.84,44.79],[31.18,44.8],[31.33,45.01],[31.13,45.21],[30.79,45.2],[30.59,45.39],[30.73,45.6],[30.53,45.8],[30.68,46.0],[31.03,46.02],[31.18,46.22],[31.52,46.23],[31.72,46.04],[32.07,46.04],[32.26,45.85],[32.11,45.64],[32.31,45.44],[32.16,45.24],[32.35,45.04],[32.7,45.05],[32.89,44.85],[32.74,44.64],[32.93,44.44],[33.27,44.44],[33.46,44.24],[33.79,44.25],[33.98,44.04],[34.31,44.05],[34.46,44.25],[34.8,44.25],[34.95,44.46],[35.29,44.46],[35.44,44.66],[35.78,44.66],[35.93,44.86],[36.27,44.86],[36.42,45.06],[36.76,45.05],[36.93,44.85],[37.27,44.84],[37.44,44.64],[37.78,44.63],[37.95,44.42],[37.79,44.23],[37.96,44.02],[38.29,44.01],[38.45,44.21],[38.78,44.2],[38.95,43.99],[38.79,43.79],[38.96,43.58],[39.28,43.57],[39.45,43.37],[39.77,43.35],[39.93,43.14],[40.25,43.13],[40.41,42.92],[40.73,42.91],[40.89,42.7],[41.21,42.68],[41.36,42.47],[41.21,42.27],[41.36,42.06],[41.21,41.87],[41.36,41.65],[41.21,41.46],[40.9,41.47],[40.74,41.27],[40.43,41.28],[40.27,41.08],[39.96,41.09],[39.8,41.3],[39.49,41.31],[39.33,41.11],[39.5,40.9],[39.81,40.89],[39.97,40.68],[40.28,40.67],[40.43,40.87],[40.74,40.86],[40.9,41.06],[41.21,41.04],[41.36,41.24],[41.67,41.23],[41.83,41.43],[42.14,41.41],[42.29,41.61],[42.6,41.59],[42.76,41.78],[43.06,41.77],[43.22,41.97],[43.53,41.95],[43.69,42.15],[43.54,42.37],[43.7,42.57],[43.55,42.78],[43.23,42.8],[43.08,43.01],[42.77,43.02],[42.61,42.82],[42.3,42.83],[42.15,43.04],[41.84,43.05],[41.68,43.26],[41.37,43.28],[41.21,43.49],[41.37,43.69],[41.68,43.68],[41.84,43.47],[42.15,43.46],[42.31,43.66],[42.62,43.65],[42.78,43.44],[43.09,43.43],[43.24,43.21],[43.56,43.2],[43.71,42.99],[44.02,42.97],[44.19,43.17],[44.5,43.16],[44.67,43.36],[44.99,43.34],[45.16,43.54],[45.01,43.76],[44.69,43.78],[44.54,43.99],[44.22,44.01],[44.06,44.23],[44.23,44.43],[44.08,44.65],[43.75,44.66],[43.6,44.87],[43.77,45.08],[43.61,45.29],[43.78,45.5],[43.62,45.71],[43.79,45.92],[43.63,46.13],[43.8,46.34],[43.64,46.55],[43.82,46.76],[44.15,46.75],[44.33,46.96],[44.17,47.17],[44.35,47.38],[44.19,47.59],[44.37,47.8],[44.71,47.79],[44.9,48.0],[44.73,48.22],[44.92,48.42],[44.76,48.64],[44.94,48.85],[45.3,48.84],[45.49,49.04],[45.32,49.26],[45.52,49.47],[45.88,49.46],[46.08,49.66],[45.91,49.88],[46.11,50.09],[46.48,50.08],[46.68,50.28],[47.05,50.27],[47.25,50.47],[47.63,50.46],[47.84,50.66],[48.21,50.65],[48.43,50.85],[48.27,51.07],[48.48,51.28],[48.86,51.26],[49.08,51.46],[49.47,51.44],[49.69,51.65],[50.08,51.63],[50.31,51.83],[50.7,51.8],[50.93,52.01],[51.32,51.98],[51.56,52.18],[51.95,52.15],[52.2,52.35],[52.59,52.32],[52.84,52.52],[53.24,52.49],[53.49,52.69],[53.89,52.65],[54.14,52.85],[54.55,52.81],[54.81,53.01],[54.66,53.24],[54.93,53.44],[55.34,53.4],[55.48,53.17],[55.88,53.12],[56.15,53.32],[56.01,53.55],[56.29,53.75],[56.15,53.98],[56.42,54.17],[56.84,54.13],[57.12,54.32],[56.98,54.56],[57.27,54.75],[57.13,54.98],[56.71,55.02],[56.57,55.26],[56.86,55.45],[56.72,55.68],[57.01,55.87],[56.87,56.1],[57.16,56.29],[57.02,56.53],[57.31,56.72],[57.76,56.67],[58.06,56.86],[57.92,57.09],[58.23,57.28],[58.09,57.51],[58.4,57.7],[58.26,57.93],[57.8,57.97],[57.66,58.2],[57.97,58.39],[57.83,58.62],[57.37,58.66],[57.22,58.89],[57.53,59.08],[57.38,59.31],[56.91,59.35],[56.76,59.57],[57.08,59.76],[56.92,59.98],[57.25,60.17],[57.09,60.4],[56.61,60.43],[56.45,60.66],[55.96,60.69],[55.64,60.5],[55.16,60.54],[54.99,60.76],[54.51,60.79],[54.2,60.59],[53.71,60.62],[53.54,60.84],[53.05,60.86],[52.75,60.67],[52.27,60.69],[51.97,60.49],[51.49,60.51],[51.3,60.73],[50.82,60.74],[50.63,60.95],[50.15,60.97],[49.86,60.77],[49.39,60.78],[49.11,60.58],[48.63,60.58],[48.43,60.79],[47.96,60.8],[47.69,60.6],[47.22,60.6],[46.95,60.39],[46.49,60.4],[46.23,60.19],[45.77,60.19],[45.56,60.39],[45.09,60.39],[44.85,60.18],[44.39,60.17],[44.15,59.97],[43.69,59.96],[43.47,60.16],[43.02,60.15],[42.79,59.94],[42.34,59.92],[42.12,60.12],[41.67,60.1],[41.44,60.3],[40.99,60.28],[40.76,60.47],[40.31,60.45],[40.07,60.64],[39.62,60.62],[39.38,60.81],[39.59,61.02],[39.35,61.21],[38.9,61.18],[38.65,61.37],[38.2,61.34],[37.95,61.52],[38.15,61.74],[37.9,61.92],[38.11,62.13],[37.85,62.32],[38.06,62.53],[37.8,62.71],[37.33,62.68],[37.07,62.86],[37.27,63.07],[37.01,63.25],[36.54,63.21],[36.27,63.39],[36.47,63.6],[36.95,63.64],[37.15,63.85],[36.88,64.02],[37.09,64.24],[37.58,64.27],[37.85,64.1],[37.64,63.88],[37.91,63.71],[38.39,63.74],[38.61,63.95],[38.34,64.13],[38.57,64.34],[38.3,64.52],[37.8,64.48],[37.52,64.66],[37.03,64.62],[36.82,64.41],[36.33,64.37],[36.05,64.54],[35.56,64.5],[35.27,64.67],[35.48,64.89],[35.97,64.93],[36.25,64.76],[36.75,64.8],[36.96,65.01],[37.46,65.04],[37.69,65.26],[37.4,65.43],[36.9,65.39],[36.68,65.18],[36.18,65.14],[35.89,65.31],[35.39,65.27],[35.1,65.44],[35.3,65.65],[35.01,65.81],[35.21,66.03],[34.91,66.19],[34.4,66.14],[34.2,65.93],[34.5,65.77],[34.3,65.56],[34.6,65.39],[34.4,65.18],[33.91,65.13],[33.62,65.29],[33.13,65.25],[32.83,65.41],[32.34,65.36],[32.17,65.14],[31.69,65.09],[31.38,65.25],[30.91,65.19],[30.6,65.35],[30.13,65.29],[29.97,65.07],[29.51,65.01],[29.2,65.17],[28.74,65.1],[28.43,65.25],[28.57,65.47],[28.25,65.62],[27.79,65.55],[27.47,65.7],[27.61,65.92],[27.29,66.06],[26.82,65.99],[26.5,66.14],[26.04,66.07],[25.71,66.21],[25.83,66.42],[25.5,66.56],[25.04,66.49],[24.7,66.62],[24.24,66.55],[23.9,66.68],[23.45,66.6],[23.11,66.74],[22.66,66.66],[22.56,66.44],[22.12,66.36],[21.78,66.49],[21.34,66.41],[21.0,66.54],[20.57,66.45],[20.49,66.24],[20.83,66.11],[20.75,65.9],[20.33,65.81],[20.25,65.6],[20.58,65.47],[20.51,65.26],[20.1,65.17],[19.77,65.3],[19.37,65.21],[19.03,65.34],[18.64,65.25],[18.57,65.04],[18.18,64.95],[17.85,65.07],[17.47,64.98],[17.42,64.77],[17.74,64.65],[17.69,64.44],[17.31,64.35],[16.99,64.47],[17.04,64.68],[16.71,64.8],[16.34,64.71],[16.29,64.5],[15.93,64.4],[15.6,64.52],[15.24,64.43],[14.91,64.54],[14.55,64.44],[14.53,64.24],[14.85,64.12],[14.82,63.91],[14.47,63.82],[14.15,63.93],[13.81,63.84],[13.49,63.95],[13.15,63.85],[12.82,63.96],[12.84,64.17],[13.18,64.27],[13.2,64.47],[12.87,64.58],[12.88,64.79],[12.55,64.9],[12.56,65.11],[12.91,65.21],[12.93,65.41],[12.46,65.48],[12.34,65.65],[12.7,65.76],[12.58,65.93],[12.95,66.03],[12.83,66.2],[13.2,66.31],[13.08,66.48],[13.46,66.59],[13.35,66.76],[13.73,66.87],[13.62,67.04],[13.11,67.12],[12.72,67.01],[12.84,66.83],[12.46,66.73],[12.59,66.55],[12.21,66.45],[12.34,66.27],[11.97,66.17],[12.1,66.0],[11.74,65.89],[11.86,65.72],[11.51,65.62],[11.64,65.45],[11.29,65.34],[11.42,65.18],[11.08,65.07],[10.61,65.14],[10.28,65.03],[10.41,64.87],[10.13,64.7],[10.41,64.53],[10.29,64.37],[9.88,64.36],[9.77,64.2],[9.36,64.19],[9.24,64.02],[8.84,64.01],[8.54,64.18],[8.13,64.17],[8.02,64.0],[8.32,63.83],[8.2,63.66],[7.8,63.65],[7.69,63.48],[7.29,63.47],[7.18,63.29],[6.77,63.28],[6.67,63.1],[6.27,63.08],[6.16,62.91],[5.76,62.89],[5.66,62.71],[5.26,62.69],[5.16,62.51],[4.76,62.49],[4.67,62.31],[4.97,62.14],[4.87,61.96],[4.48,61.94],[4.39,61.75],[4.69,61.59],[4.59,61.41],[4.2,61.38],[4.11,61.2],[4.41,61.04],[4.32,60.85],[4.62,60.69],[4.53,60.5],[4.82,60.34],[4.73,60.15],[5.02,59.98],[4.93,59.79],[4.55,59.77],[4.46,59.58],[4.75,59.41],[4.66,59.22],[4.94,59.06],[4.85,58.86],[5.13,58.7],[5.05,58.51],[5.32,58.34],[5.68,58.37],[5.95,58.2],[6.31,58.23],[6.58,58.06],[6.49,57.87],[6.78,57.76],[7.16,57.84],[7.45,57.72],[7.84,57.8],[7.93,57.99],[8.32,58.07],[8.61,57.95],[9.0,58.03],[9.1,58.22],[9.5,58.29],[9.6,58.48],[9.31,58.6],[9.41,58.79],[9.81,58.86],[10.11,58.74],[10.51,58.81],[10.8,58.69],[10.69,58.5],[10.98,58.38],[10.87,58.19],[11.16,58.06],[11.05,57.87],[10.65,57.8],[10.36,57.93],[9.97,57.86],[9.87,57.67],[9.48,57.59],[9.37,57.4],[8.99,57.33],[8.7,57.45],[8.31,57.37],[8.22,57.18],[7.84,57.1],[7.74,56.9],[8.02,56.79],[7.93,56.59],[7.55,56.51],[7.46,56.31],[7.74,56.19],[7.65,55.99],[7.93,55.87],[7.83,55.67],[7.46,55.59],[7.37,55.39],[7.65,55.27],[8.02,55.35],[8.29,55.23],[8.2,55.02],[7.83,54.95],[7.74,54.74],[8.02,54.62],[7.92,54.41],[7.56,54.34],[7.47,54.13],[7.11,54.05],[7.02,53.84],[6.66,53.76],[6.39,53.89],[6.04,53.81],[5.95,53.6],[5.6,53.51],[5.33,53.64],[4.98,53.55],[4.9,53.34],[4.56,53.26],[4.48,53.05],[4.15,53.01],[4.07,52.8],[4.33,52.63],[4.25,52.42],[3.93,52.38],[3.85,52.16],[3.53,52.12],[3.45,51.91],[3.13,51.86],[2.88,52.02],[2.95,52.24],[2.69,52.4],[2.76,52.61],[2.5,52.78],[2.17,52.73],[1.91,52.89],[1.98,53.11],[1.71,53.27],[1.37,53.22],[1.1,53.38],[1.17,53.6],[0.9,53.76],[0.56,53.71],[0.28,53.87],[0.34,54.08],[0.06,54.24],[0.13,54.45],[-0.16,54.61],[-0.51,54.56],[-0.79,54.72],[-0.73,54.93],[-1.02,55.09],[-0.96,55.3],[-1.25,55.46],[-1.19,55.67],[-1.49,55.82],[-1.43,56.03],[-1.73,56.19],[-2.09,56.13],[-2.4,56.29],[-2.34,56.5],[-1.98,56.55],[-1.92,56.76],[-1.55,56.81],[-1.49,57.02],[-1.8,57.18],[-1.74,57.38],[-1.37,57.43],[-1.3,57.64],[-1.61,57.79],[-1.99,57.74],[-2.3,57.9],[-2.68,57.84],[-3.0,58.0],[-2.94,58.2],[-2.56,58.25],[-2.5,58.46],[-2.82,58.61],[-2.76,58.81],[-2.38,58.87],[-2.32,59.07],[-1.94,59.12],[-1.87,59.32],[-1.49,59.37],[-1.42,59.57],[-1.03,59.61],[-0.97,59.81],[-0.58,59.85],[-0.51,60.05],[-0.83,60.2],[-0.76,60.4],[-0.37,60.44],[-0.3,60.64],[-0.62,60.79],[-0.55,60.99],[-0.88,61.14],[-1.28,61.1],[-1.35,60.9],[-1.75,60.86],[-1.82,60.66],[-2.21,60.61],[-2.28,60.42],[-2.67,60.37],[-2.74,60.17],[-2.4,60.02],[-2.01,60.07],[-1.68,59.92],[-1.75,59.72],[-2.14,59.67],[-2.2,59.47],[-2.59,59.42],[-2.92,59.57],[-3.31,59.52],[-3.36,59.32],[-3.75,59.26],[-4.09,59.41],[-4.48,59.36],[-4.53,59.15],[-4.19,59.0],[-3.81,59.06],[-3.48,58.91],[-3.53,58.71],[-3.91,58.65],[-4.25,58.8],[-4.63,58.74],[-4.97,58.89],[-5.35,58.83],[-5.4,58.62],[-5.79,58.56],[-6.13,58.71],[-6.51,58.64],[-6.56,58.43],[-6.94,58.37],[-7.28,58.51],[-7.67,58.44],[-7.71,58.23],[-7.36,58.09],[-7.4,57.88],[-7.78,57.81],[-7.82,57.6],[-7.48,57.46],[-7.52,57.25],[-7.89,57.17],[-7.93,56.96],[-8.3,56.89],[-8.34,56.67],[-8.0,56.53],[-7.63,56.6],[-7.3,56.46],[-7.33,56.25],[-7.01,56.1],[-7.04,55.89],[-6.72,55.74],[-6.76,55.52],[-7.12,55.45],[-7.45,55.6],[-7.81,55.52],[-8.14,55.67],[-8.5,55.59],[-8.54,55.37],[-8.9,55.29],[-8.93,55.07],[-9.29,54.99],[-9.32,54.77],[-8.99,54.63],[-9.02,54.41],[-9.38,54.33],[-9.71,54.47],[-10.06,54.38],[-10.39,54.52],[-10.75,54.44],[-10.77,54.21],[-10.44,54.08],[-10.47,53.85],[-10.82,53.76],[-10.84,53.54],[-10.51,53.4],[-10.54,53.17],[-10.21,53.03],[-10.24,52.81],[-10.58,52.72],[-10.61,52.49],[-10.95,52.4],[-10.97,52.17],[-10.65,52.03],[-10.67,51.8],[-10.36,51.66],[-10.38,51.43],[-10.07,51.29],[-9.73,51.38],[-9.42,51.24],[-9.08,51.32],[-8.77,51.18],[-8.43,51.27],[-8.4,51.49],[-8.07,51.58],[-8.03,51.81],[-7.69,51.89],[-7.39,51.74],[-7.05,51.82],[-7.01,52.05],[-6.67,52.13],[-6.37,51.98],[-6.03,52.05],[-5.99,52.28],[-5.65,52.35],[-5.61,52.58],[-5.91,52.73],[-5.87,52.95],[-5.52,53.02],[-5.48,53.25],[-5.78,53.4],[-5.74,53.62],[-6.05,53.77],[-6.01,53.99],[-5.66,54.06],[-5.62,54.28],[-5.26,54.35],[-4.95,54.2],[-5.0,53.98],[-4.7,53.83],[-4.74,53.61],[-5.09,53.54],[-5.13,53.32],[-4.83,53.17],[-4.88,52.94],[-5.22,52.87],[-5.26,52.65],[-4.97,52.5],[-5.01,52.28],[-5.35,52.2],[-5.39,51.98],[-5.73,51.9],[-5.77,51.68],[-5.48,51.53],[-5.14,51.6],[-4.85,51.45],[-4.89,51.22],[-4.6,51.07],[-4.64,50.84],[-4.98,50.77],[-5.27,50.92],[-5.6,50.85],[-5.64,50.62],[-5.97,50.54],[-6.01,50.31],[-6.34,50.23],[-6.38,50.0],[-6.7,49.92],[-6.74,49.69],[-6.45,49.54],[-6.12,49.62],[-6.09,49.85],[-5.76,49.93],[-5.47,49.78],[-5.51,49.55],[-5.23,49.4],[-5.27,49.17],[-5.59,49.09],[-5.63,48.86],[-5.35,48.7],[-5.39,48.47],[-5.71,48.39],[-5.75,48.16],[-5.47,48.01],[-5.51,47.77],[-5.23,47.62],[-5.27,47.39],[-4.99,47.23],[-4.68,47.31],[-4.41,47.16],[-4.1,47.24],[-3.83,47.08],[-3.52,47.16],[-3.25,47.0],[-2.94,47.08],[-2.68,46.92],[-2.73,46.69],[-2.47,46.53],[-2.16,46.61],[-1.91,46.45],[-1.96,46.22],[-1.7,46.06],[-1.75,45.83],[-1.5,45.67],[-1.55,45.44],[-1.3,45.28],[-1.35,45.05],[-1.65,44.97],[-1.7,44.74],[-1.45,44.58],[-1.5,44.35],[-1.8,44.27],[-1.85,44.04],[-1.6,43.88],[-1.65,43.64],[-1.94,43.57],[-2.19,43.72],[-2.48,43.64],[-2.73,43.8],[-3.02,43.72],[-3.28,43.88],[-3.57,43.79],[-3.82,43.95],[-4.12,43.86],[-4.16,43.63],[-4.46,43.54],[-4.72,43.69],[-5.01,43.61],[-5.27,43.76],[-5.57,43.67],[-5.83,43.82],[-6.13,43.73],[-6.39,43.88],[-6.69,43.79],[-6.96,43.94],[-7.26,43.85],[-7.53,44.0],[-7.83,43.9],[-8.1,44.05],[-8.4,43.95],[-8.43,43.71],[-8.73,43.61],[-9.0,43.76],[-9.3,43.66],[-9.33,43.42],[-9.63,43.32],[-9.65,43.07],[-9.38,42.93],[-9.4,42.68],[-9.13,42.54],[-9.15,42.29],[-8.88,42.14],[-8.91,41.9],[-9.2,41.8],[-9.22,41.55],[-8.96,41.41],[-8.98,41.16],[-8.72,41.01],[-8.74,40.77],[-9.03,40.67],[-9.06,40.42],[-9.34,40.31],[-9.36,40.07],[-9.1,39.92],[-9.13,39.67],[-9.41,39.57],[-9.67,39.71],[-9.96,39.61],[-9.98,39.36],[-9.72,39.21],[-9.74,38.97],[-9.48,38.82],[-9.5,38.57],[-9.24,38.43],[-9.26,38.18],[-9.01,38.04],[-9.03,37.79],[-9.31,37.68],[-9.33,37.43],[-9.08,37.29],[-9.1,37.04],[-8.85,36.9],[-8.58,37.01],[-8.33,36.86],[-8.05,36.97],[-7.81,36.82],[-7.53,36.93],[-7.29,36.78],[-7.02,36.88],[-6.77,36.74],[-6.8,36.49],[-6.56,36.35],[-6.59,36.1],[-6.35,35.95],[-6.38,35.71],[-6.15,35.56],[-6.18,35.32],[-6.44,35.21],[-6.47,34.97],[-6.24,34.82],[-5.97,34.92],[-5.94,35.17],[-5.68,35.27],[-5.64,35.52],[-5.38,35.62],[-5.14,35.47],[-5.18,35.22],[-4.95,35.08],[-4.68,35.18],[-4.65,35.42],[-4.88,35.57],[-4.84,35.81],[-5.08,35.96],[-5.04,36.2],[-4.77,36.3],[-4.54,36.15],[-4.27,36.25],[-4.24,36.49],[-3.97,36.59],[-3.74,36.44],[-3.47,36.53],[-3.24,36.38],[-2.97,36.47],[-2.75,36.32],[-2.48,36.41],[-2.26,36.26],[-1.99,36.35],[-1.95,36.59],[-1.68,36.68],[-1.64,36.92],[-1.37,37.01],[-1.33,37.25],[-1.06,37.33],[-0.84,37.18],[-0.58,37.26],[-0.53,37.5],[-0.26,37.58],[-0.21,37.82],[-0.43,37.97],[-0.38,38.21],[-0.12,38.29],[-0.07,38.53],[0.2,38.61],[0.25,38.85],[0.03,39.0],[0.08,39.24],[-0.14,39.4],[-0.09,39.63],[0.18,39.71],[0.24,39.95],[0.51,40.02],[0.56,40.26],[0.84,40.34],[0.89,40.57],[1.17,40.66],[1.23,40.9],[1.51,40.99],[1.74,40.85],[2.02,40.94],[2.08,41.17],[2.36,41.26],[2.42,41.49],[2.71,41.58],[2.94,41.44],[3.23,41.53],[3.29,41.76],[3.59,41.85],[3.65,42.08],[3.42,42.23],[3.48,42.46],[3.25,42.6],[3.31,42.84],[3.61,42.93],[3.67,43.16],[3.97,43.25],[4.21,43.1],[4.51,43.19],[4.74,43.04],[5.04,43.13],[5.28,42.98],[5.58,43.06],[5.82,42.92],[6.12,43.0],[6.35,42.85],[6.66,42.93],[6.74,43.16],[7.05,43.24],[7.12,43.48],[7.43,43.56],[7.67,43.4],[7.98,43.48],[8.06,43.71],[8.37,43.79],[8.46,44.02],[8.77,44.1],[9.01,43.94],[9.33,44.02],[9.56,43.86],[9.88,43.94],[10.12,43.78],[10.03,43.55],[9.71,43.47],[9.63,43.24],[9.31,43.17],[9.23,42.94],[8.91,42.86],[8.68,43.02],[8.37,42.94],[8.29,42.71],[8.52,42.55],[8.44,42.32],[8.13,42.24],[8.05,42.01],[8.28,41.85],[8.21,41.61],[8.43,41.46],[8.74,41.53],[8.97,41.37],[8.89,41.14],[8.58,41.06],[8.36,41.22],[8.05,41.14],[7.97,40.91],[7.67,40.83],[7.6,40.59],[7.82,40.44],[8.12,40.51],[8.35,40.35],[8.27,40.12],[7.97,40.04],[7.9,39.8],[8.12,39.64],[8.05,39.4],[7.75,39.33],[7.67,39.09],[7.9,38.93],[8.19,39.0],[8.42,38.84],[8.34,38.6],[8.56,38.44],[8.86,38.51],[8.94,38.75],[9.24,38.82],[9.31,39.06],[9.62,39.14],[9.84,38.97],[10.14,39.04],[10.22,39.28],[10.0,39.45],[10.08,39.68],[9.86,39.85],[9.94,40.09],[10.25,40.16],[10.33,40.4],[10.11,40.56],[10.19,40.8],[9.96,40.96],[10.05,41.2],[9.82,41.36],[9.9,41.59],[9.67,41.76],[9.76,41.99],[10.07,42.06],[10.3,41.9],[10.61,41.97],[10.7,42.21],[11.02,42.28],[11.24,42.11],[11.56,42.18],[11.79,42.02],[11.7,41.78],[11.93,41.62],[12.25,41.68],[12.47,41.52],[12.38,41.28],[12.61,41.11],[12.52,40.88],[12.74,40.71],[13.05,40.77],[13.28,40.6],[13.59,40.67],[13.82,40.49],[14.13,40.55],[14.36,40.38],[14.67,40.44],[14.89,40.27],[14.8,40.03],[15.02,39.85],[15.33,39.91],[15.55,39.73],[15.45,39.5],[15.67,39.32]],[[19.04,62.96],[19.41,63.04],[19.48,63.25],[19.85,63.34],[19.92,63.55],[20.3,63.63],[20.62,63.5],[20.54,63.29],[20.16,63.21],[20.09,62.99],[20.4,62.86],[20.33,62.65],[20.63,62.51],[20.56,62.3],[20.86,62.16],[20.78,61.95],[20.42,61.87],[20.35,61.66],[20.64,61.52],[20.57,61.31],[20.86,61.17],[20.79,60.95],[20.44,60.88],[20.29,60.7],[19.85,60.67],[19.7,60.49],[19.27,60.45],[18.98,60.59],[18.55,60.55],[18.26,60.68],[18.4,60.85],[18.11,60.99],[17.67,60.94],[17.38,61.07],[17.52,61.25],[17.96,61.29],[18.1,61.46],[17.81,61.59],[17.95,61.77],[17.66,61.89],[17.8,62.07],[18.15,62.15],[18.21,62.36],[18.56,62.45],[18.62,62.66],[18.98,62.74],[19.04,62.96]],[[12.52,56.72],[12.41,56.53],[12.02,56.46],[11.74,56.59],[11.85,56.79],[12.24,56.85],[12.52,56.72]],[[24.79,38.43],[25.11,38.47],[25.31,38.27],[25.63,38.3],[25.83,38.1],[26.15,38.13],[26.34,37.93],[26.22,37.7],[25.9,37.67],[25.7,37.87],[25.38,37.84],[25.19,38.04],[24.87,38.0],[24.67,38.2],[24.79,38.43]],[[11.68,57.11],[11.57,56.92],[11.18,56.85],[11.07,56.65],[10.69,56.58],[10.4,56.71],[10.51,56.91],[10.9,56.98],[11.01,57.17],[11.4,57.24],[11.68,57.11]],[[6.62,60.27],[6.99,60.29],[7.09,60.47],[6.81,60.64],[6.91,60.82],[7.29,60.84],[7.39,61.02],[7.77,61.04],[7.87,61.22],[7.6,61.38],[7.7,61.57],[7.42,61.73],[7.03,61.71],[6.93,61.53],[6.54,61.52],[6.25,61.68],[6.35,61.86],[6.74,61.88],[6.84,62.06],[7.24,62.08],[7.34,62.25],[7.05,62.42],[7.16,62.6],[7.55,62.61],[7.84,62.45],[8.23,62.46],[8.34,62.64],[8.73,62.65],[8.84,62.82],[9.23,62.83],[9.35,63.0],[9.78,63.07],[10.1,62.97],[9.99,62.79],[10.3,62.69],[10.74,62.75],[10.86,62.92],[11.3,62.99],[11.42,63.16],[11.86,63.22],[11.99,63.39],[12.43,63.45],[12.75,63.34],[13.2,63.4],[13.52,63.29],[13.39,63.12],[13.7,63.0],[13.57,62.83],[13.12,62.78],[13.0,62.6],[12.56,62.54],[12.43,62.37],[12.74,62.26],[12.61,62.08],[11.44,62.07],[11.13,62.18],[11.25,62.36],[10.93,62.47],[10.5,62.4],[10.38,62.23],[10.7,62.12],[10.58,61.94],[10.89,61.83],[10.77,61.65],[9.62,61.63],[9.5,61.45],[9.81,61.34],[9.7,61.16],[9.28,61.09],[8.98,61.2],[8.56,61.13],[8.46,60.95],[8.04,60.87],[7.94,60.69],[8.25,60.58],[8.14,60.4],[8.45,60.29],[8.34,60.1],[7.94,60.03],[7.84,59.84],[7.44,59.77],[7.17,59.93],[6.8,59.91],[6.52,60.08],[6.62,60.27]],[[12.68,55.14],[13.06,55.2],[13.33,55.06],[13.72,55.12],[13.83,55.32],[14.22,55.38],[14.49,55.24],[14.37,55.04],[14.64,54.9],[15.03,54.96],[15.29,54.82],[15.68,54.87],[15.8,55.07],[15.53,55.21],[15.65,55.41],[15.39,55.55],[15.0,55.5],[14.72,55.64],[14.84,55.83],[15.24,55.89],[15.51,55.75],[15.9,55.8],[16.02,56.0],[16.42,56.05],[16.54,56.25],[16.94,56.3],[17.07,56.49],[17.47,56.54],[17.74,56.39],[18.14,56.44],[18.41,56.3],[18.28,56.1],[17.88,56.06],[17.75,55.86],[17.35,55.81],[17.22,55.62],[17.49,55.47],[17.36,55.28],[16.97,55.23],[16.84,55.03],[16.46,54.98],[16.33,54.78],[15.95,54.73],[15.82,54.53],[15.44,54.47],[15.32,54.27],[14.94,54.22],[14.67,54.36],[14.29,54.3],[14.03,54.44],[14.14,54.64],[13.87,54.78],[13.49,54.72],[13.22,54.86],[12.84,54.8],[12.73,54.6],[12.35,54.53],[12.08,54.67],[12.19,54.87],[12.57,54.94],[12.68,55.14]],[[-4.09,53.52],[-4.04,53.74],[-4.35,53.9],[-4.3,54.11],[-3.95,54.18],[-3.65,54.03],[-3.7,53.81],[-3.4,53.65],[-3.45,53.44],[-3.8,53.37],[-4.09,53.52]],[[18.11,40.82],[17.78,40.77],[17.56,40.95],[17.67,41.18],[17.45,41.36],[17.13,41.31],[16.91,41.49],[16.58,41.43],[16.36,41.61],[16.46,41.84],[16.24,42.02],[16.34,42.25],[16.67,42.31],[16.78,42.54],[17.11,42.59],[17.33,42.42],[17.66,42.47],[17.88,42.29],[18.21,42.34],[18.43,42.16],[18.76,42.21],[18.98,42.03],[18.87,41.8],[19.09,41.62],[18.98,41.39],[19.19,41.2],[19.08,40.97],[19.3,40.79],[19.19,40.55],[18.86,40.51],[18.65,40.69],[18.32,40.64],[18.11,40.82]],[[25.04,38.89],[24.71,38.86],[24.51,39.06],[24.63,39.29],[24.96,39.32],[25.16,39.12],[25.48,39.15],[25.68,38.96],[25.56,38.73],[25.23,38.7],[25.04,38.89]],[[24.15,36.61],[24.47,36.64],[24.66,36.44],[24.97,36.48],[25.17,36.28],[25.05,36.04],[25.24,35.84],[25.55,35.87],[25.67,36.11],[25.99,36.14],[26.18,35.94],[26.06,35.7],[25.75,35.67],[25.63,35.44],[25.32,35.41],[25.12,35.61],[24.81,35.57],[24.62,35.77],[24.31,35.74],[24.11,35.94],[23.8,35.9],[23.6,36.1],[23.72,36.34],[23.52,36.53],[23.64,36.77],[23.95,36.8],[24.15,36.61]],[[18.54,58.56],[18.68,58.74],[19.1,58.78],[19.25,58.97],[18.97,59.11],[19.11,59.29],[19.53,59.33],[19.68,59.51],[20.1,59.55],[20.25,59.72],[20.68,59.76],[20.96,59.62],[21.39,59.65],[21.66,59.51],[22.09,59.54],[22.37,59.4],[22.21,59.22],[21.79,59.19],[21.64,59.01],[21.91,58.86],[21.76,58.69],[21.33,58.65],[21.19,58.47],[21.46,58.32],[21.31,58.14],[21.58,57.99],[21.43,57.81],[21.7,57.66],[21.55,57.48],[21.14,57.44],[20.99,57.26],[20.58,57.22],[20.32,57.37],[19.91,57.33],[19.64,57.47],[19.23,57.43],[18.95,57.58],[19.09,57.76],[19.51,57.81],[19.65,57.99],[19.37,58.13],[19.51,58.32],[19.24,58.46],[18.82,58.42],[18.68,58.23],[18.27,58.19],[18.13,58.0],[18.41,57.86],[18.27,57.68],[17.86,57.63],[17.59,57.77],[17.18,57.72],[16.9,57.86],[17.03,58.05],[17.44,58.1],[17.58,58.28],[17.3,58.42],[17.43,58.61],[17.85,58.65],[18.13,58.51],[18.54,58.56]],[[23.62,57.63],[23.36,57.79],[23.51,57.97],[23.93,58.0],[24.19,57.84],[24.03,57.66],[24.29,57.51],[24.14,57.33],[23.72,57.3],[23.46,57.45],[23.62,57.63]],[[36.37,45.86],[36.22,45.66],[35.88,45.67],[35.72,45.47],[35.38,45.47],[35.2,45.67],[35.35,45.87],[35.17,46.07],[35.32,46.27],[35.67,46.27],[35.82,46.47],[36.17,46.46],[36.32,46.66],[36.67,46.65],[36.85,46.45],[37.19,46.45],[37.35,46.64],[37.69,46.63],[37.87,46.43],[37.71,46.23],[37.88,46.03],[37.72,45.84],[37.39,45.84],[37.23,45.65],[36.89,45.65],[36.71,45.86],[36.37,45.86]],[[15.24,42.49],[15.14,42.25],[14.81,42.19],[14.59,42.37],[14.69,42.6],[14.46,42.77],[14.56,43.0],[14.33,43.17],[14.43,43.4],[14.2,43.57],[13.87,43.51],[13.64,43.67],[13.74,43.9],[13.51,44.07],[13.18,44.01],[12.95,44.17],[13.04,44.4],[12.81,44.56],[12.9,44.79],[12.67,44.95],[12.77,45.18],[13.1,45.25],[13.33,45.08],[13.24,44.86],[13.47,44.69],[13.8,44.76],[14.04,44.59],[13.94,44.36],[14.17,44.2],[14.5,44.26],[14.73,44.09],[14.63,43.86],[14.86,43.69],[15.19,43.75],[15.42,43.58],[15.32,43.35],[15.54,43.18],[15.44,42.95],[15.67,42.78],[16.0,42.83],[16.22,42.66],[16.12,42.43],[15.79,42.37],[15.57,42.54],[15.24,42.49]],[[24.34,65.2],[24.23,64.99],[23.81,64.91],[23.7,64.7],[23.28,64.62],[23.18,64.41],[22.77,64.33],[22.68,64.11],[22.27,64.04],[22.19,63.82],[21.79,63.74],[21.7,63.53],[21.31,63.45],[21.0,63.58],[21.08,63.8],[21.47,63.88],[21.56,64.09],[21.96,64.17],[22.05,64.39],[21.73,64.52],[21.81,64.73],[21.49,64.87],[21.57,65.08],[21.99,65.16],[22.32,65.03],[22.74,65.11],[22.83,65.32],[23.26,65.4],[23.59,65.26],[24.02,65.34],[24.34,65.2]],[[26.64,60.26],[26.91,60.1],[26.8,59.88],[26.42,59.82],[26.15,59.98],[26.26,60.2],[26.64,60.26]],[[26.06,39.64],[25.93,39.41],[25.61,39.38],[25.41,39.58],[25.53,39.81],[25.86,39.84],[26.06,39.64]],[[24.48,40.14],[24.8,40.17],[25.0,39.97],[24.88,39.75],[24.56,39.71],[24.35,39.91],[24.48,40.14]],[[25.13,60.01],[25.5,60.07],[25.77,59.92],[25.67,59.7],[25.3,59.64],[25.03,59.79],[25.13,60.01]]],[[[14.56,35.79],[14.65,36.03],[14.44,36.21],[14.13,36.15],[14.04,35.91],[14.25,35.73],[14.56,35.79]]],[[[-7.17,44.57],[-6.86,44.67],[-6.83,44.91],[-7.1,45.05],[-7.07,45.29],[-6.76,45.38],[-6.73,45.62],[-6.42,45.71],[-6.39,45.95],[-6.66,46.1],[-6.97,46.01],[-7.25,46.16],[-7.56,46.07],[-7.59,45.83],[-7.9,45.74],[-8.18,45.89],[-8.49,45.79],[-8.51,45.55],[-8.82,45.46],[-8.85,45.22],[-8.57,45.07],[-8.6,44.83],[-8.32,44.68],[-8.02,44.78],[-7.74,44.63],[-7.44,44.72],[-7.17,44.57]]],[[[2.5,36.5],[2.72,36.34],[2.66,36.1],[2.88,35.95],[3.15,36.03],[3.37,35.88],[3.64,35.96],[3.86,35.81],[4.13,35.89],[4.19,36.13],[4.47,36.21],[4.69,36.05],[4.63,35.81],[4.84,35.65],[5.12,35.73],[5.18,35.97],[5.46,36.05],[5.68,35.89],[5.61,35.65],[5.83,35.49],[6.11,35.57],[6.18,35.81],[6.46,35.89],[6.68,35.73],[6.96,35.8],[7.03,36.04],[7.32,36.12],[7.53,35.95],[7.82,36.03],[7.89,36.27],[8.18,36.35],[8.4,36.18],[8.69,36.25],[8.9,36.08],[9.19,36.16],[9.27,36.4],[9.56,36.47],[9.78,36.3],[10.07,36.37],[10.29,36.2],[10.21,35.96],[10.42,35.79],[10.72,35.85],[10.8,36.1],[10.58,36.27],[10.67,36.51],[10.96,36.58],[11.04,36.82],[11.34,36.89],[11.43,37.13],[11.21,37.3],[10.91,37.23],[10.69,37.41],[10.39,37.34],[10.18,37.51],[9.88,37.43],[9.66,37.6],[9.36,37.53],[9.14,37.7],[8.85,37.63],[8.77,37.38],[8.48,37.31],[8.4,37.07],[8.11,37.0],[7.89,37.16],[7.6,37.08],[7.38,37.25],[7.09,37.17],[6.87,37.33],[6.59,37.26],[6.37,37.42],[6.08,37.34],[6.01,37.1],[5.73,37.02],[5.51,37.18],[5.22,37.1],[5.01,37.25],[4.72,37.17],[4.5,37.33],[4.22,37.24],[4.0,37.4],[3.72,37.32],[3.66,37.08],[3.39,36.99],[3.17,37.15],[2.89,37.06],[2.83,36.82],[2.56,36.73],[2.34,36.89],[2.07,36.8],[1.85,36.95],[1.58,36.86],[1.36,37.01],[1.09,36.92],[1.04,36.68],[0.77,36.6],[0.56,36.74],[0.29,36.65],[0.24,36.42],[-0.02,36.33],[-0.07,36.09],[0.14,35.94],[0.41,36.03],[0.46,36.27],[0.72,36.36],[0.94,36.21],[1.21,36.3],[1.26,36.54],[1.53,36.62],[1.74,36.47],[2.01,36.56],[2.23,36.41],[2.5,36.5]]],[[[-6.38,59.26],[-6.43,59.06],[-6.08,58.91],[-5.69,58.97],[-5.65,59.18],[-5.99,59.32],[-6.38,59.26]]],[[[14.56,68.55],[14.13,68.44],[14.25,68.26],[14.79,68.18],[14.9,68.0],[14.48,67.9],[14.59,67.71],[14.18,67.61],[14.3,67.43],[13.9,67.33],[14.01,67.15],[14.52,67.07],[14.92,67.17],[14.81,67.35],[15.22,67.45],[15.12,67.63],[15.53,67.74],[15.43,67.92],[15.85,68.02],[15.75,68.21],[16.19,68.31],[16.08,68.49],[15.54,68.58],[15.1,68.47],[14.56,68.55]]],[[[-28.0,38.35],[-27.7,38.24],[-27.44,38.4],[-27.14,38.29],[-26.87,38.44],[-26.91,38.7],[-27.21,38.8],[-27.24,39.06],[-27.55,39.16],[-27.81,39.01],[-28.12,39.11],[-28.38,38.95],[-28.68,39.05],[-28.95,38.9],[-28.91,38.65],[-28.6,38.55],[-28.57,38.29],[-28.26,38.19],[-28.0,38.35]]],[[[32.52,67.11],[32.33,66.9],[32.65,66.74],[33.16,66.79],[33.48,66.63],[33.28,66.42],[33.59,66.26],[34.1,66.31],[34.3,66.52],[34.82,66.57],[35.12,66.4],[35.64,66.45],[35.86,66.66],[35.55,66.82],[35.03,66.78],[34.72,66.94],[34.19,66.89],[33.88,67.05],[33.36,67.0],[33.04,67.16],[32.52,67.11]]],[[[36.06,34.54],[35.89,34.75],[36.03,34.97],[35.87,35.19],[35.57,35.18],[35.43,34.96],[35.59,34.75],[35.46,34.53],[35.62,34.31],[35.48,34.09],[35.18,34.08],[35.05,33.86],[35.21,33.65],[35.08,33.43],[34.78,33.42],[34.64,33.19],[34.81,32.98],[34.67,32.76],[34.83,32.54],[34.7,32.32],[34.41,32.31],[34.27,32.08],[34.44,31.87],[34.3,31.65],[34.47,31.43],[34.76,31.44],[34.89,31.67],[35.18,31.68],[35.34,31.47],[35.63,31.48],[35.76,31.7],[35.61,31.91],[35.74,32.14],[36.03,32.15],[36.17,32.37],[36.01,32.58],[36.15,32.8],[35.99,33.02],[35.69,33.01],[35.53,33.22],[35.67,33.44],[35.51,33.66],[35.64,33.88],[35.94,33.89],[36.08,34.11],[35.92,34.32],[36.06,34.54]]],[[[13.54,67.87],[13.95,67.97],[13.83,68.15],[13.29,68.23],[12.87,68.12],[13.0,67.94],[13.54,67.87]]],[[[3.44,40.3],[3.38,40.06],[3.09,39.97],[2.87,40.12],[2.58,40.03],[2.53,39.8],[2.24,39.71],[2.19,39.47],[2.41,39.32],[2.35,39.09],[2.58,38.94],[2.86,39.03],[3.08,38.88],[3.36,38.96],[3.42,39.2],[3.71,39.29],[3.77,39.52],[4.06,39.61],[4.28,39.46],[4.57,39.54],[4.63,39.78],[4.41,39.93],[4.47,40.17],[4.25,40.32],[3.96,40.23],[3.73,40.38],[3.44,40.3]]],[[[-16.39,33.09],[-16.13,32.96],[-15.87,33.09],[-15.87,33.34],[-16.13,33.47],[-16.39,33.34],[-16.39,33.09]]],[[[-6.04,62.4],[-6.46,62.35],[-6.84,62.49],[-7.26,62.43],[-7.3,62.23],[-7.72,62.17],[-7.76,61.97],[-7.39,61.84],[-7.43,61.64],[-7.06,61.5],[-7.1,61.3],[-6.74,61.16],[-6.33,61.22],[-6.28,61.42],[-6.65,61.56],[-6.6,61.76],[-6.19,61.82],[-6.14,62.01],[-5.72,62.07],[-5.67,62.26],[-6.04,62.4]]],[[[-16.73,63.96],[-16.38,63.83],[-15.94,63.91],[-15.84,64.14],[-16.19,64.27],[-16.64,64.19],[-16.73,63.96]]],[[[1.41,38.35],[1.68,38.44],[1.74,38.67],[2.02,38.76],[2.07,39.0],[1.85,39.15],[1.91,39.38],[1.68,39.53],[1.4,39.44],[1.35,39.2],[1.07,39.11],[1.02,38.87],[1.24,38.73],[1.19,38.49],[1.41,38.35]]],[[[-16.39,32.32],[-16.39,32.58],[-16.65,32.71],[-16.65,32.96],[-16.92,33.09],[-17.18,32.96],[-17.44,33.08],[-17.7,32.95],[-17.7,32.69],[-17.43,32.57],[-17.17,32.7],[-16.91,32.58],[-16.91,32.32],[-16.65,32.19],[-16.39,32.32]]],[[[40.8,65.05],[40.53,65.24],[40.01,65.21],[39.77,65.0],[40.04,64.82],[40.55,64.85],[40.8,65.05]]],[[[-30.99,39.07],[-30.73,39.22],[-30.78,39.48],[-31.09,39.57],[-31.35,39.41],[-31.3,39.16],[-30.99,39.07]]],[[[-19.68,63.76],[-20.13,63.67],[-20.19,63.44],[-19.82,63.31],[-19.39,63.41],[-19.02,63.28],[-18.59,63.37],[-18.51,63.6],[-18.87,63.73],[-19.31,63.63],[-19.68,63.76]]],[[[12.63,35.84],[12.84,35.66],[13.14,35.72],[13.23,35.96],[13.02,36.14],[12.72,36.08],[12.63,35.84]]],[[[-18.07,63.69],[-17.71,63.56],[-17.27,63.65],[-17.18,63.87],[-17.54,64.01],[-17.98,63.92],[-18.07,63.69]]],[[[-8.44,58.3],[-8.82,58.23],[-8.86,58.02],[-9.24,57.95],[-9.27,57.73],[-8.92,57.6],[-8.54,57.67],[-8.51,57.88],[-8.13,57.95],[-8.09,58.16],[-8.44,58.3]]],[[[-25.92,37.62],[-25.88,37.36],[-25.59,37.25],[-25.56,37.0],[-25.27,36.89],[-25.0,37.03],[-25.03,37.29],[-25.33,37.4],[-25.35,37.66],[-25.09,37.8],[-25.12,38.06],[-25.41,38.17],[-25.68,38.02],[-25.98,38.13],[-26.24,37.98],[-26.21,37.72],[-25.92,37.62]]],[[[11.86,36.78],[12.07,36.61],[12.37,36.67],[12.46,36.91],[12.25,37.09],[11.94,37.02],[11.86,36.78]]]]}}]}