{"type":"FeatureCollection","features":[{"type":"Feature","properties":{},"geometry":{"type":"MultiPolygon","coordinates":[[[[20.7,48.86],[20.34,48.82],[20.21,48.61],[19.85,48.56],[19.62,48.73],[19.26,48.69],[19.02,48.85],[18.66,48.81],[18.42,48.97],[18.54,49.19],[18.3,49.35],[17.94,49.3],[17.7,49.47],[17.82,49.68],[17.57,49.84],[17.21,49.79],[16.97,49.95],[16.61,49.9],[16.49,49.69],[16.74,49.52],[16.62,49.31],[16.26,49.26],[16.15,49.04],[15.8,48.98],[15.69,48.77],[15.33,48.71],[15.22,48.49],[15.47,48.33],[15.36,48.11],[15.6,47.95],[15.95,48.01],[16.19,47.84],[16.08,47.62],[15.73,47.57],[15.62,47.35],[15.27,47.29],[15.17,47.07],[14.82,47.01],[14.72,46.79],[14.38,46.73],[14.14,46.89],[13.79,46.82],[13.69,46.6],[13.35,46.54],[13.11,46.7],[12.78,46.63],[12.68,46.41],[12.34,46.34],[12.24,46.12],[12.48,45.96],[12.82,46.02],[12.92,46.25],[13.25,46.31],[13.49,46.15],[13.39,45.93],[13.06,45.86],[12.96,45.64],[13.2,45.47],[13.1,45.25],[13.33,45.08],[13.24,44.86],[13.47,44.69],[13.8,44.76],[14.04,44.59],[13.94,44.36],[14.17,44.2],[14.5,44.26],[14.73,44.09],[14.63,43.86],[14.86,43.69],[15.19,43.75],[15.42,43.58],[15.75,43.64],[15.98,43.47],[15.87,43.24],[16.1,43.06],[16.0,42.83],[16.22,42.66],[16.55,42.71],[16.78,42.54],[17.11,42.59],[17.33,42.42],[17.66,42.47],[17.88,42.29],[18.21,42.34],[18.43,42.16],[18.76,42.21],[18.98,42.03],[18.87,41.8],[19.09,41.62],[18.98,41.39],[19.19,41.2],[19.08,40.97],[19.3,40.79],[19.19,40.55],[19.4,40.37],[19.29,40.14],[19.51,39.95],[19.4,39.72],[19.61,39.53],[19.93,39.58],[20.14,39.39],[20.03,39.15],[20.24,38.97],[20.56,39.01],[20.77,38.82],[20.66,38.59],[20.87,38.4],[21.18,38.44],[21.39,38.25],[21.28,38.01],[21.48,37.82],[21.8,37.86],[22.0,37.67],[21.89,37.43],[22.09,37.24],[22.41,37.28],[22.61,37.09],[22.93,37.12],[23.04,37.36],[23.36,37.4],[23.56,37.2],[23.87,37.24],[23.99,37.47],[24.31,37.51],[24.51,37.31],[24.39,37.07],[24.58,36.88],[24.9,36.91],[25.09,36.71],[25.41,36.74],[25.6,36.54],[25.92,36.57],[26.04,36.8],[26.35,36.83],[26.48,37.07],[26.79,37.09],[26.99,36.89],[26.86,36.66],[27.05,36.46],[27.36,36.49],[27.55,36.28],[27.43,36.05],[27.62,35.85],[27.93,35.87],[28.05,36.1],[28.37,36.13],[28.49,36.36],[28.31,36.56],[28.43,36.79],[28.75,36.82],[28.93,36.61],[28.81,36.38],[28.99,36.18],[29.3,36.2],[29.49,35.99],[29.8,36.01],[29.93,36.24],[29.74,36.45],[29.43,36.43],[29.25,36.63],[29.38,36.86],[29.19,37.07],[29.32,37.29],[29.14,37.5],[29.27,37.72],[29.58,37.75],[29.77,37.54],[30.08,37.56],[30.22,37.78],[30.03,37.99],[30.16,38.22],[29.98,38.42],[30.11,38.64],[30.43,38.66],[30.57,38.89],[30.38,39.09],[30.52,39.31],[30.84,39.33],[31.02,39.12],[31.34,39.14],[31.53,38.93],[31.84,38.95],[31.98,39.17],[31.8,39.37],[31.94,39.59],[31.76,39.8],[31.89,40.02],[31.71,40.22],[31.85,40.44],[31.66,40.65],[31.8,40.86],[32.13,40.88],[32.27,41.09],[32.6,41.1],[32.74,41.32],[32.56,41.52],[32.7,41.74],[33.03,41.75],[33.17,41.96],[33.5,41.97],[33.68,41.76],[34.01,41.77],[34.15,41.98],[33.97,42.18],[33.64,42.18],[33.46,42.38],[33.13,42.38],[32.99,42.16],[32.66,42.15],[32.51,41.94],[32.18,41.93],[32.04,41.72],[31.71,41.71],[31.57,41.49],[31.24,41.48],[31.1,41.26],[30.77,41.24],[30.58,41.45],[30.26,41.43],[30.12,41.21],[29.79,41.2],[29.6,41.4],[29.27,41.38],[29.07,41.58],[28.74,41.56],[28.54,41.76],[28.68,41.98],[28.48,42.18],[28.15,42.15],[27.95,42.35],[28.08,42.57],[27.88,42.77],[28.02,42.99],[28.36,43.01],[28.49,43.23],[28.83,43.25],[28.97,43.46],[28.77,43.66],[28.91,43.88],[28.71,44.07],[28.85,44.29],[29.19,44.3],[29.33,44.52],[29.67,44.53],[29.81,44.75],[29.61,44.94],[29.75,45.15],[30.1,45.17],[30.3,44.97],[30.64,44.99],[30.79,45.2],[30.59,45.39],[30.24,45.38],[30.04,45.57],[30.19,45.78],[30.53,45.8],[30.68,46.0],[31.03,46.02],[31.18,46.22],[31.52,46.23],[31.72,46.04],[32.07,46.04],[32.26,45.85],[32.11,45.64],[32.31,45.44],[32.16,45.24],[32.35,45.04],[32.7,45.05],[32.89,44.85],[33.23,44.85],[33.42,44.65],[33.27,44.44],[33.46,44.24],[33.79,44.25],[33.98,44.04],[34.31,44.05],[34.46,44.25],[34.28,44.46],[34.43,44.66],[34.77,44.66],[34.92,44.86],[35.26,44.86],[35.41,45.07],[35.75,45.06],[35.93,44.86],[36.27,44.86],[36.42,45.06],[36.24,45.26],[35.9,45.27],[35.72,45.47],[35.38,45.47],[35.2,45.67],[34.86,45.67],[34.7,45.47],[34.36,45.47],[34.21,45.27],[33.87,45.27],[33.68,45.47],[33.83,45.67],[33.64,45.87],[33.79,46.07],[33.6,46.27],[33.76,46.47],[33.56,46.67],[33.72,46.87],[34.07,46.87],[34.22,47.07],[34.03,47.27],[34.18,47.47],[34.53,47.47],[34.69,47.66],[34.5,47.86],[34.66,48.06],[34.46,48.25],[34.62,48.45],[34.98,48.45],[35.14,48.64],[35.49,48.63],[35.65,48.83],[35.46,49.02],[35.11,49.03],[34.91,49.22],[35.07,49.41],[34.88,49.61],[34.52,49.61],[34.36,49.42],[34.0,49.42],[33.8,49.61],[33.44,49.61],[33.24,49.8],[32.87,49.8],[32.67,49.99],[32.3,49.99],[32.1,50.18],[31.73,50.17],[31.52,50.36],[31.15,50.35],[31.0,50.15],[30.63,50.15],[30.48,49.95],[30.11,49.94],[29.96,49.74],[29.59,49.73],[29.44,49.53],[29.65,49.34],[29.5,49.14],[29.14,49.13],[28.99,48.93],[28.63,48.91],[28.41,49.09],[28.05,49.08],[27.9,48.87],[27.54,48.85],[27.32,49.04],[26.96,49.02],[26.74,49.2],[26.37,49.18],[26.23,48.97],[25.87,48.95],[25.65,49.13],[25.28,49.1],[25.06,49.28],[24.69,49.25],[24.46,49.43],[24.1,49.4],[23.87,49.57],[23.5,49.54],[23.37,49.33],[23.6,49.16],[23.96,49.19],[24.19,49.01],[24.55,49.04],[24.78,48.86],[24.64,48.66],[24.87,48.48],[25.23,48.5],[25.45,48.32],[25.31,48.11],[25.53,47.93],[25.89,47.96],[26.11,47.77],[25.97,47.56],[26.19,47.38],[26.05,47.17],[26.27,46.98],[26.13,46.77],[26.35,46.58],[26.21,46.37],[26.42,46.18],[26.29,45.97],[26.5,45.78],[26.36,45.57],[26.01,45.54],[25.88,45.32],[25.53,45.3],[25.32,45.48],[24.97,45.46],[24.84,45.24],[24.49,45.21],[24.28,45.39],[23.93,45.36],[23.8,45.14],[23.45,45.11],[23.24,45.29],[23.36,45.51],[23.14,45.69],[23.27,45.91],[23.62,45.95],[23.84,45.76],[24.19,45.8],[24.41,45.61],[24.76,45.64],[24.89,45.86],[25.24,45.89],[25.45,45.7],[25.8,45.73],[25.94,45.94],[25.72,46.13],[25.37,46.1],[25.15,46.29],[25.29,46.5],[25.07,46.69],[25.21,46.9],[24.99,47.09],[24.63,47.06],[24.41,47.24],[24.55,47.45],[24.32,47.63],[23.97,47.6],[23.74,47.78],[23.88,47.99],[23.65,48.17],[23.29,48.14],[23.06,48.32],[23.2,48.53],[22.97,48.71],[22.61,48.67],[22.38,48.85],[22.51,49.06],[22.27,49.23],[21.91,49.19],[21.68,49.37],[21.31,49.33],[21.19,49.11],[20.82,49.07],[20.7,48.86]],[[25.46,37.41],[25.26,37.61],[25.38,37.84],[25.19,38.04],[24.87,38.0],[24.67,38.2],[24.79,38.43],[24.59,38.63],[24.71,38.86],[24.51,39.06],[24.63,39.29],[24.96,39.32],[25.08,39.55],[25.41,39.58],[25.53,39.81],[25.86,39.84],[26.06,39.64],[25.93,39.41],[25.61,39.38],[25.48,39.15],[25.68,38.96],[25.56,38.73],[25.23,38.7],[25.11,38.47],[25.31,38.27],[25.63,38.3],[25.83,38.1],[26.15,38.13],[26.34,37.93],[26.22,37.7],[25.9,37.67],[25.77,37.44],[25.46,37.41]],[[24.88,39.75],[24.56,39.71],[24.43,39.48],[24.11,39.45],[23.91,39.64],[24.03,39.87],[24.35,39.91],[24.48,40.14],[24.8,40.17],[25.0,39.97],[24.88,39.75]],[[23.66,46.56],[23.53,46.35],[23.18,46.31],[22.96,46.49],[22.61,46.46],[22.38,46.64],[22.51,46.85],[22.86,46.89],[23.09,46.71],[23.44,46.74],[23.66,46.56]]],[[[35.32,46.27],[35.14,46.47],[34.79,46.47],[34.64,46.27],[34.82,46.07],[35.17,46.07],[35.32,46.27]]],[[[18.3,49.94],[18.18,49.73],[18.42,49.57],[18.78,49.61],[18.91,49.83],[18.66,49.99],[18.3,49.94]]],[[[35.13,41.99],[34.96,42.19],[34.63,42.19],[34.48,41.98],[34.66,41.77],[34.99,41.78],[35.16,41.57],[35.49,41.57],[35.64,41.78],[35.46,41.99],[35.13,41.99]]],[[[18.22,40.41],[18.32,40.64],[18.11,40.82],[17.78,40.77],[17.68,40.54],[17.89,40.35],[18.22,40.41]]],[[[15.0,50.63],[14.64,50.57],[14.39,50.72],[14.03,50.66],[13.92,50.45],[14.17,50.29],[14.07,50.08],[14.32,49.93],[14.67,49.99],[14.92,49.83],[15.28,49.89],[15.53,49.73],[15.89,49.79],[16.0,50.0],[15.75,50.16],[15.86,50.37],[15.62,50.53],[15.25,50.47],[15.0,50.63]]],[[[11.48,45.75],[11.82,45.82],[11.91,46.05],[11.67,46.2],[11.34,46.14],[11.24,45.91],[10.91,45.84],[10.67,45.99],[10.34,45.92],[10.25,45.7],[10.49,45.54],[10.82,45.61],[11.06,45.46],[11.39,45.53],[11.48,45.75]]],[[[31.26,36.97],[31.08,37.18],[30.76,37.16],[30.63,36.94],[30.32,36.92],[30.19,36.7],[30.37,36.49],[30.68,36.51],[30.81,36.73],[31.12,36.75],[31.3,36.54],[31.62,36.56],[31.75,36.78],[31.57,36.99],[31.26,36.97]]]]}}]}