{"type":"FeatureCollection","features":[{"type":"Feature","properties":{},"geometry":{"type":"MultiPolygon","coordinates":[[[[69.44,42.56],[69.17,42.39],[69.23,42.14],[68.37,41.9],[68.44,41.65],[69.14,41.22],[69.2,40.97],[68.93,40.8],[69.36,40.21],[68.54,39.97],[68.59,39.72],[68.91,39.63],[70.88,40.0],[72.91,40.09],[73.41,40.65],[73.72,40.54],[73.99,40.7],[73.61,41.31],[72.7,41.35],[72.66,41.61],[72.93,41.76],[73.25,41.66],[73.53,41.82],[73.49,42.07],[73.17,42.17],[72.89,42.02],[72.57,42.12],[72.07,41.55],[71.16,41.58],[70.68,41.01],[70.36,41.11],[69.93,41.7],[70.42,42.28],[70.36,42.53],[70.64,42.69],[71.34,42.25],[71.61,42.41],[71.93,42.31],[72.21,42.47],[72.53,42.37],[72.81,42.53],[73.13,42.43],[75.82,42.76],[76.13,42.65],[76.5,42.03],[77.41,41.96],[77.96,42.5],[78.27,42.38],[78.56,42.52],[78.54,42.78],[77.63,42.87],[76.74,42.69],[76.42,42.8],[76.39,43.06],[76.68,43.2],[77.0,43.09],[77.29,43.24],[77.61,43.12],[80.33,43.35],[80.32,43.61],[79.4,43.71],[79.38,43.96],[79.68,44.1],[80.61,44.0],[80.91,44.13],[80.9,44.39],[78.73,44.46],[79.0,45.11],[79.94,45.26],[80.22,45.91],[80.54,46.05],[80.86,45.92],[82.44,46.07],[82.44,46.32],[81.79,46.83],[81.79,47.09],[81.47,47.21],[81.46,47.47],[82.11,47.98],[82.43,47.86],[84.72,47.96],[84.42,48.6],[83.43,48.74],[83.43,49.0],[83.77,49.12],[84.1,48.99],[84.78,49.48],[85.11,49.35],[85.45,49.47],[85.46,49.72],[85.14,49.85],[85.15,50.11],[85.49,50.23],[85.51,50.48],[87.21,50.54],[87.24,50.79],[86.91,50.93],[86.93,51.18],[87.97,51.26],[88.38,51.87],[89.43,51.93],[89.47,52.18],[89.83,52.28],[90.16,52.13],[90.93,52.57],[91.25,52.42],[92.3,52.45],[92.77,53.03],[93.14,53.12],[93.45,52.97],[94.5,52.98],[94.56,53.22],[94.25,53.38],[94.31,53.62],[94.69,53.7],[94.75,53.95],[93.74,54.18],[93.8,54.42],[93.48,54.58],[93.1,54.5],[92.77,54.65],[92.82,54.9],[93.21,54.98],[93.54,54.82],[94.37,55.23],[94.95,54.67],[95.79,55.07],[96.79,54.81],[97.64,55.19],[97.95,55.03],[99.01,54.99],[99.31,54.82],[99.22,54.59],[99.51,54.42],[99.42,54.18],[99.71,54.01],[100.08,54.08],[100.55,53.5],[100.92,53.57],[101.19,53.39],[101.1,53.16],[102.0,52.88],[101.9,52.64],[102.17,52.47],[103.14,52.41],[103.39,52.24],[103.29,52.01],[104.14,51.71],[104.04,51.49],[104.28,51.31],[104.62,51.36],[104.73,51.59],[105.66,51.52],[106.22,52.01],[107.14,51.93],[107.15,52.55],[107.5,52.59],[107.61,52.81],[108.54,52.71],[108.66,52.93],[108.44,53.11],[109.04,53.59],[108.81,53.77],[108.94,53.99],[109.46,54.21],[109.23,54.39],[108.84,54.39],[107.75,53.66],[107.39,53.62],[107.38,52.99],[106.44,53.09],[105.4,52.32],[105.05,52.27],[104.8,52.45],[104.91,52.68],[105.27,52.73],[105.38,52.95],[103.91,53.38],[104.02,53.61],[103.76,53.79],[103.86,54.01],[103.6,54.19],[103.71,54.42],[103.44,54.59],[103.55,54.82],[102.63,55.12],[102.74,55.35],[102.46,55.53],[102.57,55.75],[102.29,55.93],[102.39,56.16],[102.11,56.33],[102.21,56.56],[101.92,56.74],[101.53,56.68],[101.43,56.45],[101.03,56.4],[100.93,56.17],[101.22,55.99],[101.12,55.76],[100.74,55.71],[100.45,55.88],[100.54,56.11],[100.25,56.28],[100.34,56.51],[99.83,57.09],[100.43,57.61],[99.4,57.89],[99.5,58.12],[99.18,58.29],[98.77,58.23],[98.68,58.0],[98.99,57.83],[98.9,57.6],[98.49,57.54],[98.17,57.7],[98.26,57.94],[97.2,58.21],[97.28,58.44],[96.95,58.61],[96.53,58.54],[96.45,58.3],[96.78,58.14],[96.7,57.91],[96.29,57.84],[95.2,58.09],[95.27,58.33],[94.92,58.49],[92.96,58.57],[92.29,59.12],[92.35,59.36],[91.17,59.58],[91.22,59.82],[90.83,59.97],[90.89,60.21],[90.15,60.74],[84.14,61.05],[82.82,60.96],[81.94,61.45],[80.61,61.34],[79.68,61.82],[77.44,61.67],[76.46,62.12],[75.12,61.96],[74.64,62.06],[74.59,62.3],[73.18,62.35],[73.12,62.59],[72.62,62.68],[70.36,62.42],[69.27,62.82],[67.03,62.51],[65.9,62.88],[65.79,63.11],[65.27,63.17],[63.96,62.91],[63.45,62.97],[63.32,63.19],[62.8,63.25],[62.41,63.08],[61.22,63.41],[60.85,63.24],[60.99,63.01],[59.73,62.71],[59.88,62.49],[59.52,62.31],[59.67,62.08],[59.32,61.9],[59.47,61.68],[59.12,61.5],[58.62,61.54],[58.47,61.77],[58.81,61.95],[58.66,62.17],[56.8,62.73],[54.77,62.23],[54.27,62.26],[54.08,62.47],[53.58,62.5],[53.25,62.3],[52.05,62.56],[50.93,62.18],[49.73,62.41],[47.88,61.82],[47.39,61.83],[46.47,62.23],[45.23,62.02],[45.0,62.22],[45.26,62.42],[45.04,62.62],[42.35,63.15],[42.11,63.34],[42.35,63.55],[42.1,63.73],[41.61,63.71],[40.63,63.27],[40.89,63.09],[40.65,62.88],[40.9,62.69],[42.11,62.54],[42.35,62.35],[41.4,61.91],[40.93,61.89],[40.69,62.08],[40.92,62.29],[40.67,62.48],[40.2,62.46],[39.95,62.64],[39.47,62.62],[39.25,62.4],[39.5,62.22],[39.29,62.01],[38.82,61.98],[38.57,62.16],[37.44,61.89],[37.19,62.07],[36.02,62.18],[35.75,62.35],[35.95,62.57],[35.68,62.74],[35.22,62.7],[34.95,62.88],[33.86,62.58],[33.69,62.36],[33.96,62.19],[33.78,61.97],[32.36,62.22],[31.34,61.91],[31.07,62.07],[31.22,62.29],[30.23,62.56],[30.38,62.77],[30.09,62.94],[25.77,63.48],[24.83,63.13],[24.72,62.91],[25.02,62.76],[24.92,62.55],[24.22,62.62],[24.32,62.84],[23.82,63.34],[23.92,63.56],[24.85,63.92],[24.96,64.13],[24.65,64.27],[24.76,64.49],[25.74,64.85],[25.86,65.06],[25.54,65.21],[25.66,65.42],[25.34,65.56],[25.46,65.78],[25.13,65.92],[22.8,66.1],[22.36,66.02],[22.27,65.8],[20.84,65.13],[20.76,64.92],[21.08,64.78],[21.0,64.57],[20.13,64.19],[20.06,63.98],[19.23,63.6],[19.17,63.38],[18.11,63.34],[18.06,63.13],[17.29,62.74],[17.25,62.53],[15.73,62.0],[15.59,61.83],[15.89,61.71],[15.75,61.53],[14.19,61.02],[14.06,60.84],[14.36,60.72],[14.23,60.54],[13.51,60.6],[12.54,60.3],[12.06,60.72],[12.18,60.9],[10.73,61.0],[10.62,60.82],[11.11,60.41],[10.99,60.23],[9.87,60.21],[8.84,59.69],[8.34,59.43],[8.23,59.25],[8.53,59.13],[7.94,58.68],[6.86,58.64],[6.59,58.8],[6.69,58.99],[6.23,59.52],[6.33,59.7],[6.05,59.87],[6.15,60.06],[5.86,60.22],[5.96,60.41],[5.67,60.57],[5.77,60.76],[5.48,60.92],[5.57,61.11],[5.28,61.27],[5.38,61.45],[5.08,61.62],[5.17,61.8],[4.48,61.94],[4.39,61.75],[4.69,61.59],[4.11,61.2],[4.41,61.04],[4.32,60.85],[4.62,60.69],[4.53,60.5],[5.02,59.98],[4.46,59.58],[4.75,59.41],[4.66,59.22],[4.94,59.06],[4.85,58.86],[5.32,58.34],[6.31,58.23],[6.58,58.06],[6.49,57.87],[7.45,57.72],[8.32,58.07],[9.0,58.03],[9.6,58.48],[9.31,58.6],[9.41,58.79],[9.81,58.86],[10.8,58.69],[10.69,58.5],[11.16,58.06],[11.05,57.87],[9.97,57.86],[9.37,57.4],[8.7,57.45],[7.84,57.1],[7.74,56.9],[8.02,56.79],[7.46,56.31],[7.93,55.87],[7.37,55.39],[8.29,55.23],[8.2,55.02],[7.83,54.95],[7.74,54.74],[8.02,54.62],[7.92,54.41],[7.56,54.34],[7.02,53.84],[6.39,53.89],[6.04,53.81],[5.95,53.6],[4.98,53.55],[4.48,53.05],[4.15,53.01],[4.25,52.42],[3.13,51.86],[2.67,51.38],[2.09,51.49],[2.55,51.97],[2.1,52.52],[2.17,52.73],[1.91,52.89],[1.98,53.11],[0.49,53.49],[0.56,53.71],[0.06,54.24],[0.13,54.45],[-0.79,54.72],[-0.73,54.93],[-1.25,55.46],[-1.19,55.67],[-1.49,55.82],[-1.43,56.03],[-2.4,56.29],[-1.92,56.76],[-1.55,56.81],[-1.49,57.02],[-1.8,57.18],[-1.74,57.38],[-1.37,57.43],[-1.3,57.64],[-3.0,58.0],[-2.5,58.46],[-2.82,58.61],[-2.76,58.81],[-1.49,59.37],[-1.42,59.57],[-1.03,59.61],[-0.97,59.81],[-0.58,59.85],[-0.51,60.05],[-0.83,60.2],[-0.76,60.4],[-0.37,60.44],[-0.3,60.64],[-0.88,61.14],[-2.67,60.37],[-2.74,60.17],[-1.68,59.92],[-2.2,59.47],[-2.92,59.57],[-3.75,59.26],[-4.48,59.36],[-4.53,59.15],[-3.48,58.91],[-3.53,58.71],[-4.97,58.89],[-5.79,58.56],[-6.51,58.64],[-6.56,58.43],[-6.94,58.37],[-7.67,58.44],[-7.71,58.23],[-7.36,58.09],[-7.4,57.88],[-7.78,57.81],[-7.82,57.6],[-7.48,57.46],[-7.52,57.25],[-7.89,57.17],[-8.34,56.67],[-7.3,56.46],[-7.33,56.25],[-6.72,55.74],[-6.76,55.52],[-8.5,55.59],[-8.54,55.37],[-9.29,54.99],[-9.32,54.77],[-8.99,54.63],[-9.02,54.41],[-10.75,54.44],[-10.77,54.21],[-10.44,54.08],[-10.84,53.54],[-10.21,53.03],[-10.24,52.81],[-10.95,52.4],[-10.97,52.17],[-10.65,52.03],[-10.38,51.43],[-8.77,51.18],[-8.07,51.58],[-8.03,51.81],[-7.39,51.74],[-7.05,51.82],[-7.01,52.05],[-6.37,51.98],[-5.65,52.35],[-5.87,52.95],[-5.52,53.02],[-5.48,53.25],[-6.05,53.77],[-6.01,53.99],[-5.66,54.06],[-5.62,54.28],[-4.95,54.2],[-5.0,53.98],[-4.7,53.83],[-4.74,53.61],[-5.09,53.54],[-5.13,53.32],[-4.83,53.17],[-4.88,52.94],[-5.22,52.87],[-5.01,52.28],[-5.35,52.2],[-5.77,51.68],[-4.85,51.45],[-4.64,50.84],[-5.6,50.85],[-5.64,50.62],[-6.7,49.92],[-6.74,49.69],[-6.45,49.54],[-5.76,49.93],[-4.86,49.7],[-4.53,49.78],[-4.49,50.01],[-3.88,49.93],[-3.18,50.3],[-2.31,50.05],[-2.36,49.83],[-3.42,49.16],[-3.47,48.93],[-4.39,48.94],[-4.43,48.71],[-5.35,48.7],[-5.39,48.47],[-5.11,48.32],[-4.91,47.7],[-3.74,47.55],[-3.47,47.39],[-3.52,47.16],[-2.94,47.08],[-2.68,46.92],[-2.73,46.69],[-1.91,46.45],[-1.96,46.22],[-1.3,45.28],[-1.35,45.05],[-1.65,44.97],[-1.7,44.74],[-1.45,44.58],[-1.5,44.35],[-1.8,44.27],[-1.65,43.64],[-1.94,43.57],[-3.82,43.95],[-4.46,43.54],[-8.1,44.05],[-8.73,43.61],[-9.0,43.76],[-9.3,43.66],[-9.33,43.42],[-9.63,43.32],[-9.65,43.07],[-8.88,42.14],[-9.22,41.55],[-8.72,41.01],[-8.74,40.77],[-9.34,40.31],[-9.13,39.67],[-9.96,39.61],[-9.98,39.36],[-9.72,39.21],[-9.74,38.97],[-9.01,38.04],[-9.33,37.43],[-8.85,36.9],[-7.02,36.88],[-6.77,36.74],[-6.8,36.49],[-6.15,35.56],[-6.18,35.32],[-7.32,34.16],[-7.35,33.91],[-7.61,33.81],[-7.85,33.95],[-8.4,33.48],[-8.64,33.62],[-8.9,33.51],[-8.93,33.26],[-10.03,32.07],[-10.05,31.82],[-9.81,31.68],[-10.1,31.07],[-9.87,30.93],[-9.61,31.05],[-8.75,32.38],[-8.0,32.46],[-7.69,33.06],[-6.94,33.13],[-5.73,32.91],[-6.33,31.97],[-7.07,31.9],[-7.1,31.65],[-7.36,31.55],[-7.59,31.68],[-8.12,31.22],[-8.84,31.38],[-9.1,31.27],[-9.12,31.02],[-8.68,30.5],[-8.15,30.97],[-7.71,30.45],[-6.9,31.27],[-5.72,31.06],[-4.9,31.85],[-4.86,32.1],[-4.61,32.2],[-4.39,32.06],[-4.13,32.16],[-4.1,32.4],[-3.84,32.5],[-3.63,32.35],[-3.08,32.79],[-2.86,32.64],[-2.61,32.74],[-2.75,33.37],[-2.96,33.51],[-2.93,33.76],[-2.67,33.85],[-2.45,33.7],[-1.89,34.13],[-1.21,33.92],[-0.95,34.01],[-0.91,34.25],[-0.65,34.34],[-0.44,34.19],[0.12,34.6],[1.27,34.32],[1.54,34.41],[1.91,33.86],[2.17,33.95],[2.22,34.19],[2.97,34.2],[3.02,34.44],[3.29,34.52],[3.5,34.36],[4.11,34.77],[4.32,34.61],[4.59,34.69],[4.5,35.33],[4.78,35.41],[7.96,34.73],[8.25,34.8],[8.32,35.04],[9.11,35.02],[9.18,35.26],[9.47,35.33],[10.19,35.06],[10.48,35.13],[10.69,34.95],[10.61,34.71],[9.95,34.33],[10.01,33.67],[11.21,33.28],[11.5,33.34],[11.45,34.01],[10.74,34.29],[10.82,34.54],[11.62,34.49],[11.7,34.74],[11.23,35.75],[11.31,35.99],[11.1,36.17],[11.56,36.72],[11.34,36.89],[11.43,37.13],[9.14,37.7],[8.11,37.0],[6.37,37.42],[5.73,37.02],[4.0,37.4],[3.72,37.32],[3.66,37.08],[2.89,37.06],[2.83,36.82],[2.56,36.73],[1.36,37.01],[1.09,36.92],[1.04,36.68],[0.29,36.65],[-0.07,36.09],[-0.33,36.0],[-0.55,36.16],[-1.12,35.74],[-1.33,35.9],[-1.6,35.81],[-1.64,35.57],[-2.2,35.15],[-2.91,35.35],[-2.87,35.6],[-3.09,35.75],[-3.66,35.32],[-4.38,35.52],[-4.65,35.42],[-5.08,35.96],[-5.04,36.2],[-4.77,36.3],[-4.54,36.15],[-3.97,36.59],[-2.26,36.26],[-1.37,37.01],[-1.33,37.25],[-0.58,37.26],[-0.21,37.82],[-0.43,37.97],[-0.38,38.21],[0.2,38.61],[0.25,38.85],[-0.14,39.4],[-0.09,39.63],[0.84,40.34],[1.23,40.9],[2.02,40.94],[2.42,41.49],[3.23,41.53],[3.29,41.76],[3.59,41.85],[3.48,42.46],[3.25,42.6],[3.67,43.16],[5.04,43.13],[6.35,42.85],[7.05,43.24],[7.12,43.48],[7.98,43.48],[8.46,44.02],[8.77,44.1],[10.12,43.78],[9.23,42.94],[8.37,42.94],[8.29,42.71],[8.52,42.55],[8.05,42.01],[8.43,41.46],[8.74,41.53],[8.97,41.37],[8.89,41.14],[8.05,41.14],[7.6,40.59],[8.35,40.35],[8.27,40.12],[7.97,40.04],[7.9,39.8],[8.12,39.64],[7.67,39.09],[8.42,38.84],[8.34,38.6],[8.56,38.44],[9.24,38.82],[9.31,39.06],[10.14,39.04],[10.08,39.68],[9.86,39.85],[10.33,40.4],[9.96,40.96],[10.05,41.2],[9.82,41.36],[9.9,41.59],[9.67,41.76],[9.76,41.99],[10.61,41.97],[10.7,42.21],[11.02,42.28],[11.24,42.11],[11.56,42.18],[11.79,42.02],[11.7,41.78],[12.47,41.52],[12.38,41.28],[12.74,40.71],[14.67,40.44],[14.89,40.27],[14.8,40.03],[15.55,39.73],[15.57,39.08],[15.26,39.02],[15.16,38.79],[14.32,38.84],[14.35,38.19],[13.52,38.24],[13.17,38.83],[12.46,38.46],[11.98,37.92],[12.33,37.33],[14.19,37.05],[14.53,36.45],[15.35,36.39],[15.44,36.63],[15.23,36.81],[15.73,37.35],[15.52,37.53],[15.61,37.77],[16.45,37.7],[16.96,38.23],[16.75,38.41],[16.85,38.65],[17.58,39.0],[17.58,39.65],[16.83,39.96],[16.93,40.19],[17.25,40.25],[17.47,40.07],[17.79,40.12],[18.11,39.52],[18.86,39.85],[19.07,39.67],[19.4,39.72],[19.61,39.53],[19.5,39.3],[20.24,38.97],[20.13,38.73],[20.34,38.54],[19.8,38.02],[20.53,37.69],[20.42,37.45],[20.63,37.26],[20.94,37.31],[21.24,36.68],[22.07,36.57],[22.35,35.95],[23.18,35.83],[23.37,35.63],[23.34,34.96],[24.04,34.6],[24.77,34.9],[24.96,34.7],[25.77,34.57],[26.75,35.33],[27.55,35.18],[27.62,35.85],[28.42,35.69],[28.49,36.36],[30.29,35.83],[30.86,36.3],[30.68,36.51],[30.81,36.73],[31.12,36.75],[31.3,36.54],[32.1,36.36],[32.32,35.72],[33.07,35.97],[33.24,35.76],[33.11,35.54],[32.36,35.29],[31.79,34.82],[31.96,34.61],[33.21,34.23],[33.35,34.46],[34.09,34.7],[34.19,35.36],[34.5,35.37],[35.08,35.82],[34.91,36.03],[34.6,36.02],[34.02,35.57],[33.72,35.56],[33.55,35.77],[33.68,35.99],[34.88,36.46],[35.52,36.04],[35.38,35.83],[35.54,35.61],[35.41,35.39],[35.62,34.31],[35.48,34.09],[35.18,34.08],[35.05,33.86],[35.21,33.65],[34.64,33.19],[34.83,32.54],[34.7,32.32],[34.41,32.31],[34.3,31.65],[33.59,31.39],[33.42,31.6],[33.13,31.59],[33.0,31.36],[32.71,31.35],[31.61,31.94],[30.89,31.67],[30.72,31.88],[30.42,31.86],[29.46,31.12],[29.63,30.91],[29.93,30.94],[30.47,31.42],[30.77,31.44],[30.94,31.23],[31.65,31.5],[33.2,30.71],[33.49,30.73],[33.62,30.95],[33.91,30.97],[34.07,30.75],[34.79,31.01],[35.39,30.59],[35.68,30.6],[35.81,30.83],[36.1,30.84],[36.25,30.62],[36.96,30.86],[37.55,30.44],[37.83,30.45],[37.97,30.67],[38.68,30.46],[38.82,30.68],[39.1,30.68],[39.24,30.47],[39.94,30.69],[40.08,30.47],[40.36,30.47],[40.92,30.9],[41.2,30.9],[41.33,30.68],[42.03,30.89],[42.16,30.68],[42.44,30.67],[42.99,31.09],[42.87,31.73],[43.43,32.14],[44.1,31.91],[44.22,31.27],[44.9,31.45],[45.81,30.79],[46.08,30.77],[46.22,30.98],[46.87,30.74],[47.01,30.94],[46.89,31.15],[47.44,31.54],[47.32,31.75],[47.47,31.95],[46.57,32.63],[45.91,32.88],[45.81,33.51],[45.53,33.53],[45.41,33.74],[45.57,34.36],[45.04,34.81],[45.19,35.01],[45.87,34.76],[45.95,33.71],[46.23,33.7],[46.74,33.25],[47.84,33.59],[47.93,32.96],[48.62,33.09],[49.13,32.61],[49.84,32.71],[50.05,33.29],[51.22,33.52],[51.39,33.7],[52.45,33.12],[52.62,33.29],[52.13,33.79],[52.3,33.97],[52.2,34.19],[51.91,34.24],[51.74,34.06],[51.06,34.37],[51.01,34.99],[51.18,35.18],[51.93,35.27],[52.05,35.05],[51.87,34.86],[51.98,34.64],[52.26,34.59],[52.51,35.18],[53.28,35.27],[53.46,35.45],[54.15,35.12],[55.3,35.56],[56.09,35.63],[56.28,35.81],[56.18,36.05],[56.88,36.35],[56.78,36.58],[56.99,36.76],[57.29,36.71],[57.28,36.06],[58.08,36.12],[58.28,36.29],[58.19,36.53],[57.49,36.88],[57.39,37.12],[58.11,37.42],[58.13,38.08],[58.35,38.26],[59.46,37.59],[60.73,38.0],[61.57,38.04],[61.94,38.63],[62.25,38.56],[62.48,38.73],[62.4,38.98],[61.28,39.67],[61.2,39.92],[60.88,39.98],[60.79,40.23],[60.47,40.29],[60.38,40.54],[59.22,41.21],[59.12,41.45],[58.79,41.51],[58.69,41.76],[58.37,41.81],[58.39,42.48],[58.62,42.67],[58.52,42.91],[57.3,43.56],[57.19,43.8],[56.85,43.86],[56.74,44.1],[56.4,44.15],[56.28,44.39],[55.94,44.44],[55.83,44.68],[55.48,44.72],[55.36,44.96],[55.02,45.01],[54.9,45.25],[55.12,45.44],[55.47,45.39],[55.7,45.58],[55.7,46.25],[56.52,46.59],[56.4,46.83],[56.64,47.02],[57.0,46.97],[57.25,47.16],[57.13,47.4],[57.38,47.59],[58.22,47.24],[59.08,47.56],[58.97,47.81],[59.23,47.99],[62.13,48.42],[62.4,48.6],[62.77,48.54],[63.05,48.72],[63.42,48.65],[63.7,48.82],[64.07,48.75],[64.36,48.93],[65.18,48.53],[65.47,48.7],[65.84,48.63],[65.92,48.37],[65.64,48.2],[65.72,47.95],[66.08,47.87],[66.16,47.62],[65.88,47.45],[65.96,47.2],[68.89,47.45],[69.19,47.62],[69.55,47.53],[69.61,47.27],[69.32,47.11],[69.38,46.86],[69.73,46.77],[69.79,46.51],[70.55,46.07],[70.6,45.82],[71.34,45.37],[71.39,45.12],[72.36,45.08],[72.78,44.47],[71.88,44.25],[71.54,44.35],[71.03,43.78],[70.7,43.87],[69.81,43.64],[69.48,43.73],[69.42,43.99],[68.47,44.0],[68.41,44.25],[68.07,44.34],[67.8,44.17],[67.86,43.92],[68.2,43.83],[68.66,43.24],[69.6,43.23],[69.44,42.56]],[[22.19,63.82],[21.31,63.45],[21.0,63.58],[21.08,63.8],[21.96,64.17],[22.05,64.39],[21.49,64.87],[21.57,65.08],[22.74,65.11],[22.83,65.32],[23.26,65.4],[24.34,65.2],[24.23,64.99],[22.27,64.04],[22.19,63.82]],[[55.48,37.03],[55.18,37.08],[55.07,37.32],[55.27,37.5],[55.57,37.45],[55.68,37.21],[55.48,37.03]],[[42.18,32.81],[42.05,33.03],[42.19,33.24],[42.47,33.23],[42.61,33.01],[42.46,32.8],[43.02,32.36],[42.87,32.15],[42.18,32.38],[42.04,32.6],[42.18,32.81]],[[21.55,57.48],[21.14,57.44],[20.99,57.26],[21.26,57.11],[20.56,56.7],[20.83,56.55],[20.69,56.36],[21.07,55.86],[20.93,55.67],[20.53,55.63],[20.39,55.44],[20.65,55.29],[20.51,55.09],[19.86,55.21],[18.94,54.92],[17.63,55.13],[16.98,54.69],[15.95,54.73],[15.82,54.53],[15.17,54.62],[14.29,54.3],[13.87,54.78],[13.22,54.86],[12.35,54.53],[12.08,54.67],[12.68,55.14],[13.72,55.12],[13.83,55.32],[14.22,55.38],[14.64,54.9],[15.68,54.87],[15.8,55.07],[15.53,55.21],[15.65,55.41],[14.72,55.64],[14.84,55.83],[15.9,55.8],[16.54,56.25],[16.94,56.3],[17.07,56.49],[16.8,56.63],[16.93,56.82],[17.46,57.06],[17.87,57.11],[18.28,56.63],[18.68,56.68],[18.81,56.87],[18.54,57.01],[19.23,57.43],[18.95,57.58],[19.09,57.76],[19.65,57.99],[19.37,58.13],[19.51,58.32],[18.82,58.42],[18.27,58.19],[18.13,58.0],[18.41,57.86],[17.73,57.44],[17.32,57.39],[16.9,57.86],[17.58,58.28],[17.3,58.42],[17.43,58.61],[18.54,58.56],[19.25,58.97],[18.97,59.11],[19.11,59.29],[20.25,59.72],[22.37,59.4],[21.79,59.19],[21.64,59.01],[21.91,58.86],[21.19,58.47],[21.46,58.32],[21.31,58.14],[21.58,57.99],[21.43,57.81],[21.7,57.66],[21.55,57.48]],[[36.67,46.65],[36.85,46.45],[37.69,46.63],[37.87,46.43],[37.72,45.84],[36.89,45.65],[36.71,45.86],[36.37,45.86],[36.22,45.66],[35.88,45.67],[35.17,46.07],[35.82,46.47],[36.67,46.65]],[[31.57,41.49],[30.77,41.24],[30.58,41.45],[30.26,41.43],[30.12,41.21],[29.79,41.2],[29.07,41.58],[28.74,41.56],[28.54,41.76],[28.68,41.98],[27.95,42.35],[28.08,42.57],[27.88,42.77],[28.02,42.99],[28.83,43.25],[28.91,43.88],[28.71,44.07],[28.85,44.29],[29.67,44.53],[29.75,45.15],[30.1,45.17],[30.35,44.56],[30.7,44.58],[30.79,45.2],[30.04,45.57],[31.18,46.22],[31.52,46.23],[32.26,45.85],[32.11,45.64],[32.31,45.44],[31.67,45.02],[31.91,44.41],[32.25,44.42],[32.97,44.03],[33.31,44.03],[33.46,44.24],[34.31,44.05],[34.46,44.25],[34.8,44.25],[34.98,44.05],[35.8,44.25],[35.98,44.05],[36.31,44.05],[36.96,44.44],[37.78,44.63],[37.96,44.02],[38.78,44.2],[38.96,43.58],[40.25,43.13],[41.36,42.47],[41.21,42.27],[41.36,41.65],[40.27,41.08],[39.49,41.31],[39.33,41.11],[39.02,41.12],[38.86,41.33],[38.07,41.14],[36.43,41.99],[35.64,41.78],[35.43,42.4],[34.15,41.98],[33.46,42.38],[33.13,42.38],[31.57,41.49]],[[11.4,57.24],[11.68,57.11],[11.57,56.92],[10.69,56.58],[10.4,56.71],[11.01,57.17],[11.4,57.24]],[[25.56,38.73],[24.71,38.86],[24.51,39.06],[24.63,39.29],[24.96,39.32],[25.16,39.12],[25.48,39.15],[25.68,38.96],[25.56,38.73]],[[17.96,61.29],[18.1,61.46],[17.81,61.59],[17.95,61.77],[17.66,61.89],[17.8,62.07],[19.41,63.04],[19.48,63.25],[19.85,63.34],[19.92,63.55],[20.62,63.5],[20.09,62.99],[20.4,62.86],[20.33,62.65],[20.86,62.16],[20.78,61.95],[21.3,61.46],[21.22,61.25],[20.29,60.7],[19.27,60.45],[18.26,60.68],[18.4,60.85],[18.11,60.99],[17.38,61.07],[17.96,61.29]],[[25.55,35.87],[25.67,36.11],[25.99,36.14],[26.18,35.94],[26.06,35.7],[25.32,35.41],[24.62,35.77],[23.8,35.9],[23.52,36.53],[23.64,36.77],[23.95,36.8],[24.15,36.61],[24.47,36.64],[24.66,36.44],[24.97,36.48],[25.24,35.84],[25.55,35.87]],[[24.67,38.2],[24.79,38.43],[25.11,38.47],[26.34,37.93],[26.22,37.7],[25.9,37.67],[24.67,38.2]],[[17.45,41.36],[17.13,41.31],[16.36,41.61],[16.34,42.25],[16.67,42.31],[16.78,42.54],[18.76,42.21],[18.98,42.03],[18.87,41.8],[19.09,41.62],[18.98,41.39],[19.3,40.79],[19.19,40.55],[18.86,40.51],[18.65,40.69],[17.78,40.77],[17.45,41.36]],[[88.67,54.11],[88.0,54.64],[88.03,54.89],[88.84,55.34],[89.19,55.19],[89.15,54.95],[88.77,54.85],[88.73,54.6],[89.08,54.45],[89.46,54.55],[90.1,54.01],[90.06,53.76],[88.98,53.71],[88.63,53.86],[88.67,54.11]],[[25.53,39.81],[25.86,39.84],[26.06,39.64],[25.93,39.41],[25.61,39.38],[25.41,39.58],[25.53,39.81]],[[102.8,54.72],[103.07,54.54],[102.97,54.31],[102.6,54.26],[102.32,54.43],[102.43,54.66],[102.8,54.72]],[[-3.65,54.03],[-3.7,53.81],[-4.04,53.74],[-4.35,53.9],[-4.3,54.11],[-3.65,54.03]],[[73.49,45.96],[74.43,46.16],[74.77,46.05],[74.8,45.8],[74.24,45.24],[73.53,45.7],[73.49,45.96]],[[14.33,43.17],[14.43,43.4],[13.64,43.67],[13.74,43.9],[12.95,44.17],[13.04,44.4],[12.67,44.95],[12.77,45.18],[13.1,45.25],[13.33,45.08],[13.24,44.86],[13.47,44.69],[13.8,44.76],[14.04,44.59],[13.94,44.36],[14.73,44.09],[14.63,43.86],[15.42,43.58],[15.44,42.95],[16.22,42.66],[16.12,42.43],[15.79,42.37],[15.57,42.54],[14.81,42.19],[14.46,42.77],[14.56,43.0],[14.33,43.17]],[[-0.16,50.06],[-0.02,49.45],[-1.18,49.65],[-0.75,50.16],[-0.16,50.06]],[[-3.22,33.42],[-3.55,32.84],[-3.81,32.74],[-4.03,32.88],[-3.7,33.47],[-3.44,33.56],[-3.22,33.42]],[[-3.29,34.53],[-3.03,34.63],[-2.81,34.48],[-2.85,34.24],[-3.4,33.81],[-3.62,33.95],[-3.59,34.2],[-3.33,34.29],[-3.29,34.53]],[[24.14,57.33],[23.72,57.3],[23.36,57.79],[23.51,57.97],[24.19,57.84],[24.03,57.66],[24.29,57.51],[24.14,57.33]],[[26.42,59.82],[26.15,59.98],[26.26,60.2],[26.91,60.1],[26.8,59.88],[26.42,59.82]],[[25.0,39.97],[24.88,39.75],[24.56,39.71],[24.35,39.91],[24.48,40.14],[24.8,40.17],[25.0,39.97]],[[25.67,59.7],[25.03,59.79],[25.13,60.01],[25.5,60.07],[25.77,59.92],[25.67,59.7]],[[12.02,56.46],[11.74,56.59],[11.85,56.79],[12.52,56.72],[12.41,56.53],[12.02,56.46]],[[-2.88,48.85],[-2.83,49.08],[-2.24,48.99],[-2.29,48.76],[-2.61,48.69],[-2.88,48.85]]],[[[-6.6,61.76],[-5.72,62.07],[-5.67,62.26],[-6.37,62.74],[-7.72,62.17],[-7.76,61.97],[-7.39,61.84],[-7.43,61.64],[-6.74,61.16],[-6.33,61.22],[-6.28,61.42],[-6.65,61.56],[-6.6,61.76]]],[[[151.26,-32.05],[152.17,-31.24],[152.0,-30.57],[152.78,-30.52],[153.02,-30.67],[152.69,-31.28],[152.93,-31.44],[152.9,-31.69],[152.31,-32.16],[152.28,-32.41],[151.47,-32.46],[151.11,-33.07],[150.83,-33.18],[150.38,-32.61],[150.1,-32.71],[149.86,-32.55],[149.25,-33.0],[149.01,-32.84],[148.73,-32.94],[148.68,-33.19],[149.12,-33.76],[149.08,-34.02],[148.26,-34.05],[148.21,-34.3],[147.25,-35.08],[147.2,-35.34],[146.9,-35.43],[146.66,-35.26],[146.02,-35.69],[143.15,-35.11],[142.86,-35.19],[142.79,-35.44],[141.98,-35.42],[141.75,-35.25],[141.82,-35.0],[141.08,-34.73],[141.15,-34.49],[140.93,-34.32],[140.13,-34.29],[139.42,-34.02],[139.49,-33.77],[138.99,-32.76],[138.36,-33.15],[138.15,-32.97],[138.22,-32.73],[138.02,-32.56],[137.74,-32.63],[136.95,-33.49],[135.95,-34.16],[135.27,-33.87],[135.23,-33.21],[135.03,-33.03],[134.29,-32.98],[133.99,-32.39],[133.25,-32.33],[133.17,-32.56],[133.82,-32.86],[133.74,-33.1],[133.93,-33.27],[134.21,-33.22],[134.4,-33.39],[133.96,-33.93],[134.15,-34.1],[134.79,-33.75],[134.99,-33.93],[135.02,-34.58],[134.74,-34.64],[134.66,-34.88],[135.34,-35.18],[135.63,-35.12],[135.83,-35.3],[135.75,-35.54],[136.45,-35.83],[136.37,-36.07],[136.58,-36.25],[137.38,-36.3],[137.59,-36.48],[137.88,-36.42],[138.33,-35.86],[139.13,-35.9],[139.64,-36.92],[139.57,-37.16],[139.79,-37.34],[139.72,-37.58],[139.95,-37.76],[139.87,-38.0],[140.63,-38.28],[140.94,-38.21],[141.33,-38.8],[142.18,-38.83],[142.24,-38.58],[142.55,-38.51],[142.96,-39.1],[143.27,-39.02],[143.51,-39.19],[143.82,-39.11],[144.25,-38.53],[145.1,-38.54],[145.35,-38.71],[145.29,-38.96],[146.09,-39.2],[146.04,-39.45],[146.29,-39.62],[147.16,-39.61],[147.42,-39.77],[147.57,-40.43],[146.89,-40.86],[146.63,-40.7],[145.75,-40.7],[145.3,-40.12],[144.43,-40.11],[144.0,-39.53],[143.69,-39.61],[143.63,-39.85],[144.06,-40.44],[144.37,-40.36],[144.62,-40.53],[144.18,-41.1],[144.62,-41.69],[144.56,-41.93],[144.81,-42.1],[144.75,-42.35],[145.01,-42.51],[144.95,-42.76],[145.21,-42.92],[145.15,-43.17],[146.0,-43.42],[145.94,-43.66],[146.2,-43.83],[147.13,-43.83],[147.4,-43.99],[148.48,-43.23],[148.53,-42.98],[148.26,-42.82],[148.31,-42.58],[148.63,-42.49],[148.68,-42.24],[148.42,-42.08],[148.83,-41.49],[148.35,-40.92],[148.77,-40.33],[148.5,-40.17],[148.34,-39.5],[147.52,-39.27],[147.37,-38.6],[147.68,-38.51],[148.08,-37.92],[149.49,-37.96],[149.75,-38.12],[150.4,-37.67],[150.44,-37.41],[150.18,-37.26],[150.22,-37.0],[150.52,-36.91],[150.35,-36.24],[151.31,-35.43],[151.35,-35.17],[151.1,-35.02],[151.13,-34.76],[151.75,-34.31],[151.57,-33.64],[151.85,-33.54],[151.89,-33.28],[152.17,-33.18],[152.21,-32.92],[152.49,-32.82],[152.52,-32.56],[153.42,-31.74],[153.45,-31.48],[153.21,-31.33],[153.24,-31.08],[153.51,-30.97],[153.33,-30.31],[153.9,-29.84],[153.93,-29.59],[153.69,-29.44],[153.71,-29.18],[153.98,-29.08],[154.01,-28.82],[153.77,-28.68],[154.09,-28.06],[153.86,-27.91],[153.88,-27.66],[153.24,-26.71],[153.27,-26.46],[153.53,-26.36],[153.56,-26.1],[153.33,-25.96],[152.78,-26.42],[152.95,-27.07],[152.39,-27.53],[152.36,-27.78],[152.8,-28.33],[153.06,-28.23],[153.3,-28.38],[152.97,-28.99],[153.21,-29.14],[153.18,-29.39],[152.91,-29.5],[152.88,-29.75],[153.12,-29.9],[153.09,-30.16],[152.81,-30.26],[152.06,-30.06],[152.1,-29.81],[152.37,-29.71],[152.4,-29.45],[152.16,-29.3],[152.5,-28.69],[152.26,-28.54],[151.99,-28.64],[151.66,-29.25],[151.08,-29.71],[151.24,-30.37],[150.97,-30.47],[150.93,-30.72],[151.37,-31.29],[151.02,-31.9],[151.26,-32.05]],[[136.8,-33.97],[137.08,-33.9],[137.29,-34.08],[137.34,-34.74],[137.06,-34.8],[136.36,-34.51],[136.8,-33.97]],[[137.78,-34.19],[137.57,-34.01],[137.65,-33.77],[138.28,-33.39],[138.49,-33.57],[138.06,-34.12],[137.78,-34.19]]],[[[24.98,31.8],[25.28,31.83],[25.39,32.07],[25.21,32.27],[24.42,32.41],[24.3,32.17],[24.98,31.8]]],[[[51.33,28.7],[50.97,28.96],[51.13,29.12],[51.02,29.34],[50.39,29.64],[50.34,30.24],[49.92,30.11],[49.29,30.38],[48.76,30.01],[48.13,30.25],[47.99,30.05],[48.11,29.84],[47.57,29.45],[47.68,29.24],[47.94,29.22],[48.02,28.6],[48.63,28.36],[48.77,28.56],[48.66,28.77],[48.41,28.78],[48.3,29.0],[48.84,29.38],[48.72,29.59],[48.87,29.79],[49.51,29.96],[49.62,29.74],[49.87,29.73],[49.94,29.11],[50.91,28.58],[51.02,28.36],[50.86,28.2],[51.32,27.73],[51.73,27.85],[51.27,28.32],[51.43,28.48],[51.33,28.7]]],[[[5.86,62.37],[5.96,62.55],[6.66,62.4],[7.55,62.61],[7.66,62.79],[7.37,62.95],[7.47,63.13],[7.87,63.14],[8.5,63.5],[9.58,63.35],[9.69,63.52],[10.9,63.55],[11.02,63.72],[9.93,63.86],[10.62,64.26],[10.29,64.37],[9.36,64.19],[8.66,64.35],[8.54,64.18],[8.13,64.17],[8.02,64.0],[8.32,63.83],[8.2,63.66],[7.8,63.65],[6.16,62.91],[5.76,62.89],[5.66,62.71],[5.26,62.69],[5.16,62.51],[4.76,62.49],[4.67,62.31],[4.97,62.14],[5.86,62.37]]],[[[-8.51,57.88],[-8.13,57.95],[-8.09,58.16],[-8.82,58.23],[-9.27,57.73],[-8.92,57.6],[-8.54,57.67],[-8.51,57.88]]],[[[75.91,39.31],[77.92,39.31],[78.45,39.84],[78.75,39.73],[79.03,39.87],[79.28,40.51],[80.14,40.67],[80.13,40.92],[80.42,41.06],[80.71,40.94],[81.0,41.07],[81.27,41.71],[79.8,41.8],[79.51,41.67],[79.52,41.41],[79.23,41.27],[79.25,41.02],[78.7,40.49],[77.24,40.54],[76.71,40.0],[75.83,40.07],[75.56,39.92],[75.91,39.31]]],[[[-6.43,59.06],[-6.08,58.91],[-5.69,58.97],[-5.65,59.18],[-6.38,59.26],[-6.43,59.06]]],[[[63.5,42.85],[63.25,42.67],[63.33,42.43],[63.66,42.35],[63.91,42.53],[63.83,42.78],[63.5,42.85]]],[[[-10.46,29.46],[-10.75,28.84],[-10.51,28.71],[-10.26,28.83],[-9.98,29.44],[-9.46,29.92],[-9.65,30.55],[-9.89,30.68],[-10.14,30.57],[-9.94,29.94],[-10.46,29.46]]],[[[12.11,65.38],[12.7,65.76],[12.58,65.93],[12.95,66.03],[12.83,66.2],[13.2,66.31],[13.08,66.48],[13.46,66.59],[13.35,66.76],[13.73,66.87],[13.62,67.04],[12.72,67.01],[12.84,66.83],[12.46,66.73],[12.59,66.55],[11.97,66.17],[12.1,66.0],[11.74,65.89],[11.86,65.72],[11.51,65.62],[11.64,65.45],[11.29,65.34],[11.42,65.18],[10.28,65.03],[10.41,64.87],[10.13,64.7],[11.2,64.49],[12.23,65.21],[12.11,65.38]]],[[[-123.45,44.45],[-123.37,44.24],[-123.06,44.2],[-122.83,44.37],[-122.91,44.58],[-122.35,45.5],[-122.43,45.71],[-122.98,45.59],[-122.9,45.38],[-123.45,44.45]]],[[[-14.82,64.52],[-15.28,64.44],[-15.38,64.22],[-14.59,64.16],[-14.48,64.38],[-13.44,64.76],[-13.32,64.98],[-14.13,65.05],[-14.82,64.52]]],[[[-52.93,-33.46],[-52.73,-33.35],[-52.77,-33.16],[-53.21,-33.17],[-52.93,-33.46]]],[[[-14.96,25.77],[-14.96,25.53],[-14.72,25.4],[-14.48,25.53],[-13.98,26.52],[-14.22,26.65],[-14.46,26.52],[-14.47,26.27],[-14.96,25.77]]],[[[170.97,-46.33],[171.26,-46.18],[170.9,-45.6],[171.43,-45.07],[171.65,-44.44],[173.07,-44.18],[173.04,-43.94],[173.31,-43.79],[172.95,-43.22],[173.77,-43.01],[173.73,-42.77],[174.44,-41.83],[174.4,-41.59],[174.66,-41.44],[174.94,-41.53],[174.98,-41.77],[175.81,-41.8],[176.06,-41.64],[176.22,-41.01],[176.99,-40.79],[177.34,-39.76],[178.08,-39.54],[178.04,-39.3],[178.27,-39.14],[178.22,-38.9],[178.45,-38.75],[178.4,-38.51],[178.98,-37.57],[178.94,-37.33],[178.67,-37.25],[177.46,-37.53],[176.69,-37.5],[176.65,-37.26],[176.07,-36.83],[176.03,-36.59],[176.26,-36.44],[175.92,-35.86],[175.16,-35.81],[174.52,-34.88],[173.76,-34.82],[173.73,-34.58],[173.18,-34.12],[172.44,-34.3],[172.76,-34.9],[173.02,-35.01],[172.84,-35.65],[174.01,-36.79],[174.04,-37.04],[174.32,-37.14],[174.35,-37.38],[174.62,-37.48],[174.66,-37.72],[174.0,-38.66],[174.03,-38.9],[173.78,-39.05],[173.81,-39.3],[173.56,-39.45],[173.6,-39.69],[174.41,-39.73],[175.08,-40.65],[174.83,-40.8],[174.55,-40.71],[174.51,-40.47],[174.23,-40.37],[173.44,-40.58],[172.84,-40.14],[172.35,-40.68],[172.07,-40.58],[171.81,-40.72],[172.15,-41.31],[171.33,-41.51],[171.36,-41.75],[170.6,-42.68],[170.62,-42.93],[169.78,-43.11],[169.8,-43.36],[169.52,-43.5],[169.22,-43.4],[168.94,-43.54],[168.96,-43.78],[168.67,-43.92],[168.37,-43.82],[168.08,-43.96],[168.1,-44.2],[167.81,-44.34],[167.51,-44.24],[167.22,-44.37],[167.23,-44.62],[166.65,-45.14],[166.67,-45.38],[166.08,-45.9],[166.09,-46.15],[166.72,-46.61],[166.73,-46.85],[167.38,-47.3],[167.39,-47.54],[167.71,-47.65],[168.01,-47.51],[168.0,-47.27],[168.91,-47.09],[168.89,-46.85],[169.19,-46.71],[170.11,-46.76],[170.66,-46.23],[170.97,-46.33]],[[170.42,-43.8],[170.12,-43.7],[170.1,-43.46],[170.37,-43.32],[170.67,-43.42],[170.7,-43.66],[170.42,-43.8]]],[[[28.98,31.3],[28.69,31.28],[28.57,31.04],[28.74,30.84],[29.04,30.86],[29.16,31.1],[28.98,31.3]]],[[[-24.69,36.67],[-25.03,37.29],[-24.77,37.44],[-24.79,37.69],[-25.09,37.8],[-25.12,38.06],[-25.98,38.13],[-26.24,37.98],[-26.21,37.72],[-25.27,36.89],[-25.24,36.63],[-24.95,36.52],[-24.69,36.67]]],[[[-121.03,34.22],[-120.75,34.15],[-120.34,33.61],[-119.55,33.64],[-119.49,33.4],[-119.71,33.23],[-119.65,32.99],[-119.37,32.92],[-118.99,33.51],[-119.05,33.75],[-118.83,33.92],[-118.55,33.85],[-118.8,32.78],[-118.52,32.71],[-118.14,33.29],[-117.86,33.22],[-117.8,32.98],[-117.52,32.9],[-117.62,32.24],[-117.0,31.85],[-116.61,31.28],[-116.33,31.2],[-116.11,31.37],[-116.5,31.94],[-116.78,32.01],[-116.67,32.67],[-117.64,33.39],[-117.53,34.04],[-118.32,34.02],[-118.73,34.57],[-119.02,34.64],[-119.24,34.47],[-120.03,34.43],[-120.44,34.97],[-120.73,35.04],[-120.64,35.69],[-121.64,36.34],[-121.71,36.57],[-121.49,36.75],[-121.92,37.27],[-121.69,37.44],[-121.76,37.68],[-122.06,37.73],[-122.13,37.96],[-122.42,38.02],[-123.22,38.81],[-123.51,38.86],[-123.58,39.09],[-123.36,39.26],[-123.8,39.76],[-123.58,39.94],[-123.66,40.16],[-124.33,40.48],[-124.54,40.31],[-124.1,39.81],[-124.32,39.64],[-124.24,39.42],[-123.95,39.37],[-124.02,38.74],[-123.36,38.41],[-123.43,37.78],[-122.64,37.85],[-122.71,37.21],[-122.06,36.87],[-122.14,36.23],[-121.5,35.87],[-121.58,35.23],[-120.95,34.87],[-121.03,34.22]]],[[[-60.88,-38.69],[-60.87,-39.04],[-60.64,-39.07],[-60.53,-38.91],[-60.88,-38.69]]],[[[131.44,43.01],[130.77,42.86],[130.79,42.63],[130.57,42.51],[130.59,42.29],[130.82,42.19],[131.48,42.34],[131.47,42.56],[131.69,42.69],[134.24,42.68],[134.71,43.14],[135.19,43.16],[135.43,43.73],[135.19,43.84],[134.71,43.37],[134.47,43.48],[134.0,43.01],[132.59,42.95],[132.11,43.38],[131.65,43.35],[131.43,43.23],[131.44,43.01]]],[[[38.2,65.29],[37.69,65.26],[36.61,65.56],[35.39,65.27],[35.1,65.44],[35.3,65.65],[35.01,65.81],[35.94,66.28],[36.46,66.32],[38.9,65.92],[39.14,66.13],[38.86,66.3],[32.52,67.11],[32.33,66.9],[33.16,66.79],[33.48,66.63],[33.28,66.42],[33.59,66.26],[34.1,66.31],[34.3,66.52],[35.12,66.4],[34.2,65.93],[34.5,65.77],[34.3,65.56],[34.6,65.39],[34.4,65.18],[34.7,65.01],[34.5,64.8],[34.79,64.63],[34.59,64.42],[36.12,64.16],[36.4,63.99],[36.2,63.77],[36.47,63.6],[37.64,63.88],[37.91,63.71],[38.39,63.74],[38.61,63.95],[38.34,64.13],[38.57,64.34],[38.3,64.52],[37.03,64.62],[36.75,64.8],[36.96,65.01],[39.8,64.61],[40.8,65.05],[39.74,65.39],[39.98,65.6],[42.1,66.09],[42.37,66.29],[43.73,66.14],[44.01,66.35],[44.56,66.36],[44.86,66.56],[44.6,66.75],[44.9,66.95],[46.29,66.78],[46.6,66.98],[45.51,67.35],[45.82,67.55],[45.55,67.73],[44.97,67.72],[44.66,67.52],[44.93,67.34],[43.77,66.92],[44.04,66.73],[43.75,66.53],[42.37,66.68],[41.28,66.24],[39.92,66.37],[39.67,66.16],[39.95,65.98],[38.94,65.53],[39.22,65.36],[38.99,65.15],[38.48,65.11],[38.2,65.29]]],[[[-11.26,28.36],[-11.01,28.48],[-10.99,28.73],[-11.23,28.86],[-11.74,28.37],[-11.98,28.5],[-12.22,28.38],[-12.24,28.13],[-11.52,27.99],[-11.27,28.11],[-11.26,28.36]]],[[[67.21,39.4],[67.65,39.98],[67.97,39.9],[68.22,40.06],[67.78,40.65],[66.89,40.65],[66.82,40.9],[66.5,40.98],[65.11,40.63],[65.01,39.96],[66.09,39.23],[65.99,38.57],[66.3,38.49],[66.54,38.65],[66.65,39.32],[66.9,39.48],[67.21,39.4]]],[[[-79.4,43.13],[-79.08,43.2],[-79.0,43.43],[-79.42,43.98],[-80.15,43.61],[-80.22,43.38],[-79.4,43.13]]],[[[64.15,41.78],[63.91,41.61],[63.99,41.36],[64.31,41.28],[64.56,41.46],[64.48,41.71],[64.15,41.78]]],[[[-15.9,28.52],[-15.9,28.77],[-16.14,28.9],[-16.39,28.77],[-16.64,28.89],[-17.14,28.38],[-17.9,29.25],[-18.39,28.73],[-18.38,28.47],[-18.13,28.35],[-18.13,28.1],[-18.37,27.97],[-18.11,27.34],[-17.86,27.22],[-17.62,27.36],[-17.88,27.98],[-17.63,28.11],[-17.13,27.62],[-16.39,27.76],[-16.39,28.01],[-16.15,28.14],[-15.66,27.64],[-14.92,27.77],[-14.19,27.65],[-13.18,28.89],[-13.17,29.14],[-13.41,29.27],[-13.4,29.52],[-13.65,29.65],[-13.9,29.53],[-13.9,29.28],[-14.92,28.02],[-15.4,28.52],[-15.65,28.4],[-15.9,28.52]]],[[[25.94,31.46],[26.24,31.49],[26.36,31.73],[26.18,31.93],[25.88,31.9],[25.76,31.66],[25.94,31.46]]],[[[-54.43,-34.86],[-54.19,-34.95],[-53.82,-34.56],[-53.38,-34.54],[-53.42,-34.35],[-53.22,-34.25],[-53.5,-33.97],[-53.7,-34.07],[-53.66,-34.26],[-54.11,-34.28],[-54.31,-34.38],[-54.27,-34.57],[-54.71,-34.58],[-55.08,-34.97],[-55.59,-34.59],[-56.67,-34.7],[-57.18,-34.32],[-57.81,-34.42],[-58.31,-34.03],[-59.14,-34.14],[-59.44,-34.83],[-58.92,-35.27],[-58.29,-35.26],[-57.43,-36.28],[-56.76,-36.37],[-56.72,-36.56],[-56.92,-36.64],[-57.69,-38.15],[-59.76,-38.67],[-59.96,-38.82],[-59.84,-39.01],[-57.42,-38.42],[-56.49,-36.65],[-56.29,-36.56],[-56.6,-36.1],[-57.27,-36.0],[-57.31,-35.82],[-56.68,-35.73],[-57.54,-34.7],[-57.34,-34.61],[-57.06,-34.89],[-56.39,-34.98],[-56.12,-35.26],[-55.75,-34.88],[-55.24,-35.25],[-54.8,-35.25],[-54.43,-34.86]]],[[[116.72,-34.89],[115.79,-34.28],[115.95,-34.12],[115.83,-33.93],[115.98,-33.77],[115.86,-33.58],[116.01,-33.42],[115.89,-33.23],[116.16,-31.72],[115.78,-31.51],[115.7,-31.0],[115.44,-30.98],[115.16,-32.47],[115.65,-32.87],[115.5,-33.02],[115.62,-33.21],[114.78,-33.47],[114.58,-33.98],[115.76,-34.63],[115.85,-35.18],[116.54,-35.42],[117.12,-35.11],[117.81,-35.34],[119.91,-34.59],[119.99,-33.99],[119.61,-33.84],[119.5,-34.39],[117.83,-34.98],[117.14,-34.75],[116.72,-34.89]]],[[[-22.6,63.73],[-21.33,63.82],[-20.63,63.34],[-19.39,63.41],[-18.23,63.24],[-17.8,63.33],[-17.71,63.56],[-16.48,63.6],[-15.84,64.14],[-16.19,64.27],[-17.18,63.87],[-17.54,64.01],[-18.51,63.6],[-20.13,63.67],[-20.82,64.15],[-21.66,64.18],[-21.61,64.41],[-22.01,64.53],[-21.95,64.77],[-22.36,64.89],[-22.82,64.79],[-22.86,64.55],[-22.46,64.43],[-22.51,64.2],[-22.95,64.09],[-23.0,63.86],[-22.6,63.73]]],[[[-21.25,65.8],[-21.31,65.57],[-20.9,65.43],[-20.43,65.53],[-20.36,65.77],[-21.25,65.8]]],[[[1.41,38.35],[2.02,38.76],[2.07,39.0],[1.68,39.53],[1.07,39.11],[1.02,38.87],[1.41,38.35]]],[[[-71.78,41.37],[-73.17,41.57],[-74.9,40.26],[-73.86,40.04],[-73.35,40.52],[-72.52,40.45],[-71.57,41.2],[-70.53,40.94],[-69.78,41.24],[-69.75,41.84],[-69.95,42.02],[-69.84,42.24],[-70.58,42.55],[-70.46,42.77],[-70.68,42.95],[-70.11,43.43],[-70.32,43.61],[-70.65,43.57],[-71.22,43.08],[-71.0,42.9],[-71.12,42.68],[-70.81,42.11],[-71.78,41.37]]],[[[93.29,52.23],[92.98,52.39],[92.61,52.3],[92.56,52.05],[92.87,51.9],[92.82,51.65],[91.79,51.62],[91.48,51.77],[90.71,51.33],[90.4,51.48],[90.04,51.38],[90.0,51.13],[91.65,50.88],[92.41,51.31],[92.71,51.16],[95.67,50.96],[96.16,51.53],[95.87,51.69],[94.86,51.69],[94.32,52.25],[93.29,52.23]]],[[[124.41,-33.05],[124.01,-32.91],[123.96,-33.52],[123.6,-33.77],[123.2,-33.62],[122.59,-33.9],[122.05,-33.56],[121.46,-33.83],[121.31,-33.65],[120.96,-33.89],[120.34,-33.76],[120.23,-33.97],[120.75,-34.31],[121.35,-34.04],[121.74,-34.2],[121.92,-34.78],[122.89,-34.27],[123.7,-34.57],[124.42,-34.07],[124.41,-33.05]]],[[[-19.81,66.09],[-19.88,65.86],[-19.48,65.73],[-19.0,65.82],[-18.92,66.05],[-19.81,66.09]]],[[[52.5,27.7],[52.41,27.91],[51.99,27.8],[52.7,27.28],[52.86,27.44],[52.76,27.65],[52.5,27.7]]],[[[4.25,40.32],[3.96,40.23],[3.73,40.38],[3.44,40.3],[3.38,40.06],[2.58,40.03],[2.53,39.8],[2.24,39.71],[2.35,39.09],[3.08,38.88],[3.71,39.29],[3.77,39.52],[4.57,39.54],[4.47,40.17],[4.25,40.32]]],[[[-31.45,39.91],[-31.71,39.75],[-31.66,39.5],[-30.99,39.07],[-30.73,39.22],[-31.14,39.82],[-31.45,39.91]]],[[[-12.5,27.76],[-12.48,28.01],[-12.72,28.14],[-12.97,28.02],[-12.98,27.77],[-12.74,27.64],[-12.5,27.76]]],[[[56.78,35.93],[56.58,35.76],[56.68,35.52],[57.36,35.18],[57.56,35.35],[57.07,35.88],[56.78,35.93]]],[[[121.59,40.94],[122.08,40.59],[122.51,40.68],[122.03,41.04],[121.59,40.94]]],[[[53.47,33.15],[53.75,33.1],[53.93,33.28],[53.83,33.5],[53.54,33.55],[53.36,33.37],[53.47,33.15]]],[[[-14.35,65.41],[-13.06,65.42],[-12.93,65.64],[-14.11,65.86],[-13.98,66.08],[-14.34,66.22],[-14.83,66.15],[-14.95,65.92],[-14.59,65.78],[-14.71,65.56],[-14.35,65.41]]],[[[-16.96,66.41],[-17.45,66.32],[-17.55,66.1],[-16.67,66.04],[-16.57,66.27],[-16.96,66.41]]],[[[126.65,-32.3],[126.49,-32.12],[126.14,-32.38],[126.71,-32.7],[126.97,-32.66],[127.07,-32.44],[126.91,-32.26],[126.65,-32.3]]],[[[-86.4,42.04],[-86.59,42.65],[-87.43,42.84],[-87.39,43.07],[-87.66,43.21],[-88.3,42.8],[-88.33,42.57],[-87.59,41.7],[-86.74,41.73],[-86.7,41.96],[-86.4,42.04]]],[[[137.47,45.84],[137.47,45.61],[137.72,45.5],[137.98,45.62],[138.55,46.54],[138.02,46.54],[138.01,46.31],[137.47,45.84]]],[[[-61.69,-38.75],[-62.41,-38.99],[-62.05,-39.22],[-61.69,-39.1],[-61.69,-38.75]]],[[[48.6,27.95],[49.42,27.29],[49.8,27.47],[48.99,28.13],[48.6,27.95]]],[[[-73.25,-36.99],[-73.68,-37.08],[-73.6,-37.29],[-73.34,-37.36],[-73.16,-37.21],[-73.25,-36.99]]],[[[127.83,39.7],[128.0,40.04],[127.79,40.13],[127.6,40.01],[127.83,39.7]]],[[[39.49,68.06],[39.8,67.89],[40.36,67.92],[40.64,68.12],[39.45,68.44],[38.88,68.4],[38.62,68.2],[38.93,68.03],[39.49,68.06]]],[[[-72.41,-35.85],[-72.88,-35.92],[-72.85,-36.12],[-73.08,-36.26],[-72.99,-36.47],[-72.57,-36.39],[-72.41,-35.85]]],[[[129.58,41.23],[130.01,41.26],[130.37,42.17],[129.93,42.14],[129.58,41.23]]],[[[72.45,66.41],[71.41,66.36],[71.5,66.14],[72.05,66.05],[72.52,66.19],[72.45,66.41]]],[[[18.33,-33.65],[18.26,-34.23],[18.42,-34.42],[19.15,-34.59],[19.27,-34.4],[18.82,-34.22],[18.61,-33.64],[18.33,-33.65]]],[[[158.95,-31.45],[158.94,-31.7],[159.19,-31.84],[159.46,-31.72],[159.47,-31.47],[159.22,-31.33],[158.95,-31.45]]],[[[-122.48,49.02],[-123.63,48.78],[-123.14,48.34],[-122.81,48.3],[-122.73,48.1],[-123.14,47.57],[-123.06,47.37],[-122.34,47.08],[-121.76,47.97],[-121.84,48.18],[-122.57,48.46],[-122.48,49.02]]],[[[48.16,67.58],[47.57,67.57],[47.25,67.38],[47.5,67.19],[47.18,66.99],[47.43,66.8],[48.0,66.8],[48.33,67.0],[48.08,67.19],[48.41,67.38],[48.16,67.58]]],[[[11.63,32.92],[12.33,32.63],[12.62,32.69],[12.7,32.93],[12.0,33.23],[11.71,33.16],[11.63,32.92]]],[[[92.97,50.76],[92.66,50.91],[92.31,50.82],[92.26,50.57],[92.56,50.42],[93.56,50.45],[93.62,50.69],[93.32,50.85],[92.97,50.76]]],[[[166.8,-48.3],[166.79,-48.06],[166.47,-47.95],[166.16,-48.09],[166.17,-48.33],[166.49,-48.43],[166.8,-48.3]]],[[[41.54,66.83],[41.26,67.01],[40.7,66.98],[40.44,66.78],[40.72,66.6],[41.27,66.63],[41.54,66.83]]],[[[125.47,-32.28],[124.77,-32.8],[124.67,-33.02],[124.82,-33.2],[125.78,-32.64],[125.88,-32.42],[125.47,-32.28]]],[[[-176.5,-43.53],[-177.27,-43.72],[-177.2,-43.95],[-176.17,-44.68],[-175.76,-44.17],[-175.83,-43.94],[-176.5,-43.53]]],[[[-81.57,41.8],[-81.87,41.73],[-81.93,41.5],[-81.38,41.42],[-81.32,41.65],[-81.57,41.8]]],[[[-16.13,32.96],[-15.87,33.09],[-15.87,33.34],[-16.13,33.47],[-16.65,32.96],[-17.44,33.08],[-17.7,32.95],[-17.7,32.69],[-17.43,32.57],[-17.17,32.7],[-16.65,32.19],[-16.13,32.71],[-16.13,32.96]]],[[[-27.24,39.06],[-27.89,39.52],[-28.15,39.36],[-28.12,39.11],[-28.95,38.9],[-29.13,38.24],[-27.14,38.29],[-26.64,38.85],[-26.67,39.1],[-26.98,39.21],[-27.24,39.06]]],[[[136.42,44.21],[136.68,44.79],[136.94,44.91],[136.94,45.14],[136.69,45.25],[135.93,44.43],[135.92,44.2],[136.17,44.09],[136.42,44.21]]],[[[-124.26,41.1],[-124.18,40.88],[-123.88,40.83],[-123.66,41.0],[-123.74,41.22],[-124.26,41.1]]],[[[-72.4,-34.28],[-72.37,-34.49],[-71.9,-34.42],[-71.36,-33.16],[-71.83,-33.23],[-71.99,-33.79],[-72.4,-34.28]]],[[[21.45,33.37],[21.34,33.13],[21.04,33.08],[20.94,32.84],[21.13,32.65],[21.84,32.97],[23.02,32.46],[23.32,32.5],[23.43,32.73],[22.25,33.25],[21.45,33.37]]],[[[63.17,41.08],[63.25,40.84],[63.58,40.76],[63.82,40.94],[63.74,41.18],[63.42,41.26],[63.17,41.08]]],[[[129.19,40.77],[129.43,40.46],[129.63,40.58],[129.61,40.8],[129.19,40.77]]],[[[169.42,-52.72],[169.39,-52.49],[169.05,-52.4],[168.72,-52.54],[168.74,-52.77],[169.42,-52.72]]],[[[128.79,40.53],[128.59,40.41],[128.83,40.09],[129.01,40.43],[128.79,40.53]]],[[[166.6,-50.8],[166.59,-50.57],[166.26,-50.47],[165.62,-50.97],[165.63,-51.2],[166.29,-51.17],[166.28,-50.94],[166.6,-50.8]]],[[[127.85,-32.3],[127.68,-32.12],[127.42,-32.17],[127.33,-32.39],[127.49,-32.57],[127.75,-32.53],[127.85,-32.3]]],[[[-177.69,-29.06],[-177.95,-28.98],[-178.15,-29.15],[-178.1,-29.39],[-177.84,-29.46],[-177.64,-29.3],[-177.69,-29.06]]],[[[13.02,36.14],[12.72,36.08],[12.25,35.53],[12.46,35.35],[13.14,35.72],[13.23,35.96],[13.02,36.14]]],[[[-178.7,-29.86],[-178.9,-30.02],[-178.85,-30.26],[-178.6,-30.34],[-178.4,-30.19],[-178.45,-29.95],[-178.7,-29.86]]],[[[41.24,67.39],[41.52,67.6],[41.23,67.77],[40.66,67.75],[40.39,67.54],[40.68,67.37],[41.24,67.39]]],[[[12.25,37.09],[11.94,37.02],[11.86,36.78],[12.07,36.61],[12.37,36.67],[12.46,36.91],[12.25,37.09]]],[[[14.56,35.79],[14.65,36.03],[14.44,36.21],[14.13,36.15],[14.04,35.91],[14.25,35.73],[14.56,35.79]]],[[[53.16,33.83],[53.05,34.05],[52.77,34.1],[52.59,33.92],[52.69,33.69],[52.98,33.65],[53.16,33.83]]],[[[-64.69,32.31],[-64.31,32.52],[-64.73,32.66],[-65.22,32.26],[-65.07,32.11],[-64.69,32.31]]],[[[-12.35,-36.99],[-12.56,-37.19],[-12.45,-37.43],[-12.13,-37.47],[-11.92,-37.27],[-12.04,-37.03],[-12.35,-36.99]]],[[[132.34,-32.08],[132.16,-31.91],[131.89,-31.96],[131.8,-32.19],[131.99,-32.37],[132.25,-32.32],[132.34,-32.08]]],[[[14.52,67.07],[15.22,67.45],[15.12,67.63],[14.18,67.61],[14.3,67.43],[13.9,67.33],[14.01,67.15],[14.52,67.07]]],[[[168.29,-28.87],[168.04,-28.75],[167.8,-28.88],[167.81,-29.13],[168.06,-29.25],[168.3,-29.12],[168.29,-28.87]]],[[[171.89,-33.84],[171.65,-33.98],[171.67,-34.23],[171.94,-34.34],[172.17,-34.2],[172.15,-33.95],[171.89,-33.84]]],[[[-80.61,43.08],[-80.93,43.01],[-81.0,42.78],[-80.43,42.7],[-80.36,42.93],[-80.61,43.08]]],[[[51.16,33.12],[51.27,32.9],[51.55,32.85],[51.72,33.03],[51.61,33.25],[51.33,33.3],[51.16,33.12]]],[[[59.33,37.18],[59.42,36.94],[59.73,36.88],[59.94,37.05],[59.85,37.29],[59.55,37.35],[59.33,37.18]]]]}}]}