{"type":"FeatureCollection","features":[{"type":"Feature","properties":{},"geometry":{"type":"MultiPolygon","coordinates":[[[[34.02,35.57],[33.72,35.56],[33.58,35.34],[33.75,35.13],[33.62,34.9],[33.79,34.69],[34.09,34.7],[34.22,34.93],[34.06,35.14],[34.19,35.36],[34.02,35.57]]],[[[8.22,57.18],[7.84,57.1],[7.74,56.9],[8.02,56.79],[7.93,56.59],[7.55,56.51],[7.46,56.31],[7.74,56.19],[7.65,55.99],[7.93,55.87],[7.83,55.67],[7.46,55.59],[7.37,55.39],[7.65,55.27],[8.02,55.35],[8.29,55.23],[8.2,55.02],[7.83,54.95],[7.74,54.74],[8.02,54.62],[7.92,54.41],[7.56,54.34],[7.47,54.13],[7.11,54.05],[7.02,53.84],[6.66,53.76],[6.39,53.89],[6.04,53.81],[5.95,53.6],[5.6,53.51],[5.33,53.64],[4.98,53.55],[4.9,53.34],[4.56,53.26],[4.48,53.05],[4.15,53.01],[4.07,52.8],[4.33,52.63],[4.25,52.42],[3.93,52.38],[3.85,52.16],[3.53,52.12],[3.45,51.91],[3.13,51.86],[3.06,51.64],[2.74,51.6],[2.67,51.38],[2.35,51.33],[2.28,51.11],[1.96,51.06],[1.7,51.22],[1.77,51.44],[1.51,51.61],[1.57,51.82],[1.9,51.87],[1.97,52.09],[1.7,52.25],[1.77,52.47],[2.1,52.52],[2.17,52.73],[1.91,52.89],[1.98,53.11],[1.71,53.27],[1.37,53.22],[1.1,53.38],[0.76,53.33],[0.49,53.49],[0.56,53.71],[0.28,53.87],[0.34,54.08],[0.06,54.24],[0.13,54.45],[-0.16,54.61],[-0.51,54.56],[-0.79,54.72],[-0.73,54.93],[-1.02,55.09],[-0.96,55.3],[-1.25,55.46],[-1.19,55.67],[-1.49,55.82],[-1.43,56.03],[-1.73,56.19],[-2.09,56.13],[-2.4,56.29],[-2.34,56.5],[-1.98,56.55],[-1.92,56.76],[-1.55,56.81],[-1.49,57.02],[-1.8,57.18],[-1.74,57.38],[-1.37,57.43],[-1.3,57.64],[-1.61,57.79],[-1.99,57.74],[-2.3,57.9],[-2.68,57.84],[-3.0,58.0],[-3.37,57.94],[-3.7,58.09],[-4.07,58.03],[-4.13,57.83],[-4.5,57.77],[-4.55,57.56],[-4.23,57.41],[-3.86,57.47],[-3.54,57.32],[-3.16,57.37],[-2.85,57.22],[-2.9,57.01],[-3.27,56.96],[-3.33,56.75],[-3.7,56.69],[-3.75,56.48],[-4.12,56.42],[-4.17,56.2],[-4.53,56.14],[-4.85,56.29],[-5.21,56.23],[-5.54,56.38],[-5.49,56.59],[-5.82,56.74],[-5.77,56.95],[-6.1,57.09],[-6.06,57.31],[-5.68,57.37],[-5.64,57.58],[-5.26,57.64],[-5.21,57.85],[-5.54,58.0],[-5.92,57.94],[-5.97,57.73],[-6.35,57.66],[-6.39,57.45],[-6.77,57.38],[-6.81,57.17],[-6.47,57.03],[-6.51,56.81],[-6.89,56.75],[-6.93,56.53],[-6.6,56.39],[-6.64,56.17],[-6.31,56.03],[-6.35,55.81],[-6.72,55.74],[-6.76,55.52],[-7.12,55.45],[-7.45,55.6],[-7.81,55.52],[-7.85,55.3],[-7.52,55.16],[-7.16,55.23],[-6.84,55.09],[-6.88,54.87],[-6.56,54.72],[-6.6,54.5],[-6.95,54.43],[-6.99,54.21],[-7.34,54.13],[-7.38,53.91],[-7.73,53.83],[-8.05,53.98],[-8.4,53.9],[-8.44,53.68],[-8.79,53.6],[-9.11,53.74],[-9.46,53.66],[-9.79,53.8],[-9.76,54.02],[-9.4,54.1],[-9.08,53.96],[-8.73,54.04],[-8.69,54.27],[-8.34,54.35],[-8.31,54.57],[-8.63,54.71],[-8.99,54.63],[-9.02,54.41],[-9.38,54.33],[-9.71,54.47],[-10.06,54.38],[-10.09,54.16],[-10.44,54.08],[-10.47,53.85],[-10.14,53.71],[-10.16,53.49],[-10.51,53.4],[-10.54,53.17],[-10.21,53.03],[-9.86,53.12],[-9.54,52.98],[-9.57,52.75],[-9.92,52.67],[-10.24,52.81],[-10.58,52.72],[-10.61,52.49],[-10.95,52.4],[-10.97,52.17],[-10.65,52.03],[-10.67,51.8],[-10.36,51.66],[-10.38,51.43],[-10.07,51.29],[-9.73,51.38],[-9.42,51.24],[-9.08,51.32],[-8.77,51.18],[-8.43,51.27],[-8.4,51.49],[-8.07,51.58],[-8.03,51.81],[-7.69,51.89],[-7.39,51.74],[-7.05,51.82],[-7.01,52.05],[-6.67,52.13],[-6.37,51.98],[-6.03,52.05],[-5.99,52.28],[-5.65,52.35],[-5.61,52.58],[-5.91,52.73],[-5.87,52.95],[-5.52,53.02],[-5.48,53.25],[-5.78,53.4],[-5.74,53.62],[-6.05,53.77],[-6.01,53.99],[-5.66,54.06],[-5.62,54.28],[-5.26,54.35],[-4.95,54.2],[-5.0,53.98],[-4.7,53.83],[-4.74,53.61],[-5.09,53.54],[-5.13,53.32],[-4.83,53.17],[-4.88,52.94],[-5.22,52.87],[-5.26,52.65],[-4.97,52.5],[-5.01,52.28],[-5.35,52.2],[-5.39,51.98],[-5.73,51.9],[-5.77,51.68],[-5.48,51.53],[-5.14,51.6],[-4.85,51.45],[-4.89,51.22],[-4.6,51.07],[-4.64,50.84],[-4.98,50.77],[-5.27,50.92],[-5.6,50.85],[-5.64,50.62],[-5.97,50.54],[-6.01,50.31],[-6.34,50.23],[-6.38,50.0],[-6.7,49.92],[-6.74,49.69],[-6.45,49.54],[-6.12,49.62],[-6.09,49.85],[-5.76,49.93],[-5.47,49.78],[-5.14,49.86],[-4.86,49.7],[-4.9,49.47],[-4.62,49.32],[-4.66,49.09],[-4.39,48.94],[-4.43,48.71],[-4.75,48.63],[-5.03,48.78],[-5.35,48.7],[-5.39,48.47],[-5.11,48.32],[-5.15,48.09],[-4.87,47.93],[-4.91,47.7],[-4.64,47.55],[-4.33,47.63],[-4.06,47.47],[-3.74,47.55],[-3.47,47.39],[-3.52,47.16],[-3.25,47.0],[-2.94,47.08],[-2.68,46.92],[-2.73,46.69],[-2.47,46.53],[-2.16,46.61],[-1.91,46.45],[-1.96,46.22],[-1.7,46.06],[-1.75,45.83],[-1.5,45.67],[-1.55,45.44],[-1.3,45.28],[-1.35,45.05],[-1.65,44.97],[-1.7,44.74],[-1.45,44.58],[-1.5,44.35],[-1.8,44.27],[-1.85,44.04],[-1.6,43.88],[-1.65,43.64],[-1.94,43.57],[-2.19,43.72],[-2.48,43.64],[-2.73,43.8],[-3.02,43.72],[-3.28,43.88],[-3.57,43.79],[-3.82,43.95],[-4.12,43.86],[-4.16,43.63],[-4.46,43.54],[-4.72,43.69],[-5.01,43.61],[-5.27,43.76],[-5.57,43.67],[-5.83,43.82],[-6.13,43.73],[-6.39,43.88],[-6.69,43.79],[-6.96,43.94],[-7.26,43.85],[-7.53,44.0],[-7.83,43.9],[-8.1,44.05],[-8.4,43.95],[-8.43,43.71],[-8.73,43.61],[-9.0,43.76],[-9.3,43.66],[-9.33,43.42],[-9.63,43.32],[-9.65,43.07],[-9.38,42.93],[-9.4,42.68],[-9.13,42.54],[-9.15,42.29],[-8.88,42.14],[-8.91,41.9],[-9.2,41.8],[-9.22,41.55],[-8.96,41.41],[-8.98,41.16],[-8.72,41.01],[-8.74,40.77],[-9.03,40.67],[-9.06,40.42],[-9.34,40.31],[-9.36,40.07],[-9.1,39.92],[-9.13,39.67],[-9.41,39.57],[-9.67,39.71],[-9.96,39.61],[-9.98,39.36],[-9.72,39.21],[-9.74,38.97],[-9.48,38.82],[-9.5,38.57],[-9.24,38.43],[-9.26,38.18],[-9.01,38.04],[-9.03,37.79],[-9.31,37.68],[-9.33,37.43],[-9.08,37.29],[-9.1,37.04],[-8.85,36.9],[-8.58,37.01],[-8.33,36.86],[-8.05,36.97],[-7.81,36.82],[-7.53,36.93],[-7.29,36.78],[-7.02,36.88],[-6.77,36.74],[-6.8,36.49],[-6.56,36.35],[-6.59,36.1],[-6.35,35.95],[-6.38,35.71],[-6.15,35.56],[-5.88,35.66],[-5.64,35.52],[-5.38,35.62],[-5.14,35.47],[-4.88,35.57],[-4.84,35.81],[-5.08,35.96],[-5.04,36.2],[-4.77,36.3],[-4.54,36.15],[-4.27,36.25],[-4.24,36.49],[-3.97,36.59],[-3.74,36.44],[-3.47,36.53],[-3.24,36.38],[-2.97,36.47],[-2.75,36.32],[-2.48,36.41],[-2.44,36.65],[-2.17,36.74],[-1.95,36.59],[-1.68,36.68],[-1.64,36.92],[-1.37,37.01],[-1.33,37.25],[-1.06,37.33],[-1.02,37.57],[-1.24,37.72],[-1.51,37.64],[-1.55,37.4],[-1.82,37.31],[-1.86,37.07],[-2.13,36.98],[-2.36,37.14],[-2.62,37.05],[-2.67,36.8],[-2.93,36.71],[-3.16,36.86],[-3.12,37.11],[-3.35,37.26],[-3.62,37.17],[-3.66,36.92],[-3.93,36.83],[-4.16,36.98],[-4.43,36.88],[-4.47,36.64],[-4.74,36.54],[-4.97,36.69],[-4.94,36.94],[-5.17,37.09],[-5.45,36.99],[-5.48,36.74],[-5.75,36.65],[-5.99,36.79],[-5.96,37.04],[-6.2,37.19],[-6.47,37.09],[-6.71,37.23],[-6.68,37.48],[-6.93,37.62],[-7.2,37.52],[-7.23,37.28],[-7.51,37.17],[-7.75,37.32],[-7.73,37.57],[-7.98,37.71],[-7.95,37.96],[-7.67,38.06],[-7.64,38.31],[-7.37,38.41],[-7.34,38.66],[-7.06,38.76],[-6.81,38.61],[-6.53,38.71],[-6.5,38.96],[-6.22,39.05],[-6.19,39.3],[-5.91,39.39],[-5.66,39.25],[-5.38,39.34],[-5.13,39.19],[-4.86,39.28],[-4.82,39.53],[-4.54,39.62],[-4.5,39.86],[-4.22,39.95],[-3.98,39.8],[-3.7,39.89],[-3.66,40.13],[-3.38,40.22],[-3.14,40.07],[-2.86,40.15],[-2.81,40.39],[-2.53,40.48],[-2.3,40.32],[-2.02,40.41],[-1.78,40.25],[-1.5,40.33],[-1.46,40.57],[-1.69,40.73],[-1.65,40.97],[-1.36,41.05],[-1.13,40.89],[-1.18,40.65],[-0.95,40.5],[-1.0,40.26],[-0.77,40.1],[-0.49,40.18],[-0.44,40.42],[-0.16,40.5],[-0.11,40.73],[-0.34,40.89],[-0.62,40.81],[-0.85,40.97],[-0.8,41.21],[-0.52,41.28],[-0.29,41.13],[-0.01,41.2],[0.22,41.05],[0.5,41.12],[0.72,40.96],[0.67,40.73],[0.39,40.65],[0.34,40.42],[0.06,40.34],[0.01,40.1],[-0.26,40.03],[-0.31,39.79],[-0.59,39.71],[-0.64,39.47],[-0.41,39.32],[-0.46,39.08],[-0.24,38.92],[-0.29,38.69],[-0.56,38.6],[-0.61,38.37],[-0.88,38.28],[-0.92,38.05],[-0.7,37.89],[-0.43,37.97],[-0.38,38.21],[-0.12,38.29],[-0.07,38.53],[0.2,38.61],[0.25,38.85],[0.03,39.0],[0.08,39.24],[-0.14,39.4],[-0.09,39.63],[0.18,39.71],[0.24,39.95],[0.51,40.02],[0.56,40.26],[0.84,40.34],[0.89,40.57],[1.17,40.66],[1.23,40.9],[1.51,40.99],[1.74,40.85],[2.02,40.94],[2.08,41.17],[2.36,41.26],[2.42,41.49],[2.71,41.58],[2.94,41.44],[3.23,41.53],[3.29,41.76],[3.59,41.85],[3.65,42.08],[3.42,42.23],[3.48,42.46],[3.25,42.6],[3.31,42.84],[3.61,42.93],[3.67,43.16],[3.97,43.25],[4.21,43.1],[4.51,43.19],[4.74,43.04],[5.04,43.13],[5.28,42.98],[5.58,43.06],[5.82,42.92],[6.12,43.0],[6.35,42.85],[6.66,42.93],[6.74,43.16],[7.05,43.24],[7.12,43.48],[7.43,43.56],[7.67,43.4],[7.98,43.48],[8.06,43.71],[8.37,43.79],[8.46,44.02],[8.77,44.1],[9.01,43.94],[9.33,44.02],[9.56,43.86],[9.88,43.94],[10.12,43.78],[10.03,43.55],[9.71,43.47],[9.63,43.24],[9.31,43.17],[9.23,42.94],[8.91,42.86],[8.68,43.02],[8.37,42.94],[8.29,42.71],[8.52,42.55],[8.44,42.32],[8.13,42.24],[8.05,42.01],[8.28,41.85],[8.21,41.61],[8.43,41.46],[8.74,41.53],[8.97,41.37],[8.89,41.14],[8.58,41.06],[8.36,41.22],[8.05,41.14],[7.97,40.91],[7.67,40.83],[7.6,40.59],[7.82,40.44],[8.12,40.51],[8.35,40.35],[8.27,40.12],[7.97,40.04],[7.9,39.8],[8.12,39.64],[8.05,39.4],[8.27,39.24],[8.57,39.32],[8.65,39.55],[8.42,39.72],[8.5,39.95],[8.8,40.03],[8.88,40.27],[8.65,40.43],[8.73,40.66],[9.04,40.74],[9.12,40.98],[9.43,41.05],[9.65,40.89],[9.57,40.65],[9.8,40.49],[9.72,40.25],[9.41,40.18],[9.33,39.94],[9.55,39.78],[9.47,39.54],[9.7,39.37],[10.0,39.45],[10.08,39.68],[9.86,39.85],[9.94,40.09],[10.25,40.16],[10.33,40.4],[10.11,40.56],[10.19,40.8],[9.96,40.96],[10.05,41.2],[9.82,41.36],[9.9,41.59],[9.67,41.76],[9.76,41.99],[10.07,42.06],[10.3,41.9],[10.61,41.97],[10.7,42.21],[11.02,42.28],[11.24,42.11],[11.56,42.18],[11.79,42.02],[11.7,41.78],[11.93,41.62],[12.25,41.68],[12.47,41.52],[12.38,41.28],[12.61,41.11],[12.52,40.88],[12.74,40.71],[13.05,40.77],[13.28,40.6],[13.59,40.67],[13.82,40.49],[14.13,40.55],[14.36,40.38],[14.67,40.44],[14.89,40.27],[14.8,40.03],[15.02,39.85],[15.33,39.91],[15.55,39.73],[15.45,39.5],[15.67,39.32],[15.57,39.08],[15.79,38.9],[15.69,38.66],[15.91,38.48],[15.81,38.25],[16.02,38.06],[16.34,38.12],[16.44,38.36],[16.75,38.41],[16.85,38.65],[17.17,38.71],[17.27,38.94],[17.05,39.12],[16.74,39.07],[16.64,38.83],[16.32,38.78],[16.1,38.96],[16.2,39.2],[15.99,39.38],[16.09,39.61],[15.87,39.79],[15.97,40.03],[16.29,40.08],[16.51,39.9],[16.41,39.67],[16.62,39.49],[16.94,39.54],[17.04,39.78],[16.83,39.96],[16.93,40.19],[17.25,40.25],[17.47,40.07],[17.79,40.12],[18.0,39.94],[17.9,39.7],[18.11,39.52],[18.43,39.57],[18.54,39.8],[18.86,39.85],[19.07,39.67],[19.4,39.72],[19.61,39.53],[19.5,39.3],[19.71,39.11],[20.03,39.15],[20.24,38.97],[20.13,38.73],[20.34,38.54],[20.23,38.31],[20.44,38.12],[20.75,38.16],[20.87,38.4],[21.18,38.44],[21.39,38.25],[21.28,38.01],[21.48,37.82],[21.37,37.59],[21.57,37.39],[21.89,37.43],[22.0,37.67],[21.8,37.86],[21.91,38.1],[22.23,38.14],[22.44,37.94],[22.75,37.98],[22.96,37.79],[23.27,37.83],[23.47,37.63],[23.79,37.67],[23.91,37.9],[24.23,37.94],[24.35,38.17],[24.15,38.36],[24.27,38.6],[24.59,38.63],[24.71,38.86],[24.51,39.06],[24.63,39.29],[24.43,39.48],[24.11,39.45],[23.91,39.64],[24.03,39.87],[24.35,39.91],[24.48,40.14],[24.8,40.17],[25.0,39.97],[24.88,39.75],[25.08,39.55],[25.41,39.58],[25.53,39.81],[25.86,39.84],[26.06,39.64],[25.93,39.41],[25.61,39.38],[25.48,39.15],[25.68,38.96],[26.0,38.99],[26.2,38.79],[26.07,38.56],[25.75,38.53],[25.63,38.3],[25.83,38.1],[26.15,38.13],[26.27,38.36],[26.59,38.39],[26.72,38.62],[27.04,38.64],[27.16,38.87],[26.97,39.07],[27.1,39.3],[26.9,39.5],[27.03,39.72],[26.83,39.92],[26.51,39.9],[26.31,40.09],[26.44,40.32],[26.76,40.35],[26.96,40.15],[27.29,40.18],[27.49,39.98],[27.81,40.0],[27.94,40.22],[28.27,40.25],[28.46,40.05],[28.79,40.07],[28.92,40.29],[29.25,40.31],[29.38,40.53],[29.71,40.55],[29.84,40.77],[29.65,40.98],[29.79,41.2],[29.6,41.4],[29.27,41.38],[29.07,41.58],[28.74,41.56],[28.54,41.76],[28.68,41.98],[28.48,42.18],[28.15,42.15],[27.95,42.35],[28.08,42.57],[27.88,42.77],[28.02,42.99],[28.36,43.01],[28.49,43.23],[28.83,43.25],[28.97,43.46],[29.31,43.48],[29.5,43.28],[29.84,43.3],[30.04,43.1],[29.9,42.89],[30.09,42.69],[30.43,42.7],[30.62,42.5],[30.95,42.51],[31.15,42.31],[31.48,42.33],[31.62,42.54],[31.95,42.55],[32.14,42.35],[32.47,42.36],[32.62,42.57],[32.95,42.58],[33.09,42.79],[33.42,42.8],[33.57,43.01],[33.9,43.01],[34.09,42.81],[34.42,42.81],[34.56,43.02],[34.89,43.02],[35.04,43.23],[35.37,43.23],[35.55,43.02],[35.88,43.02],[36.03,43.23],[36.36,43.23],[36.51,43.43],[36.84,43.43],[37.0,43.63],[37.33,43.62],[37.48,43.83],[37.81,43.82],[37.96,44.02],[38.29,44.01],[38.45,44.21],[38.78,44.2],[38.95,43.99],[38.79,43.79],[38.96,43.58],[39.28,43.57],[39.45,43.37],[39.77,43.35],[39.93,43.14],[40.25,43.13],[40.41,42.92],[40.73,42.91],[40.89,42.7],[41.21,42.68],[41.36,42.47],[41.21,42.27],[41.36,42.06],[41.21,41.87],[41.36,41.65],[41.21,41.46],[40.9,41.47],[40.74,41.27],[40.43,41.28],[40.27,41.08],[39.96,41.09],[39.8,41.3],[39.49,41.31],[39.33,41.11],[39.5,40.9],[39.81,40.89],[39.97,40.68],[40.28,40.67],[40.43,40.87],[40.74,40.86],[40.9,41.06],[41.21,41.04],[41.36,40.83],[41.67,40.82],[41.82,41.01],[42.13,41.0],[42.28,40.79],[42.59,40.77],[42.74,40.97],[43.05,40.95],[43.19,40.73],[43.5,40.71],[43.65,40.91],[43.96,40.9],[44.1,40.68],[44.4,40.66],[44.54,40.45],[44.85,40.43],[45.01,40.62],[45.31,40.6],[45.47,40.8],[45.78,40.78],[45.92,40.56],[46.23,40.53],[46.36,40.31],[46.67,40.29],[46.8,40.07],[47.11,40.04],[47.24,39.82],[47.55,39.79],[47.68,39.57],[47.98,39.54],[48.11,39.32],[48.42,39.29],[48.54,39.06],[48.85,39.03],[49.02,39.22],[49.33,39.19],[49.51,39.38],[49.81,39.35],[49.94,39.12],[50.24,39.08],[50.43,39.27],[50.73,39.24],[50.92,39.43],[51.23,39.39],[51.41,39.58],[51.72,39.54],[51.91,39.73],[51.79,39.96],[51.99,40.15],[52.3,40.11],[52.5,40.3],[52.38,40.53],[52.57,40.72],[52.45,40.95],[52.14,40.99],[52.01,41.22],[52.21,41.42],[52.09,41.65],[51.77,41.69],[51.64,41.92],[51.32,41.96],[51.19,42.19],[50.87,42.22],[50.74,42.45],[50.42,42.49],[50.29,42.72],[49.96,42.75],[49.83,42.98],[49.5,43.01],[49.37,43.24],[49.04,43.27],[48.9,43.49],[48.58,43.52],[48.39,43.32],[48.06,43.35],[47.92,43.57],[47.6,43.6],[47.46,43.82],[47.13,43.84],[46.98,44.07],[46.66,44.09],[46.48,43.89],[46.15,43.91],[46.01,44.13],[45.68,44.15],[45.53,44.37],[45.21,44.38],[45.05,44.6],[44.73,44.62],[44.57,44.84],[44.75,45.04],[44.59,45.26],[44.26,45.27],[44.11,45.49],[43.78,45.5],[43.62,45.71],[43.29,45.72],[43.13,45.94],[43.3,46.14],[43.14,46.36],[43.31,46.56],[43.15,46.78],[43.32,46.98],[43.15,47.2],[43.33,47.4],[43.16,47.62],[43.34,47.83],[43.68,47.82],[43.86,48.03],[43.69,48.24],[43.87,48.45],[44.22,48.44],[44.4,48.65],[44.76,48.64],[44.92,48.42],[45.27,48.41],[45.46,48.62],[45.3,48.84],[45.49,49.04],[45.32,49.26],[44.97,49.27],[44.78,49.06],[44.42,49.07],[44.26,49.29],[44.44,49.49],[44.8,49.49],[44.99,49.69],[45.35,49.69],[45.52,49.47],[45.88,49.46],[46.08,49.66],[45.91,49.88],[46.11,50.09],[46.48,50.08],[46.68,50.28],[47.05,50.27],[47.25,50.47],[47.63,50.46],[47.84,50.66],[48.21,50.65],[48.43,50.85],[48.8,50.83],[49.02,51.04],[49.4,51.02],[49.63,51.22],[50.01,51.2],[50.23,51.4],[50.62,51.37],[50.77,51.15],[51.15,51.12],[51.39,51.32],[51.77,51.29],[52.01,51.49],[52.4,51.46],[52.64,51.66],[53.03,51.63],[53.28,51.83],[53.67,51.79],[53.81,51.56],[54.2,51.53],[54.45,51.72],[54.85,51.68],[55.1,51.88],[55.5,51.84],[55.63,51.6],[56.02,51.56],[56.29,51.75],[56.68,51.71],[56.81,51.47],[57.2,51.42],[57.33,51.19],[57.72,51.14],[57.98,51.33],[58.38,51.28],[58.65,51.46],[58.53,51.7],[58.8,51.89],[59.2,51.84],[59.32,51.6],[59.71,51.54],[59.99,51.73],[60.38,51.67],[60.67,51.86],[61.06,51.8],[61.35,51.98],[61.24,52.22],[61.53,52.41],[61.42,52.65],[61.72,52.83],[62.12,52.77],[62.42,52.95],[62.82,52.88],[63.12,53.06],[63.02,53.31],[63.33,53.48],[63.74,53.42],[64.04,53.59],[64.45,53.52],[64.77,53.7],[65.18,53.62],[65.49,53.8],[65.9,53.72],[66.22,53.89],[66.63,53.81],[66.96,53.98],[66.87,54.23],[67.2,54.4],[67.61,54.32],[67.94,54.48],[67.86,54.73],[68.2,54.9],[68.62,54.81],[68.95,54.97],[69.37,54.89],[69.71,55.05],[70.13,54.96],[70.47,55.12],[70.41,55.37],[70.76,55.52],[71.17,55.43],[71.53,55.59],[71.94,55.49],[72.3,55.65],[72.71,55.55],[73.07,55.7],[73.49,55.6],[73.85,55.75],[74.26,55.64],[74.63,55.79],[75.04,55.68],[75.41,55.83],[75.81,55.72],[75.85,55.47],[76.26,55.36],[76.63,55.5],[77.03,55.39],[77.4,55.53],[77.8,55.41],[78.17,55.55],[78.57,55.43],[78.59,55.18],[78.98,55.06],[79.36,55.2],[79.75,55.08],[80.12,55.2],[80.51,55.08],[80.52,54.83],[80.91,54.71],[80.91,54.46],[80.54,54.33],[80.56,54.08],[80.93,53.95],[81.3,54.08],[81.68,53.95],[81.68,53.7],[82.05,53.57],[82.05,53.32],[82.42,53.19],[82.42,52.94],[82.78,52.81],[83.14,52.93],[83.5,52.8],[83.86,52.92],[84.22,52.79],[84.21,52.54],[84.56,52.4],[84.55,52.15],[84.19,52.03],[83.84,52.16],[83.49,52.04],[83.48,51.79],[83.13,51.67],[83.12,51.42],[82.77,51.29],[82.42,51.42],[82.07,51.3],[82.08,51.04],[82.43,50.91],[82.43,50.66],[82.77,50.53],[83.12,50.65],[83.46,50.52],[83.45,50.27],[83.79,50.14],[84.14,50.26],[84.14,50.51],[83.8,50.65],[83.81,50.9],[84.16,51.02],[84.5,50.89],[84.85,51.0],[85.19,50.87],[85.54,50.98],[85.87,50.85],[86.22,50.96],[86.24,51.21],[86.6,51.32],[86.62,51.58],[86.97,51.69],[87.31,51.54],[87.67,51.65],[87.69,51.9],[88.05,52.01],[88.08,52.26],[88.44,52.37],[88.78,52.22],[89.14,52.32],[89.17,52.57],[89.54,52.67],[89.87,52.52],[90.23,52.62],[90.56,52.47],[90.93,52.57],[90.97,52.82],[91.34,52.91],[91.66,52.76],[92.03,52.85],[92.08,53.1],[92.45,53.19],[92.77,53.03],[93.14,53.12],[93.45,52.97],[93.82,53.05],[93.88,53.3],[93.57,53.45],[93.62,53.7],[94.0,53.78],[94.06,54.02],[93.74,54.18],[93.36,54.1],[93.04,54.25],[93.1,54.5],[92.77,54.65],[92.39,54.57],[92.05,54.72],[92.11,54.96],[92.49,55.05],[92.55,55.29],[92.21,55.45],[91.82,55.36],[91.48,55.52],[91.53,55.76],[91.92,55.85],[91.98,56.09],[91.63,56.24],[91.23,56.15],[90.88,56.31],[90.93,56.55],[90.58,56.7],[90.18,56.61],[89.82,56.76],[89.42,56.66],[89.05,56.81],[89.09,57.05],[88.72,57.2],[88.32,57.1],[87.94,57.25],[87.54,57.15],[87.16,57.29],[86.76,57.19],[86.38,57.33],[86.4,57.57],[86.01,57.71],[85.6,57.6],[85.21,57.74],[84.81,57.63],[84.41,57.77],[84.42,58.01],[84.03,58.14],[83.62,58.03],[83.21,58.16],[83.22,58.41],[82.81,58.54],[82.4,58.42],[81.99,58.55],[81.98,58.79],[81.56,58.92],[81.15,58.8],[80.73,58.92],[80.32,58.8],[79.9,58.92],[79.88,59.16],[79.45,59.28],[79.04,59.15],[78.61,59.27],[78.58,59.51],[78.14,59.63],[77.73,59.5],[77.29,59.61],[76.88,59.48],[76.44,59.59],[76.4,59.83],[75.95,59.94],[75.54,59.8],[75.09,59.9],[75.04,60.15],[74.58,60.25],[74.18,60.11],[73.72,60.21],[73.66,60.45],[73.2,60.54],[72.79,60.4],[72.32,60.49],[72.26,60.73],[71.79,60.83],[71.72,61.06],[71.24,61.15],[70.83,61.0],[70.35,61.09],[70.27,61.33],[69.79,61.41],[69.39,61.26],[68.9,61.34],[68.81,61.58],[68.32,61.66],[67.93,61.5],[67.44,61.57],[67.34,61.81],[66.84,61.88],[66.45,61.72],[65.95,61.79],[65.56,61.63],[65.07,61.69],[64.69,61.53],[64.19,61.59],[64.07,61.82],[63.57,61.88],[63.19,61.71],[62.69,61.77],[62.56,62.0],[62.06,62.06],[61.93,62.29],[61.42,62.34],[61.05,62.16],[60.54,62.21],[60.18,62.04],[60.32,61.81],[59.97,61.63],[60.11,61.41],[59.76,61.23],[59.27,61.27],[59.12,61.5],[58.62,61.54],[58.47,61.77],[58.81,61.95],[58.66,62.17],[58.15,62.21],[57.81,62.03],[57.3,62.07],[57.14,62.29],[56.63,62.32],[56.29,62.14],[55.78,62.17],[55.61,62.39],[55.1,62.42],[54.77,62.23],[54.27,62.26],[53.94,62.07],[53.44,62.09],[53.25,62.3],[52.75,62.33],[52.44,62.13],[51.93,62.15],[51.63,61.95],[51.13,61.97],[50.93,62.18],[50.43,62.19],[50.14,62.0],[49.64,62.01],[49.44,62.21],[48.94,62.22],[48.65,62.02],[48.16,62.02],[47.88,61.82],[47.39,61.83],[47.18,62.03],[46.69,62.03],[46.47,62.23],[45.98,62.23],[45.71,62.02],[45.23,62.02],[45.0,62.22],[44.52,62.21],[44.29,62.4],[44.54,62.61],[44.31,62.81],[43.82,62.79],[43.58,62.99],[43.09,62.97],[42.85,63.17],[42.35,63.15],[42.11,63.34],[42.35,63.55],[42.1,63.73],[41.61,63.71],[41.35,63.9],[41.6,64.11],[41.34,64.29],[41.59,64.5],[41.33,64.69],[41.58,64.89],[41.32,65.08],[41.57,65.29],[41.31,65.47],[40.78,65.44],[40.51,65.62],[40.76,65.83],[41.29,65.86],[41.56,66.06],[42.1,66.09],[42.37,66.29],[42.91,66.31],[43.18,66.13],[43.73,66.14],[44.01,66.35],[43.75,66.53],[43.19,66.51],[42.92,66.7],[42.37,66.68],[42.09,66.47],[41.55,66.45],[41.28,66.24],[40.74,66.22],[40.49,66.01],[39.95,65.98],[39.71,65.77],[39.18,65.74],[38.94,65.53],[39.22,65.36],[39.74,65.39],[40.01,65.21],[39.77,65.0],[39.26,64.97],[38.99,65.15],[38.48,65.11],[38.2,65.29],[37.69,65.26],[37.4,65.43],[36.9,65.39],[36.61,65.56],[36.1,65.52],[35.89,65.31],[35.39,65.27],[35.1,65.44],[35.3,65.65],[35.01,65.81],[35.21,66.03],[35.72,66.07],[35.94,66.28],[36.46,66.32],[36.76,66.15],[37.28,66.19],[37.57,66.02],[38.09,66.06],[38.38,65.88],[38.9,65.92],[39.14,66.13],[38.86,66.3],[38.33,66.27],[38.04,66.44],[37.51,66.4],[37.21,66.57],[36.68,66.53],[36.38,66.7],[35.86,66.66],[35.55,66.82],[35.03,66.78],[34.72,66.94],[34.19,66.89],[33.88,67.05],[33.36,67.0],[33.04,67.16],[32.52,67.11],[32.33,66.9],[31.82,66.84],[31.5,67.0],[31.0,66.94],[30.67,67.09],[30.17,67.03],[30.0,66.82],[30.32,66.66],[30.15,66.45],[29.67,66.39],[29.34,66.54],[28.86,66.48],[28.53,66.62],[28.05,66.56],[27.72,66.7],[27.24,66.63],[26.91,66.78],[26.43,66.71],[26.09,66.85],[25.62,66.77],[25.5,66.56],[25.04,66.49],[24.7,66.62],[24.24,66.55],[23.9,66.68],[23.45,66.6],[23.11,66.74],[22.66,66.66],[22.56,66.44],[22.12,66.36],[22.02,66.15],[21.59,66.07],[21.25,66.19],[20.83,66.11],[20.75,65.9],[21.08,65.77],[21.0,65.56],[20.58,65.47],[20.51,65.26],[20.1,65.17],[19.77,65.3],[19.37,65.21],[19.3,65.0],[18.9,64.91],[18.84,64.7],[18.45,64.61],[18.39,64.4],[18.01,64.31],[17.96,64.1],[17.59,64.01],[17.27,64.13],[16.9,64.04],[16.85,63.83],[16.49,63.74],[16.17,63.86],[15.81,63.77],[15.78,63.56],[15.42,63.47],[15.39,63.26],[15.05,63.17],[14.91,63.0],[14.46,62.94],[14.32,62.77],[14.64,62.66],[14.5,62.48],[14.06,62.43],[13.93,62.26],[13.49,62.2],[13.36,62.02],[12.92,61.97],[12.8,61.79],[12.37,61.73],[12.24,61.55],[11.81,61.49],[11.51,61.6],[11.08,61.54],[10.96,61.36],[10.54,61.3],[10.43,61.12],[10.01,61.05],[9.9,60.87],[9.48,60.8],[9.37,60.62],[8.96,60.54],[8.85,60.36],[9.16,60.25],[9.05,60.07],[8.64,59.99],[8.54,59.81],[8.14,59.73],[7.84,59.84],[7.44,59.77],[7.34,59.58],[7.64,59.47],[7.54,59.28],[7.15,59.21],[6.88,59.37],[6.97,59.56],[6.7,59.73],[6.33,59.7],[6.05,59.87],[6.15,60.06],[6.52,60.08],[6.62,60.27],[6.34,60.43],[5.96,60.41],[5.67,60.57],[5.77,60.76],[5.48,60.92],[5.09,60.9],[4.8,61.06],[4.41,61.04],[4.32,60.85],[4.62,60.69],[4.53,60.5],[4.82,60.34],[4.73,60.15],[5.02,59.98],[4.93,59.79],[5.21,59.63],[5.12,59.44],[4.75,59.41],[4.66,59.22],[4.94,59.06],[4.85,58.86],[5.13,58.7],[5.05,58.51],[5.32,58.34],[5.68,58.37],[5.95,58.2],[6.31,58.23],[6.58,58.06],[6.49,57.87],[6.78,57.76],[7.16,57.84],[7.45,57.72],[7.84,57.8],[7.93,57.99],[8.32,58.07],[8.61,57.95],[9.0,58.03],[9.1,58.22],[9.5,58.29],[9.6,58.48],[9.31,58.6],[9.41,58.79],[9.81,58.86],[10.11,58.74],[10.51,58.81],[10.8,58.69],[10.69,58.5],[10.98,58.38],[10.87,58.19],[11.16,58.06],[11.05,57.87],[10.65,57.8],[10.36,57.93],[9.97,57.86],[9.87,57.67],[9.48,57.59],[9.37,57.4],[8.99,57.33],[8.7,57.45],[8.31,57.37],[8.22,57.18]],[[17.11,42.59],[17.33,42.42],[17.66,42.47],[17.88,42.29],[18.21,42.34],[18.43,42.16],[18.76,42.21],[18.98,42.03],[18.87,41.8],[19.09,41.62],[18.98,41.39],[19.19,41.2],[19.08,40.97],[19.3,40.79],[19.19,40.55],[18.86,40.51],[18.65,40.69],[18.32,40.64],[18.11,40.82],[17.78,40.77],[17.56,40.95],[17.67,41.18],[17.45,41.36],[17.13,41.31],[16.91,41.49],[16.58,41.43],[16.36,41.61],[16.46,41.84],[16.24,42.02],[16.34,42.25],[16.67,42.31],[16.78,42.54],[17.11,42.59]],[[1.18,50.52],[1.12,50.3],[0.8,50.24],[0.74,50.02],[0.42,49.96],[0.16,50.12],[-0.16,50.06],[-0.42,50.22],[-0.75,50.16],[-1.01,50.32],[-0.96,50.54],[-0.63,50.6],[-0.37,50.44],[-0.04,50.5],[0.22,50.34],[0.54,50.4],[0.6,50.62],[0.93,50.68],[1.18,50.52]],[[88.63,53.86],[88.67,54.11],[88.32,54.25],[88.35,54.5],[88.0,54.64],[88.03,54.89],[87.68,55.04],[87.7,55.28],[88.09,55.39],[88.45,55.24],[88.84,55.34],[89.19,55.19],[89.15,54.95],[89.5,54.8],[89.46,54.55],[89.8,54.4],[90.19,54.5],[90.53,54.35],[90.48,54.11],[90.82,53.95],[90.77,53.71],[90.4,53.61],[90.36,53.37],[89.98,53.27],[89.95,53.02],[89.58,52.92],[89.24,53.07],[89.28,53.32],[88.94,53.46],[88.98,53.71],[88.63,53.86]],[[12.52,56.72],[12.41,56.53],[12.02,56.46],[11.74,56.59],[11.85,56.79],[12.24,56.85],[12.52,56.72]],[[36.22,45.66],[35.88,45.67],[35.69,45.87],[35.35,45.87],[35.17,46.07],[35.32,46.27],[35.67,46.27],[35.82,46.47],[36.17,46.46],[36.32,46.66],[36.67,46.65],[36.85,46.45],[37.19,46.45],[37.35,46.64],[37.69,46.63],[37.87,46.43],[37.71,46.23],[37.88,46.03],[37.72,45.84],[37.39,45.84],[37.23,45.65],[36.89,45.65],[36.71,45.86],[36.37,45.86],[36.22,45.66]],[[21.78,40.26],[21.99,40.07],[22.31,40.11],[22.52,39.92],[22.4,39.69],[22.61,39.5],[22.49,39.26],[22.7,39.07],[22.58,38.84],[22.78,38.64],[23.11,38.68],[23.31,38.49],[23.63,38.52],[23.83,38.33],[23.71,38.1],[23.39,38.06],[23.19,38.26],[22.87,38.22],[22.67,38.41],[22.35,38.37],[22.14,38.57],[21.82,38.52],[21.62,38.72],[21.3,38.67],[21.09,38.87],[21.2,39.1],[20.99,39.29],[20.67,39.25],[20.46,39.43],[20.58,39.67],[20.9,39.71],[21.01,39.94],[20.8,40.13],[20.92,40.36],[21.24,40.41],[21.45,40.22],[21.78,40.26]],[[14.22,55.38],[14.49,55.24],[14.37,55.04],[14.64,54.9],[15.03,54.96],[15.29,54.82],[15.68,54.87],[15.8,55.07],[15.53,55.21],[15.65,55.41],[15.39,55.55],[15.0,55.5],[14.72,55.64],[14.84,55.83],[15.24,55.89],[15.51,55.75],[15.9,55.8],[16.02,56.0],[16.42,56.05],[16.54,56.25],[16.94,56.3],[17.21,56.15],[17.61,56.2],[17.88,56.06],[17.75,55.86],[18.01,55.72],[17.88,55.52],[18.15,55.37],[18.02,55.18],[17.63,55.13],[17.5,54.93],[17.11,54.88],[16.98,54.69],[16.6,54.63],[16.33,54.78],[15.95,54.73],[15.82,54.53],[15.44,54.47],[15.32,54.27],[14.94,54.22],[14.67,54.36],[14.29,54.3],[14.03,54.44],[14.14,54.64],[13.87,54.78],[13.49,54.72],[13.22,54.86],[12.84,54.8],[12.73,54.6],[12.35,54.53],[12.08,54.67],[12.19,54.87],[12.57,54.94],[12.68,55.14],[13.06,55.2],[13.33,55.06],[13.72,55.12],[13.83,55.32],[14.22,55.38]],[[10.9,56.98],[11.01,57.17],[11.4,57.24],[11.68,57.11],[11.57,56.92],[11.18,56.85],[11.07,56.65],[10.69,56.58],[10.4,56.71],[10.51,56.91],[10.9,56.98]],[[13.47,44.69],[13.8,44.76],[14.04,44.59],[13.94,44.36],[14.17,44.2],[14.5,44.26],[14.73,44.09],[14.63,43.86],[14.86,43.69],[15.19,43.75],[15.42,43.58],[15.32,43.35],[15.54,43.18],[15.44,42.95],[15.67,42.78],[16.0,42.83],[16.22,42.66],[16.12,42.43],[15.79,42.37],[15.57,42.54],[15.24,42.49],[15.14,42.25],[14.81,42.19],[14.59,42.37],[14.69,42.6],[14.46,42.77],[14.56,43.0],[14.33,43.17],[14.43,43.4],[14.2,43.57],[13.87,43.51],[13.64,43.67],[13.74,43.9],[13.51,44.07],[13.18,44.01],[12.95,44.17],[13.04,44.4],[12.81,44.56],[12.9,44.79],[12.67,44.95],[12.77,45.18],[13.1,45.25],[13.33,45.08],[13.24,44.86],[13.47,44.69]],[[-4.04,53.74],[-4.35,53.9],[-4.3,54.11],[-3.95,54.18],[-3.65,54.03],[-3.7,53.81],[-3.4,53.65],[-3.45,53.44],[-3.8,53.37],[-4.09,53.52],[-4.04,53.74]],[[-9.34,51.93],[-9.65,52.07],[-9.62,52.3],[-9.28,52.38],[-8.97,52.24],[-8.99,52.01],[-9.34,51.93]]],[[[37.44,41.15],[37.6,40.94],[37.92,40.93],[38.09,40.72],[38.4,40.72],[38.55,40.92],[38.87,40.92],[39.02,41.12],[38.86,41.33],[38.54,41.34],[38.39,41.13],[38.07,41.14],[37.9,41.35],[37.59,41.35],[37.42,41.56],[37.1,41.57],[36.93,41.78],[36.6,41.78],[36.43,41.99],[36.11,41.99],[35.96,41.78],[35.64,41.78],[35.46,41.99],[35.61,42.2],[35.43,42.4],[35.1,42.4],[34.96,42.19],[34.63,42.19],[34.48,41.98],[34.66,41.77],[34.99,41.78],[35.16,41.57],[35.49,41.57],[35.66,41.36],[35.98,41.36],[36.16,41.16],[36.48,41.16],[36.63,41.36],[36.95,41.36],[37.12,41.15],[37.44,41.15]]],[[[30.58,41.45],[30.26,41.43],[30.12,41.21],[30.31,41.01],[30.64,41.03],[30.83,40.82],[31.15,40.84],[31.29,41.06],[31.62,41.07],[31.76,41.29],[32.09,41.3],[32.23,41.51],[32.56,41.52],[32.7,41.74],[33.03,41.75],[33.17,41.96],[33.5,41.97],[33.68,41.76],[34.01,41.77],[34.15,41.98],[33.97,42.18],[33.64,42.18],[33.46,42.38],[33.13,42.38],[32.99,42.16],[32.66,42.15],[32.51,41.94],[32.18,41.93],[32.04,41.72],[31.71,41.71],[31.57,41.49],[31.24,41.48],[31.1,41.26],[30.77,41.24],[30.58,41.45]]],[[[68.09,52.83],[68.17,52.58],[68.56,52.49],[68.88,52.66],[69.28,52.57],[69.61,52.73],[70.0,52.64],[70.33,52.8],[70.72,52.71],[71.05,52.87],[70.99,53.12],[70.6,53.21],[70.26,53.05],[69.87,53.14],[69.54,52.98],[69.14,53.07],[69.07,53.32],[68.66,53.41],[68.59,53.66],[68.18,53.74],[67.85,53.57],[67.93,53.33],[67.61,53.16],[67.69,52.91],[68.09,52.83]]],[[[36.24,36.7],[36.39,36.92],[36.22,37.13],[35.92,37.13],[35.77,36.91],[35.47,36.91],[35.33,36.69],[35.49,36.48],[35.8,36.48],[35.96,36.27],[36.27,36.27],[36.41,36.49],[36.24,36.7]]],[[[76.33,49.24],[75.98,49.36],[75.66,49.21],[75.69,48.95],[76.04,48.84],[76.36,48.99],[76.33,49.24]]],[[[3.71,39.29],[3.77,39.52],[3.54,39.67],[3.61,39.91],[3.89,40.0],[4.12,39.85],[4.41,39.93],[4.47,40.17],[4.25,40.32],[3.96,40.23],[3.73,40.38],[3.44,40.3],[3.38,40.06],[3.09,39.97],[2.87,40.12],[2.58,40.03],[2.53,39.8],[2.24,39.71],[2.19,39.47],[2.41,39.32],[2.69,39.41],[2.92,39.26],[3.2,39.35],[3.42,39.2],[3.71,39.29]]],[[[-16.64,28.13],[-16.39,28.01],[-16.15,28.14],[-16.15,28.39],[-15.9,28.52],[-15.9,28.77],[-16.14,28.9],[-16.39,28.77],[-16.39,28.51],[-16.64,28.38],[-16.89,28.51],[-17.14,28.38],[-17.39,28.5],[-17.39,28.75],[-17.64,28.87],[-17.65,29.13],[-17.9,29.25],[-18.15,29.12],[-18.14,28.86],[-18.39,28.73],[-18.38,28.47],[-18.13,28.35],[-17.89,28.49],[-17.63,28.37],[-17.63,28.11],[-17.38,27.99],[-17.14,28.12],[-16.89,28.0],[-16.64,28.13]]],[[[102.66,53.63],[102.29,53.57],[102.02,53.74],[101.66,53.69],[101.56,53.45],[101.83,53.28],[101.73,53.05],[102.0,52.88],[102.36,52.93],[102.62,52.76],[102.52,52.53],[102.78,52.36],[103.14,52.41],[103.39,52.24],[103.74,52.29],[103.99,52.12],[103.89,51.89],[104.14,51.71],[104.04,51.49],[104.28,51.31],[104.62,51.36],[104.73,51.59],[105.07,51.64],[105.31,51.47],[105.66,51.52],[105.77,51.74],[106.11,51.79],[106.22,52.01],[106.57,52.06],[106.8,51.88],[107.14,51.93],[107.26,52.15],[107.03,52.33],[107.15,52.55],[107.5,52.59],[107.61,52.81],[107.96,52.85],[108.09,53.07],[108.44,53.11],[108.56,53.33],[108.33,53.51],[107.98,53.48],[107.86,53.26],[107.5,53.22],[107.38,52.99],[107.03,52.95],[106.91,52.73],[106.56,52.69],[106.45,52.46],[106.1,52.42],[105.99,52.19],[105.64,52.14],[105.53,51.92],[105.18,51.87],[104.94,52.05],[105.05,52.27],[104.8,52.45],[104.91,52.68],[104.67,52.85],[104.31,52.8],[104.06,52.98],[104.16,53.21],[103.91,53.38],[104.02,53.61],[103.76,53.79],[103.39,53.73],[103.13,53.91],[102.76,53.86],[102.66,53.63]]],[[[29.74,36.45],[29.43,36.43],[29.3,36.2],[29.49,35.99],[29.8,36.01],[29.93,36.24],[29.74,36.45]]],[[[133.53,42.99],[133.29,43.1],[133.06,42.97],[132.82,43.08],[132.59,42.95],[132.36,43.05],[132.35,43.28],[132.11,43.38],[131.89,43.25],[131.65,43.35],[131.43,43.23],[131.44,43.01],[131.22,42.88],[130.99,42.98],[130.77,42.86],[130.79,42.63],[130.57,42.51],[130.59,42.29],[130.82,42.19],[131.03,42.32],[131.26,42.22],[131.48,42.34],[131.47,42.56],[131.69,42.69],[131.92,42.59],[132.14,42.71],[132.38,42.61],[132.6,42.73],[132.84,42.63],[133.07,42.75],[133.3,42.64],[133.53,42.77],[133.77,42.66],[134.0,42.78],[134.24,42.68],[134.47,42.8],[134.47,43.02],[134.71,43.14],[134.95,43.04],[135.19,43.16],[135.19,43.38],[135.43,43.5],[135.43,43.73],[135.19,43.84],[134.94,43.72],[134.95,43.49],[134.71,43.37],[134.47,43.48],[134.23,43.36],[134.23,43.13],[134.0,43.01],[133.76,43.11],[133.53,42.99]]],[[[34.86,32.11],[35.16,32.12],[35.29,32.34],[35.13,32.55],[35.26,32.78],[35.1,32.99],[34.81,32.98],[34.67,32.76],[34.83,32.54],[34.7,32.32],[34.86,32.11]]],[[[30.81,36.73],[31.12,36.75],[31.3,36.54],[31.62,36.56],[31.79,36.35],[32.1,36.36],[32.24,36.59],[32.06,36.8],[31.75,36.78],[31.57,36.99],[31.26,36.97],[31.08,37.18],[30.76,37.16],[30.63,36.94],[30.32,36.92],[30.19,36.7],[30.37,36.49],[30.68,36.51],[30.81,36.73]]],[[[1.4,39.44],[1.35,39.2],[1.07,39.11],[1.02,38.87],[1.24,38.73],[1.52,38.82],[1.57,39.06],[1.85,39.15],[1.91,39.38],[1.68,39.53],[1.4,39.44]]],[[[32.67,35.3],[32.36,35.29],[32.23,35.06],[32.4,34.85],[32.27,34.62],[32.44,34.41],[32.74,34.43],[32.88,34.65],[32.7,34.86],[32.84,35.09],[33.14,35.1],[33.28,35.33],[33.11,35.54],[32.8,35.52],[32.67,35.3]]],[[[-18.37,27.97],[-18.37,27.72],[-18.12,27.6],[-17.87,27.73],[-17.88,27.98],[-18.13,28.1],[-18.37,27.97]]],[[[33.2,36.19],[33.03,36.4],[32.72,36.39],[32.59,36.17],[32.76,35.96],[33.07,35.97],[33.2,36.19]]],[[[33.99,36.0],[34.13,36.23],[34.43,36.23],[34.57,36.45],[34.88,36.46],[35.02,36.68],[34.85,36.89],[34.54,36.89],[34.4,36.67],[34.1,36.66],[33.96,36.44],[33.65,36.43],[33.51,36.21],[33.68,35.99],[33.99,36.0]]],[[[-16.92,33.09],[-17.18,32.96],[-17.44,33.08],[-17.7,32.95],[-17.7,32.69],[-17.43,32.57],[-17.17,32.7],[-16.91,32.58],[-16.91,32.32],[-16.65,32.19],[-16.39,32.32],[-16.39,32.58],[-16.13,32.71],[-16.13,32.96],[-15.87,33.09],[-15.87,33.34],[-16.13,33.47],[-16.39,33.34],[-16.39,33.09],[-16.65,32.96],[-16.92,33.09]]],[[[95.4,54.99],[95.79,55.07],[95.86,55.3],[96.25,55.38],[96.32,55.62],[96.0,55.78],[95.61,55.71],[95.29,55.87],[94.9,55.79],[94.83,55.55],[95.15,55.39],[95.08,55.15],[95.4,54.99]]],[[[130.18,41.82],[130.39,41.95],[130.37,42.17],[130.15,42.26],[129.93,42.14],[129.95,41.92],[130.18,41.82]]],[[[-28.26,38.19],[-28.0,38.35],[-28.04,38.6],[-28.34,38.7],[-28.6,38.55],[-28.57,38.29],[-28.26,38.19]]],[[[40.72,66.6],[41.27,66.63],[41.54,66.83],[41.26,67.01],[40.7,66.98],[40.44,66.78],[40.72,66.6]]],[[[35.51,33.66],[35.21,33.65],[35.08,33.43],[35.24,33.21],[35.53,33.22],[35.67,33.44],[35.51,33.66]]],[[[94.44,51.36],[94.8,51.44],[94.86,51.69],[94.56,51.85],[94.2,51.76],[94.14,51.52],[94.44,51.36]]],[[[-2.82,58.61],[-2.76,58.81],[-3.09,58.96],[-3.48,58.91],[-3.53,58.71],[-3.2,58.56],[-2.82,58.61]]],[[[27.17,37.78],[27.3,38.01],[27.1,38.21],[26.78,38.19],[26.66,37.96],[26.85,37.76],[27.17,37.78]]],[[[-15.16,28.15],[-15.16,28.4],[-15.4,28.52],[-15.65,28.4],[-15.65,28.14],[-15.41,28.02],[-15.16,28.15]]],[[[35.94,33.89],[36.08,34.11],[35.92,34.32],[35.62,34.31],[35.48,34.09],[35.64,33.88],[35.94,33.89]]],[[[136.43,44.9],[136.18,44.78],[136.18,44.55],[136.42,44.44],[136.68,44.56],[136.68,44.79],[136.94,44.91],[136.94,45.14],[136.69,45.25],[136.43,45.13],[136.43,44.9]]],[[[-8.24,55.01],[-8.21,55.23],[-8.54,55.37],[-8.9,55.29],[-8.93,55.07],[-8.6,54.93],[-8.24,55.01]]],[[[57.7,50.47],[58.08,50.42],[58.35,50.61],[58.23,50.85],[57.84,50.9],[57.57,50.71],[57.7,50.47]]],[[[27.68,37.61],[27.36,37.58],[27.24,37.35],[27.43,37.15],[27.74,37.18],[27.87,37.4],[27.68,37.61]]],[[[-25.65,37.76],[-25.35,37.66],[-25.09,37.8],[-25.12,38.06],[-25.41,38.17],[-25.68,38.02],[-25.65,37.76]]],[[[129.8,41.14],[130.01,41.26],[129.99,41.48],[129.76,41.58],[129.56,41.45],[129.58,41.23],[129.8,41.14]]]]}}]}