{"type":"FeatureCollection","features":[{"type":"Feature","properties":{},"geometry":{"type":"MultiPolygon","coordinates":[[[[26.03,48.17],[25.81,48.35],[25.95,48.56],[26.31,48.58],[26.45,48.79],[26.82,48.81],[26.96,49.02],[27.32,49.04],[27.54,48.85],[27.9,48.87],[28.05,49.08],[27.83,49.26],[27.98,49.46],[27.76,49.65],[27.39,49.63],[27.17,49.81],[26.8,49.79],[26.58,49.97],[26.21,49.95],[25.99,50.12],[25.62,50.1],[25.39,50.28],[25.02,50.25],[24.88,50.05],[24.51,50.02],[24.28,50.19],[23.91,50.16],[23.68,50.34],[23.31,50.3],[23.17,50.1],[22.81,50.06],[22.57,50.24],[22.2,50.2],[22.07,49.99],[21.7,49.96],[21.47,50.13],[21.1,50.09],[20.86,50.26],[20.49,50.21],[20.25,50.38],[20.38,50.59],[20.14,50.76],[19.77,50.71],[19.53,50.88],[19.16,50.83],[19.03,50.62],[18.66,50.58],[18.54,50.37],[18.18,50.32],[17.93,50.48],[17.57,50.43],[17.32,50.59],[16.95,50.54],[16.71,50.69],[16.82,50.91],[16.57,51.06],[16.21,51.01],[15.96,51.16],[15.59,51.11],[15.34,51.26],[14.97,51.2],[14.72,51.36],[14.36,51.3],[14.1,51.45],[13.74,51.39],[13.48,51.53],[13.12,51.47],[12.86,51.62],[12.5,51.55],[12.24,51.7],[11.88,51.63],[11.62,51.77],[11.73,51.98],[11.47,52.13],[11.57,52.34],[11.31,52.48],[10.94,52.41],[10.68,52.55],[10.32,52.47],[10.22,52.26],[9.86,52.19],[9.6,52.33],[9.24,52.25],[8.98,52.39],[8.62,52.31],[8.36,52.45],[8.01,52.37],[7.92,52.16],[7.57,52.08],[7.3,52.21],[6.95,52.13],[6.87,51.92],[7.13,51.79],[7.05,51.57],[6.7,51.49],[6.44,51.62],[6.1,51.54],[6.02,51.33],[5.68,51.24],[5.41,51.37],[5.08,51.29],[4.81,51.41],[4.48,51.32],[4.4,51.11],[4.07,51.02],[3.81,51.15],[3.49,51.1],[3.24,51.26],[2.92,51.22],[2.85,51.0],[2.53,50.95],[2.28,51.11],[1.96,51.06],[1.89,50.84],[1.57,50.79],[1.5,50.57],[1.18,50.52],[1.12,50.3],[0.8,50.24],[0.74,50.02],[0.42,49.96],[0.16,50.12],[-0.16,50.06],[-0.22,49.84],[0.04,49.67],[-0.02,49.45],[-0.33,49.39],[-0.59,49.55],[-0.91,49.49],[-1.18,49.65],[-1.12,49.87],[-1.39,50.03],[-1.71,49.96],[-1.77,49.74],[-2.09,49.67],[-2.36,49.83],[-2.68,49.76],[-2.73,49.53],[-3.05,49.46],[-3.1,49.23],[-3.42,49.16],[-3.47,48.93],[-3.79,48.86],[-4.06,49.01],[-4.39,48.94],[-4.43,48.71],[-4.75,48.63],[-5.03,48.78],[-5.35,48.7],[-5.39,48.47],[-5.11,48.32],[-5.15,48.09],[-4.87,47.93],[-4.91,47.7],[-4.64,47.55],[-4.33,47.63],[-4.06,47.47],[-3.74,47.55],[-3.47,47.39],[-3.52,47.16],[-3.25,47.0],[-2.94,47.08],[-2.68,46.92],[-2.73,46.69],[-2.47,46.53],[-2.16,46.61],[-1.91,46.45],[-1.96,46.22],[-1.7,46.06],[-1.75,45.83],[-1.5,45.67],[-1.55,45.44],[-1.3,45.28],[-1.35,45.05],[-1.65,44.97],[-1.7,44.74],[-1.45,44.58],[-1.5,44.35],[-1.8,44.27],[-1.85,44.04],[-1.6,43.88],[-1.65,43.64],[-1.94,43.57],[-2.19,43.72],[-2.48,43.64],[-2.73,43.8],[-3.02,43.72],[-3.28,43.88],[-3.57,43.79],[-3.82,43.95],[-4.12,43.86],[-4.16,43.63],[-4.46,43.54],[-4.72,43.69],[-5.01,43.61],[-5.27,43.76],[-5.57,43.67],[-5.83,43.82],[-6.13,43.73],[-6.39,43.88],[-6.69,43.79],[-6.96,43.94],[-7.26,43.85],[-7.53,44.0],[-7.83,43.9],[-8.1,44.05],[-8.4,43.95],[-8.43,43.71],[-8.73,43.61],[-9.0,43.76],[-9.3,43.66],[-9.33,43.42],[-9.63,43.32],[-9.65,43.07],[-9.38,42.93],[-9.4,42.68],[-9.13,42.54],[-9.15,42.29],[-8.88,42.14],[-8.91,41.9],[-9.2,41.8],[-9.22,41.55],[-8.96,41.41],[-8.98,41.16],[-8.72,41.01],[-8.74,40.77],[-9.03,40.67],[-9.06,40.42],[-9.34,40.31],[-9.36,40.07],[-9.1,39.92],[-9.13,39.67],[-9.41,39.57],[-9.67,39.71],[-9.96,39.61],[-9.98,39.36],[-9.72,39.21],[-9.74,38.97],[-9.48,38.82],[-9.5,38.57],[-9.24,38.43],[-9.26,38.18],[-9.01,38.04],[-9.03,37.79],[-9.31,37.68],[-9.33,37.43],[-9.08,37.29],[-9.1,37.04],[-8.85,36.9],[-8.58,37.01],[-8.33,36.86],[-8.05,36.97],[-7.81,36.82],[-7.53,36.93],[-7.29,36.78],[-7.02,36.88],[-6.77,36.74],[-6.8,36.49],[-6.56,36.35],[-6.59,36.1],[-6.35,35.95],[-6.08,36.05],[-5.85,35.91],[-5.88,35.66],[-5.64,35.52],[-5.38,35.62],[-5.34,35.86],[-5.08,35.96],[-5.04,36.2],[-4.77,36.3],[-4.74,36.54],[-4.47,36.64],[-4.24,36.49],[-3.97,36.59],[-3.93,36.83],[-3.66,36.92],[-3.43,36.77],[-3.16,36.86],[-2.93,36.71],[-2.67,36.8],[-2.62,37.05],[-2.36,37.14],[-2.31,37.38],[-2.54,37.53],[-2.81,37.44],[-3.04,37.59],[-3.31,37.5],[-3.35,37.26],[-3.62,37.17],[-3.85,37.32],[-4.12,37.22],[-4.36,37.37],[-4.63,37.28],[-4.67,37.03],[-4.94,36.94],[-5.17,37.09],[-5.14,37.33],[-5.38,37.48],[-5.65,37.38],[-5.89,37.53],[-6.17,37.43],[-6.41,37.58],[-6.68,37.48],[-6.93,37.62],[-6.9,37.87],[-6.62,37.97],[-6.38,37.82],[-6.1,37.92],[-6.07,38.17],[-6.31,38.32],[-6.28,38.56],[-6.53,38.71],[-6.5,38.96],[-6.22,39.05],[-5.97,38.9],[-5.69,39.0],[-5.66,39.25],[-5.38,39.34],[-5.13,39.19],[-4.86,39.28],[-4.82,39.53],[-4.54,39.62],[-4.5,39.86],[-4.22,39.95],[-4.18,40.19],[-3.9,40.28],[-3.66,40.13],[-3.38,40.22],[-3.34,40.46],[-3.05,40.55],[-3.01,40.79],[-3.25,40.94],[-3.21,41.18],[-2.93,41.27],[-2.69,41.11],[-2.73,40.87],[-2.49,40.72],[-2.21,40.8],[-1.97,40.65],[-2.02,40.41],[-1.78,40.25],[-1.5,40.33],[-1.46,40.57],[-1.69,40.73],[-1.65,40.97],[-1.88,41.12],[-2.16,41.04],[-2.4,41.19],[-2.36,41.43],[-2.07,41.52],[-2.03,41.75],[-2.27,41.91],[-2.22,42.15],[-1.93,42.23],[-1.69,42.07],[-1.41,42.15],[-1.17,41.99],[-0.89,42.07],[-0.65,41.91],[-0.37,41.99],[-0.32,42.22],[-0.03,42.3],[0.2,42.14],[0.48,42.21],[0.71,42.06],[0.66,41.82],[0.88,41.66],[0.83,41.43],[1.05,41.27],[1.0,41.04],[1.23,40.9],[1.51,40.99],[1.56,41.22],[1.85,41.31],[2.08,41.17],[2.36,41.26],[2.42,41.49],[2.71,41.58],[2.94,41.44],[3.23,41.53],[3.29,41.76],[3.59,41.85],[3.65,42.08],[3.42,42.23],[3.48,42.46],[3.25,42.6],[3.31,42.84],[3.08,42.98],[3.14,43.21],[3.44,43.3],[3.67,43.16],[3.97,43.25],[4.04,43.48],[4.34,43.56],[4.57,43.42],[4.88,43.51],[5.11,43.36],[5.04,43.13],[5.28,42.98],[5.58,43.06],[5.82,42.92],[6.12,43.0],[6.35,42.85],[6.66,42.93],[6.74,43.16],[7.05,43.24],[7.12,43.48],[7.43,43.56],[7.51,43.79],[7.82,43.87],[7.9,44.1],[8.22,44.17],[8.3,44.4],[8.62,44.48],[8.85,44.33],[9.17,44.4],[9.41,44.25],[9.73,44.32],[9.97,44.17],[9.88,43.94],[10.12,43.78],[10.44,43.85],[10.67,43.69],[10.99,43.76],[11.23,43.6],[11.14,43.37],[11.37,43.21],[11.28,42.98],[11.51,42.81],[11.83,42.88],[11.92,43.11],[12.24,43.18],[12.48,43.02],[12.38,42.78],[12.61,42.62],[12.52,42.39],[12.75,42.22],[12.66,41.99],[12.88,41.82],[13.2,41.88],[13.43,41.71],[13.75,41.78],[13.97,41.6],[14.3,41.67],[14.52,41.49],[14.84,41.55],[14.94,41.79],[14.72,41.96],[14.39,41.9],[14.17,42.07],[14.26,42.3],[14.04,42.47],[13.71,42.41],[13.49,42.58],[13.58,42.81],[13.35,42.98],[13.45,43.21],[13.22,43.38],[13.31,43.61],[13.08,43.78],[12.76,43.71],[12.52,43.88],[12.62,44.11],[12.39,44.27],[12.48,44.5],[12.24,44.66],[11.92,44.59],[11.82,44.36],[11.5,44.29],[11.26,44.45],[11.35,44.68],[11.12,44.84],[10.79,44.77],[10.55,44.93],[10.23,44.86],[9.99,45.01],[10.08,45.24],[10.4,45.31],[10.64,45.16],[10.97,45.23],[11.06,45.46],[11.39,45.53],[11.48,45.75],[11.82,45.82],[12.05,45.66],[11.96,45.44],[12.2,45.28],[12.53,45.34],[12.63,45.57],[12.39,45.73],[12.48,45.96],[12.82,46.02],[13.06,45.86],[12.96,45.64],[13.2,45.47],[13.53,45.54],[13.77,45.38],[13.67,45.15],[13.9,44.98],[14.24,45.05],[14.47,44.88],[14.37,44.65],[14.6,44.49],[14.5,44.26],[14.73,44.09],[15.06,44.15],[15.29,43.98],[15.63,44.04],[15.85,43.87],[16.19,43.92],[16.42,43.75],[16.75,43.81],[16.98,43.63],[16.87,43.4],[17.09,43.23],[17.43,43.28],[17.65,43.11],[17.54,42.88],[17.77,42.7],[18.1,42.75],[18.32,42.57],[18.65,42.62],[18.87,42.44],[19.2,42.49],[19.42,42.31],[19.31,42.08],[19.53,41.9],[19.86,41.94],[20.08,41.76],[19.96,41.53],[19.63,41.48],[19.52,41.25],[19.74,41.07],[19.62,40.83],[19.84,40.65],[19.73,40.42],[19.94,40.23],[19.83,40.0],[20.04,39.81],[20.36,39.86],[20.58,39.67],[20.46,39.43],[20.67,39.25],[20.99,39.29],[21.2,39.1],[21.09,38.87],[21.3,38.67],[21.62,38.72],[21.82,38.52],[22.14,38.57],[22.35,38.37],[22.67,38.41],[22.78,38.64],[22.58,38.84],[22.7,39.07],[22.49,39.26],[22.17,39.22],[21.96,39.42],[22.08,39.65],[22.4,39.69],[22.52,39.92],[22.31,40.11],[22.43,40.34],[22.22,40.53],[22.34,40.76],[22.67,40.8],[22.88,40.61],[23.2,40.65],[23.33,40.87],[23.65,40.91],[23.78,41.14],[24.11,41.17],[24.31,40.98],[24.64,41.01],[24.77,41.24],[25.1,41.27],[25.3,41.08],[25.63,41.11],[25.84,40.91],[26.16,40.94],[26.29,41.17],[26.09,41.36],[26.22,41.59],[26.02,41.78],[25.69,41.75],[25.48,41.95],[25.61,42.17],[25.94,42.2],[26.07,42.42],[26.41,42.45],[26.54,42.67],[26.88,42.7],[27.01,42.92],[27.35,42.94],[27.48,43.16],[27.82,43.18],[27.95,43.4],[27.75,43.6],[27.41,43.57],[27.21,43.77],[26.87,43.74],[26.66,43.94],[26.32,43.91],[26.19,43.69],[25.85,43.66],[25.71,43.44],[25.38,43.41],[25.25,43.19],[24.91,43.16],[24.7,43.35],[24.36,43.32],[24.15,43.51],[23.81,43.48],[23.59,43.66],[23.26,43.63],[23.04,43.82],[22.7,43.78],[22.48,43.96],[22.61,44.19],[22.39,44.37],[22.51,44.59],[22.86,44.63],[23.07,44.45],[23.42,44.48],[23.54,44.7],[23.89,44.74],[24.1,44.55],[24.45,44.58],[24.58,44.8],[24.92,44.83],[25.14,44.64],[25.48,44.67],[25.61,44.89],[25.96,44.92],[26.09,45.14],[26.44,45.16],[26.57,45.38],[26.92,45.4],[27.06,45.62],[26.85,45.81],[26.98,46.02],[26.77,46.21],[26.91,46.42],[26.7,46.61],[26.84,46.82],[26.62,47.01],[26.76,47.22],[26.55,47.4],[26.19,47.38],[25.97,47.56],[26.11,47.77],[25.89,47.96],[26.03,48.17]],[[14.1,45.44],[14.2,45.66],[14.54,45.73],[14.78,45.56],[14.67,45.33],[14.34,45.27],[14.1,45.44]],[[-2.24,48.99],[-2.29,48.76],[-2.61,48.69],[-2.88,48.85],[-2.83,49.08],[-2.51,49.15],[-2.24,48.99]],[[18.2,46.11],[18.43,45.94],[18.77,45.99],[18.89,46.21],[18.66,46.38],[18.31,46.33],[18.08,46.51],[18.19,46.73],[17.96,46.9],[18.07,47.12],[18.42,47.17],[18.54,47.39],[18.89,47.43],[19.01,47.65],[19.37,47.7],[19.6,47.53],[19.95,47.57],[20.08,47.79],[20.43,47.83],[20.55,48.05],[20.91,48.09],[21.04,48.3],[21.4,48.34],[21.52,48.56],[21.88,48.6],[22.11,48.42],[22.47,48.46],[22.7,48.28],[23.06,48.32],[23.29,48.14],[23.16,47.93],[23.38,47.75],[23.25,47.53],[22.9,47.5],[22.77,47.29],[22.41,47.25],[22.28,47.03],[22.51,46.85],[22.38,46.64],[22.03,46.6],[21.91,46.38],[22.13,46.2],[22.0,45.98],[22.23,45.8],[22.1,45.58],[21.76,45.54],[21.63,45.32],[21.85,45.14],[21.73,44.92],[21.39,44.88],[21.27,44.66],[21.49,44.48],[21.37,44.25],[21.02,44.21],[20.8,44.39],[20.92,44.62],[20.7,44.8],[20.36,44.75],[20.24,44.53],[19.9,44.48],[19.67,44.66],[19.33,44.62],[19.11,44.79],[18.77,44.75],[18.54,44.92],[18.2,44.87],[17.97,45.05],[18.08,45.27],[18.43,45.32],[18.54,45.54],[18.31,45.72],[17.97,45.67],[17.74,45.84],[17.39,45.79],[17.16,45.96],[17.27,46.18],[17.62,46.23],[17.85,46.06],[18.2,46.11]],[[7.99,46.0],[7.66,45.92],[7.42,46.06],[7.5,46.29],[7.83,46.37],[7.91,46.6],[8.23,46.67],[8.48,46.53],[8.39,46.3],[8.07,46.22],[7.99,46.0]],[[17.03,46.96],[16.79,47.13],[16.9,47.35],[16.67,47.52],[16.78,47.73],[17.13,47.79],[17.24,48.01],[17.6,48.06],[17.71,48.28],[18.07,48.33],[18.3,48.16],[18.66,48.21],[18.9,48.04],[18.78,47.82],[18.42,47.77],[18.31,47.56],[17.95,47.51],[17.72,47.67],[17.37,47.62],[17.25,47.4],[17.49,47.23],[17.38,47.01],[17.03,46.96]],[[10.52,46.37],[10.19,46.3],[9.95,46.45],[9.62,46.38],[9.38,46.53],[9.46,46.76],[9.8,46.83],[9.88,47.05],[10.22,47.13],[10.46,46.98],[10.8,47.05],[10.89,47.27],[11.23,47.34],[11.47,47.19],[11.38,46.96],[11.04,46.89],[10.95,46.67],[10.61,46.6],[10.52,46.37]],[[-3.98,41.4],[-4.27,41.31],[-4.52,41.47],[-4.48,41.71],[-4.73,41.86],[-4.69,42.1],[-4.4,42.19],[-4.15,42.04],[-3.86,42.12],[-3.62,41.97],[-3.66,41.73],[-3.94,41.64],[-3.98,41.4]],[[12.2,46.72],[11.95,46.88],[12.05,47.1],[12.39,47.17],[12.63,47.01],[12.53,46.79],[12.2,46.72]]],[[[15.19,40.97],[15.09,40.74],[15.31,40.56],[15.21,40.33],[15.43,40.15],[15.75,40.21],[15.97,40.03],[16.29,40.08],[16.39,40.32],[16.17,40.5],[16.27,40.73],[16.05,40.91],[15.73,40.85],[15.51,41.03],[15.19,40.97]]],[[[-0.44,40.42],[-0.67,40.58],[-0.95,40.5],[-1.0,40.26],[-0.77,40.1],[-0.49,40.18],[-0.44,40.42]]],[[[22.84,37.55],[22.96,37.79],[22.75,37.98],[22.44,37.94],[22.23,38.14],[21.91,38.1],[21.8,37.86],[22.0,37.67],[21.89,37.43],[22.09,37.24],[22.41,37.28],[22.52,37.52],[22.84,37.55]]],[[[26.61,42.25],[26.48,42.03],[26.68,41.84],[27.02,41.86],[27.22,41.66],[27.55,41.69],[27.68,41.91],[27.48,42.11],[27.15,42.08],[26.95,42.28],[26.61,42.25]]],[[[34.28,44.46],[34.43,44.66],[34.24,44.86],[33.91,44.86],[33.76,44.65],[33.94,44.45],[34.28,44.46]]],[[[9.53,42.15],[9.61,42.38],[9.38,42.54],[9.06,42.47],[8.98,42.24],[9.21,42.08],[9.53,42.15]]]]}}]}