{"type":"FeatureCollection","features":[{"type":"Feature","properties":{},"geometry":{"type":"MultiPolygon","coordinates":[[[[-90.09,0.25],[-90.11,0.49],[-90.33,0.6],[-90.54,0.46],[-90.76,0.57],[-90.97,0.43],[-90.96,0.18],[-91.17,0.04],[-91.39,0.15],[-91.4,0.4],[-91.63,0.5],[-91.84,0.36],[-91.82,0.12],[-91.6,0.01],[-91.59,-0.24],[-91.8,-0.38],[-91.78,-0.62],[-91.56,-0.73],[-91.55,-0.98],[-91.33,-1.09],[-91.31,-1.34],[-91.09,-1.45],[-90.88,-1.31],[-90.65,-1.42],[-90.64,-1.67],[-90.42,-1.78],[-90.2,-1.64],[-90.22,-1.39],[-90.44,-1.28],[-90.46,-1.03],[-90.25,-0.89],[-90.02,-1.0],[-89.81,-0.86],[-89.59,-0.96],[-89.57,-1.21],[-89.78,-1.36],[-89.77,-1.61],[-89.54,-1.72],[-89.33,-1.57],[-89.35,-1.32],[-89.13,-1.18],[-89.15,-0.93],[-88.94,-0.79],[-88.95,-0.54],[-89.18,-0.43],[-89.39,-0.57],[-89.62,-0.47],[-89.83,-0.61],[-90.05,-0.5],[-90.06,-0.25],[-90.29,-0.14],[-90.5,-0.28],[-90.72,-0.17],[-90.74,0.07],[-90.53,0.21],[-90.3,0.11],[-90.09,0.25]]]]}}]}