{"type":"FeatureCollection","features":[{"type":"Feature","properties":{},"geometry":{"type":"MultiPolygon","coordinates":[[[[-180.0,51.53],[-179.74,51.74],[-179.95,51.94],[-179.77,52.14],[-179.38,52.14],[-179.17,51.94],[-179.35,51.74],[-179.14,51.53],[-179.32,51.33],[-179.12,51.13],[-178.73,51.13],[-178.55,51.33],[-178.17,51.32],[-177.99,51.52],[-177.6,51.52],[-177.4,51.31],[-177.02,51.3],[-176.84,51.5],[-176.45,51.49],[-176.27,51.69],[-175.88,51.68],[-175.7,51.87],[-175.31,51.86],[-175.12,52.05],[-174.74,52.04],[-174.55,51.83],[-174.17,51.81],[-173.98,52.0],[-173.6,51.99],[-173.42,51.78],[-173.04,51.75],[-172.84,51.94],[-172.47,51.92],[-172.27,52.11],[-171.9,52.08],[-171.7,52.27],[-171.32,52.24],[-171.12,52.43],[-170.75,52.4],[-170.55,52.58],[-170.17,52.55],[-169.97,52.73],[-169.59,52.7],[-169.43,52.49],[-169.06,52.45],[-168.85,52.63],[-168.48,52.6],[-168.28,52.77],[-167.91,52.74],[-167.7,52.91],[-167.33,52.87],[-167.12,53.04],[-166.76,53.0],[-166.55,53.17],[-166.18,53.13],[-166.03,52.92],[-165.67,52.87],[-165.46,53.04],[-165.1,53.0],[-164.96,52.78],[-164.6,52.74],[-164.46,52.52],[-164.11,52.47],[-163.89,52.64],[-163.54,52.59],[-163.41,52.38],[-163.06,52.33],[-162.85,52.49],[-162.5,52.44],[-162.37,52.22],[-162.03,52.17],[-161.9,51.95],[-161.56,51.9],[-161.35,52.06],[-161.01,52.0],[-160.8,52.16],[-160.47,52.11],[-160.35,51.89],[-160.02,51.83],[-159.8,51.99],[-159.47,51.93],[-159.36,51.71],[-159.03,51.65],[-158.82,51.81],[-158.5,51.75],[-158.28,51.9],[-157.96,51.84],[-157.74,51.99],[-157.42,51.93],[-157.32,51.71],[-157.01,51.65],[-156.79,51.79],[-156.48,51.73],[-156.26,51.88],[-155.95,51.81],[-155.73,51.95],[-155.42,51.89],[-155.33,51.67],[-155.03,51.6],[-154.81,51.75],[-154.51,51.68],[-154.29,51.82],[-153.99,51.75],[-153.9,51.53],[-153.61,51.46],[-153.39,51.6],[-153.1,51.53],[-152.88,51.67],[-152.59,51.59],[-152.37,51.73],[-152.08,51.65],[-152.01,51.44],[-151.72,51.37],[-151.5,51.5],[-151.22,51.43],[-151.15,51.21],[-150.87,51.14],[-150.65,51.27],[-150.37,51.19],[-150.31,50.98],[-150.03,50.9],[-149.82,51.03],[-149.55,50.95],[-149.33,51.09],[-149.06,51.01],[-149.0,50.79],[-148.73,50.71],[-148.52,50.84],[-148.26,50.76],[-148.2,50.55],[-147.94,50.47],[-147.73,50.6],[-147.47,50.52],[-147.26,50.64],[-147.01,50.56],[-146.96,50.35],[-146.7,50.27],[-146.49,50.39],[-146.24,50.31],[-146.2,50.1],[-145.95,50.02],[-145.74,50.14],[-145.5,50.06],[-145.45,49.85],[-145.21,49.77],[-145.01,49.89],[-144.76,49.8],[-144.56,49.92],[-144.32,49.84],[-144.29,49.63],[-143.97,49.59],[-143.86,49.43],[-143.04,49.46],[-142.93,49.3],[-142.66,49.31],[-142.55,49.15],[-142.28,49.16],[-142.17,49.0],[-141.9,49.01],[-141.79,48.84],[-141.52,48.86],[-141.35,49.03],[-141.08,49.05],[-140.97,48.88],[-140.7,48.89],[-140.59,48.72],[-140.31,48.73],[-140.21,48.56],[-139.93,48.56],[-139.82,48.39],[-139.54,48.4],[-139.44,48.23],[-139.16,48.23],[-139.06,48.06],[-138.77,48.06],[-138.6,48.24],[-138.31,48.24],[-138.21,48.07],[-137.93,48.07],[-137.82,47.89],[-137.54,47.89],[-137.44,47.71],[-137.15,47.71],[-137.05,47.53],[-136.76,47.53],[-136.58,47.71],[-136.29,47.71],[-136.19,47.52],[-135.9,47.52],[-135.8,47.34],[-135.51,47.33],[-135.32,47.51],[-135.03,47.5],[-134.93,47.32],[-134.64,47.31],[-134.54,47.12],[-134.24,47.11],[-134.05,47.29],[-133.75,47.28],[-133.66,47.09],[-133.36,47.08],[-133.26,46.89],[-132.97,46.88],[-132.87,46.69],[-132.58,46.68],[-132.48,46.48],[-132.19,46.47],[-132.09,46.28],[-132.29,46.1],[-132.2,45.91],[-131.9,45.89],[-131.81,45.69],[-131.52,45.67],[-131.42,45.48],[-131.13,45.46],[-131.04,45.26],[-130.74,45.24],[-130.65,45.04],[-130.35,45.02],[-130.26,44.82],[-130.47,44.64],[-130.38,44.44],[-130.09,44.41],[-130.0,44.21],[-130.2,44.03],[-130.11,43.83],[-129.82,43.8],[-129.73,43.6],[-129.94,43.42],[-129.85,43.22],[-129.56,43.19],[-129.47,42.98],[-129.68,42.8],[-129.59,42.6],[-129.79,42.42],[-129.71,42.21],[-129.42,42.18],[-129.33,41.97],[-129.54,41.79],[-129.45,41.58],[-129.65,41.4],[-129.57,41.19],[-129.77,41.01],[-129.68,40.8],[-129.4,40.77],[-129.31,40.56],[-129.52,40.38],[-129.43,40.16],[-129.63,39.98],[-129.55,39.77],[-129.75,39.59],[-129.66,39.37],[-129.38,39.34],[-129.3,39.12],[-129.5,38.94],[-129.41,38.73],[-129.61,38.55],[-129.53,38.33],[-129.72,38.15],[-129.64,37.93],[-129.36,37.89],[-129.28,37.67],[-129.48,37.49],[-129.39,37.27],[-129.12,37.23],[-129.04,37.01],[-129.23,36.83],[-129.15,36.61],[-128.88,36.57],[-128.8,36.35],[-128.52,36.3],[-128.44,36.08],[-128.17,36.04],[-128.09,35.81],[-127.81,35.77],[-127.61,35.95],[-127.34,35.9],[-127.26,35.67],[-126.98,35.63],[-126.78,35.81],[-126.51,35.76],[-126.43,35.53],[-126.15,35.48],[-126.08,35.25],[-125.8,35.2],[-125.6,35.38],[-125.32,35.33],[-125.24,35.1],[-124.96,35.04],[-124.76,35.22],[-124.48,35.17],[-124.41,34.93],[-124.13,34.88],[-124.05,34.65],[-123.77,34.59],[-123.57,34.77],[-123.28,34.71],[-123.21,34.47],[-122.93,34.41],[-122.86,34.18],[-122.58,34.12],[-122.37,34.29],[-122.09,34.23],[-122.02,34.0],[-121.74,33.93],[-121.53,34.11],[-121.25,34.04],[-121.18,33.81],[-120.9,33.74],[-120.68,33.91],[-120.4,33.85],[-120.34,33.61],[-120.06,33.54],[-119.84,33.71],[-119.55,33.64],[-119.49,33.4],[-119.71,33.23],[-119.65,32.99],[-119.37,32.92],[-119.15,33.09],[-119.21,33.33],[-118.99,33.51],[-118.71,33.44],[-118.65,33.19],[-118.87,33.02],[-118.8,32.78],[-118.52,32.71],[-118.3,32.88],[-118.36,33.12],[-118.14,33.29],[-117.86,33.22],[-117.8,32.98],[-117.52,32.9],[-117.46,32.66],[-117.68,32.49],[-117.62,32.24],[-117.34,32.17],[-117.28,31.92],[-117.0,31.85],[-116.95,31.6],[-116.67,31.52],[-116.44,31.69],[-116.5,31.94],[-116.78,32.01],[-116.84,32.26],[-117.12,32.34],[-117.18,32.58],[-116.95,32.75],[-117.01,33.0],[-117.29,33.07],[-117.35,33.31],[-117.64,33.39],[-117.7,33.63],[-117.98,33.7],[-118.04,33.95],[-118.32,34.02],[-118.39,34.26],[-118.67,34.33],[-118.89,34.16],[-119.18,34.23],[-119.24,34.47],[-119.53,34.54],[-119.75,34.37],[-120.03,34.43],[-120.09,34.67],[-120.38,34.74],[-120.44,34.97],[-120.73,35.04],[-120.8,35.28],[-120.58,35.45],[-120.64,35.69],[-120.93,35.75],[-121.0,35.98],[-121.28,36.05],[-121.35,36.28],[-121.64,36.34],[-121.71,36.57],[-121.49,36.75],[-121.56,36.98],[-121.85,37.04],[-121.92,37.27],[-122.2,37.33],[-122.27,37.56],[-122.06,37.73],[-122.13,37.96],[-122.42,38.02],[-122.49,38.25],[-122.78,38.3],[-122.85,38.53],[-123.14,38.59],[-123.22,38.81],[-123.51,38.86],[-123.58,39.09],[-123.36,39.26],[-123.44,39.49],[-123.73,39.54],[-123.8,39.76],[-123.58,39.94],[-123.66,40.16],[-123.95,40.21],[-124.03,40.43],[-124.33,40.48],[-124.4,40.7],[-124.18,40.88],[-123.88,40.83],[-123.66,41.0],[-123.74,41.22],[-124.04,41.27],[-124.11,41.49],[-123.89,41.66],[-123.97,41.88],[-124.27,41.93],[-124.34,42.14],[-124.12,42.31],[-124.2,42.53],[-124.5,42.58],[-124.58,42.79],[-124.35,42.96],[-124.43,43.18],[-124.21,43.35],[-124.29,43.56],[-124.06,43.73],[-124.14,43.95],[-123.91,44.12],[-123.99,44.33],[-123.76,44.5],[-123.84,44.71],[-123.61,44.88],[-123.68,45.09],[-124.0,45.13],[-124.08,45.34],[-123.84,45.51],[-123.92,45.71],[-123.69,45.88],[-123.77,46.09],[-123.53,46.26],[-123.61,46.46],[-123.93,46.5],[-124.01,46.71],[-123.77,46.87],[-123.86,47.08],[-124.17,47.12],[-124.25,47.32],[-124.02,47.48],[-124.1,47.69],[-124.42,47.72],[-124.5,47.92],[-124.26,48.09],[-123.94,48.05],[-123.7,48.21],[-123.38,48.18],[-123.3,47.98],[-122.98,47.94],[-122.9,47.73],[-123.14,47.57],[-123.06,47.37],[-123.3,47.2],[-123.22,47.0],[-122.9,46.96],[-122.66,47.12],[-122.34,47.08],[-122.1,47.24],[-122.17,47.45],[-121.93,47.61],[-122.01,47.81],[-121.76,47.97],[-121.84,48.18],[-122.16,48.22],[-122.24,48.42],[-122.0,48.58],[-122.08,48.78],[-122.4,48.82],[-122.48,49.02],[-122.23,49.18],[-122.32,49.38],[-122.64,49.42],[-122.89,49.26],[-123.22,49.3],[-123.3,49.5],[-123.63,49.53],[-123.71,49.73],[-124.04,49.76],[-124.2,49.96],[-124.53,50.0],[-124.69,50.2],[-125.02,50.23],[-125.18,50.43],[-125.51,50.46],[-125.67,50.66],[-126.01,50.68],[-126.17,50.88],[-126.51,50.91],[-126.68,51.11],[-127.01,51.13],[-127.18,51.33],[-127.52,51.35],[-127.7,51.55],[-127.54,51.72],[-127.71,51.92],[-127.55,52.1],[-127.73,52.3],[-127.57,52.47],[-127.75,52.67],[-128.1,52.69],[-128.28,52.89],[-128.63,52.9],[-128.82,53.1],[-128.66,53.28],[-128.85,53.48],[-128.69,53.66],[-128.88,53.85],[-129.24,53.87],[-129.4,53.69],[-129.75,53.7],[-129.95,53.89],[-129.79,54.08],[-129.99,54.27],[-130.35,54.28],[-130.55,54.47],[-130.4,54.66],[-130.04,54.65],[-129.88,54.83],[-130.08,55.03],[-130.45,55.04],[-130.65,55.23],[-130.5,55.42],[-130.71,55.61],[-131.08,55.62],[-131.29,55.81],[-131.66,55.81],[-131.88,56.0],[-131.73,56.19],[-131.95,56.39],[-132.32,56.39],[-132.55,56.58],[-132.4,56.77],[-132.62,56.96],[-133.0,56.96],[-133.23,57.14],[-133.09,57.34],[-133.32,57.53],[-133.17,57.72],[-133.41,57.91],[-133.8,57.9],[-134.04,58.09],[-134.43,58.08],[-134.67,58.27],[-134.53,58.46],[-134.78,58.65],[-134.64,58.85],[-134.89,59.03],[-135.29,59.02],[-135.42,58.82],[-135.17,58.64],[-135.31,58.44],[-135.69,58.43],[-135.95,58.61],[-135.81,58.81],[-136.07,58.99],[-136.46,58.97],[-136.59,58.77],[-136.33,58.59],[-136.46,58.4],[-136.84,58.38],[-137.1,58.56],[-137.48,58.54],[-137.74,58.72],[-137.62,58.91],[-137.89,59.09],[-138.27,59.07],[-138.54,59.25],[-138.42,59.44],[-138.7,59.62],[-139.08,59.59],[-139.36,59.77],[-139.25,59.97],[-139.56,60.09],[-139.98,60.01],[-140.29,60.14],[-140.71,60.06],[-141.03,60.18],[-141.45,60.1],[-141.77,60.22],[-142.19,60.13],[-142.52,60.25],[-142.94,60.16],[-143.27,60.28],[-143.69,60.19],[-144.03,60.3],[-143.95,60.51],[-144.3,60.63],[-144.72,60.53],[-145.07,60.65],[-145.49,60.55],[-145.84,60.66],[-145.78,60.87],[-146.14,60.98],[-146.07,61.2],[-146.44,61.31],[-146.87,61.21],[-146.93,60.99],[-147.35,60.89],[-147.72,61.0],[-147.67,61.21],[-148.05,61.32],[-148.47,61.21],[-148.52,61.0],[-148.94,60.89],[-148.98,60.68],[-148.6,60.57],[-148.65,60.36],[-148.28,60.26],[-148.32,60.05],[-148.73,59.94],[-149.09,60.04],[-149.5,59.93],[-149.86,60.03],[-150.27,59.92],[-150.29,59.71],[-150.69,59.59],[-150.71,59.38],[-151.1,59.27],[-151.47,59.36],[-151.45,59.57],[-151.06,59.69],[-151.04,59.9],[-150.64,60.02],[-150.61,60.23],[-150.21,60.34],[-150.18,60.56],[-150.56,60.66],[-150.53,60.87],[-150.12,60.99],[-149.73,60.88],[-149.32,61.0],[-149.28,61.21],[-149.67,61.32],[-149.63,61.53],[-150.02,61.64],[-150.45,61.52],[-150.48,61.3],[-150.9,61.19],[-151.29,61.29],[-151.71,61.17],[-151.73,60.95],[-152.14,60.84],[-152.15,60.62],[-152.56,60.5],[-152.57,60.28],[-152.96,60.16],[-152.97,59.95],[-153.36,59.83],[-153.75,59.92],[-154.14,59.79],[-154.53,59.88],[-154.54,60.09],[-154.93,60.18],[-154.94,60.4],[-155.35,60.48],[-155.74,60.35],[-156.15,60.44],[-156.54,60.31],[-156.95,60.39],[-156.97,60.6],[-157.39,60.69],[-157.78,60.55],[-157.75,60.33],[-158.13,60.19],[-158.55,60.27],[-158.92,60.13],[-158.88,59.91],[-159.25,59.77],[-159.67,59.85],[-160.04,59.7],[-160.45,59.77],[-160.82,59.63],[-161.24,59.7],[-161.3,59.91],[-160.93,60.06],[-160.99,60.28],[-160.62,60.42],[-160.68,60.64],[-160.3,60.79],[-160.35,61.0],[-160.79,61.08],[-161.17,60.93],[-161.61,61.0],[-161.99,60.85],[-162.43,60.91],[-162.81,60.76],[-163.25,60.82],[-163.33,61.04],[-163.78,61.1],[-164.15,60.95],[-164.61,61.01],[-164.7,61.23],[-165.16,61.28],[-165.26,61.5],[-165.73,61.56],[-165.83,61.78],[-165.46,61.94],[-165.56,62.16],[-165.18,62.33],[-165.29,62.55],[-164.9,62.71],[-165.0,62.94],[-164.61,63.1],[-164.12,63.04],[-163.72,63.19],[-163.23,63.13],[-162.82,63.29],[-162.33,63.22],[-161.92,63.37],[-161.43,63.3],[-161.02,63.45],[-161.09,63.68],[-160.66,63.83],[-160.73,64.05],[-161.22,64.13],[-161.3,64.36],[-160.86,64.51],[-160.93,64.74],[-161.44,64.81],[-161.88,64.66],[-162.4,64.73],[-162.83,64.58],[-163.35,64.65],[-163.77,64.49],[-164.29,64.55],[-164.71,64.39],[-165.24,64.45],[-165.35,64.68],[-165.88,64.74],[-166.0,64.97],[-166.54,65.03],[-166.67,65.26],[-167.22,65.31],[-167.36,65.54],[-167.92,65.6],[-168.06,65.82],[-168.63,65.88],[-169.05,65.7],[-168.89,65.47],[-168.33,65.42],[-168.19,65.19],[-168.59,65.02],[-168.45,64.79],[-167.9,64.74],[-167.5,64.91],[-166.96,64.86],[-166.83,64.63],[-166.29,64.57],[-166.17,64.35],[-165.65,64.29],[-165.54,64.06],[-165.94,63.89],[-166.46,63.95],[-166.85,63.78],[-167.37,63.84],[-167.76,63.67],[-168.28,63.72],[-168.66,63.54],[-169.18,63.59],[-169.33,63.81],[-169.86,63.86],[-170.01,64.08],[-170.55,64.13],[-170.92,63.95],[-171.46,63.99],[-171.83,63.8],[-172.36,63.84],[-172.72,63.65],[-172.55,63.43],[-172.02,63.4],[-171.85,63.18],[-171.33,63.14],[-170.97,63.32],[-171.13,63.54],[-170.76,63.72],[-170.23,63.68],[-170.08,63.46],[-170.45,63.28],[-170.3,63.06],[-170.66,62.88],[-171.17,62.92],[-171.52,62.74],[-172.04,62.77],[-172.38,62.59],[-172.22,62.37],[-172.56,62.19],[-173.06,62.22],[-173.4,62.04],[-173.9,62.07],[-174.23,61.88],[-174.05,61.66],[-174.37,61.48],[-174.87,61.5],[-175.18,61.31],[-175.0,61.1],[-175.31,60.91],[-175.79,60.93],[-176.09,60.74],[-176.58,60.76],[-176.88,60.57],[-176.69,60.36],[-176.98,60.17],[-177.45,60.18],[-177.74,59.99],[-178.21,60.0],[-178.49,59.81],[-178.29,59.6],[-178.56,59.41],[-179.03,59.42],[-179.3,59.22],[-179.77,59.23],[-180.0,59.05],[-180.0,51.53]],[[-165.93,60.15],[-166.28,59.98],[-166.73,60.04],[-166.83,60.25],[-166.49,60.41],[-166.03,60.36],[-165.93,60.15]]],[[[180.0,59.05],[179.51,59.03],[179.26,58.83],[179.47,58.63],[179.22,58.44],[178.76,58.44],[178.52,58.24],[178.06,58.23],[177.82,58.04],[177.37,58.03],[177.14,57.83],[176.69,57.82],[176.47,57.62],[176.02,57.61],[175.8,57.41],[175.36,57.39],[175.14,57.19],[174.7,57.17],[174.49,56.97],[174.05,56.95],[173.85,56.75],[173.41,56.73],[173.22,56.52],[172.78,56.5],[172.59,56.29],[172.16,56.27],[171.98,56.06],[172.24,55.88],[172.07,55.68],[172.33,55.5],[172.17,55.29],[172.42,55.11],[172.26,54.9],[172.52,54.72],[172.93,54.74],[173.18,54.55],[173.02,54.35],[173.27,54.16],[173.11,53.95],[173.35,53.76],[173.76,53.79],[174.0,53.6],[174.41,53.62],[174.65,53.43],[175.06,53.45],[175.22,53.65],[175.63,53.67],[175.87,53.48],[175.7,53.27],[175.93,53.08],[176.33,53.09],[176.57,52.9],[176.97,52.91],[177.19,52.71],[177.59,52.72],[177.77,52.92],[178.17,52.93],[178.39,52.73],[178.79,52.74],[179.01,52.54],[179.4,52.54],[179.62,52.34],[179.44,52.14],[179.05,52.14],[178.83,52.34],[178.44,52.33],[178.26,52.13],[177.87,52.12],[177.64,52.32],[177.25,52.31],[177.08,52.1],[176.68,52.09],[176.52,51.88],[176.74,51.68],[177.13,51.69],[177.36,51.5],[177.75,51.5],[177.92,51.71],[178.31,51.72],[178.53,51.52],[178.92,51.53],[179.13,51.32],[179.52,51.33],[179.69,51.53],[180.0,51.53],[180.0,59.05]]],[[[141.86,53.27],[142.19,53.39],[142.17,53.62],[141.81,53.72],[141.47,53.6],[141.5,53.37],[141.86,53.27]]],[[[149.64,54.37],[149.27,54.27],[148.92,54.39],[148.55,54.29],[148.21,54.41],[147.84,54.31],[147.82,54.08],[147.46,53.97],[147.11,54.09],[146.75,53.99],[146.74,53.76],[146.38,53.65],[146.03,53.77],[145.68,53.66],[145.68,53.43],[145.33,53.32],[144.98,53.43],[144.63,53.32],[144.64,53.1],[144.3,52.98],[144.3,52.76],[144.65,52.65],[144.65,52.43],[144.99,52.33],[144.99,52.11],[145.33,52.0],[145.33,51.78],[145.66,51.67],[145.99,51.78],[146.32,51.67],[146.31,51.45],[146.6,51.32],[146.55,51.09],[146.84,50.97],[147.17,51.07],[147.45,50.94],[147.79,51.05],[148.07,50.92],[148.41,51.02],[148.69,50.89],[149.03,50.99],[149.31,50.85],[149.25,50.62],[149.54,50.49],[149.88,50.58],[149.94,50.81],[150.28,50.91],[150.56,50.77],[150.91,50.87],[151.19,50.73],[151.54,50.82],[151.82,50.68],[152.17,50.77],[152.45,50.63],[152.8,50.72],[153.08,50.57],[153.43,50.66],[153.51,50.89],[153.87,50.98],[154.15,50.83],[154.5,50.92],[154.78,50.77],[155.14,50.85],[155.42,50.7],[155.34,50.47],[154.98,50.38],[154.89,50.15],[155.17,50.0],[155.09,49.77],[154.73,49.68],[154.46,49.83],[154.11,49.75],[154.03,49.52],[154.3,49.37],[154.22,49.13],[153.88,49.05],[153.61,49.2],[153.26,49.11],[153.19,48.87],[153.46,48.72],[153.8,48.81],[154.07,48.66],[154.42,48.74],[154.49,48.98],[154.84,49.06],[154.92,49.3],[155.28,49.38],[155.36,49.61],[155.71,49.69],[155.8,49.93],[156.16,50.01],[156.24,50.24],[156.61,50.32],[156.7,50.55],[157.06,50.63],[157.15,50.86],[157.52,50.94],[157.61,51.17],[157.98,51.24],[158.08,51.47],[158.46,51.54],[158.55,51.77],[158.93,51.84],[159.21,51.69],[159.59,51.75],[159.69,51.98],[160.07,52.05],[160.35,51.89],[160.73,51.95],[160.84,52.18],[161.22,52.25],[161.33,52.47],[161.72,52.53],[161.84,52.76],[161.56,52.92],[161.68,53.15],[161.4,53.31],[161.51,53.53],[161.91,53.59],[162.03,53.82],[161.74,53.98],[161.86,54.2],[162.26,54.26],[162.38,54.48],[162.79,54.54],[162.91,54.76],[162.63,54.92],[162.75,55.14],[162.46,55.3],[162.05,55.24],[161.94,55.02],[162.22,54.86],[162.1,54.64],[161.7,54.58],[161.41,54.74],[161.01,54.68],[160.89,54.46],[161.18,54.3],[161.06,54.08],[160.67,54.01],[160.38,54.17],[160.49,54.39],[160.21,54.55],[159.81,54.48],[159.7,54.26],[159.99,54.1],[159.88,53.88],[159.48,53.81],[159.38,53.59],[159.66,53.43],[159.55,53.21],[159.17,53.14],[158.88,53.29],[158.5,53.22],[158.39,53.0],[158.68,52.84],[158.58,52.61],[158.19,52.54],[158.1,52.31],[158.38,52.16],[158.28,51.93],[157.9,51.86],[157.8,51.63],[157.43,51.55],[157.34,51.32],[156.97,51.25],[156.69,51.4],[156.78,51.63],[156.5,51.78],[156.59,52.01],[156.31,52.16],[156.4,52.39],[156.78,52.47],[156.87,52.7],[156.59,52.85],[156.68,53.08],[156.39,53.22],[156.49,53.45],[156.2,53.6],[156.29,53.82],[156.0,53.97],[156.07,54.19],[155.76,54.33],[155.83,54.56],[155.51,54.7],[155.12,54.62],[155.05,54.39],[154.67,54.31],[154.34,54.45],[153.96,54.36],[153.63,54.5],[153.25,54.41],[153.2,54.19],[152.82,54.1],[152.49,54.23],[152.11,54.14],[151.78,54.27],[151.4,54.18],[151.07,54.31],[150.69,54.21],[150.35,54.34],[149.98,54.24],[149.64,54.37]],[[155.87,51.01],[155.59,51.16],[155.68,51.39],[156.04,51.47],[156.32,51.32],[156.23,51.09],[155.87,51.01]]],[[[139.62,38.82],[139.87,38.93],[139.89,39.16],[140.13,39.27],[140.15,39.51],[139.92,39.63],[139.93,39.87],[139.7,40.0],[139.45,39.89],[139.43,39.65],[139.67,39.53],[139.65,39.29],[139.41,39.18],[139.39,38.95],[139.15,38.84],[139.13,38.6],[139.36,38.48],[139.61,38.58],[139.62,38.82]]],[[[142.89,53.41],[143.24,53.3],[143.26,53.08],[143.61,52.98],[143.95,53.09],[143.94,53.31],[143.59,53.42],[143.57,53.64],[143.22,53.75],[142.87,53.63],[142.89,53.41]]],[[[159.97,60.59],[159.85,60.35],[160.2,60.19],[160.69,60.26],[160.82,60.49],[161.3,60.55],[161.65,60.39],[162.14,60.45],[162.28,60.68],[161.93,60.85],[161.44,60.79],[161.08,60.96],[160.59,60.89],[160.46,60.65],[159.97,60.59]]],[[[134.0,43.01],[133.76,43.11],[133.53,42.99],[133.29,43.1],[133.06,42.97],[132.82,43.08],[132.59,42.95],[132.36,43.05],[132.35,43.28],[132.11,43.38],[131.89,43.25],[131.9,43.03],[131.68,42.91],[131.44,43.01],[131.22,42.88],[131.24,42.66],[131.02,42.54],[130.79,42.63],[130.57,42.51],[130.59,42.29],[130.82,42.19],[131.03,42.32],[131.26,42.22],[131.48,42.34],[131.47,42.56],[131.69,42.69],[131.92,42.59],[132.14,42.71],[132.38,42.61],[132.6,42.73],[132.84,42.63],[132.85,42.4],[133.08,42.3],[133.31,42.42],[133.3,42.64],[133.53,42.77],[133.77,42.66],[134.0,42.78],[134.24,42.68],[134.47,42.8],[134.47,43.02],[134.71,43.14],[134.95,43.04],[135.19,43.16],[135.19,43.38],[135.43,43.5],[135.43,43.73],[135.68,43.85],[135.68,44.08],[135.92,44.2],[136.17,44.09],[136.42,44.21],[136.42,44.44],[136.68,44.56],[136.68,44.79],[136.94,44.91],[136.94,45.14],[136.69,45.25],[136.43,45.13],[136.43,44.9],[136.18,44.78],[136.18,44.55],[135.93,44.43],[135.68,44.54],[135.43,44.42],[135.43,44.19],[135.19,44.07],[135.19,43.84],[134.94,43.72],[134.95,43.49],[134.71,43.37],[134.47,43.48],[134.23,43.36],[134.23,43.13],[134.0,43.01]]],[[[128.59,40.41],[128.61,40.19],[128.83,40.09],[129.03,40.21],[129.25,40.12],[129.45,40.24],[129.43,40.46],[129.63,40.58],[129.61,40.8],[129.39,40.89],[129.19,40.77],[129.21,40.55],[129.01,40.43],[128.79,40.53],[128.59,40.41]]],[[[142.71,47.35],[142.98,47.22],[142.95,46.99],[143.21,46.86],[143.51,46.97],[143.54,47.21],[143.27,47.33],[143.3,47.57],[143.03,47.69],[143.06,47.92],[142.8,48.04],[142.5,47.93],[142.47,47.7],[142.74,47.58],[142.71,47.35]]],[[[138.17,54.23],[137.84,54.1],[137.9,53.88],[138.27,53.79],[138.6,53.92],[138.55,54.14],[138.88,54.27],[139.26,54.18],[139.59,54.31],[139.97,54.21],[140.0,53.99],[140.38,53.89],[140.41,53.67],[140.77,53.57],[141.11,53.7],[141.08,53.92],[140.71,54.02],[140.68,54.24],[140.31,54.34],[140.27,54.57],[139.89,54.66],[139.85,54.89],[139.47,54.99],[139.13,54.86],[139.17,54.63],[138.84,54.5],[138.46,54.59],[138.12,54.46],[138.17,54.23]]],[[[152.38,58.79],[152.76,58.64],[153.2,58.74],[153.26,58.97],[152.88,59.12],[152.44,59.02],[152.38,58.79]]],[[[-166.77,66.34],[-167.35,66.4],[-167.78,66.23],[-167.64,66.0],[-167.07,65.94],[-166.63,66.11],[-166.77,66.34]]],[[[141.69,45.6],[141.41,45.49],[141.15,45.61],[140.87,45.5],[140.85,45.27],[141.11,45.15],[141.09,44.91],[141.34,44.79],[141.32,44.55],[141.04,44.44],[141.02,44.21],[141.28,44.08],[141.25,43.85],[140.98,43.74],[140.96,43.5],[140.69,43.39],[140.44,43.51],[140.18,43.4],[140.16,43.17],[139.9,43.05],[139.88,42.82],[139.62,42.71],[139.61,42.47],[139.35,42.36],[139.33,42.12],[139.58,42.0],[139.83,42.11],[139.85,42.35],[140.11,42.46],[140.13,42.7],[140.39,42.81],[140.41,43.04],[140.67,43.15],[140.92,43.03],[141.19,43.14],[141.21,43.38],[141.48,43.49],[141.5,43.72],[141.78,43.83],[141.8,44.07],[141.55,44.19],[141.57,44.43],[141.85,44.54],[141.87,44.78],[141.62,44.9],[141.64,45.14],[141.92,45.25],[142.18,45.12],[142.46,45.23],[142.49,45.47],[142.23,45.59],[142.26,45.83],[142.54,45.94],[142.57,46.17],[142.86,46.28],[143.12,46.16],[143.09,45.92],[143.35,45.8],[143.64,45.91],[143.67,46.14],[143.97,46.25],[144.0,46.49],[143.74,46.61],[143.44,46.5],[143.18,46.63],[142.89,46.52],[142.63,46.64],[142.34,46.53],[142.31,46.3],[142.02,46.19],[141.76,46.31],[141.79,46.54],[142.07,46.65],[142.1,46.89],[141.84,47.01],[141.55,46.89],[141.52,46.66],[141.24,46.55],[141.22,46.31],[140.94,46.2],[140.91,45.97],[141.17,45.85],[141.45,45.96],[141.71,45.84],[141.69,45.6]]],[[[141.77,48.98],[142.07,49.1],[142.09,49.33],[141.82,49.44],[141.52,49.33],[141.5,49.1],[141.77,48.98]]],[[[140.9,36.62],[141.14,36.72],[141.16,36.96],[141.41,37.06],[141.43,37.3],[141.2,37.43],[140.95,37.33],[140.94,37.09],[140.69,36.99],[140.67,36.75],[140.9,36.62]]],[[[156.79,57.27],[157.22,57.35],[157.31,57.58],[157.74,57.65],[157.84,57.88],[158.28,57.96],[158.38,58.19],[158.83,58.26],[158.93,58.49],[159.38,58.57],[159.5,58.8],[159.95,58.87],[160.07,59.1],[160.53,59.16],[160.66,59.4],[161.12,59.46],[161.25,59.69],[161.73,59.76],[161.86,59.99],[161.52,60.15],[161.04,60.09],[160.91,59.86],[160.43,59.79],[160.31,59.56],[159.84,59.49],[159.72,59.26],[159.26,59.19],[159.15,58.96],[158.69,58.88],[158.59,58.65],[158.14,58.58],[158.04,58.35],[157.59,58.27],[157.5,58.04],[157.06,57.96],[156.71,58.11],[156.27,58.03],[156.18,57.8],[156.53,57.65],[156.45,57.42],[156.02,57.34],[155.94,57.11],[155.51,57.03],[155.44,56.8],[155.78,56.65],[156.2,56.73],[156.28,56.96],[156.7,57.04],[156.79,57.27]]],[[[146.61,43.59],[146.86,43.45],[147.16,43.55],[147.2,43.79],[146.95,43.93],[146.99,44.17],[147.29,44.27],[147.33,44.51],[147.64,44.61],[147.68,44.85],[147.42,44.99],[147.12,44.89],[146.86,45.03],[146.56,44.92],[146.52,44.69],[146.22,44.58],[145.97,44.72],[145.67,44.62],[145.42,44.75],[145.12,44.65],[145.09,44.41],[144.8,44.3],[144.54,44.44],[144.25,44.33],[144.0,44.46],[143.71,44.36],[143.68,44.12],[143.93,43.99],[144.22,44.09],[144.47,43.96],[144.76,44.07],[145.01,43.93],[145.3,44.04],[145.56,43.9],[145.52,43.66],[145.23,43.56],[145.19,43.32],[144.91,43.21],[144.87,42.97],[145.12,42.84],[145.41,42.94],[145.66,42.8],[145.95,42.9],[145.98,43.14],[146.27,43.25],[146.31,43.49],[146.61,43.59]]],[[[141.6,41.94],[141.35,42.07],[141.37,42.3],[141.13,42.43],[140.86,42.32],[140.62,42.45],[140.35,42.34],[140.34,42.1],[140.58,41.98],[140.84,42.09],[141.09,41.96],[141.07,41.72],[140.8,41.61],[140.56,41.74],[140.3,41.63],[140.06,41.75],[139.8,41.64],[139.56,41.77],[139.3,41.66],[139.29,41.42],[139.53,41.3],[139.79,41.41],[140.03,41.28],[140.01,41.05],[139.76,40.94],[139.74,40.7],[139.98,40.58],[140.23,40.69],[140.25,40.92],[140.51,41.03],[140.53,41.27],[140.79,41.38],[141.03,41.25],[141.29,41.36],[141.53,41.23],[141.79,41.34],[141.82,41.57],[141.57,41.7],[141.6,41.94]]],[[[165.25,59.12],[164.94,59.3],[165.09,59.52],[165.57,59.57],[165.88,59.4],[166.36,59.44],[166.53,59.67],[167.01,59.71],[167.18,59.94],[167.67,59.98],[167.85,60.2],[168.34,60.24],[168.53,60.46],[168.22,60.65],[167.73,60.61],[167.54,60.38],[167.05,60.34],[166.87,60.12],[166.39,60.07],[166.07,60.25],[165.58,60.2],[165.42,59.98],[164.93,59.93],[164.61,60.1],[164.13,60.05],[163.97,59.82],[164.3,59.65],[164.15,59.42],[163.67,59.37],[163.35,59.54],[162.87,59.48],[162.73,59.25],[163.06,59.08],[162.92,58.85],[162.46,58.79],[162.32,58.57],[161.87,58.51],[161.74,58.28],[162.06,58.11],[161.93,57.89],[162.25,57.72],[162.7,57.78],[163.01,57.62],[162.87,57.39],[162.43,57.33],[162.31,57.11],[162.61,56.95],[162.49,56.72],[162.79,56.56],[163.22,56.62],[163.51,56.45],[163.38,56.23],[162.96,56.18],[162.66,56.34],[162.24,56.28],[162.12,56.06],[161.7,56.0],[161.58,55.78],[161.88,55.62],[162.29,55.68],[162.41,55.9],[162.83,55.96],[163.12,55.79],[163.54,55.85],[163.67,56.07],[164.1,56.12],[164.23,56.34],[163.94,56.51],[164.08,56.73],[163.78,56.89],[163.35,56.84],[163.05,57.0],[163.18,57.23],[163.62,57.28],[163.76,57.51],[163.45,57.67],[163.59,57.9],[163.28,58.07],[162.83,58.01],[162.51,58.17],[162.65,58.4],[163.1,58.46],[163.42,58.29],[163.87,58.35],[164.02,58.57],[164.48,58.62],[164.63,58.85],[165.09,58.9],[165.25,59.12]]],[[[142.43,54.64],[142.45,54.41],[142.82,54.31],[142.84,54.08],[143.2,53.98],[143.55,54.09],[143.54,54.32],[143.17,54.43],[143.16,54.65],[142.79,54.76],[142.43,54.64]]],[[[-174.18,64.16],[-173.98,63.94],[-173.44,63.91],[-173.08,64.09],[-172.54,64.06],[-172.17,64.25],[-172.35,64.47],[-172.9,64.5],[-173.27,64.32],[-173.82,64.35],[-174.01,64.57],[-174.57,64.6],[-174.78,64.82],[-175.35,64.85],[-175.56,65.07],[-176.13,65.09],[-176.49,64.89],[-176.26,64.67],[-175.7,64.65],[-175.49,64.43],[-174.93,64.41],[-174.73,64.19],[-174.18,64.16]]],[[[144.55,48.24],[144.85,48.35],[144.89,48.58],[145.2,48.69],[145.24,48.92],[144.97,49.05],[145.01,49.28],[144.73,49.4],[144.77,49.64],[144.49,49.76],[144.53,49.99],[144.25,50.11],[144.29,50.34],[144.01,50.46],[143.69,50.35],[143.66,50.12],[143.94,50.0],[143.9,49.77],[144.18,49.65],[144.14,49.42],[143.83,49.31],[143.56,49.43],[143.25,49.32],[143.22,49.09],[142.91,48.97],[142.88,48.74],[142.58,48.63],[142.56,48.4],[142.83,48.28],[143.13,48.39],[143.16,48.62],[143.46,48.73],[143.49,48.96],[143.8,49.08],[144.07,48.95],[144.04,48.72],[144.31,48.6],[144.27,48.36],[144.55,48.24]]],[[[150.02,46.24],[149.7,46.15],[149.64,45.91],[149.33,45.81],[149.07,45.96],[148.75,45.86],[148.7,45.62],[148.39,45.52],[148.13,45.66],[147.82,45.57],[147.78,45.33],[148.03,45.19],[147.99,44.95],[148.24,44.8],[148.55,44.9],[148.6,45.14],[148.91,45.24],[148.96,45.48],[149.27,45.57],[149.53,45.43],[149.85,45.52],[150.11,45.38],[150.42,45.47],[150.48,45.71],[150.8,45.8],[150.86,46.04],[151.18,46.14],[151.24,46.38],[150.98,46.52],[151.04,46.76],[150.78,46.91],[150.46,46.82],[150.4,46.58],[150.08,46.48],[150.02,46.24]]],[[[139.11,47.01],[139.12,47.24],[138.86,47.35],[138.59,47.23],[138.57,47.0],[138.3,46.88],[138.29,46.66],[138.02,46.54],[138.01,46.31],[137.75,46.19],[137.74,45.96],[137.47,45.84],[137.47,45.61],[137.21,45.49],[137.2,45.26],[137.45,45.15],[137.71,45.27],[137.72,45.5],[137.98,45.62],[137.99,45.85],[138.26,45.96],[138.27,46.2],[138.54,46.31],[138.55,46.54],[138.82,46.66],[138.84,46.89],[139.11,47.01]]],[[[176.52,62.47],[175.99,62.47],[175.73,62.25],[175.2,62.24],[174.95,62.03],[174.42,62.02],[174.18,61.8],[173.66,61.78],[173.42,61.57],[172.91,61.55],[172.68,61.33],[172.17,61.31],[171.94,61.09],[172.23,60.9],[172.73,60.92],[172.96,61.14],[173.46,61.16],[173.7,61.37],[174.21,61.39],[174.45,61.6],[174.96,61.62],[175.21,61.83],[175.73,61.84],[175.99,62.05],[176.51,62.06],[176.78,62.27],[177.3,62.28],[177.58,62.48],[177.32,62.69],[176.79,62.69],[176.52,62.47]]],[[[141.77,38.35],[142.02,38.45],[142.04,38.69],[142.3,38.79],[142.32,39.03],[142.09,39.17],[141.83,39.06],[141.81,38.83],[141.55,38.72],[141.53,38.48],[141.28,38.38],[141.26,38.14],[141.49,38.01],[141.74,38.11],[141.77,38.35]]],[[[172.06,53.08],[172.31,52.89],[172.15,52.68],[172.4,52.49],[172.8,52.52],[173.04,52.33],[173.44,52.35],[173.68,52.16],[174.07,52.18],[174.24,52.4],[174.63,52.42],[174.8,52.63],[174.56,52.82],[174.16,52.8],[173.92,52.99],[173.52,52.97],[173.27,53.16],[172.87,53.13],[172.62,53.32],[172.22,53.29],[172.06,53.08]]],[[[-162.01,66.43],[-162.56,66.51],[-163.03,66.35],[-163.59,66.42],[-164.05,66.26],[-163.94,66.02],[-163.39,65.95],[-162.93,66.11],[-162.38,66.04],[-161.92,66.2],[-162.01,66.43]]],[[[166.61,54.62],[166.88,54.44],[167.29,54.49],[167.56,54.31],[167.97,54.36],[168.23,54.18],[168.64,54.22],[168.79,54.43],[168.53,54.61],[168.67,54.82],[168.41,55.0],[167.99,54.96],[167.72,55.13],[167.3,55.09],[167.03,55.26],[166.61,55.22],[166.34,55.39],[166.48,55.6],[166.21,55.77],[165.79,55.72],[165.64,55.51],[165.23,55.46],[165.09,55.24],[165.37,55.08],[165.78,55.12],[166.06,54.96],[165.92,54.74],[166.2,54.57],[166.61,54.62]]],[[[144.34,43.01],[144.06,42.9],[144.03,42.66],[144.27,42.53],[144.56,42.63],[144.59,42.87],[144.34,43.01]]],[[[176.62,52.49],[176.4,52.69],[176.0,52.67],[175.83,52.47],[176.06,52.27],[176.46,52.28],[176.62,52.49]]],[[[152.63,48.08],[152.56,47.84],[152.23,47.75],[152.16,47.51],[151.83,47.42],[151.76,47.18],[151.43,47.09],[151.37,46.85],[151.63,46.71],[151.96,46.8],[152.22,46.65],[152.55,46.73],[152.62,46.97],[152.95,47.06],[153.02,47.3],[153.36,47.39],[153.43,47.62],[153.17,47.78],[153.24,48.01],[153.58,48.1],[153.65,48.34],[153.38,48.49],[153.04,48.4],[152.97,48.16],[152.63,48.08]]],[[[169.13,60.09],[169.42,59.91],[169.91,59.94],[170.19,59.75],[170.67,59.79],[170.88,60.0],[170.59,60.19],[170.1,60.16],[169.81,60.35],[170.02,60.57],[169.72,60.76],[169.22,60.72],[169.02,60.5],[169.32,60.31],[169.13,60.09]]],[[[142.95,44.74],[142.92,44.51],[143.17,44.38],[143.46,44.49],[143.49,44.72],[143.23,44.85],[142.95,44.74]]],[[[141.57,52.71],[141.25,52.59],[141.27,52.37],[141.62,52.27],[141.95,52.39],[141.93,52.61],[141.57,52.71]]],[[[129.95,41.92],[129.74,41.8],[129.76,41.58],[129.56,41.45],[129.58,41.23],[129.8,41.14],[129.82,40.92],[130.04,40.82],[130.25,40.94],[130.23,41.16],[130.01,41.26],[129.99,41.48],[130.2,41.6],[130.18,41.82],[130.39,41.95],[130.37,42.17],[130.15,42.26],[129.93,42.14],[129.95,41.92]]],[[[155.81,55.6],[155.48,55.74],[155.07,55.66],[155.0,55.43],[155.33,55.29],[155.26,55.06],[155.58,54.92],[155.98,55.0],[156.05,55.23],[155.73,55.37],[155.81,55.6]]],[[[143.64,52.31],[143.98,52.43],[143.97,52.65],[143.62,52.76],[143.29,52.64],[143.3,52.42],[142.97,52.3],[142.98,52.08],[143.33,51.98],[143.65,52.1],[143.64,52.31]]],[[[180.0,63.14],[179.8,63.31],[179.26,63.31],[178.97,63.11],[179.21,62.9],[178.92,62.69],[178.39,62.69],[178.11,62.49],[178.35,62.28],[178.88,62.28],[179.12,62.07],[179.64,62.07],[179.92,62.27],[179.69,62.48],[179.98,62.68],[179.75,62.89],[180.0,63.14]]],[[[143.19,42.35],[143.44,42.21],[143.72,42.32],[143.75,42.56],[143.5,42.69],[143.22,42.58],[143.19,42.35]]],[[[141.85,49.67],[142.15,49.79],[142.18,50.02],[142.48,50.13],[142.46,50.34],[142.14,50.44],[142.12,50.65],[142.43,50.77],[142.41,50.98],[142.08,51.08],[141.76,50.97],[141.79,50.75],[141.48,50.64],[141.5,50.42],[141.83,50.33],[141.85,50.11],[141.55,50.0],[141.57,49.79],[141.85,49.67]]],[[[155.6,59.65],[155.14,59.57],[155.06,59.33],[154.61,59.24],[154.53,59.01],[154.9,58.86],[155.35,58.95],[155.43,59.18],[155.89,59.27],[155.97,59.5],[155.6,59.65]]],[[[142.92,42.24],[142.67,42.37],[142.4,42.26],[142.38,42.03],[142.62,41.89],[142.89,42.0],[142.92,42.24]]],[[[142.4,39.75],[142.16,39.88],[141.9,39.78],[141.88,39.54],[142.11,39.41],[142.37,39.51],[142.4,39.75]]],[[[141.65,52.05],[141.33,51.93],[141.35,51.71],[141.69,51.61],[142.01,51.73],[141.99,51.95],[141.65,52.05]]],[[[142.23,48.05],[142.26,48.28],[141.99,48.4],[142.01,48.63],[141.74,48.75],[141.45,48.64],[141.42,48.41],[141.69,48.29],[141.67,48.06],[141.94,47.94],[142.23,48.05]]],[[[140.56,50.28],[140.59,50.07],[140.29,49.95],[140.32,49.74],[140.65,49.65],[140.95,49.76],[140.92,49.98],[141.22,50.09],[141.19,50.3],[140.86,50.4],[140.56,50.28]]],[[[140.5,50.71],[140.84,50.61],[141.14,50.73],[141.12,50.95],[140.78,51.04],[140.47,50.92],[140.5,50.71]]],[[[128.03,39.82],[128.24,39.73],[128.44,39.85],[128.42,40.07],[128.2,40.16],[128.0,40.04],[128.03,39.82]]],[[[141.86,47.24],[142.15,47.35],[142.18,47.59],[141.91,47.71],[141.62,47.59],[141.6,47.36],[141.86,47.24]]],[[[141.93,42.76],[141.66,42.65],[141.64,42.41],[141.89,42.29],[142.16,42.39],[142.18,42.63],[141.93,42.76]]],[[[143.36,51.33],[143.38,51.11],[143.71,51.01],[144.03,51.12],[144.02,51.34],[143.69,51.44],[143.36,51.33]]],[[[139.17,47.93],[139.15,47.7],[139.42,47.59],[139.7,47.71],[139.71,47.94],[139.45,48.05],[139.17,47.93]]],[[[-122.59,45.34],[-122.35,45.5],[-122.43,45.71],[-122.75,45.76],[-122.98,45.59],[-122.9,45.38],[-122.59,45.34]]],[[[141.47,40.52],[141.73,40.62],[141.75,40.86],[141.51,40.99],[141.25,40.88],[141.23,40.65],[141.47,40.52]]],[[[179.36,64.15],[179.11,64.36],[178.54,64.36],[178.24,64.15],[178.5,63.94],[179.06,63.94],[179.36,64.15]]],[[[140.63,48.98],[140.93,49.1],[140.95,49.32],[140.68,49.44],[140.38,49.32],[140.36,49.09],[140.63,48.98]]],[[[156.04,56.28],[155.7,56.42],[155.29,56.34],[155.21,56.11],[155.55,55.97],[155.96,56.05],[156.04,56.28]]],[[[138.66,38.62],[138.42,38.51],[138.41,38.28],[138.64,38.15],[138.88,38.26],[138.89,38.5],[138.66,38.62]]],[[[-169.78,65.98],[-170.36,66.02],[-170.77,65.84],[-170.6,65.61],[-170.03,65.57],[-169.62,65.75],[-169.78,65.98]]]]}}]}