{"type":"FeatureCollection","features":[{"type":"Feature","properties":{},"geometry":{"type":"MultiPolygon","coordinates":[[[[112.02,36.52],[111.98,36.32],[112.2,36.18],[112.16,35.98],[111.92,35.93],[111.88,35.73],[111.64,35.67],[111.61,35.48],[111.82,35.33],[112.06,35.39],[112.1,35.59],[112.34,35.64],[112.37,35.84],[112.62,35.89],[112.65,36.09],[112.9,36.14],[112.93,36.34],[112.72,36.48],[112.75,36.67],[113.0,36.72],[113.21,36.58],[113.45,36.63],[113.48,36.82],[113.73,36.87],[113.76,37.07],[114.0,37.11],[114.04,37.3],[113.83,37.45],[113.86,37.63],[113.65,37.78],[113.41,37.73],[113.27,37.88],[113.02,37.84],[112.92,37.63],[112.67,37.58],[112.64,37.39],[112.39,37.34],[112.36,37.15],[112.12,37.1],[111.9,37.24],[111.93,37.43],[112.18,37.48],[112.28,37.69],[112.53,37.74],[112.63,37.94],[112.48,38.1],[112.23,38.05],[112.09,38.2],[111.84,38.15],[111.74,37.95],[111.49,37.89],[111.33,38.05],[111.43,38.26],[111.28,38.41],[111.03,38.36],[110.93,38.15],[110.67,38.1],[110.52,38.25],[110.62,38.46],[110.46,38.62],[110.2,38.57],[110.04,38.72],[109.78,38.67],[109.62,38.83],[109.36,38.77],[109.27,38.56],[109.01,38.5],[108.84,38.65],[108.58,38.6],[108.41,38.75],[108.15,38.69],[107.98,38.85],[107.71,38.79],[107.54,38.94],[107.28,38.88],[107.1,39.04],[106.83,38.98],[106.65,39.13],[106.39,39.07],[106.3,38.85],[106.03,38.78],[105.95,38.56],[105.68,38.5],[105.5,38.65],[105.58,38.87],[105.4,39.03],[105.13,38.96],[104.94,39.12],[104.67,39.05],[104.59,38.83],[104.32,38.76],[104.13,38.91],[103.86,38.84],[103.66,38.99],[103.39,38.92],[103.19,39.07],[102.92,39.0],[102.72,39.16],[102.45,39.08],[102.37,38.85],[102.1,38.78],[102.03,38.55],[101.75,38.47],[101.68,38.25],[101.88,38.09],[101.81,37.87],[102.01,37.72],[102.28,37.79],[102.47,37.64],[102.4,37.42],[102.59,37.27],[102.86,37.34],[103.05,37.19],[102.98,36.97],[102.71,36.9],[102.52,37.04],[102.25,36.97],[102.06,37.12],[101.79,37.04],[101.6,37.19],[101.33,37.11],[101.26,36.88],[101.46,36.73],[101.39,36.51],[101.58,36.36],[101.52,36.13],[101.25,36.05],[101.06,36.2],[101.12,36.43],[100.93,36.57],[100.66,36.49],[100.6,36.26],[100.33,36.18],[100.13,36.33],[99.86,36.24],[99.8,36.01],[100.0,35.87],[99.94,35.64],[100.14,35.5],[100.08,35.27],[100.27,35.13],[100.53,35.21],[100.73,35.07],[100.99,35.15],[101.05,35.38],[100.86,35.52],[100.92,35.75],[101.19,35.83],[101.38,35.68],[101.64,35.76],[101.83,35.62],[101.76,35.4],[101.95,35.25],[102.21,35.33],[102.4,35.19],[102.33,34.96],[102.07,34.89],[102.05,34.68],[102.28,34.55],[102.25,34.33],[102.48,34.2],[102.45,33.99],[102.2,33.91],[101.97,34.04],[101.71,33.96],[101.69,33.75],[101.92,33.62],[101.89,33.4],[102.12,33.27],[102.09,33.06],[101.84,32.97],[101.61,33.11],[101.36,33.02],[101.33,32.81],[101.56,32.67],[101.53,32.46],[101.28,32.37],[101.25,32.15],[101.48,32.02],[101.46,31.8],[101.69,31.67],[101.66,31.45],[101.89,31.31],[101.86,31.09],[101.61,31.0],[101.58,30.78],[101.33,30.7],[101.1,30.83],[100.85,30.74],[100.83,30.52],[100.57,30.43],[100.55,30.21],[100.78,30.07],[100.75,29.85],[100.98,29.71],[100.95,29.48],[100.7,29.39],[100.68,29.16],[100.43,29.07],[100.4,28.85],[100.15,28.75],[99.93,28.89],[99.95,29.12],[99.72,29.25],[99.75,29.48],[99.52,29.62],[99.26,29.52],[99.04,29.66],[99.06,29.88],[99.31,29.98],[99.34,30.2],[99.11,30.33],[98.85,30.24],[98.83,30.02],[98.58,29.92],[98.35,30.05],[98.1,29.96],[98.07,29.73],[98.3,29.6],[98.28,29.37],[98.51,29.24],[98.49,29.01],[98.24,28.92],[98.21,28.69],[97.96,28.59],[97.94,28.36],[97.69,28.26],[97.46,28.39],[97.48,28.62],[97.25,28.76],[97.0,28.66],[96.77,28.79],[96.79,29.02],[96.56,29.15],[96.31,29.05],[96.08,29.18],[96.1,29.41],[95.87,29.54],[95.89,29.77],[95.66,29.89],[95.68,30.12],[95.45,30.25],[95.2,30.15],[94.97,30.27],[94.72,30.17],[94.7,29.95],[94.93,29.82],[94.91,29.59],[94.66,29.49],[94.43,29.62],[94.17,29.51],[94.16,29.28],[93.91,29.18],[93.89,28.95],[94.12,28.83],[94.1,28.59],[94.33,28.47],[94.58,28.57],[94.6,28.8],[94.85,28.9],[95.08,28.78],[95.06,28.55],[95.29,28.42],[95.54,28.52],[95.56,28.75],[95.81,28.85],[96.04,28.72],[96.02,28.49],[96.25,28.36],[96.23,28.13],[96.46,28.0],[96.44,27.76],[96.67,27.63],[96.92,27.73],[97.14,27.6],[97.39,27.7],[97.42,27.93],[97.67,28.03],[97.9,27.9],[97.87,27.66],[98.1,27.53],[98.08,27.29],[98.31,27.16],[98.28,26.92],[98.51,26.79],[98.49,26.55],[98.71,26.42],[98.69,26.18],[98.92,26.04],[99.17,26.14],[99.39,26.0],[99.64,26.1],[99.87,25.96],[100.12,26.06],[100.14,26.29],[100.39,26.39],[100.61,26.25],[100.59,26.01],[100.81,25.87],[101.06,25.96],[101.28,25.82],[101.53,25.92],[101.56,26.15],[101.33,26.29],[101.09,26.2],[100.86,26.34],[100.89,26.58],[101.13,26.67],[101.16,26.9],[101.41,27.0],[101.63,26.86],[101.88,26.95],[102.1,26.81],[102.08,26.57],[102.3,26.43],[102.28,26.2],[102.5,26.05],[102.47,25.82],[102.7,25.67],[102.67,25.44],[102.89,25.29],[103.14,25.39],[103.16,25.62],[103.41,25.71],[103.63,25.57],[103.88,25.66],[104.1,25.51],[104.34,25.6],[104.37,25.84],[104.62,25.92],[104.64,26.16],[104.89,26.25],[104.92,26.48],[105.16,26.56],[105.38,26.42],[105.63,26.5],[105.66,26.74],[105.9,26.82],[105.93,27.05],[106.18,27.13],[106.2,27.36],[105.99,27.51],[105.74,27.43],[105.52,27.57],[105.55,27.8],[105.33,27.94],[105.08,27.86],[104.86,28.0],[104.61,27.92],[104.39,28.06],[104.15,27.98],[103.92,28.12],[103.95,28.35],[103.73,28.49],[103.75,28.72],[103.53,28.86],[103.56,29.09],[103.34,29.23],[103.36,29.45],[103.14,29.59],[103.16,29.82],[102.94,29.96],[102.97,30.18],[103.22,30.27],[103.24,30.49],[103.5,30.57],[103.52,30.79],[103.77,30.88],[103.8,31.1],[104.05,31.18],[104.08,31.4],[104.33,31.48],[104.36,31.7],[104.61,31.78],[104.64,31.99],[104.89,32.07],[105.11,31.93],[105.36,32.01],[105.39,32.22],[105.17,32.36],[105.2,32.58],[105.45,32.65],[105.48,32.87],[105.73,32.94],[105.95,32.8],[105.92,32.59],[106.14,32.45],[106.39,32.52],[106.62,32.38],[106.87,32.46],[107.09,32.32],[107.33,32.39],[107.55,32.25],[107.8,32.32],[108.02,32.17],[107.99,31.96],[108.21,31.82],[108.18,31.6],[108.4,31.46],[108.64,31.53],[108.86,31.38],[109.1,31.45],[109.32,31.31],[109.56,31.38],[109.78,31.23],[110.02,31.3],[110.24,31.15],[110.48,31.22],[110.51,31.43],[110.75,31.5],[110.78,31.71],[110.57,31.86],[110.33,31.79],[110.12,31.94],[109.87,31.87],[109.66,32.02],[109.69,32.23],[109.47,32.38],[109.23,32.31],[109.01,32.45],[108.76,32.38],[108.55,32.53],[108.3,32.46],[108.08,32.6],[108.11,32.81],[107.89,32.95],[107.64,32.88],[107.42,33.03],[107.17,32.95],[106.95,33.1],[106.98,33.31],[107.23,33.38],[107.45,33.24],[107.7,33.31],[107.92,33.16],[108.17,33.23],[108.39,33.09],[108.64,33.16],[108.86,33.02],[109.1,33.08],[109.32,32.94],[109.57,33.01],[109.6,33.22],[109.38,33.36],[109.41,33.57],[109.66,33.63],[109.87,33.49],[110.12,33.55],[110.15,33.76],[110.4,33.82],[110.61,33.68],[110.86,33.74],[110.89,33.94],[110.68,34.09],[110.71,34.29],[110.49,34.44],[110.25,34.37],[110.03,34.52],[109.78,34.46],[109.75,34.25],[109.51,34.19],[109.47,33.98],[109.23,33.92],[109.01,34.06],[108.76,33.99],[108.54,34.13],[108.29,34.07],[108.07,34.21],[107.82,34.14],[107.6,34.28],[107.35,34.21],[107.13,34.35],[107.16,34.56],[107.41,34.63],[107.63,34.49],[107.88,34.55],[107.91,34.76],[108.16,34.83],[108.38,34.69],[108.63,34.75],[108.66,34.96],[108.91,35.02],[109.13,34.88],[109.38,34.94],[109.41,35.14],[109.66,35.21],[109.69,35.41],[109.94,35.47],[110.16,35.33],[110.41,35.39],[110.44,35.59],[110.22,35.73],[110.25,35.93],[110.5,35.99],[110.72,35.85],[110.96,35.9],[111.0,36.1],[111.24,36.16],[111.28,36.35],[111.52,36.41],[111.56,36.6],[111.8,36.66],[112.02,36.52]],[[103.0,32.52],[102.98,32.3],[102.72,32.22],[102.7,32.0],[102.93,31.87],[102.9,31.65],[102.65,31.56],[102.62,31.34],[102.37,31.26],[102.14,31.4],[102.17,31.62],[102.42,31.7],[102.45,31.92],[102.22,32.06],[102.24,32.27],[102.5,32.36],[102.52,32.57],[102.78,32.65],[102.8,32.87],[103.06,32.95],[103.28,32.82],[103.26,32.6],[103.0,32.52]],[[103.54,32.89],[103.57,33.11],[103.82,33.19],[104.04,33.05],[104.02,32.84],[103.76,32.76],[103.54,32.89]],[[102.19,29.7],[101.94,29.61],[101.91,29.39],[101.66,29.3],[101.63,29.07],[101.38,28.98],[101.16,29.12],[101.18,29.35],[101.43,29.43],[101.46,29.66],[101.71,29.75],[101.73,29.97],[101.51,30.11],[101.53,30.34],[101.79,30.42],[102.01,30.29],[101.99,30.06],[102.21,29.92],[102.19,29.7]],[[110.41,36.91],[110.63,36.77],[110.6,36.58],[110.35,36.52],[110.13,36.66],[110.16,36.86],[110.41,36.91]]],[[[115.79,23.04],[115.57,22.97],[115.38,23.12],[115.15,23.05],[115.12,22.82],[114.89,22.75],[114.69,22.9],[114.47,22.83],[114.43,22.6],[114.2,22.53],[114.01,22.68],[113.78,22.6],[113.58,22.76],[113.35,22.68],[113.15,22.84],[112.92,22.76],[112.89,22.53],[113.09,22.37],[113.32,22.45],[113.52,22.3],[113.48,22.06],[113.68,21.91],[113.91,21.99],[114.11,21.83],[114.34,21.91],[114.37,22.14],[114.6,22.21],[114.63,22.45],[114.86,22.52],[115.05,22.36],[115.28,22.44],[115.31,22.67],[115.54,22.74],[115.73,22.59],[115.95,22.66],[115.99,22.89],[115.79,23.04]]],[[[91.46,38.62],[91.18,38.51],[91.14,38.27],[91.39,38.13],[91.67,38.24],[91.91,38.1],[91.88,37.86],[92.12,37.72],[92.08,37.48],[92.32,37.34],[92.28,37.1],[92.52,36.96],[92.79,37.07],[93.03,36.93],[92.99,36.69],[93.22,36.55],[93.49,36.65],[93.72,36.51],[93.68,36.28],[93.91,36.14],[94.18,36.24],[94.4,36.1],[94.67,36.2],[94.9,36.06],[95.17,36.16],[95.21,36.39],[95.48,36.49],[95.71,36.35],[95.98,36.44],[96.2,36.3],[96.46,36.39],[96.68,36.25],[96.95,36.35],[97.16,36.2],[97.11,35.97],[97.32,35.83],[97.59,35.92],[97.8,35.78],[98.07,35.87],[98.12,36.1],[97.91,36.24],[97.97,36.47],[98.24,36.56],[98.3,36.79],[98.09,36.94],[97.82,36.85],[97.6,36.99],[97.66,37.23],[97.44,37.37],[97.17,37.28],[96.95,37.42],[96.68,37.33],[96.62,37.1],[96.35,37.01],[96.13,37.15],[95.86,37.05],[95.63,37.2],[95.68,37.43],[95.46,37.57],[95.18,37.48],[94.95,37.62],[95.0,37.86],[94.77,38.0],[94.49,37.9],[94.26,38.05],[94.31,38.28],[94.07,38.43],[93.79,38.33],[93.56,38.47],[93.6,38.71],[93.36,38.85],[93.08,38.75],[92.84,38.89],[92.55,38.79],[92.51,38.55],[92.23,38.45],[91.99,38.58],[91.71,38.48],[91.46,38.62]]],[[[119.95,36.17],[119.91,35.99],[120.1,35.84],[120.33,35.88],[120.36,36.06],[120.18,36.21],[119.95,36.17]]],[[[119.39,35.54],[119.58,35.39],[119.8,35.43],[119.84,35.61],[119.65,35.76],[119.42,35.73],[119.39,35.54]]],[[[117.68,24.27],[117.65,24.04],[117.43,23.98],[117.39,23.75],[117.58,23.6],[117.8,23.67],[117.84,23.89],[118.06,23.95],[118.09,24.18],[118.31,24.24],[118.35,24.46],[118.16,24.62],[117.94,24.55],[117.91,24.33],[117.68,24.27]]],[[[121.32,24.78],[121.55,24.88],[121.74,24.76],[121.97,24.87],[122.01,25.08],[121.82,25.2],[121.59,25.1],[121.4,25.22],[121.17,25.12],[121.13,24.9],[121.32,24.78]]],[[[100.53,36.87],[100.33,37.01],[100.06,36.93],[99.99,36.7],[100.19,36.55],[100.46,36.64],[100.53,36.87]]],[[[-118.67,34.33],[-118.89,34.16],[-118.83,33.92],[-118.55,33.85],[-118.49,33.61],[-118.2,33.53],[-117.98,33.7],[-118.04,33.95],[-118.32,34.02],[-118.39,34.26],[-118.67,34.33]]],[[[-77.52,38.57],[-77.22,38.63],[-77.14,38.84],[-76.85,38.9],[-76.77,39.12],[-76.99,39.27],[-77.29,39.22],[-77.36,39.0],[-77.66,38.94],[-77.74,38.72],[-77.52,38.57]]],[[[86.82,37.94],[87.1,38.06],[87.12,38.31],[86.85,38.44],[86.57,38.32],[86.56,38.07],[86.82,37.94]]],[[[84.9,37.35],[85.16,37.22],[85.44,37.34],[85.45,37.59],[85.18,37.72],[84.91,37.59],[84.9,37.35]]],[[[110.11,30.29],[109.87,30.22],[109.84,30.0],[110.05,29.85],[110.29,29.93],[110.32,30.14],[110.11,30.29]]],[[[108.37,29.57],[108.4,29.79],[108.65,29.86],[108.68,30.08],[108.92,30.15],[109.14,30.01],[109.38,30.08],[109.41,30.3],[109.65,30.37],[109.69,30.58],[109.47,30.73],[109.23,30.66],[109.2,30.44],[108.95,30.37],[108.74,30.52],[108.49,30.45],[108.46,30.23],[108.22,30.15],[108.19,29.93],[107.94,29.86],[107.91,29.64],[108.13,29.49],[108.37,29.57]]],[[[88.27,39.02],[88.24,38.77],[88.5,38.64],[88.78,38.75],[88.81,39.0],[88.55,39.13],[88.27,39.02]]],[[[113.8,35.96],[113.83,36.15],[113.63,36.3],[113.38,36.24],[113.35,36.05],[113.11,36.0],[113.07,35.8],[113.28,35.66],[113.52,35.71],[113.56,35.91],[113.8,35.96]]],[[[110.2,30.94],[109.96,30.87],[109.93,30.65],[110.14,30.51],[110.38,30.58],[110.42,30.79],[110.2,30.94]]],[[[89.35,38.98],[89.64,39.09],[89.89,38.95],[90.18,39.06],[90.21,39.31],[89.95,39.44],[89.66,39.33],[89.41,39.47],[89.12,39.36],[89.09,39.11],[89.35,38.98]]],[[[107.85,29.19],[107.63,29.34],[107.39,29.26],[107.36,29.04],[107.58,28.89],[107.82,28.97],[107.85,29.19]]],[[[116.66,23.1],[116.88,23.17],[116.92,23.39],[116.73,23.55],[116.5,23.48],[116.47,23.25],[116.24,23.18],[116.21,22.96],[116.4,22.8],[116.63,22.87],[116.66,23.1]]],[[[93.62,28.62],[93.37,28.51],[93.35,28.28],[93.58,28.15],[93.83,28.26],[93.85,28.49],[93.62,28.62]]],[[[91.82,39.21],[92.1,39.31],[92.35,39.17],[92.63,39.28],[92.67,39.52],[92.43,39.66],[92.14,39.56],[91.89,39.7],[91.6,39.59],[91.57,39.35],[91.82,39.21]]],[[[120.79,32.64],[121.01,32.68],[121.04,32.88],[120.86,33.03],[120.64,32.99],[120.6,32.79],[120.79,32.64]]],[[[85.73,37.71],[85.99,37.59],[86.26,37.71],[86.28,37.95],[86.02,38.08],[85.74,37.96],[85.73,37.71]]],[[[99.4,36.3],[99.66,36.39],[99.73,36.62],[99.52,36.76],[99.25,36.68],[99.19,36.45],[99.4,36.3]]],[[[111.35,33.86],[111.59,33.92],[111.62,34.12],[111.41,34.27],[111.17,34.21],[111.14,34.01],[111.35,33.86]]],[[[113.25,21.99],[113.06,22.14],[112.83,22.06],[112.79,21.83],[112.99,21.67],[113.22,21.75],[113.25,21.99]]],[[[87.66,38.3],[87.94,38.41],[87.96,38.66],[87.7,38.79],[87.42,38.67],[87.4,38.43],[87.66,38.3]]]]}}]}