{"type":"FeatureCollection","features":[{"type":"Feature","properties":{},"geometry":{"type":"MultiPolygon","coordinates":[[[[25.21,1.65],[25.36,1.46],[25.27,1.24],[25.42,1.05],[25.66,1.08],[25.81,0.89],[26.06,0.93],[26.21,0.73],[26.12,0.51],[26.27,0.32],[26.17,0.09],[26.32,-0.1],[26.57,-0.07],[26.72,-0.26],[26.63,-0.49],[26.78,-0.68],[26.68,-0.91],[26.83,-1.1],[27.08,-1.07],[27.24,-1.26],[27.14,-1.49],[27.3,-1.69],[27.55,-1.65],[27.7,-1.85],[27.95,-1.81],[28.05,-1.58],[28.3,-1.55],[28.39,-1.32],[28.64,-1.29],[28.74,-1.06],[28.58,-0.86],[28.68,-0.64],[28.93,-0.6],[29.08,-0.8],[29.33,-0.76],[29.49,-0.96],[29.74,-0.92],[29.89,-1.12],[30.14,-1.08],[30.3,-1.28],[30.55,-1.24],[30.7,-1.44],[30.61,-1.67],[30.77,-1.86],[31.02,-1.83],[31.17,-2.02],[31.42,-1.99],[31.58,-2.18],[31.49,-2.41],[31.64,-2.61],[31.89,-2.58],[32.05,-2.77],[32.3,-2.74],[32.46,-2.93],[32.71,-2.9],[32.87,-3.09],[32.78,-3.32],[32.94,-3.52],[33.19,-3.49],[33.35,-3.68],[33.6,-3.65],[33.76,-3.84],[34.01,-3.81],[34.17,-4.0],[34.42,-3.97],[34.58,-4.16],[34.83,-4.13],[34.91,-3.89],[35.16,-3.86],[35.25,-3.63],[35.09,-3.43],[34.84,-3.47],[34.68,-3.27],[34.77,-3.04],[35.02,-3.0],[35.11,-2.77],[34.95,-2.58],[35.04,-2.35],[35.29,-2.31],[35.38,-2.09],[35.22,-1.89],[35.31,-1.66],[35.55,-1.63],[35.64,-1.4],[35.48,-1.21],[35.57,-0.98],[35.41,-0.79],[35.17,-0.82],[35.01,-0.63],[35.1,-0.4],[35.34,-0.37],[35.43,-0.14],[35.27,0.05],[35.36,0.27],[35.2,0.46],[35.29,0.69],[35.13,0.88],[35.22,1.1],[35.06,1.29],[35.15,1.51],[35.39,1.55],[35.55,1.36],[35.46,1.13],[35.62,0.94],[35.53,0.72],[35.69,0.53],[35.6,0.31],[35.76,0.11],[35.67,-0.11],[35.83,-0.3],[36.07,-0.27],[36.16,-0.04],[36.4,-0.01],[36.49,0.21],[36.33,0.41],[36.42,0.63],[36.66,0.66],[36.82,0.47],[36.73,0.25],[36.89,0.06],[37.13,0.09],[37.22,0.31],[37.46,0.35],[37.62,0.16],[37.53,-0.07],[37.69,-0.26],[37.61,-0.48],[37.36,-0.52],[37.21,-0.32],[36.96,-0.36],[36.88,-0.58],[37.04,-0.78],[36.95,-1.0],[36.71,-1.04],[36.62,-1.26],[36.38,-1.3],[36.22,-1.1],[35.97,-1.14],[35.89,-1.37],[36.04,-1.56],[35.96,-1.79],[35.71,-1.82],[35.62,-2.05],[35.78,-2.24],[35.69,-2.47],[35.45,-2.51],[35.36,-2.74],[35.52,-2.93],[35.77,-2.9],[35.92,-3.09],[35.84,-3.32],[36.0,-3.52],[36.24,-3.48],[36.33,-3.25],[36.17,-3.06],[36.26,-2.83],[36.51,-2.79],[36.59,-2.56],[36.43,-2.37],[36.52,-2.14],[36.77,-2.1],[36.85,-1.88],[36.69,-1.68],[36.78,-1.46],[37.02,-1.42],[37.11,-1.19],[37.35,-1.16],[37.51,-1.35],[37.75,-1.32],[37.84,-1.09],[38.08,-1.06],[38.16,-0.83],[38.01,-0.64],[38.09,-0.41],[37.93,-0.22],[38.02,-0.0],[38.26,0.03],[38.34,0.26],[38.18,0.45],[38.27,0.67],[38.11,0.86],[38.19,1.08],[38.04,1.27],[38.12,1.49],[37.96,1.68],[37.72,1.65],[37.57,1.83],[37.65,2.05],[37.89,2.08],[37.97,2.3],[38.21,2.33],[38.3,2.55],[38.14,2.74],[37.9,2.71],[37.82,2.49],[37.58,2.46],[37.42,2.65],[37.51,2.86],[37.75,2.9],[37.83,3.11],[38.07,3.14],[38.15,3.36],[38.39,3.39],[38.47,3.6],[38.31,3.79],[38.4,4.0],[38.24,4.19],[38.0,4.16],[37.85,4.34],[37.93,4.56],[37.78,4.74],[37.86,4.95],[37.7,5.14],[37.79,5.35],[37.63,5.53],[37.4,5.5],[37.24,5.68],[37.33,5.89],[37.17,6.08],[36.94,6.05],[36.85,5.84],[36.62,5.81],[36.46,5.99],[36.55,6.2],[36.78,6.23],[36.87,6.44],[37.1,6.47],[37.18,6.67],[37.03,6.85],[36.79,6.83],[36.64,7.01],[36.41,6.98],[36.25,7.16],[36.02,7.13],[35.86,7.31],[35.63,7.28],[35.47,7.46],[35.24,7.44],[35.08,7.61],[35.17,7.82],[35.02,8.0],[35.1,8.2],[35.34,8.23],[35.42,8.43],[35.27,8.61],[35.38,8.82],[35.25,9.0],[35.01,8.97],[34.91,8.76],[34.67,8.74],[34.54,8.92],[34.65,9.12],[34.88,9.15],[34.99,9.36],[34.86,9.54],[34.97,9.75],[35.21,9.78],[35.34,9.59],[35.58,9.62],[35.7,9.44],[35.94,9.46],[36.07,9.28],[36.3,9.31],[36.41,9.51],[36.29,9.7],[36.05,9.67],[35.92,9.85],[36.03,10.06],[35.9,10.24],[35.66,10.22],[35.54,10.4],[35.65,10.61],[35.51,10.8],[35.63,11.01],[35.87,11.03],[35.98,11.24],[35.85,11.43],[35.61,11.4],[35.47,11.59],[35.23,11.57],[35.1,11.75],[34.86,11.73],[34.72,11.91],[34.83,12.13],[34.7,12.32],[34.45,12.29],[34.32,12.48],[34.43,12.7],[34.29,12.89],[34.05,12.86],[33.91,13.05],[33.66,13.02],[33.52,13.21],[33.63,13.43],[33.5,13.62],[33.61,13.84],[33.47,14.03],[33.22,14.01],[33.08,14.2],[33.19,14.42],[33.05,14.61],[32.79,14.59],[32.65,14.78],[32.76,15.0],[32.62,15.2],[32.37,15.17],[32.22,15.37],[32.33,15.59],[32.19,15.78],[32.3,16.01],[32.15,16.2],[31.9,16.18],[31.75,16.37],[31.86,16.6],[31.72,16.8],[31.83,17.02],[31.68,17.22],[31.42,17.19],[31.27,17.39],[31.38,17.62],[31.23,17.82],[31.34,18.04],[31.19,18.24],[30.93,18.22],[30.78,18.42],[30.52,18.39],[30.36,18.59],[30.48,18.82],[30.32,19.02],[30.06,18.99],[29.9,19.19],[29.64,19.16],[29.48,19.36],[29.59,19.59],[29.44,19.79],[29.17,19.77],[29.01,19.97],[28.74,19.94],[28.58,20.14],[28.32,20.11],[28.16,20.31],[27.89,20.28],[27.78,20.05],[27.51,20.02],[27.4,19.78],[27.14,19.75],[27.03,19.52],[27.19,19.32],[27.09,19.09],[26.82,19.05],[26.66,19.25],[26.76,19.49],[26.6,19.69],[26.33,19.65],[26.17,19.85],[25.9,19.82],[25.8,19.58],[25.53,19.55],[25.43,19.32],[25.16,19.28],[24.99,19.48],[24.73,19.44],[24.62,19.21],[24.79,19.01],[24.69,18.78],[24.42,18.74],[24.32,18.51],[24.49,18.31],[24.39,18.08],[24.12,18.05],[24.03,17.81],[24.19,17.62],[24.09,17.39],[23.83,17.35],[23.73,17.12],[23.47,17.08],[23.37,16.85],[23.54,16.66],[23.44,16.43],[23.18,16.39],[23.09,16.16],[22.83,16.12],[22.66,16.31],[22.4,16.28],[22.24,16.47],[22.33,16.7],[22.16,16.89],[21.9,16.85],[21.74,17.04],[21.83,17.28],[21.66,17.47],[21.4,17.43],[21.23,17.62],[21.32,17.86],[21.58,17.9],[21.75,17.7],[22.02,17.74],[22.18,17.55],[22.45,17.59],[22.54,17.82],[22.81,17.86],[22.97,17.66],[23.24,17.7],[23.33,17.93],[23.6,17.97],[23.69,18.2],[23.53,18.4],[23.26,18.36],[23.1,18.56],[22.83,18.52],[22.66,18.71],[22.4,18.68],[22.23,18.87],[21.96,18.83],[21.79,19.03],[21.53,18.99],[21.35,19.18],[21.09,19.14],[20.92,19.33],[20.65,19.29],[20.56,19.06],[20.29,19.01],[20.12,19.21],[19.86,19.17],[19.77,18.93],[19.5,18.89],[19.33,19.08],[19.06,19.04],[18.97,18.8],[18.71,18.76],[18.54,18.95],[18.27,18.9],[18.19,18.67],[17.93,18.62],[17.75,18.81],[17.49,18.77],[17.4,18.53],[17.14,18.48],[16.97,18.67],[16.71,18.63],[16.53,18.82],[16.27,18.77],[16.19,18.53],[15.93,18.49],[15.75,18.67],[15.49,18.63],[15.41,18.39],[15.15,18.34],[14.98,18.53],[14.72,18.48],[14.54,18.66],[14.28,18.62],[14.2,18.38],[13.95,18.33],[13.77,18.51],[13.51,18.46],[13.44,18.23],[13.19,18.18],[13.01,18.36],[12.75,18.31],[12.57,18.49],[12.32,18.44],[12.25,18.21],[11.99,18.16],[11.81,18.34],[11.56,18.29],[11.38,18.47],[11.13,18.41],[11.06,18.18],[10.81,18.13],[10.63,18.31],[10.38,18.25],[10.32,18.02],[10.07,17.96],[10.0,17.73],[9.76,17.68],[9.69,17.45],[9.45,17.39],[9.38,17.16],[9.14,17.11],[8.96,17.28],[8.72,17.23],[8.65,17.0],[8.41,16.94],[8.23,17.12],[7.99,17.06],[7.81,17.24],[7.87,17.47],[7.69,17.65],[7.75,17.88],[7.57,18.05],[7.33,18.0],[7.15,18.17],[6.91,18.11],[6.72,18.29],[6.49,18.23],[6.43,18.0],[6.19,17.94],[6.01,18.11],[5.77,18.05],[5.59,18.23],[5.35,18.17],[5.17,18.34],[4.94,18.28],[4.88,18.05],[4.65,17.99],[4.47,18.16],[4.23,18.1],[4.05,18.27],[3.82,18.21],[3.77,17.98],[3.54,17.92],[3.36,18.09],[3.13,18.03],[3.08,17.8],[2.85,17.74],[2.67,17.9],[2.45,17.84],[2.4,17.62],[2.17,17.55],[1.99,17.72],[1.77,17.66],[1.59,17.82],[1.37,17.76],[1.19,17.93],[0.96,17.86],[0.78,18.03],[0.56,17.96],[0.52,17.74],[0.3,17.68],[0.12,17.84],[-0.1,17.77],[-0.28,17.94],[-0.49,17.87],[-0.53,17.65],[-0.75,17.59],[-0.93,17.75],[-1.14,17.68],[-1.32,17.84],[-1.53,17.78],[-1.57,17.55],[-1.78,17.49],[-1.96,17.65],[-2.17,17.59],[-2.35,17.74],[-2.56,17.68],[-2.59,17.46],[-2.8,17.39],[-2.98,17.55],[-3.18,17.48],[-3.36,17.6],[-3.58,17.5],[-3.76,17.61],[-3.97,17.51],[-4.0,17.28],[-4.22,17.18],[-4.4,17.29],[-4.62,17.19],[-4.8,17.3],[-5.02,17.19],[-5.2,17.31],[-5.42,17.2],[-5.61,17.31],[-5.82,17.21],[-5.85,16.98],[-6.06,16.87],[-6.25,16.99],[-6.47,16.88],[-6.49,16.66],[-6.71,16.55],[-6.9,16.66],[-7.11,16.55],[-7.31,16.66],[-7.28,16.88],[-7.48,17.0],[-7.69,16.88],[-7.89,17.0],[-8.11,16.88],[-8.3,17.0],[-8.52,16.88],[-8.72,17.0],[-8.93,16.88],[-9.13,16.99],[-9.35,16.88],[-9.55,16.99],[-9.77,16.88],[-9.78,16.65],[-10.0,16.54],[-10.2,16.65],[-10.42,16.53],[-10.62,16.64],[-10.84,16.53],[-11.04,16.64],[-11.03,16.86],[-11.23,16.97],[-11.45,16.86],[-11.46,16.63],[-11.68,16.51],[-11.69,16.29],[-11.91,16.17],[-12.12,16.28],[-12.11,16.5],[-12.31,16.61],[-12.3,16.84],[-12.51,16.95],[-12.73,16.83],[-12.94,16.94],[-13.16,16.82],[-13.16,16.59],[-13.38,16.47],[-13.59,16.58],[-13.59,16.81],[-13.8,16.92],[-14.02,16.8],[-14.23,16.91],[-14.45,16.79],[-14.45,16.56],[-14.67,16.44],[-14.88,16.54],[-15.1,16.42],[-15.31,16.53],[-15.53,16.41],[-15.75,16.51],[-15.96,16.39],[-15.97,16.16],[-16.18,16.04],[-16.4,16.14],[-16.61,16.02],[-16.61,15.79],[-16.4,15.68],[-16.4,15.46],[-16.61,15.33],[-16.61,15.11],[-16.83,14.98],[-16.82,14.76],[-17.04,14.63],[-17.04,14.41],[-16.82,14.31],[-16.82,14.08],[-16.61,13.98],[-16.61,13.76],[-16.4,13.66],[-16.4,13.43],[-16.19,13.33],[-16.19,13.11],[-15.98,13.01],[-15.77,13.13],[-15.56,13.03],[-15.57,12.81],[-15.36,12.71],[-15.15,12.83],[-14.95,12.73],[-14.95,12.51],[-14.75,12.41],[-14.54,12.53],[-14.33,12.43],[-14.13,12.55],[-13.92,12.45],[-13.71,12.57],[-13.51,12.46],[-13.52,12.25],[-13.32,12.15],[-13.11,12.26],[-12.91,12.16],[-12.71,12.28],[-12.51,12.18],[-12.3,12.3],[-12.1,12.19],[-11.9,12.31],[-11.7,12.21],[-11.49,12.32],[-11.3,12.22],[-11.09,12.34],[-10.89,12.24],[-10.69,12.35],[-10.49,12.25],[-10.51,12.03],[-10.32,11.93],[-10.11,12.05],[-9.92,11.95],[-9.71,12.06],[-9.52,11.96],[-9.54,11.75],[-9.35,11.65],[-9.15,11.76],[-8.96,11.66],[-8.75,11.77],[-8.57,11.67],[-8.36,11.78],[-8.18,11.68],[-7.97,11.79],[-7.79,11.69],[-7.81,11.48],[-7.63,11.38],[-7.42,11.49],[-7.24,11.39],[-7.04,11.5],[-6.86,11.4],[-6.65,11.5],[-6.47,11.4],[-6.5,11.2],[-6.32,11.1],[-6.12,11.21],[-5.94,11.11],[-5.74,11.21],[-5.56,11.11],[-5.36,11.22],[-5.19,11.12],[-4.99,11.23],[-4.81,11.13],[-4.84,10.92],[-4.67,10.83],[-4.47,10.93],[-4.3,10.83],[-4.1,10.94],[-3.93,10.78],[-3.74,10.83],[-3.58,10.68],[-3.38,10.73],[-3.22,10.58],[-3.03,10.63],[-2.86,10.48],[-2.67,10.53],[-2.5,10.37],[-2.31,10.42],[-2.14,10.27],[-1.94,10.32],[-1.91,10.52],[-1.71,10.57],[-1.55,10.42],[-1.35,10.46],[-1.18,10.31],[-0.98,10.36],[-0.82,10.2],[-0.61,10.25],[-0.45,10.09],[-0.25,10.14],[-0.08,9.98],[0.12,10.03],[0.29,9.87],[0.49,9.92],[0.66,9.76],[0.87,9.81],[1.03,9.65],[1.24,9.7],[1.4,9.54],[1.61,9.59],[1.78,9.43],[1.99,9.47],[2.03,9.68],[2.24,9.73],[2.4,9.57],[2.61,9.61],[2.78,9.45],[2.99,9.5],[3.16,9.34],[3.37,9.38],[3.54,9.22],[3.75,9.27],[3.92,9.1],[4.13,9.15],[4.3,8.99],[4.51,9.03],[4.56,9.24],[4.78,9.28],[4.94,9.12],[5.16,9.16],[5.33,9.0],[5.54,9.04],[5.71,8.88],[5.93,8.92],[6.1,8.76],[6.32,8.8],[6.48,8.64],[6.7,8.68],[6.87,8.52],[7.09,8.56],[7.25,8.39],[7.48,8.44],[7.64,8.27],[7.86,8.31],[7.92,8.52],[8.14,8.56],[8.31,8.4],[8.53,8.44],[8.7,8.27],[8.92,8.31],[9.09,8.15],[9.31,8.19],[9.48,8.02],[9.7,8.06],[9.87,7.89],[10.09,7.94],[10.26,7.77],[10.48,7.81],[10.65,7.64],[10.59,7.43],[10.75,7.26],[10.69,7.06],[10.85,6.89],[10.79,6.69],[10.57,6.65],[10.4,6.81],[10.18,6.77],[10.12,6.57],[9.9,6.53],[9.84,6.33],[10.0,6.16],[10.22,6.2],[10.28,6.4],[10.51,6.44],[10.67,6.28],[10.61,6.07],[10.77,5.91],[10.99,5.94],[11.06,6.15],[11.28,6.19],[11.34,6.39],[11.57,6.43],[11.73,6.26],[11.67,6.06],[11.83,5.89],[12.05,5.93],[12.22,5.76],[12.44,5.8],[12.51,6.01],[12.73,6.04],[12.89,5.88],[13.12,5.91],[13.28,5.75],[13.51,5.78],[13.67,5.62],[13.9,5.65],[14.03,5.48],[13.93,5.27],[14.06,5.1],[14.29,5.13],[14.42,4.96],[14.65,5.0],[14.75,5.21],[14.98,5.24],[15.08,5.45],[15.31,5.49],[15.44,5.32],[15.67,5.35],[15.8,5.18],[16.04,5.21],[16.17,5.04],[16.07,4.82],[16.2,4.65],[16.44,4.68],[16.54,4.9],[16.77,4.93],[16.91,4.75],[17.14,4.79],[17.28,4.61],[17.51,4.65],[17.65,4.47],[17.88,4.51],[17.98,4.72],[18.22,4.75],[18.32,4.97],[18.56,5.0],[18.69,4.82],[18.6,4.61],[18.73,4.43],[18.97,4.47],[19.11,4.29],[19.35,4.32],[19.49,4.14],[19.73,4.18],[19.83,4.39],[20.07,4.43],[20.21,4.25],[20.45,4.28],[20.59,4.1],[20.83,4.13],[20.97,3.95],[20.87,3.73],[21.02,3.55],[21.26,3.58],[21.4,3.4],[21.64,3.44],[21.79,3.25],[22.03,3.29],[22.17,3.1],[22.42,3.13],[22.56,2.95],[22.46,2.73],[22.61,2.54],[22.85,2.58],[23.0,2.39],[23.24,2.42],[23.34,2.65],[23.59,2.68],[23.73,2.49],[23.64,2.27],[23.78,2.08],[24.03,2.12],[24.18,1.93],[24.08,1.71],[24.23,1.52],[24.47,1.55],[24.62,1.36],[24.87,1.4],[24.97,1.62],[25.21,1.65]],[[29.55,0.34],[29.65,0.56],[29.89,0.6],[30.05,0.4],[29.95,0.18],[29.71,0.14],[29.55,0.34]],[[26.9,15.39],[26.79,15.16],[26.54,15.13],[26.38,15.32],[26.48,15.55],[26.74,15.58],[26.9,15.39]],[[23.97,13.09],[24.06,13.31],[24.32,13.34],[24.48,13.16],[24.38,12.93],[24.13,12.9],[23.97,13.09]],[[34.42,1.42],[34.66,1.45],[34.82,1.26],[34.73,1.04],[34.49,1.0],[34.33,1.19],[34.42,1.42]]],[[[145.28,-37.79],[144.97,-37.87],[144.92,-38.12],[145.16,-38.29],[145.46,-38.2],[145.52,-37.95],[145.28,-37.79]]]]}}]}