{"type":"FeatureCollection","features":[{"type":"Feature","properties":{},"geometry":{"type":"MultiPolygon","coordinates":[[[[12.49,-7.19],[12.35,-5.09],[9.38,-2.15],[10.18,-4.1],[12.01,-5.34],[12.49,-7.19]]],[[[148.26,36.38],[145.49,38.18],[141.98,37.98],[142.09,39.17],[140.62,36.04],[139.46,36.0],[139.65,35.4],[138.04,34.68],[136.73,35.44],[135.85,33.43],[135.21,34.48],[135.86,34.79],[134.36,34.96],[134.38,33.6],[132.71,33.01],[132.68,33.91],[131.1,34.13],[132.69,34.99],[132.67,35.66],[130.39,34.07],[129.53,35.38],[126.14,34.37],[126.7,35.96],[125.88,37.36],[125.81,34.95],[124.69,33.82],[121.2,32.59],[122.1,31.7],[121.0,30.3],[122.43,29.97],[119.47,26.23],[119.73,25.27],[116.21,22.96],[113.35,22.68],[112.96,21.44],[111.14,21.02],[114.34,20.35],[118.81,22.06],[124.59,21.18],[130.41,21.35],[149.3,25.84],[151.36,28.01],[152.02,31.14],[149.5,36.09],[148.26,36.38]],[[120.43,23.15],[120.12,23.83],[120.9,24.8],[122.01,25.08],[120.97,22.56],[120.43,23.15]],[[129.52,33.24],[130.81,33.85],[131.63,33.39],[131.5,31.68],[130.59,31.75],[130.43,33.18],[129.52,33.24]]],[[[31.29,41.06],[34.15,41.98],[38.09,40.72],[41.67,41.23],[41.68,42.86],[37.25,45.25],[38.38,46.21],[37.67,47.03],[34.82,46.07],[35.41,45.07],[34.4,45.07],[34.28,44.46],[33.15,45.66],[33.6,46.27],[30.57,46.81],[27.35,42.94],[28.14,41.09],[22.34,40.76],[21.96,39.42],[23.31,38.49],[22.87,38.22],[19.83,40.0],[20.08,41.76],[19.2,42.49],[15.29,43.98],[14.91,45.17],[13.9,44.98],[14.2,45.66],[13.39,45.93],[12.05,45.66],[11.82,44.36],[13.31,43.61],[14.39,41.9],[17.24,40.9],[16.29,40.08],[17.16,39.36],[16.64,38.83],[15.09,40.74],[10.73,43.07],[10.52,44.08],[8.62,44.48],[6.19,43.23],[3.87,43.85],[2.78,42.89],[3.06,41.91],[1.05,41.27],[-0.59,39.71],[-0.75,37.65],[-1.86,37.07],[-5.55,36.25],[-6.93,37.62],[-8.8,37.4],[-9.17,39.18],[-8.17,40.97],[-9.05,43.27],[-1.11,43.56],[-0.76,45.19],[-1.97,47.53],[-4.28,47.86],[-4.75,48.63],[-2.39,48.31],[-1.13,48.58],[-1.29,49.19],[0.18,49.07],[1.96,51.06],[3.81,51.15],[4.75,52.93],[8.91,53.7],[9.12,54.85],[7.83,55.67],[8.02,56.79],[10.65,57.8],[10.72,55.34],[9.49,54.92],[10.92,53.72],[13.38,54.52],[13.95,53.69],[15.47,53.92],[18.15,54.83],[19.58,54.27],[21.73,55.74],[21.11,56.92],[21.7,57.66],[24.39,57.17],[24.03,57.66],[24.76,58.05],[23.71,58.66],[21.88,58.36],[22.48,59.07],[29.91,59.74],[29.65,60.5],[28.32,60.71],[23.39,59.89],[19.12,60.28],[21.44,60.89],[21.74,61.75],[20.85,63.15],[24.98,64.92],[24.57,65.63],[23.03,65.75],[21.57,65.08],[21.0,63.58],[18.37,63.0],[17.23,61.38],[19.68,59.51],[16.88,58.37],[16.36,57.62],[16.8,56.63],[14.69,56.17],[14.22,55.38],[11.1,55.4],[11.03,55.93],[12.69,56.39],[10.32,59.12],[7.45,57.72],[5.31,59.09],[-1.61,58.96],[-0.83,60.2],[-4.48,59.36],[-2.32,59.07],[-4.13,57.83],[-1.74,57.38],[-3.49,56.11],[-1.85,55.77],[0.15,53.44],[-0.31,52.95],[1.77,52.47],[0.73,51.06],[-1.55,50.64],[-4.76,51.9],[-3.75,52.11],[-4.19,53.08],[-2.81,53.35],[-2.6,54.21],[-3.55,54.46],[-3.09,54.95],[-5.13,55.0],[-4.27,55.78],[-5.67,55.73],[-8.44,58.3],[-16.01,55.72],[-35.42,51.97],[-52.92,51.65],[-55.22,52.15],[-55.07,53.43],[-55.67,53.66],[-56.06,51.74],[-58.26,51.54],[-60.24,50.23],[-65.96,50.61],[-69.72,48.76],[-70.65,47.15],[-67.98,48.72],[-64.79,49.18],[-64.69,48.34],[-66.33,48.01],[-64.96,47.48],[-64.37,45.43],[-70.29,44.24],[-71.89,41.76],[-72.86,42.23],[-72.85,41.62],[-77.14,38.84],[-77.13,35.91],[-82.43,34.32],[-83.09,31.33],[-88.12,31.65],[-96.09,30.13],[-95.55,29.13],[-97.21,28.2],[-98.32,26.24],[-97.78,25.51],[-98.06,22.18],[-96.26,18.88],[-94.65,18.1],[-93.55,18.29],[-94.68,18.85],[-93.35,19.41],[-91.36,19.37],[-92.67,18.57],[-91.14,18.76],[-90.49,20.87],[-89.61,21.37],[-87.02,21.39],[-87.93,18.73],[-87.31,18.38],[-87.05,20.19],[-83.46,21.71],[-84.46,22.33],[-83.37,23.13],[-78.12,23.78],[-78.16,25.28],[-77.51,24.08],[-76.25,25.11],[-75.56,24.59],[-67.55,27.08],[-64.47,28.86],[-61.95,33.07],[-58.07,36.18],[-56.49,38.46],[-49.56,40.81],[-33.41,43.5],[-22.25,41.41],[-16.95,38.71],[-16.66,36.54],[-17.46,34.87],[-16.92,33.09],[-17.7,32.69],[-16.65,32.19],[-15.89,29.28],[-17.14,28.38],[-18.15,29.12],[-18.37,27.72],[-17.86,27.22],[-17.63,28.11],[-17.13,27.62],[-16.15,28.14],[-15.91,27.01],[-18.52,23.83],[-18.71,21.98],[-18.69,21.01],[-16.85,20.59],[-16.62,19.52],[-16.17,20.26],[-17.09,21.67],[-14.5,24.79],[-13.98,26.52],[-13.26,26.65],[-13.22,27.64],[-10.26,28.83],[-9.46,29.92],[-9.87,30.93],[-9.25,32.41],[-7.14,33.52],[-5.38,35.62],[-2.03,34.76],[1.53,36.62],[8.25,36.59],[9.8,37.19],[11.04,36.82],[10.21,35.96],[11.06,35.26],[9.95,34.33],[10.22,33.49],[14.98,32.5],[15.4,31.45],[18.93,30.05],[21.84,32.97],[25.53,31.19],[29.21,30.65],[30.35,31.19],[31.9,30.41],[34.36,30.77],[34.89,31.67],[35.66,31.04],[36.22,37.13],[33.2,36.19],[30.76,37.16],[29.93,36.24],[27.17,37.78],[26.44,40.32],[28.79,40.07],[29.79,41.2],[31.29,41.06]],[[-80.08,26.13],[-80.99,25.03],[-82.3,26.88],[-81.61,27.66],[-80.37,27.56],[-80.08,26.13]],[[9.43,41.05],[9.8,40.49],[8.79,39.15],[8.73,40.66],[9.43,41.05]],[[-56.71,51.11],[-55.32,51.3],[-56.8,49.84],[-54.06,49.17],[-53.46,48.32],[-54.28,47.52],[-58.57,47.95],[-56.71,51.11]],[[-62.76,44.92],[-63.71,45.89],[-62.27,45.56],[-62.76,44.92]],[[21.89,37.43],[21.91,38.1],[22.96,37.79],[21.89,37.43]],[[-6.4,53.69],[-6.29,52.43],[-10.02,51.75],[-9.92,52.67],[-8.88,52.92],[-9.76,54.02],[-8.34,54.35],[-8.21,55.23],[-6.16,55.01],[-6.4,53.69]],[[13.24,37.52],[12.59,38.05],[14.88,38.07],[15.21,37.47],[13.24,37.52]]],[[[180.0,-14.03],[171.77,-15.55],[169.19,-16.98],[168.24,-14.94],[167.69,-16.61],[166.57,-15.11],[167.27,-16.83],[168.55,-16.86],[165.81,-18.3],[158.46,-18.33],[155.41,-16.93],[145.4,-14.62],[146.29,-19.21],[148.61,-20.35],[149.58,-21.57],[149.43,-22.54],[150.4,-22.4],[150.91,-23.83],[152.48,-24.87],[153.51,-28.78],[152.9,-31.69],[149.93,-35.41],[149.84,-37.61],[144.73,-37.7],[143.33,-38.77],[140.25,-37.69],[140.53,-36.71],[139.56,-35.35],[138.69,-35.55],[138.77,-34.4],[137.57,-34.01],[138.28,-33.39],[138.02,-32.56],[135.71,-34.88],[135.23,-33.21],[133.88,-31.97],[132.34,-32.08],[131.17,-31.25],[125.82,-32.02],[123.6,-33.77],[119.61,-33.84],[117.4,-35.13],[115.01,-33.85],[116.01,-33.42],[116.16,-31.72],[113.58,-26.77],[114.46,-26.41],[113.51,-24.47],[113.87,-22.0],[114.56,-22.4],[116.53,-20.77],[120.83,-20.01],[122.56,-18.24],[122.3,-17.32],[123.02,-16.73],[123.57,-17.18],[123.31,-16.25],[124.34,-16.37],[125.52,-14.38],[126.68,-13.83],[129.49,-15.08],[130.85,-12.31],[132.64,-12.17],[129.74,-9.82],[127.82,-9.57],[126.6,-7.75],[125.91,-7.98],[126.03,-7.27],[124.45,-7.81],[124.75,-8.59],[123.85,-7.57],[121.75,-7.61],[121.12,-6.28],[118.98,-7.01],[118.9,-6.17],[114.75,-6.41],[113.03,-7.7],[114.04,-7.4],[115.65,-8.34],[115.39,-8.85],[111.55,-8.44],[110.15,-14.8],[106.79,-17.92],[105.98,-19.58],[100.41,-22.61],[99.42,-27.46],[100.64,-29.56],[100.52,-32.59],[102.03,-34.97],[112.12,-42.46],[145.41,-48.09],[152.23,-50.27],[162.54,-55.08],[168.79,-56.91],[175.17,-57.91],[179.31,-57.33],[180.0,-56.83],[180.0,-14.03]]],[[[-180.0,-56.83],[-178.42,-55.85],[-177.67,-54.16],[-169.29,-49.05],[-168.05,-46.88],[-166.37,-45.76],[-162.26,-33.24],[-155.41,-28.6],[-149.74,-27.84],[-144.05,-25.36],[-142.19,-22.63],[-143.41,-19.99],[-145.59,-19.18],[-146.02,-17.86],[-145.06,-16.89],[-144.46,-17.57],[-143.66,-16.8],[-142.8,-17.49],[-143.58,-17.86],[-141.83,-18.82],[-142.9,-16.86],[-142.11,-15.68],[-144.39,-16.32],[-144.35,-15.49],[-145.72,-15.15],[-146.14,-15.74],[-146.59,-14.86],[-148.76,-14.84],[-148.98,-15.87],[-153.41,-14.71],[-163.68,-16.15],[-173.82,-14.3],[-180.0,-14.03],[-180.0,-56.83]],[[-147.05,-15.86],[-145.91,-16.18],[-145.6,-17.27],[-148.1,-16.18],[-148.03,-15.34],[-147.05,-15.86]]],[[[-86.97,-14.11],[-86.92,-18.31],[-86.03,-20.89],[-87.71,-23.68],[-87.96,-26.81],[-89.47,-29.06],[-89.19,-29.63],[-89.9,-29.75],[-91.18,-33.88],[-87.45,-38.79],[-80.95,-41.54],[-80.47,-43.2],[-79.04,-44.21],[-77.52,-46.92],[-73.98,-56.17],[-70.63,-58.63],[-56.51,-57.68],[-46.6,-55.47],[-43.07,-53.48],[-41.73,-53.79],[-41.96,-53.21],[-37.82,-50.02],[-38.18,-49.44],[-33.39,-46.73],[-33.82,-44.34],[-29.4,-40.1],[-29.8,-39.52],[-25.19,-37.17],[-20.05,-37.46],[-17.1,-39.85],[-12.83,-40.53],[0.13,-46.12],[5.23,-46.28],[13.23,-47.8],[22.02,-47.7],[30.69,-46.08],[41.04,-42.98],[44.57,-40.53],[45.74,-37.86],[50.88,-33.64],[50.89,-32.14],[47.02,-28.17],[46.65,-26.61],[47.61,-25.11],[45.36,-25.68],[43.72,-24.38],[43.19,-21.92],[44.52,-20.1],[43.91,-17.18],[44.8,-15.89],[46.18,-15.8],[48.63,-12.86],[47.63,-13.3],[46.24,-10.76],[46.14,-9.7],[46.84,-9.56],[45.9,-9.09],[45.49,-2.93],[43.07,-0.35],[43.37,0.53],[39.99,-2.71],[38.58,-5.98],[40.67,-12.5],[40.4,-15.89],[37.22,-17.37],[34.43,-20.07],[35.46,-24.29],[32.81,-25.15],[32.32,-27.99],[29.91,-31.42],[27.22,-33.52],[19.22,-34.01],[16.97,-28.89],[15.51,-27.71],[14.38,-23.99],[14.79,-22.71],[12.04,-18.36],[12.13,-19.63],[10.06,-20.33],[3.41,-18.13],[-1.89,-21.38],[-5.96,-22.87],[-8.32,-26.73],[-9.52,-27.02],[-12.39,-29.74],[-20.66,-32.3],[-22.94,-34.52],[-26.0,-35.12],[-29.7,-34.97],[-34.97,-32.97],[-50.27,-34.21],[-52.44,-33.64],[-48.81,-29.08],[-47.61,-24.63],[-49.07,-26.59],[-48.45,-27.42],[-49.1,-28.79],[-52.24,-31.32],[-52.08,-32.12],[-53.66,-34.26],[-55.08,-34.97],[-58.51,-34.13],[-56.72,-36.56],[-57.85,-38.41],[-61.93,-39.06],[-62.46,-41.13],[-65.11,-40.93],[-65.09,-42.24],[-63.65,-42.25],[-63.55,-42.82],[-64.71,-42.48],[-64.35,-43.09],[-65.33,-43.52],[-65.28,-44.48],[-67.03,-45.02],[-67.81,-46.48],[-65.56,-47.53],[-67.85,-49.85],[-69.39,-50.29],[-68.77,-52.37],[-72.5,-52.59],[-72.13,-53.88],[-69.97,-54.4],[-69.27,-53.47],[-70.52,-53.22],[-68.81,-52.74],[-67.58,-54.39],[-66.39,-54.75],[-68.9,-55.54],[-73.33,-54.16],[-73.55,-52.46],[-75.06,-52.05],[-74.23,-51.74],[-74.54,-50.44],[-75.55,-50.28],[-74.75,-49.98],[-75.32,-47.98],[-73.92,-47.18],[-75.36,-46.5],[-74.62,-46.22],[-74.16,-44.03],[-73.67,-43.92],[-73.58,-45.38],[-72.41,-43.15],[-72.62,-41.49],[-73.92,-41.41],[-72.9,-39.63],[-73.61,-38.48],[-73.25,-36.99],[-71.33,-33.37],[-71.72,-30.59],[-70.04,-29.2],[-70.1,-18.27],[-76.16,-14.37],[-76.08,-12.96],[-81.1,-4.79],[-79.91,-3.16],[-80.94,-1.46],[-80.07,1.24],[-81.31,3.0],[-83.83,4.41],[-88.97,3.29],[-92.03,-0.02],[-91.75,-1.37],[-89.17,-4.35],[-88.33,-10.71],[-86.97,-14.11]],[[-60.24,-51.27],[-58.48,-51.66],[-59.53,-52.13],[-60.24,-51.27]],[[-74.03,-42.41],[-73.55,-42.31],[-73.95,-43.25],[-74.03,-42.41]]],[[[136.8,-11.21],[134.2,-12.09],[136.48,-11.76],[136.98,-12.68],[136.8,-11.21]]],[[[160.82,60.49],[162.14,60.45],[162.72,61.38],[160.59,60.89],[159.73,61.86],[158.33,61.88],[159.85,60.35],[160.82,60.49]]],[[[180.0,27.95],[178.16,27.82],[176.87,26.4],[180.0,24.59],[180.0,27.95]]],[[[-180.0,24.59],[-174.72,22.09],[-169.97,21.79],[-166.25,19.35],[-163.62,18.55],[-155.79,18.53],[-150.65,20.14],[-149.46,21.54],[-146.37,22.62],[-141.75,22.93],[-135.89,20.63],[-133.31,21.11],[-130.99,20.1],[-115.51,19.01],[-114.66,18.25],[-114.29,18.82],[-106.04,17.12],[-102.87,17.97],[-98.84,16.44],[-104.89,19.3],[-105.56,22.97],[-112.63,29.61],[-112.97,31.36],[-114.93,31.95],[-115.33,31.37],[-111.48,26.14],[-111.93,25.82],[-115.94,30.62],[-116.84,33.41],[-117.88,34.36],[-120.38,34.74],[-121.64,36.34],[-121.97,38.37],[-123.51,38.86],[-124.58,42.79],[-123.53,46.26],[-124.5,47.92],[-122.17,47.45],[-122.48,49.02],[-125.51,50.09],[-123.63,48.78],[-124.11,48.45],[-127.97,50.46],[-126.5,50.54],[-127.68,51.18],[-127.73,52.3],[-130.45,53.72],[-130.65,55.23],[-132.84,56.19],[-132.11,55.25],[-133.32,55.06],[-133.57,56.19],[-132.92,56.57],[-134.26,56.75],[-133.09,57.34],[-133.41,57.91],[-136.07,58.99],[-137.48,58.54],[-139.56,60.09],[-145.21,60.23],[-146.93,60.99],[-149.96,59.4],[-147.65,59.63],[-146.01,57.57],[-145.01,57.45],[-141.21,51.08],[-137.37,48.6],[-135.57,44.75],[-135.7,40.55],[-139.18,35.39],[-139.53,33.33],[-143.8,30.3],[-146.46,29.9],[-155.34,30.11],[-165.6,28.74],[-173.02,29.7],[-177.63,28.94],[-180.0,27.95],[-180.0,24.59]],[[-134.98,57.3],[-136.33,58.02],[-135.19,58.06],[-134.98,57.3]]],[[[154.5,50.92],[155.09,52.53],[156.87,52.7],[155.76,54.33],[156.28,56.96],[161.86,59.99],[156.27,58.03],[156.45,57.42],[154.81,56.03],[150.3,58.76],[155.35,58.95],[155.97,59.5],[154.84,59.95],[157.61,61.32],[157.32,61.72],[153.99,60.01],[154.23,59.39],[152.44,59.02],[149.54,59.27],[149.65,59.99],[147.43,59.2],[141.96,59.29],[135.08,54.93],[136.97,54.73],[136.5,53.78],[137.46,54.19],[138.0,53.43],[139.97,54.21],[141.62,52.27],[142.17,53.62],[143.24,53.3],[143.03,51.43],[144.14,49.42],[141.99,48.4],[142.71,51.32],[141.33,51.93],[140.2,50.59],[140.3,48.4],[139.46,48.28],[137.21,45.49],[140.68,46.32],[141.71,45.84],[140.87,45.5],[141.28,44.08],[142.57,46.17],[143.97,46.25],[144.1,47.19],[149.35,48.47],[154.5,50.92]],[[143.21,46.86],[141.76,46.31],[142.18,47.59],[143.21,46.86]]],[[[41.3,15.11],[41.55,16.34],[42.02,14.75],[42.61,14.99],[42.75,16.81],[42.28,17.6],[41.67,17.37],[40.43,20.21],[39.28,20.79],[38.97,23.33],[37.2,24.77],[34.95,28.38],[34.87,29.69],[33.81,28.32],[32.36,30.22],[32.31,29.11],[35.32,24.23],[35.25,23.14],[37.05,21.73],[37.0,19.38],[38.57,18.22],[39.49,15.59],[40.09,16.25],[40.95,14.48],[41.66,14.53],[41.3,15.11]]],[[[139.0,-13.72],[136.7,-12.99],[137.11,-14.36],[135.86,-13.92],[135.84,-15.2],[139.33,-17.58],[140.82,-17.71],[141.72,-14.47],[139.0,-13.72]]],[[[-88.73,57.28],[-90.31,57.85],[-91.96,57.9],[-91.99,57.39],[-89.94,57.46],[-85.84,55.56],[-81.98,55.21],[-82.53,53.45],[-80.76,53.12],[-82.04,52.63],[-80.34,51.13],[-78.4,52.41],[-79.7,54.94],[-77.32,55.79],[-77.87,56.4],[-80.18,55.78],[-80.48,57.13],[-88.73,57.28]]],[[[-45.52,-23.46],[-47.16,-24.58],[-45.55,-24.5],[-44.12,-23.5],[-44.71,-22.88],[-45.52,-23.46]]],[[[162.87,59.48],[161.74,58.28],[163.01,57.62],[162.49,56.72],[163.51,56.45],[161.88,55.62],[164.23,56.34],[163.05,57.0],[163.76,57.51],[162.65,58.4],[165.25,59.12],[162.87,59.48]]],[[[5.81,3.92],[6.55,1.4],[6.19,-0.21],[7.15,0.13],[9.26,-1.97],[8.85,-0.62],[9.71,3.82],[8.56,4.77],[5.81,3.92]]],[[[117.77,-5.69],[118.75,-5.78],[118.64,-5.16],[117.1,-4.83],[116.83,-5.37],[117.77,-5.69]]],[[[18.02,69.76],[24.89,71.17],[28.41,71.04],[30.63,70.52],[29.95,70.05],[30.95,69.59],[38.83,68.77],[29.04,71.32],[19.73,70.94],[17.64,70.53],[16.85,69.94],[18.02,69.76]]],[[[166.92,9.22],[167.52,8.57],[168.15,9.03],[167.54,9.68],[166.92,9.22]]],[[[-169.19,16.5],[-169.76,17.16],[-169.81,16.32],[-169.19,16.5]]],[[[36.96,65.01],[39.8,64.61],[40.8,65.05],[39.98,65.6],[44.9,66.95],[43.81,67.69],[42.37,67.06],[41.21,68.15],[38.88,68.4],[41.53,67.22],[39.67,66.16],[33.16,66.79],[34.4,66.14],[34.88,64.25],[38.34,64.13],[36.96,65.01]]],[[[73.71,3.17],[73.14,3.09],[73.7,2.0],[73.71,3.17]]],[[[-140.91,-17.42],[-141.43,-18.22],[-140.68,-18.68],[-140.91,-17.42]]],[[[145.14,13.85],[144.36,13.36],[145.24,13.19],[145.14,13.85]]],[[[42.6,14.2],[42.24,13.58],[42.94,13.63],[43.27,12.67],[43.07,14.62],[42.6,14.2]]],[[[114.07,-5.7],[114.84,-5.73],[114.96,-4.82],[114.07,-5.7]]],[[[171.03,8.16],[171.38,8.93],[170.62,9.2],[171.03,8.16]]],[[[138.63,37.92],[139.89,39.16],[138.42,38.51],[138.63,37.92]]],[[[-138.43,-22.15],[-139.07,-21.49],[-139.07,-22.34],[-138.43,-22.15]]],[[[53.34,-5.1],[53.17,-5.76],[53.89,-5.99],[53.34,-5.1]]],[[[170.22,8.77],[170.56,9.56],[169.8,9.82],[170.22,8.77]]],[[[155.85,51.85],[156.32,51.32],[155.23,51.08],[155.09,49.77],[153.26,49.11],[154.42,48.74],[158.93,51.84],[160.67,54.01],[158.5,53.22],[158.28,51.93],[157.34,51.32],[155.85,51.85]]],[[[167.01,59.71],[166.07,60.25],[163.97,59.82],[167.01,59.71]]],[[[-28.15,39.36],[-29.13,38.24],[-26.64,38.85],[-28.15,39.36]]],[[[-23.38,15.74],[-25.07,14.91],[-23.29,14.59],[-23.38,15.74]]],[[[50.18,27.66],[48.96,27.72],[49.77,27.07],[50.18,27.66]]],[[[12.51,-14.47],[12.77,-12.95],[12.07,-13.43],[12.51,-14.47]]],[[[-144.33,-15.07],[-144.65,-14.01],[-145.28,-14.16],[-145.33,-14.98],[-144.33,-15.07]]],[[[54.99,-4.81],[55.7,-4.36],[54.95,-4.24],[54.99,-4.81]]],[[[4.86,6.19],[3.75,6.55],[4.72,5.59],[4.86,6.19]]],[[[174.0,52.59],[172.06,53.08],[173.68,52.16],[174.0,52.59]]],[[[166.88,54.44],[168.67,54.82],[165.79,55.72],[165.92,54.74],[166.88,54.44]]],[[[-139.05,-10.16],[-138.82,-9.42],[-139.5,-9.74],[-139.05,-10.16]]],[[[-15.18,10.46],[-14.19,9.99],[-14.57,10.81],[-17.02,12.63],[-16.4,10.82],[-15.18,10.46]]],[[[-17.47,15.07],[-16.82,12.97],[-16.4,13.66],[-17.47,15.07]]],[[[13.29,-9.89],[13.68,-8.56],[12.5,-9.1],[13.83,-12.21],[13.29,-9.89]]],[[[-38.26,-54.39],[-36.14,-55.12],[-35.39,-54.67],[-37.13,-53.63],[-38.19,-53.72],[-38.26,-54.39]]],[[[50.04,67.96],[44.66,67.52],[47.32,67.76],[47.18,66.99],[48.0,66.8],[48.5,67.77],[50.04,67.96]]],[[[50.69,26.61],[50.76,26.0],[51.5,26.36],[50.69,26.61]]],[[[51.98,25.32],[51.58,24.74],[52.22,24.31],[51.98,25.32]]],[[[-24.32,16.37],[-24.14,16.97],[-25.73,17.19],[-24.32,16.37]]],[[[145.97,44.72],[145.12,44.65],[145.77,43.52],[147.29,44.27],[146.86,45.03],[146.74,44.31],[145.97,44.72]]],[[[137.25,38.2],[135.86,35.93],[133.92,35.87],[133.26,36.66],[132.86,35.99],[133.51,35.2],[136.08,35.58],[136.76,36.83],[137.89,36.9],[137.25,38.2]]],[[[129.16,-8.0],[127.01,-7.83],[127.51,-8.78],[129.28,-8.64],[129.16,-8.0]]],[[[161.18,54.3],[162.91,54.76],[162.05,55.24],[161.18,54.3]]],[[[145.66,15.38],[145.72,14.49],[146.14,15.53],[145.66,15.38]]],[[[47.9,69.1],[49.3,68.53],[50.78,69.29],[48.98,69.67],[47.9,69.1]]],[[[145.94,16.82],[145.36,16.19],[145.99,15.94],[145.94,16.82]]],[[[-139.06,-18.98],[-139.44,-19.59],[-138.44,-19.63],[-139.06,-18.98]]],[[[112.44,-6.09],[113.05,-6.0],[112.74,-5.29],[112.44,-6.09]]],[[[-13.6,9.7],[-14.21,9.36],[-13.43,8.99],[-13.6,9.7]]],[[[151.76,47.18],[151.37,46.85],[152.55,46.73],[153.65,48.34],[151.76,47.18]]],[[[105.46,-10.13],[105.58,-10.92],[106.06,-10.27],[105.46,-10.13]]],[[[166.46,10.27],[165.6,10.32],[165.84,9.8],[166.46,10.27]]],[[[-25.27,36.89],[-24.69,36.67],[-25.12,38.06],[-26.24,37.98],[-25.27,36.89]]],[[[122.24,19.96],[122.01,21.14],[121.48,20.48],[122.24,19.96]]],[[[-140.43,-9.65],[-139.39,-8.6],[-140.31,-8.51],[-140.43,-9.65]]],[[[168.48,7.27],[169.1,7.71],[167.9,8.44],[168.48,7.27]]],[[[44.13,1.46],[43.68,0.78],[44.82,1.55],[44.13,1.46]]],[[[-23.19,16.1],[-22.31,16.16],[-23.04,17.17],[-23.19,16.1]]],[[[-152.6,59.64],[-150.09,61.2],[-151.71,61.17],[-153.75,59.49],[-152.6,59.64]]],[[[133.53,34.53],[132.93,33.99],[133.75,33.96],[133.53,34.53]]],[[[68.88,7.54],[69.25,6.39],[71.07,6.8],[70.7,8.21],[68.88,7.54]]],[[[12.19,-15.14],[11.91,-14.73],[11.48,-15.61],[11.67,-16.67],[12.19,-15.14]]],[[[165.69,8.85],[166.38,8.95],[165.45,9.36],[165.69,8.85]]],[[[43.7,11.93],[43.72,12.7],[42.91,11.68],[43.58,11.34],[43.7,11.93]]],[[[150.08,46.48],[150.11,45.38],[151.24,46.38],[150.78,46.91],[150.08,46.48]]],[[[-41.83,-22.11],[-43.21,-23.38],[-40.63,-22.28],[-41.83,-22.11]]],[[[-5.11,58.27],[-4.97,58.89],[-6.51,58.64],[-6.68,57.81],[-5.11,58.27]]],[[[50.56,-9.22],[50.8,-9.81],[51.37,-9.26],[50.56,-9.22]]],[[[134.09,-11.47],[133.16,-10.45],[132.22,-10.77],[132.95,-11.63],[134.09,-11.47]]]]}}]}