{"type":"FeatureCollection","features":[{"type":"Feature","properties":{},"geometry":{"type":"MultiPolygon","coordinates":[[[[15.53,55.21],[15.65,55.41],[15.39,55.55],[15.0,55.5],[14.72,55.64],[14.84,55.83],[15.24,55.89],[15.36,56.09],[15.08,56.23],[14.69,56.17],[14.57,55.97],[14.18,55.91],[14.06,55.72],[13.67,55.66],[13.56,55.46],[13.17,55.4],[13.06,55.2],[13.33,55.06],[13.72,55.12],[13.83,55.32],[14.22,55.38],[14.49,55.24],[14.37,55.04],[14.64,54.9],[15.03,54.96],[15.29,54.82],[15.68,54.87],[15.8,55.07],[15.53,55.21]]],[[[-3.57,43.79],[-3.82,43.95],[-4.12,43.86],[-4.16,43.63],[-4.46,43.54],[-4.72,43.69],[-5.01,43.61],[-5.27,43.76],[-5.57,43.67],[-5.83,43.82],[-6.13,43.73],[-6.39,43.88],[-6.69,43.79],[-6.96,43.94],[-7.26,43.85],[-7.53,44.0],[-7.83,43.9],[-8.1,44.05],[-8.4,43.95],[-8.43,43.71],[-8.73,43.61],[-8.76,43.37],[-9.05,43.27],[-9.33,43.42],[-9.63,43.32],[-9.65,43.07],[-9.38,42.93],[-9.4,42.68],[-9.13,42.54],[-9.15,42.29],[-8.88,42.14],[-8.91,41.9],[-9.2,41.8],[-9.22,41.55],[-8.96,41.41],[-8.98,41.16],[-8.72,41.01],[-8.74,40.77],[-9.03,40.67],[-9.06,40.42],[-9.34,40.31],[-9.36,40.07],[-9.1,39.92],[-9.13,39.67],[-9.41,39.57],[-9.67,39.71],[-9.96,39.61],[-9.98,39.36],[-9.72,39.21],[-9.74,38.97],[-9.48,38.82],[-9.5,38.57],[-9.24,38.43],[-9.26,38.18],[-9.01,38.04],[-9.03,37.79],[-9.31,37.68],[-9.33,37.43],[-9.08,37.29],[-9.1,37.04],[-8.85,36.9],[-8.58,37.01],[-8.33,36.86],[-8.05,36.97],[-7.81,36.82],[-7.53,36.93],[-7.29,36.78],[-7.02,36.88],[-6.77,36.74],[-6.8,36.49],[-6.56,36.35],[-6.59,36.1],[-6.35,35.95],[-6.08,36.05],[-5.85,35.91],[-5.58,36.01],[-5.34,35.86],[-5.08,35.96],[-5.04,36.2],[-4.77,36.3],[-4.74,36.54],[-4.47,36.64],[-4.24,36.49],[-3.97,36.59],[-3.74,36.44],[-3.47,36.53],[-3.24,36.38],[-2.97,36.47],[-2.93,36.71],[-3.16,36.86],[-3.43,36.77],[-3.66,36.92],[-3.93,36.83],[-4.16,36.98],[-4.43,36.88],[-4.67,37.03],[-4.94,36.94],[-5.17,37.09],[-5.45,36.99],[-5.68,37.14],[-5.96,37.04],[-6.2,37.19],[-6.47,37.09],[-6.71,37.23],[-6.68,37.48],[-6.93,37.62],[-7.2,37.52],[-7.45,37.67],[-7.42,37.92],[-7.15,38.02],[-7.12,38.26],[-6.84,38.36],[-6.81,38.61],[-6.53,38.71],[-6.5,38.96],[-6.22,39.05],[-6.19,39.3],[-5.91,39.39],[-5.87,39.64],[-5.59,39.73],[-5.34,39.58],[-5.06,39.68],[-5.03,39.92],[-5.27,40.07],[-5.24,40.32],[-4.95,40.41],[-4.92,40.65],[-5.17,40.8],[-5.45,40.71],[-5.49,40.47],[-5.77,40.37],[-5.81,40.13],[-6.09,40.03],[-6.34,40.18],[-6.31,40.43],[-6.56,40.58],[-6.53,40.82],[-6.78,40.97],[-6.75,41.21],[-6.46,41.31],[-6.43,41.55],[-6.69,41.7],[-6.66,41.95],[-6.92,42.09],[-7.21,42.0],[-7.47,42.15],[-7.44,42.39],[-7.15,42.49],[-7.12,42.73],[-7.38,42.88],[-7.35,43.12],[-7.05,43.22],[-7.02,43.46],[-6.73,43.55],[-6.46,43.4],[-6.16,43.49],[-5.9,43.34],[-5.61,43.43],[-5.35,43.28],[-5.05,43.37],[-4.79,43.21],[-4.5,43.3],[-4.24,43.15],[-3.95,43.23],[-3.7,43.08],[-3.41,43.16],[-3.16,43.01],[-2.86,43.09],[-2.62,42.93],[-2.33,43.01],[-2.08,42.86],[-1.79,42.94],[-1.55,42.78],[-1.26,42.86],[-1.21,43.09],[-0.92,43.17],[-0.69,43.01],[-0.4,43.09],[-0.16,42.93],[0.12,43.0],[0.36,42.84],[0.64,42.91],[0.7,43.14],[0.98,43.22],[1.21,43.05],[1.5,43.12],[1.73,42.99],[2.02,43.08],[2.26,42.94],[2.2,42.71],[2.43,42.57],[2.37,42.34],[2.08,42.24],[2.02,42.01],[1.73,41.92],[1.68,41.69],[1.39,41.6],[1.34,41.36],[1.05,41.27],[1.0,41.04],[0.72,40.96],[0.67,40.73],[0.39,40.65],[0.34,40.42],[0.06,40.34],[0.01,40.1],[-0.26,40.03],[-0.31,39.79],[-0.59,39.71],[-0.64,39.47],[-0.41,39.32],[-0.46,39.08],[-0.24,38.92],[-0.29,38.69],[-0.56,38.6],[-0.61,38.37],[-0.88,38.28],[-0.92,38.05],[-0.7,37.89],[-0.43,37.97],[-0.38,38.21],[-0.12,38.29],[-0.07,38.53],[0.2,38.61],[0.25,38.85],[0.03,39.0],[0.08,39.24],[-0.14,39.4],[-0.09,39.63],[0.18,39.71],[0.24,39.95],[0.51,40.02],[0.56,40.26],[0.84,40.34],[0.89,40.57],[1.17,40.66],[1.23,40.9],[1.51,40.99],[1.74,40.85],[2.02,40.94],[2.08,41.17],[2.36,41.26],[2.42,41.49],[2.71,41.58],[2.94,41.44],[3.23,41.53],[3.29,41.76],[3.59,41.85],[3.65,42.08],[3.42,42.23],[3.48,42.46],[3.25,42.6],[3.31,42.84],[3.61,42.93],[3.67,43.16],[3.97,43.25],[4.21,43.1],[4.51,43.19],[4.74,43.04],[5.04,43.13],[5.28,42.98],[5.58,43.06],[5.82,42.92],[6.12,43.0],[6.35,42.85],[6.66,42.93],[6.74,43.16],[7.05,43.24],[7.12,43.48],[7.43,43.56],[7.67,43.4],[7.98,43.48],[8.06,43.71],[8.37,43.79],[8.46,44.02],[8.77,44.1],[9.01,43.94],[9.33,44.02],[9.56,43.86],[9.88,43.94],[10.12,43.78],[10.03,43.55],[10.26,43.39],[10.18,43.16],[10.41,43.0],[10.32,42.76],[10.55,42.6],[10.87,42.67],[11.1,42.51],[11.42,42.58],[11.51,42.81],[11.28,42.98],[10.96,42.91],[10.73,43.07],[10.82,43.3],[10.58,43.46],[10.67,43.69],[10.99,43.76],[11.08,43.99],[11.41,44.06],[11.64,43.9],[11.97,43.97],[12.06,44.2],[12.39,44.27],[12.48,44.5],[12.24,44.66],[11.92,44.59],[11.82,44.36],[11.5,44.29],[11.26,44.45],[11.35,44.68],[11.12,44.84],[10.79,44.77],[10.55,44.93],[10.23,44.86],[9.99,45.01],[9.67,44.94],[9.43,45.09],[9.51,45.32],[9.84,45.39],[10.08,45.24],[10.4,45.31],[10.49,45.54],[10.82,45.61],[11.06,45.46],[11.39,45.53],[11.48,45.75],[11.82,45.82],[12.05,45.66],[11.96,45.44],[12.2,45.28],[12.1,45.05],[12.34,44.89],[12.67,44.95],[12.77,45.18],[13.1,45.25],[13.33,45.08],[13.67,45.15],[13.9,44.98],[14.24,45.05],[14.47,44.88],[14.8,44.94],[14.91,45.17],[15.24,45.23],[15.48,45.06],[15.81,45.12],[16.05,44.95],[16.38,45.0],[16.61,44.83],[16.95,44.89],[17.18,44.72],[17.52,44.77],[17.63,44.99],[17.4,45.17],[17.51,45.39],[17.86,45.44],[17.97,45.67],[17.74,45.84],[17.39,45.79],[17.16,45.96],[17.27,46.18],[17.62,46.23],[17.85,46.06],[18.2,46.11],[18.43,45.94],[18.77,45.99],[18.89,46.21],[18.66,46.38],[18.31,46.33],[18.08,46.51],[18.19,46.73],[17.96,46.9],[18.07,47.12],[18.42,47.17],[18.54,47.39],[18.89,47.43],[19.13,47.26],[19.48,47.31],[19.6,47.53],[19.95,47.57],[20.08,47.79],[20.43,47.83],[20.55,48.05],[20.91,48.09],[21.14,47.92],[21.5,47.96],[21.63,48.17],[21.99,48.21],[22.11,48.42],[22.47,48.46],[22.7,48.28],[23.06,48.32],[23.29,48.14],[23.16,47.93],[23.38,47.75],[23.25,47.53],[23.48,47.36],[23.83,47.39],[24.06,47.21],[24.41,47.24],[24.63,47.06],[24.5,46.84],[24.72,46.66],[24.59,46.44],[24.8,46.26],[24.67,46.04],[24.32,46.01],[24.19,45.8],[23.84,45.76],[23.62,45.95],[23.75,46.16],[23.53,46.35],[23.66,46.56],[23.44,46.74],[23.57,46.96],[23.35,47.14],[22.99,47.11],[22.77,47.29],[22.41,47.25],[22.28,47.03],[22.51,46.85],[22.38,46.64],[22.61,46.46],[22.48,46.24],[22.7,46.06],[23.05,46.1],[23.27,45.91],[23.14,45.69],[22.8,45.66],[22.58,45.84],[22.23,45.8],[22.1,45.58],[21.76,45.54],[21.63,45.32],[21.85,45.14],[21.73,44.92],[21.95,44.74],[22.29,44.78],[22.42,45.0],[22.76,45.04],[22.89,45.26],[23.24,45.29],[23.45,45.11],[23.8,45.14],[24.02,44.96],[24.36,44.99],[24.49,45.21],[24.84,45.24],[25.05,45.05],[25.4,45.08],[25.53,45.3],[25.32,45.48],[25.45,45.7],[25.8,45.73],[26.01,45.54],[26.36,45.57],[26.57,45.38],[26.92,45.4],[27.06,45.62],[26.85,45.81],[26.98,46.02],[26.77,46.21],[26.91,46.42],[26.7,46.61],[26.84,46.82],[26.62,47.01],[26.27,46.98],[26.05,47.17],[26.19,47.38],[25.97,47.56],[26.11,47.77],[25.89,47.96],[26.03,48.17],[25.81,48.35],[25.95,48.56],[26.31,48.58],[26.45,48.79],[26.82,48.81],[26.96,49.02],[27.32,49.04],[27.47,49.24],[27.25,49.42],[27.39,49.63],[27.17,49.81],[27.32,50.01],[27.1,50.19],[27.24,50.39],[27.02,50.57],[26.65,50.55],[26.42,50.73],[26.05,50.71],[25.82,50.88],[25.45,50.86],[25.22,51.03],[25.36,51.24],[25.13,51.41],[24.75,51.38],[24.52,51.56],[24.66,51.76],[24.43,51.93],[24.57,52.13],[24.33,52.3],[24.48,52.5],[24.24,52.66],[24.38,52.86],[24.14,53.03],[24.29,53.23],[24.04,53.39],[24.19,53.59],[23.95,53.75],[24.09,53.95],[24.48,53.98],[24.63,54.17],[24.39,54.33],[24.53,54.53],[24.29,54.69],[23.89,54.66],[23.64,54.82],[23.25,54.79],[23.0,54.95],[22.6,54.92],[22.35,55.08],[21.95,55.05],[21.7,55.2],[21.84,55.4],[21.58,55.55],[21.73,55.74],[21.47,55.9],[21.61,56.09],[21.35,56.24],[21.5,56.43],[21.23,56.58],[21.38,56.77],[21.11,56.92],[20.71,56.88],[20.56,56.7],[20.83,56.55],[20.69,56.36],[20.95,56.2],[20.81,56.01],[21.07,55.86],[20.93,55.67],[20.53,55.63],[20.39,55.44],[20.65,55.29],[20.51,55.09],[20.12,55.05],[19.86,55.21],[19.46,55.16],[19.33,54.97],[19.59,54.82],[19.45,54.62],[19.06,54.58],[18.8,54.73],[18.94,54.92],[18.67,55.08],[18.28,55.03],[18.02,55.18],[17.63,55.13],[17.5,54.93],[17.11,54.88],[16.98,54.69],[16.6,54.63],[16.33,54.78],[15.95,54.73],[15.82,54.53],[15.44,54.47],[15.32,54.27],[14.94,54.22],[14.67,54.36],[14.29,54.3],[14.03,54.44],[14.14,54.64],[13.87,54.78],[13.49,54.72],[13.22,54.86],[12.84,54.8],[12.73,54.6],[12.35,54.53],[12.24,54.33],[11.87,54.26],[11.6,54.4],[11.7,54.6],[11.43,54.74],[11.06,54.67],[10.95,54.47],[10.58,54.4],[10.48,54.19],[10.11,54.12],[10.01,53.92],[9.64,53.84],[9.55,53.64],[9.18,53.56],[9.09,53.36],[8.73,53.28],[8.63,53.07],[8.28,53.0],[8.01,53.13],[7.65,53.05],[7.56,52.84],[7.21,52.76],[7.12,52.55],[6.77,52.47],[6.69,52.26],[6.34,52.18],[6.08,52.3],[5.73,52.22],[5.47,52.35],[5.12,52.26],[5.04,52.05],[4.7,51.96],[4.44,52.09],[4.52,52.3],[4.86,52.38],[4.94,52.59],[4.67,52.72],[4.33,52.63],[4.25,52.42],[3.93,52.38],[3.85,52.16],[3.53,52.12],[3.45,51.91],[3.13,51.86],[3.06,51.64],[2.74,51.6],[2.67,51.38],[2.35,51.33],[2.28,51.11],[1.96,51.06],[1.7,51.22],[1.38,51.17],[1.31,50.95],[1.57,50.79],[1.5,50.57],[1.18,50.52],[1.12,50.3],[0.8,50.24],[0.74,50.02],[0.42,49.96],[0.16,50.12],[-0.16,50.06],[-0.22,49.84],[0.04,49.67],[-0.02,49.45],[-0.33,49.39],[-0.59,49.55],[-0.91,49.49],[-1.18,49.65],[-1.12,49.87],[-1.39,50.03],[-1.71,49.96],[-1.77,49.74],[-2.09,49.67],[-2.36,49.83],[-2.68,49.76],[-2.73,49.53],[-3.05,49.46],[-3.1,49.23],[-3.42,49.16],[-3.47,48.93],[-3.79,48.86],[-4.06,49.01],[-4.39,48.94],[-4.43,48.71],[-4.75,48.63],[-5.03,48.78],[-5.35,48.7],[-5.39,48.47],[-5.11,48.32],[-5.15,48.09],[-4.87,47.93],[-4.91,47.7],[-4.64,47.55],[-4.33,47.63],[-4.06,47.47],[-3.74,47.55],[-3.47,47.39],[-3.52,47.16],[-3.25,47.0],[-2.94,47.08],[-2.68,46.92],[-2.73,46.69],[-2.47,46.53],[-2.16,46.61],[-1.91,46.45],[-1.96,46.22],[-1.7,46.06],[-1.75,45.83],[-1.5,45.67],[-1.55,45.44],[-1.3,45.28],[-1.35,45.05],[-1.65,44.97],[-1.7,44.74],[-1.45,44.58],[-1.5,44.35],[-1.8,44.27],[-1.85,44.04],[-1.6,43.88],[-1.65,43.64],[-1.94,43.57],[-2.19,43.72],[-2.48,43.64],[-2.73,43.8],[-3.02,43.72],[-3.28,43.88],[-3.57,43.79]],[[11.38,46.96],[11.04,46.89],[10.95,46.67],[11.19,46.52],[11.1,46.29],[10.76,46.22],[10.67,45.99],[10.34,45.92],[10.1,46.08],[10.19,46.3],[9.95,46.45],[9.62,46.38],[9.38,46.53],[9.05,46.46],[8.8,46.6],[8.48,46.53],[8.39,46.3],[8.07,46.22],[7.99,46.0],[7.66,45.92],[7.58,45.69],[7.26,45.61],[7.19,45.38],[7.43,45.24],[7.35,45.01],[7.03,44.93],[6.95,44.7],[7.19,44.55],[7.11,44.32],[6.8,44.24],[6.56,44.39],[6.64,44.62],[6.4,44.76],[6.09,44.68],[5.85,44.83],[5.92,45.05],[6.24,45.14],[6.31,45.37],[6.63,45.45],[6.7,45.68],[6.46,45.82],[6.54,46.05],[6.86,46.13],[7.1,45.98],[7.42,46.06],[7.5,46.29],[7.83,46.37],[7.91,46.6],[8.23,46.67],[8.32,46.9],[8.65,46.98],[8.89,46.83],[9.22,46.91],[9.46,46.76],[9.8,46.83],[9.88,47.05],[10.22,47.13],[10.46,46.98],[10.8,47.05],[10.89,47.27],[11.23,47.34],[11.47,47.19],[11.81,47.26],[12.05,47.1],[12.39,47.17],[12.63,47.01],[12.53,46.79],[12.2,46.72],[11.95,46.88],[11.62,46.81],[11.38,46.96]],[[13.06,45.86],[12.96,45.64],[12.63,45.57],[12.39,45.73],[12.48,45.96],[12.82,46.02],[13.06,45.86]],[[26.21,46.37],[25.86,46.34],[25.64,46.53],[25.29,46.5],[25.07,46.69],[25.21,46.9],[24.99,47.09],[25.12,47.3],[24.9,47.48],[24.55,47.45],[24.32,47.63],[24.46,47.84],[24.23,48.03],[24.37,48.24],[24.73,48.27],[24.95,48.08],[25.31,48.11],[25.53,47.93],[25.4,47.72],[25.62,47.54],[25.48,47.33],[25.7,47.14],[25.56,46.93],[25.78,46.74],[26.13,46.77],[26.35,46.58],[26.21,46.37]],[[16.83,45.28],[16.49,45.23],[16.26,45.4],[16.37,45.62],[16.71,45.68],[16.94,45.51],[16.83,45.28]],[[10.52,44.08],[10.29,44.24],[10.38,44.47],[10.7,44.54],[10.94,44.38],[10.85,44.15],[10.52,44.08]],[[14.1,45.44],[14.2,45.66],[14.54,45.73],[14.78,45.56],[14.67,45.33],[14.34,45.27],[14.1,45.44]],[[-2.24,48.99],[-2.29,48.76],[-2.61,48.69],[-2.88,48.85],[-2.83,49.08],[-2.51,49.15],[-2.24,48.99]]],[[[3.03,39.74],[3.26,39.59],[3.54,39.67],[3.61,39.91],[3.38,40.06],[3.09,39.97],[2.87,40.12],[2.58,40.03],[2.53,39.8],[2.24,39.71],[2.19,39.47],[2.41,39.32],[2.69,39.41],[2.75,39.65],[3.03,39.74]]],[[[21.67,57.14],[21.81,57.33],[21.55,57.48],[21.14,57.44],[20.99,57.26],[21.26,57.11],[21.67,57.14]]],[[[-1.6,42.54],[-1.89,42.46],[-1.93,42.23],[-1.69,42.07],[-1.74,41.83],[-1.5,41.68],[-1.22,41.76],[-1.17,41.99],[-1.41,42.15],[-1.36,42.39],[-1.6,42.54]]],[[[13.18,44.01],[12.95,44.17],[12.62,44.11],[12.52,43.88],[12.76,43.71],[13.08,43.78],[13.18,44.01]]],[[[8.52,42.55],[8.44,42.32],[8.67,42.16],[8.98,42.24],[9.06,42.47],[9.38,42.54],[9.46,42.78],[9.23,42.94],[8.91,42.86],[8.83,42.63],[8.52,42.55]]],[[[-2.36,37.14],[-2.62,37.05],[-2.67,36.8],[-2.44,36.65],[-2.17,36.74],[-2.13,36.98],[-2.36,37.14]]],[[[16.27,56.39],[15.88,56.34],[15.75,56.14],[16.02,56.0],[16.42,56.05],[16.54,56.25],[16.94,56.3],[17.07,56.49],[16.8,56.63],[16.4,56.58],[16.27,56.39]]],[[[7.92,53.67],[7.83,53.46],[8.1,53.34],[8.46,53.41],[8.55,53.62],[8.91,53.7],[9.01,53.9],[8.74,54.03],[8.37,53.95],[8.28,53.75],[7.92,53.67]]],[[[1.07,39.11],[1.02,38.87],[1.24,38.73],[1.52,38.82],[1.57,39.06],[1.35,39.2],[1.07,39.11]]],[[[18.77,44.75],[18.54,44.92],[18.2,44.87],[18.09,44.65],[18.31,44.47],[18.65,44.52],[18.77,44.75]]],[[[12.41,55.27],[12.03,55.21],[11.92,55.01],[12.19,54.87],[12.57,54.94],[12.68,55.14],[12.41,55.27]]]]}}]}