{"type":"FeatureCollection","features":[{"type":"Feature","properties":{},"geometry":{"type":"MultiPolygon","coordinates":[[[[-16.91,32.58],[-16.91,32.32],[-16.65,32.19],[-16.39,32.32],[-16.39,32.58],[-16.13,32.71],[-16.13,32.96],[-15.87,33.09],[-15.87,33.34],[-16.13,33.47],[-16.39,33.34],[-16.39,33.09],[-16.65,32.96],[-16.92,33.09],[-17.18,32.96],[-17.44,33.08],[-17.7,32.95],[-17.7,32.69],[-17.43,32.57],[-17.17,32.7],[-16.91,32.58]]],[[[-28.68,39.05],[-28.95,38.9],[-28.91,38.65],[-29.17,38.49],[-29.13,38.24],[-28.83,38.14],[-28.57,38.29],[-28.26,38.19],[-28.0,38.35],[-27.7,38.24],[-27.44,38.4],[-27.14,38.29],[-26.87,38.44],[-26.91,38.7],[-26.64,38.85],[-26.67,39.1],[-26.98,39.21],[-27.24,39.06],[-27.55,39.16],[-27.58,39.41],[-27.89,39.52],[-28.15,39.36],[-28.12,39.11],[-28.38,38.95],[-28.68,39.05]]],[[[113.17,24.6],[113.21,24.83],[113.44,24.9],[113.47,25.13],[113.7,25.2],[113.74,25.42],[113.97,25.5],[114.0,25.72],[114.23,25.79],[114.26,26.01],[114.5,26.08],[114.53,26.3],[114.33,26.46],[114.36,26.68],[114.16,26.83],[113.93,26.77],[113.9,26.54],[113.67,26.47],[113.63,26.25],[113.4,26.18],[113.37,25.96],[113.13,25.89],[113.1,25.66],[113.3,25.51],[113.27,25.28],[113.04,25.21],[113.01,24.98],[112.77,24.91],[112.74,24.68],[112.94,24.53],[113.17,24.6]]],[[[120.92,23.58],[120.69,23.48],[120.66,23.25],[120.85,23.13],[120.81,22.91],[121.0,22.79],[121.23,22.89],[121.26,23.11],[121.07,23.24],[121.11,23.46],[121.34,23.56],[121.37,23.78],[121.6,23.88],[121.64,24.1],[121.44,24.22],[121.48,24.44],[121.71,24.54],[121.74,24.76],[121.97,24.87],[122.01,25.08],[121.82,25.2],[121.59,25.1],[121.4,25.22],[121.17,25.12],[121.13,24.9],[121.32,24.78],[121.29,24.56],[121.06,24.46],[121.02,24.24],[121.22,24.12],[121.18,23.9],[120.95,23.8],[120.92,23.58]]],[[[-165.26,54.18],[-165.41,54.39],[-165.78,54.44],[-166.0,54.27],[-166.37,54.32],[-166.59,54.15],[-166.96,54.19],[-167.17,54.02],[-167.01,53.81],[-167.23,53.64],[-167.6,53.68],[-167.81,53.51],[-168.18,53.55],[-168.35,53.76],[-168.72,53.79],[-168.93,53.62],[-168.77,53.41],[-168.98,53.23],[-169.35,53.27],[-169.56,53.09],[-169.93,53.12],[-170.14,52.94],[-170.51,52.97],[-170.72,52.79],[-171.09,52.82],[-171.3,52.64],[-171.67,52.66],[-171.87,52.48],[-172.25,52.51],[-172.43,52.72],[-172.81,52.74],[-173.01,52.55],[-172.83,52.34],[-173.03,52.15],[-173.41,52.18],[-173.59,52.38],[-173.97,52.4],[-174.16,52.61],[-174.54,52.63],[-174.74,52.44],[-175.12,52.45],[-175.32,52.26],[-175.7,52.28],[-175.9,52.48],[-176.28,52.49],[-176.47,52.3],[-176.86,52.31],[-177.05,52.11],[-177.44,52.12],[-177.62,51.92],[-178.01,51.93],[-178.21,52.13],[-178.6,52.14],[-178.78,51.94],[-179.17,51.94],[-179.35,51.74],[-179.14,51.53],[-179.32,51.33],[-179.12,51.13],[-178.73,51.13],[-178.55,51.33],[-178.17,51.32],[-177.99,51.52],[-177.6,51.52],[-177.42,51.72],[-177.03,51.71],[-176.84,51.5],[-176.45,51.49],[-176.27,51.69],[-175.88,51.68],[-175.7,51.87],[-175.31,51.86],[-175.12,52.05],[-174.74,52.04],[-174.55,51.83],[-174.17,51.81],[-173.98,52.0],[-173.6,51.99],[-173.42,51.78],[-173.04,51.75],[-172.84,51.94],[-172.47,51.92],[-172.27,52.11],[-171.9,52.08],[-171.7,52.27],[-171.32,52.24],[-171.12,52.43],[-170.75,52.4],[-170.55,52.58],[-170.17,52.55],[-169.97,52.73],[-169.59,52.7],[-169.43,52.49],[-169.06,52.45],[-168.85,52.63],[-168.48,52.6],[-168.28,52.77],[-168.44,52.98],[-168.23,53.16],[-167.86,53.12],[-167.65,53.3],[-167.28,53.26],[-167.07,53.43],[-166.7,53.39],[-166.49,53.56],[-166.12,53.51],[-165.91,53.68],[-166.06,53.89],[-165.84,54.06],[-165.48,54.02],[-165.26,54.18]]],[[[-16.89,27.75],[-16.64,27.63],[-16.39,27.76],[-16.39,28.01],[-16.15,28.14],[-15.9,28.02],[-15.9,27.76],[-15.66,27.64],[-15.41,27.77],[-15.17,27.65],[-14.92,27.77],[-14.68,27.65],[-14.43,27.77],[-14.19,27.65],[-13.95,27.77],[-13.94,28.02],[-13.69,28.15],[-13.69,28.4],[-13.44,28.52],[-13.43,28.77],[-13.18,28.89],[-13.17,29.14],[-13.41,29.27],[-13.4,29.52],[-13.65,29.65],[-13.9,29.53],[-13.9,29.28],[-14.16,29.15],[-14.16,28.9],[-14.41,28.78],[-14.42,28.53],[-14.67,28.4],[-14.67,28.15],[-14.92,28.02],[-15.16,28.15],[-15.16,28.4],[-15.4,28.52],[-15.65,28.4],[-15.9,28.52],[-15.9,28.77],[-16.14,28.9],[-16.39,28.77],[-16.64,28.89],[-16.89,28.76],[-16.89,28.51],[-17.14,28.38],[-17.39,28.5],[-17.39,28.75],[-17.64,28.87],[-17.65,29.13],[-17.9,29.25],[-18.15,29.12],[-18.14,28.86],[-18.39,28.73],[-18.38,28.47],[-18.13,28.35],[-18.13,28.1],[-18.37,27.97],[-18.37,27.72],[-18.12,27.6],[-18.11,27.34],[-17.86,27.22],[-17.62,27.36],[-17.62,27.61],[-17.87,27.73],[-17.88,27.98],[-17.63,28.11],[-17.38,27.99],[-17.38,27.74],[-17.13,27.62],[-16.89,27.75]]],[[[143.78,56.73],[143.39,56.84],[143.01,56.72],[143.03,56.49],[143.42,56.38],[143.8,56.5],[143.78,56.73]]],[[[2.58,38.94],[2.86,39.03],[3.08,38.88],[3.36,38.96],[3.42,39.2],[3.71,39.29],[3.77,39.52],[4.06,39.61],[4.28,39.46],[4.57,39.54],[4.63,39.78],[4.41,39.93],[4.47,40.17],[4.25,40.32],[3.96,40.23],[3.73,40.38],[3.44,40.3],[3.38,40.06],[3.09,39.97],[2.87,40.12],[2.58,40.03],[2.53,39.8],[2.24,39.71],[2.19,39.47],[2.41,39.32],[2.35,39.09],[2.58,38.94]]],[[[150.54,62.52],[150.05,62.41],[150.0,62.17],[150.45,62.03],[150.93,62.13],[150.98,62.38],[151.48,62.48],[151.92,62.34],[151.86,62.09],[152.29,61.95],[152.23,61.7],[152.65,61.56],[152.58,61.32],[153.0,61.17],[153.48,61.27],[153.55,61.51],[153.13,61.66],[153.2,61.9],[153.7,61.99],[154.12,61.84],[154.61,61.93],[154.69,62.17],[154.27,62.33],[154.36,62.57],[154.87,62.66],[154.96,62.9],[154.53,63.06],[154.61,63.3],[154.17,63.45],[154.26,63.7],[154.79,63.79],[155.23,63.63],[155.77,63.72],[155.87,63.97],[155.42,64.12],[155.52,64.37],[155.07,64.53],[154.52,64.43],[154.06,64.59],[154.15,64.84],[153.68,64.99],[153.13,64.89],[152.65,65.04],[152.73,65.29],[152.24,65.44],[151.68,65.34],[151.19,65.49],[151.25,65.74],[150.74,65.88],[150.18,65.77],[150.13,65.52],[149.58,65.41],[149.53,65.16],[150.03,65.02],[149.98,64.77],[150.47,64.63],[150.42,64.38],[150.9,64.24],[150.84,63.99],[151.31,63.85],[151.25,63.6],[151.71,63.46],[151.65,63.21],[152.1,63.07],[152.04,62.82],[151.54,62.72],[151.09,62.87],[151.14,63.11],[150.69,63.25],[150.18,63.15],[150.14,62.9],[150.59,62.76],[150.54,62.52]],[[152.44,64.3],[152.51,64.55],[153.05,64.65],[153.52,64.49],[153.44,64.25],[152.9,64.15],[152.44,64.3]]],[[[60.11,74.91],[61.0,74.88],[61.53,75.06],[61.16,75.28],[60.24,75.32],[59.72,75.13],[60.11,74.91]]],[[[-159.25,59.77],[-159.21,59.56],[-158.8,59.48],[-158.43,59.62],[-158.03,59.55],[-157.65,59.68],[-157.25,59.61],[-156.87,59.74],[-156.9,59.96],[-157.3,60.04],[-157.33,60.25],[-157.75,60.33],[-158.13,60.19],[-158.55,60.27],[-158.92,60.13],[-158.88,59.91],[-159.25,59.77]]],[[[-30.99,39.07],[-30.73,39.22],[-30.78,39.48],[-31.09,39.57],[-31.14,39.82],[-31.45,39.91],[-31.71,39.75],[-31.66,39.5],[-31.35,39.41],[-31.3,39.16],[-30.99,39.07]]],[[[-25.92,37.62],[-25.88,37.36],[-25.59,37.25],[-25.56,37.0],[-25.27,36.89],[-25.24,36.63],[-24.95,36.52],[-24.69,36.67],[-24.71,36.92],[-25.0,37.03],[-25.03,37.29],[-24.77,37.44],[-24.79,37.69],[-25.09,37.8],[-25.12,38.06],[-25.41,38.17],[-25.68,38.02],[-25.98,38.13],[-26.24,37.98],[-26.21,37.72],[-25.92,37.62]]],[[[117.94,24.55],[117.91,24.33],[117.68,24.27],[117.65,24.04],[117.43,23.98],[117.39,23.75],[117.58,23.6],[117.8,23.67],[117.84,23.89],[118.06,23.95],[118.09,24.18],[118.31,24.24],[118.35,24.46],[118.16,24.62],[117.94,24.55]]],[[[1.74,38.67],[2.02,38.76],[2.07,39.0],[1.85,39.15],[1.91,39.38],[1.68,39.53],[1.4,39.44],[1.35,39.2],[1.07,39.11],[1.02,38.87],[1.24,38.73],[1.19,38.49],[1.41,38.35],[1.68,38.44],[1.74,38.67]]],[[[117.12,-35.11],[116.99,-34.92],[116.72,-34.89],[116.56,-35.06],[116.69,-35.25],[116.97,-35.27],[117.12,-35.11]]],[[[-170.36,66.02],[-169.78,65.98],[-169.37,66.16],[-169.53,66.39],[-170.12,66.43],[-170.29,66.66],[-170.89,66.71],[-171.08,66.94],[-171.69,66.98],[-171.88,67.21],[-172.5,67.25],[-172.92,67.06],[-173.53,67.09],[-173.94,66.9],[-174.56,66.93],[-174.78,67.16],[-174.38,67.35],[-174.61,67.58],[-175.25,67.61],[-175.65,67.41],[-175.41,67.19],[-175.8,66.99],[-175.56,66.77],[-174.95,66.74],[-174.72,66.51],[-175.11,66.32],[-174.89,66.09],[-174.29,66.07],[-173.91,66.26],[-173.31,66.22],[-172.91,66.41],[-173.11,66.64],[-172.71,66.83],[-172.1,66.79],[-171.91,66.56],[-171.31,66.52],[-171.12,66.3],[-170.53,66.25],[-170.36,66.02]]],[[[-172.54,64.06],[-172.17,64.25],[-172.35,64.47],[-171.98,64.65],[-172.16,64.88],[-171.77,65.06],[-171.95,65.29],[-171.57,65.47],[-170.99,65.43],[-170.6,65.61],[-170.77,65.84],[-171.35,65.88],[-171.75,65.7],[-172.33,65.74],[-172.71,65.55],[-172.53,65.33],[-172.91,65.14],[-172.72,64.91],[-173.09,64.73],[-172.9,64.5],[-173.27,64.32],[-173.08,64.09],[-172.54,64.06]]],[[[-19.68,63.76],[-19.61,63.99],[-19.99,64.12],[-20.44,64.02],[-20.82,64.15],[-21.27,64.05],[-21.66,64.18],[-22.11,64.07],[-22.51,64.2],[-22.95,64.09],[-23.0,63.86],[-22.6,63.73],[-22.16,63.84],[-21.77,63.72],[-21.33,63.82],[-20.94,63.69],[-20.5,63.79],[-20.13,63.67],[-20.19,63.44],[-19.82,63.31],[-19.39,63.41],[-19.02,63.28],[-18.59,63.37],[-18.23,63.24],[-17.8,63.33],[-17.71,63.56],[-17.27,63.65],[-17.18,63.87],[-17.54,64.01],[-17.98,63.92],[-18.35,64.05],[-18.79,63.96],[-18.87,63.73],[-19.31,63.63],[-19.68,63.76]]],[[[176.62,52.49],[176.4,52.69],[176.0,52.67],[175.83,52.47],[176.06,52.27],[176.46,52.28],[176.62,52.49]]],[[[-155.05,62.81],[-154.61,62.72],[-154.18,62.85],[-154.18,63.07],[-154.63,63.17],[-155.07,63.04],[-155.51,63.13],[-155.95,62.99],[-155.93,62.77],[-155.48,62.68],[-155.05,62.81]]],[[[-164.69,60.2],[-164.61,59.98],[-164.96,59.82],[-164.87,59.61],[-164.43,59.55],[-164.08,59.71],[-163.65,59.65],[-163.3,59.8],[-162.87,59.74],[-162.51,59.89],[-162.09,59.83],[-162.02,59.61],[-162.38,59.46],[-162.31,59.25],[-161.89,59.19],[-161.83,58.97],[-162.18,58.82],[-162.11,58.61],[-161.7,58.55],[-161.36,58.69],[-160.95,58.63],[-160.6,58.77],[-160.65,58.99],[-160.3,59.13],[-160.35,59.34],[-160.76,59.41],[-160.82,59.63],[-160.45,59.77],[-160.51,59.99],[-160.14,60.13],[-160.19,60.35],[-159.81,60.5],[-159.86,60.71],[-160.3,60.79],[-160.35,61.0],[-159.97,61.15],[-159.53,61.08],[-159.48,60.86],[-159.05,60.78],[-158.66,60.92],[-158.71,61.14],[-159.14,61.22],[-159.19,61.44],[-158.79,61.58],[-158.35,61.5],[-157.95,61.64],[-157.51,61.56],[-157.48,61.34],[-157.88,61.2],[-157.85,60.98],[-158.24,60.85],[-158.2,60.63],[-157.78,60.55],[-157.39,60.69],[-156.97,60.6],[-156.58,60.74],[-156.61,60.96],[-156.21,61.09],[-156.23,61.31],[-155.82,61.44],[-155.84,61.66],[-155.43,61.79],[-155.44,62.02],[-155.87,62.1],[-156.29,61.97],[-156.73,62.06],[-156.75,62.28],[-157.2,62.36],[-157.61,62.23],[-158.06,62.31],[-158.1,62.53],[-157.68,62.67],[-157.71,62.89],[-157.29,63.03],[-157.32,63.26],[-156.89,63.4],[-156.92,63.62],[-156.47,63.76],[-156.01,63.67],[-155.56,63.8],[-155.58,64.03],[-156.05,64.12],[-156.5,63.99],[-156.97,64.07],[-157.42,63.94],[-157.9,64.02],[-157.94,64.25],[-157.49,64.39],[-157.52,64.62],[-157.07,64.76],[-156.58,64.67],[-156.55,64.44],[-156.07,64.35],[-155.61,64.48],[-155.63,64.71],[-156.11,64.8],[-156.14,65.03],[-156.63,65.13],[-156.66,65.36],[-156.18,65.49],[-156.21,65.72],[-156.72,65.82],[-157.2,65.68],[-157.16,65.45],[-157.63,65.31],[-157.6,65.08],[-158.06,64.93],[-158.02,64.71],[-158.47,64.56],[-158.43,64.33],[-158.87,64.19],[-159.36,64.27],[-159.8,64.13],[-160.29,64.2],[-160.36,64.43],[-159.91,64.58],[-159.97,64.81],[-160.49,64.89],[-160.55,65.12],[-161.07,65.2],[-161.14,65.43],[-161.67,65.5],[-162.12,65.35],[-162.04,65.12],[-162.48,64.96],[-162.4,64.73],[-162.83,64.58],[-163.35,64.65],[-163.44,64.87],[-163.97,64.94],[-164.4,64.78],[-164.93,64.84],[-165.35,64.68],[-165.88,64.74],[-166.0,64.97],[-165.58,65.14],[-165.7,65.36],[-166.25,65.42],[-166.37,65.65],[-166.93,65.71],[-167.07,65.94],[-167.64,66.0],[-168.06,65.82],[-167.92,65.6],[-167.36,65.54],[-167.22,65.31],[-166.67,65.26],[-166.54,65.03],[-166.96,64.86],[-166.83,64.63],[-166.29,64.57],[-166.17,64.35],[-165.65,64.29],[-165.24,64.45],[-164.71,64.39],[-164.29,64.55],[-163.77,64.49],[-163.68,64.26],[-163.17,64.19],[-162.74,64.35],[-162.23,64.28],[-161.8,64.43],[-161.3,64.36],[-161.22,64.13],[-160.73,64.05],[-160.66,63.83],[-161.09,63.68],[-161.58,63.75],[-162.0,63.6],[-162.49,63.67],[-162.9,63.51],[-162.82,63.29],[-163.23,63.13],[-163.72,63.19],[-163.81,63.42],[-164.31,63.48],[-164.71,63.32],[-164.61,63.1],[-165.0,62.94],[-164.9,62.71],[-165.29,62.55],[-165.77,62.61],[-166.15,62.44],[-166.04,62.22],[-166.42,62.06],[-166.31,61.84],[-166.67,61.67],[-166.56,61.45],[-166.09,61.4],[-165.99,61.18],[-165.52,61.12],[-165.43,60.9],[-165.78,60.74],[-166.24,60.8],[-166.59,60.63],[-166.49,60.41],[-166.83,60.25],[-167.28,60.3],[-167.63,60.13],[-167.51,59.92],[-167.07,59.87],[-166.96,59.66],[-166.52,59.61],[-166.18,59.77],[-165.74,59.72],[-165.39,59.88],[-165.49,60.09],[-165.14,60.25],[-164.69,60.2]]],[[[131.12,37.54],[130.9,37.65],[130.7,37.53],[130.72,37.31],[130.93,37.21],[131.13,37.32],[131.12,37.54]]],[[[-14.48,64.38],[-14.02,64.46],[-13.9,64.68],[-13.44,64.76],[-13.32,64.98],[-13.66,65.12],[-14.13,65.05],[-14.24,64.82],[-14.71,64.75],[-14.82,64.52],[-15.28,64.44],[-15.63,64.58],[-16.08,64.5],[-16.19,64.27],[-16.64,64.19],[-16.73,63.96],[-16.38,63.83],[-15.94,63.91],[-15.84,64.14],[-15.38,64.22],[-15.04,64.08],[-14.59,64.16],[-14.48,64.38]]],[[[-162.66,66.74],[-162.56,66.51],[-162.01,66.43],[-161.92,66.2],[-162.38,66.04],[-162.29,65.81],[-161.75,65.73],[-161.3,65.89],[-161.37,66.12],[-160.9,66.28],[-160.36,66.19],[-159.88,66.34],[-159.95,66.58],[-160.5,66.66],[-160.57,66.89],[-161.13,66.97],[-161.21,67.21],[-161.79,67.29],[-162.27,67.13],[-162.85,67.21],[-162.95,67.44],[-163.54,67.51],[-164.02,67.35],[-163.91,67.12],[-163.33,67.05],[-163.23,66.81],[-162.66,66.74]]],[[[180.0,52.34],[179.62,52.34],[179.44,52.14],[179.05,52.14],[178.83,52.34],[178.44,52.33],[178.26,52.13],[177.87,52.12],[177.64,52.32],[177.25,52.31],[177.08,52.1],[177.3,51.9],[177.13,51.69],[177.36,51.5],[177.75,51.5],[177.92,51.71],[178.31,51.72],[178.53,51.52],[178.92,51.53],[179.13,51.32],[179.52,51.33],[179.69,51.53],[179.48,51.73],[179.66,51.94],[180.0,51.94],[180.0,52.34]]],[[[-180.0,51.94],[-179.77,52.14],[-179.99,52.35],[-180.0,51.94]]],[[[-15.2,25.15],[-14.97,25.03],[-14.97,24.78],[-14.74,24.66],[-14.5,24.79],[-14.5,25.03],[-14.73,25.16],[-14.72,25.4],[-14.48,25.53],[-14.48,25.78],[-14.24,25.9],[-14.23,26.15],[-13.99,26.28],[-13.98,26.52],[-14.22,26.65],[-14.46,26.52],[-14.47,26.27],[-14.71,26.15],[-14.72,25.9],[-14.96,25.77],[-14.96,25.53],[-15.2,25.4],[-15.2,25.15]]],[[[-159.89,59.06],[-159.84,58.85],[-159.44,58.78],[-159.08,58.92],[-159.13,59.13],[-159.53,59.2],[-159.89,59.06]]],[[[-170.97,63.32],[-170.45,63.28],[-170.3,63.06],[-169.78,63.02],[-169.41,63.19],[-168.9,63.15],[-168.53,63.32],[-168.66,63.54],[-169.18,63.59],[-169.56,63.41],[-170.08,63.46],[-170.23,63.68],[-170.76,63.72],[-170.92,63.95],[-171.46,63.99],[-171.83,63.8],[-171.66,63.58],[-172.02,63.4],[-171.85,63.18],[-171.33,63.14],[-170.97,63.32]]],[[[-6.38,59.26],[-6.43,59.06],[-6.08,58.91],[-5.69,58.97],[-5.65,59.18],[-5.99,59.32],[-6.38,59.26]]],[[[54.75,74.26],[54.33,74.07],[53.49,74.08],[53.1,73.88],[53.54,73.68],[53.16,73.49],[53.58,73.29],[54.38,73.27],[54.78,73.46],[54.36,73.67],[54.76,73.86],[55.59,73.84],[56.02,74.03],[55.6,74.24],[56.04,74.43],[56.9,74.41],[57.36,74.6],[56.94,74.81],[57.42,75.0],[56.99,75.22],[56.08,75.24],[55.62,75.05],[56.06,74.83],[55.61,74.64],[54.73,74.66],[54.31,74.47],[54.75,74.26]]],[[[152.62,46.97],[152.95,47.06],[153.02,47.3],[153.36,47.39],[153.43,47.62],[153.17,47.78],[153.24,48.01],[153.58,48.1],[153.65,48.34],[153.38,48.49],[153.04,48.4],[152.97,48.16],[152.63,48.08],[152.56,47.84],[152.23,47.75],[152.16,47.51],[151.83,47.42],[151.76,47.18],[151.43,47.09],[151.37,46.85],[151.63,46.71],[151.96,46.8],[152.22,46.65],[152.55,46.73],[152.62,46.97]]],[[[-19.0,65.82],[-18.6,65.69],[-18.12,65.78],[-17.74,65.64],[-17.26,65.73],[-17.16,65.96],[-17.55,66.1],[-18.03,66.01],[-18.43,66.14],[-18.92,66.05],[-19.32,66.19],[-19.81,66.09],[-19.88,65.86],[-19.48,65.73],[-19.0,65.82]]],[[[116.01,-33.42],[115.89,-33.23],[116.04,-33.08],[115.92,-32.89],[116.07,-32.73],[115.95,-32.55],[116.1,-32.39],[115.98,-32.21],[116.13,-32.05],[116.01,-31.87],[115.75,-31.85],[115.6,-32.0],[115.72,-32.18],[115.57,-32.34],[115.69,-32.52],[115.54,-32.68],[115.65,-32.87],[115.5,-33.02],[115.62,-33.21],[115.47,-33.37],[115.2,-33.34],[115.05,-33.5],[114.78,-33.47],[114.62,-33.63],[114.74,-33.82],[114.58,-33.98],[114.7,-34.17],[114.97,-34.2],[115.09,-34.39],[115.36,-34.42],[115.48,-34.61],[115.76,-34.63],[115.92,-34.47],[115.79,-34.28],[115.52,-34.25],[115.4,-34.06],[115.13,-34.04],[115.01,-33.85],[115.16,-33.69],[115.44,-33.72],[115.59,-33.56],[115.86,-33.58],[116.01,-33.42]]],[[[-15.93,23.54],[-15.69,23.66],[-15.69,23.91],[-15.45,24.04],[-15.45,24.28],[-15.69,24.4],[-15.92,24.27],[-15.92,24.03],[-16.16,23.9],[-16.16,23.65],[-15.93,23.54]]],[[[113.35,22.68],[113.32,22.45],[113.52,22.3],[113.75,22.37],[113.94,22.22],[114.17,22.29],[114.2,22.53],[114.01,22.68],[113.78,22.6],[113.58,22.76],[113.35,22.68]]],[[[-7.06,61.5],[-7.1,61.3],[-6.74,61.16],[-6.33,61.22],[-6.28,61.42],[-6.65,61.56],[-6.6,61.76],[-6.19,61.82],[-6.14,62.01],[-5.72,62.07],[-5.67,62.26],[-6.04,62.4],[-5.99,62.6],[-6.37,62.74],[-6.79,62.68],[-6.84,62.49],[-7.26,62.43],[-7.3,62.23],[-7.72,62.17],[-7.76,61.97],[-7.39,61.84],[-7.43,61.64],[-7.06,61.5]]],[[[115.57,22.97],[115.38,23.12],[115.15,23.05],[115.12,22.82],[115.31,22.67],[115.54,22.74],[115.73,22.59],[115.95,22.66],[115.99,22.89],[115.79,23.04],[115.57,22.97]]],[[[12.33,35.77],[12.25,35.53],[12.46,35.35],[12.75,35.42],[12.84,35.66],[13.14,35.72],[13.23,35.96],[13.02,36.14],[12.72,36.08],[12.63,35.84],[12.33,35.77]]],[[[76.43,34.32],[76.68,34.46],[76.66,34.71],[76.38,34.81],[76.13,34.67],[76.15,34.42],[76.43,34.32]]],[[[82.9,73.34],[83.62,73.46],[83.6,73.7],[82.85,73.83],[82.12,73.71],[82.15,73.46],[82.9,73.34]]],[[[14.65,36.03],[14.44,36.21],[14.13,36.15],[14.04,35.91],[14.25,35.73],[14.56,35.79],[14.65,36.03]]],[[[116.96,25.11],[117.19,25.18],[117.22,25.4],[117.03,25.55],[116.8,25.49],[116.77,25.27],[116.96,25.11]]],[[[112.97,55.33],[112.78,55.14],[112.37,55.15],[112.18,54.96],[112.39,54.77],[112.8,54.76],[112.99,54.95],[113.4,54.94],[113.6,55.13],[114.01,55.12],[114.21,55.3],[114.0,55.5],[113.59,55.51],[113.39,55.32],[112.97,55.33]]],[[[78.5,30.93],[78.48,31.17],[78.22,31.27],[77.98,31.14],[78.0,30.9],[78.26,30.79],[78.5,30.93]]],[[[154.8,65.17],[154.71,64.93],[155.17,64.77],[155.73,64.86],[155.83,65.11],[155.37,65.26],[154.8,65.17]]],[[[168.11,54.57],[168.53,54.61],[168.67,54.82],[168.41,55.0],[167.99,54.96],[167.72,55.13],[167.3,55.09],[167.03,55.26],[166.61,55.22],[166.34,55.39],[166.48,55.6],[166.21,55.77],[165.79,55.72],[165.64,55.51],[165.92,55.34],[165.78,55.12],[166.06,54.96],[165.92,54.74],[166.2,54.57],[166.61,54.62],[166.88,54.44],[167.29,54.49],[167.56,54.31],[167.97,54.36],[168.11,54.57]]],[[[59.98,74.51],[59.6,74.73],[58.72,74.76],[58.23,74.57],[58.62,74.36],[59.48,74.33],[59.98,74.51]]],[[[-173.85,64.98],[-174.42,65.01],[-174.78,64.82],[-174.57,64.6],[-174.01,64.57],[-173.65,64.76],[-173.85,64.98]]],[[[48.98,69.67],[48.61,69.48],[47.98,69.47],[47.62,69.28],[47.9,69.1],[47.54,68.91],[47.81,68.72],[48.43,68.72],[48.69,68.53],[49.3,68.53],[49.66,68.72],[50.28,68.72],[50.65,68.91],[50.4,69.1],[50.78,69.29],[50.52,69.48],[49.89,69.48],[49.62,69.67],[48.98,69.67]]],[[[101.5,67.37],[102.13,67.41],[102.32,67.64],[102.95,67.68],[103.16,67.91],[102.73,68.1],[102.09,68.06],[101.89,67.83],[101.26,67.78],[101.07,67.55],[101.5,67.37]]],[[[116.73,23.55],[116.5,23.48],[116.47,23.25],[116.24,23.18],[116.21,22.96],[116.4,22.8],[116.63,22.87],[116.66,23.1],[116.88,23.17],[116.92,23.39],[116.73,23.55]]],[[[-161.56,55.37],[-161.92,55.43],[-162.23,55.28],[-162.17,55.08],[-161.81,55.03],[-161.51,55.17],[-161.56,55.37]]],[[[-170.49,57.23],[-170.37,57.02],[-169.96,56.99],[-169.66,57.16],[-169.78,57.36],[-170.2,57.4],[-170.49,57.23]]],[[[172.8,52.52],[173.04,52.33],[173.44,52.35],[173.68,52.16],[174.07,52.18],[174.24,52.4],[174.0,52.59],[174.16,52.8],[173.92,52.99],[173.52,52.97],[173.27,53.16],[172.87,53.13],[172.62,53.32],[172.22,53.29],[172.06,53.08],[172.31,52.89],[172.15,52.68],[172.4,52.49],[172.8,52.52]]],[[[-162.84,55.0],[-162.9,55.2],[-163.27,55.25],[-163.57,55.1],[-163.94,55.15],[-164.16,54.99],[-164.53,55.04],[-164.75,54.88],[-164.6,54.67],[-164.24,54.62],[-164.01,54.78],[-163.65,54.73],[-163.43,54.89],[-163.06,54.84],[-162.84,55.0]]],[[[-14.35,65.41],[-13.88,65.49],[-13.75,65.71],[-14.11,65.86],[-14.59,65.78],[-14.95,65.92],[-14.83,66.15],[-15.21,66.29],[-15.7,66.21],[-15.81,65.98],[-15.44,65.84],[-15.55,65.62],[-15.19,65.48],[-14.71,65.56],[-14.35,65.41]]],[[[114.89,22.75],[114.69,22.9],[114.47,22.83],[114.43,22.6],[114.63,22.45],[114.86,22.52],[114.89,22.75]]],[[[155.9,62.83],[156.42,62.92],[156.52,63.16],[156.1,63.32],[155.57,63.23],[155.47,62.99],[155.9,62.83]]],[[[84.36,28.36],[84.37,28.59],[84.13,28.7],[83.89,28.58],[83.89,28.35],[84.12,28.24],[84.36,28.36]]],[[[12.07,36.61],[12.37,36.67],[12.46,36.91],[12.25,37.09],[11.94,37.02],[11.86,36.78],[12.07,36.61]]],[[[-164.73,66.56],[-165.3,66.62],[-165.75,66.45],[-166.33,66.52],[-166.77,66.34],[-166.63,66.11],[-166.07,66.05],[-165.63,66.22],[-165.06,66.16],[-164.61,66.32],[-164.05,66.26],[-163.59,66.42],[-163.69,66.65],[-164.27,66.72],[-164.73,66.56]]],[[[-173.21,60.6],[-173.05,60.39],[-173.36,60.2],[-173.2,59.99],[-172.73,59.96],[-172.42,60.14],[-171.95,60.11],[-171.64,60.29],[-171.78,60.5],[-172.26,60.54],[-172.41,60.75],[-172.89,60.78],[-173.05,60.99],[-173.53,61.02],[-173.85,60.84],[-173.68,60.63],[-173.21,60.6]]],[[[98.99,31.58],[98.76,31.71],[98.51,31.62],[98.49,31.4],[98.72,31.27],[98.97,31.36],[98.99,31.58]]],[[[89.12,29.31],[88.89,29.43],[88.64,29.32],[88.63,29.09],[88.86,28.97],[89.1,29.08],[89.12,29.31]]],[[[-21.84,65.23],[-21.79,65.46],[-22.21,65.59],[-22.68,65.49],[-22.73,65.25],[-23.19,65.14],[-23.23,64.91],[-22.82,64.79],[-22.36,64.89],[-22.31,65.13],[-21.84,65.23]]],[[[80.0,73.33],[80.06,73.09],[80.8,72.97],[81.49,73.1],[81.44,73.34],[80.69,73.46],[80.0,73.33]]],[[[-8.13,57.95],[-8.09,58.16],[-8.44,58.3],[-8.82,58.23],[-8.86,58.02],[-9.24,57.95],[-9.27,57.73],[-8.92,57.6],[-8.54,57.67],[-8.51,57.88],[-8.13,57.95]]],[[[118.6,57.06],[118.16,57.08],[117.92,56.9],[118.11,56.69],[118.55,56.67],[118.79,56.85],[118.6,57.06]]],[[[85.05,28.04],[85.28,27.93],[85.52,28.04],[85.53,28.27],[85.3,28.38],[85.06,28.27],[85.05,28.04]]],[[[-170.01,56.41],[-169.61,56.38],[-169.32,56.54],[-169.43,56.75],[-169.84,56.78],[-170.13,56.62],[-170.01,56.41]]]]}}]}