{"type":"FeatureCollection","features":[{"type":"Feature","properties":{},"geometry":{"type":"MultiPolygon","coordinates":[[[[156.82,61.64],[153.14,60.07],[145.33,60.78],[144.04,59.93],[142.67,60.76],[140.61,59.85],[139.39,57.42],[136.6,56.09],[136.13,56.4],[136.98,57.52],[138.13,57.71],[136.35,58.31],[136.06,59.25],[137.07,60.16],[135.65,61.78],[136.66,62.97],[127.8,63.79],[125.57,64.66],[124.28,63.69],[128.82,63.01],[129.4,62.07],[127.95,61.38],[125.74,61.84],[126.4,60.92],[129.23,60.79],[127.17,59.77],[129.2,59.3],[128.34,58.57],[132.53,58.58],[133.35,57.58],[134.4,58.04],[134.73,57.11],[133.11,57.2],[133.47,56.29],[135.19,55.74],[132.24,54.65],[122.6,56.16],[119.23,55.45],[118.25,54.36],[117.75,55.35],[116.08,55.43],[110.73,53.47],[110.47,54.03],[111.22,54.4],[110.03,54.4],[109.69,55.34],[110.46,55.73],[108.7,55.14],[108.24,56.46],[111.93,58.05],[112.52,59.44],[110.48,58.84],[106.44,59.34],[106.37,58.74],[104.58,58.65],[104.93,59.67],[103.7,60.4],[97.56,60.22],[93.68,61.16],[90.89,60.21],[89.94,61.83],[84.12,60.57],[81.05,61.46],[67.14,61.18],[60.32,60.31],[59.72,59.08],[58.61,58.76],[56.45,60.02],[53.8,59.35],[48.29,59.97],[43.68,59.55],[43.47,60.16],[41.67,59.7],[39.38,60.81],[36.92,60.85],[36.73,62.04],[35.68,62.74],[32.04,61.79],[30.23,62.56],[29.81,63.68],[28.94,62.98],[27.06,65.06],[27.79,65.55],[24.01,67.67],[20.57,66.45],[20.51,65.26],[19.56,64.66],[18.18,64.95],[18.72,64.28],[18.22,63.76],[15.24,64.43],[13.33,63.57],[14.46,62.94],[13.36,62.02],[9.62,61.63],[8.56,61.13],[8.54,59.81],[7.44,59.77],[6.52,60.08],[7.87,61.22],[6.84,62.06],[11.86,63.22],[13.18,64.27],[12.56,65.11],[13.8,66.06],[13.08,66.48],[13.62,67.04],[19.31,69.19],[18.59,69.66],[23.88,70.0],[23.25,70.51],[30.63,70.52],[27.75,70.37],[27.17,70.09],[27.68,69.58],[26.08,68.96],[26.59,68.65],[31.25,68.3],[34.06,69.15],[40.36,67.92],[40.46,66.4],[31.69,67.21],[32.9,65.99],[34.4,66.14],[34.59,64.42],[36.47,63.6],[38.61,63.95],[36.96,65.01],[39.8,64.61],[40.8,65.05],[39.98,65.6],[42.37,66.29],[44.53,65.97],[44.9,66.95],[48.0,66.8],[49.44,67.96],[60.68,68.53],[61.41,69.07],[60.41,69.53],[61.57,70.03],[57.92,70.43],[55.56,71.87],[57.11,72.61],[56.78,73.22],[54.43,72.49],[54.47,71.71],[55.91,71.28],[55.54,70.71],[52.36,71.36],[52.22,72.13],[53.67,72.5],[53.21,73.09],[56.02,74.03],[55.62,75.05],[58.91,75.57],[57.54,75.81],[54.25,75.27],[54.75,74.26],[50.12,71.75],[59.48,69.77],[56.92,68.75],[52.68,69.26],[46.79,68.14],[45.7,68.88],[45.81,69.63],[47.03,70.02],[46.43,70.58],[47.6,70.97],[47.07,72.11],[41.96,73.91],[21.06,74.2],[18.55,74.92],[12.68,74.05],[2.39,75.48],[-3.06,74.95],[-10.32,71.76],[-10.3,71.16],[-13.0,69.87],[-13.37,68.6],[-14.59,68.23],[-14.07,67.49],[-14.59,66.59],[-18.15,66.83],[-19.81,66.09],[-23.36,66.67],[-25.41,65.29],[-20.32,62.98],[-13.44,64.76],[-11.04,63.38],[-9.78,62.05],[-10.26,61.58],[-8.41,60.71],[-8.86,58.02],[-12.05,55.65],[-15.32,54.35],[-15.34,53.44],[-18.75,51.42],[-23.38,50.16],[-19.84,46.6],[-20.12,45.98],[-16.08,44.36],[-14.32,42.82],[-14.72,38.43],[-14.21,36.89],[-16.39,33.09],[-17.7,32.95],[-16.65,32.19],[-15.61,32.96],[-15.89,29.28],[-17.14,28.38],[-18.15,29.12],[-18.37,27.72],[-17.86,27.22],[-17.63,28.11],[-14.19,27.65],[-13.18,28.89],[-11.21,29.11],[-13.45,28.02],[-13.49,27.02],[-14.21,26.9],[-14.97,24.78],[-17.32,22.03],[-17.54,20.69],[-16.62,20.24],[-16.18,17.89],[-16.61,15.79],[-17.68,14.72],[-16.4,10.82],[-13.99,9.89],[-12.91,7.3],[-10.18,5.61],[-12.68,8.21],[-12.22,9.66],[-13.6,9.7],[-12.33,11.65],[-10.23,10.37],[-2.14,9.11],[-1.94,8.01],[0.21,7.34],[0.19,8.3],[1.36,9.33],[2.11,7.17],[0.46,6.64],[0.08,5.63],[-2.06,5.02],[-5.15,5.69],[-7.58,4.36],[-8.45,4.59],[-7.79,4.08],[-5.22,5.13],[-1.4,4.61],[2.71,6.34],[4.81,5.99],[5.81,3.92],[7.93,4.29],[8.03,2.4],[9.23,0.63],[8.54,-1.26],[12.01,-5.34],[13.3,-8.38],[12.5,-9.1],[13.58,-12.23],[14.85,-9.52],[12.16,-4.07],[9.98,-2.69],[10.64,-0.37],[9.7,2.07],[10.4,3.54],[9.89,4.61],[9.37,3.96],[8.45,5.13],[9.34,6.04],[8.85,6.54],[11.75,8.43],[13.43,7.53],[11.72,7.63],[11.76,7.05],[9.62,6.29],[10.31,5.06],[10.95,6.52],[11.92,6.88],[15.58,6.11],[15.87,6.94],[14.52,7.51],[14.73,8.15],[20.42,5.68],[22.47,5.77],[22.71,4.81],[26.13,3.24],[27.64,1.35],[27.66,0.29],[26.91,0.19],[27.58,-1.0],[27.08,-3.89],[27.82,-5.55],[28.58,-5.45],[28.44,-8.14],[27.76,-8.01],[21.95,-12.97],[19.33,-12.8],[19.13,-12.16],[17.39,-12.77],[17.13,-11.26],[15.7,-10.74],[15.67,-11.83],[14.57,-12.15],[14.67,-13.45],[13.03,-14.87],[13.48,-15.92],[12.34,-17.27],[12.48,-14.04],[13.61,-12.66],[12.85,-12.29],[10.61,-19.26],[8.25,-20.57],[7.44,-21.98],[4.12,-22.65],[2.34,-25.29],[4.06,-29.0],[6.01,-29.9],[7.45,-31.62],[12.69,-34.44],[15.96,-35.24],[17.18,-36.99],[19.45,-38.16],[26.16,-39.3],[30.01,-38.96],[34.17,-37.32],[38.35,-33.55],[35.33,-25.82],[36.05,-22.23],[35.14,-20.17],[37.29,-17.8],[40.48,-16.32],[41.16,-15.08],[41.09,-10.65],[40.02,-9.72],[40.2,-7.92],[39.47,-6.72],[39.82,-4.47],[40.39,-2.87],[43.68,0.78],[48.58,4.61],[51.59,10.43],[51.36,12.22],[44.34,10.46],[43.71,12.32],[52.27,15.2],[53.47,16.71],[56.65,17.3],[56.06,17.79],[58.27,18.96],[58.07,20.08],[59.43,20.46],[59.05,20.92],[60.12,22.89],[64.6,21.28],[67.0,21.32],[70.05,18.97],[72.77,17.98],[76.09,8.82],[77.9,7.91],[78.74,9.12],[79.78,8.96],[79.52,6.87],[80.73,5.58],[82.26,7.37],[80.02,10.57],[79.85,11.93],[80.73,13.16],[80.37,15.64],[81.0,15.26],[82.78,16.49],[82.58,17.11],[86.72,19.79],[87.25,21.26],[91.67,21.5],[94.42,17.47],[93.83,15.72],[95.43,15.49],[96.91,16.66],[97.97,15.43],[96.97,17.42],[95.01,16.03],[95.99,16.73],[96.37,18.61],[97.92,17.6],[98.84,14.85],[99.57,17.84],[101.53,16.52],[101.75,18.77],[105.18,18.52],[104.36,19.37],[105.08,19.66],[105.05,21.52],[107.8,21.4],[105.56,19.85],[105.85,18.32],[106.01,19.79],[107.24,20.5],[107.87,20.04],[108.49,21.43],[109.94,20.36],[109.14,19.37],[110.98,19.83],[109.23,18.24],[108.25,19.5],[109.4,17.85],[111.65,19.85],[110.9,20.94],[112.1,21.59],[115.7,22.36],[116.87,21.65],[119.47,22.3],[121.47,21.74],[121.16,22.44],[125.01,23.69],[131.8,28.7],[135.12,29.01],[139.19,30.89],[141.78,33.1],[143.17,35.48],[142.87,37.19],[141.74,38.11],[142.4,39.75],[141.37,42.3],[143.14,41.87],[145.95,42.9],[147.68,44.85],[151.18,46.14],[150.78,46.91],[144.8,44.3],[142.23,45.59],[143.97,46.25],[142.83,48.28],[143.8,49.08],[144.55,48.24],[145.2,48.69],[143.33,51.98],[146.77,54.44],[146.51,57.09],[144.07,59.21],[154.9,58.86],[155.97,59.5],[154.84,59.95],[158.21,61.64],[159.48,61.39],[160.2,60.19],[161.65,60.39],[157.5,58.04],[156.27,58.03],[156.45,57.42],[155.51,57.03],[155.05,54.39],[156.4,52.39],[155.85,51.85],[156.32,51.32],[155.23,51.08],[154.22,49.13],[153.26,49.11],[154.07,48.66],[158.93,51.84],[160.49,54.39],[162.26,54.26],[162.75,55.14],[161.88,55.62],[163.54,55.85],[164.08,56.73],[163.05,57.0],[163.76,57.51],[162.65,58.4],[168.53,60.46],[170.88,60.0],[168.92,60.91],[164.13,60.05],[165.1,61.42],[164.58,62.01],[165.45,62.52],[164.21,62.83],[161.08,60.96],[160.22,61.06],[161.03,62.47],[156.82,61.64]],[[7.54,6.3],[7.32,5.5],[6.84,5.98],[7.09,7.77],[7.86,7.53],[7.54,6.3]],[[40.94,16.1],[40.45,17.3],[40.94,18.15],[41.92,17.79],[41.19,16.93],[42.02,14.75],[42.72,14.8],[42.59,13.8],[40.95,14.88],[40.94,16.1]],[[101.36,33.02],[102.21,29.92],[101.83,28.7],[100.95,29.48],[100.33,28.16],[99.24,29.29],[99.17,28.61],[98.49,29.01],[97.69,28.26],[94.97,30.27],[92.09,27.51],[89.75,28.04],[86.89,27.59],[85.08,28.72],[83.19,28.68],[82.47,29.93],[80.02,30.3],[78.73,31.3],[78.94,31.92],[76.59,32.61],[76.79,33.24],[75.38,34.24],[76.68,34.46],[76.59,35.45],[73.42,36.82],[73.06,35.52],[72.32,36.71],[70.92,35.29],[70.25,35.97],[71.78,36.65],[72.16,39.37],[74.74,39.48],[75.73,38.41],[74.94,37.96],[75.29,37.36],[80.05,36.01],[89.02,38.37],[93.41,36.18],[97.8,35.78],[99.66,36.39],[100.4,34.76],[101.64,35.76],[102.12,33.27],[101.36,33.02]],[[21.27,15.89],[19.77,18.93],[18.27,18.9],[18.01,18.2],[15.49,18.63],[13.72,17.63],[11.16,19.3],[10.12,17.32],[8.83,16.82],[7.81,17.24],[7.81,18.98],[6.52,20.21],[3.29,19.8],[2.18,18.63],[1.49,20.6],[3.85,22.37],[4.22,24.03],[3.59,24.3],[4.19,24.92],[5.94,22.49],[7.43,23.77],[8.13,22.83],[8.14,24.62],[10.32,23.8],[9.38,25.6],[10.05,26.22],[11.63,25.67],[12.95,26.64],[13.72,25.9],[16.0,27.25],[17.69,26.89],[17.97,27.61],[19.67,26.54],[26.14,26.09],[27.73,24.92],[27.07,22.39],[27.24,21.08],[28.26,20.54],[27.46,19.35],[28.15,18.12],[27.3,17.37],[27.93,16.59],[27.77,13.59],[23.57,11.57],[20.72,13.87],[21.27,15.89]],[[160.02,54.92],[160.64,55.43],[160.24,56.19],[160.97,56.09],[161.24,55.12],[160.02,54.92]],[[95.15,38.57],[94.78,39.34],[95.92,39.72],[98.97,39.36],[101.2,37.48],[96.18,37.38],[94.59,38.38],[95.15,38.57]],[[20.92,-23.87],[21.24,-24.27],[19.76,-25.65],[19.27,-28.6],[18.18,-28.65],[17.84,-26.8],[17.16,-28.07],[15.85,-27.08],[15.54,-22.26],[14.98,-21.85],[16.13,-21.58],[16.73,-22.41],[16.48,-23.91],[19.47,-23.11],[20.92,-23.87]],[[120.04,27.2],[118.92,25.46],[117.12,24.73],[117.24,24.13],[116.51,24.98],[115.41,24.86],[117.21,28.09],[120.62,29.38],[121.09,28.44],[120.04,27.2]],[[19.38,-31.84],[19.67,-30.83],[17.97,-30.49],[17.83,-29.28],[20.1,-28.56],[20.75,-29.35],[21.81,-28.87],[22.97,-30.24],[23.31,-29.6],[24.21,-29.94],[21.44,-32.55],[19.38,-31.84]],[[40.06,-16.18],[36.06,-18.46],[36.2,-16.2],[37.68,-15.5],[37.01,-14.72],[37.79,-13.91],[36.86,-13.85],[37.64,-13.04],[40.33,-12.79],[40.74,-14.94],[40.06,-16.18]],[[2.6,7.66],[3.49,9.01],[6.16,8.18],[6.55,7.28],[5.0,6.79],[2.6,7.66]],[[34.05,61.8],[34.58,61.45],[33.28,61.33],[34.05,61.8]],[[35.15,-22.6],[35.11,-23.92],[34.35,-22.73],[34.58,-20.93],[35.15,-22.6]],[[138.54,46.31],[140.93,49.1],[140.75,51.26],[142.06,51.3],[141.48,50.64],[141.84,47.01],[140.91,45.97],[141.69,45.6],[140.87,45.5],[141.25,43.85],[139.35,42.36],[140.08,41.99],[139.3,41.66],[140.03,41.28],[139.41,39.18],[136.83,40.06],[136.38,41.45],[137.4,43.53],[136.94,45.14],[138.54,46.31]],[[157.94,56.21],[160.05,57.4],[160.66,59.4],[163.31,60.17],[160.72,57.92],[160.46,56.63],[157.72,54.72],[158.7,53.67],[156.67,53.9],[157.49,55.09],[157.02,55.83],[157.94,56.21]],[[28.85,70.11],[29.35,69.79],[28.26,69.84],[28.85,70.11]],[[101.62,51.95],[99.76,51.39],[98.47,52.46],[99.0,53.01],[95.89,54.18],[99.81,53.38],[99.75,52.26],[100.64,52.86],[101.62,51.95]],[[109.82,21.23],[110.73,21.33],[110.2,20.68],[109.82,21.23]],[[103.0,32.52],[103.1,31.29],[102.14,31.4],[103.0,32.52]],[[134.78,52.52],[134.12,52.46],[134.66,53.97],[135.32,53.01],[134.78,52.52]],[[23.25,-29.19],[22.75,-28.6],[24.04,-28.71],[23.25,-29.19]],[[30.89,69.39],[32.45,69.18],[31.09,68.66],[30.29,69.13],[30.89,69.39]],[[118.69,30.46],[119.54,30.46],[118.66,29.07],[118.06,29.32],[118.69,30.46]],[[149.94,59.14],[149.58,59.51],[150.42,59.48],[149.94,59.14]],[[80.96,42.6],[81.26,42.22],[79.8,41.8],[80.96,42.6]],[[45.65,68.5],[45.87,67.93],[44.7,67.9],[45.65,68.5]]],[[[145.0,13.11],[145.23,14.33],[144.41,13.61],[145.0,13.11]]],[[[-174.74,52.44],[-178.6,52.14],[-179.32,51.33],[-173.04,51.75],[-174.74,52.44]]],[[[122.35,-18.29],[122.3,-17.32],[123.02,-16.73],[123.72,-17.54],[123.71,-16.34],[124.6,-16.09],[125.52,-14.38],[127.09,-13.91],[128.0,-14.9],[129.76,-14.79],[129.72,-13.74],[129.11,-14.78],[127.78,-13.71],[125.63,-13.72],[124.04,-15.64],[123.01,-15.51],[122.01,-16.6],[122.16,-18.14],[120.68,-19.66],[118.69,-19.56],[118.8,-20.1],[116.62,-20.2],[115.94,-20.89],[115.29,-20.11],[115.32,-21.2],[113.71,-21.86],[114.56,-22.4],[116.53,-20.77],[120.83,-20.01],[122.35,-18.29]]],[[[130.69,-66.46],[129.93,-66.07],[128.4,-67.05],[125.34,-66.1],[118.47,-67.08],[120.41,-67.52],[126.05,-66.51],[128.54,-67.48],[130.69,-66.46]]],[[[39.23,-68.84],[38.57,-69.58],[36.3,-69.69],[34.14,-68.7],[31.92,-68.75],[35.26,-69.96],[39.03,-70.27],[40.01,-69.15],[42.85,-68.47],[39.23,-68.84]]],[[[150.97,-21.72],[147.02,-18.94],[146.28,-16.83],[144.52,-15.78],[143.95,-16.4],[145.0,-17.73],[144.67,-18.28],[146.02,-18.22],[145.84,-19.16],[149.29,-21.91],[149.67,-24.07],[147.53,-23.94],[147.44,-23.05],[145.96,-23.35],[145.93,-24.73],[144.9,-25.08],[145.16,-26.14],[144.53,-26.81],[139.67,-27.62],[138.18,-30.27],[136.68,-31.1],[134.42,-31.85],[131.17,-31.25],[125.82,-32.02],[123.61,-32.76],[123.6,-33.77],[119.61,-33.84],[117.14,-34.75],[115.92,-32.89],[116.53,-31.92],[116.89,-32.46],[117.32,-31.99],[115.44,-30.98],[115.25,-29.16],[114.23,-28.25],[114.71,-30.57],[111.36,-31.85],[110.57,-33.15],[113.42,-37.33],[120.01,-40.68],[134.71,-41.47],[148.0,-44.06],[152.8,-42.9],[160.63,-43.0],[163.03,-41.75],[168.52,-41.7],[171.52,-40.62],[172.15,-41.31],[170.62,-42.93],[167.22,-44.37],[166.08,-45.9],[167.71,-47.65],[171.26,-46.18],[170.9,-45.6],[171.65,-44.44],[173.07,-44.18],[172.95,-43.22],[174.4,-41.59],[175.81,-41.8],[176.99,-40.79],[178.94,-37.33],[176.69,-37.5],[176.72,-36.14],[175.16,-35.81],[173.18,-34.12],[172.44,-34.3],[172.52,-35.05],[169.38,-34.49],[167.48,-32.66],[157.14,-27.77],[155.88,-27.81],[153.53,-26.36],[153.72,-24.6],[151.77,-22.79],[151.02,-23.09],[150.97,-21.72]]],[[[137.9,-15.99],[135.97,-14.52],[137.11,-14.36],[137.08,-13.29],[136.42,-13.3],[135.42,-15.12],[139.33,-17.58],[140.82,-17.71],[142.25,-11.7],[141.26,-12.28],[141.57,-14.1],[140.69,-17.33],[139.86,-17.2],[139.85,-16.17],[138.63,-16.79],[137.9,-15.99]]],[[[112.61,-3.18],[110.43,-2.69],[110.38,-1.37],[108.82,-0.52],[108.46,-1.84],[109.89,-2.06],[109.78,-3.01],[111.4,-3.11],[111.91,-3.97],[113.55,-3.59],[112.61,-3.18]]],[[[100.05,7.78],[101.06,6.54],[101.76,6.86],[100.92,7.45],[99.66,11.04],[100.51,12.9],[102.64,11.41],[102.73,9.99],[103.64,10.16],[103.31,9.04],[104.25,9.46],[105.26,8.46],[105.77,9.18],[104.87,9.01],[104.79,10.43],[103.69,10.67],[103.98,11.28],[102.31,12.73],[100.96,12.86],[101.24,13.48],[100.19,14.47],[99.98,12.17],[98.69,10.35],[99.03,11.74],[98.19,12.58],[98.91,12.91],[97.47,14.96],[97.4,8.51],[100.11,5.84],[101.14,2.44],[98.05,5.37],[96.48,5.36],[95.43,6.34],[94.87,4.83],[96.04,5.39],[95.51,4.4],[97.17,2.75],[94.96,2.91],[97.32,1.85],[96.61,1.27],[98.08,0.27],[98.56,-1.88],[100.17,-3.47],[101.21,-3.91],[101.1,-2.8],[103.03,-5.11],[105.27,-6.08],[105.17,-7.01],[106.2,-7.18],[106.1,-6.13],[107.59,-5.85],[105.98,-5.29],[106.16,-3.62],[108.49,-3.41],[108.82,-2.35],[107.33,-2.61],[105.35,-1.25],[105.27,0.11],[104.64,0.28],[105.17,1.24],[103.46,3.78],[103.14,2.66],[103.88,1.34],[101.39,2.8],[99.6,7.82],[98.3,8.44],[98.88,9.94],[100.05,7.78]],[[103.48,-4.9],[103.55,-4.18],[100.91,-2.42],[101.62,-1.85],[99.19,0.32],[99.34,2.07],[98.56,3.41],[98.5,2.65],[97.61,2.71],[98.14,3.69],[97.12,4.92],[103.38,0.63],[103.64,-1.13],[105.64,-2.5],[105.74,-5.63],[103.48,-4.9]],[[99.25,-1.56],[98.94,-0.04],[100.5,-2.14],[99.25,-1.56]]],[[[104.65,-65.94],[103.38,-64.89],[100.3,-65.21],[99.17,-66.22],[96.79,-65.88],[92.61,-66.61],[99.57,-66.97],[103.6,-66.06],[105.01,-66.43],[104.65,-65.94]]],[[[107.71,4.8],[107.72,2.91],[108.62,3.33],[108.05,4.01],[108.73,4.32],[107.71,4.8]]],[[[18.61,-70.85],[26.94,-71.25],[32.42,-70.39],[25.68,-70.03],[25.06,-70.38],[26.92,-70.77],[25.03,-70.86],[18.9,-70.13],[17.34,-70.78],[18.61,-70.85]]],[[[24.54,14.43],[23.5,11.97],[24.79,12.78],[24.7,14.24],[26.18,14.87],[24.54,14.43]]],[[[-123.06,45.0],[-123.45,44.45],[-122.83,44.37],[-122.43,45.71],[-123.06,45.0]]],[[[94.16,7.46],[93.5,7.63],[94.02,8.63],[93.32,8.29],[92.72,9.49],[93.64,6.46],[94.16,7.46]]],[[[143.37,-13.88],[145.79,-15.94],[145.82,-14.67],[144.5,-13.69],[143.8,-13.94],[143.53,-11.89],[143.37,-13.88]]],[[[49.23,-17.25],[48.82,-19.29],[49.53,-19.11],[49.63,-17.37],[50.73,-15.81],[49.37,-11.84],[48.45,-12.04],[46.49,-15.51],[48.65,-13.51],[48.62,-15.03],[49.84,-16.67],[49.23,-17.25]],[[49.98,-14.06],[50.18,-15.51],[49.4,-15.27],[48.93,-12.58],[49.71,-12.84],[49.98,-14.06]]],[[[-69.92,47.23],[-67.98,48.72],[-64.79,49.18],[-64.69,48.34],[-66.33,48.01],[-64.96,47.48],[-65.63,47.01],[-64.76,45.82],[-70.87,43.75],[-71.87,44.24],[-72.96,42.01],[-74.07,42.86],[-73.92,41.86],[-77.88,39.1],[-76.49,38.37],[-76.68,37.16],[-75.85,36.54],[-76.65,35.81],[-75.69,35.62],[-80.09,33.01],[-80.4,32.0],[-77.7,34.28],[-72.29,34.53],[-68.58,37.67],[-68.19,38.87],[-64.25,41.01],[-60.15,41.64],[-50.11,45.1],[-46.28,47.42],[-50.2,49.2],[-53.33,49.14],[-53.95,50.0],[-56.01,50.25],[-54.81,50.65],[-55.54,51.09],[-54.71,51.5],[-55.4,52.37],[-55.07,53.43],[-59.42,55.42],[-61.04,57.38],[-60.83,58.04],[-62.29,58.45],[-64.31,60.83],[-65.57,60.56],[-66.33,59.18],[-68.31,59.06],[-69.37,60.11],[-67.12,60.48],[-69.25,61.47],[-70.5,61.15],[-74.11,63.1],[-75.54,62.49],[-69.83,60.75],[-70.25,59.59],[-68.09,58.18],[-64.19,59.95],[-64.07,59.06],[-61.51,57.37],[-61.68,56.26],[-60.75,55.4],[-58.35,54.77],[-57.56,53.47],[-55.71,53.23],[-56.67,51.53],[-58.86,51.32],[-60.24,50.23],[-65.96,50.61],[-69.72,48.76],[-70.76,47.56],[-69.92,47.23]],[[-56.08,49.41],[-55.54,49.2],[-55.83,48.16],[-58.57,47.95],[-57.74,50.05],[-56.08,49.41]],[[-59.66,48.77],[-59.66,47.93],[-63.33,47.79],[-64.2,49.01],[-61.9,48.7],[-61.17,49.15],[-62.36,49.95],[-60.23,49.81],[-57.28,51.32],[-58.53,49.21],[-59.66,48.77]],[[-66.92,49.24],[-65.9,50.18],[-64.68,49.83],[-66.92,49.24]]],[[[-142.45,-18.57],[-141.69,-18.62],[-142.9,-16.86],[-142.11,-15.68],[-144.65,-16.3],[-144.35,-15.49],[-148.91,-15.04],[-148.47,-15.93],[-148.03,-15.34],[-145.91,-16.18],[-145.88,-17.66],[-143.66,-16.8],[-142.8,-17.49],[-143.58,-17.86],[-142.56,-17.93],[-142.45,-18.57]]],[[[-20.38,73.2],[-19.58,73.52],[-20.06,73.89],[-16.53,75.13],[-18.66,76.43],[-17.47,76.96],[-18.01,77.35],[-15.76,77.94],[-18.25,78.18],[-15.89,79.33],[-17.24,79.85],[-9.73,81.7],[-17.27,81.77],[-20.95,83.05],[-25.81,82.05],[-21.19,81.25],[-14.09,81.26],[-22.14,79.62],[-20.72,78.64],[-24.63,78.29],[-23.82,77.92],[-24.86,77.36],[-23.32,76.85],[-25.15,75.96],[-19.89,75.66],[-20.8,75.35],[-20.36,74.74],[-21.94,74.33],[-21.48,73.72],[-24.84,73.7],[-24.3,73.1],[-25.66,72.65],[-23.84,72.25],[-22.39,70.91],[-26.39,71.59],[-25.85,70.99],[-27.62,69.93],[-23.21,69.86],[-26.59,68.73],[-31.87,68.44],[-35.03,66.48],[-40.99,65.15],[-43.36,60.79],[-44.52,60.49],[-47.88,60.84],[-47.88,61.5],[-49.76,62.09],[-51.15,63.73],[-50.88,64.59],[-53.19,65.82],[-52.6,66.88],[-53.75,67.37],[-53.54,68.24],[-51.01,68.76],[-50.67,69.61],[-53.96,70.64],[-51.31,70.73],[-52.49,71.65],[-56.03,71.57],[-54.59,71.09],[-54.8,70.24],[-52.77,69.72],[-55.29,69.61],[-53.99,69.12],[-54.76,67.19],[-53.59,66.71],[-54.14,65.64],[-50.6,61.93],[-48.04,60.41],[-43.54,59.49],[-42.42,59.79],[-43.12,60.32],[-41.96,60.61],[-42.67,61.15],[-41.24,61.84],[-41.7,62.8],[-40.45,63.07],[-39.59,64.28],[-40.34,64.84],[-32.06,66.61],[-32.68,67.2],[-31.28,68.09],[-23.37,69.16],[-20.82,70.49],[-21.18,71.1],[-20.48,71.42],[-21.97,72.31],[-20.38,73.2]]],[[[42.81,61.16],[43.06,61.77],[42.35,61.95],[42.11,61.34],[42.81,61.16]]],[[[152.03,64.7],[151.25,65.74],[150.18,65.77],[150.63,65.38],[149.98,64.77],[152.03,64.7]]],[[[-69.35,-54.22],[-70.09,-53.84],[-69.44,-53.29],[-71.67,-53.51],[-68.81,-52.74],[-66.6,-54.94],[-71.53,-55.32],[-67.71,-56.3],[-63.33,-54.83],[-66.97,-54.19],[-68.19,-52.19],[-72.5,-52.59],[-71.16,-54.39],[-69.35,-54.22]]],[[[133.5,-11.0],[132.18,-11.0],[133.81,-11.78],[133.5,-11.0]]],[[[93.48,14.08],[93.99,14.82],[93.33,15.24],[92.27,12.99],[92.32,10.29],[94.27,12.23],[93.16,12.68],[93.48,14.08]]],[[[51.22,-9.08],[50.63,-9.0],[50.8,-9.81],[51.22,-9.08]]],[[[160.67,-70.07],[161.68,-71.08],[166.47,-70.63],[161.84,-70.24],[159.83,-69.28],[159.43,-69.65],[160.67,-70.07]]],[[[-124.14,43.95],[-123.61,44.88],[-124.23,44.96],[-125.1,42.66],[-124.02,38.74],[-123.43,37.78],[-122.64,37.85],[-120.68,33.91],[-117.86,33.22],[-118.39,34.26],[-120.73,35.04],[-122.13,37.96],[-123.51,38.86],[-124.4,40.7],[-123.66,41.0],[-124.58,42.79],[-124.14,43.95]]],[[[-64.96,64.81],[-62.3,65.1],[-60.23,66.65],[-65.34,68.12],[-66.95,68.94],[-66.07,69.63],[-67.8,69.35],[-67.92,68.69],[-62.53,67.29],[-62.1,66.2],[-63.23,65.3],[-66.22,66.32],[-67.73,66.04],[-65.75,65.68],[-66.86,65.19],[-64.55,64.16],[-65.54,63.24],[-68.84,63.75],[-67.01,62.28],[-71.14,62.91],[-72.84,64.13],[-77.09,64.15],[-77.64,65.0],[-75.27,65.26],[-75.53,65.69],[-78.8,64.86],[-77.01,62.54],[-75.53,64.09],[-73.59,63.83],[-71.89,62.62],[-64.9,61.26],[-63.47,62.64],[-64.65,63.05],[-63.59,63.52],[-63.71,64.41],[-64.96,64.81]]],[[[-121.76,47.97],[-124.2,49.96],[-124.7,49.83],[-123.79,48.41],[-126.94,49.28],[-124.91,48.16],[-124.39,45.38],[-123.53,46.26],[-124.5,47.92],[-122.98,47.94],[-122.9,46.96],[-121.76,47.97]]],[[[78.91,74.41],[79.56,74.79],[77.99,74.76],[78.91,74.41]]],[[[-177.2,-43.95],[-176.17,-44.68],[-175.76,-44.17],[-176.5,-43.53],[-177.2,-43.95]]],[[[143.36,-66.76],[131.5,-66.18],[143.27,-67.0],[144.12,-67.54],[143.38,-68.12],[143.87,-68.27],[145.16,-67.59],[143.36,-66.76]]],[[[107.26,76.67],[110.53,76.74],[104.12,77.9],[108.17,78.25],[102.53,78.29],[101.2,78.9],[105.05,79.05],[105.53,79.29],[104.67,79.49],[92.33,79.29],[101.44,77.56],[99.71,77.02],[100.91,76.41],[103.34,77.42],[107.26,76.67]]],[[[-77.44,67.09],[-73.14,67.26],[-74.99,66.43],[-74.08,65.38],[-73.28,65.67],[-73.74,66.54],[-72.05,67.12],[-72.95,68.18],[-77.44,67.09]]],[[[173.52,52.97],[172.06,53.08],[173.68,52.16],[174.16,52.8],[173.52,52.97]]],[[[78.11,-69.12],[81.96,-67.77],[79.7,-67.69],[76.93,-69.05],[78.11,-69.12]]],[[[-160.55,21.59],[-158.9,21.9],[-159.66,22.4],[-160.55,21.59]]],[[[-22.32,16.4],[-23.26,17.03],[-22.94,15.77],[-22.32,16.4]]],[[[111.03,2.37],[109.7,1.74],[110.72,1.54],[111.03,2.37]]],[[[139.86,73.44],[140.81,72.82],[134.67,71.67],[130.15,71.89],[130.73,72.99],[126.18,74.23],[122.24,73.96],[121.49,73.32],[117.63,74.09],[114.85,73.67],[121.31,72.88],[123.48,73.69],[127.04,73.49],[129.5,72.63],[128.44,71.34],[131.13,70.65],[132.51,71.67],[140.39,71.65],[139.48,72.27],[144.58,73.25],[141.98,74.65],[147.91,74.78],[147.13,75.44],[148.09,75.81],[147.2,75.95],[139.32,74.98],[137.34,75.44],[137.9,76.11],[134.25,75.97],[137.74,74.67],[140.3,74.61],[138.94,73.8],[139.86,73.44]],[[141.3,73.99],[142.19,73.62],[140.61,73.59],[141.3,73.99]]],[[[-77.58,60.61],[-77.18,61.36],[-78.35,62.83],[-81.24,61.94],[-79.63,61.25],[-78.99,61.58],[-80.2,62.1],[-78.74,62.08],[-78.08,61.47],[-79.36,60.82],[-77.96,59.86],[-79.29,58.97],[-77.62,57.83],[-77.3,56.72],[-79.62,58.21],[-80.77,56.37],[-78.95,54.84],[-76.19,56.42],[-77.03,58.14],[-78.45,58.86],[-77.1,59.75],[-77.58,60.61]]],[[[60.7,-67.44],[69.03,-68.37],[68.6,-69.73],[66.86,-70.3],[68.82,-71.03],[69.71,-70.74],[69.08,-69.91],[70.75,-69.32],[69.66,-68.31],[70.14,-67.6],[60.7,-67.44]]],[[[88.23,77.49],[87.22,77.38],[88.08,76.99],[91.08,77.29],[88.23,77.49]]],[[[102.55,5.77],[103.72,4.14],[103.45,5.94],[102.18,6.57],[102.55,5.77]]],[[[-154.77,19.09],[-154.76,20.19],[-157.72,21.59],[-157.78,22.25],[-158.68,21.45],[-156.37,20.36],[-156.06,18.56],[-154.77,19.09]],[[-155.95,19.43],[-155.19,20.02],[-155.3,19.15],[-155.95,19.43]]],[[[107.45,0.44],[107.55,1.43],[106.71,1.49],[107.3,1.07],[106.6,0.51],[107.39,-0.05],[107.45,0.44]]],[[[71.54,-6.59],[71.45,-5.76],[70.93,-6.39],[71.54,-6.59]]],[[[110.07,-66.81],[112.27,-66.04],[114.95,-66.8],[113.82,-67.43],[117.82,-67.08],[115.88,-67.05],[115.67,-66.38],[112.4,-65.6],[108.79,-66.73],[106.06,-66.3],[107.95,-67.12],[110.07,-66.81]]],[[[-86.51,65.8],[-87.14,65.44],[-86.09,65.4],[-86.51,65.8]]],[[[-57.12,72.23],[-55.95,71.99],[-55.32,73.04],[-57.0,73.08],[-57.12,72.23]]],[[[123.35,-10.79],[124.27,-10.28],[123.05,-10.02],[122.51,-10.84],[122.84,-11.38],[123.35,-10.79]]],[[[-75.91,68.38],[-75.03,68.68],[-77.36,69.83],[-79.31,69.86],[-78.94,69.44],[-79.94,68.87],[-78.72,67.87],[-75.91,68.38]]],[[[54.13,12.87],[52.94,11.93],[54.63,12.18],[54.71,12.89],[54.13,12.87]]],[[[114.06,-23.18],[113.65,-22.22],[113.46,-23.45],[114.06,-23.18]]],[[[74.21,67.61],[72.21,67.08],[75.82,69.05],[77.11,68.62],[76.78,68.03],[78.28,68.41],[76.85,69.32],[73.97,69.34],[75.17,70.45],[73.57,71.11],[73.84,71.72],[77.99,71.13],[78.5,71.49],[76.42,71.81],[78.89,72.34],[83.1,70.92],[84.36,71.87],[80.8,72.97],[87.35,73.77],[85.92,74.54],[86.8,75.14],[82.0,74.44],[77.99,72.93],[76.91,73.76],[72.92,73.13],[69.56,73.69],[68.43,71.9],[66.69,71.64],[65.74,70.1],[66.82,69.6],[65.32,69.34],[68.88,68.36],[68.74,69.39],[67.1,70.58],[67.63,71.35],[69.36,71.6],[69.83,72.6],[72.49,72.75],[71.32,71.59],[72.19,71.28],[71.97,70.67],[73.97,70.41],[71.59,69.46],[73.24,68.6],[71.24,66.81],[69.72,66.6],[72.05,66.05],[73.97,66.59],[75.29,67.65],[74.21,67.61]]],[[[-74.73,-43.29],[-74.56,-44.36],[-75.28,-44.63],[-74.83,-46.39],[-74.16,-44.03],[-73.67,-43.92],[-73.58,-45.38],[-72.41,-43.15],[-72.89,-41.43],[-74.5,-41.9],[-74.51,-42.51],[-73.55,-42.31],[-74.73,-43.29]]],[[[-72.99,-36.47],[-74.4,-38.28],[-73.61,-39.07],[-73.92,-41.41],[-72.9,-39.63],[-73.61,-38.48],[-72.99,-36.47]]],[[[68.52,-72.14],[66.31,-72.92],[67.96,-73.48],[71.66,-71.68],[68.52,-72.14]]],[[[-13.48,-72.52],[-10.95,-72.64],[-10.13,-71.55],[-12.31,-71.01],[-13.48,-72.52]]],[[[45.85,-15.44],[44.07,-16.04],[44.07,-16.7],[45.86,-16.09],[45.85,-15.44]]],[[[-72.36,-54.68],[-71.23,-54.76],[-72.73,-54.02],[-72.36,-54.68]]],[[[150.38,71.9],[151.22,72.26],[150.52,72.41],[148.25,72.07],[150.38,71.9]]],[[[-179.03,65.18],[-176.36,65.31],[-176.26,64.67],[-173.82,64.35],[-175.41,65.48],[-178.61,65.8],[-178.77,66.44],[-179.73,66.25],[-179.88,65.4],[-179.03,65.18]]],[[[95.68,81.37],[89.85,81.24],[92.18,80.69],[95.37,81.12],[98.08,80.11],[99.87,80.43],[98.46,81.27],[95.68,81.37]]],[[[-86.72,65.04],[-88.51,63.95],[-86.11,63.46],[-86.44,64.12],[-85.83,64.48],[-86.72,65.04]]],[[[49.89,69.48],[48.07,69.85],[47.54,68.91],[50.28,68.72],[50.78,69.29],[49.89,69.48]]],[[[167.72,55.13],[165.64,55.51],[165.92,54.74],[167.56,54.31],[168.67,54.82],[167.72,55.13]]],[[[-160.73,64.05],[-162.9,63.51],[-161.43,63.3],[-160.73,64.05]]],[[[-78.92,63.68],[-79.6,63.36],[-78.63,63.26],[-78.92,63.68]]],[[[-82.54,26.54],[-81.7,26.49],[-82.88,27.75],[-82.39,28.66],[-83.62,29.94],[-82.54,26.54]]],[[[-134.88,-23.46],[-134.14,-23.46],[-135.27,-22.84],[-134.88,-23.46]]],[[[17.64,76.41],[18.27,76.74],[17.18,77.06],[19.38,77.85],[25.11,77.17],[24.12,77.74],[25.02,78.06],[21.74,79.09],[25.97,79.06],[24.95,78.73],[25.98,78.38],[31.41,79.28],[27.04,79.16],[29.46,80.02],[23.36,80.9],[8.74,79.83],[10.72,79.34],[9.38,78.83],[10.85,78.55],[10.66,77.98],[13.57,77.97],[12.75,77.06],[17.64,76.41]],[[18.96,78.51],[17.34,78.05],[16.1,78.36],[16.79,78.71],[11.37,78.9],[17.14,79.5],[19.63,79.08],[18.96,78.51]],[[15.65,77.8],[16.85,77.49],[15.05,77.45],[15.65,77.8]],[[24.78,80.09],[27.12,80.07],[24.87,79.41],[20.09,80.1],[24.78,80.09]]],[[[160.85,70.53],[162.87,70.48],[162.57,70.91],[155.0,71.07],[159.0,70.82],[160.62,69.37],[161.51,69.68],[160.85,70.53]]],[[[70.81,-48.84],[68.91,-48.25],[68.19,-49.22],[68.74,-50.13],[70.38,-49.98],[70.81,-48.84]]],[[[-85.03,65.34],[-81.21,64.29],[-81.43,64.97],[-82.94,65.21],[-82.14,65.8],[-82.51,66.22],[-80.3,67.22],[-82.19,68.13],[-81.55,67.05],[-83.59,66.29],[-83.31,65.62],[-85.03,65.34]]],[[[-171.46,63.99],[-172.72,63.65],[-171.33,63.14],[-170.76,63.72],[-171.46,63.99]]],[[[58.92,-67.51],[60.1,-67.46],[57.86,-66.49],[55.31,-66.35],[56.47,-66.74],[55.65,-67.38],[58.92,-67.51]]],[[[42.1,63.73],[41.37,63.11],[43.09,62.97],[42.1,63.73]]],[[[62.33,76.68],[59.14,76.38],[59.99,75.94],[67.41,77.06],[62.33,76.68]]],[[[113.79,-27.88],[114.35,-27.32],[113.68,-26.93],[113.79,-27.88]]],[[[2.67,-70.51],[-0.95,-71.45],[5.83,-70.82],[2.67,-70.51]]],[[[43.46,-11.75],[43.38,-12.65],[45.56,-12.87],[44.59,-11.75],[43.46,-11.75]]],[[[73.51,1.67],[73.9,4.46],[73.33,4.61],[73.72,6.25],[72.95,7.46],[72.39,3.6],[73.51,1.67]]],[[[-156.27,71.07],[-155.66,71.45],[-156.97,71.41],[-156.27,71.07]]],[[[-175.16,-21.76],[-174.54,-21.48],[-175.13,-20.88],[-175.75,-21.16],[-175.16,-21.76]]],[[[18.8,20.32],[19.44,22.67],[16.05,20.95],[18.54,19.61],[18.8,20.32]]],[[[109.4,2.76],[109.04,3.29],[108.56,2.84],[109.07,1.67],[108.23,-0.11],[109.29,-0.07],[109.4,2.76]]],[[[105.38,3.24],[106.59,2.38],[106.49,3.52],[105.38,3.24]]],[[[53.17,-5.76],[53.95,-5.77],[53.34,-5.1],[53.17,-5.76]]],[[[-37.49,-53.74],[-38.61,-54.27],[-36.14,-55.12],[-35.39,-54.67],[-37.49,-53.74]]],[[[48.13,-17.31],[47.33,-17.06],[47.34,-17.71],[45.57,-18.34],[46.65,-19.18],[46.02,-20.41],[46.55,-22.21],[47.21,-22.26],[48.95,-18.18],[48.89,-16.26],[47.95,-16.48],[48.13,-17.31]]],[[[59.48,74.33],[64.75,75.73],[68.88,75.88],[70.48,76.85],[69.19,77.16],[67.64,76.18],[60.24,75.32],[56.86,74.01],[58.01,73.38],[59.48,74.33]]],[[[73.06,-69.53],[71.43,-70.14],[71.62,-70.79],[70.75,-71.09],[71.29,-71.27],[73.7,-70.59],[73.44,-69.94],[76.63,-69.79],[73.06,-69.53]]],[[[-87.25,56.43],[-88.39,56.87],[-87.72,56.07],[-87.25,56.43]]],[[[-77.03,43.82],[-79.93,44.31],[-81.0,42.78],[-79.69,42.22],[-77.03,43.82]]],[[[-82.43,63.87],[-84.06,63.6],[-84.4,62.58],[-82.69,61.93],[-81.55,62.36],[-83.45,62.51],[-83.08,63.53],[-81.55,63.54],[-82.43,63.87]]],[[[-150.75,-17.82],[-149.03,-17.79],[-149.73,-16.86],[-150.75,-17.82]]],[[[167.74,-22.6],[165.41,-20.65],[164.97,-21.37],[164.73,-20.04],[163.83,-20.02],[166.62,-23.2],[167.74,-22.6]]],[[[-65.27,-67.13],[-60.33,-66.13],[-62.31,-65.35],[-62.47,-66.43],[-64.04,-66.25],[-65.27,-67.13]]],[[[180.0,69.38],[175.54,69.93],[180.0,68.89],[180.0,69.38]]],[[[-180.0,68.89],[-177.86,68.78],[-180.0,69.38],[-180.0,68.89]]],[[[-31.14,39.82],[-31.71,39.75],[-30.99,39.07],[-31.14,39.82]]],[[[-9.49,5.08],[-8.62,4.67],[-9.62,5.73],[-9.49,5.08]]],[[[43.91,-17.18],[44.11,-19.98],[42.86,-22.21],[43.63,-23.33],[43.38,-24.67],[45.02,-25.97],[46.79,-25.54],[48.07,-23.74],[47.56,-23.23],[47.02,-24.85],[45.69,-25.39],[43.72,-24.38],[44.06,-23.45],[43.28,-22.33],[44.76,-19.39],[43.91,-17.18]]],[[[-81.03,29.73],[-80.89,31.36],[-81.64,30.14],[-80.17,27.43],[-81.03,29.73]]],[[[167.44,-20.8],[167.48,-21.76],[168.37,-21.76],[167.44,-20.8]]],[[[62.31,80.49],[66.11,81.23],[59.34,82.04],[54.22,81.67],[53.54,81.04],[42.64,80.68],[50.54,79.57],[59.66,79.49],[62.31,80.49]],[[58.63,80.36],[56.47,80.18],[55.81,80.81],[58.11,81.0],[58.63,80.36]]],[[[46.32,-22.91],[45.73,-22.62],[46.17,-24.01],[46.82,-23.42],[46.32,-22.91]]],[[[-160.53,70.28],[-162.54,70.54],[-163.83,69.33],[-167.0,68.55],[-164.02,67.35],[-163.65,67.75],[-165.88,68.66],[-160.53,70.28]]],[[[-55.15,-62.99],[-61.72,-63.42],[-57.38,-62.11],[-58.02,-61.74],[-62.62,-62.82],[-62.78,-63.88],[-64.45,-64.35],[-60.21,-63.98],[-60.86,-65.08],[-58.98,-65.42],[-59.78,-64.6],[-56.54,-64.61],[-56.48,-63.96],[-54.43,-63.36],[-55.15,-62.99]],[[-57.74,-63.63],[-57.47,-64.46],[-58.4,-64.31],[-57.74,-63.63]]],[[[25.72,24.02],[25.85,23.14],[26.51,23.44],[25.72,24.02]]],[[[44.69,-68.07],[49.18,-68.17],[49.67,-67.15],[51.36,-67.18],[50.6,-66.56],[53.11,-65.95],[48.11,-66.7],[48.47,-67.53],[46.37,-67.05],[43.32,-67.73],[44.69,-68.07]]],[[[73.89,-53.28],[74.34,-52.95],[72.99,-52.82],[73.13,-53.45],[73.89,-53.28]]],[[[-138.91,69.07],[-136.77,68.91],[-135.32,69.86],[-137.65,69.22],[-142.14,70.33],[-148.86,70.17],[-142.93,70.01],[-138.91,69.07]]],[[[-174.12,66.48],[-173.75,67.32],[-175.65,67.41],[-174.12,66.48]]],[[[46.14,-9.7],[46.77,-9.79],[46.6,-8.96],[46.14,-9.7]]],[[[-66.84,-66.5],[-66.23,-66.92],[-65.9,-66.28],[-66.84,-66.5]]],[[[166.79,69.63],[169.12,69.31],[171.46,70.06],[166.79,69.63]]],[[[-80.68,59.91],[-81.27,59.58],[-80.61,58.98],[-80.91,58.23],[-79.43,59.64],[-80.68,59.91]]],[[[94.9,77.15],[87.65,75.25],[98.87,76.29],[97.84,77.13],[94.9,77.15]]],[[[73.67,-0.3],[73.32,1.1],[72.77,-0.84],[73.58,-0.94],[73.67,-0.3]]],[[[-58.02,-51.99],[-57.68,-51.03],[-61.55,-51.18],[-61.42,-52.27],[-59.32,-53.23],[-58.02,-51.99]]],[[[135.34,-11.92],[136.48,-11.76],[136.93,-12.91],[137.08,-10.89],[134.52,-11.54],[135.34,-11.92]]],[[[-170.29,66.66],[-172.92,67.06],[-170.53,66.25],[-170.6,65.61],[-169.37,66.16],[-170.29,66.66]]],[[[114.52,-6.74],[111.93,-6.98],[113.83,-7.51],[114.52,-6.74]]],[[[-23.52,14.69],[-22.89,15.08],[-23.38,15.74],[-25.09,15.14],[-24.59,14.49],[-23.52,14.69]]],[[[-54.19,-34.95],[-56.67,-34.7],[-56.12,-35.26],[-54.19,-34.95]]],[[[-175.03,-19.37],[-175.29,-20.18],[-174.46,-20.84],[-174.08,-19.62],[-175.03,-19.37]]],[[[-81.72,52.46],[-79.65,51.04],[-78.4,52.41],[-80.03,55.11],[-80.55,54.78],[-79.76,53.77],[-80.84,52.87],[-81.56,52.96],[-81.31,53.7],[-82.46,53.7],[-81.72,52.46]]],[[[121.19,-9.97],[119.61,-9.61],[120.69,-10.56],[121.19,-9.97]]],[[[107.73,16.95],[106.54,18.36],[106.82,16.82],[109.63,14.19],[109.58,15.58],[107.73,16.95]]],[[[-5.66,-71.01],[-6.37,-70.56],[-6.49,-71.43],[-4.52,-71.68],[-1.78,-71.02],[-4.09,-70.15],[-3.33,-71.03],[-5.66,-71.01]]],[[[-91.61,57.0],[-91.17,57.37],[-91.99,57.39],[-91.61,57.0]]],[[[172.73,60.92],[177.58,62.48],[172.91,61.55],[170.51,60.6],[172.73,60.92]]],[[[169.68,-71.76],[171.37,-71.7],[167.07,-70.69],[169.68,-71.76]]],[[[6.49,0.42],[6.31,-0.38],[6.94,0.1],[6.49,0.42]]],[[[146.13,-67.88],[147.63,-68.3],[146.74,-67.54],[146.13,-67.88]]],[[[121.52,20.71],[121.79,19.76],[121.11,19.45],[122.52,19.0],[122.2,21.01],[121.52,20.71]]],[[[68.62,-71.26],[66.74,-71.82],[67.99,-71.96],[68.94,-71.68],[68.62,-71.26]]],[[[-72.4,-34.28],[-71.52,-33.72],[-71.45,-32.53],[-72.4,-34.28]]],[[[-20.46,-74.34],[-20.02,-73.91],[-21.58,-74.02],[-20.46,-74.34]]],[[[-92.35,58.29],[-93.18,58.55],[-92.38,57.78],[-92.35,58.29]]],[[[-158.63,-19.85],[-157.02,-20.09],[-158.91,-19.14],[-158.63,-19.85]]],[[[155.47,-68.47],[153.41,-68.73],[155.58,-69.18],[156.08,-69.05],[155.47,-68.47]]],[[[163.9,-74.74],[162.99,-74.44],[161.43,-75.36],[162.54,-75.9],[162.03,-76.28],[163.54,-76.19],[164.0,-75.81],[162.85,-75.28],[163.9,-74.74]]],[[[-126.44,70.09],[-127.06,69.67],[-125.15,69.67],[-126.44,70.09]]],[[[180.0,64.98],[177.4,64.36],[179.01,63.52],[180.0,64.98]]],[[[-140.94,-18.67],[-140.66,-17.43],[-141.43,-18.22],[-140.94,-18.67]]],[[[-74.43,-46.68],[-74.86,-47.02],[-74.13,-47.36],[-74.43,-46.68]]],[[[145.96,14.57],[145.95,15.7],[145.37,15.06],[145.96,14.57]]],[[[-171.57,65.47],[-172.71,65.55],[-173.27,64.32],[-172.17,64.25],[-171.57,65.47]]],[[[151.54,71.09],[154.26,70.98],[151.72,71.6],[150.97,71.5],[151.54,71.09]]],[[[112.73,-26.05],[113.34,-26.74],[114.46,-26.41],[113.52,-23.78],[112.73,-26.05]]],[[[89.82,-66.56],[85.43,-66.58],[82.55,-67.66],[91.02,-67.04],[91.5,-66.64],[89.82,-66.56]]],[[[83.43,76.41],[81.04,75.3],[83.53,74.93],[82.65,75.55],[84.33,76.29],[83.43,76.41]]],[[[131.35,-11.93],[130.97,-11.62],[130.58,-12.62],[132.68,-11.94],[131.32,-10.85],[132.25,-11.86],[131.35,-11.93]]],[[[-24.69,36.67],[-25.12,38.06],[-26.24,37.98],[-24.69,36.67]]],[[[180.0,52.34],[177.25,52.31],[177.13,51.69],[179.52,51.33],[180.0,52.34]]],[[[151.92,62.34],[153.42,62.63],[152.1,63.07],[151.92,62.34]]],[[[141.53,24.84],[140.97,25.51],[141.39,24.17],[141.53,24.84]]],[[[-158.74,-77.86],[-156.68,-77.19],[-159.51,-77.53],[-158.74,-77.86]]],[[[16.46,-69.97],[15.25,-69.88],[16.21,-70.45],[16.89,-70.37],[16.46,-69.97]]],[[[-151.39,-16.45],[-152.59,-16.52],[-151.49,-17.3],[-150.51,-16.77],[-151.39,-16.45]]],[[[-26.67,39.1],[-27.89,39.52],[-29.13,38.24],[-27.14,38.29],[-26.67,39.1]]],[[[-161.53,66.59],[-161.21,67.21],[-163.33,67.05],[-161.53,66.59]]],[[[167.31,-73.18],[165.78,-73.66],[166.69,-73.95],[170.8,-73.45],[167.31,-73.18]]],[[[-143.71,-20.83],[-142.92,-20.88],[-143.41,-19.99],[-143.71,-20.83]]],[[[118.2,27.53],[117.53,27.36],[117.84,26.61],[118.2,27.53]]],[[[80.15,81.14],[77.43,81.1],[80.48,80.39],[81.63,80.77],[80.15,81.14]]],[[[-158.22,71.12],[-160.11,70.92],[-158.11,70.64],[-157.55,71.03],[-158.22,71.12]]],[[[-23.89,16.63],[-25.73,17.19],[-24.53,16.23],[-23.89,16.63]]],[[[180.0,63.14],[178.11,62.49],[179.64,62.07],[180.0,63.14]]],[[[151.83,47.42],[151.37,46.85],[152.55,46.73],[153.65,48.34],[151.83,47.42]]],[[[-69.99,66.14],[-70.34,67.01],[-72.06,66.45],[-69.99,66.14]]],[[[-140.69,-19.1],[-141.45,-19.06],[-140.57,-19.74],[-140.69,-19.1]]],[[[113.4,75.22],[105.63,73.29],[113.51,73.46],[113.9,75.0],[113.4,75.22]]],[[[119.99,59.8],[120.85,60.36],[120.15,60.61],[119.99,59.8]]],[[[48.35,-22.18],[47.7,-22.14],[47.88,-22.94],[48.35,-22.18]]],[[[150.67,75.38],[148.85,75.16],[151.3,74.72],[150.67,75.38]]],[[[92.42,-65.84],[92.86,-65.44],[91.8,-65.48],[92.42,-65.84]]],[[[55.81,-4.71],[55.87,-3.71],[55.12,-3.6],[55.6,-4.01],[54.99,-4.81],[55.81,-4.71]]],[[[35.32,79.96],[33.55,80.73],[30.68,80.11],[35.32,79.96]]],[[[-154.35,71.23],[-154.97,70.86],[-152.47,70.42],[-149.32,70.77],[-154.35,71.23]]],[[[-138.71,-9.62],[-139.5,-9.74],[-138.82,-10.18],[-138.71,-9.62]]],[[[-94.44,58.94],[-94.02,59.32],[-94.88,59.32],[-94.44,58.94]]],[[[179.34,70.8],[179.05,71.45],[177.85,71.24],[178.17,70.59],[179.34,70.8]]],[[[-169.33,63.81],[-170.45,63.28],[-168.53,63.32],[-169.33,63.81]]],[[[72.77,11.37],[72.0,10.66],[73.15,11.37],[72.57,11.96],[72.77,11.37]]],[[[113.3,76.55],[112.14,76.98],[111.72,76.31],[113.89,75.44],[115.41,75.66],[113.3,76.55]]],[[[-46.34,-61.01],[-44.02,-60.82],[-45.58,-60.22],[-46.34,-61.01]]],[[[-73.62,45.89],[-74.08,45.6],[-72.91,45.35],[-72.45,46.27],[-73.62,45.89]]],[[[-86.9,68.37],[-88.15,68.16],[-86.51,67.72],[-86.9,68.37]]],[[[-90.61,63.24],[-91.65,62.5],[-90.17,62.85],[-90.61,63.24]]],[[[-166.56,61.45],[-165.29,62.55],[-166.15,62.44],[-166.56,61.45]]],[[[165.63,-51.2],[166.9,-50.2],[165.28,-50.63],[165.63,-51.2]]],[[[-26.57,-56.59],[-27.79,-56.32],[-26.8,-57.19],[-26.03,-57.14],[-26.57,-56.59]]],[[[57.85,-20.47],[57.84,-19.57],[56.91,-20.52],[57.85,-20.47]]],[[[-163.59,66.42],[-163.94,66.02],[-162.93,66.11],[-163.59,66.42]]],[[[-80.45,63.7],[-79.77,64.03],[-80.77,64.13],[-80.45,63.7]]],[[[121.05,59.11],[121.15,58.49],[121.89,58.64],[121.81,59.26],[121.05,59.11]]],[[[48.29,-20.28],[48.79,-20.79],[49.08,-19.86],[48.29,-20.28]]],[[[-94.45,59.71],[-94.02,60.09],[-94.9,60.09],[-94.45,59.71]]],[[[-177.03,71.37],[-179.72,71.66],[-178.39,70.75],[-177.03,71.37]]],[[[54.99,-20.86],[55.41,-21.85],[55.98,-21.47],[55.73,-20.64],[54.99,-20.86]]],[[[-56.8,74.34],[-58.22,73.74],[-56.94,73.5],[-56.8,74.34]]],[[[-85.13,63.41],[-85.73,63.05],[-84.76,63.0],[-85.13,63.41]]],[[[-59.43,54.11],[-60.28,53.67],[-59.02,53.68],[-59.43,54.11]]],[[[-93.56,61.75],[-94.02,61.36],[-93.11,61.36],[-93.56,61.75]]],[[[9.5,-70.6],[10.42,-70.32],[9.21,-70.18],[9.5,-70.6]]],[[[26.87,76.7],[23.42,76.75],[25.2,76.08],[26.87,76.7]]],[[[-150.46,-76.96],[-151.27,-77.32],[-149.47,-77.27],[-150.46,-76.96]]]]}}]}