{"type":"FeatureCollection","features":[{"type":"Feature","properties":{},"geometry":{"type":"MultiPolygon","coordinates":[[[[72.57,18.78],[72.97,18.34],[72.97,16.7],[73.56,15.89],[73.36,15.3],[73.95,15.19],[73.75,14.59],[74.34,14.49],[74.14,13.89],[74.73,13.06],[74.53,12.45],[75.72,11.25],[75.51,10.64],[76.3,9.42],[76.09,8.82],[76.69,8.68],[77.09,7.94],[77.9,7.91],[78.74,9.12],[79.78,8.96],[79.34,7.99],[79.74,7.48],[79.52,6.87],[80.32,5.6],[81.58,6.03],[82.26,7.37],[81.05,9.67],[80.43,9.81],[80.02,10.57],[80.25,11.18],[79.85,11.93],[80.73,13.16],[80.32,13.91],[80.37,15.64],[81.0,15.26],[81.45,16.0],[82.78,16.49],[82.58,17.11],[84.16,17.97],[84.41,18.58],[85.08,18.7],[85.34,19.32],[86.72,19.79],[87.21,20.52],[87.01,21.14],[88.85,21.1],[89.34,21.58],[90.5,21.42],[91.46,21.88],[92.71,19.59],[93.4,19.42],[93.32,18.42],[94.01,18.25],[94.42,17.47],[93.9,16.74],[93.83,15.72],[95.43,15.49],[96.39,15.93],[96.91,16.66],[97.51,15.47],[97.99,15.68],[96.97,17.42],[96.19,16.33],[95.23,15.89],[94.55,16.06],[94.36,16.71],[94.88,17.44],[94.25,18.37],[94.53,18.98],[93.84,19.15],[93.45,20.17],[92.76,20.33],[91.93,21.86],[92.21,22.46],[90.37,23.02],[89.96,24.0],[89.27,24.14],[88.18,25.48],[86.8,25.96],[86.6,26.55],[85.7,27.01],[85.0,26.88],[83.41,27.65],[82.24,27.49],[81.52,28.5],[79.59,28.87],[78.3,30.08],[76.79,30.45],[75.93,31.47],[76.13,32.09],[75.83,32.43],[73.11,33.41],[72.44,34.33],[71.39,34.22],[71.71,33.88],[71.56,33.24],[70.29,32.97],[70.66,32.4],[69.93,32.18],[70.43,30.9],[70.02,30.36],[68.3,31.35],[68.41,31.98],[68.08,32.3],[67.41,31.83],[66.06,33.11],[64.92,33.42],[64.55,32.86],[64.19,33.17],[64.34,33.57],[63.34,33.39],[62.69,33.77],[63.34,34.27],[62.9,34.83],[63.19,35.64],[63.93,35.91],[63.04,36.13],[63.19,36.54],[64.01,36.56],[64.75,35.92],[65.14,36.5],[65.81,36.1],[66.21,36.67],[69.26,36.73],[68.86,37.31],[69.05,37.72],[68.31,37.24],[67.28,37.99],[66.86,37.41],[65.81,38.15],[66.09,39.23],[64.62,40.29],[64.79,40.71],[65.36,40.8],[64.88,41.38],[64.31,41.28],[63.98,40.44],[63.17,41.08],[63.58,41.68],[64.73,41.88],[63.33,42.43],[63.5,42.85],[64.09,42.95],[65.42,42.65],[65.13,41.55],[66.25,40.81],[66.88,41.82],[68.37,41.9],[68.99,43.15],[67.26,43.84],[67.39,44.51],[69.64,44.4],[70.14,44.98],[69.74,45.33],[68.84,45.09],[67.46,45.44],[67.6,46.11],[66.62,46.11],[65.32,47.1],[65.18,48.53],[64.73,48.85],[65.68,49.13],[65.13,49.7],[66.1,49.97],[66.31,50.39],[65.16,50.63],[65.29,51.3],[64.81,51.62],[64.11,51.52],[63.81,50.42],[62.47,50.2],[62.29,49.77],[60.54,48.92],[61.12,48.37],[60.22,48.06],[59.77,46.77],[59.3,47.08],[59.45,47.51],[58.22,47.24],[56.77,48.12],[55.8,48.02],[55.18,48.54],[55.29,48.98],[53.77,49.8],[50.69,50.72],[44.94,48.85],[44.92,48.42],[44.2,48.02],[44.17,47.17],[43.15,47.2],[44.15,46.75],[44.14,46.33],[43.15,46.78],[41.81,46.8],[41.33,45.76],[43.13,45.94],[44.59,45.26],[44.71,44.2],[44.22,44.01],[44.2,43.59],[45.01,43.76],[47.37,42.98],[47.97,42.5],[48.34,41.41],[49.23,40.9],[48.24,40.57],[46.32,41.78],[45.36,41.43],[44.6,41.69],[44.58,41.27],[46.84,40.48],[46.77,39.65],[46.3,39.48],[46.11,38.88],[45.27,39.77],[43.94,40.48],[43.49,40.31],[44.37,39.84],[44.93,38.97],[44.72,37.54],[45.28,37.09],[45.11,36.48],[43.85,37.59],[42.68,37.65],[42.1,38.52],[42.57,39.53],[41.2,38.97],[38.6,39.25],[36.18,37.99],[35.7,38.2],[36.3,38.63],[36.27,39.05],[35.62,39.47],[37.01,40.11],[37.14,40.73],[40.28,40.67],[41.67,41.23],[41.83,41.83],[42.76,42.2],[39.44,43.77],[39.26,44.38],[38.26,44.82],[39.9,45.16],[39.71,46.18],[38.21,46.42],[39.19,46.79],[39.14,47.62],[37.17,46.84],[36.3,47.06],[34.64,46.27],[33.26,46.27],[33.02,46.86],[32.17,46.65],[31.42,47.03],[29.58,46.37],[29.08,46.14],[29.0,45.53],[27.61,45.45],[27.55,44.83],[26.11,44.1],[28.36,44.05],[28.29,43.42],[27.48,43.16],[27.41,42.53],[25.07,42.33],[24.94,42.11],[25.69,41.75],[25.1,41.27],[23.78,41.14],[21.61,41.75],[21.5,41.52],[22.25,41.18],[21.36,40.64],[21.55,39.8],[21.11,39.52],[20.8,40.13],[20.27,40.28],[19.97,42.17],[18.32,42.57],[17.98,43.16],[17.09,43.23],[16.75,43.81],[15.85,43.87],[15.5,44.44],[14.93,44.55],[14.78,45.56],[13.63,45.76],[13.25,46.31],[11.91,46.05],[11.06,45.46],[8.64,46.15],[7.35,45.01],[8.22,44.17],[6.58,43.54],[6.18,44.07],[5.09,44.2],[4.99,44.8],[6.14,45.74],[5.73,46.25],[4.86,46.22],[4.41,45.68],[4.75,44.94],[2.91,43.35],[1.56,43.35],[2.43,42.57],[2.02,42.01],[-2.66,42.7],[-3.0,42.38],[-2.27,41.91],[-3.25,40.94],[-3.78,41.01],[-3.41,41.57],[-3.86,42.12],[-5.02,41.77],[-6.31,40.43],[-6.43,41.55],[-7.24,41.75],[-8.11,41.46],[-9.05,43.27],[-7.86,43.66],[-4.24,43.15],[-3.61,43.56],[-1.45,43.25],[-0.76,45.19],[-0.95,45.58],[-0.6,45.89],[-1.6,46.52],[-1.97,47.53],[-4.28,47.86],[-5.03,48.78],[-5.39,48.47],[-4.91,47.7],[-3.74,47.55],[-1.91,46.45],[-1.3,45.28],[-1.65,44.97],[-1.5,44.35],[-4.46,43.54],[-8.1,44.05],[-9.63,43.32],[-8.88,42.14],[-9.22,41.55],[-8.74,40.77],[-9.58,40.71],[-12.0,37.83],[-11.75,37.44],[-12.05,36.82],[-11.55,36.3],[-11.83,35.93],[-11.65,34.53],[-12.21,33.79],[-11.72,33.27],[-12.01,32.65],[-9.81,31.68],[-10.08,31.32],[-9.94,29.94],[-10.48,29.21],[-11.21,29.11],[-11.49,28.49],[-12.46,28.51],[-13.45,28.02],[-13.71,27.65],[-13.49,27.02],[-14.21,26.9],[-15.2,25.4],[-14.97,24.78],[-15.68,24.65],[-17.32,22.03],[-17.08,21.43],[-17.54,20.69],[-16.62,20.24],[-16.85,19.64],[-16.17,18.83],[-16.18,17.89],[-16.62,17.41],[-16.61,15.79],[-17.68,14.72],[-17.03,13.96],[-17.24,13.39],[-16.82,12.97],[-17.02,12.41],[-16.4,11.68],[-16.4,10.82],[-15.58,10.87],[-14.78,10.48],[-14.59,9.97],[-13.99,9.89],[-14.21,9.36],[-13.61,9.29],[-12.91,7.3],[-11.78,6.97],[-11.61,6.49],[-10.18,5.61],[-10.14,6.18],[-12.14,7.34],[-13.04,8.8],[-12.83,9.33],[-13.41,9.4],[-13.78,10.22],[-14.38,10.29],[-14.17,10.83],[-14.56,11.45],[-14.14,12.11],[-11.48,12.54],[-10.2,13.66],[-9.83,13.23],[-8.13,14.34],[-4.49,13.62],[-3.82,14.36],[-3.94,14.89],[-3.35,14.95],[-3.09,15.43],[-3.79,15.97],[-4.97,15.98],[-5.42,15.55],[-5.76,15.99],[-6.21,15.55],[-6.97,15.99],[-7.48,17.0],[-7.39,17.9],[-8.18,18.36],[-10.73,18.36],[-11.43,17.31],[-12.28,17.3],[-11.82,18.0],[-12.01,18.57],[-11.3,19.63],[-11.71,20.1],[-12.17,19.62],[-12.83,19.73],[-12.76,21.4],[-12.11,21.04],[-12.07,21.76],[-11.15,22.24],[-8.71,22.09],[-7.54,22.89],[-6.23,22.85],[-4.83,21.97],[-3.16,21.89],[-2.67,22.32],[-2.53,23.24],[-1.22,23.49],[-0.37,24.65],[0.29,24.64],[0.61,25.18],[2.15,24.99],[2.05,25.63],[2.73,25.61],[3.94,26.86],[3.65,27.68],[1.12,27.79],[2.66,29.62],[3.12,29.54],[3.41,28.73],[3.98,29.12],[4.33,28.55],[6.43,28.24],[7.95,29.32],[8.69,29.28],[9.45,30.15],[10.21,30.1],[9.82,31.37],[10.53,31.99],[11.23,31.7],[13.61,32.45],[13.93,31.84],[13.47,31.29],[13.79,30.67],[14.45,31.04],[15.25,30.29],[17.27,30.67],[19.22,30.09],[20.08,28.87],[20.76,29.2],[22.19,28.73],[22.21,29.42],[22.9,29.74],[25.46,28.71],[26.16,29.01],[26.86,28.19],[28.02,28.31],[28.55,28.81],[29.01,28.63],[28.48,28.13],[29.4,27.77],[29.5,26.88],[30.4,26.52],[30.61,25.87],[29.69,25.12],[29.99,23.59],[29.49,23.1],[29.58,22.23],[30.4,22.31],[30.99,21.92],[29.53,18.93],[31.38,17.62],[32.01,17.89],[32.09,18.55],[33.11,19.07],[33.66,18.69],[33.72,17.84],[33.26,16.95],[34.06,16.6],[34.23,15.98],[36.01,15.73],[36.48,16.6],[37.1,16.86],[37.13,16.03],[38.02,15.48],[36.8,14.97],[36.97,13.55],[35.51,10.8],[35.92,9.85],[34.57,10.3],[34.14,9.46],[35.1,8.2],[34.69,7.77],[35.24,7.44],[34.83,6.99],[35.05,6.42],[34.64,5.97],[34.86,5.4],[35.65,5.09],[35.3,4.23],[33.55,6.64],[33.59,5.64],[34.6,4.76],[34.58,4.14],[32.82,4.33],[32.4,3.86],[32.53,3.05],[31.89,3.17],[32.02,2.36],[31.34,1.85],[31.31,1.21],[30.33,1.08],[29.55,0.34],[28.9,0.46],[28.52,-0.44],[28.74,-1.06],[28.3,-1.55],[28.57,-2.6],[28.13,-3.09],[28.25,-3.95],[29.06,-4.28],[29.35,-3.58],[29.98,-4.38],[30.27,-3.68],[31.27,-3.54],[32.09,-3.86],[32.22,-4.72],[33.28,-5.68],[33.48,-6.98],[32.7,-7.76],[33.28,-8.12],[33.25,-8.8],[32.23,-8.95],[32.09,-8.07],[31.19,-7.31],[30.75,-7.82],[31.39,-8.62],[31.01,-9.58],[30.33,-9.45],[30.04,-10.16],[31.07,-10.02],[31.88,-9.23],[32.97,-9.51],[33.18,-10.83],[33.77,-11.19],[33.39,-12.15],[33.81,-12.31],[34.19,-11.35],[34.04,-10.48],[33.46,-10.12],[33.48,-9.44],[35.42,-10.04],[35.27,-9.16],[35.7,-8.65],[36.71,-8.49],[37.29,-8.84],[38.22,-8.25],[38.37,-9.11],[38.95,-9.46],[38.53,-9.98],[39.28,-9.85],[39.93,-10.63],[39.51,-11.15],[40.09,-11.49],[40.74,-14.94],[40.06,-15.51],[40.06,-16.18],[39.03,-17.04],[37.57,-17.08],[36.86,-17.65],[36.26,-17.31],[35.65,-17.64],[35.25,-16.13],[33.1,-15.35],[31.26,-15.63],[29.97,-15.13],[29.24,-15.68],[29.3,-16.12],[30.3,-15.54],[30.96,-16.34],[32.38,-15.91],[33.12,-17.15],[33.75,-16.83],[34.35,-17.18],[34.48,-18.72],[33.48,-19.33],[32.81,-18.54],[33.27,-18.02],[31.53,-17.38],[31.3,-16.75],[30.23,-16.9],[29.37,-16.56],[29.33,-17.24],[28.26,-17.38],[28.41,-16.47],[27.67,-17.01],[27.24,-16.84],[27.55,-16.13],[26.48,-16.26],[26.01,-16.77],[20.98,-17.3],[20.41,-16.91],[17.8,-17.13],[17.25,-16.74],[16.52,-17.23],[12.47,-17.48],[12.31,-16.85],[13.1,-15.73],[12.48,-14.04],[14.25,-11.31],[14.44,-8.91],[13.51,-7.94],[12.98,-5.65],[12.4,-5.93],[12.35,-5.09],[11.43,-3.74],[10.11,-2.88],[8.87,-1.02],[9.62,-0.31],[10.08,3.3],[9.59,3.99],[9.04,4.09],[8.9,4.64],[7.7,4.62],[7.72,4.25],[8.38,3.98],[8.42,1.1],[9.25,0.23],[9.17,-0.37],[8.5,-0.47],[8.54,-1.26],[9.78,-3.12],[11.1,-3.99],[12.01,-5.34],[11.96,-6.4],[13.3,-8.38],[12.5,-9.1],[13.45,-10.52],[10.33,-12.7],[10.25,-13.34],[9.67,-13.59],[9.26,-14.88],[8.68,-15.12],[8.25,-15.98],[8.12,-18.08],[7.67,-18.51],[7.93,-21.59],[7.44,-21.98],[7.61,-23.41],[7.11,-23.81],[7.65,-24.65],[7.55,-25.69],[8.09,-26.11],[7.98,-26.74],[8.54,-27.58],[9.21,-27.79],[9.81,-29.05],[10.91,-29.45],[11.09,-30.08],[14.27,-31.4],[14.48,-32.02],[17.73,-33.27],[17.98,-34.23],[19.15,-34.59],[19.65,-35.15],[20.57,-34.55],[22.17,-34.67],[22.23,-34.08],[24.46,-34.53],[25.27,-34.08],[26.88,-34.14],[28.87,-32.95],[28.91,-32.35],[30.37,-31.57],[30.41,-30.95],[31.08,-30.66],[31.42,-29.38],[34.74,-27.2],[35.13,-26.28],[34.8,-25.27],[35.54,-24.71],[35.93,-23.78],[35.6,-22.74],[36.05,-22.23],[35.73,-21.18],[36.45,-20.62],[36.74,-19.23],[37.71,-18.62],[37.72,-17.95],[38.42,-17.38],[39.11,-17.47],[40.48,-16.32],[40.48,-15.65],[41.07,-15.32],[40.66,-13.17],[41.08,-12.65],[40.75,-11.6],[41.17,-11.08],[40.02,-9.72],[39.78,-8.43],[40.2,-7.92],[39.47,-6.72],[40.13,-5.51],[39.82,-4.47],[40.39,-2.87],[42.22,-1.53],[42.22,-0.89],[43.68,0.16],[43.68,0.78],[44.89,1.76],[45.49,1.64],[47.53,3.31],[47.52,3.9],[48.58,4.61],[48.56,5.19],[49.05,5.44],[49.69,7.39],[50.43,7.83],[50.6,8.93],[51.12,9.33],[50.96,10.04],[51.59,10.43],[51.23,10.77],[51.36,12.22],[50.54,12.18],[49.44,11.38],[47.0,11.41],[44.34,10.46],[44.24,11.02],[43.58,11.34],[43.71,12.32],[44.62,12.38],[46.11,13.44],[46.98,13.1],[48.12,13.93],[48.65,13.76],[51.77,15.38],[52.27,15.2],[52.47,16.14],[53.47,16.71],[53.96,16.53],[56.65,17.3],[56.73,17.62],[56.06,17.79],[56.96,18.08],[57.12,18.73],[58.27,18.96],[57.9,19.41],[58.07,20.08],[58.77,19.9],[59.43,20.46],[59.05,20.92],[59.62,21.14],[60.02,22.54],[60.68,22.56],[62.09,21.61],[65.18,20.72],[65.78,20.92],[68.4,19.92],[69.01,20.11],[70.2,19.53],[72.37,19.81],[72.77,19.38],[72.57,18.78]],[[22.97,-31.25],[22.3,-31.5],[22.24,-32.11],[21.84,-32.33],[21.11,-32.17],[20.76,-32.78],[19.65,-31.83],[19.46,-30.23],[18.4,-30.68],[17.81,-30.29],[18.31,-29.87],[17.72,-29.48],[18.11,-29.27],[18.98,-29.64],[20.14,-28.97],[20.36,-29.58],[21.47,-29.51],[21.92,-28.66],[21.7,-28.05],[22.09,-27.81],[22.25,-29.05],[22.92,-29.83],[23.82,-30.18],[23.76,-30.79],[22.97,-31.25]],[[79.67,13.54],[79.64,12.06],[78.99,11.21],[79.19,10.59],[78.54,9.49],[77.72,9.51],[77.74,10.49],[76.72,10.63],[77.14,11.6],[77.76,11.72],[77.56,12.33],[78.18,12.45],[78.62,13.43],[77.8,13.92],[76.76,13.79],[76.16,14.64],[75.75,14.15],[75.35,14.63],[75.76,15.59],[75.16,16.42],[75.38,17.74],[74.78,18.78],[76.43,19.32],[76.22,19.67],[75.4,19.63],[75.61,20.7],[77.49,20.43],[77.69,19.6],[79.39,19.65],[78.31,19.02],[78.95,18.92],[79.56,17.84],[79.12,16.86],[79.53,16.37],[79.27,14.28],[79.67,13.54]],[[80.67,18.94],[80.69,19.67],[80.27,20.15],[80.32,21.83],[79.01,21.55],[78.57,21.06],[78.15,21.52],[77.29,21.01],[76.66,21.1],[77.3,21.48],[77.1,22.06],[78.16,22.23],[78.61,22.95],[79.47,22.99],[79.27,23.33],[77.97,23.27],[78.42,24.23],[79.29,24.27],[79.06,23.67],[79.71,23.58],[80.17,24.3],[81.05,24.34],[81.51,24.82],[82.39,24.37],[82.86,24.86],[83.76,24.87],[83.96,24.05],[85.59,24.89],[87.2,24.77],[87.92,25.12],[87.15,23.81],[86.45,23.7],[86.33,21.27],[85.65,21.16],[85.21,21.65],[84.74,21.16],[84.94,20.55],[84.47,20.06],[84.67,19.44],[84.19,18.71],[83.07,18.59],[83.27,17.97],[81.7,17.11],[81.28,17.61],[81.52,18.22],[80.44,18.33],[80.67,18.94]],[[28.76,-28.87],[29.21,-29.03],[29.17,-29.66],[28.72,-29.5],[28.76,-28.87]],[[53.54,35.86],[52.4,35.41],[50.32,36.34],[51.26,36.63],[51.78,36.13],[53.54,35.86]],[[18.81,-26.96],[19.24,-27.15],[19.18,-27.78],[18.09,-27.83],[18.0,-27.0],[18.81,-26.96]],[[33.89,37.3],[34.93,37.97],[35.41,37.76],[33.92,36.87],[33.44,37.07],[33.89,37.3]],[[57.1,37.83],[56.28,38.41],[57.32,38.67],[59.03,37.24],[60.24,36.99],[60.2,36.33],[59.48,36.05],[58.28,36.29],[57.39,37.12],[56.59,37.05],[57.1,37.83]],[[47.83,36.44],[46.93,36.13],[46.42,37.0],[46.87,37.16],[47.83,36.44]],[[79.93,6.85],[80.16,7.46],[79.76,8.22],[80.63,9.43],[81.83,7.14],[80.53,5.96],[79.93,6.85]],[[47.52,37.92],[47.56,38.33],[47.86,38.3],[47.99,38.08],[47.52,37.92]],[[13.77,45.38],[14.34,45.27],[13.9,44.98],[13.77,45.38]],[[50.33,32.23],[49.9,32.1],[49.22,33.41],[50.77,33.38],[50.77,32.37],[50.33,32.23]],[[10.7,44.54],[11.5,44.29],[11.08,43.99],[9.41,44.25],[9.02,44.79],[9.43,45.09],[9.82,44.55],[10.7,44.54]],[[51.85,31.18],[51.09,31.71],[51.15,32.1],[52.18,31.53],[51.85,31.18]],[[17.62,-24.71],[17.82,-25.33],[17.33,-25.78],[17.53,-26.4],[16.85,-27.67],[16.23,-26.86],[16.07,-25.2],[16.56,-24.76],[15.99,-24.36],[17.87,-23.2],[18.87,-23.79],[18.38,-24.24],[17.69,-24.07],[17.62,-24.71]],[[31.73,25.96],[32.33,25.56],[32.47,23.81],[31.69,23.31],[31.06,24.13],[30.89,25.89],[31.73,25.96]],[[52.02,44.05],[52.57,44.21],[53.15,43.7],[52.61,43.55],[52.02,44.05]],[[77.5,8.42],[77.09,8.43],[76.9,9.04],[77.71,9.02],[77.5,8.42]],[[31.68,18.72],[30.66,19.7],[31.15,20.19],[30.57,20.57],[31.03,21.49],[31.72,21.33],[31.8,22.0],[32.85,22.52],[33.13,20.59],[32.32,19.0],[31.68,18.72]],[[30.98,38.04],[30.22,37.78],[29.42,39.03],[28.39,39.4],[29.36,39.46],[29.44,40.11],[30.79,39.76],[30.84,39.33],[31.53,38.93],[31.62,38.08],[32.56,38.12],[31.98,37.66],[32.64,37.26],[32.55,36.6],[32.24,36.59],[32.02,37.23],[31.21,37.41],[30.98,38.04]],[[20.22,31.83],[21.02,32.41],[21.71,32.05],[21.2,31.53],[20.22,31.83]],[[28.34,-32.41],[27.26,-32.92],[26.56,-32.18],[28.99,-31.12],[28.84,-31.95],[28.34,-32.41]],[[33.75,40.92],[32.68,40.26],[31.2,40.41],[32.27,41.09],[33.11,40.91],[34.04,41.35],[34.22,41.14],[33.75,40.92]],[[77.53,22.79],[77.12,23.23],[77.33,23.59],[77.75,23.15],[77.53,22.79]],[[16.74,33.51],[18.04,33.29],[18.34,32.66],[19.14,32.57],[19.33,31.69],[18.24,31.06],[15.79,31.75],[15.57,32.61],[14.57,32.87],[14.46,33.3],[15.64,33.53],[16.34,33.21],[16.74,33.51]],[[46.45,37.4],[46.19,37.84],[46.93,37.98],[47.06,37.76],[46.45,37.4]],[[34.04,-8.01],[34.73,-7.46],[34.24,-6.87],[35.45,-5.58],[36.08,-7.03],[34.8,-7.9],[34.43,-8.85],[33.6,-8.52],[34.04,-8.01]],[[35.54,17.57],[35.15,17.75],[35.19,19.25],[33.78,20.86],[33.84,21.95],[34.64,22.01],[33.75,23.25],[35.42,22.49],[35.41,20.12],[36.21,19.75],[36.25,18.9],[37.19,17.91],[36.42,17.86],[36.32,17.22],[35.54,17.57]],[[-1.5,40.33],[-1.32,39.94],[-1.83,40.01],[-2.16,41.04],[-1.65,40.97],[-1.5,40.33]],[[25.33,29.59],[22.93,30.42],[22.77,31.3],[23.26,31.14],[23.34,30.7],[24.86,31.56],[27.26,30.7],[27.32,30.26],[26.55,30.4],[26.62,29.96],[26.09,29.45],[25.33,29.59]],[[50.94,33.56],[51.28,33.92],[51.78,33.43],[50.94,33.56]],[[28.58,44.89],[28.78,44.69],[28.3,44.46],[28.03,45.06],[28.51,45.3],[28.58,44.89]],[[25.42,-32.28],[26.1,-32.02],[26.34,-32.6],[25.48,-32.68],[25.42,-32.28]],[[13.71,42.41],[13.07,42.28],[12.89,43.31],[13.45,43.21],[13.71,42.41]],[[11.78,43.51],[11.64,43.9],[12.2,43.81],[11.78,43.51]],[[55.72,43.58],[56.17,43.29],[55.06,43.01],[53.58,44.09],[54.13,44.24],[55.17,43.44],[55.72,43.58]],[[-5.63,31.79],[-6.9,31.27],[-5.53,32.53],[-5.05,32.49],[-5.63,31.79]],[[29.38,36.86],[29.32,37.29],[30.27,37.35],[30.19,36.7],[29.38,36.86]],[[42.36,13.78],[41.9,14.55],[42.61,14.99],[42.71,14.0],[42.36,13.78]],[[-5.17,40.8],[-4.92,40.65],[-5.24,40.32],[-5.45,40.71],[-5.17,40.8]],[[-0.85,40.97],[-0.44,40.42],[-0.77,40.1],[-1.18,40.65],[-0.85,40.97]],[[30.86,36.3],[30.81,36.73],[31.12,36.75],[31.3,36.54],[30.86,36.3]],[[37.25,-6.41],[37.91,-6.52],[37.99,-6.95],[36.98,-7.78],[36.31,-7.66],[36.24,-7.23],[36.9,-7.35],[37.25,-6.41]],[[22.11,-23.56],[22.43,-23.96],[21.78,-24.23],[22.11,-23.56]],[[47.13,38.58],[46.51,38.22],[46.08,38.47],[46.7,38.83],[47.13,38.58]],[[-7.87,31.33],[-7.64,31.19],[-7.92,30.83],[-8.12,31.22],[-7.87,31.33]]],[[[122.37,31.99],[121.68,31.7],[121.96,30.9],[120.57,30.3],[121.42,30.29],[121.77,29.88],[122.47,30.18],[121.93,29.57],[122.05,29.05],[121.25,28.12],[120.6,28.03],[120.72,27.5],[119.47,26.23],[119.58,25.64],[118.57,24.53],[117.94,24.55],[117.14,23.46],[116.5,23.48],[115.99,22.89],[115.38,23.12],[114.2,22.53],[112.92,22.76],[113.48,22.06],[110.99,21.65],[110.2,20.68],[109.64,21.62],[108.07,21.73],[107.5,20.83],[106.36,20.86],[106.52,20.22],[105.56,19.85],[105.64,18.47],[106.09,18.41],[106.01,19.79],[107.69,20.44],[108.49,21.43],[109.94,20.36],[109.23,20.1],[109.14,19.37],[110.34,20.05],[110.98,19.83],[110.16,18.6],[109.23,18.24],[109.4,17.85],[110.34,18.21],[111.39,19.52],[111.25,20.15],[110.61,20.38],[111.17,21.26],[112.1,21.59],[112.73,21.36],[113.22,21.75],[114.08,21.6],[114.63,22.45],[116.37,22.57],[116.66,23.1],[117.29,23.08],[118.09,24.18],[119.62,24.62],[120.14,25.26],[120.02,25.81],[120.93,26.21],[120.81,26.75],[122.1,28.1],[122.36,29.56],[122.86,29.96],[123.01,30.78],[122.38,30.89],[122.07,31.5],[122.37,31.99]]],[[[98.62,4.17],[98.05,5.37],[96.48,5.36],[95.43,6.34],[94.95,5.86],[94.87,4.83],[95.32,4.8],[95.82,5.53],[96.23,4.99],[97.8,5.0],[98.37,3.8],[99.65,3.19],[99.82,2.54],[100.65,1.97],[101.32,2.05],[102.15,1.48],[102.51,0.7],[103.38,0.63],[103.74,-0.15],[103.64,-1.13],[104.27,-1.3],[104.6,-2.31],[105.64,-2.5],[105.99,-3.25],[105.72,-3.84],[106.14,-3.86],[106.63,-3.17],[108.71,-3.3],[108.63,-2.21],[107.91,-3.01],[107.99,-2.29],[107.33,-2.61],[106.19,-1.31],[105.55,-1.39],[105.17,-0.87],[105.1,-1.61],[104.67,-1.58],[104.52,-0.95],[105.27,0.11],[104.64,0.28],[105.17,1.24],[104.36,1.81],[104.46,2.81],[103.23,3.67],[103.14,2.66],[103.78,2.48],[104.14,1.7],[103.88,1.34],[101.39,2.8],[101.67,3.42],[101.02,3.59],[100.65,4.39],[100.93,5.01],[100.36,6.21],[99.98,7.01],[99.33,7.2],[99.6,7.82],[98.3,8.44],[98.39,9.47],[98.88,9.94],[99.27,9.14],[99.93,8.95],[100.31,8.15],[100.22,7.12],[101.06,6.54],[101.74,6.61],[101.58,7.26],[100.73,7.85],[101.01,8.47],[100.16,9.06],[100.45,9.68],[99.66,11.04],[100.44,12.13],[100.51,12.9],[102.64,11.41],[102.73,9.99],[103.43,10.31],[104.27,9.71],[104.61,8.65],[105.49,8.57],[105.77,9.18],[104.87,9.01],[105.15,9.63],[104.79,10.43],[103.69,10.67],[103.98,11.28],[103.32,11.48],[103.16,12.13],[102.31,12.73],[101.17,12.71],[101.24,13.48],[100.14,13.96],[99.98,12.17],[99.23,11.34],[99.4,10.68],[98.9,10.2],[98.52,11.01],[99.03,11.74],[98.17,12.33],[98.91,12.91],[97.93,14.92],[97.47,14.96],[97.38,13.94],[97.8,13.39],[97.71,12.36],[97.2,11.63],[97.87,11.45],[97.35,10.71],[97.74,9.91],[97.4,8.51],[98.07,8.33],[98.2,7.16],[98.9,7.49],[98.81,6.46],[100.11,5.84],[99.83,5.23],[101.16,2.69],[100.91,2.33],[100.07,2.91],[99.91,3.56],[98.62,4.17]],[[106.04,-2.77],[105.7,-2.01],[105.94,-1.66],[106.49,-2.56],[106.04,-2.77]]],[[[107.53,17.1],[106.9,17.56],[106.75,18.21],[106.3,18.26],[106.82,16.82],[109.29,14.99],[109.14,15.64],[108.5,15.85],[108.35,16.49],[107.53,17.1]]],[[[73.71,5.53],[73.14,7.33],[72.76,7.34],[72.38,6.64],[72.95,6.27],[72.57,5.58],[72.95,4.62],[72.39,3.6],[73.13,1.69],[73.89,2.11],[73.52,3.77],[73.9,4.46],[73.33,4.61],[73.71,5.53]]],[[[-0.25,53.17],[-0.04,52.79],[-0.49,52.3],[0.38,52.04],[-1.0,51.58],[-0.84,50.98],[-2.76,50.82],[-2.99,51.2],[-2.6,51.49],[-3.51,51.73],[-4.27,51.14],[-3.41,50.68],[-4.73,50.39],[-3.88,49.93],[-2.81,50.59],[-1.34,50.25],[-0.63,50.6],[1.18,50.52],[0.74,50.02],[-0.16,50.06],[0.04,49.67],[-0.33,49.39],[-1.39,50.03],[-2.31,50.05],[-2.73,49.53],[-2.29,48.76],[-3.1,49.23],[-4.39,48.94],[-4.15,48.55],[-2.39,48.31],[-1.13,48.58],[-1.29,49.19],[0.18,49.07],[1.69,50.19],[1.57,50.79],[3.85,50.38],[4.59,50.77],[6.8,50.93],[8.18,52.03],[7.3,52.21],[7.83,52.71],[7.65,53.05],[9.47,54.18],[8.56,54.36],[9.12,54.85],[8.58,55.83],[7.93,55.87],[8.29,55.23],[7.83,54.95],[7.92,54.41],[7.02,53.84],[4.98,53.55],[4.15,53.01],[4.25,52.42],[1.96,51.06],[1.51,51.61],[2.17,52.73],[1.98,53.11],[0.76,53.33],[0.13,54.45],[-0.79,54.72],[-1.2,54.45],[-0.28,54.19],[0.15,53.44],[-0.25,53.17]],[[7.29,53.72],[7.92,53.67],[7.47,53.39],[7.29,53.72]]],[[[20.96,45.86],[20.43,47.83],[19.01,47.65],[17.96,46.9],[18.54,46.78],[18.89,46.21],[19.93,46.35],[19.0,45.81],[19.11,45.42],[21.16,45.06],[20.96,45.86]]],[[[4.81,5.99],[4.7,6.35],[3.58,6.71],[2.76,6.54],[3.24,6.07],[3.7,6.35],[4.81,5.99]]],[[[-144.69,-17.13],[-143.66,-16.8],[-143.64,-16.38],[-144.28,-16.54],[-145.13,-15.83],[-145.77,-15.98],[-146.23,-15.1],[-148.51,-14.87],[-147.67,-15.59],[-147.01,-15.44],[-146.57,-16.33],[-145.15,-16.25],[-145.88,-17.66],[-145.23,-17.51],[-145.06,-16.89],[-144.69,-17.13]]],[[[-24.84,14.82],[-24.59,14.49],[-23.29,14.59],[-22.91,15.31],[-23.82,15.71],[-24.22,15.21],[-25.09,15.14],[-24.84,14.82]]],[[[54.36,12.35],[54.63,12.18],[54.71,12.89],[53.65,13.04],[52.86,12.11],[53.73,11.97],[54.36,12.35]]],[[[72.58,-5.32],[71.97,-5.12],[71.71,-5.44],[72.32,-5.63],[72.58,-5.32]]],[[[-25.52,17.33],[-25.45,16.63],[-24.53,16.23],[-23.87,16.4],[-24.14,16.97],[-25.52,17.33]]],[[[45.02,-25.97],[46.79,-25.54],[47.44,-24.95],[48.64,-21.26],[47.92,-21.44],[47.94,-22.08],[47.15,-23.13],[46.32,-22.91],[46.13,-22.1],[45.72,-21.98],[45.31,-22.51],[45.9,-22.8],[46.08,-23.61],[45.76,-24.53],[45.25,-24.02],[44.66,-24.37],[44.48,-23.56],[43.28,-22.33],[44.76,-19.39],[44.18,-19.09],[44.59,-18.56],[44.0,-18.25],[44.41,-17.73],[44.16,-17.12],[43.5,-17.7],[44.11,-19.98],[42.86,-22.21],[43.03,-23.03],[43.63,-23.33],[43.21,-23.85],[43.38,-24.67],[44.08,-25.36],[44.76,-25.41],[45.02,-25.97]]],[[[5.69,-1.25],[5.27,-1.31],[5.92,-1.61],[5.69,-1.25]]],[[[-39.8,-18.14],[-39.71,-18.62],[-38.95,-17.75],[-39.65,-17.74],[-39.8,-18.14]]],[[[30.76,-13.22],[31.18,-13.38],[31.15,-12.26],[32.12,-11.67],[31.98,-10.79],[30.72,-12.09],[30.69,-12.78],[29.28,-13.2],[29.41,-14.08],[30.76,-13.22]]],[[[-35.28,-6.72],[-34.86,-7.81],[-34.56,-6.98],[-35.28,-6.72]]],[[[51.09,-9.54],[51.22,-9.08],[50.63,-9.0],[50.65,-9.63],[51.09,-9.54]]],[[[-142.12,-16.09],[-142.36,-15.66],[-142.87,-16.03],[-142.12,-16.09]]],[[[15.95,48.01],[16.78,47.73],[17.03,46.96],[18.9,48.04],[18.07,48.33],[17.95,48.71],[16.99,48.77],[16.62,49.31],[15.8,48.98],[15.95,48.01]]],[[[-123.5,38.01],[-122.64,37.85],[-122.71,37.21],[-122.06,36.87],[-122.14,36.23],[-121.08,35.34],[-120.58,35.45],[-121.64,36.34],[-121.56,36.98],[-122.2,37.33],[-122.13,37.96],[-123.51,38.86],[-123.5,38.01]]],[[[0.2,5.29],[0.31,5.86],[-0.47,5.71],[-0.73,5.29],[-1.84,5.24],[-2.31,4.61],[0.2,5.29]]],[[[93.12,8.69],[92.95,9.6],[92.45,8.86],[93.86,6.32],[94.36,7.06],[93.52,7.89],[94.02,8.63],[93.32,8.29],[93.12,8.69]]],[[[73.58,-0.94],[73.45,-0.38],[73.88,0.25],[73.32,1.1],[72.73,0.35],[73.29,-0.04],[72.77,-0.84],[73.58,-0.94]]],[[[9.89,55.72],[9.32,55.25],[9.67,54.59],[10.58,54.4],[10.92,53.72],[13.38,54.52],[13.95,53.69],[14.97,53.67],[16.6,54.63],[15.95,54.73],[14.94,54.22],[13.87,54.78],[11.43,54.74],[14.22,55.38],[14.64,54.9],[15.14,55.16],[14.72,55.64],[15.36,56.09],[15.08,56.23],[14.02,56.25],[14.06,55.72],[12.9,55.53],[12.85,56.06],[13.36,56.32],[12.75,57.11],[11.42,56.0],[10.75,56.06],[11.35,56.52],[10.69,56.58],[9.89,55.72]],[[11.69,55.87],[12.24,55.61],[11.1,55.4],[11.69,55.87]]],[[[-46.14,-23.88],[-47.04,-23.99],[-46.91,-24.67],[-46.55,-24.16],[-44.94,-24.08],[-44.17,-23.28],[-44.71,-22.88],[-46.14,-23.88]]],[[[100.6,-3.5],[101.03,-3.53],[100.87,-2.91],[99.43,-1.94],[98.69,-0.4],[99.37,-0.07],[99.95,-0.99],[100.64,-0.67],[99.19,0.32],[99.27,1.32],[98.9,2.11],[97.61,2.71],[97.25,3.76],[95.53,4.66],[95.71,4.0],[97.0,3.4],[97.17,2.75],[96.5,2.67],[96.09,3.21],[95.21,3.27],[94.96,2.91],[95.61,2.74],[96.0,1.94],[97.32,1.85],[96.61,1.27],[98.08,0.27],[97.81,-0.33],[98.64,-0.89],[98.56,-1.88],[99.82,-2.47],[100.17,-3.47],[100.6,-3.5]],[[98.12,0.77],[98.37,1.13],[98.75,0.35],[98.12,0.77]]],[[[107.15,-6.06],[107.57,-6.09],[107.4,-5.72],[106.77,-5.81],[105.98,-5.29],[106.26,-4.71],[105.89,-4.21],[105.32,-5.61],[104.67,-5.69],[103.28,-4.77],[103.13,-4.16],[102.5,-3.99],[101.55,-2.59],[101.12,-2.56],[101.46,-3.56],[102.09,-3.72],[103.03,-5.11],[104.43,-6.03],[105.27,-6.08],[105.0,-6.65],[105.36,-7.14],[106.59,-7.44],[106.86,-6.87],[106.03,-6.83],[105.86,-6.46],[106.32,-6.02],[107.15,-6.06]]],[[[122.16,37.44],[122.05,36.9],[122.92,36.91],[122.63,37.63],[121.37,37.79],[120.88,38.59],[120.39,38.35],[120.51,37.85],[119.86,37.93],[119.71,37.21],[120.13,37.09],[120.92,37.73],[122.16,37.44]]],[[[100.91,-2.42],[101.0,-1.44],[100.14,-1.38],[100.75,-1.79],[100.48,-2.39],[100.91,-2.42]]],[[[8.43,50.34],[7.91,49.82],[8.33,49.33],[7.49,48.73],[7.66,48.37],[9.52,49.19],[8.67,49.4],[8.6,49.98],[9.03,50.27],[8.43,50.34]]],[[[106.41,2.77],[106.49,3.52],[105.58,3.09],[105.93,2.31],[106.59,2.38],[106.41,2.77]]],[[[-7.44,4.1],[-5.41,5.03],[-6.27,5.08],[-7.58,4.36],[-8.26,4.69],[-8.47,4.4],[-7.44,4.1]]],[[[121.04,32.88],[121.31,33.17],[120.6,33.91],[120.9,33.22],[120.6,32.79],[121.04,32.88]]],[[[33.91,-14.55],[34.67,-15.1],[34.53,-14.23],[33.84,-14.11],[33.39,-14.63],[33.91,-14.55]]],[[[-39.87,-19.01],[-40.29,-20.43],[-40.95,-20.65],[-41.38,-22.04],[-42.03,-22.26],[-42.15,-22.87],[-43.8,-22.76],[-43.96,-23.13],[-41.85,-23.18],[-41.74,-22.57],[-41.08,-22.35],[-40.65,-20.97],[-40.0,-20.74],[-39.37,-19.17],[-39.87,-19.01]]],[[[-118.67,34.33],[-118.83,33.92],[-118.14,33.29],[-117.64,33.39],[-118.67,34.33]]],[[[47.32,-10.11],[47.94,-10.2],[47.77,-9.37],[47.23,-9.7],[47.32,-10.11]]],[[[-39.04,-17.27],[-39.18,-16.54],[-39.49,-17.34],[-39.04,-17.27]]],[[[102.39,6.42],[101.95,6.46],[102.11,5.81],[103.38,5.18],[103.28,4.17],[103.72,4.14],[104.0,4.75],[103.45,5.94],[102.58,6.02],[102.39,6.42]]],[[[92.25,12.74],[92.45,12.34],[91.97,11.85],[91.9,10.83],[92.32,10.29],[93.0,10.37],[92.82,11.03],[93.58,12.14],[94.27,12.23],[94.07,12.63],[93.16,12.68],[93.23,13.71],[93.98,14.56],[93.57,15.35],[93.52,14.59],[92.25,12.74]]],[[[-4.92,4.78],[-4.18,5.12],[-4.85,5.33],[-4.92,4.78]]],[[[109.29,-0.07],[109.04,1.43],[108.54,0.73],[108.87,-0.04],[109.29,-0.07]]],[[[-80.9,28.66],[-80.31,28.26],[-80.64,29.23],[-81.07,29.26],[-80.9,28.66]]],[[[19.06,54.58],[18.67,55.08],[17.63,55.13],[16.98,54.69],[18.15,54.83],[19.19,54.22],[21.16,54.98],[21.19,55.52],[20.53,55.63],[20.51,55.09],[19.46,55.16],[19.59,54.82],[19.06,54.58]]],[[[77.85,51.23],[77.49,51.35],[77.18,50.95],[78.24,50.86],[78.99,50.11],[79.65,50.64],[78.56,51.25],[77.85,51.23]]],[[[1.08,14.11],[1.39,13.56],[2.38,13.4],[2.25,13.78],[1.47,14.0],[1.21,14.76],[0.6,14.81],[1.08,14.11]]],[[[-23.24,16.8],[-23.19,16.1],[-22.71,15.67],[-22.32,16.4],[-22.81,17.06],[-23.24,16.8]]],[[[-149.73,-16.86],[-149.81,-17.71],[-149.18,-17.99],[-149.73,-16.86]]],[[[29.2,25.74],[28.92,25.71],[28.97,25.27],[29.36,25.53],[29.2,25.74]]],[[[43.22,-12.46],[43.79,-12.79],[44.76,-12.6],[45.01,-13.21],[45.64,-12.64],[44.84,-12.36],[44.59,-11.75],[43.62,-11.94],[43.37,-11.33],[43.05,-11.61],[43.22,-12.46]]],[[[43.0,38.89],[42.55,38.7],[43.43,38.24],[43.45,39.07],[43.0,38.89]]],[[[119.71,23.85],[119.05,23.62],[119.17,23.02],[120.17,22.83],[120.63,21.79],[121.69,21.84],[121.12,22.22],[121.8,22.52],[121.53,23.44],[122.43,25.07],[122.12,25.74],[120.75,25.13],[119.71,23.85]],[[120.54,23.82],[120.9,24.8],[121.74,24.76],[120.97,22.56],[120.55,22.58],[120.24,23.27],[120.54,23.82]]],[[[117.89,38.16],[118.98,37.98],[118.87,37.43],[119.45,36.99],[119.44,38.04],[117.96,38.52],[119.36,39.07],[119.48,39.61],[120.78,40.29],[120.79,40.64],[119.13,39.74],[119.01,39.2],[117.71,39.19],[117.89,38.16]]],[[[52.34,11.9],[52.58,12.28],[52.09,12.43],[52.34,11.9]]],[[[110.37,-6.69],[107.76,-6.21],[108.5,-6.95],[110.52,-7.04],[110.98,-6.6],[110.82,-6.24],[110.37,-6.69]]],[[[48.92,-14.74],[49.38,-14.63],[48.86,-12.81],[49.55,-12.66],[50.25,-15.28],[49.56,-15.45],[49.84,-16.67],[49.16,-17.49],[49.42,-18.07],[48.99,-19.46],[49.53,-19.11],[49.63,-17.37],[50.73,-15.81],[50.0,-12.55],[49.37,-11.84],[48.45,-12.04],[48.47,-12.68],[47.63,-13.3],[47.43,-14.65],[46.49,-15.51],[46.9,-15.64],[48.13,-14.49],[48.42,-13.56],[48.9,-14.1],[48.53,-14.62],[48.92,-14.74]]],[[[109.07,-2.0],[109.54,-1.55],[109.37,-1.17],[108.49,-1.6],[109.07,-2.0]]],[[[6.94,0.1],[6.59,0.63],[6.19,-0.21],[6.52,-0.35],[6.94,0.1]]],[[[114.63,-8.75],[114.72,-8.09],[113.9,-8.51],[114.04,-8.85],[114.63,-8.75]]],[[[45.45,-15.96],[45.86,-16.09],[46.09,-15.39],[45.12,-15.6],[44.72,-16.12],[44.07,-16.04],[44.07,-16.7],[44.49,-16.83],[45.45,-15.96]]],[[[102.13,-5.54],[102.54,-5.8],[102.18,-5.06],[102.13,-5.54]]],[[[30.93,-5.57],[30.42,-5.64],[30.65,-6.27],[30.93,-5.57]]],[[[57.29,-19.96],[57.1,-20.69],[58.1,-20.39],[57.84,-19.57],[57.29,-19.96]]],[[[7.73,1.77],[7.08,1.67],[7.75,1.39],[7.73,1.77]]],[[[97.24,-12.39],[96.87,-11.7],[96.41,-12.12],[96.6,-12.46],[97.24,-12.39]]],[[[71.22,-5.85],[70.93,-6.39],[71.28,-6.91],[71.64,-5.9],[71.22,-5.85]]],[[[47.8,-19.76],[48.18,-19.23],[48.0,-18.42],[48.64,-18.47],[48.55,-18.07],[47.34,-17.71],[46.47,-18.35],[46.65,-19.18],[46.02,-20.41],[46.69,-21.11],[46.29,-21.63],[46.64,-22.62],[47.53,-21.97],[47.35,-21.16],[48.05,-20.34],[47.8,-19.76]]],[[[115.44,-33.72],[115.47,-33.37],[114.78,-33.47],[114.58,-33.98],[114.97,-34.2],[115.44,-33.72]]],[[[29.93,1.24],[31.19,2.04],[30.94,3.67],[30.36,3.39],[30.33,2.76],[29.59,2.66],[30.14,2.32],[29.71,1.84],[29.93,1.24]]],[[[29.5,-7.33],[29.37,-8.24],[30.07,-7.69],[29.85,-7.05],[29.5,-7.33]]],[[[-48.75,-25.89],[-49.03,-26.81],[-48.45,-27.42],[-49.14,-28.57],[-48.85,-28.87],[-48.0,-27.37],[-48.62,-26.55],[-48.14,-25.49],[-47.32,-24.94],[-47.61,-24.63],[-48.75,-25.89]]],[[[109.23,-7.67],[107.82,-7.49],[107.77,-7.95],[110.01,-7.93],[110.36,-8.4],[111.37,-8.32],[110.26,-7.6],[109.23,-7.67]]],[[[-15.41,27.77],[-13.95,27.77],[-13.18,28.89],[-13.65,29.65],[-14.92,28.02],[-16.14,28.9],[-17.14,28.38],[-17.9,29.25],[-18.39,28.73],[-18.13,28.35],[-18.37,27.72],[-17.86,27.22],[-17.63,28.11],[-17.13,27.62],[-16.15,28.14],[-15.41,27.77]]],[[[1.98,6.58],[1.18,6.41],[0.67,5.75],[2.47,6.11],[1.98,6.58]]],[[[13.64,-14.61],[13.28,-14.85],[13.45,-15.49],[13.81,-15.25],[13.64,-14.61]]],[[[115.54,-32.68],[116.13,-32.05],[115.64,-31.67],[115.7,-31.0],[115.08,-30.77],[115.41,-31.31],[115.16,-32.47],[115.54,-32.68]]],[[[72.77,11.61],[72.0,10.66],[72.96,11.02],[73.15,11.61],[72.77,12.08],[72.77,11.61]]],[[[48.91,-19.69],[48.29,-20.28],[48.55,-20.85],[48.91,-19.69]]],[[[8.32,47.72],[7.58,48.15],[7.17,47.84],[7.5,47.11],[8.32,46.9],[9.57,47.8],[8.32,47.72]]],[[[-3.66,5.05],[-2.65,4.72],[-2.77,5.05],[-3.79,5.38],[-4.0,5.16],[-3.66,5.05]]],[[[105.82,-10.6],[105.87,-10.15],[105.38,-10.8],[105.82,-10.6]]],[[[51.2,-10.57],[51.4,-9.89],[50.83,-10.44],[51.2,-10.57]]],[[[121.58,40.21],[121.56,39.86],[121.95,40.01],[121.58,40.21]]],[[[82.28,21.27],[82.52,21.63],[83.18,21.52],[83.14,20.55],[82.68,20.06],[82.89,19.69],[84.28,20.92],[84.32,21.89],[81.65,22.34],[80.96,21.25],[82.28,21.27]]],[[[-2.06,14.5],[-1.47,14.46],[-1.37,15.1],[-1.82,14.77],[-2.57,14.97],[-3.76,13.41],[-3.39,13.31],[-2.06,14.5]]],[[[-82.13,26.28],[-81.54,25.88],[-81.9,26.62],[-82.13,26.28]]],[[[55.54,-4.22],[54.95,-4.24],[55.15,-4.95],[55.75,-4.93],[56.08,-4.42],[55.87,-3.71],[55.12,-3.6],[55.54,-4.22]]],[[[108.43,19.1],[108.58,18.46],[109.02,18.4],[108.7,19.43],[108.25,19.5],[108.43,19.1]]],[[[6.12,4.16],[7.39,4.38],[5.69,4.65],[5.35,5.71],[4.98,5.83],[5.27,4.57],[5.81,3.92],[6.12,4.16]]],[[[-146.17,-14.28],[-146.56,-14.45],[-146.2,-14.69],[-145.67,-14.33],[-146.17,-14.28]]],[[[-14.23,-7.95],[-14.16,-7.6],[-14.54,-7.72],[-14.54,-8.26],[-14.23,-7.95]]],[[[120.3,34.6],[119.96,35.09],[119.31,35.16],[119.62,34.48],[120.3,34.6]]],[[[-9.13,5.1],[-9.81,5.63],[-9.5,4.9],[-8.62,4.67],[-8.76,5.12],[-9.13,5.1]]],[[[-140.68,-18.27],[-140.92,-17.83],[-141.43,-18.22],[-140.94,-18.67],[-140.68,-18.27]]],[[[-15.87,33.09],[-16.13,33.47],[-17.7,32.69],[-16.65,32.19],[-15.87,33.09]]],[[[120.85,39.1],[121.33,38.65],[121.85,39.05],[121.44,39.68],[120.85,39.1]]],[[[-56.63,-34.89],[-55.75,-34.88],[-56.03,-34.6],[-56.63,-34.89]]],[[[107.6,3.8],[107.52,3.05],[108.19,3.37],[108.3,4.36],[107.93,4.9],[107.6,3.8]]],[[[120.1,35.84],[120.25,35.5],[121.15,35.65],[121.04,36.17],[121.81,36.81],[120.47,36.61],[120.59,36.1],[119.95,36.17],[120.1,35.84]]],[[[-151.81,-16.62],[-151.34,-17.1],[-150.92,-16.94],[-151.76,-16.19],[-152.17,-16.36],[-151.81,-16.62]]],[[[28.36,26.77],[28.76,27.04],[28.54,27.69],[27.73,27.16],[27.96,26.51],[28.36,26.77]]],[[[109.37,2.52],[109.23,3.15],[108.81,3.19],[108.7,2.2],[109.37,2.52]]],[[[46.14,-9.7],[46.77,-9.79],[46.6,-8.96],[46.06,-9.28],[46.14,-9.7]]],[[[122.5,39.02],[122.82,39.26],[122.26,39.54],[122.08,39.07],[122.5,39.02]]],[[[55.23,-21.68],[55.98,-21.47],[55.73,-20.64],[55.06,-20.62],[55.23,-21.68]]],[[[-5.76,21.31],[-5.11,21.4],[-5.45,22.11],[-5.93,21.66],[-5.76,21.31]]],[[[35.51,-12.94],[35.16,-13.23],[35.58,-13.38],[36.02,-12.86],[35.51,-12.94]]],[[[-143.27,-16.62],[-142.92,-17.28],[-142.77,-16.66],[-143.27,-16.62]]],[[[-145.28,-14.16],[-145.45,-14.76],[-145.08,-15.01],[-144.92,-14.4],[-145.28,-14.16]]],[[[-64.31,32.52],[-64.73,32.66],[-65.22,32.26],[-64.31,32.52]]],[[[113.75,-8.17],[113.18,-8.05],[112.94,-8.37],[113.51,-8.5],[113.75,-8.17]]],[[[123.25,24.8],[122.75,24.38],[122.91,24.04],[124.19,23.97],[124.7,24.39],[124.54,24.73],[123.25,24.8]]],[[[89.52,42.84],[89.21,42.73],[89.46,42.34],[89.79,42.7],[89.52,42.84]]],[[[28.74,59.58],[28.6,59.96],[28.09,59.68],[28.74,59.58]]],[[[-82.39,28.66],[-82.82,28.7],[-83.08,28.12],[-82.65,28.09],[-82.39,28.66]]],[[[-117.18,32.58],[-117.01,33.0],[-117.29,33.07],[-117.52,32.9],[-117.18,32.58]]],[[[14.07,50.08],[14.92,49.83],[15.39,50.1],[14.53,50.35],[14.07,50.08]]],[[[121.2,32.59],[121.32,32.1],[121.75,32.09],[121.63,32.59],[121.2,32.59]]],[[[72.1,-7.25],[72.69,-7.68],[72.56,-7.07],[72.1,-7.25]]],[[[107.47,0.69],[107.72,1.04],[107.3,1.07],[107.02,0.47],[107.47,0.69]]],[[[15.88,56.34],[16.02,56.0],[16.54,56.25],[15.88,56.34]]],[[[-54.63,-34.96],[-54.47,-34.67],[-54.91,-34.68],[-54.63,-34.96]]],[[[53.49,-5.28],[53.14,-5.14],[53.17,-5.76],[53.89,-5.99],[53.49,-5.28]]],[[[81.19,6.8],[80.99,7.18],[80.36,7.08],[80.55,6.7],[81.19,6.8]]],[[[-120.6,34.56],[-120.03,34.43],[-120.44,34.97],[-120.95,34.87],[-120.6,34.56]]]]}}]}