{"type":"FeatureCollection","features":[{"type":"Feature","properties":{},"geometry":{"type":"MultiPolygon","coordinates":[[[[34.06,69.15],[34.4,69.0],[35.78,69.3],[36.12,69.14],[35.87,68.94],[36.2,68.78],[37.67,68.7],[37.99,68.53],[37.74,68.33],[38.05,68.16],[40.36,67.92],[40.66,67.75],[40.39,67.54],[41.53,67.22],[41.26,67.01],[40.7,66.98],[40.44,66.78],[40.72,66.6],[40.46,66.4],[39.14,66.13],[37.21,66.57],[35.94,66.28],[35.64,66.45],[35.86,66.66],[35.55,66.82],[32.52,67.11],[32.33,66.9],[33.16,66.79],[33.48,66.63],[33.28,66.42],[34.4,66.14],[34.2,65.93],[34.5,65.77],[34.3,65.56],[34.6,65.39],[34.4,65.18],[35.19,65.06],[35.48,64.89],[35.27,64.67],[35.56,64.5],[36.05,64.54],[36.33,64.37],[36.12,64.16],[37.15,63.85],[37.64,63.88],[37.85,64.1],[36.82,64.41],[37.03,64.62],[36.75,64.8],[36.96,65.01],[39.8,64.61],[40.04,64.82],[39.77,65.0],[40.01,65.21],[39.74,65.39],[39.98,65.6],[42.1,66.09],[42.37,66.29],[43.73,66.14],[44.86,66.56],[44.6,66.75],[44.9,66.95],[44.63,67.14],[44.06,67.12],[43.79,67.3],[44.09,67.5],[43.81,67.69],[44.11,67.89],[44.7,67.9],[45.01,68.1],[43.86,68.45],[44.17,68.65],[45.65,68.5],[46.79,68.14],[44.66,67.52],[44.93,67.34],[45.51,67.35],[45.77,67.16],[45.46,66.96],[45.72,66.78],[48.08,67.19],[48.41,67.38],[48.16,67.58],[48.5,67.77],[53.38,68.68],[54.01,68.66],[54.23,68.46],[53.83,68.28],[54.05,68.08],[54.66,68.06],[55.06,68.24],[54.85,68.44],[55.25,68.62],[56.92,68.75],[57.12,68.54],[57.75,68.51],[58.18,68.68],[57.98,68.89],[58.42,69.06],[59.05,69.03],[59.24,68.82],[58.8,68.65],[58.99,68.44],[60.68,68.53],[61.13,68.7],[60.95,68.91],[61.41,69.07],[60.41,69.53],[61.83,69.82],[63.39,69.51],[63.8,69.67],[63.56,69.89],[63.98,70.05],[63.73,70.27],[64.16,70.44],[63.91,70.66],[64.35,70.82],[66.2,70.87],[66.42,70.65],[65.96,70.49],[66.18,70.26],[65.74,70.1],[65.96,69.88],[66.61,69.82],[67.06,69.98],[66.85,70.2],[67.31,70.36],[67.1,70.58],[67.57,70.74],[66.44,71.25],[68.13,71.51],[67.92,71.74],[68.43,71.9],[69.16,71.82],[69.69,71.98],[69.49,72.21],[68.74,72.28],[68.53,72.51],[69.07,72.67],[68.85,72.9],[69.41,73.06],[71.15,72.68],[71.73,72.83],[72.49,72.75],[72.66,72.51],[72.08,72.36],[72.25,72.13],[71.69,71.98],[71.86,71.74],[71.32,71.59],[71.49,71.36],[73.03,70.96],[73.17,70.73],[72.64,70.58],[72.79,70.35],[72.28,70.21],[72.42,69.98],[71.93,69.83],[72.07,69.6],[72.71,69.52],[72.85,69.29],[72.36,69.15],[72.5,68.92],[73.11,68.83],[73.24,68.6],[74.55,68.19],[75.03,68.33],[74.92,68.56],[74.32,68.65],[74.21,68.88],[75.82,69.05],[75.71,69.29],[75.09,69.38],[73.97,69.34],[73.84,69.57],[74.35,69.71],[74.23,69.94],[73.58,70.03],[73.45,70.26],[73.97,70.41],[73.84,70.64],[74.38,70.78],[74.25,71.01],[73.57,71.11],[73.43,71.34],[73.98,71.48],[73.84,71.72],[74.42,71.86],[75.13,71.77],[75.25,71.53],[76.74,71.1],[77.32,71.23],[77.22,71.47],[76.53,71.57],[76.42,71.81],[78.34,71.97],[78.26,72.21],[77.54,72.32],[77.44,72.56],[78.08,72.69],[78.81,72.58],[78.89,72.34],[80.95,72.24],[81.0,72.0],[82.4,71.52],[82.43,71.28],[81.8,71.16],[81.83,70.92],[83.1,70.92],[83.08,71.16],[83.72,71.27],[83.71,71.51],[82.34,72.0],[82.31,72.25],[81.61,72.37],[81.57,72.61],[80.85,72.73],[80.8,72.97],[80.06,73.09],[80.0,73.33],[82.15,73.46],[82.12,73.71],[82.85,73.83],[85.85,73.8],[85.87,74.05],[86.65,74.16],[86.69,74.4],[85.92,74.54],[85.94,74.78],[86.76,74.9],[86.8,75.14],[89.3,75.21],[89.39,75.46],[90.28,75.55],[91.07,75.4],[91.97,75.5],[92.1,75.74],[94.14,76.16],[94.32,76.41],[95.32,76.49],[96.1,76.32],[95.89,76.08],[96.65,75.91],[97.63,75.98],[97.87,76.22],[98.87,76.29],[99.14,76.53],[98.37,76.71],[98.64,76.95],[97.84,77.13],[98.11,77.38],[97.28,77.55],[96.19,77.48],[95.96,77.23],[94.9,77.15],[94.7,76.9],[93.68,76.82],[93.51,76.57],[91.42,76.15],[91.3,75.9],[90.38,75.8],[87.82,75.99],[86.93,75.89],[86.88,75.64],[86.02,75.53],[85.99,75.28],[83.52,75.18],[82.68,75.3],[82.65,75.55],[83.49,75.67],[83.47,75.92],[84.33,76.04],[84.33,76.29],[81.65,76.41],[79.03,76.26],[77.02,76.72],[76.88,76.96],[74.06,77.0],[73.86,77.24],[72.83,77.33],[72.6,77.57],[71.53,77.65],[70.73,77.49],[68.27,77.87],[67.5,77.7],[66.4,77.76],[66.04,77.99],[63.35,78.32],[62.91,78.55],[60.02,78.85],[59.49,79.08],[60.21,79.27],[59.66,79.49],[60.41,79.69],[59.84,79.91],[62.85,80.26],[62.31,80.49],[63.2,80.68],[62.64,80.91],[63.58,81.1],[65.1,81.05],[65.61,80.81],[67.08,80.76],[68.1,80.94],[67.65,81.17],[64.0,81.52],[63.4,81.75],[61.74,81.79],[61.06,82.01],[54.22,81.67],[53.45,81.46],[54.28,81.24],[53.54,81.04],[52.02,81.04],[51.16,81.24],[51.86,81.46],[50.95,81.66],[47.11,81.41],[46.1,81.61],[37.81,82.02],[38.18,82.25],[36.85,82.41],[37.2,82.65],[32.52,82.89],[32.74,83.13],[31.12,83.28],[31.3,83.51],[29.55,83.66],[29.68,83.89],[27.78,84.03],[27.85,84.27],[25.77,84.4],[25.75,84.64],[23.48,84.77],[23.35,85.01],[25.71,85.12],[25.68,85.36],[23.04,85.48],[22.86,85.72],[19.91,85.84],[19.52,86.08],[22.44,86.2],[22.18,86.45],[18.58,86.55],[18.01,86.79],[21.54,86.93],[21.14,87.17],[16.54,87.27],[15.6,87.51],[20.09,87.65],[19.38,87.9],[13.04,87.99],[11.23,88.23],[17.33,88.38],[15.75,88.62],[5.68,88.69],[1.11,88.92],[10.08,89.1],[4.21,89.33],[21.6,89.5],[17.25,89.74],[-36.98,89.72],[-35.92,89.48],[-17.0,89.33],[-21.63,89.1],[-11.93,88.92],[-16.0,88.7],[-9.67,88.51],[-13.05,88.29],[-8.39,88.09],[-11.25,87.88],[-7.57,87.68],[-10.03,87.47],[-15.48,87.44],[-17.09,87.22],[-13.86,87.04],[-15.38,86.82],[-12.63,86.64],[-14.05,86.42],[-17.85,86.38],[-18.87,86.16],[-16.43,85.99],[-17.42,85.77],[-15.26,85.59],[-16.23,85.38],[-19.13,85.33],[-19.87,85.11],[-17.91,84.94],[-18.64,84.72],[-21.16,84.67],[-21.72,84.45],[-19.94,84.29],[-20.51,84.07],[-18.87,83.91],[-19.45,83.69],[-23.96,83.35],[-25.58,83.5],[-25.24,83.72],[-26.98,83.86],[-32.86,83.8],[-32.93,83.57],[-27.52,83.41],[-27.77,83.19],[-26.18,83.06],[-26.45,82.84],[-21.8,82.62],[-22.19,82.4],[-23.89,82.34],[-30.06,82.45],[-30.2,82.23],[-33.32,81.81],[-33.36,81.59],[-32.0,81.48],[-28.94,81.88],[-27.6,81.75],[-27.79,81.54],[-29.25,81.45],[-29.39,81.23],[-28.14,81.11],[-25.04,81.48],[-24.78,81.69],[-23.23,81.76],[-22.01,81.61],[-22.34,81.4],[-23.83,81.33],[-24.11,81.12],[-22.96,80.98],[-19.7,81.3],[-16.09,81.03],[-16.54,80.82],[-17.97,80.78],[-18.37,80.58],[-17.39,80.42],[-17.78,80.21],[-21.43,80.27],[-21.73,80.06],[-20.75,79.91],[-21.05,79.71],[-24.2,79.68],[-24.28,79.45],[-21.33,79.25],[-21.46,79.02],[-22.49,78.93],[-22.59,78.7],[-24.63,78.29],[-24.69,78.06],[-23.82,77.92],[-23.9,77.69],[-24.8,77.59],[-24.86,77.36],[-24.04,77.22],[-24.1,76.99],[-23.32,76.85],[-23.39,76.62],[-25.11,76.19],[-25.15,75.96],[-22.88,75.78],[-21.17,76.19],[-20.46,76.04],[-20.57,75.81],[-19.89,75.66],[-20.01,75.43],[-21.67,75.03],[-21.76,74.79],[-21.11,74.65],[-21.2,74.42],[-23.32,74.37],[-23.38,74.14],[-21.39,73.95],[-21.48,73.72],[-24.84,73.7],[-24.89,73.47],[-24.25,73.33],[-24.3,73.1],[-25.66,72.65],[-25.69,72.41],[-23.84,72.25],[-23.89,72.02],[-23.32,71.88],[-23.37,71.65],[-22.81,71.51],[-22.87,71.28],[-23.48,71.18],[-24.04,71.31],[-23.99,71.54],[-24.57,71.68],[-26.39,71.59],[-26.41,71.35],[-25.82,71.22],[-25.85,70.99],[-26.44,70.88],[-26.46,70.64],[-27.62,70.17],[-27.62,69.93],[-27.07,69.81],[-25.92,70.27],[-23.69,70.23],[-23.16,70.1],[-23.21,69.86],[-23.78,69.76],[-23.83,69.52],[-25.46,69.43],[-25.49,69.2],[-26.59,68.73],[-28.17,68.85],[-29.21,68.37],[-31.87,68.44],[-32.37,68.3],[-32.33,68.06],[-32.83,67.92],[-32.77,67.68],[-33.26,67.54],[-33.21,67.3],[-34.7,67.11],[-34.63,66.87],[-35.1,66.72],[-35.03,66.48],[-35.48,66.33],[-36.02,66.43],[-36.47,66.27],[-36.38,66.03],[-36.83,65.88],[-39.3,65.81],[-39.73,65.65],[-39.62,65.41],[-40.99,65.15],[-40.86,64.91],[-41.27,64.75],[-41.15,64.51],[-41.55,64.34],[-41.42,64.1],[-40.91,64.03],[-40.79,63.79],[-42.07,63.51],[-41.95,63.27],[-42.33,63.1],[-42.2,62.86],[-42.57,62.69],[-42.45,62.45],[-42.81,62.27],[-42.68,62.04],[-43.04,61.86],[-42.92,61.62],[-43.27,61.45],[-43.14,61.21],[-43.49,61.03],[-43.36,60.79],[-43.71,60.61],[-44.18,60.67],[-44.52,60.49],[-44.38,60.25],[-44.71,60.07],[-45.18,60.13],[-45.32,60.36],[-44.99,60.55],[-45.13,60.78],[-46.42,60.7],[-46.57,60.93],[-47.06,60.98],[-47.39,60.79],[-47.88,60.84],[-48.04,61.07],[-47.71,61.26],[-47.88,61.5],[-49.76,62.09],[-49.95,62.32],[-49.61,62.52],[-49.8,62.75],[-50.33,62.79],[-50.53,63.03],[-50.19,63.22],[-51.15,63.73],[-50.8,63.92],[-51.01,64.16],[-50.67,64.35],[-51.67,64.86],[-52.24,64.89],[-52.48,65.12],[-52.12,65.32],[-52.36,65.55],[-52.95,65.58],[-53.19,65.82],[-52.84,66.02],[-53.09,66.25],[-52.72,66.45],[-52.97,66.68],[-52.6,66.88],[-52.86,67.11],[-53.49,67.14],[-53.86,66.94],[-53.59,66.71],[-53.95,66.51],[-53.7,66.28],[-54.05,66.07],[-53.8,65.84],[-54.14,65.64],[-53.06,65.15],[-53.4,64.95],[-53.16,64.72],[-52.59,64.69],[-52.36,64.46],[-52.7,64.25],[-52.47,64.02],[-51.91,63.99],[-51.7,63.76],[-52.03,63.56],[-51.82,63.33],[-51.27,63.29],[-51.07,63.06],[-51.4,62.86],[-50.47,62.36],[-50.79,62.16],[-50.6,61.93],[-52.57,61.39],[-53.82,61.67],[-54.12,61.46],[-54.63,61.48],[-54.93,61.27],[-55.44,61.29],[-55.73,61.08],[-55.5,60.85],[-55.79,60.64],[-56.3,60.65],[-56.57,60.44],[-58.62,60.03],[-58.88,59.81],[-58.63,59.59],[-58.89,59.37],[-59.38,59.37],[-59.63,59.15],[-59.39,58.93],[-60.36,58.49],[-60.11,58.27],[-60.35,58.04],[-62.29,58.45],[-62.55,58.67],[-62.32,58.89],[-62.59,59.11],[-63.08,59.1],[-63.3,58.87],[-63.04,58.65],[-63.26,58.43],[-61.53,57.81],[-61.75,57.58],[-61.51,57.37],[-61.73,57.14],[-60.79,56.72],[-61.01,56.5],[-60.77,56.28],[-60.99,56.06],[-60.76,55.84],[-59.64,55.64],[-59.42,55.42],[-59.64,55.2],[-58.78,54.77],[-57.69,54.98],[-57.48,54.77],[-57.71,54.55],[-57.51,54.33],[-57.73,54.12],[-57.53,53.9],[-55.9,53.45],[-55.71,53.23],[-55.94,53.02],[-55.76,52.8],[-55.98,52.59],[-55.8,52.37],[-56.02,52.16],[-55.84,51.95],[-56.06,51.74],[-57.07,51.54],[-57.28,51.32],[-57.1,51.11],[-56.1,51.31],[-55.89,51.52],[-55.49,51.52],[-55.32,51.3],[-54.32,51.49],[-53.6,51.04],[-53.22,51.03],[-52.38,51.41],[-51.46,51.15],[-50.61,51.53],[-48.98,51.84],[-48.61,52.44],[-48.23,52.41],[-47.33,52.76],[-47.46,52.98],[-47.19,53.17],[-47.32,53.39],[-47.06,53.58],[-44.68,53.97],[-44.23,54.56],[-38.75,55.49],[-38.37,55.43],[-38.3,55.2],[-37.24,55.22],[-37.18,54.99],[-36.81,54.92],[-36.5,55.08],[-35.64,54.74],[-34.94,54.83],[-34.4,54.32],[-33.32,54.34],[-33.25,54.12],[-32.87,54.04],[-31.13,54.34],[-30.31,53.95],[-29.28,54.16],[-28.47,53.76],[-27.76,53.81],[-27.71,53.58],[-27.34,53.49],[-26.63,53.53],[-26.59,53.3],[-26.22,53.21],[-25.52,53.25],[-25.48,53.02],[-24.71,52.59],[-24.68,52.36],[-25.3,51.86],[-25.27,51.62],[-24.91,51.52],[-24.87,51.29],[-25.2,51.15],[-25.16,50.92],[-24.81,50.81],[-24.78,50.58],[-25.1,50.44],[-25.06,50.2],[-24.71,50.1],[-24.68,49.86],[-25.0,49.73],[-24.96,49.49],[-24.24,49.04],[-24.5,48.42],[-23.79,47.97],[-23.76,47.72],[-24.07,47.59],[-24.04,47.34],[-24.62,46.82],[-24.59,46.58],[-24.26,46.47],[-24.5,45.84],[-24.18,45.73],[-24.15,45.48],[-23.82,45.37],[-23.8,45.13],[-23.13,44.66],[-23.11,44.41],[-23.4,44.27],[-23.38,44.02],[-23.06,43.91],[-23.3,43.27],[-22.66,42.79],[-22.9,42.15],[-22.27,41.67],[-22.25,41.41],[-22.53,41.27],[-22.19,40.65],[-22.73,40.12],[-22.71,39.86],[-22.41,39.75],[-22.39,39.49],[-22.67,39.35],[-22.65,39.1],[-22.35,38.98],[-22.59,38.33],[-21.98,37.84],[-21.66,37.21],[-20.82,37.11],[-20.8,36.86],[-20.52,36.74],[-20.51,36.48],[-20.23,36.36],[-20.21,36.11],[-19.93,35.98],[-19.92,35.73],[-19.64,35.61],[-19.63,35.35],[-19.36,35.23],[-19.35,34.97],[-18.52,34.09],[-18.77,33.44],[-18.23,32.94],[-18.22,32.69],[-18.48,32.55],[-18.47,32.3],[-18.21,32.17],[-18.2,31.92],[-18.46,31.79],[-18.45,31.53],[-18.19,31.41],[-18.19,31.15],[-18.44,31.02],[-18.17,30.39],[-18.91,29.48],[-18.91,29.22],[-18.65,29.1],[-18.88,28.46],[-18.63,28.34],[-18.62,28.09],[-17.88,27.98],[-17.87,27.73],[-18.12,27.6],[-18.37,27.72],[-18.61,27.58],[-18.61,27.33],[-18.1,26.84],[-17.85,26.22],[-17.6,26.1],[-17.36,26.23],[-16.88,25.74],[-16.15,25.88],[-14.96,25.77],[-14.47,26.27],[-14.46,26.52],[-13.74,26.65],[-12.97,28.02],[-12.72,28.14],[-12.0,28.0],[-11.49,28.49],[-11.48,28.74],[-10.75,28.84],[-10.19,29.82],[-9.67,30.3],[-9.87,30.93],[-9.61,31.05],[-9.59,31.3],[-9.83,31.43],[-9.81,31.68],[-8.71,32.88],[-8.69,33.13],[-8.43,33.24],[-8.19,33.1],[-7.64,33.56],[-7.4,33.42],[-7.14,33.52],[-7.12,33.77],[-5.97,34.92],[-5.94,35.17],[-5.68,35.27],[-5.64,35.52],[-5.38,35.62],[-5.14,35.47],[-5.18,35.22],[-4.95,35.08],[-3.7,35.07],[-2.03,34.76],[-1.46,35.18],[-1.42,35.42],[-1.16,35.51],[-0.94,35.35],[-0.68,35.44],[-0.64,35.68],[0.1,35.7],[0.46,36.27],[1.21,36.3],[1.26,36.54],[1.53,36.62],[2.72,36.34],[3.33,36.75],[4.04,36.53],[4.66,36.93],[5.03,36.37],[5.31,36.46],[5.38,36.7],[6.16,36.7],[6.23,36.94],[6.52,37.01],[6.74,36.85],[7.02,36.93],[7.09,37.17],[7.38,37.25],[7.75,36.68],[8.4,37.07],[8.62,36.9],[8.91,36.98],[9.36,37.53],[9.66,37.6],[9.6,38.25],[9.38,38.42],[8.56,38.44],[8.34,38.6],[8.42,38.84],[7.67,39.09],[7.75,39.33],[7.37,39.88],[7.45,40.12],[7.22,40.28],[6.92,40.2],[6.54,40.75],[6.24,40.67],[6.01,40.82],[6.08,41.06],[5.7,41.6],[5.76,41.83],[5.37,42.37],[5.82,42.92],[5.58,43.06],[5.65,43.3],[3.8,43.62],[2.78,42.89],[2.72,42.66],[3.13,42.14],[2.71,41.58],[2.19,41.64],[1.91,41.55],[1.85,41.31],[1.05,41.27],[1.0,41.04],[0.72,40.96],[0.67,40.73],[-0.59,39.71],[-0.64,39.47],[-0.24,38.92],[-0.29,38.69],[-0.88,38.28],[-0.75,37.65],[-1.51,37.64],[-1.86,37.07],[-2.62,37.05],[-2.67,36.8],[-2.93,36.71],[-4.16,36.98],[-4.74,36.54],[-4.97,36.69],[-5.24,36.6],[-5.28,36.35],[-5.55,36.25],[-6.29,36.45],[-6.47,37.09],[-6.93,37.62],[-7.51,37.17],[-8.8,37.4],[-8.48,38.0],[-9.2,38.93],[-9.17,39.18],[-8.58,39.63],[-8.79,40.27],[-8.19,40.72],[-8.17,40.97],[-8.91,41.9],[-8.56,42.49],[-9.08,43.03],[-9.05,43.27],[-8.76,43.37],[-8.48,43.22],[-7.86,43.66],[-4.24,43.15],[-3.61,43.56],[-1.75,43.17],[-1.11,43.56],[-1.26,44.19],[-0.96,44.26],[-0.91,44.5],[-1.16,44.66],[-1.11,44.89],[-0.81,44.96],[-0.76,45.19],[-1.4,46.13],[-1.35,46.36],[-1.6,46.52],[-1.55,46.75],[-1.81,46.91],[-1.76,47.14],[-2.02,47.3],[-1.97,47.53],[-3.38,47.86],[-4.28,47.86],[-4.79,48.4],[-4.75,48.63],[-3.83,48.63],[-2.97,48.39],[-2.29,48.76],[-1.45,48.52],[-1.13,48.58],[-1.08,48.81],[-1.34,48.97],[-1.29,49.19],[0.18,49.07],[1.0,49.85],[1.69,50.19],[1.57,50.79],[1.89,50.84],[1.96,51.06],[2.53,50.95],[3.24,51.26],[3.81,51.15],[3.71,51.74],[4.86,52.38],[4.75,52.93],[5.71,52.97],[6.22,53.47],[7.2,53.51],[7.29,53.72],[7.65,53.8],[8.1,53.34],[8.91,53.7],[9.01,53.9],[8.74,54.03],[8.83,54.24],[8.56,54.36],[9.12,54.85],[8.67,55.3],[8.76,55.5],[8.48,55.63],[8.58,55.83],[8.3,55.95],[8.4,56.15],[8.12,56.27],[8.69,56.74],[8.4,56.86],[8.5,57.06],[9.56,57.08],[9.66,57.28],[10.05,57.35],[10.33,57.23],[10.23,57.03],[10.69,56.58],[10.58,56.39],[10.2,56.32],[10.09,56.12],[10.37,55.99],[10.27,55.79],[9.89,55.72],[9.32,55.25],[9.59,55.12],[9.49,54.92],[9.77,54.79],[9.67,54.59],[10.31,54.53],[10.75,54.06],[11.76,54.06],[12.35,54.53],[12.73,54.6],[13.38,54.52],[13.8,54.04],[14.82,54.01],[15.95,54.73],[16.98,54.69],[17.63,55.13],[18.02,55.18],[18.67,55.08],[19.06,54.58],[19.45,54.62],[19.59,54.82],[19.2,55.31],[19.34,55.51],[19.07,55.66],[19.21,55.85],[18.94,56.0],[19.08,56.19],[18.81,56.34],[18.95,56.53],[18.01,56.78],[18.14,56.97],[17.87,57.11],[16.93,56.82],[16.8,56.63],[17.07,56.49],[16.42,56.05],[15.75,56.14],[15.36,56.09],[15.24,55.89],[14.18,55.91],[14.06,55.72],[14.34,55.58],[14.22,55.38],[13.17,55.4],[12.74,55.87],[12.35,55.8],[11.75,55.34],[11.1,55.4],[11.2,55.6],[10.93,55.73],[11.03,55.93],[12.08,55.94],[13.19,56.65],[12.24,56.85],[12.36,57.05],[11.9,57.5],[12.02,57.69],[11.73,57.81],[11.84,58.01],[11.56,58.13],[11.67,58.32],[11.38,58.44],[11.49,58.63],[11.2,58.76],[11.31,58.94],[11.02,59.06],[11.13,59.25],[10.84,59.37],[10.32,59.12],[9.23,59.09],[7.26,58.03],[6.77,58.45],[5.77,58.56],[5.5,58.73],[5.59,58.92],[5.96,58.95],[6.05,59.14],[5.12,59.44],[6.15,60.06],[5.2,60.36],[5.29,60.55],[5.0,60.71],[5.09,60.9],[4.8,61.06],[5.38,61.45],[4.87,61.96],[4.97,62.14],[5.37,62.17],[5.96,62.55],[7.05,62.42],[7.16,62.6],[6.86,62.76],[6.97,62.94],[10.5,64.1],[10.62,64.26],[10.29,64.37],[10.41,64.53],[11.53,64.6],[11.88,65.11],[12.23,65.21],[12.11,65.38],[12.46,65.48],[12.34,65.65],[12.7,65.76],[12.58,65.93],[12.95,66.03],[12.83,66.2],[13.2,66.31],[13.08,66.48],[13.46,66.59],[13.35,66.76],[13.73,66.87],[13.62,67.04],[14.92,67.17],[14.81,67.35],[15.53,67.74],[15.43,67.92],[16.19,68.31],[15.43,68.76],[16.43,68.78],[16.53,68.59],[17.07,68.51],[17.89,68.89],[17.15,69.36],[18.67,69.47],[18.59,69.66],[19.08,69.76],[21.23,69.76],[21.17,69.95],[21.69,70.04],[21.64,70.24],[22.17,70.33],[23.35,69.92],[23.88,70.0],[23.85,70.2],[23.28,70.31],[23.25,70.51],[23.8,70.6],[26.63,70.41],[27.79,70.77],[30.63,70.52],[30.58,70.32],[28.88,70.31],[28.85,70.11],[29.38,69.99],[29.35,69.79],[32.59,69.58],[33.5,69.1],[34.06,69.15]],[[56.92,70.67],[56.56,70.49],[55.88,70.51],[54.5,70.93],[52.74,71.16],[52.36,71.36],[52.68,71.55],[52.29,71.74],[51.57,71.75],[51.16,71.94],[52.56,72.32],[53.31,72.31],[53.67,72.5],[53.26,72.7],[53.63,72.89],[53.21,73.09],[54.78,73.46],[54.36,73.67],[54.76,73.86],[55.59,73.84],[56.02,74.03],[55.6,74.24],[56.04,74.43],[55.61,74.64],[56.06,74.83],[55.62,75.05],[57.48,75.41],[58.4,75.38],[58.91,75.57],[58.49,75.79],[59.02,75.98],[65.35,76.54],[66.35,76.48],[67.03,76.65],[66.71,76.88],[67.41,77.06],[68.45,76.99],[68.74,76.76],[68.03,76.59],[68.32,76.35],[67.64,76.18],[65.04,76.13],[64.42,75.95],[64.75,75.73],[64.15,75.55],[60.24,75.32],[59.72,75.13],[60.11,74.91],[59.6,74.73],[58.72,74.76],[58.23,74.57],[58.62,74.36],[56.86,74.01],[57.25,73.8],[56.82,73.61],[57.2,73.4],[56.78,73.22],[55.98,73.24],[55.58,73.05],[55.96,72.84],[54.43,72.49],[54.81,72.28],[54.45,72.1],[55.92,71.67],[55.55,71.49],[55.91,71.28],[55.55,71.1],[56.92,70.67]],[[15.45,79.02],[16.38,79.15],[16.17,79.37],[17.14,79.5],[18.32,79.4],[18.49,79.18],[19.63,79.08],[19.76,78.86],[18.81,78.74],[18.96,78.51],[18.05,78.39],[18.21,78.17],[17.34,78.05],[16.3,78.14],[16.1,78.36],[16.98,78.49],[16.79,78.71],[15.68,78.8],[15.45,79.02]],[[-16.99,64.32],[-17.98,63.92],[-18.79,63.96],[-18.87,63.73],[-19.31,63.63],[-19.68,63.76],[-19.61,63.99],[-19.17,64.09],[-19.09,64.32],[-21.15,64.51],[-21.09,64.74],[-20.63,64.84],[-20.57,65.07],[-19.24,65.14],[-19.16,65.36],[-19.56,65.5],[-19.48,65.73],[-19.0,65.82],[-18.12,65.78],[-17.74,65.64],[-17.83,65.41],[-17.45,65.28],[-16.13,65.31],[-15.77,65.17],[-15.88,64.95],[-14.71,64.75],[-14.82,64.52],[-16.08,64.5],[-16.19,64.27],[-16.64,64.19],[-16.99,64.32]],[[0.98,51.93],[0.92,51.71],[0.59,51.66],[0.73,51.06],[-0.19,51.1],[-0.25,50.88],[-0.57,50.82],[-0.84,50.98],[-1.55,50.64],[-3.04,50.97],[-2.6,51.49],[-2.89,51.64],[-4.76,51.9],[-4.71,52.12],[-4.37,52.19],[-3.75,52.11],[-3.7,52.33],[-4.24,52.86],[-4.19,53.08],[-3.21,53.06],[-2.76,53.56],[-3.05,53.72],[-3.0,53.94],[-2.65,54.0],[-2.6,54.21],[-3.55,54.46],[-3.09,54.95],[-3.39,55.11],[-4.15,54.77],[-5.13,55.0],[-5.08,55.22],[-4.31,55.56],[-4.27,55.78],[-5.26,56.01],[-5.21,56.23],[-5.54,56.38],[-5.49,56.59],[-5.82,56.74],[-5.35,57.22],[-5.68,57.37],[-5.64,57.58],[-4.83,57.91],[-4.23,57.41],[-3.43,57.73],[-2.42,57.48],[-2.48,57.28],[-2.17,57.12],[-2.22,56.92],[-3.02,56.59],[-3.49,56.11],[-1.85,55.77],[-1.91,55.56],[-1.61,55.4],[-1.67,55.19],[-1.14,54.66],[-1.2,54.45],[-0.28,54.19],[-0.35,53.97],[0.15,53.44],[-0.31,52.95],[0.57,52.69],[0.91,52.74],[0.97,52.95],[1.57,52.84],[1.7,52.25],[0.98,51.93]],[[-17.89,28.74],[-17.64,28.87],[-17.39,28.75],[-17.39,28.5],[-17.63,28.37],[-17.89,28.49],[-17.89,28.74]],[[-8.6,54.93],[-7.85,55.3],[-6.16,55.01],[-5.93,54.43],[-6.28,54.36],[-6.71,53.84],[-6.13,53.32],[-6.17,53.1],[-6.52,53.03],[-6.29,52.43],[-6.94,52.5],[-7.66,52.12],[-8.31,52.18],[-8.71,51.64],[-9.7,51.61],[-10.02,51.75],[-9.62,52.3],[-9.94,52.44],[-9.92,52.67],[-8.91,52.69],[-8.88,52.92],[-9.49,53.43],[-9.46,53.66],[-9.79,53.8],[-9.76,54.02],[-9.08,53.96],[-8.34,54.35],[-8.31,54.57],[-8.63,54.71],[-8.6,54.93]],[[15.8,55.07],[15.68,54.87],[15.29,54.82],[14.37,55.04],[15.0,55.5],[15.39,55.55],[15.8,55.07]],[[-3.74,50.61],[-3.79,50.38],[-4.12,50.31],[-4.4,50.46],[-3.98,50.99],[-3.37,50.91],[-3.41,50.68],[-3.74,50.61]],[[27.12,80.07],[27.1,79.84],[24.81,79.87],[23.69,79.76],[23.75,79.53],[22.68,79.42],[20.23,79.87],[20.09,80.1],[23.57,80.21],[27.12,80.07]],[[-16.65,32.96],[-16.65,32.71],[-16.91,32.58],[-17.17,32.7],[-17.18,32.96],[-16.92,33.09],[-16.65,32.96]],[[-16.64,28.13],[-16.89,28.0],[-17.14,28.12],[-17.14,28.38],[-16.89,28.51],[-16.15,28.39],[-16.15,28.14],[-16.39,28.01],[-16.64,28.13]],[[10.72,55.34],[10.62,55.14],[9.96,55.19],[10.07,55.39],[10.44,55.47],[10.72,55.34]],[[49.51,69.29],[49.77,69.1],[49.4,68.91],[48.78,68.91],[48.52,69.1],[49.51,69.29]],[[11.54,54.94],[12.19,54.87],[12.08,54.67],[11.7,54.6],[11.43,54.74],[11.54,54.94]],[[-15.65,28.14],[-15.41,28.02],[-15.41,27.77],[-15.66,27.64],[-15.9,27.76],[-15.9,28.02],[-15.65,28.14]],[[14.84,77.67],[15.65,77.8],[16.67,77.71],[16.85,77.49],[15.05,77.45],[14.84,77.67]],[[-23.14,72.59],[-23.74,72.72],[-23.68,72.96],[-22.41,72.92],[-22.48,72.69],[-23.14,72.59]],[[12.23,79.05],[11.93,79.26],[12.83,79.41],[14.03,79.32],[14.29,79.11],[12.23,79.05]],[[55.79,80.39],[56.53,80.6],[55.81,80.81],[56.58,81.02],[58.11,81.0],[58.78,80.78],[57.98,80.58],[58.63,80.36],[57.86,80.16],[56.47,80.18],[55.79,80.39]]],[[[-37.16,-54.08],[-38.21,-53.94],[-38.58,-54.04],[-38.61,-54.27],[-37.55,-54.41],[-37.57,-54.64],[-37.21,-54.76],[-36.49,-54.77],[-36.5,-55.0],[-35.77,-55.01],[-35.76,-54.78],[-35.39,-54.67],[-35.39,-54.44],[-35.75,-54.33],[-35.74,-54.1],[-37.16,-54.08]]],[[[-13.48,-72.52],[-13.18,-72.76],[-12.33,-72.8],[-11.8,-72.6],[-10.95,-72.64],[-10.44,-72.43],[-10.78,-72.2],[-10.28,-71.99],[-10.61,-71.76],[-10.13,-71.55],[-10.45,-71.32],[-12.51,-71.45],[-13.02,-71.65],[-12.72,-71.89],[-11.91,-71.93],[-11.6,-72.16],[-13.48,-72.52]]],[[[19.2,-71.01],[19.89,-70.92],[20.49,-71.07],[21.89,-70.64],[22.49,-70.79],[22.45,-71.03],[23.07,-71.17],[26.94,-71.25],[27.58,-71.14],[27.56,-70.9],[29.43,-70.78],[29.39,-70.54],[29.98,-70.42],[31.85,-70.52],[32.42,-70.39],[32.34,-70.16],[29.94,-70.18],[28.66,-69.71],[28.08,-69.82],[28.11,-70.06],[28.72,-70.18],[28.76,-70.42],[28.15,-70.54],[26.9,-70.05],[25.07,-70.14],[25.06,-70.38],[25.67,-70.51],[26.91,-70.53],[26.92,-70.77],[26.3,-70.88],[25.03,-70.86],[23.82,-70.34],[21.94,-70.4],[21.35,-70.25],[19.97,-70.68],[19.38,-70.53],[19.47,-70.28],[18.9,-70.13],[17.46,-70.54],[16.89,-70.37],[17.01,-70.13],[16.46,-69.97],[16.58,-69.73],[16.04,-69.57],[15.39,-69.64],[15.25,-69.88],[15.79,-70.05],[15.66,-70.29],[14.97,-70.36],[13.22,-70.08],[11.65,-70.44],[8.72,-70.0],[7.07,-70.32],[6.82,-70.55],[6.09,-70.59],[4.42,-70.22],[3.7,-70.25],[3.41,-70.48],[0.53,-71.0],[0.19,-71.22],[-0.59,-71.23],[-0.95,-71.45],[-1.74,-71.46],[-2.15,-71.24],[-1.78,-71.02],[-2.19,-70.81],[-1.83,-70.59],[-2.22,-70.37],[-2.97,-70.37],[-3.34,-70.59],[-2.95,-70.81],[-3.33,-71.03],[-4.1,-71.02],[-4.5,-71.24],[-5.28,-71.23],[-5.66,-71.01],[-5.25,-70.79],[-5.61,-70.57],[-6.37,-70.56],[-7.98,-70.96],[-7.64,-71.19],[-8.08,-71.4],[-8.87,-71.38],[-9.33,-71.58],[-8.99,-71.81],[-8.18,-71.84],[-6.49,-71.43],[-5.7,-71.45],[-5.32,-71.67],[-3.32,-71.47],[-1.69,-71.9],[-0.88,-71.89],[-0.51,-71.67],[2.51,-71.17],[2.82,-70.94],[3.57,-70.91],[4.04,-71.11],[4.8,-71.08],[5.08,-70.85],[7.06,-70.97],[7.31,-70.74],[9.0,-70.42],[11.99,-70.86],[13.58,-70.49],[14.13,-70.67],[19.2,-71.01]]],[[[-61.38,49.78],[-61.2,49.99],[-61.4,50.2],[-61.79,50.19],[-61.97,49.97],[-61.77,49.76],[-61.38,49.78]]],[[[69.2,-70.56],[68.51,-70.62],[68.31,-70.85],[68.82,-71.03],[69.52,-70.98],[69.71,-70.74],[69.2,-70.56]]],[[[56.99,-66.31],[55.58,-66.13],[55.31,-66.35],[56.47,-66.74],[56.2,-66.95],[56.51,-67.16],[57.09,-67.14],[57.41,-67.34],[57.99,-67.33],[58.25,-67.11],[57.92,-66.91],[57.35,-66.93],[57.04,-66.73],[57.29,-66.51],[56.99,-66.31]]],[[[19.65,34.45],[19.35,34.4],[19.15,34.59],[18.84,34.54],[18.64,34.73],[18.34,34.68],[16.09,35.41],[15.79,35.35],[15.46,35.96],[15.16,35.91],[14.95,36.09],[14.25,35.73],[13.02,36.14],[11.69,36.3],[11.34,36.89],[10.67,36.51],[10.21,35.96],[10.93,35.68],[10.85,35.44],[11.2,34.85],[11.11,34.6],[10.32,34.64],[9.88,34.09],[10.59,33.81],[10.87,33.87],[11.21,33.28],[12.49,33.11],[13.2,32.81],[13.87,33.18],[15.07,32.74],[15.36,32.8],[15.57,32.61],[15.59,31.94],[16.28,31.62],[16.96,31.97],[17.06,32.21],[17.85,32.13],[17.94,32.37],[18.24,32.42],[18.44,32.23],[18.74,32.28],[18.84,32.52],[19.14,32.57],[19.33,32.37],[19.63,32.42],[19.73,32.66],[20.03,32.71],[20.23,32.51],[20.53,32.56],[21.45,33.37],[22.75,33.09],[22.86,33.33],[22.67,33.53],[22.36,33.49],[22.17,33.69],[21.86,33.65],[19.65,34.45]]],[[[-64.94,38.63],[-63.77,39.11],[-63.63,39.31],[-63.8,39.49],[-63.22,39.92],[-63.39,40.1],[-63.24,40.3],[-62.48,40.55],[-62.36,41.14],[-61.1,41.6],[-60.96,42.2],[-60.16,42.43],[-60.0,43.03],[-58.51,43.67],[-58.66,44.27],[-59.5,44.04],[-59.67,44.24],[-60.0,44.23],[-60.17,44.02],[-60.51,44.01],[-60.68,44.2],[-61.01,44.19],[-61.18,43.98],[-61.51,43.97],[-62.21,44.34],[-63.04,44.09],[-63.22,44.28],[-62.07,44.95],[-61.72,44.97],[-61.54,44.77],[-60.69,45.01],[-60.53,45.63],[-59.67,45.86],[-59.49,46.07],[-59.66,46.69],[-60.02,46.68],[-60.19,46.05],[-61.06,45.82],[-61.22,45.2],[-62.09,45.36],[-62.25,45.15],[-65.07,43.94],[-65.21,43.73],[-66.08,43.86],[-66.28,44.05],[-65.65,44.51],[-65.85,44.7],[-65.71,44.92],[-64.82,44.78],[-64.72,45.41],[-64.91,45.6],[-65.26,45.57],[-65.91,45.11],[-66.81,45.24],[-66.88,44.61],[-67.77,44.73],[-67.91,44.51],[-68.25,44.47],[-68.38,44.25],[-70.56,43.17],[-70.68,42.95],[-70.46,42.77],[-70.48,42.15],[-69.95,42.02],[-69.75,41.84],[-69.87,41.63],[-70.19,41.59],[-70.73,41.11],[-71.57,41.2],[-72.52,40.45],[-73.04,40.57],[-73.76,40.26],[-73.86,40.04],[-73.53,39.49],[-74.02,39.01],[-73.7,38.48],[-73.79,38.27],[-74.09,38.22],[-74.18,38.0],[-73.98,37.84],[-74.45,37.37],[-74.25,37.22],[-74.11,36.28],[-73.43,36.02],[-73.32,35.1],[-72.66,34.83],[-72.01,35.12],[-71.55,35.01],[-71.46,35.21],[-70.71,35.13],[-69.06,36.29],[-64.94,38.63]]],[[[47.79,-66.9],[48.79,-67.34],[49.35,-67.35],[49.67,-67.15],[48.66,-66.72],[48.11,-66.7],[47.79,-66.9]]],[[[72.93,66.55],[72.85,66.77],[72.29,66.86],[70.76,66.67],[70.85,66.44],[71.41,66.36],[72.93,66.55]]],[[[109.73,74.3],[109.34,74.07],[107.17,73.79],[106.83,73.56],[107.36,73.35],[109.48,73.63],[109.86,73.86],[112.15,73.67],[113.93,74.12],[113.46,74.34],[113.92,74.56],[113.43,74.78],[113.9,75.0],[113.4,75.22],[112.41,75.22],[111.95,74.99],[112.47,74.77],[112.02,74.55],[109.73,74.3]]],[[[-25.89,-57.61],[-26.68,-57.66],[-26.62,-57.89],[-26.19,-57.98],[-25.83,-57.84],[-25.89,-57.61]]],[[[93.16,78.88],[98.4,78.53],[98.1,78.29],[98.97,78.11],[98.67,77.87],[101.44,77.56],[101.11,77.32],[100.01,77.26],[99.71,77.02],[100.47,76.84],[100.18,76.59],[100.91,76.41],[101.95,76.46],[102.28,76.7],[101.54,76.89],[101.87,77.13],[104.47,77.47],[105.2,77.27],[106.33,77.31],[107.02,77.11],[106.59,76.87],[107.26,76.67],[110.05,76.51],[110.53,76.74],[108.14,77.14],[108.6,77.37],[107.92,77.58],[104.88,77.71],[104.12,77.9],[104.53,78.14],[105.74,78.18],[106.49,77.98],[107.69,78.01],[108.17,78.25],[107.43,78.45],[104.16,78.57],[103.74,78.34],[102.53,78.29],[102.15,78.05],[100.98,77.99],[100.14,78.17],[100.48,78.42],[99.61,78.6],[99.95,78.84],[102.89,79.2],[103.76,79.01],[105.05,79.05],[105.53,79.29],[104.67,79.49],[103.32,79.44],[100.1,79.76],[98.75,79.69],[98.42,79.45],[99.38,79.27],[99.04,79.02],[95.58,79.05],[94.59,79.22],[94.83,79.46],[93.79,79.63],[92.51,79.54],[91.43,79.69],[91.6,79.94],[92.92,80.03],[93.14,80.28],[91.98,80.44],[90.62,80.34],[90.47,80.09],[89.17,79.99],[89.06,79.74],[90.18,79.59],[90.04,79.34],[93.36,79.13],[93.16,78.88]]],[[[12.77,45.18],[13.67,45.15],[13.63,45.76],[13.06,45.86],[12.96,45.64],[12.63,45.57],[12.53,45.34],[12.77,45.18]]],[[[77.53,79.22],[78.58,79.36],[78.44,79.61],[77.2,79.71],[77.02,79.96],[75.73,80.06],[74.65,79.9],[74.89,79.66],[77.53,79.22]]],[[[-58.48,50.9],[-58.87,50.89],[-59.66,50.46],[-59.46,50.25],[-58.49,50.47],[-58.29,50.69],[-58.48,50.9]]],[[[129.93,-66.07],[128.87,-66.58],[129.25,-66.78],[129.87,-66.74],[130.09,-66.5],[130.69,-66.46],[130.91,-66.22],[130.52,-66.03],[129.93,-66.07]]],[[[-57.74,50.05],[-57.92,50.26],[-58.31,50.26],[-58.5,50.05],[-58.32,49.84],[-58.52,49.63],[-58.34,49.42],[-57.96,49.42],[-57.76,49.63],[-57.94,49.84],[-57.74,50.05]]],[[[-27.33,-56.64],[-26.98,-56.5],[-27.04,-56.27],[-27.79,-56.32],[-27.74,-56.55],[-27.33,-56.64]]],[[[115.41,75.66],[114.91,75.88],[113.87,75.89],[113.37,75.66],[113.89,75.44],[114.9,75.44],[115.41,75.66]]],[[[-28.2,71.01],[-28.78,70.89],[-28.77,70.65],[-27.61,70.65],[-27.61,70.88],[-28.2,71.01]]],[[[39.69,-69.52],[40.17,-69.37],[40.01,-69.15],[40.47,-69.0],[40.31,-68.77],[39.7,-68.69],[39.23,-68.84],[39.38,-69.07],[38.91,-69.21],[39.06,-69.44],[38.57,-69.58],[36.3,-69.69],[34.94,-69.27],[34.83,-69.03],[34.23,-68.93],[34.14,-68.7],[31.92,-68.75],[31.98,-68.98],[32.58,-69.09],[33.71,-69.07],[33.8,-69.3],[34.42,-69.4],[34.52,-69.63],[35.9,-70.06],[37.58,-69.87],[39.03,-70.27],[39.53,-70.12],[39.37,-69.89],[39.85,-69.75],[39.69,-69.52]]],[[[98.57,-66.14],[98.09,-66.3],[97.49,-66.22],[97.38,-65.97],[96.79,-65.88],[96.31,-66.04],[96.41,-66.29],[95.91,-66.45],[95.32,-66.35],[93.71,-66.56],[93.79,-66.81],[94.39,-66.91],[98.21,-66.55],[98.82,-66.64],[99.3,-66.47],[99.17,-66.22],[98.57,-66.14]]],[[[54.74,-65.94],[54.47,-65.74],[53.93,-65.74],[53.65,-65.95],[53.92,-66.16],[54.47,-66.15],[54.74,-65.94]]],[[[52.28,-66.16],[52.83,-66.16],[53.11,-65.95],[52.85,-65.75],[52.31,-65.75],[52.03,-65.95],[51.49,-65.95],[49.51,-66.54],[49.75,-66.75],[50.3,-66.76],[52.28,-66.16]]],[[[-65.21,63.03],[-65.45,62.8],[-65.13,62.59],[-65.37,62.35],[-65.05,62.14],[-64.51,62.16],[-64.27,62.39],[-64.58,62.61],[-64.34,62.84],[-64.65,63.05],[-65.21,63.03]]],[[[46.03,-67.24],[46.24,-67.45],[47.57,-67.71],[47.8,-67.92],[48.37,-67.94],[48.7,-67.74],[48.47,-67.53],[47.13,-67.28],[46.92,-67.07],[46.37,-67.05],[46.03,-67.24]]],[[[-56.32,46.52],[-55.97,46.52],[-55.78,46.72],[-55.94,46.93],[-56.29,46.93],[-56.48,46.72],[-56.32,46.52]]],[[[-27.45,-59.5],[-27.39,-59.73],[-26.93,-59.83],[-26.54,-59.68],[-26.61,-59.45],[-27.45,-59.5]]],[[[127.28,-66.45],[125.95,-66.07],[125.34,-66.1],[125.07,-66.33],[126.41,-66.71],[127.03,-66.68],[127.28,-66.45]]],[[[84.31,77.78],[83.31,77.91],[82.32,77.78],[82.37,77.53],[81.42,77.4],[81.48,77.15],[82.45,77.03],[83.37,77.16],[83.35,77.41],[84.32,77.53],[84.31,77.78]]],[[[32.19,-69.69],[33.36,-69.66],[33.27,-69.43],[32.66,-69.32],[32.12,-69.45],[32.19,-69.69]]],[[[66.16,69.06],[66.3,68.85],[68.39,68.22],[68.88,68.36],[68.77,68.58],[69.27,68.72],[69.1,68.95],[67.66,69.31],[67.46,69.53],[66.38,69.44],[64.87,69.78],[64.45,69.62],[64.68,69.4],[66.16,69.06]]],[[[-13.42,-73.2],[-13.73,-72.96],[-16.02,-73.05],[-16.61,-73.24],[-16.34,-73.49],[-16.95,-73.68],[-16.68,-73.92],[-15.77,-73.98],[-15.48,-74.22],[-16.11,-74.41],[-15.81,-74.65],[-14.86,-74.71],[-14.23,-74.51],[-14.55,-74.27],[-13.95,-74.07],[-14.26,-73.83],[-15.16,-73.78],[-15.46,-73.54],[-13.42,-73.2]]],[[[76.42,68.96],[76.51,68.72],[77.11,68.62],[77.19,68.39],[78.28,68.41],[78.21,68.64],[77.62,68.75],[77.54,68.98],[76.42,68.96]]],[[[41.04,-68.25],[40.6,-68.4],[40.76,-68.63],[41.37,-68.7],[42.85,-68.47],[42.67,-68.25],[41.04,-68.25]]],[[[94.65,78.06],[94.87,78.31],[93.93,78.47],[92.78,78.38],[92.6,78.13],[93.53,77.97],[94.65,78.06]]],[[[30.3,44.97],[30.64,44.99],[30.79,45.2],[30.59,45.39],[30.24,45.38],[30.1,45.17],[30.3,44.97]]],[[[0.34,-70.13],[0.01,-70.35],[0.43,-70.56],[1.18,-70.55],[1.49,-70.32],[1.07,-70.11],[0.34,-70.13]]],[[[43.09,-68.1],[44.69,-68.07],[46.07,-67.82],[45.86,-67.61],[45.28,-67.55],[43.32,-67.73],[42.91,-67.88],[43.09,-68.1]]],[[[-60.02,47.09],[-59.66,47.1],[-59.48,47.31],[-59.66,47.51],[-60.02,47.5],[-60.2,47.29],[-60.02,47.09]]],[[[120.73,-67.3],[121.38,-67.29],[121.69,-67.07],[121.36,-66.85],[120.72,-66.86],[120.41,-67.08],[120.73,-67.3]]],[[[29.33,44.52],[29.67,44.53],[29.81,44.75],[29.61,44.94],[29.27,44.93],[28.64,44.48],[28.85,44.29],[29.19,44.3],[29.33,44.52]]],[[[7.51,43.79],[7.43,43.56],[7.67,43.4],[7.98,43.48],[8.06,43.71],[7.82,43.87],[7.51,43.79]]],[[[-20.74,-75.95],[-18.24,-75.65],[-18.52,-75.41],[-21.21,-75.45],[-21.97,-75.62],[-21.74,-75.87],[-20.74,-75.95]]],[[[-56.18,50.47],[-56.56,50.47],[-56.77,50.26],[-56.6,50.05],[-56.21,50.05],[-56.01,50.25],[-56.18,50.47]]],[[[-64.76,60.37],[-64.25,60.39],[-64.02,60.62],[-64.31,60.83],[-64.83,60.82],[-65.05,60.58],[-64.76,60.37]]],[[[-62.32,46.38],[-62.11,45.77],[-61.24,46.02],[-61.07,46.23],[-62.35,46.79],[-62.71,46.78],[-62.87,46.56],[-62.68,46.36],[-62.32,46.38]]],[[[9.33,44.02],[9.41,44.25],[9.17,44.4],[8.85,44.33],[8.77,44.1],[9.01,43.94],[9.33,44.02]]],[[[-53.39,48.73],[-53.03,48.72],[-52.82,48.92],[-52.96,49.13],[-53.33,49.14],[-53.54,48.94],[-53.39,48.73]]],[[[-26.51,-56.82],[-26.86,-56.96],[-26.8,-57.19],[-26.03,-57.14],[-26.09,-56.91],[-26.51,-56.82]]],[[[91.08,77.29],[88.23,77.49],[87.22,77.38],[87.17,77.13],[89.96,76.95],[90.95,77.04],[91.08,77.29]]],[[[113.02,-65.63],[110.41,-65.94],[110.01,-66.14],[110.24,-66.38],[109.84,-66.58],[110.07,-66.81],[110.71,-66.85],[111.11,-66.65],[110.87,-66.41],[111.26,-66.21],[112.9,-66.07],[113.27,-65.86],[113.02,-65.63]]],[[[21.49,64.87],[22.05,64.39],[23.92,64.34],[24.55,64.85],[24.23,64.99],[24.34,65.2],[24.78,65.28],[24.89,65.49],[23.03,65.75],[22.08,65.38],[21.49,64.87]]],[[[132.68,-66.08],[132.29,-65.89],[131.7,-65.94],[131.5,-66.18],[131.89,-66.37],[132.48,-66.32],[132.68,-66.08]]],[[[-62.54,49.73],[-62.36,49.95],[-62.56,50.16],[-62.95,50.14],[-63.13,49.92],[-62.92,49.71],[-62.54,49.73]]],[[[89.32,-66.95],[89.9,-67.06],[90.44,-66.92],[90.4,-66.67],[89.82,-66.56],[87.08,-66.71],[87.09,-66.96],[87.65,-67.09],[89.32,-66.95]]],[[[88.29,80.88],[92.18,80.69],[95.37,81.12],[96.55,80.95],[96.23,80.7],[97.35,80.53],[97.02,80.29],[98.08,80.11],[99.48,80.18],[99.87,80.43],[98.81,80.6],[99.2,80.85],[98.07,81.02],[98.46,81.27],[97.26,81.44],[91.54,81.59],[90.01,81.49],[89.85,81.24],[88.4,81.13],[88.29,80.88]]],[[[137.65,-66.67],[138.22,-66.6],[138.36,-66.36],[137.93,-66.19],[136.38,-66.15],[135.97,-65.97],[135.4,-66.04],[135.23,-66.28],[137.65,-66.67]]],[[[17.03,58.05],[16.9,57.86],[17.32,57.39],[18.41,57.86],[17.99,58.33],[17.03,58.05]]],[[[-63.13,59.54],[-63.4,59.75],[-63.9,59.74],[-64.13,59.51],[-63.85,59.29],[-63.35,59.31],[-63.13,59.54]]],[[[-54.98,50.87],[-55.37,50.88],[-55.54,51.09],[-55.93,51.1],[-56.14,50.89],[-55.97,50.68],[-55.03,50.45],[-54.81,50.65],[-54.98,50.87]]],[[[-55.67,49.83],[-55.5,49.62],[-55.13,49.61],[-54.91,49.81],[-55.08,50.03],[-55.46,50.03],[-55.67,49.83]]],[[[-62.2,47.43],[-61.3,47.67],[-61.13,47.89],[-61.32,48.09],[-61.69,48.08],[-61.86,47.86],[-62.23,47.84],[-62.4,47.63],[-62.2,47.43]]],[[[-66.14,62.1],[-66.68,62.07],[-66.9,61.84],[-66.58,61.63],[-66.05,61.66],[-64.9,61.26],[-64.37,61.28],[-64.14,61.51],[-66.14,62.1]]],[[[-52.52,47.46],[-52.17,47.45],[-51.96,47.64],[-52.1,47.86],[-52.45,47.87],[-52.66,47.67],[-52.52,47.46]]],[[[114.86,-67.24],[115.51,-67.26],[115.88,-67.05],[115.59,-66.82],[115.95,-66.61],[114.77,-66.14],[114.15,-66.12],[113.78,-66.32],[114.95,-66.8],[113.55,-67.2],[113.82,-67.43],[114.48,-67.45],[114.86,-67.24]]],[[[-59.1,48.99],[-59.47,48.98],[-59.66,48.77],[-59.47,48.56],[-59.1,48.57],[-58.91,48.78],[-59.1,48.99]]],[[[-53.03,68.86],[-53.42,68.67],[-53.15,68.44],[-52.48,68.4],[-52.08,68.6],[-52.35,68.83],[-53.03,68.86]]],[[[82.58,-67.41],[82.55,-67.66],[83.1,-67.8],[83.69,-67.69],[83.71,-67.44],[83.16,-67.3],[82.58,-67.41]]],[[[10.13,63.59],[10.9,63.55],[11.02,63.72],[10.7,63.82],[10.13,63.59]]],[[[-66.13,59.42],[-66.33,59.18],[-66.04,58.98],[-65.55,59.0],[-65.34,59.23],[-65.63,59.44],[-66.13,59.42]]],[[[6.66,42.93],[6.74,43.16],[6.5,43.31],[6.19,43.23],[6.12,43.0],[6.35,42.85],[6.66,42.93]]],[[[78.11,-69.12],[78.74,-69.02],[78.82,-68.78],[78.27,-68.62],[76.93,-69.05],[76.83,-69.3],[77.38,-69.45],[78.02,-69.36],[78.11,-69.12]]],[[[-53.64,47.09],[-53.84,46.89],[-54.69,47.11],[-54.89,46.91],[-54.73,46.71],[-53.41,46.27],[-52.66,46.65],[-53.29,47.08],[-53.64,47.09]]],[[[116.53,-67.06],[116.82,-67.28],[117.47,-67.29],[117.82,-67.08],[117.52,-66.85],[116.88,-66.85],[116.53,-67.06]]],[[[67.94,-69.78],[67.74,-70.02],[67.07,-70.07],[66.86,-70.3],[67.33,-70.48],[68.02,-70.43],[68.22,-70.2],[68.9,-70.15],[69.08,-69.91],[68.6,-69.73],[67.94,-69.78]]],[[[65.87,-67.98],[66.49,-67.93],[66.91,-68.12],[67.53,-68.07],[67.71,-67.83],[67.28,-67.65],[65.66,-67.56],[65.46,-67.79],[65.87,-67.98]]],[[[62.63,-67.76],[62.86,-67.54],[62.48,-67.34],[61.89,-67.38],[61.66,-67.6],[62.03,-67.79],[62.63,-67.76]]],[[[-63.74,46.3],[-63.9,46.08],[-63.71,45.89],[-62.81,45.73],[-62.65,45.95],[-63.39,46.32],[-63.74,46.3]]],[[[80.48,80.39],[81.71,80.52],[81.63,80.77],[80.26,80.89],[80.15,81.14],[78.71,81.25],[77.43,81.1],[77.63,80.85],[80.48,80.39]]],[[[-26.43,-58.59],[-25.98,-58.69],[-25.61,-58.54],[-25.69,-58.31],[-26.12,-58.22],[-26.49,-58.36],[-26.43,-58.59]]],[[[-46.34,-61.01],[-44.98,-61.0],[-44.58,-61.15],[-44.1,-61.06],[-44.02,-60.82],[-44.42,-60.67],[-44.33,-60.43],[-45.58,-60.22],[-46.62,-60.61],[-46.73,-60.85],[-46.34,-61.01]]],[[[3.47,-54.68],[3.67,-54.48],[3.48,-54.29],[3.07,-54.3],[2.87,-54.5],[3.06,-54.69],[3.47,-54.68]]],[[[80.78,-67.98],[81.32,-68.13],[81.92,-68.02],[81.96,-67.77],[81.42,-67.63],[80.83,-67.73],[80.78,-67.98]]],[[[105.01,-66.43],[105.44,-66.24],[105.26,-66.0],[104.65,-65.94],[104.21,-66.12],[104.38,-66.37],[105.01,-66.43]]],[[[119.76,-67.08],[119.45,-66.87],[118.8,-66.86],[118.47,-67.08],[118.78,-67.3],[119.43,-67.3],[119.76,-67.08]]],[[[84.84,-67.46],[85.41,-67.34],[85.41,-67.08],[85.97,-66.96],[85.97,-66.71],[85.43,-66.58],[84.3,-67.07],[84.28,-67.32],[84.84,-67.46]]],[[[-64.41,63.28],[-63.84,63.29],[-63.59,63.52],[-63.9,63.74],[-64.48,63.72],[-64.73,63.49],[-64.41,63.28]]],[[[100.25,-66.13],[100.39,-66.38],[101.0,-66.45],[101.47,-66.28],[101.32,-66.03],[101.77,-65.85],[101.62,-65.61],[100.3,-65.21],[99.85,-65.38],[99.98,-65.63],[100.57,-65.71],[100.71,-65.96],[100.25,-66.13]]],[[[-57.9,50.69],[-57.72,50.48],[-57.33,50.48],[-57.13,50.69],[-57.31,50.9],[-57.7,50.9],[-57.9,50.69]]],[[[-60.61,49.8],[-60.23,49.81],[-60.04,50.03],[-60.24,50.23],[-60.62,50.22],[-60.81,50.01],[-60.61,49.8]]],[[[112.21,76.54],[113.3,76.55],[113.83,76.77],[113.26,76.99],[112.14,76.98],[111.63,76.76],[112.21,76.54]]],[[[-64.98,60.14],[-65.49,60.12],[-65.71,59.89],[-65.42,59.68],[-64.91,59.7],[-64.69,59.93],[-64.98,60.14]]],[[[-53.27,49.56],[-53.95,50.0],[-54.32,50.01],[-54.54,49.81],[-53.85,49.37],[-53.48,49.36],[-53.27,49.56]]],[[[59.86,-67.68],[60.1,-67.46],[59.76,-67.26],[59.17,-67.29],[58.92,-67.51],[59.26,-67.71],[59.86,-67.68]]],[[[106.26,-66.54],[106.89,-66.59],[107.31,-66.4],[107.11,-66.16],[106.49,-66.11],[106.06,-66.3],[106.26,-66.54]]]]}}]}