{"type":"FeatureCollection","features":[{"type":"Feature","properties":{},"geometry":{"type":"MultiPolygon","coordinates":[[[[8.99,-1.2],[9.9,0.72],[9.7,2.07],[10.13,2.53],[10.08,3.3],[8.56,4.77],[7.39,4.38],[5.69,4.65],[5.35,5.71],[4.7,6.35],[3.58,6.71],[2.51,6.3],[1.18,6.41],[0.67,5.75],[-0.47,5.71],[-0.73,5.29],[-1.84,5.24],[-2.28,4.79],[-4.67,5.37],[-5.06,5.05],[-6.27,5.08],[-7.58,4.36],[-7.9,4.71],[-8.45,4.59],[-7.79,4.08],[-7.04,4.48],[-5.29,4.58],[-4.99,4.24],[-4.61,4.5],[-3.8,4.13],[-2.52,4.39],[-2.02,4.13],[-0.48,4.61],[1.74,4.48],[1.48,1.9],[2.83,0.07],[4.94,-1.16],[5.07,-1.73],[6.94,-2.47],[8.14,-4.34],[11.93,-5.98],[12.86,-7.36],[12.79,-8.01],[13.3,-8.38],[12.5,-9.1],[13.45,-10.52],[13.58,-12.23],[14.22,-10.88],[13.29,-9.89],[13.64,-8.14],[12.3,-6.15],[12.35,-5.09],[11.43,-3.74],[10.11,-2.88],[8.99,-1.2]]],[[[12.91,-20.02],[12.97,-20.87],[14.39,-22.52],[13.91,-22.96],[14.5,-23.78],[14.87,-23.56],[14.76,-22.29],[12.04,-18.36],[11.86,-15.8],[12.65,-14.68],[12.48,-14.04],[12.91,-13.15],[13.61,-12.66],[13.09,-12.27],[12.07,-13.43],[12.27,-14.49],[11.48,-15.61],[11.7,-17.09],[11.24,-17.54],[12.91,-20.02]]],[[[20.03,39.15],[20.34,38.54],[19.8,38.02],[20.53,37.69],[21.24,36.68],[22.07,36.57],[22.35,35.95],[23.18,35.83],[23.42,34.52],[26.78,31.99],[25.88,31.9],[25.94,31.46],[27.38,30.93],[28.09,31.23],[29.21,30.65],[29.93,30.94],[31.49,30.16],[32.2,30.43],[32.31,29.11],[33.4,28.07],[33.31,27.4],[33.91,27.0],[33.81,26.33],[35.32,24.23],[35.25,23.14],[37.06,21.3],[37.02,18.96],[37.56,18.15],[38.19,18.4],[39.1,17.0],[38.99,15.96],[40.22,14.83],[40.23,13.63],[40.95,14.08],[40.59,14.66],[41.18,14.5],[41.3,13.91],[43.27,12.67],[43.25,11.89],[42.57,11.84],[43.24,11.51],[43.34,10.94],[43.9,10.8],[44.32,10.08],[45.99,10.78],[46.84,10.47],[46.98,11.03],[48.47,11.14],[48.5,11.51],[47.0,11.41],[45.34,10.72],[44.94,11.83],[46.01,13.62],[44.63,12.77],[43.72,12.7],[43.28,13.45],[43.41,14.05],[42.95,14.42],[43.11,16.63],[42.64,17.42],[42.04,17.59],[40.81,20.02],[39.8,20.39],[39.27,21.21],[39.38,22.71],[38.43,24.17],[37.2,24.77],[37.3,25.86],[36.46,26.26],[35.84,27.54],[34.95,28.38],[35.02,29.48],[34.58,29.68],[34.64,28.8],[33.81,28.32],[32.73,29.36],[32.78,30.47],[33.94,30.53],[34.79,31.01],[34.89,31.67],[35.18,31.68],[35.37,31.03],[35.79,31.26],[35.51,33.66],[36.08,34.11],[35.85,35.62],[36.43,36.06],[36.22,37.13],[35.33,36.69],[34.54,36.89],[33.51,36.21],[31.08,37.18],[30.32,36.92],[30.24,36.26],[28.43,36.79],[28.19,37.43],[27.36,37.58],[27.1,38.21],[26.59,38.39],[27.16,38.87],[27.03,39.72],[26.31,40.09],[26.76,40.35],[27.49,39.98],[28.79,40.07],[29.84,40.77],[29.6,41.4],[28.74,41.56],[27.88,42.77],[27.41,42.53],[27.55,41.69],[28.28,41.32],[27.28,41.24],[27.22,40.6],[25.1,41.27],[23.78,41.14],[23.2,40.65],[22.34,40.76],[22.58,38.84],[23.83,38.33],[23.39,38.06],[21.3,38.67],[20.58,39.67],[19.83,40.0],[19.52,41.25],[20.08,41.76],[19.31,42.08],[19.2,42.49],[16.99,43.0],[16.12,42.43],[17.11,42.59],[18.76,42.21],[19.3,40.79],[18.86,40.51],[17.78,40.77],[17.45,41.36],[16.58,41.43],[16.24,42.02],[15.24,42.49],[14.72,41.96],[17.24,40.9],[16.39,40.32],[16.41,39.67],[17.16,39.36],[16.32,38.78],[15.97,40.03],[13.56,41.31],[13.59,40.67],[14.67,40.44],[14.8,40.03],[15.55,39.73],[15.57,39.08],[14.23,38.61],[14.57,38.01],[15.5,38.19],[15.0,37.65],[15.33,37.05],[15.73,37.35],[15.61,37.77],[16.45,37.7],[16.96,38.23],[16.85,38.65],[17.58,39.0],[17.58,39.65],[16.83,39.96],[16.93,40.19],[17.79,40.12],[18.11,39.52],[19.4,39.72],[19.71,39.11],[20.03,39.15]],[[22.96,37.79],[23.27,37.83],[23.36,37.4],[22.09,37.24],[21.8,37.86],[22.23,38.14],[22.96,37.79]],[[24.97,36.48],[25.05,36.04],[23.8,35.9],[23.52,36.53],[23.95,36.8],[24.97,36.48]],[[24.67,38.2],[25.11,38.47],[26.34,37.93],[25.9,37.67],[24.67,38.2]],[[32.84,35.09],[33.14,35.1],[33.18,34.67],[32.7,34.86],[32.84,35.09]],[[25.16,39.12],[25.48,39.15],[25.56,38.73],[24.51,39.06],[25.16,39.12]],[[24.48,40.14],[24.8,40.17],[24.88,39.75],[24.35,39.91],[24.48,40.14]]],[[[180.0,-11.61],[178.49,-11.81],[175.7,-10.83],[174.04,-10.9],[173.61,-10.48],[166.82,-10.35],[166.41,-9.91],[166.02,-10.31],[165.61,-9.87],[165.22,-10.27],[164.41,-10.23],[164.0,-9.79],[162.99,-9.83],[161.19,-8.99],[161.4,-8.48],[160.88,-8.31],[160.64,-7.58],[159.94,-8.31],[159.16,-7.39],[157.43,-7.28],[157.0,-6.39],[156.01,-6.37],[154.66,-4.96],[154.39,-5.28],[154.91,-6.82],[155.44,-7.25],[154.95,-7.66],[152.96,-7.39],[152.64,-6.86],[151.42,-6.68],[151.33,-6.05],[152.24,-5.7],[152.55,-5.13],[153.18,-5.1],[154.04,-3.88],[153.32,-3.27],[152.65,-3.53],[152.96,-2.96],[152.65,-2.41],[151.33,-2.69],[149.48,-1.11],[149.34,-1.85],[149.94,-2.08],[149.62,-2.66],[150.45,-2.8],[150.78,-3.35],[152.01,-3.55],[150.64,-5.21],[150.32,-4.66],[149.54,-5.41],[149.67,-4.68],[149.07,-4.46],[148.7,-5.28],[146.59,-4.95],[146.25,-4.39],[145.59,-4.41],[144.82,-3.78],[144.53,-2.96],[143.67,-2.82],[143.14,-3.24],[142.52,-3.01],[142.23,-3.35],[144.39,-3.71],[146.6,-6.08],[147.86,-6.28],[146.69,-6.72],[146.98,-7.51],[148.15,-8.18],[148.39,-9.19],[149.55,-9.83],[149.27,-10.15],[147.61,-9.93],[147.32,-9.16],[146.71,-8.95],[146.61,-8.32],[145.85,-7.71],[143.91,-7.54],[143.35,-8.2],[143.45,-8.83],[142.5,-9.18],[140.78,-8.91],[140.28,-7.96],[138.46,-8.16],[138.31,-7.77],[138.83,-7.35],[139.01,-6.37],[138.38,-6.14],[138.27,-5.49],[137.48,-4.85],[136.37,-4.79],[136.02,-4.22],[134.04,-4.0],[133.69,-3.43],[132.98,-3.68],[132.86,-3.03],[133.86,-2.43],[133.51,-1.86],[132.99,-2.28],[131.92,-1.96],[131.65,-0.89],[132.17,-0.46],[134.11,-0.93],[133.94,-1.93],[134.73,-2.58],[135.04,-3.41],[135.71,-3.4],[136.32,-2.47],[137.0,-2.46],[137.85,-1.44],[138.2,-2.02],[139.32,-2.08],[139.66,-2.66],[142.08,-2.94],[141.93,-2.53],[140.82,-2.47],[140.47,-1.89],[139.95,-2.32],[139.6,-1.74],[138.73,-1.59],[138.9,-0.59],[138.55,-0.01],[139.01,1.35],[138.4,3.02],[139.37,3.37],[139.7,3.97],[141.11,4.25],[141.73,5.18],[143.42,5.79],[144.06,5.54],[145.3,6.22],[145.93,5.98],[148.88,7.47],[149.73,7.3],[150.16,6.06],[151.0,5.9],[151.32,5.32],[151.97,5.32],[152.84,4.25],[154.7,4.01],[155.01,3.44],[161.92,2.04],[162.37,2.43],[163.96,1.98],[166.25,2.65],[167.07,2.36],[168.04,2.94],[168.51,2.72],[169.82,3.17],[171.93,4.62],[172.53,5.89],[172.18,8.32],[171.18,9.46],[170.03,9.85],[170.29,10.45],[169.35,10.32],[167.8,10.84],[168.05,11.45],[167.5,11.75],[166.23,11.37],[165.59,12.04],[165.36,11.42],[164.57,11.68],[164.02,11.4],[163.07,11.82],[162.53,11.54],[162.27,12.07],[161.43,11.54],[159.75,12.11],[159.28,11.75],[158.33,12.11],[156.79,11.64],[156.21,11.91],[155.72,11.53],[155.14,11.8],[153.95,11.2],[153.36,11.47],[152.85,11.08],[151.55,12.25],[150.9,12.27],[150.57,12.84],[148.62,13.14],[148.28,13.71],[144.79,14.42],[144.26,14.02],[141.39,14.68],[140.86,14.26],[140.5,14.83],[139.36,14.91],[137.95,16.02],[136.8,16.08],[136.44,16.64],[135.3,16.69],[134.94,17.24],[134.04,17.37],[133.16,18.84],[134.27,19.91],[134.58,21.55],[135.12,21.96],[135.13,23.25],[136.01,24.18],[136.72,24.2],[140.57,28.04],[140.3,28.96],[142.48,30.88],[141.85,31.31],[141.48,32.3],[139.98,33.26],[136.42,31.71],[134.53,31.71],[131.57,30.95],[131.5,31.68],[130.3,31.47],[130.3,32.59],[129.64,32.73],[129.32,33.35],[130.85,34.04],[129.32,34.43],[129.15,33.66],[128.29,32.81],[128.66,32.39],[129.56,32.33],[129.68,31.82],[129.11,31.24],[129.88,30.56],[123.69,28.58],[121.61,26.52],[120.96,26.43],[120.81,26.75],[122.1,28.1],[121.98,28.63],[122.64,28.72],[122.36,29.56],[122.86,29.96],[123.01,30.78],[122.38,30.89],[121.88,30.49],[121.53,30.9],[121.0,30.3],[122.47,30.18],[121.55,28.64],[121.67,28.11],[121.02,28.02],[119.97,26.77],[119.73,25.27],[119.11,25.31],[118.31,24.24],[117.68,24.27],[116.21,22.96],[115.31,22.67],[114.69,22.9],[114.2,22.53],[113.58,22.76],[113.48,22.06],[110.99,21.65],[110.2,20.68],[109.64,21.62],[108.07,21.73],[107.5,20.83],[106.81,20.8],[106.25,19.89],[106.7,19.83],[107.24,20.5],[107.87,20.04],[107.71,20.68],[108.49,21.43],[109.14,21.21],[109.46,20.18],[108.79,20.16],[107.96,18.92],[106.56,18.6],[106.27,18.01],[106.82,16.82],[108.88,15.29],[109.4,14.09],[109.11,13.5],[109.49,12.95],[109.37,11.95],[108.86,11.26],[106.81,10.6],[106.0,9.28],[105.08,8.87],[105.23,10.39],[104.14,10.63],[103.98,11.28],[102.69,11.92],[102.31,12.73],[100.96,12.86],[101.03,13.62],[99.88,13.6],[99.98,12.17],[99.23,11.34],[99.14,10.31],[98.69,10.35],[98.52,11.01],[99.03,11.74],[98.19,12.58],[98.91,12.91],[97.71,15.07],[96.49,14.26],[95.81,14.44],[93.43,13.31],[93.23,13.71],[93.99,14.82],[93.57,15.35],[93.52,14.59],[92.25,12.74],[91.31,12.28],[90.64,12.44],[90.16,11.96],[89.04,12.14],[88.56,11.65],[87.7,12.2],[84.81,12.18],[84.39,12.7],[82.0,12.64],[81.58,13.15],[80.94,13.03],[80.32,13.91],[80.37,15.64],[81.0,15.26],[81.45,16.0],[82.78,16.49],[82.58,17.11],[83.24,17.23],[83.27,17.97],[82.37,17.48],[81.9,16.5],[80.16,16.01],[79.89,13.91],[80.3,13.17],[79.64,12.31],[79.82,10.94],[78.96,9.48],[78.33,9.37],[77.91,8.4],[77.29,8.3],[76.5,9.54],[76.71,10.14],[76.11,10.27],[76.32,10.88],[75.73,11.97],[74.93,12.46],[75.13,13.06],[74.54,13.89],[74.74,14.5],[73.36,16.71],[73.56,17.31],[72.77,19.14],[72.77,20.07],[73.17,20.56],[72.74,21.2],[72.79,22.4],[72.35,22.35],[71.88,21.11],[70.82,20.87],[69.3,21.97],[69.65,22.45],[70.52,22.57],[70.64,23.13],[69.32,22.96],[68.46,23.85],[67.77,23.86],[67.57,24.74],[66.67,25.63],[64.42,25.27],[63.85,25.63],[61.45,25.08],[60.55,25.71],[58.74,25.57],[57.05,26.36],[57.15,27.32],[56.02,27.18],[55.77,26.64],[55.17,26.97],[54.58,26.7],[53.56,26.91],[52.05,28.18],[51.37,28.11],[50.34,30.24],[49.29,30.38],[48.76,30.01],[48.13,30.25],[47.57,29.45],[48.68,27.32],[49.63,26.87],[50.31,25.0],[50.88,24.78],[50.96,25.58],[51.33,25.76],[51.21,24.56],[51.59,23.74],[52.32,24.11],[54.41,23.88],[54.55,24.6],[56.11,25.79],[56.45,25.52],[56.2,25.0],[56.53,24.16],[57.43,23.56],[58.26,23.74],[59.61,22.46],[59.31,21.41],[57.85,20.68],[57.58,19.14],[56.81,18.98],[56.51,18.19],[55.53,18.09],[54.94,17.08],[53.51,17.09],[50.67,14.97],[49.17,14.92],[49.02,14.35],[48.15,14.31],[47.0,13.49],[46.46,13.65],[46.44,13.26],[46.98,13.1],[48.12,13.93],[48.65,13.76],[51.77,15.38],[52.27,15.2],[52.47,16.14],[53.47,16.71],[53.96,16.53],[56.65,17.3],[56.73,17.62],[56.06,17.79],[56.96,18.08],[57.12,18.73],[58.11,18.83],[60.37,16.5],[60.33,16.0],[61.8,13.93],[61.55,13.51],[61.82,13.06],[61.15,12.98],[60.9,12.58],[61.29,10.47],[60.69,10.02],[59.35,7.6],[60.33,4.06],[60.86,3.91],[60.93,3.4],[62.18,2.96],[64.0,1.4],[65.52,1.01],[66.37,0.16],[67.93,-0.25],[68.25,-0.72],[69.28,-0.74],[69.61,-1.22],[76.94,-2.1],[77.34,-1.67],[80.13,-1.91],[80.52,-2.42],[81.95,-2.42],[82.35,-2.93],[84.22,-2.97],[84.61,-3.49],[87.36,-3.6],[87.76,-4.12],[88.83,-4.08],[89.23,-4.6],[90.31,-4.57],[90.71,-5.08],[92.62,-5.59],[92.79,-6.2],[93.43,-6.37],[93.79,-7.34],[94.42,-7.51],[94.59,-8.11],[95.23,-8.27],[96.4,-9.74],[95.84,-11.29],[96.6,-12.46],[96.52,-13.33],[95.59,-14.36],[95.64,-15.96],[96.45,-16.43],[97.55,-18.41],[98.14,-18.52],[99.64,-20.45],[100.23,-20.54],[101.34,-22.21],[101.5,-23.81],[102.38,-24.89],[102.25,-25.48],[102.71,-26.12],[103.3,-26.18],[104.86,-27.92],[106.27,-28.52],[107.39,-29.56],[107.39,-30.06],[107.97,-30.33],[107.97,-30.84],[109.72,-31.97],[112.73,-32.55],[115.19,-32.13],[115.62,-33.21],[114.62,-33.63],[114.7,-34.17],[116.01,-33.42],[116.16,-31.72],[115.0,-30.27],[115.25,-29.16],[114.13,-28.08],[114.35,-27.32],[113.58,-26.77],[114.46,-26.41],[113.92,-22.86],[115.26,-21.56],[115.82,-21.63],[116.53,-20.77],[118.09,-20.81],[119.21,-20.0],[120.83,-20.01],[122.56,-18.24],[122.3,-17.32],[122.8,-16.79],[123.21,-16.88],[123.5,-17.6],[123.98,-17.27],[123.71,-16.34],[124.6,-16.09],[124.48,-15.51],[125.52,-14.38],[127.09,-13.91],[127.7,-14.15],[128.0,-14.9],[129.49,-15.08],[130.58,-12.62],[131.51,-12.32],[132.13,-12.55],[132.91,-11.86],[136.11,-12.54],[136.63,-12.14],[136.78,-12.53],[135.71,-13.54],[135.82,-14.14],[135.31,-14.53],[135.42,-15.12],[136.77,-16.15],[137.43,-16.14],[138.36,-17.08],[139.02,-17.07],[139.33,-17.58],[140.82,-17.71],[141.04,-16.8],[141.56,-16.41],[142.1,-11.32],[142.62,-10.91],[142.96,-11.45],[142.78,-12.38],[143.4,-12.59],[143.69,-13.34],[143.37,-13.88],[143.66,-14.63],[144.37,-14.37],[145.12,-14.93],[145.56,-16.03],[145.23,-16.57],[146.15,-17.52],[145.83,-18.07],[146.29,-19.21],[147.17,-19.33],[148.61,-20.35],[148.91,-21.37],[149.58,-21.57],[149.43,-22.54],[150.4,-22.4],[150.91,-23.83],[151.61,-24.03],[151.77,-24.67],[152.48,-24.87],[152.87,-25.66],[152.45,-27.02],[153.3,-28.38],[152.69,-31.28],[152.9,-31.69],[150.71,-33.94],[150.88,-34.61],[149.93,-35.41],[149.84,-37.61],[148.73,-37.48],[148.38,-37.83],[149.75,-38.12],[151.85,-37.43],[154.35,-37.76],[154.97,-37.29],[155.79,-37.47],[157.27,-36.65],[159.49,-36.48],[161.72,-35.25],[162.53,-35.39],[163.61,-34.88],[165.16,-32.32],[165.93,-32.19],[166.64,-30.78],[167.39,-30.64],[167.61,-30.01],[169.05,-29.47],[169.25,-28.84],[172.19,-27.13],[174.0,-26.79],[175.63,-25.49],[177.6,-25.47],[177.95,-24.97],[180.0,-24.6],[180.0,-11.61]],[[156.13,-7.82],[156.0,-7.45],[156.48,-7.03],[156.61,-7.41],[156.13,-7.82]]],[[[-180.0,-24.6],[-179.38,-24.08],[-171.3,-22.29],[-170.99,-21.7],[-169.41,-21.39],[-169.11,-20.79],[-168.42,-20.72],[-168.12,-20.12],[-167.42,-20.04],[-167.13,-19.44],[-166.44,-19.36],[-165.72,-18.62],[-166.02,-17.68],[-166.68,-17.11],[-167.36,-17.19],[-168.32,-16.35],[-168.8,-14.74],[-169.46,-14.82],[-169.72,-13.92],[-170.48,-14.4],[-172.42,-12.93],[-179.99,-11.6],[-180.0,-24.6]]],[[[-120.44,34.97],[-120.8,35.28],[-120.64,35.69],[-121.64,36.34],[-121.56,36.98],[-122.2,37.33],[-122.13,37.96],[-123.51,38.86],[-123.66,40.16],[-124.33,40.48],[-124.26,41.1],[-124.77,40.97],[-124.84,40.35],[-124.17,40.04],[-124.02,38.74],[-123.36,38.41],[-123.43,37.78],[-122.64,37.85],[-122.71,37.21],[-122.06,36.87],[-122.14,36.23],[-121.5,35.87],[-121.58,35.23],[-120.95,34.87],[-121.03,34.22],[-120.34,33.61],[-119.55,33.64],[-119.65,32.99],[-118.87,33.02],[-118.12,32.15],[-117.34,32.17],[-116.67,31.52],[-116.83,31.11],[-116.44,30.53],[-117.16,30.27],[-117.79,28.6],[-117.47,28.28],[-117.57,27.61],[-116.33,26.54],[-116.27,25.11],[-115.37,24.36],[-115.69,23.52],[-114.88,20.67],[-111.57,19.49],[-111.4,18.49],[-110.48,18.62],[-108.72,17.95],[-108.4,17.35],[-102.6,15.21],[-102.06,14.27],[-101.38,14.21],[-101.1,13.62],[-100.43,13.56],[-100.16,12.97],[-98.57,12.27],[-98.07,11.34],[-96.53,10.65],[-95.85,9.64],[-96.22,8.67],[-95.12,7.27],[-95.09,6.35],[-96.5,5.4],[-97.47,3.54],[-97.17,0.81],[-97.96,-0.46],[-97.9,-2.17],[-96.57,-4.31],[-95.93,-4.4],[-95.69,-5.01],[-94.81,-5.46],[-93.94,-5.41],[-93.46,-6.4],[-86.15,-9.54],[-85.87,-10.17],[-84.48,-10.59],[-84.2,-11.22],[-81.12,-12.65],[-80.4,-12.98],[-79.73,-12.79],[-79.23,-13.26],[-78.56,-13.07],[-78.06,-13.54],[-76.71,-13.4],[-76.87,-14.06],[-75.11,-15.78],[-74.69,-15.48],[-75.21,-14.78],[-76.16,-14.37],[-76.08,-12.96],[-78.14,-10.33],[-77.98,-9.67],[-79.24,-8.11],[-79.08,-7.45],[-79.57,-6.98],[-79.4,-6.32],[-80.21,-4.72],[-79.65,-3.52],[-79.93,-2.91],[-79.35,-1.97],[-80.0,0.49],[-79.61,1.02],[-78.75,1.08],[-78.38,1.85],[-78.65,2.45],[-77.59,2.65],[-77.05,3.78],[-77.39,5.09],[-77.02,5.59],[-77.11,6.53],[-78.32,7.99],[-78.16,8.58],[-79.07,9.22],[-78.23,9.27],[-77.96,8.71],[-77.07,8.29],[-77.23,7.7],[-76.58,7.62],[-76.65,8.32],[-76.13,9.38],[-75.35,9.87],[-75.61,10.42],[-74.83,10.91],[-74.37,10.48],[-74.04,11.16],[-73.22,11.19],[-72.86,11.64],[-72.24,11.55],[-71.76,10.9],[-72.22,9.66],[-71.52,8.9],[-70.77,9.38],[-71.49,10.36],[-71.36,10.92],[-70.55,10.94],[-70.21,11.39],[-69.02,11.41],[-68.1,10.34],[-66.36,10.48],[-64.93,9.79],[-64.62,10.31],[-62.92,10.62],[-62.42,9.83],[-61.2,9.66],[-60.71,9.08],[-60.83,8.47],[-59.58,8.27],[-58.29,6.52],[-57.67,6.53],[-57.38,5.98],[-56.49,5.67],[-55.49,6.0],[-55.0,5.6],[-54.39,5.84],[-52.8,5.28],[-52.49,4.71],[-51.83,4.71],[-51.95,4.06],[-51.29,4.06],[-51.29,2.67],[-49.96,1.25],[-50.23,0.18],[-49.56,0.16],[-49.25,-0.43],[-48.3,-0.78],[-47.67,-0.54],[-45.71,-1.5],[-44.83,-1.35],[-44.94,-2.02],[-44.13,-2.8],[-43.06,-2.48],[-41.36,-3.11],[-40.28,-2.79],[-39.31,-3.14],[-38.12,-4.76],[-36.43,-5.37],[-35.55,-5.21],[-34.81,-8.06],[-35.11,-8.9],[-35.74,-9.14],[-35.85,-9.81],[-37.82,-11.47],[-38.08,-12.54],[-39.33,-13.28],[-38.87,-15.73],[-39.54,-17.1],[-39.2,-17.67],[-39.85,-17.9],[-40.16,-18.7],[-39.82,-19.25],[-40.29,-20.43],[-40.95,-20.65],[-41.38,-22.04],[-42.19,-22.64],[-43.8,-22.76],[-44.17,-23.28],[-44.71,-22.88],[-45.69,-23.83],[-46.84,-23.85],[-47.2,-24.35],[-48.1,-24.46],[-49.07,-26.59],[-48.61,-27.76],[-49.1,-28.79],[-49.76,-28.95],[-50.2,-30.15],[-51.1,-30.21],[-51.59,-31.18],[-52.24,-31.32],[-52.08,-32.12],[-52.56,-33.05],[-53.21,-33.17],[-53.66,-34.26],[-55.08,-34.97],[-58.31,-34.03],[-58.92,-34.18],[-59.03,-34.71],[-58.29,-35.26],[-57.42,-35.26],[-57.71,-36.0],[-56.76,-36.37],[-57.85,-38.41],[-57.42,-38.42],[-56.45,-36.83],[-54.44,-36.91],[-54.07,-36.54],[-51.02,-36.29],[-48.55,-35.22],[-47.53,-35.33],[-46.05,-34.52],[-45.42,-34.61],[-45.0,-34.14],[-44.36,-34.23],[-42.87,-33.35],[-41.31,-30.26],[-36.8,-27.15],[-36.03,-25.32],[-36.37,-24.81],[-35.91,-23.69],[-34.51,-22.59],[-33.82,-22.57],[-30.54,-19.61],[-29.97,-18.03],[-30.54,-17.43],[-30.58,-16.09],[-32.44,-14.62],[-33.85,-14.4],[-34.18,-13.84],[-36.62,-13.04],[-37.24,-12.13],[-36.45,-11.47],[-36.19,-10.39],[-34.24,-8.73],[-33.37,-8.56],[-32.39,-5.4],[-34.09,-3.38],[-36.49,-2.52],[-37.68,-0.9],[-38.55,-1.05],[-39.52,-0.7],[-42.98,1.04],[-44.06,0.73],[-44.58,1.16],[-46.37,1.1],[-46.93,1.78],[-47.6,1.79],[-48.99,3.46],[-49.27,5.18],[-51.18,7.45],[-53.48,8.22],[-55.06,10.07],[-54.79,11.07],[-55.94,12.92],[-55.34,14.43],[-54.59,15.04],[-54.85,16.55],[-55.58,17.16],[-55.47,17.73],[-56.2,18.31],[-56.09,18.87],[-57.07,19.7],[-56.95,20.25],[-58.45,21.72],[-59.05,21.66],[-59.87,22.57],[-60.41,22.5],[-60.48,23.05],[-63.42,25.21],[-63.81,25.99],[-63.79,27.43],[-63.36,27.73],[-63.45,28.67],[-63.01,28.98],[-62.99,30.79],[-63.56,31.41],[-65.18,31.92],[-65.92,31.5],[-66.6,31.6],[-66.69,32.27],[-67.76,33.01],[-67.94,34.05],[-71.74,34.61],[-72.01,35.12],[-74.65,35.62],[-75.44,36.23],[-75.69,36.96],[-75.23,37.43],[-75.36,37.8],[-74.68,38.11],[-74.44,39.34],[-73.74,39.66],[-73.76,40.26],[-69.78,41.24],[-69.84,42.24],[-70.58,42.55],[-70.01,43.03],[-70.32,43.61],[-71.22,43.08],[-70.92,41.89],[-71.78,41.37],[-73.17,41.57],[-74.81,40.48],[-74.16,39.99],[-74.66,39.5],[-75.48,39.56],[-75.1,38.43],[-75.56,37.95],[-76.07,38.06],[-76.33,38.8],[-75.87,39.29],[-76.77,39.12],[-76.23,37.63],[-76.68,37.16],[-75.85,36.54],[-76.65,35.81],[-75.81,35.97],[-75.69,35.62],[-76.8,35.4],[-77.09,34.59],[-77.84,34.62],[-79.44,33.05],[-80.09,33.01],[-80.36,32.46],[-81.27,32.1],[-81.1,31.49],[-81.81,30.74],[-81.88,29.81],[-80.96,27.96],[-81.6,27.89],[-81.85,27.32],[-82.27,27.35],[-82.65,28.09],[-82.39,28.66],[-82.78,29.4],[-83.42,29.57],[-83.82,30.31],[-84.73,29.9],[-85.61,30.43],[-89.31,30.6],[-89.79,30.12],[-89.79,29.38],[-91.21,29.41],[-91.69,29.91],[-94.84,29.77],[-95.35,30.27],[-96.04,29.12],[-97.71,28.18],[-98.8,26.22],[-97.74,24.75],[-97.68,23.73],[-98.12,23.2],[-98.06,22.18],[-97.56,21.7],[-97.75,21.06],[-96.02,18.52],[-95.12,18.57],[-94.42,17.74],[-93.99,18.26],[-92.89,18.19],[-92.45,18.71],[-92.01,18.23],[-91.36,18.38],[-91.14,19.0],[-90.49,19.15],[-90.71,19.75],[-89.83,21.0],[-88.75,20.9],[-87.88,21.39],[-87.03,20.91],[-87.68,20.54],[-87.5,19.22],[-88.35,18.72],[-88.38,17.03],[-89.02,15.93],[-88.61,15.47],[-87.78,15.98],[-87.38,15.52],[-86.17,15.56],[-85.75,16.04],[-85.37,15.58],[-84.37,15.72],[-83.61,15.28],[-83.33,14.1],[-83.9,13.31],[-83.64,12.78],[-84.14,11.07],[-82.94,9.44],[-82.29,9.37],[-82.45,8.78],[-80.1,8.82],[-80.89,8.07],[-81.78,8.48],[-82.41,8.32],[-83.31,8.72],[-83.81,9.61],[-85.12,9.98],[-85.6,10.63],[-85.43,11.2],[-86.31,11.59],[-87.63,13.52],[-89.05,13.33],[-90.07,14.1],[-91.12,13.92],[-94.16,16.4],[-95.92,16.29],[-96.34,15.76],[-97.25,16.19],[-97.91,16.01],[-98.4,16.72],[-99.31,16.65],[-103.14,18.33],[-103.43,18.94],[-104.89,19.3],[-105.48,20.26],[-104.87,21.23],[-104.99,22.25],[-105.85,23.33],[-106.59,23.38],[-108.11,25.41],[-108.87,25.45],[-109.21,26.06],[-109.02,26.47],[-109.64,27.17],[-110.4,27.2],[-110.26,27.87],[-110.58,28.22],[-111.35,28.24],[-112.63,29.61],[-112.49,30.28],[-113.1,30.7],[-112.97,31.36],[-113.3,31.7],[-114.93,31.95],[-115.33,31.37],[-114.99,31.04],[-115.11,30.38],[-112.89,28.28],[-113.01,27.61],[-111.48,26.14],[-111.62,25.47],[-110.73,24.68],[-111.18,24.36],[-112.1,25.4],[-111.97,26.07],[-112.6,26.76],[-114.49,27.37],[-113.83,27.87],[-113.7,28.54],[-114.68,29.55],[-115.78,29.88],[-115.67,30.54],[-116.28,30.95],[-116.16,31.61],[-117.12,32.34],[-117.01,33.0],[-117.64,33.39],[-117.53,34.04],[-120.03,34.43],[-120.44,34.97]],[[-77.75,21.82],[-75.68,20.56],[-74.62,20.49],[-75.05,19.86],[-77.2,19.98],[-77.12,20.65],[-78.57,21.18],[-78.88,21.88],[-80.24,21.83],[-80.6,22.31],[-81.6,22.24],[-81.97,22.72],[-82.99,22.64],[-83.18,23.01],[-79.75,22.97],[-79.24,22.13],[-77.9,22.17],[-77.75,21.82]],[[-71.7,19.96],[-70.09,19.57],[-68.86,18.98],[-68.6,18.49],[-70.92,18.52],[-71.23,17.93],[-71.63,17.93],[-72.83,19.59],[-73.46,19.87],[-72.04,19.58],[-71.7,19.96]],[[-80.2,7.53],[-80.83,7.37],[-81.07,7.71],[-80.44,7.86],[-80.2,7.53]],[[-72.89,18.52],[-72.26,18.22],[-73.05,18.22],[-72.89,18.52]],[[-77.92,18.32],[-76.91,18.45],[-76.67,18.16],[-77.68,18.03],[-77.92,18.32]],[[-71.51,12.23],[-71.65,11.68],[-72.05,11.67],[-71.91,12.22],[-71.51,12.23]]],[[[144.56,-41.93],[144.75,-42.35],[145.33,-42.43],[144.81,-40.94],[146.52,-41.19],[146.89,-40.86],[145.75,-40.7],[145.3,-40.12],[144.43,-40.11],[143.69,-39.61],[143.81,-40.27],[144.62,-40.53],[144.18,-41.1],[144.56,-41.93]]],[[[48.77,5.21],[49.23,6.59],[49.77,7.02],[49.42,7.18],[48.87,6.75],[48.69,5.59],[46.86,3.82],[46.87,3.23],[43.6,1.18],[43.3,0.31],[42.83,0.87],[41.9,0.74],[41.51,0.27],[41.74,-0.96],[40.24,-2.03],[39.74,-4.05],[39.17,-4.35],[38.58,-5.98],[39.23,-6.76],[39.46,-8.04],[39.04,-8.56],[39.62,-8.9],[39.69,-10.0],[40.26,-10.35],[40.67,-12.5],[40.25,-13.02],[40.74,-14.94],[40.06,-15.51],[40.06,-16.18],[39.03,-17.04],[37.22,-17.37],[36.85,-18.33],[34.43,-20.07],[34.95,-20.65],[35.48,-23.64],[35.09,-24.57],[34.01,-24.75],[33.53,-25.25],[32.81,-25.15],[32.41,-26.07],[32.73,-27.09],[32.25,-27.58],[32.4,-28.4],[30.97,-29.23],[30.62,-30.52],[29.95,-30.8],[29.91,-31.42],[28.45,-32.2],[28.41,-32.8],[27.22,-33.52],[25.6,-33.46],[24.69,-34.12],[22.63,-33.86],[22.68,-34.25],[24.75,-34.51],[25.27,-34.08],[26.88,-34.14],[27.39,-33.7],[31.31,-33.46],[39.2,-32.19],[39.66,-31.7],[40.39,-31.75],[41.56,-30.69],[42.28,-30.74],[43.07,-29.95],[43.78,-29.99],[44.21,-29.48],[48.36,-28.97],[48.77,-28.47],[54.05,-27.55],[55.55,-26.51],[57.05,-26.35],[57.44,-25.8],[58.16,-25.83],[58.87,-24.95],[59.59,-24.97],[61.19,-23.34],[61.91,-20.11],[62.47,-19.69],[62.68,-18.7],[62.34,-18.13],[62.69,-17.55],[62.21,-16.57],[62.56,-15.99],[61.99,-14.38],[61.23,-13.74],[60.7,-14.15],[60.38,-13.59],[56.38,-12.97],[55.69,-12.35],[55.09,-9.82],[54.53,-9.6],[54.38,-8.62],[53.83,-8.4],[53.63,-7.67],[53.97,-7.15],[53.61,-6.28],[53.95,-5.77],[53.67,-4.63],[52.19,-2.86],[51.47,-2.58],[51.44,-1.97],[50.4,-0.71],[49.82,-0.6],[49.22,0.13],[49.56,0.58],[48.97,1.3],[47.41,2.3],[47.52,3.9],[48.58,4.61],[48.77,5.21]],[[47.21,-15.35],[48.13,-14.49],[48.42,-13.56],[49.04,-13.63],[48.86,-12.81],[49.16,-12.53],[49.71,-12.84],[50.25,-15.28],[49.56,-15.45],[49.84,-16.67],[49.23,-17.25],[49.42,-18.07],[48.91,-19.69],[48.29,-20.28],[48.55,-20.85],[48.26,-21.78],[47.62,-22.37],[47.88,-22.94],[47.58,-23.86],[47.01,-24.22],[46.7,-25.14],[45.69,-25.39],[44.42,-25.07],[43.72,-24.38],[44.06,-23.45],[43.28,-22.33],[44.76,-19.39],[44.18,-19.09],[44.59,-18.56],[44.0,-18.25],[44.41,-17.73],[44.24,-16.89],[45.21,-16.02],[45.86,-16.09],[46.25,-15.57],[47.21,-15.35]]],[[[-147.07,-11.12],[-148.4,-10.76],[-148.92,-11.1],[-150.26,-10.74],[-150.8,-11.08],[-152.53,-10.86],[-153.08,-11.2],[-154.42,-10.82],[-155.37,-11.3],[-155.96,-11.01],[-162.13,-13.2],[-163.31,-14.49],[-163.77,-16.57],[-163.2,-18.2],[-159.95,-20.3],[-156.72,-20.79],[-154.83,-21.05],[-154.22,-20.69],[-152.33,-20.91],[-151.84,-21.41],[-150.75,-21.53],[-150.16,-21.15],[-148.7,-21.51],[-148.12,-21.13],[-147.47,-21.4],[-146.49,-20.83],[-145.84,-21.1],[-144.07,-20.16],[-143.71,-20.83],[-143.06,-21.08],[-143.41,-19.99],[-142.23,-19.43],[-142.08,-18.81],[-141.31,-18.44],[-140.68,-18.68],[-140.66,-17.43],[-139.92,-17.07],[-139.42,-15.46],[-139.89,-14.62],[-140.49,-14.37],[-140.6,-13.76],[-144.15,-11.43],[-147.07,-11.12]]],[[[134.56,-32.92],[133.88,-31.97],[132.96,-31.74],[132.34,-32.08],[132.06,-31.5],[131.17,-31.25],[130.56,-31.59],[129.95,-31.28],[128.9,-31.48],[128.46,-31.99],[126.65,-32.3],[125.82,-32.02],[124.67,-33.02],[125.07,-33.16],[126.14,-32.38],[126.71,-32.7],[127.33,-32.39],[129.22,-33.11],[129.84,-32.79],[134.91,-34.17],[135.02,-34.58],[134.66,-34.88],[135.63,-35.12],[135.96,-35.72],[136.74,-35.77],[137.08,-36.37],[139.13,-35.9],[139.64,-36.92],[140.01,-36.6],[139.56,-35.35],[138.69,-35.55],[138.77,-34.4],[137.57,-34.01],[138.28,-33.39],[138.02,-32.56],[135.95,-34.16],[135.99,-34.82],[135.71,-34.88],[135.23,-33.21],[134.56,-32.92]],[[136.85,-34.63],[136.44,-34.27],[137.42,-34.5],[136.85,-34.63]]],[[[22.28,-34.47],[21.66,-34.11],[20.85,-34.54],[22.28,-34.47]]],[[[40.47,13.25],[40.83,13.08],[41.3,13.51],[40.95,13.68],[40.47,13.25]]],[[[142.56,26.37],[142.45,26.95],[142.0,27.03],[142.11,26.45],[142.56,26.37]]],[[[-140.99,-21.62],[-141.0,-22.05],[-140.22,-21.66],[-140.99,-21.62]]],[[[86.8,21.51],[87.01,21.14],[89.09,21.22],[87.75,21.99],[86.8,21.51]]],[[[-64.46,32.68],[-65.22,32.26],[-64.43,32.34],[-64.46,32.68]]],[[[-8.82,40.03],[-8.17,40.97],[-8.64,41.75],[-9.2,41.8],[-8.74,40.77],[-9.34,40.31],[-9.13,39.67],[-9.96,39.61],[-9.01,38.04],[-9.31,37.68],[-9.1,37.04],[-7.02,36.88],[-6.15,35.56],[-5.58,36.01],[-4.88,35.57],[-5.04,36.2],[-3.97,36.59],[-1.99,36.35],[-1.33,37.25],[-0.26,37.58],[-0.61,38.37],[-0.88,38.28],[-0.75,37.65],[-1.51,37.64],[-1.86,37.07],[-2.93,36.71],[-4.16,36.98],[-6.05,36.3],[-6.93,37.62],[-7.51,37.17],[-8.8,37.4],[-8.48,38.0],[-9.2,38.93],[-8.58,39.63],[-8.82,40.03]]],[[[167.59,-9.76],[166.99,-9.63],[166.8,-9.93],[167.4,-10.06],[167.59,-9.76]]],[[[17.68,-32.88],[17.98,-34.23],[19.15,-34.59],[19.37,-35.16],[20.45,-34.74],[20.4,-34.36],[19.72,-34.58],[18.66,-34.03],[18.73,-33.44],[18.12,-33.07],[18.63,-32.66],[18.38,-31.68],[17.68,-32.88]]],[[[-71.82,-16.89],[-72.27,-16.95],[-72.56,-16.36],[-74.21,-15.68],[-74.39,-16.08],[-72.74,-16.76],[-72.45,-17.35],[-71.77,-17.39],[-71.21,-18.31],[-70.54,-18.33],[-70.27,-20.51],[-69.89,-19.96],[-70.1,-18.27],[-71.03,-17.91],[-71.82,-16.89]]],[[[-180.0,19.68],[-179.28,19.33],[-178.65,19.59],[-177.74,19.05],[-177.11,19.3],[-176.22,18.76],[-172.66,19.13],[-171.49,18.69],[-170.88,18.89],[-170.42,18.45],[-169.8,18.64],[-166.84,16.58],[-165.09,16.47],[-164.62,16.0],[-160.51,15.67],[-158.75,16.16],[-158.12,15.88],[-149.97,19.16],[-149.73,19.8],[-149.03,19.92],[-147.84,21.31],[-146.69,21.57],[-146.44,22.2],[-145.29,22.45],[-144.6,23.21],[-144.46,24.71],[-143.84,25.04],[-143.6,26.28],[-144.07,26.79],[-143.81,27.38],[-144.2,28.29],[-145.33,29.1],[-146.06,29.01],[-146.92,29.77],[-151.82,30.6],[-152.45,30.25],[-155.67,30.75],[-156.3,30.39],[-156.97,30.64],[-157.59,30.27],[-158.26,30.52],[-158.87,30.15],[-160.82,30.24],[-161.41,29.86],[-162.9,30.11],[-163.49,29.72],[-166.95,29.8],[-167.43,30.24],[-170.11,30.31],[-170.63,30.75],[-178.98,30.4],[-179.53,29.94],[-180.0,30.13],[-180.0,19.68]]],[[[180.0,30.13],[179.18,29.64],[176.28,29.43],[175.34,28.68],[174.59,28.83],[173.67,28.07],[172.92,28.21],[172.12,27.67],[172.18,27.23],[171.36,26.03],[171.56,24.74],[172.17,24.38],[172.19,23.3],[173.34,21.93],[176.3,20.78],[176.94,21.06],[180.0,19.68],[180.0,30.13]]],[[[-19.53,12.27],[-19.92,11.59],[-18.21,9.13],[-17.6,9.07],[-15.84,6.44],[-14.49,5.83],[-14.0,6.01],[-12.69,5.41],[-11.85,5.61],[-11.5,5.25],[-8.62,4.67],[-10.14,6.18],[-10.69,6.25],[-10.85,6.72],[-11.41,6.79],[-11.57,7.27],[-12.7,7.61],[-13.78,10.22],[-14.38,10.29],[-15.58,11.72],[-16.19,11.8],[-16.61,12.43],[-16.4,13.66],[-17.04,14.41],[-16.4,15.68],[-17.68,14.94],[-17.46,14.39],[-19.16,13.85],[-19.76,12.81],[-19.53,12.27]]],[[[-6.56,34.23],[-5.97,34.92],[-6.18,35.32],[-7.32,34.16],[-7.12,33.77],[-6.56,34.23]]],[[[-28.97,-20.68],[-29.3,-20.16],[-29.73,-20.26],[-29.4,-20.78],[-28.97,-20.68]]],[[[118.67,-34.69],[118.25,-34.84],[118.66,-35.04],[120.01,-34.38],[118.67,-34.69]]],[[[-16.4,17.76],[-16.4,16.83],[-16.83,16.35],[-16.61,16.02],[-15.96,16.85],[-16.18,17.42],[-15.74,17.9],[-16.17,18.59],[-16.4,17.76]]],[[[15.59,31.94],[15.36,32.8],[13.37,33.3],[13.08,33.24],[13.2,32.81],[14.98,32.5],[15.4,31.45],[18.15,30.82],[18.93,30.05],[20.5,31.2],[20.01,31.35],[18.83,30.48],[18.54,31.11],[15.59,31.94]]],[[[-27.89,39.52],[-28.95,38.9],[-29.13,38.24],[-26.87,38.44],[-26.67,39.1],[-27.89,39.52]]],[[[123.39,-34.2],[123.7,-34.57],[124.42,-34.07],[124.26,-32.87],[123.91,-33.12],[124.01,-33.92],[123.39,-34.2]]],[[[-23.09,14.72],[-22.91,15.31],[-23.38,15.74],[-25.09,15.14],[-24.59,14.49],[-23.09,14.72]]],[[[-16.4,19.18],[-16.17,18.83],[-15.95,19.19],[-16.4,19.65],[-16.17,20.26],[-16.85,21.08],[-16.86,22.05],[-15.45,24.28],[-14.74,24.42],[-14.72,25.4],[-13.98,26.52],[-13.26,26.65],[-13.49,27.02],[-14.21,26.9],[-15.2,25.4],[-14.97,24.78],[-15.68,24.65],[-17.32,22.03],[-17.08,21.43],[-17.54,20.69],[-16.85,20.59],[-16.85,19.64],[-16.4,19.18]]],[[[53.22,12.66],[52.94,11.93],[54.63,12.18],[54.79,12.72],[53.65,13.04],[53.22,12.66]]],[[[50.87,10.21],[51.59,10.43],[51.23,10.77],[51.36,12.22],[50.54,12.18],[49.44,11.38],[51.0,11.65],[50.87,10.21]]],[[[55.33,-3.52],[55.06,-3.81],[55.54,-4.22],[54.89,-4.46],[55.53,-5.01],[56.08,-4.42],[55.87,-3.71],[55.33,-3.52]]],[[[86.98,20.4],[87.0,20.9],[86.51,20.16],[85.13,19.69],[84.64,18.7],[86.72,19.79],[86.98,20.4]]],[[[-70.68,-24.43],[-70.62,-24.9],[-70.23,-24.36],[-70.53,-23.81],[-69.97,-22.89],[-70.15,-21.47],[-71.07,-23.18],[-70.68,-24.43]]],[[[148.36,-2.45],[147.23,-1.49],[146.28,-1.85],[146.1,-2.84],[148.36,-2.45]]],[[[116.16,-34.85],[115.73,-34.99],[116.25,-35.39],[117.12,-35.11],[116.16,-34.85]]],[[[33.17,41.96],[34.15,41.98],[33.13,42.38],[31.1,41.26],[30.12,41.21],[31.15,40.84],[33.17,41.96]]],[[[-135.39,-23.04],[-134.5,-23.67],[-134.14,-23.46],[-135.03,-22.84],[-135.39,-23.04]]],[[[38.55,40.92],[39.02,41.12],[38.86,41.33],[38.07,41.14],[36.43,41.99],[35.64,41.78],[35.43,42.4],[34.48,41.98],[36.16,41.16],[36.95,41.36],[38.09,40.72],[38.55,40.92]]],[[[41.36,42.47],[41.21,41.46],[40.27,41.08],[39.49,41.31],[39.5,40.9],[40.28,40.67],[41.67,41.23],[41.84,42.65],[39.27,43.98],[38.79,43.79],[41.36,42.47]]],[[[-72.75,-35.18],[-72.94,-35.52],[-72.69,-35.58],[-72.75,-35.18]]],[[[16.47,-29.32],[17.66,-31.5],[18.01,-30.89],[17.42,-30.5],[17.49,-29.9],[16.9,-29.51],[16.97,-28.89],[16.35,-28.09],[15.51,-27.71],[15.58,-27.09],[15.01,-26.69],[14.94,-24.4],[14.12,-24.0],[14.57,-24.62],[14.64,-26.9],[16.47,-29.32]]],[[[-73.94,-37.01],[-74.21,-37.53],[-73.78,-38.04],[-74.4,-38.28],[-74.05,-38.56],[-73.43,-38.32],[-73.77,-37.45],[-73.08,-36.84],[-73.42,-36.56],[-73.94,-37.01]]],[[[-11.01,28.48],[-10.73,29.09],[-10.96,29.22],[-11.49,28.49],[-12.46,28.51],[-13.45,28.02],[-13.72,27.4],[-12.24,28.13],[-11.52,27.99],[-11.01,28.48]]],[[[175.05,-40.41],[174.83,-40.8],[172.84,-40.14],[171.81,-40.72],[173.31,-41.7],[174.08,-41.25],[173.18,-42.82],[173.51,-43.16],[174.4,-41.59],[175.81,-41.8],[176.22,-41.01],[176.99,-40.79],[177.34,-39.76],[178.08,-39.54],[178.94,-37.33],[176.69,-37.5],[176.07,-36.83],[176.26,-36.44],[175.92,-35.86],[175.16,-35.81],[174.52,-34.88],[172.68,-34.16],[172.47,-34.55],[173.05,-35.26],[172.84,-35.65],[174.62,-37.48],[173.6,-39.69],[174.41,-39.73],[175.05,-40.41]],[[175.25,-40.01],[174.34,-39.25],[175.07,-38.8],[174.76,-38.46],[175.17,-37.67],[174.83,-37.09],[175.33,-37.03],[175.99,-37.95],[177.08,-38.31],[178.27,-37.79],[177.95,-38.82],[176.7,-39.1],[177.06,-39.67],[176.66,-40.46],[175.9,-40.68],[175.73,-41.31],[175.19,-41.38],[175.61,-40.59],[175.25,-40.01]],[[173.65,-35.95],[173.32,-35.36],[174.32,-35.27],[174.76,-36.6],[174.25,-36.65],[173.65,-35.95]]],[[[143.98,-1.07],[143.85,-1.82],[144.37,-1.39],[145.23,-1.54],[144.51,-0.64],[143.98,-1.07]]],[[[-163.46,-13.4],[-163.13,-13.67],[-162.96,-12.85],[-163.46,-13.4]]],[[[-171.52,-9.03],[-171.97,-8.94],[-172.02,-9.53],[-171.52,-9.03]]],[[[106.17,19.15],[106.01,19.79],[105.56,19.85],[105.64,18.47],[106.09,18.41],[106.17,19.15]]],[[[-118.4,29.01],[-118.61,28.83],[-118.28,28.51],[-117.97,29.35],[-118.4,29.01]]],[[[140.92,25.29],[141.39,24.17],[141.84,24.1],[141.42,25.43],[140.92,25.29]]],[[[133.04,32.37],[133.47,33.24],[134.39,33.16],[135.0,33.92],[135.42,33.22],[135.85,33.2],[135.21,34.25],[135.43,34.81],[134.15,34.85],[134.58,34.16],[134.38,33.6],[133.3,33.56],[132.71,33.01],[132.34,33.44],[132.47,34.02],[131.56,34.09],[131.01,33.74],[131.8,33.08],[131.33,32.01],[132.37,32.53],[133.04,32.37]]],[[[-18.13,28.1],[-18.37,27.72],[-17.86,27.22],[-17.63,28.11],[-17.13,27.62],[-16.15,28.14],[-15.66,27.64],[-14.19,27.65],[-13.17,29.14],[-13.9,29.53],[-14.92,28.02],[-16.14,28.9],[-17.14,28.38],[-17.9,29.25],[-18.39,28.73],[-18.13,28.1]]],[[[160.09,-5.52],[159.43,-4.95],[158.93,-5.59],[159.84,-5.84],[160.09,-5.52]]],[[[-71.91,-30.95],[-71.7,-32.46],[-72.11,-32.95],[-71.8,-33.44],[-72.4,-34.28],[-72.12,-34.55],[-71.33,-33.37],[-71.72,-30.59],[-70.86,-28.31],[-71.35,-28.16],[-71.9,-29.27],[-71.6,-29.79],[-72.19,-30.66],[-71.91,-30.95]]],[[[172.97,2.14],[172.67,1.94],[172.98,0.57],[173.74,2.08],[172.97,2.14]]],[[[23.51,32.3],[23.24,32.93],[21.75,33.41],[20.53,32.56],[21.02,32.41],[21.84,32.97],[24.08,31.69],[24.79,32.0],[25.05,31.36],[25.46,31.63],[25.21,32.27],[24.23,32.61],[23.51,32.3]]],[[[138.5,35.12],[138.04,34.68],[136.51,35.11],[136.5,34.19],[135.85,34.11],[136.06,33.53],[136.49,33.51],[136.71,34.07],[137.59,34.48],[138.92,34.39],[139.33,33.66],[139.78,33.63],[139.38,34.6],[140.78,34.96],[140.59,35.57],[141.29,35.64],[140.9,36.62],[141.43,37.3],[140.95,37.33],[140.43,36.65],[140.62,36.04],[139.7,36.1],[139.65,35.4],[138.75,35.46],[138.5,35.12]]],[[[-71.17,-27.78],[-70.41,-26.51],[-70.59,-25.13],[-71.16,-26.04],[-70.86,-26.58],[-71.44,-27.48],[-71.17,-27.78]]],[[[-24.12,16.73],[-25.08,17.36],[-25.73,17.19],[-25.45,16.63],[-24.53,16.23],[-23.87,16.4],[-24.12,16.73]]],[[[-159.34,3.43],[-158.95,3.6],[-159.0,4.25],[-159.8,3.92],[-159.34,3.43]]],[[[49.96,7.6],[50.43,7.83],[50.6,8.93],[51.06,9.15],[50.9,9.86],[50.25,9.09],[50.27,8.55],[49.79,8.32],[49.54,7.56],[49.96,7.6]]],[[[-8.71,32.88],[-8.4,33.48],[-8.9,33.51],[-10.05,31.82],[-9.55,31.79],[-8.71,32.88]]],[[[83.95,18.34],[83.93,17.84],[84.41,18.58],[83.95,18.34]]],[[[91.95,22.11],[91.51,22.62],[91.0,21.9],[91.9,21.37],[91.95,22.11]]],[[[-169.57,16.3],[-169.06,16.7],[-169.76,17.16],[-169.92,16.53],[-169.57,16.3]]],[[[145.96,14.57],[145.95,15.7],[145.37,15.06],[145.96,14.57]]],[[[-14.31,-8.3],[-14.08,-7.79],[-14.38,-7.56],[-14.61,-8.07],[-14.31,-8.3]]],[[[-24.95,36.52],[-24.69,36.67],[-25.03,37.29],[-24.79,37.69],[-25.12,38.06],[-26.24,37.98],[-24.95,36.52]]],[[[-139.39,-9.56],[-139.39,-10.32],[-138.82,-10.18],[-138.82,-9.42],[-139.39,-9.56]]],[[[145.28,-37.79],[144.43,-37.79],[143.64,-38.69],[142.72,-38.93],[143.51,-39.19],[144.25,-38.53],[145.1,-38.54],[146.29,-39.62],[147.42,-39.77],[148.04,-41.01],[148.72,-40.58],[148.34,-39.5],[147.78,-39.43],[147.32,-38.85],[148.08,-37.92],[147.53,-37.85],[146.46,-38.87],[145.65,-38.62],[145.28,-37.79]]],[[[15.44,36.63],[14.71,36.93],[14.32,36.63],[15.04,36.33],[15.44,36.63]]],[[[145.53,18.26],[145.79,17.22],[146.23,17.13],[145.98,18.17],[145.53,18.26]]],[[[142.7,-2.01],[143.22,-1.59],[143.07,-1.17],[142.55,-1.6],[142.7,-2.01]]],[[[180.0,-9.03],[179.68,-9.73],[180.0,-9.67],[180.0,-9.03]]],[[[135.21,35.61],[136.08,35.58],[136.76,36.59],[136.54,36.95],[135.64,35.83],[133.08,35.88],[133.3,35.54],[135.21,35.61]]],[[[172.78,3.4],[172.48,3.2],[172.66,2.74],[173.27,3.14],[173.09,3.61],[172.78,3.4]]],[[[-138.69,-20.46],[-138.81,-21.08],[-138.43,-21.31],[-138.31,-20.68],[-138.69,-20.46]]],[[[-138.32,-19.43],[-138.81,-18.58],[-139.43,-18.34],[-139.06,-18.98],[-139.44,-19.59],[-138.32,-19.43]]],[[[-31.71,39.75],[-31.3,39.16],[-30.73,39.22],[-31.14,39.82],[-31.71,39.75]]],[[[142.18,-38.83],[142.01,-38.41],[141.17,-38.38],[141.33,-38.8],[142.18,-38.83]]],[[[175.7,-1.62],[175.44,-2.09],[175.97,-1.84],[175.7,-1.62]]],[[[94.6,16.82],[94.4,17.22],[93.9,16.74],[94.05,15.58],[95.43,15.49],[96.39,15.93],[96.91,16.66],[97.51,15.47],[97.97,15.43],[97.17,17.02],[96.47,16.95],[96.19,16.33],[95.23,15.89],[94.55,16.06],[94.6,16.82]]],[[[-16.65,32.96],[-17.44,33.08],[-17.7,32.69],[-16.65,32.19],[-15.87,33.34],[-16.65,32.96]]],[[[-136.16,-22.2],[-136.05,-21.58],[-136.81,-21.15],[-136.16,-22.2]]],[[[154.58,-3.22],[154.71,-3.61],[154.97,-3.29],[154.67,-2.74],[154.58,-3.22]]],[[[72.56,-7.07],[72.1,-7.25],[72.46,-7.77],[72.56,-7.07]]],[[[145.47,20.22],[145.17,19.92],[145.52,19.36],[145.82,19.67],[145.47,20.22]]],[[[-9.63,43.32],[-9.15,42.29],[-8.59,42.24],[-9.05,43.27],[-9.63,43.32]]],[[[63.68,-19.52],[62.92,-19.77],[63.58,-20.02],[63.68,-19.52]]],[[[-138.81,-21.5],[-139.19,-22.12],[-138.43,-22.57],[-138.81,-21.5]]],[[[-171.02,-3.12],[-171.36,-3.26],[-170.72,-3.75],[-171.02,-3.12]]],[[[131.47,35.0],[130.81,34.92],[130.94,34.43],[131.69,34.67],[131.47,35.0]]],[[[174.76,-1.58],[175.09,-1.68],[175.14,-1.24],[174.69,-1.01],[174.61,-0.42],[174.07,-0.35],[174.76,-1.58]]],[[[-4.46,43.54],[-6.39,43.88],[-6.73,43.55],[-4.24,43.15],[-3.91,43.47],[-4.46,43.54]]],[[[71.97,-5.12],[71.29,-5.39],[72.32,-5.63],[72.58,-5.32],[71.97,-5.12]]],[[[168.44,14.64],[169.01,14.33],[169.34,14.57],[168.78,14.89],[168.44,14.64]]],[[[-136.26,-18.48],[-136.5,-18.07],[-136.61,-18.67],[-136.25,-18.89],[-136.26,-18.48]]],[[[-1.65,43.64],[-1.94,43.57],[-1.75,43.17],[-1.06,43.8],[-1.65,43.64]]],[[[90.74,21.54],[90.53,21.91],[89.36,21.83],[89.57,21.45],[90.74,21.54]]],[[[-155.29,-3.66],[-155.34,-4.06],[-154.76,-4.35],[-154.71,-3.94],[-155.29,-3.66]]],[[[-7.85,33.95],[-8.11,33.84],[-7.9,33.45],[-7.61,33.81],[-7.85,33.95]]],[[[-140.93,-8.06],[-140.23,-8.13],[-140.85,-7.68],[-140.93,-8.06]]],[[[148.57,-41.33],[148.2,-41.67],[148.47,-41.83],[148.78,-41.74],[148.57,-41.33]]],[[[171.36,-41.75],[171.12,-42.14],[171.68,-42.1],[171.89,-41.46],[171.36,-41.75]]],[[[117.55,-34.96],[117.53,-35.32],[117.96,-35.17],[117.55,-34.96]]],[[[94.66,17.58],[94.27,18.62],[93.14,19.06],[93.32,18.42],[94.66,17.58]]],[[[173.53,0.49],[173.24,0.3],[173.7,0.06],[174.29,0.44],[173.53,0.49]]],[[[-171.28,-10.69],[-171.39,-11.08],[-170.87,-11.39],[-170.76,-11.0],[-171.28,-10.69]]],[[[71.61,-6.13],[71.45,-5.76],[70.96,-6.16],[71.28,-6.91],[71.77,-6.5],[71.61,-6.13]]],[[[-157.6,2.13],[-157.65,1.7],[-157.05,1.41],[-157.0,1.83],[-157.6,2.13]]],[[[14.59,42.37],[14.46,42.77],[14.13,42.71],[14.04,42.47],[14.59,42.37]]],[[[-80.13,-25.96],[-80.34,-26.33],[-79.81,-26.76],[-79.61,-26.39],[-80.13,-25.96]]],[[[175.9,-5.67],[176.45,-5.79],[176.21,-5.38],[175.9,-5.67]]],[[[28.83,43.25],[28.91,43.88],[28.36,44.05],[28.43,43.64],[27.82,43.18],[28.83,43.25]]],[[[176.17,-2.74],[175.97,-2.18],[175.85,-2.85],[176.17,-2.74]]],[[[-22.52,16.03],[-22.32,16.4],[-23.04,17.17],[-23.19,16.1],[-22.71,15.67],[-22.52,16.03]]],[[[145.99,15.94],[146.28,16.25],[145.94,16.82],[145.36,16.19],[145.99,15.94]]],[[[-161.3,-10.42],[-160.97,-10.67],[-160.82,-9.88],[-161.3,-10.42]]],[[[-176.84,-44.27],[-176.17,-44.68],[-175.76,-44.17],[-176.5,-43.53],[-177.27,-43.72],[-176.84,-44.27]]],[[[-139.5,-9.35],[-139.39,-8.6],[-140.46,-8.69],[-140.43,-9.65],[-139.5,-9.35]]],[[[-158.4,-9.03],[-158.07,-9.28],[-157.52,-8.96],[-157.85,-8.71],[-158.4,-9.03]]],[[[-150.28,-9.73],[-150.57,-10.1],[-149.97,-10.37],[-150.28,-9.73]]],[[[-9.44,30.17],[-10.14,30.57],[-9.94,29.94],[-10.48,29.21],[-10.0,29.19],[-9.44,30.17]]],[[[-162.56,6.42],[-162.49,5.77],[-161.9,5.48],[-162.17,6.59],[-162.56,6.42]]],[[[176.14,-1.18],[175.96,-1.49],[176.68,-1.62],[176.67,-1.27],[176.14,-1.18]]],[[[93.19,19.81],[92.78,20.58],[92.31,20.6],[92.71,19.59],[93.64,19.54],[93.19,19.81]]],[[[-141.33,-19.27],[-140.57,-19.74],[-140.19,-19.55],[-141.07,-18.87],[-141.33,-19.27]]],[[[133.55,33.86],[133.54,34.3],[132.92,34.21],[133.55,33.86]]],[[[-160.3,-21.36],[-159.93,-21.65],[-159.31,-21.3],[-159.67,-21.02],[-160.3,-21.36]]],[[[171.89,-33.84],[171.67,-34.23],[171.94,-34.34],[172.17,-34.2],[171.89,-33.84]]],[[[52.38,12.27],[51.97,12.25],[52.34,11.9],[52.66,12.1],[52.38,12.27]]]]}}]}