{"type":"FeatureCollection","features":[{"type":"Feature","properties":{},"geometry":{"type":"MultiPolygon","coordinates":[[[[-172.65,-13.72],[-172.31,-14.22],[-171.19,-14.25],[-172.13,-13.2],[-172.94,-13.45],[-172.65,-13.72]]],[[[102.78,-5.46],[102.61,-5.09],[101.95,-5.17],[102.31,-5.91],[102.78,-5.46]]],[[[125.35,5.17],[126.93,6.97],[126.62,7.78],[126.93,8.38],[125.95,10.54],[126.11,11.53],[125.48,11.74],[125.64,12.72],[124.78,12.82],[124.43,13.36],[124.58,14.33],[123.47,14.09],[121.98,15.46],[122.77,16.47],[122.91,17.42],[122.3,17.59],[122.56,19.23],[122.05,20.09],[122.35,20.65],[122.01,21.14],[121.52,20.71],[121.79,19.76],[121.15,19.69],[121.0,18.76],[120.11,18.35],[120.28,16.69],[119.65,16.62],[119.51,15.68],[120.15,14.42],[119.86,13.85],[120.17,13.09],[120.76,12.91],[121.03,11.9],[120.55,11.46],[120.51,12.57],[119.69,12.65],[119.81,12.03],[118.84,10.92],[118.95,10.3],[118.34,10.25],[117.57,9.01],[116.96,8.96],[116.74,7.29],[116.01,6.28],[115.4,6.23],[115.27,5.27],[114.02,4.91],[113.0,3.3],[111.31,2.96],[110.56,1.92],[109.12,2.17],[109.4,2.76],[108.81,3.19],[108.53,2.59],[109.04,1.43],[108.56,0.97],[108.7,0.35],[108.04,0.03],[109.07,-0.17],[108.46,-1.84],[109.7,-1.92],[110.05,-2.43],[109.78,-3.01],[111.4,-3.11],[111.91,-3.97],[112.36,-3.52],[114.33,-3.64],[114.25,-4.33],[114.81,-4.47],[115.87,-3.75],[116.02,-4.13],[115.31,-5.07],[116.07,-5.2],[115.96,-4.59],[116.54,-4.6],[116.66,-3.68],[116.34,-3.14],[114.9,-3.78],[114.75,-3.43],[115.23,-2.75],[114.36,-1.88],[110.76,-1.63],[111.04,-1.05],[110.72,-0.3],[111.94,-0.39],[112.27,0.68],[112.89,0.75],[112.73,1.12],[111.92,1.19],[112.2,1.78],[113.07,2.19],[114.05,1.98],[113.78,1.4],[113.16,1.33],[113.69,0.68],[112.8,0.03],[113.39,-0.14],[114.12,0.89],[114.97,1.3],[115.3,0.79],[116.28,0.82],[116.79,1.7],[116.21,3.23],[117.19,3.21],[117.9,2.61],[117.63,2.04],[118.31,1.19],[117.47,0.86],[117.49,-0.48],[116.77,-1.43],[116.18,-1.44],[116.38,-2.91],[117.42,-0.95],[118.02,-0.94],[117.76,0.07],[118.25,0.72],[119.25,0.66],[119.13,1.3],[118.56,1.52],[118.69,2.48],[117.97,3.09],[118.1,4.05],[118.88,3.92],[119.75,4.28],[120.03,4.86],[121.31,5.16],[122.76,6.45],[122.87,7.19],[123.89,6.91],[124.16,5.86],[125.0,5.73],[125.35,5.17]],[[120.26,10.88],[119.86,10.93],[120.11,11.27],[120.71,11.08],[120.26,10.88]],[[116.99,4.7],[116.46,5.14],[117.03,6.52],[117.48,5.36],[118.19,4.77],[117.32,4.17],[116.99,4.7]],[[119.88,5.25],[118.75,5.91],[118.88,6.88],[118.55,7.41],[118.09,6.99],[118.21,6.36],[117.82,6.41],[117.41,7.81],[118.36,8.91],[118.24,9.53],[119.0,9.19],[118.89,9.82],[121.49,10.74],[121.6,11.46],[121.94,10.93],[121.64,10.35],[122.24,10.15],[122.52,9.11],[123.08,8.66],[122.18,8.28],[121.12,6.69],[119.58,6.04],[120.13,5.58],[119.88,5.25]],[[124.03,9.29],[124.49,9.48],[124.61,8.83],[123.96,8.79],[124.03,9.29]],[[116.66,3.66],[116.3,3.94],[116.75,4.38],[116.66,3.66]]],[[[-180.0,-42.28],[-177.93,-37.9],[-178.31,-37.34],[-177.77,-36.41],[-178.09,-36.08],[-177.99,-35.45],[-180.0,-33.45],[-180.0,-42.28]]],[[[180.0,-17.8],[179.61,-17.26],[180.0,-17.17],[179.94,-15.68],[179.63,-16.22],[179.16,-15.88],[178.85,-16.42],[178.08,-16.61],[177.63,-16.27],[176.93,-16.89],[175.14,-16.86],[174.8,-17.31],[174.34,-16.87],[173.53,-16.88],[173.17,-17.33],[172.13,-17.22],[170.74,-18.02],[169.99,-19.4],[169.05,-18.24],[168.66,-18.93],[169.33,-19.28],[168.94,-19.98],[168.09,-20.45],[167.2,-20.44],[166.74,-19.96],[166.31,-20.43],[164.96,-20.41],[163.6,-19.18],[163.38,-19.52],[163.83,-20.26],[163.38,-20.96],[160.59,-22.07],[159.84,-23.14],[159.8,-24.13],[158.82,-24.58],[156.2,-24.05],[155.08,-23.09],[153.41,-23.07],[152.61,-21.76],[152.52,-22.49],[151.34,-22.5],[149.97,-20.51],[147.02,-18.94],[146.28,-16.83],[145.51,-16.26],[145.82,-14.67],[144.5,-13.69],[143.8,-13.94],[144.12,-13.4],[142.9,-10.59],[143.61,-10.33],[143.74,-9.62],[144.32,-10.07],[144.22,-9.44],[143.6,-9.23],[144.29,-7.85],[146.0,-8.11],[146.43,-9.28],[147.04,-9.48],[147.33,-10.25],[149.64,-10.44],[149.97,-10.96],[151.83,-11.08],[152.14,-11.59],[154.39,-11.72],[154.5,-11.04],[153.48,-11.04],[153.17,-10.53],[151.42,-9.96],[151.19,-8.96],[152.28,-9.83],[153.18,-9.46],[152.91,-8.71],[151.47,-8.64],[151.15,-8.11],[150.32,-8.0],[150.05,-8.32],[150.74,-9.15],[149.82,-9.5],[149.55,-8.74],[148.85,-9.01],[148.43,-7.85],[147.26,-7.18],[147.96,-6.91],[148.38,-5.86],[148.7,-6.4],[150.37,-6.65],[151.28,-6.29],[151.6,-5.72],[153.18,-5.1],[154.04,-3.88],[153.32,-3.27],[152.65,-3.53],[152.96,-2.96],[152.65,-2.41],[150.91,-2.62],[150.17,-1.99],[150.08,-1.34],[149.48,-1.11],[149.34,-1.85],[149.94,-2.08],[149.62,-2.66],[150.45,-2.8],[150.78,-3.35],[152.01,-3.55],[151.46,-4.21],[151.56,-4.85],[150.64,-5.21],[150.32,-4.66],[149.54,-5.41],[147.25,-4.93],[146.31,-5.28],[146.44,-4.55],[145.59,-4.41],[144.82,-3.78],[144.53,-2.96],[143.58,-3.32],[142.28,-3.1],[141.93,-2.53],[139.95,-2.32],[139.6,-1.74],[138.48,-1.68],[138.13,-1.1],[136.89,-1.8],[137.02,-1.04],[136.14,-0.89],[135.79,-0.31],[135.11,-0.33],[134.55,-1.0],[134.19,-0.43],[131.34,-0.06],[131.55,1.19],[130.88,1.18],[130.71,0.18],[130.13,0.66],[129.18,0.31],[128.8,2.05],[129.11,2.64],[128.49,2.87],[127.28,2.17],[126.89,-0.31],[127.2,-1.13],[127.82,-1.37],[127.51,-1.95],[128.63,-1.77],[128.79,-0.77],[128.05,0.12],[129.14,0.06],[129.49,-0.51],[129.18,-1.1],[129.49,-1.92],[130.7,-2.64],[131.25,-1.97],[131.92,-1.96],[131.95,-3.12],[132.58,-3.36],[132.7,-4.02],[133.48,-4.66],[133.89,-3.59],[133.17,-3.85],[132.86,-3.03],[133.86,-2.43],[133.51,-1.86],[131.77,-1.55],[131.65,-0.89],[132.17,-0.46],[133.11,-1.53],[133.98,-1.68],[134.25,-2.76],[135.04,-3.41],[136.19,-3.22],[135.87,-3.81],[134.91,-4.15],[134.28,-3.91],[134.0,-4.25],[136.17,-4.63],[136.52,-5.19],[137.83,-5.42],[138.44,-7.04],[137.72,-7.29],[137.83,-7.94],[137.27,-8.59],[138.33,-8.89],[140.0,-8.29],[140.5,-9.24],[141.17,-9.22],[141.51,-9.77],[142.22,-9.51],[141.66,-10.16],[141.95,-10.93],[141.22,-12.51],[141.57,-14.1],[140.69,-17.33],[139.86,-17.2],[140.2,-16.68],[139.85,-16.17],[139.19,-16.19],[138.63,-16.79],[137.13,-15.41],[136.27,-15.27],[136.01,-14.29],[136.83,-14.66],[137.28,-13.44],[136.65,-13.22],[137.26,-12.37],[136.76,-11.44],[136.89,-10.74],[136.33,-11.37],[135.38,-11.69],[134.75,-11.46],[134.24,-11.85],[133.16,-10.45],[131.94,-11.08],[129.96,-11.07],[129.81,-12.0],[130.42,-12.23],[129.61,-13.14],[129.34,-14.71],[128.27,-14.61],[127.78,-13.71],[125.63,-13.72],[125.33,-14.23],[124.7,-14.21],[124.81,-14.8],[123.93,-15.05],[124.04,-15.64],[123.01,-15.51],[123.13,-16.09],[122.62,-16.63],[122.01,-16.6],[122.16,-18.14],[120.68,-19.66],[119.84,-19.86],[118.69,-19.56],[118.8,-20.1],[118.21,-20.04],[117.74,-20.51],[116.62,-20.2],[115.94,-20.89],[115.29,-20.11],[115.32,-21.2],[113.74,-21.68],[113.85,-22.18],[113.41,-22.61],[113.62,-23.6],[113.32,-24.5],[112.82,-24.72],[112.64,-25.89],[113.97,-27.43],[113.89,-28.05],[112.0,-28.28],[111.79,-28.74],[109.94,-29.13],[109.71,-29.59],[108.39,-30.23],[107.8,-32.56],[108.25,-32.98],[107.98,-33.48],[108.63,-34.85],[109.67,-35.37],[110.32,-37.15],[111.01,-37.43],[111.05,-38.01],[113.45,-39.24],[113.52,-39.83],[113.96,-40.07],[115.29,-40.77],[116.1,-40.64],[117.62,-41.53],[119.38,-41.43],[120.49,-42.06],[122.23,-41.91],[122.89,-42.31],[127.36,-42.01],[129.92,-42.57],[132.06,-42.3],[132.79,-42.63],[133.5,-42.31],[135.32,-42.9],[137.53,-42.53],[139.43,-43.06],[140.15,-42.69],[146.8,-43.91],[153.18,-44.44],[153.73,-44.98],[156.18,-45.37],[157.66,-46.3],[159.55,-46.35],[160.2,-45.86],[160.8,-46.36],[162.37,-46.24],[162.99,-46.72],[165.79,-46.52],[167.05,-46.95],[167.71,-47.65],[169.19,-46.71],[170.11,-46.76],[171.26,-46.18],[171.76,-45.41],[172.66,-45.44],[173.17,-44.91],[175.74,-44.73],[176.22,-44.19],[178.69,-43.95],[179.65,-43.32],[180.0,-42.55],[180.0,-33.45],[178.83,-32.82],[178.15,-33.02],[176.37,-32.35],[175.68,-32.54],[168.56,-29.49],[168.02,-28.5],[167.29,-28.39],[167.02,-27.77],[165.81,-27.65],[165.55,-27.27],[165.78,-26.65],[165.06,-26.52],[165.28,-25.9],[164.55,-24.78],[165.02,-24.29],[166.19,-24.42],[166.65,-23.94],[167.81,-24.06],[168.24,-23.57],[168.93,-23.68],[170.46,-22.82],[170.4,-22.1],[171.33,-22.56],[171.98,-22.43],[172.46,-22.89],[173.1,-22.75],[173.59,-23.21],[174.23,-23.07],[174.72,-23.52],[175.58,-23.47],[177.1,-22.22],[178.96,-22.01],[180.0,-21.03],[180.0,-17.8]]],[[[-180.0,-17.17],[-179.44,-17.96],[-180.0,-17.8],[-179.93,-21.05],[-179.2,-20.4],[-178.78,-19.23],[-178.42,-19.98],[-178.1,-19.42],[-178.54,-17.15],[-179.42,-16.9],[-179.19,-15.91],[-179.72,-16.4],[-180.0,-15.69],[-180.0,-17.17]]],[[[71.49,-71.92],[71.66,-71.68],[71.11,-71.51],[69.27,-72.09],[67.99,-71.96],[68.94,-71.68],[69.14,-71.44],[68.62,-71.26],[69.71,-70.74],[69.2,-70.56],[69.08,-69.91],[70.58,-69.56],[70.75,-69.32],[70.26,-69.14],[71.22,-68.6],[69.66,-68.31],[70.44,-68.01],[70.59,-67.77],[70.14,-67.6],[67.71,-67.83],[64.27,-67.23],[62.86,-67.54],[60.58,-67.02],[59.17,-67.29],[58.25,-67.11],[57.86,-66.49],[53.13,-65.54],[48.11,-66.7],[47.79,-66.9],[48.01,-67.11],[48.79,-67.34],[48.47,-67.53],[46.37,-67.05],[45.86,-67.61],[42.91,-67.88],[43.69,-68.17],[47.57,-67.71],[47.68,-68.33],[48.26,-68.35],[49.18,-68.17],[49.6,-67.56],[51.05,-67.38],[51.45,-66.36],[54.47,-66.15],[55.6,-66.55],[55.35,-67.18],[56.55,-67.57],[57.99,-67.33],[60.21,-67.88],[61.66,-67.6],[63.02,-67.95],[64.45,-67.65],[69.03,-68.37],[69.15,-69.02],[67.66,-69.37],[67.74,-70.02],[66.86,-70.3],[68.51,-70.62],[67.4,-71.13],[67.9,-71.32],[67.69,-71.55],[66.74,-71.82],[67.25,-72.01],[67.03,-72.24],[66.03,-72.51],[66.56,-72.7],[66.31,-72.92],[65.27,-73.19],[65.81,-73.38],[67.96,-73.48],[68.99,-73.2],[69.2,-72.97],[68.64,-72.79],[68.85,-72.56],[71.49,-71.92]]],[[[-67.41,18.08],[-66.8,17.78],[-67.09,17.2],[-66.67,15.5],[-65.32,13.97],[-64.65,14.58],[-64.32,16.26],[-64.89,17.55],[-64.38,18.0],[-65.34,18.03],[-64.1,18.69],[-64.53,18.97],[-64.84,18.48],[-65.26,18.76],[-65.78,18.5],[-66.42,19.01],[-66.74,18.64],[-67.49,18.66],[-67.41,18.08]]],[[[153.66,5.23],[153.94,5.55],[152.98,6.13],[153.07,5.48],[153.66,5.23]]],[[[-79.69,21.46],[-79.55,20.88],[-78.83,20.39],[-77.71,20.34],[-77.78,19.67],[-75.22,19.57],[-73.9,20.25],[-74.57,20.93],[-75.96,21.25],[-76.27,21.72],[-76.83,21.65],[-78.21,22.87],[-79.57,22.84],[-79.69,23.66],[-80.13,23.22],[-80.88,23.73],[-81.32,23.28],[-82.74,23.46],[-83.18,23.01],[-83.79,23.14],[-84.65,22.69],[-85.11,21.74],[-83.46,21.71],[-83.08,21.23],[-81.87,21.2],[-80.43,21.96],[-79.69,21.46]]],[[[-180.0,-84.62],[-154.32,-85.36],[-154.29,-85.12],[-156.65,-85.01],[-156.52,-84.77],[-161.04,-84.75],[-164.51,-84.24],[-161.65,-83.68],[-156.02,-83.58],[-152.49,-82.85],[-150.99,-82.48],[-151.08,-82.25],[-154.1,-81.81],[-155.42,-81.24],[-151.32,-81.55],[-147.28,-81.34],[-147.46,-81.11],[-146.26,-80.96],[-147.94,-80.42],[-145.92,-79.89],[-149.53,-79.65],[-150.83,-79.11],[-154.03,-79.06],[-155.05,-78.73],[-154.01,-78.16],[-156.91,-78.08],[-157.68,-77.53],[-154.91,-77.39],[-151.12,-77.99],[-148.2,-78.01],[-144.76,-77.4],[-144.93,-77.18],[-144.13,-77.03],[-145.4,-76.53],[-143.51,-75.62],[-141.56,-75.94],[-135.94,-74.98],[-133.89,-75.23],[-127.89,-74.69],[-125.28,-75.06],[-123.94,-74.83],[-126.96,-74.28],[-130.5,-74.68],[-130.85,-74.48],[-130.35,-74.29],[-131.52,-74.08],[-133.4,-74.45],[-133.09,-74.65],[-133.64,-74.84],[-135.64,-74.59],[-139.99,-75.01],[-141.08,-75.56],[-143.0,-75.25],[-146.07,-75.44],[-147.43,-75.95],[-149.05,-76.03],[-149.7,-76.6],[-153.1,-77.14],[-154.85,-76.73],[-159.21,-76.87],[-158.55,-77.42],[-159.62,-77.75],[-155.1,-79.18],[-156.31,-79.76],[-154.05,-80.2],[-152.88,-80.07],[-154.04,-79.51],[-151.83,-79.48],[-150.54,-80.02],[-151.63,-80.39],[-148.84,-81.03],[-157.86,-80.79],[-160.74,-81.24],[-165.98,-81.16],[-166.31,-81.38],[-165.14,-81.52],[-165.46,-81.75],[-159.82,-81.82],[-154.13,-82.51],[-157.51,-82.99],[-162.37,-82.85],[-166.43,-83.26],[-168.76,-82.73],[-173.67,-82.7],[-174.33,-82.91],[-173.08,-83.08],[-173.76,-83.3],[-172.41,-83.47],[-173.11,-83.69],[-167.92,-83.94],[-168.5,-84.17],[-166.79,-84.33],[-167.36,-84.56],[-171.53,-84.47],[-170.8,-84.24],[-172.37,-84.08],[-180.0,-84.22],[-180.0,-84.62]]],[[[180.0,-84.22],[177.13,-84.44],[180.0,-84.62],[180.0,-84.22]]],[[[152.43,8.9],[152.02,8.99],[151.69,8.43],[152.11,8.34],[152.43,8.9]]],[[[113.02,-65.63],[110.41,-65.94],[109.84,-66.58],[108.16,-66.69],[107.11,-66.16],[105.44,-66.24],[103.87,-65.63],[103.7,-65.38],[104.13,-65.2],[103.38,-64.89],[100.3,-65.21],[99.17,-66.22],[96.79,-65.88],[95.91,-66.45],[85.43,-66.58],[84.3,-67.07],[83.19,-67.05],[82.55,-67.66],[83.69,-67.69],[84.28,-67.32],[85.97,-67.47],[87.09,-66.96],[98.21,-66.55],[99.57,-66.97],[100.67,-66.88],[101.47,-66.28],[103.6,-66.06],[105.19,-66.67],[106.89,-66.59],[108.59,-67.17],[110.71,-66.85],[111.26,-66.21],[112.9,-66.07],[114.95,-66.8],[113.55,-67.2],[114.76,-67.68],[118.47,-67.08],[118.75,-67.74],[119.42,-67.74],[122.63,-66.83],[124.25,-67.01],[126.05,-66.51],[126.51,-67.14],[129.17,-67.44],[130.03,-67.16],[130.26,-66.93],[129.87,-66.74],[130.91,-66.22],[130.52,-66.03],[129.1,-66.35],[129.02,-67.01],[127.4,-66.88],[127.03,-66.68],[127.28,-66.45],[125.95,-66.07],[124.18,-66.57],[122.59,-66.4],[121.36,-66.85],[116.88,-66.85],[113.02,-65.63]]],[[[44.27,-12.04],[43.62,-11.94],[43.13,-11.38],[43.38,-12.65],[44.35,-12.46],[45.01,-13.21],[45.56,-12.87],[44.59,-11.75],[44.27,-12.04]]],[[[114.25,-5.82],[114.84,-5.73],[114.78,-4.7],[114.1,-5.47],[114.25,-5.82]]],[[[-116.5,58.52],[-117.64,58.43],[-117.75,58.02],[-115.91,58.24],[-114.76,57.67],[-112.86,58.48],[-111.3,57.82],[-110.59,58.8],[-111.73,59.41],[-113.26,59.19],[-113.73,58.6],[-116.5,58.52]]],[[[128.94,-2.58],[128.28,-2.59],[128.83,-3.32],[128.17,-3.33],[127.82,-2.76],[126.9,-3.1],[127.01,-3.75],[126.32,-3.99],[127.17,-4.15],[127.7,-3.5],[128.05,-4.06],[129.25,-3.4],[130.11,-3.55],[130.46,-4.12],[131.32,-4.28],[131.74,-5.74],[132.52,-6.39],[133.19,-6.38],[133.36,-5.4],[131.86,-5.01],[132.18,-4.43],[130.97,-3.71],[130.86,-3.05],[128.94,-2.58]]],[[[144.44,-68.17],[146.13,-67.88],[147.53,-68.78],[150.23,-68.72],[151.28,-69.21],[152.36,-68.73],[153.44,-69.21],[154.46,-68.72],[156.17,-69.52],[157.74,-69.36],[160.0,-69.75],[160.77,-70.3],[160.37,-70.67],[161.07,-70.99],[162.18,-70.93],[162.06,-70.7],[162.55,-70.56],[163.88,-70.94],[165.42,-70.71],[169.48,-71.54],[169.45,-72.14],[170.33,-72.42],[168.35,-72.25],[167.89,-72.41],[168.08,-72.63],[168.96,-72.91],[166.62,-73.12],[165.78,-73.66],[164.53,-73.75],[164.31,-74.36],[162.39,-74.6],[162.07,-75.21],[161.43,-75.36],[162.54,-75.9],[161.87,-76.05],[162.03,-76.28],[163.54,-76.19],[163.36,-75.97],[164.0,-75.81],[162.85,-75.28],[166.55,-74.56],[165.61,-74.27],[165.42,-74.04],[165.96,-73.89],[167.93,-73.85],[168.7,-73.3],[169.63,-73.57],[169.14,-73.74],[169.37,-73.96],[170.58,-73.84],[170.34,-73.62],[170.8,-73.45],[169.65,-72.97],[171.22,-72.68],[170.99,-72.47],[171.6,-71.92],[170.74,-71.65],[170.72,-71.05],[169.08,-71.1],[168.1,-70.6],[163.94,-70.11],[161.84,-70.24],[160.39,-69.37],[156.08,-69.05],[154.39,-68.01],[152.36,-68.49],[148.13,-68.44],[147.23,-67.68],[144.68,-67.45],[145.3,-67.11],[144.9,-66.72],[135.97,-65.97],[134.65,-66.33],[134.02,-65.73],[131.7,-65.94],[131.5,-66.18],[131.89,-66.37],[143.27,-67.0],[144.12,-67.54],[143.38,-68.12],[144.44,-68.17]]],[[[-61.44,17.87],[-62.2,17.67],[-62.1,17.06],[-62.78,17.62],[-62.9,18.41],[-63.65,18.2],[-63.29,17.16],[-62.72,17.22],[-62.01,16.45],[-62.12,15.89],[-61.1,14.42],[-60.97,13.56],[-61.54,13.32],[-61.97,12.21],[-61.73,11.93],[-61.17,12.18],[-60.59,13.66],[-61.01,16.39],[-61.84,16.61],[-61.31,17.06],[-61.44,17.87]]],[[[-12.04,-37.03],[-13.09,-37.34],[-12.23,-37.91],[-12.04,-37.03]]],[[[119.24,-5.17],[119.0,-5.47],[119.72,-6.1],[120.36,-5.88],[120.08,-6.42],[120.37,-7.2],[121.1,-7.83],[121.45,-6.83],[120.57,-5.8],[120.86,-5.26],[120.53,-4.71],[120.66,-3.76],[121.06,-3.84],[121.63,-5.66],[122.43,-5.82],[122.77,-6.38],[122.87,-5.67],[123.51,-5.67],[123.84,-6.23],[124.59,-5.52],[124.44,-5.12],[123.76,-5.36],[123.31,-4.16],[123.61,-3.6],[122.45,-2.89],[122.15,-2.09],[122.66,-1.44],[123.15,-2.4],[123.97,-2.55],[125.14,-1.89],[125.9,-2.54],[126.4,-2.12],[126.24,-1.72],[123.93,-1.42],[123.63,-0.62],[122.8,-0.47],[122.47,0.09],[122.72,0.42],[124.15,0.04],[124.94,1.04],[125.59,1.06],[125.97,3.54],[125.62,4.11],[125.73,4.85],[125.08,4.83],[125.39,4.02],[125.13,2.28],[124.33,1.27],[123.43,0.93],[121.79,1.21],[121.05,1.83],[119.68,0.83],[119.69,-0.52],[118.98,-1.25],[119.1,-1.88],[118.61,-2.51],[119.18,-2.74],[119.29,-3.37],[118.75,-2.9],[118.51,-3.21],[119.37,-4.23],[118.74,-4.46],[119.24,-5.17]],[[120.37,-0.03],[120.84,0.38],[121.43,0.15],[121.55,-0.49],[121.04,-1.14],[120.49,-0.67],[119.84,-0.92],[120.37,-0.03]],[[120.57,-1.54],[121.12,-2.02],[121.59,-1.61],[121.48,-0.97],[122.29,-1.12],[121.49,-2.33],[122.08,-2.57],[122.64,-4.4],[121.58,-4.56],[121.28,-3.77],[121.57,-3.21],[120.98,-2.97],[120.57,-1.54]],[[120.23,-3.92],[120.28,-5.02],[119.82,-5.41],[119.47,-3.53],[120.08,-3.53],[120.23,-3.92]],[[122.98,-4.96],[122.72,-5.27],[122.57,-4.88],[123.05,-4.48],[122.98,-4.96]],[[122.16,0.89],[122.09,0.41],[120.69,0.78],[120.95,1.11],[122.16,0.89]]],[[[160.94,-10.56],[161.75,-11.04],[162.57,-11.09],[162.78,-10.78],[162.38,-10.12],[161.77,-9.97],[161.99,-9.46],[161.19,-8.99],[161.4,-8.48],[160.88,-8.31],[160.8,-7.72],[160.44,-7.67],[159.94,-8.31],[159.16,-7.39],[157.43,-7.28],[157.0,-6.39],[156.01,-6.37],[154.43,-5.05],[154.91,-6.82],[155.48,-7.02],[155.17,-7.57],[155.74,-7.77],[156.48,-7.03],[156.39,-8.57],[156.86,-8.16],[157.28,-9.03],[159.39,-9.17],[159.32,-9.81],[160.14,-9.87],[160.54,-10.32],[160.98,-9.29],[161.37,-9.95],[160.94,-10.56]],[[159.31,-8.58],[159.68,-8.62],[159.43,-8.94],[158.68,-8.85],[157.55,-7.65],[158.15,-7.61],[159.31,-8.58]]],[[[153.38,48.49],[151.37,46.85],[152.22,46.65],[153.36,47.39],[153.24,48.01],[153.65,48.34],[153.38,48.49]]],[[[-139.44,-19.59],[-138.32,-19.43],[-139.18,-18.35],[-139.56,-18.54],[-139.06,-18.98],[-139.44,-19.59]]],[[[167.52,8.57],[168.15,9.03],[167.54,9.68],[166.61,9.54],[167.52,8.57]]],[[[180.0,71.66],[178.26,71.46],[177.81,70.81],[180.0,70.79],[180.0,71.66]]],[[[-180.0,70.79],[-177.63,70.73],[-177.03,71.37],[-179.27,71.87],[-180.0,71.66],[-180.0,70.79]],[[-178.59,71.41],[-178.26,71.19],[-178.71,70.98],[-179.81,71.22],[-178.59,71.41]]],[[[-155.03,20.22],[-155.83,20.31],[-155.89,20.97],[-156.64,21.49],[-157.72,21.59],[-157.78,22.25],[-158.68,21.45],[-158.2,20.97],[-157.13,20.87],[-157.07,20.21],[-156.37,20.36],[-156.48,19.49],[-156.06,18.56],[-154.77,19.09],[-154.65,19.96],[-155.03,20.22]]],[[[128.24,-6.97],[128.16,-7.44],[128.82,-7.45],[128.51,-6.65],[128.24,-6.97]]],[[[128.73,27.0],[129.26,27.4],[129.14,27.95],[130.12,28.31],[129.51,28.68],[128.4,27.68],[128.53,27.13],[127.68,27.41],[127.8,26.85],[126.35,26.29],[127.76,25.41],[127.88,26.07],[128.73,27.0]]],[[[167.38,-14.25],[167.6,-14.59],[168.2,-14.27],[167.54,-13.26],[166.5,-12.9],[166.31,-13.44],[167.35,-13.59],[167.38,-14.25]]],[[[107.71,4.8],[107.72,2.91],[108.62,3.33],[108.73,4.32],[107.71,4.8]]],[[[-157.48,-19.58],[-159.08,-19.33],[-158.27,-20.12],[-157.19,-20.28],[-157.48,-19.58]]],[[[-20.89,-20.03],[-18.02,-20.82],[-14.97,-19.87],[-14.71,-19.28],[-13.16,-18.9],[-12.91,-18.32],[-12.31,-18.62],[-11.46,-18.33],[-11.22,-17.74],[-10.13,-17.49],[-8.55,-15.67],[-9.6,-14.33],[-10.25,-14.43],[-10.68,-13.97],[-12.39,-13.72],[-12.96,-14.03],[-14.66,-13.76],[-15.64,-14.2],[-17.32,-13.91],[-21.07,-14.81],[-21.99,-14.61],[-22.3,-15.17],[-23.09,-15.38],[-23.59,-16.94],[-23.36,-17.82],[-22.21,-18.7],[-22.27,-19.32],[-21.59,-19.25],[-20.89,-20.03]]],[[[80.29,-67.59],[76.83,-69.3],[73.06,-69.53],[71.43,-70.14],[71.62,-70.79],[70.75,-71.09],[72.0,-71.2],[73.7,-70.59],[73.44,-69.94],[76.52,-70.03],[80.18,-68.08],[81.92,-68.02],[81.96,-67.77],[80.29,-67.59]]],[[[-145.47,-15.18],[-146.14,-15.74],[-146.59,-14.86],[-148.36,-14.67],[-148.91,-15.04],[-148.47,-15.93],[-148.03,-15.34],[-147.01,-15.44],[-146.57,-16.33],[-145.91,-16.18],[-145.46,-17.07],[-145.88,-17.66],[-145.23,-17.51],[-145.06,-16.89],[-144.46,-17.57],[-143.66,-16.8],[-142.8,-17.49],[-143.56,-17.44],[-143.58,-17.86],[-142.56,-17.93],[-142.45,-18.57],[-141.83,-18.82],[-141.68,-18.2],[-142.9,-16.86],[-142.75,-16.25],[-142.14,-16.5],[-142.11,-15.68],[-143.64,-16.38],[-144.65,-16.3],[-144.35,-15.49],[-144.99,-15.64],[-145.47,-15.18]]],[[[73.13,1.0],[72.7,0.14],[73.26,-0.25],[72.77,-0.84],[73.36,-1.02],[73.88,0.25],[73.51,0.97],[73.13,1.0]]],[[[44.56,-16.6],[45.21,-16.02],[45.86,-16.09],[46.25,-15.57],[44.07,-16.04],[44.07,-16.7],[44.56,-16.6]]],[[[-139.16,-9.58],[-139.5,-9.74],[-139.39,-10.32],[-138.7,-10.0],[-138.82,-9.42],[-139.16,-9.58]]],[[[-140.08,-9.49],[-139.5,-9.35],[-139.39,-8.6],[-140.46,-8.69],[-140.54,-9.44],[-140.08,-9.49]]],[[[151.69,7.28],[152.02,6.71],[153.07,6.62],[152.94,7.02],[152.11,7.2],[151.83,8.02],[151.32,7.62],[151.69,7.28]]],[[[169.8,9.82],[169.84,8.9],[170.22,8.77],[170.56,9.56],[169.8,9.82]]],[[[-79.61,20.19],[-80.43,19.53],[-79.67,19.51],[-79.61,20.19]]],[[[52.26,12.08],[52.66,12.1],[52.09,12.43],[52.26,12.08]]],[[[-139.95,62.24],[-139.37,62.53],[-140.18,62.58],[-139.95,62.24]]],[[[146.45,7.56],[146.3,7.98],[145.63,7.98],[145.92,7.15],[146.6,7.15],[146.45,7.56]]],[[[164.02,-77.71],[164.24,-77.94],[163.49,-78.1],[163.71,-78.32],[164.93,-78.61],[161.12,-78.57],[161.3,-78.79],[160.45,-78.95],[160.62,-79.17],[158.95,-79.71],[159.25,-79.91],[158.27,-80.06],[158.57,-80.27],[157.54,-80.41],[159.56,-80.89],[162.03,-80.78],[161.63,-80.58],[163.15,-80.05],[161.47,-79.81],[161.13,-79.6],[162.02,-79.45],[161.67,-79.25],[168.4,-78.68],[167.97,-78.49],[168.67,-78.32],[166.86,-77.89],[167.54,-77.72],[167.28,-77.5],[167.93,-77.33],[167.67,-77.11],[164.74,-77.55],[163.61,-77.26],[163.42,-77.03],[164.11,-76.87],[163.91,-76.65],[163.05,-76.58],[161.82,-77.12],[161.99,-77.35],[164.02,-77.71]]],[[[152.02,66.59],[152.78,67.19],[152.25,67.34],[149.23,66.56],[150.18,65.77],[149.53,65.16],[149.98,64.77],[151.49,64.59],[150.84,63.99],[151.84,63.95],[152.68,63.41],[155.42,64.12],[155.07,64.53],[154.06,64.59],[152.44,64.3],[153.13,64.89],[151.81,65.84],[152.54,66.44],[152.02,66.59]]],[[[-118.12,54.76],[-118.03,55.16],[-118.66,55.03],[-118.12,54.76]]],[[[38.16,-46.7],[37.15,-47.02],[38.15,-47.17],[38.16,-46.7]]],[[[-145.33,-14.98],[-144.33,-15.07],[-144.65,-14.01],[-145.42,-14.35],[-145.33,-14.98]]],[[[-59.07,13.01],[-59.56,13.57],[-59.89,13.05],[-59.64,12.77],[-59.07,13.01]]],[[[-159.93,-21.65],[-159.4,-21.06],[-160.3,-21.36],[-159.93,-21.65]]],[[[164.1,-67.63],[165.02,-67.56],[164.38,-67.25],[164.1,-67.63]]],[[[-76.93,18.65],[-78.24,18.78],[-78.67,18.12],[-77.2,17.44],[-76.84,17.85],[-76.03,17.87],[-76.93,18.65]]],[[[-36.84,-54.65],[-35.77,-55.01],[-35.39,-54.67],[-35.74,-54.1],[-37.83,-53.62],[-38.58,-54.04],[-36.84,-54.65]]],[[[126.06,-2.94],[125.94,-3.67],[126.48,-3.02],[126.06,-2.94]]],[[[-140.55,-18.06],[-140.91,-17.42],[-141.43,-18.22],[-140.68,-18.68],[-140.55,-18.06]]],[[[59.34,82.04],[54.22,81.67],[53.45,81.46],[54.28,81.24],[53.54,81.04],[51.16,81.24],[51.86,81.46],[50.95,81.66],[49.32,81.65],[48.68,81.43],[49.61,81.23],[49.0,81.02],[42.64,80.68],[50.54,79.57],[55.77,79.98],[59.66,79.49],[60.41,79.69],[59.84,79.91],[62.85,80.26],[62.31,80.49],[63.2,80.68],[68.1,80.94],[59.34,82.04]]],[[[167.99,54.96],[166.61,55.22],[166.21,55.77],[165.64,55.51],[166.2,54.57],[167.97,54.36],[168.67,54.82],[167.99,54.96]]],[[[134.56,-7.5],[135.08,-7.09],[135.25,-6.11],[134.74,-5.14],[134.46,-5.47],[134.77,-6.28],[133.94,-5.89],[133.78,-6.86],[134.56,-7.5]]],[[[-151.81,-16.62],[-151.49,-17.3],[-150.51,-16.77],[-152.02,-16.16],[-152.49,-16.75],[-151.81,-16.62]]],[[[46.66,-15.7],[47.52,-15.07],[48.0,-15.6],[47.37,-15.53],[46.67,-16.35],[45.3,-16.44],[44.57,-17.25],[43.91,-17.18],[43.5,-17.7],[44.11,-19.98],[42.86,-22.21],[43.03,-23.03],[43.63,-23.33],[43.21,-23.85],[43.38,-24.67],[44.08,-25.36],[44.76,-25.41],[45.02,-25.97],[46.79,-25.54],[47.44,-24.95],[47.43,-24.32],[48.07,-23.74],[47.81,-23.17],[48.99,-19.46],[49.53,-19.11],[49.81,-18.18],[49.63,-17.37],[50.73,-15.81],[50.0,-12.55],[49.37,-11.84],[48.45,-12.04],[48.47,-12.68],[47.63,-13.3],[47.43,-14.65],[46.57,-15.28],[46.66,-15.7]]],[[[166.23,11.37],[166.7,10.87],[167.64,11.01],[168.05,11.45],[167.5,11.75],[166.23,11.37]]],[[[-176.54,-44.36],[-175.93,-44.54],[-175.83,-43.94],[-176.5,-43.53],[-177.27,-43.72],[-176.54,-44.36]]],[[[92.2,11.97],[91.9,10.83],[92.77,10.26],[92.82,11.03],[93.58,12.14],[94.27,12.23],[94.07,12.63],[93.16,12.68],[93.23,13.71],[93.98,14.56],[93.57,15.35],[93.52,14.59],[92.27,12.99],[92.2,11.97]]],[[[167.4,-10.06],[167.59,-9.76],[166.8,-9.72],[167.4,-10.06]]],[[[168.08,-83.04],[169.26,-82.86],[168.53,-82.65],[164.29,-82.39],[163.74,-82.18],[164.88,-82.01],[164.34,-81.81],[162.73,-81.77],[160.81,-82.3],[168.08,-83.04]]],[[[-158.8,-80.22],[-157.48,-79.88],[-161.95,-78.39],[-165.97,-79.32],[-163.51,-80.17],[-158.8,-80.22]]],[[[-141.71,-14.28],[-141.35,-14.51],[-140.85,-14.14],[-141.21,-13.91],[-141.71,-14.28]]],[[[-23.87,16.4],[-24.14,16.97],[-24.84,17.27],[-25.73,17.19],[-25.45,16.63],[-24.53,16.23],[-23.87,16.4]]],[[[141.73,24.69],[141.42,25.43],[140.97,25.51],[141.39,24.17],[141.84,24.1],[141.73,24.69]]],[[[-25.61,-58.54],[-26.12,-58.22],[-27.3,-58.41],[-26.8,-58.74],[-25.61,-58.54]]],[[[160.9,-11.86],[160.09,-11.15],[159.46,-11.22],[159.65,-11.78],[160.47,-12.27],[160.9,-11.86]]],[[[46.54,-9.84],[46.84,-9.56],[46.6,-8.96],[45.98,-9.51],[46.54,-9.84]]],[[[130.44,-8.24],[130.59,-8.64],[131.53,-8.32],[132.36,-7.36],[132.25,-6.71],[131.38,-6.56],[130.56,-7.53],[130.44,-8.24]],[[131.42,-7.68],[130.95,-7.84],[131.5,-7.2],[131.42,-7.68]]],[[[-81.92,12.44],[-81.48,12.25],[-81.74,12.79],[-82.16,12.76],[-81.92,12.44]]],[[[-141.07,-18.87],[-141.33,-19.27],[-140.32,-19.75],[-140.32,-19.33],[-141.07,-18.87]]],[[[171.46,70.06],[174.46,69.7],[174.81,69.92],[174.43,70.13],[172.11,70.52],[169.99,70.01],[168.06,70.14],[166.79,69.63],[163.16,70.05],[162.23,69.74],[166.28,69.15],[167.96,69.47],[168.4,69.27],[168.13,69.04],[169.68,68.68],[171.66,69.19],[171.15,69.83],[171.46,70.06]],[[170.25,69.14],[169.12,69.31],[170.12,69.57],[170.54,69.37],[170.25,69.14]]],[[[126.81,3.4],[126.93,4.15],[127.43,4.58],[127.28,4.99],[126.35,4.63],[126.81,3.4]]],[[[-169.9,16.96],[-169.81,16.32],[-169.06,16.7],[-169.52,17.15],[-169.9,16.96]]],[[[-172.08,-9.32],[-171.8,-9.58],[-171.58,-8.82],[-172.08,-9.32]]],[[[93.93,78.47],[92.6,78.13],[94.65,78.06],[94.87,78.31],[93.93,78.47]]],[[[-71.64,21.0],[-70.92,21.36],[-71.77,22.32],[-73.63,21.4],[-73.87,20.88],[-72.98,20.73],[-72.94,21.34],[-72.2,21.71],[-71.72,21.55],[-71.64,21.0]]],[[[71.74,-5.21],[71.9,-5.58],[72.55,-5.55],[72.39,-5.18],[71.74,-5.21]]],[[[176.02,-2.88],[176.23,-2.4],[175.97,-2.18],[176.02,-2.88]]],[[[113.52,57.84],[114.87,57.81],[113.96,58.23],[113.51,58.24],[113.52,57.84]]],[[[168.53,14.85],[168.6,14.46],[169.25,14.36],[169.18,14.75],[168.53,14.85]]],[[[-169.18,63.59],[-170.55,64.13],[-172.72,63.65],[-171.85,63.18],[-170.45,63.28],[-169.13,62.75],[-168.53,63.32],[-169.18,63.59]]],[[[158.6,71.24],[155.88,71.41],[155.0,71.07],[159.0,70.82],[159.56,70.64],[159.38,70.39],[160.62,69.37],[161.51,69.68],[160.66,70.29],[160.85,70.53],[163.1,70.72],[158.6,71.24]]],[[[139.29,32.97],[139.95,32.79],[140.19,33.13],[139.53,33.3],[139.29,32.97]]],[[[-159.05,3.83],[-159.0,4.25],[-159.8,3.92],[-159.05,3.83]]],[[[-141.86,63.44],[-143.28,63.17],[-142.07,63.01],[-141.91,62.46],[-141.1,62.42],[-140.41,62.92],[-141.86,63.44]]],[[[107.2,0.09],[107.62,0.06],[107.72,1.04],[106.93,1.6],[106.68,1.25],[107.28,0.83],[106.6,0.51],[107.2,0.09]]],[[[-157.85,-8.71],[-158.32,-9.24],[-157.67,-9.13],[-157.85,-8.71]]],[[[-83.89,17.36],[-83.68,17.71],[-84.07,17.71],[-84.3,17.12],[-83.89,17.36]]],[[[54.95,-4.24],[54.99,-4.81],[55.53,-5.01],[56.08,-4.42],[55.71,-3.58],[55.06,-3.81],[55.54,-4.22],[54.95,-4.24]]],[[[-24.22,15.21],[-25.09,15.14],[-24.59,14.49],[-23.29,14.59],[-22.89,15.08],[-23.38,15.74],[-24.22,15.21]]],[[[76.33,79.32],[78.58,79.36],[75.73,80.06],[74.65,79.9],[76.33,79.32]]],[[[120.65,9.23],[121.02,8.94],[121.57,9.86],[121.16,9.91],[120.65,9.23]]],[[[-117.59,56.14],[-118.49,55.83],[-117.39,55.29],[-117.04,55.86],[-117.59,56.14]]],[[[-179.11,-20.87],[-178.65,-21.0],[-178.56,-20.37],[-179.11,-20.87]]],[[[172.96,2.94],[173.27,3.14],[173.09,3.61],[172.48,3.2],[172.66,2.74],[172.96,2.94]]],[[[-86.73,5.52],[-87.4,5.83],[-86.92,5.15],[-86.73,5.52]]],[[[-22.8,16.83],[-23.26,17.03],[-23.19,16.1],[-22.71,15.67],[-22.32,16.4],[-22.8,16.83]]],[[[-136.61,-18.67],[-136.25,-18.89],[-136.26,-18.08],[-136.61,-18.67]]],[[[-136.42,-21.78],[-136.16,-22.2],[-136.05,-21.58],[-136.81,-21.15],[-136.42,-21.78]]],[[[-154.93,-16.22],[-154.63,-16.91],[-154.45,-15.64],[-154.93,-16.22]]],[[[-72.81,17.92],[-72.05,18.13],[-71.95,17.33],[-71.34,17.23],[-70.69,18.22],[-69.14,18.21],[-68.7,17.81],[-68.25,18.68],[-68.94,19.55],[-69.71,19.56],[-70.76,20.24],[-72.27,19.87],[-73.11,20.25],[-73.83,19.68],[-72.96,19.1],[-74.32,18.8],[-75.05,18.19],[-72.81,17.92]]],[[[74.34,-52.95],[73.37,-52.74],[72.91,-53.06],[73.43,-53.61],[74.34,-52.95]]],[[[180.0,-9.03],[179.68,-9.73],[180.0,-9.67],[180.0,-9.03]]],[[[147.94,-2.38],[147.79,-1.97],[146.28,-1.85],[146.57,-2.66],[147.42,-2.8],[147.94,-2.38]]],[[[149.5,7.22],[149.59,7.72],[148.93,7.72],[149.5,7.22]]],[[[-134.14,-23.46],[-135.03,-22.84],[-135.39,-23.04],[-134.5,-23.67],[-134.14,-23.46]]],[[[135.2,8.26],[134.76,8.33],[133.91,7.3],[134.22,6.47],[135.03,7.25],[135.2,8.26]]],[[[174.24,52.4],[173.92,52.99],[172.62,53.32],[172.06,53.08],[172.4,52.49],[173.68,52.16],[174.24,52.4]]],[[[71.61,-6.13],[71.45,-5.76],[70.96,-6.16],[71.28,-6.91],[71.61,-6.13]]],[[[78.73,74.9],[77.99,74.76],[78.09,74.52],[79.64,74.55],[78.73,74.9]]],[[[92.87,8.32],[93.64,6.46],[94.09,6.43],[94.16,7.46],[93.5,7.63],[94.02,8.63],[93.1,8.43],[92.95,9.6],[92.47,9.12],[92.87,8.32]]],[[[173.15,0.9],[173.61,2.22],[172.67,1.94],[172.85,0.71],[173.19,0.6],[173.15,0.9]]],[[[178.82,-49.65],[178.23,-49.74],[178.61,-50.03],[179.46,-49.77],[178.82,-49.65]]],[[[-157.35,2.09],[-157.75,1.93],[-157.05,1.41],[-157.35,2.09]]],[[[81.42,77.4],[83.37,77.16],[82.37,77.53],[81.42,77.4]]],[[[-18.57,-72.87],[-15.71,-72.62],[-18.2,-72.44],[-18.8,-72.63],[-18.57,-72.87]]],[[[-91.21,0.78],[-92.03,-0.02],[-91.75,-1.37],[-90.88,-1.31],[-90.42,-1.78],[-90.01,-1.25],[-89.33,-1.57],[-88.95,-0.54],[-89.83,-0.61],[-90.29,-0.14],[-89.67,0.53],[-90.57,0.96],[-91.21,0.78]]],[[[105.4,3.49],[105.73,2.45],[106.59,2.38],[106.69,3.37],[105.4,3.49]]],[[[152.81,76.1],[153.97,76.46],[152.07,76.51],[151.95,76.26],[152.81,76.1]]],[[[166.43,-10.54],[166.61,-10.03],[166.02,-10.31],[165.41,-9.97],[165.43,-10.81],[165.84,-11.25],[166.43,-10.54]]],[[[-175.74,-15.33],[-175.58,-16.0],[-175.28,-15.44],[-175.74,-15.33]]],[[[154.93,-3.53],[154.84,-2.89],[154.44,-2.83],[154.53,-3.46],[154.93,-3.53]]],[[[51.0,-9.13],[50.56,-9.22],[50.8,-9.81],[51.31,-9.49],[51.0,-9.13]]],[[[131.0,25.8],[131.17,25.44],[131.74,26.06],[131.09,26.24],[131.0,25.8]]],[[[-80.13,-25.96],[-80.34,-26.33],[-79.81,-26.76],[-79.61,-26.39],[-80.13,-25.96]]],[[[-149.51,-17.31],[-149.73,-16.86],[-149.92,-17.48],[-151.12,-17.56],[-150.64,-18.05],[-149.59,-18.16],[-149.03,-17.79],[-149.51,-17.31]]],[[[112.14,16.82],[112.08,16.34],[113.02,16.93],[112.4,17.15],[112.14,16.82]]],[[[51.96,-46.36],[51.56,-46.59],[52.09,-46.73],[52.57,-46.3],[51.96,-46.36]]],[[[-139.57,63.63],[-138.82,64.14],[-140.3,63.9],[-139.82,63.21],[-139.21,63.5],[-139.57,63.63]]],[[[146.23,17.13],[145.98,18.17],[145.53,18.26],[145.79,17.22],[146.23,17.13]]],[[[-92.11,1.45],[-91.66,1.24],[-91.91,1.84],[-92.34,1.8],[-92.11,1.45]]],[[[57.1,-20.69],[58.1,-20.39],[57.84,-19.57],[56.98,-20.28],[57.1,-20.69]]],[[[175.96,-1.15],[175.96,-1.49],[176.76,-1.46],[176.4,-1.05],[175.96,-1.15]]],[[[134.92,73.77],[135.78,73.68],[137.1,74.26],[136.07,74.61],[135.32,74.45],[135.48,74.19],[134.76,74.03],[134.92,73.77]]],[[[54.71,12.89],[53.65,13.04],[52.94,11.93],[54.63,12.18],[54.71,12.89]]],[[[105.38,-10.8],[105.8,-10.82],[106.06,-10.27],[105.24,-10.24],[105.38,-10.8]]],[[[180.0,52.34],[177.25,52.31],[177.13,51.69],[179.52,51.33],[180.0,52.34]]],[[[-174.02,-19.85],[-174.37,-19.33],[-175.22,-19.55],[-175.75,-21.16],[-175.4,-21.7],[-174.54,-21.48],[-175.19,-20.65],[-174.46,-20.84],[-174.02,-19.85]]],[[[-29.54,-20.1],[-29.68,-20.49],[-29.16,-20.84],[-29.02,-20.45],[-29.54,-20.1]]],[[[-131.94,57.35],[-131.86,56.96],[-131.32,57.15],[-131.94,57.35]]],[[[171.02,6.73],[172.33,7.26],[170.91,7.43],[171.02,6.73]]],[[[-73.45,22.71],[-73.36,23.36],[-73.71,23.39],[-73.96,22.87],[-74.5,22.81],[-74.62,21.93],[-73.48,22.49],[-73.19,22.02],[-72.66,22.08],[-72.57,22.73],[-73.45,22.71]]],[[[-64.31,32.52],[-64.73,32.66],[-65.22,32.26],[-64.31,32.52]]],[[[6.62,-0.14],[6.94,0.1],[6.8,0.66],[6.18,0.18],[6.31,-0.38],[6.62,-0.14]]],[[[81.74,75.92],[81.04,75.3],[82.74,74.81],[83.52,75.18],[82.65,75.55],[84.33,76.29],[81.65,76.41],[80.79,76.28],[81.74,75.92]]],[[[167.58,-83.43],[174.75,-84.05],[178.15,-83.84],[170.86,-83.26],[167.58,-83.43]]],[[[177.28,-12.69],[177.02,-12.22],[176.66,-12.32],[176.91,-12.79],[177.28,-12.69]]],[[[165.96,-51.3],[166.9,-50.2],[165.28,-50.63],[165.96,-51.3]]],[[[-138.44,-20.47],[-138.81,-20.66],[-138.68,-21.3],[-138.31,-21.1],[-138.44,-20.47]]],[[[-138.43,-22.57],[-139.07,-21.49],[-139.07,-22.34],[-138.43,-22.57]]],[[[-122.42,62.54],[-123.13,62.78],[-123.43,62.17],[-122.74,61.93],[-122.42,62.54]]],[[[68.44,-49.37],[68.74,-50.13],[69.53,-49.76],[70.38,-49.98],[70.73,-49.9],[70.56,-49.52],[71.07,-48.98],[69.3,-48.77],[68.91,-48.25],[68.19,-49.22],[68.44,-49.37]]],[[[150.29,-16.81],[150.02,-17.14],[150.46,-17.19],[150.76,-16.63],[150.29,-16.81]]],[[[146.0,14.81],[145.95,15.7],[145.37,15.06],[145.72,14.49],[146.0,14.81]]],[[[140.77,10.04],[139.69,10.36],[139.4,10.02],[139.75,9.44],[140.77,10.04]]],[[[144.13,7.22],[144.57,7.14],[144.42,7.56],[143.74,7.55],[144.13,7.22]]],[[[167.7,-16.84],[168.34,-16.97],[167.96,-17.88],[168.82,-17.89],[168.69,-15.62],[168.02,-14.82],[167.63,-15.26],[166.97,-14.46],[166.34,-14.55],[166.37,-15.45],[167.27,-16.83],[167.7,-16.84]]],[[[-136.86,67.51],[-138.35,66.93],[-136.64,67.14],[-136.46,67.36],[-136.86,67.51]]],[[[-146.21,59.41],[-146.5,59.72],[-146.95,59.42],[-146.21,59.41]]],[[[163.76,-66.95],[163.04,-66.41],[162.15,-66.46],[162.85,-67.01],[163.76,-66.95]]],[[[97.02,-12.49],[97.26,-12.17],[96.87,-11.7],[96.4,-12.34],[97.02,-12.49]]],[[[103.38,63.67],[104.1,63.92],[103.2,64.08],[103.02,63.85],[103.38,63.67]]],[[[154.01,62.96],[154.61,63.3],[154.17,63.45],[150.54,62.52],[153.77,62.23],[154.36,62.57],[154.01,62.96]]],[[[-177.88,-14.16],[-178.53,-14.0],[-178.01,-14.55],[-177.88,-14.16]]],[[[-114.94,66.31],[-115.32,66.12],[-114.56,65.84],[-113.98,66.44],[-114.75,66.72],[-115.13,66.54],[-114.94,66.31]]],[[[111.06,55.92],[112.32,55.91],[111.44,56.3],[111.02,56.3],[111.06,55.92]]],[[[130.29,-7.85],[129.51,-7.21],[130.06,-6.56],[129.91,-6.16],[129.09,-7.13],[129.74,-8.48],[130.29,-7.85]]],[[[115.88,55.63],[116.12,56.2],[116.78,56.37],[116.58,56.57],[115.5,56.81],[114.63,56.45],[115.88,55.63]]],[[[72.56,-7.07],[72.1,-7.25],[72.46,-7.77],[72.56,-7.07]]],[[[90.95,77.04],[91.08,77.29],[90.18,77.44],[88.23,77.49],[87.17,77.13],[90.95,77.04]]],[[[-118.24,29.42],[-118.61,28.83],[-118.28,28.51],[-117.91,29.1],[-118.24,29.42]]],[[[144.94,14.01],[144.36,13.36],[145.0,13.11],[145.43,14.17],[144.94,14.01]]],[[[-169.72,-13.92],[-170.07,-14.27],[-169.52,-14.6],[-169.72,-13.92]]],[[[33.01,80.04],[35.55,80.19],[33.55,80.73],[30.79,80.34],[30.68,80.11],[33.01,80.04]]],[[[-176.57,-13.45],[-176.13,-13.55],[-176.05,-12.95],[-176.57,-13.45]]],[[[-169.71,-19.55],[-169.41,-18.96],[-169.73,-18.67],[-170.34,-18.97],[-169.71,-19.55]]],[[[173.53,0.49],[173.24,0.3],[173.7,0.06],[174.29,0.44],[173.53,0.49]]],[[[170.8,8.13],[171.49,8.22],[171.38,8.93],[170.85,9.23],[170.53,9.0],[171.06,8.71],[170.8,8.13]]],[[[126.55,1.66],[126.05,1.23],[126.2,0.83],[126.7,1.25],[126.55,1.66]]],[[[77.76,-38.47],[77.44,-38.82],[77.7,-38.95],[77.99,-38.85],[77.76,-38.47]]],[[[7.08,1.67],[7.53,1.35],[7.85,1.59],[7.4,1.91],[7.08,1.67]]],[[[112.74,-5.29],[112.29,-5.73],[112.44,-6.09],[113.05,-6.0],[112.74,-5.29]]],[[[142.56,26.37],[142.45,26.95],[142.0,27.03],[142.11,26.45],[142.56,26.37]]],[[[147.35,76.98],[147.31,76.73],[148.25,76.59],[149.32,76.96],[147.35,76.98]]],[[[149.67,-4.68],[149.07,-4.46],[148.79,-4.79],[149.4,-5.01],[149.67,-4.68]]],[[[118.36,-5.7],[118.78,-5.55],[118.46,-5.0],[117.3,-4.76],[116.86,-5.14],[117.0,-5.52],[117.45,-5.15],[117.77,-5.69],[118.22,-5.31],[118.36,-5.7]]],[[[171.98,6.51],[171.36,6.08],[172.45,5.71],[172.49,6.23],[171.98,6.51]]],[[[-142.92,-20.88],[-143.67,-19.97],[-143.71,-20.83],[-142.92,-20.88]]],[[[145.99,15.94],[146.28,16.25],[145.94,16.82],[145.36,16.19],[145.99,15.94]]],[[[-26.19,-57.98],[-25.89,-57.61],[-26.68,-57.66],[-26.19,-57.98]]],[[[150.9,71.24],[152.09,70.68],[154.26,70.98],[152.27,71.19],[152.37,71.45],[151.72,71.6],[150.9,71.24]]],[[[158.38,-19.76],[157.92,-19.73],[158.13,-20.11],[158.82,-20.03],[158.38,-19.76]]],[[[169.09,7.17],[169.1,7.71],[168.51,8.35],[167.9,8.44],[167.89,7.9],[169.09,7.17]]],[[[-20.02,-73.91],[-19.36,-73.73],[-20.46,-73.41],[-21.58,-74.02],[-23.17,-74.11],[-20.94,-74.77],[-20.23,-74.59],[-20.46,-74.34],[-19.78,-74.16],[-20.02,-73.91]]],[[[145.17,19.92],[145.77,19.43],[145.66,20.06],[145.17,19.92]]],[[[165.69,8.85],[166.38,8.95],[165.45,9.36],[165.15,9.13],[165.69,8.85]]],[[[-162.45,6.2],[-162.49,5.77],[-161.9,5.48],[-162.17,6.59],[-162.45,6.2]]],[[[167.28,-11.85],[166.66,-11.5],[166.84,-10.98],[166.44,-10.96],[166.47,-11.82],[167.28,-11.85]]],[[[-123.54,60.94],[-123.36,60.32],[-122.66,60.48],[-122.83,61.11],[-123.54,60.94]]],[[[-26.61,-59.45],[-26.22,-59.3],[-26.74,-58.97],[-27.45,-59.5],[-26.93,-59.83],[-26.61,-59.45]]],[[[169.03,10.08],[168.56,10.02],[169.33,9.75],[169.03,10.08]]],[[[-174.65,-18.17],[-174.36,-18.46],[-174.9,-18.97],[-173.95,-19.21],[-173.7,-18.4],[-174.28,-17.82],[-174.65,-18.17]]],[[[55.92,-20.81],[55.06,-20.62],[55.41,-21.85],[55.98,-21.47],[55.92,-20.81]]],[[[-144.68,62.89],[-146.57,62.28],[-145.44,61.94],[-144.38,62.56],[-144.68,62.89]]],[[[160.75,10.04],[161.24,9.55],[161.0,10.34],[160.75,10.04]]],[[[-65.31,11.14],[-65.83,10.81],[-65.25,10.71],[-65.31,11.14]]],[[[122.36,-10.46],[122.21,-10.08],[121.31,-10.58],[121.89,-10.82],[122.36,-10.46]]],[[[73.15,11.61],[72.57,11.96],[72.77,11.37],[72.19,11.25],[72.0,10.66],[72.96,11.02],[73.15,11.61]]],[[[92.59,72.08],[94.08,72.24],[92.07,72.48],[91.23,72.15],[92.59,72.08]]],[[[62.97,-19.53],[63.12,-19.94],[63.83,-19.93],[63.68,-19.52],[62.97,-19.53]]],[[[-140.64,-16.2],[-139.91,-16.25],[-139.9,-15.84],[-141.25,-15.54],[-141.25,-15.95],[-140.64,-16.2]]],[[[-160.06,-18.74],[-159.88,-19.21],[-159.27,-18.86],[-160.06,-18.74]]],[[[166.47,-47.95],[166.17,-48.33],[166.49,-48.43],[166.8,-48.3],[166.47,-47.95]]],[[[154.98,7.72],[155.29,7.15],[155.83,7.78],[155.25,8.04],[154.98,7.72]]],[[[169.09,-12.02],[168.69,-12.01],[168.52,-12.54],[168.92,-12.55],[169.09,-12.02]]],[[[155.37,65.26],[154.71,64.93],[155.73,64.86],[155.83,65.11],[155.37,65.26]]],[[[-144.35,63.76],[-144.05,63.42],[-143.48,63.73],[-144.35,63.76]]],[[[159.09,-5.73],[160.05,-5.75],[159.97,-5.15],[159.22,-5.04],[159.09,-5.73]]],[[[50.34,-46.68],[50.73,-46.46],[50.09,-45.94],[50.34,-46.68]]],[[[174.89,-1.71],[175.14,-1.24],[174.69,-1.01],[174.74,-0.56],[174.07,-0.35],[174.89,-1.71]]],[[[106.82,8.69],[106.88,9.19],[106.39,8.73],[106.56,8.33],[106.82,8.69]]],[[[123.36,-12.08],[122.7,-12.28],[123.51,-12.46],[123.36,-12.08]]],[[[-111.1,19.56],[-111.4,18.49],[-110.69,18.46],[-110.64,19.63],[-111.1,19.56]]],[[[62.33,76.68],[59.14,76.38],[58.59,76.19],[59.99,75.94],[66.35,76.48],[67.41,77.06],[66.03,77.35],[65.0,76.77],[62.33,76.68]]],[[[144.41,-1.14],[143.98,-1.07],[143.65,-1.66],[145.23,-1.54],[145.08,-1.13],[144.41,-1.14]]],[[[-156.82,55.86],[-156.51,56.19],[-157.2,56.13],[-156.82,55.86]]],[[[165.52,11.26],[165.83,11.5],[165.59,12.04],[165.28,11.8],[165.52,11.26]]],[[[131.38,57.5],[131.16,57.11],[131.91,57.2],[131.38,57.5]]],[[[-26.38,-57.28],[-26.09,-56.91],[-27.04,-56.27],[-27.79,-56.32],[-26.38,-57.28]]],[[[-145.81,-14.52],[-146.03,-14.08],[-146.56,-14.45],[-145.81,-14.52]]],[[[77.33,-37.47],[77.53,-38.09],[78.07,-38.12],[77.87,-37.5],[77.33,-37.47]]],[[[-129.06,55.77],[-128.28,55.36],[-127.72,55.53],[-129.09,56.16],[-129.64,55.98],[-129.06,55.77]]],[[[3.06,-54.69],[3.67,-54.48],[3.07,-54.3],[3.06,-54.69]]],[[[-140.85,-7.68],[-140.93,-8.06],[-140.39,-8.31],[-140.31,-7.93],[-140.85,-7.68]]],[[[-14.54,-7.72],[-14.31,-8.3],[-14.08,-7.79],[-14.54,-7.72]]],[[[-173.85,60.84],[-173.21,60.6],[-173.2,59.99],[-171.64,60.29],[-173.05,60.99],[-173.85,60.84]]],[[[-163.29,-13.22],[-163.13,-13.67],[-162.96,-12.85],[-163.29,-13.22]]],[[[53.43,-5.5],[53.34,-5.1],[53.08,-5.36],[53.31,-5.93],[53.89,-5.99],[53.43,-5.5]]],[[[110.66,-5.89],[110.5,-5.53],[109.88,-5.62],[110.04,-5.98],[110.66,-5.89]]],[[[-161.09,21.63],[-159.49,21.51],[-158.9,21.9],[-159.66,22.4],[-161.09,21.63]]],[[[-140.61,-21.85],[-140.34,-21.44],[-141.13,-21.83],[-140.61,-21.85]]],[[[169.64,6.02],[170.09,6.08],[169.58,6.36],[169.27,6.14],[169.64,6.02]]],[[[-170.87,-11.39],[-170.76,-11.0],[-171.28,-10.69],[-171.39,-11.08],[-170.87,-11.39]]],[[[103.91,72.55],[103.63,72.31],[104.16,72.12],[105.25,72.39],[103.91,72.55]]],[[[-161.22,-10.64],[-160.81,-10.49],[-160.82,-9.88],[-161.22,-10.02],[-161.22,-10.64]]],[[[-149.93,-9.97],[-150.67,-9.88],[-150.22,-10.34],[-149.93,-9.97]]],[[[51.27,-10.34],[51.4,-9.89],[50.83,-10.44],[51.27,-10.34]]],[[[-136.76,62.67],[-136.92,63.06],[-137.5,62.82],[-136.76,62.67]]],[[[-169.96,56.99],[-169.78,57.36],[-170.49,57.23],[-169.96,56.99]]],[[[162.69,5.11],[163.3,5.33],[162.58,5.5],[162.69,5.11]]],[[[-144.62,61.91],[-145.14,61.61],[-144.34,61.58],[-144.62,61.91]]],[[[176.24,-5.57],[176.03,-5.34],[175.9,-5.67],[176.29,-5.94],[176.24,-5.57]]],[[[175.35,-1.9],[175.62,-2.12],[175.97,-1.84],[175.7,-1.62],[175.35,-1.9]]],[[[162.06,11.46],[162.53,11.54],[162.27,12.07],[162.06,11.46]]],[[[47.93,-9.56],[47.54,-9.42],[47.16,-9.93],[47.94,-10.2],[47.93,-9.56]]],[[[-117.28,57.35],[-116.59,57.48],[-117.17,57.75],[-117.28,57.35]]],[[[169.73,10.18],[170.44,10.28],[169.91,10.58],[169.73,10.18]]],[[[-108.68,54.5],[-108.88,54.11],[-108.2,54.18],[-108.68,54.5]]],[[[166.07,10.39],[165.68,10.52],[165.84,9.8],[166.46,10.27],[166.07,10.39]]],[[[158.67,6.52],[158.42,7.32],[157.81,7.33],[157.89,6.7],[158.67,6.52]]],[[[168.92,4.38],[168.93,4.89],[168.57,5.01],[168.56,4.5],[168.92,4.38]]],[[[5.58,-1.07],[5.38,-1.49],[5.92,-1.61],[5.58,-1.07]]],[[[-64.8,11.6],[-64.23,11.64],[-64.09,12.01],[-64.66,11.97],[-64.8,11.6]]],[[[79.01,80.75],[81.71,80.52],[80.15,81.14],[77.43,81.1],[79.01,80.75]]],[[[-169.43,56.75],[-170.13,56.62],[-169.61,56.38],[-169.43,56.75]]],[[[176.46,52.28],[176.4,52.69],[175.83,52.47],[176.46,52.28]]]]}}]}