{"type":"FeatureCollection","features":[{"type":"Feature","properties":{},"geometry":{"type":"MultiPolygon","coordinates":[[[[102.17,59.49],[100.9,60.2],[92.84,59.68],[93.03,60.38],[91.33,60.29],[89.8,61.13],[89.94,61.83],[83.72,61.66],[81.46,62.52],[75.89,62.7],[65.49,64.63],[63.58,63.59],[61.02,64.47],[61.46,63.81],[60.17,63.51],[59.32,61.9],[56.29,63.38],[54.92,62.64],[50.63,63.0],[50.23,62.4],[46.69,62.03],[42.35,63.15],[42.1,64.13],[40.61,63.67],[40.65,62.88],[42.11,62.14],[39.92,63.04],[36.73,62.04],[34.95,62.88],[32.04,61.79],[30.09,62.94],[25.77,63.48],[24.52,62.48],[23.92,63.56],[26.05,64.7],[25.13,65.92],[22.8,66.1],[19.61,63.68],[16.76,63.41],[17.65,62.83],[16.63,62.78],[15.18,61.3],[10.01,61.05],[9.24,59.77],[7.35,58.91],[6.41,59.16],[6.97,59.56],[6.05,59.87],[6.62,60.27],[5.86,61.66],[9.18,63.34],[11.1,63.27],[12.18,64.18],[11.53,64.8],[13.62,67.04],[16.19,68.31],[15.43,68.76],[17.89,68.89],[16.96,69.74],[13.75,69.0],[11.42,67.5],[13.38,67.4],[11.83,66.97],[10.9,65.85],[11.64,65.45],[4.76,62.49],[4.11,61.2],[4.73,60.15],[1.36,60.05],[-2.5,58.46],[-0.58,59.85],[-0.3,60.64],[-1.28,61.1],[-2.67,60.37],[-1.68,59.92],[-2.2,59.47],[-4.48,59.36],[-3.53,58.71],[-7.67,58.44],[-7.52,57.25],[-8.34,56.67],[-6.76,55.52],[-8.5,55.59],[-9.29,54.99],[-9.02,54.41],[-10.75,54.44],[-10.21,53.03],[-10.97,52.17],[-10.09,51.06],[-11.49,49.99],[-11.95,47.99],[-14.53,46.17],[-12.26,43.11],[-13.58,39.41],[-13.44,35.73],[-15.08,33.72],[-15.13,30.42],[-14.39,29.53],[-9.69,33.18],[-9.21,32.9],[-10.03,32.07],[-10.48,29.21],[-13.45,28.02],[-13.49,27.02],[-14.21,26.9],[-14.97,24.78],[-17.32,22.03],[-17.54,20.69],[-16.62,20.24],[-16.18,17.89],[-16.61,15.79],[-17.68,14.94],[-17.43,11.74],[-13.61,9.29],[-12.91,7.3],[-7.79,4.08],[-5.22,5.13],[-1.4,4.61],[2.1,6.22],[5.43,4.41],[6.19,-0.21],[8.52,-0.86],[12.01,-5.34],[13.3,-8.38],[12.5,-9.1],[13.58,-12.23],[12.07,-13.43],[11.24,-17.54],[14.39,-22.52],[14.01,-24.22],[15.2,-27.3],[11.0,-28.82],[10.94,-29.87],[14.29,-33.91],[19.47,-35.92],[25.4,-35.81],[30.08,-34.79],[32.53,-33.7],[32.79,-32.06],[35.29,-30.04],[36.56,-27.11],[36.14,-25.68],[36.86,-22.09],[41.49,-16.79],[40.91,-13.79],[42.97,-12.51],[44.35,-12.46],[45.01,-13.21],[45.64,-12.64],[44.59,-11.75],[43.62,-11.94],[43.29,-10.9],[44.16,-8.98],[43.82,-7.3],[45.91,-4.99],[45.19,-3.83],[43.79,-3.41],[42.22,-0.89],[47.53,3.31],[51.59,10.43],[51.36,12.22],[44.34,10.46],[43.6,12.11],[52.27,15.2],[53.47,16.71],[56.65,17.3],[56.06,17.79],[58.27,18.96],[58.23,20.22],[59.43,20.46],[59.05,20.92],[60.02,22.54],[58.85,23.98],[65.73,21.13],[68.77,16.72],[69.72,14.35],[68.64,12.25],[69.02,11.33],[65.54,9.47],[63.95,6.83],[64.59,5.1],[67.62,2.54],[76.01,1.85],[89.64,6.73],[97.0,3.4],[96.94,2.64],[94.96,2.91],[97.32,1.85],[96.61,1.27],[98.08,0.27],[98.56,-1.88],[101.17,-4.39],[101.3,-2.94],[104.4,-6.27],[105.27,-6.08],[105.36,-7.14],[111.16,-8.43],[111.08,-7.4],[112.48,-7.34],[114.37,-7.86],[112.49,-8.81],[117.44,-9.46],[118.51,-8.9],[119.12,-10.2],[120.91,-10.49],[121.04,-9.59],[120.1,-9.03],[123.26,-8.65],[118.25,-7.91],[119.58,-7.03],[118.9,-6.17],[118.8,-6.86],[116.96,-7.27],[117.21,-8.25],[115.13,-7.88],[115.42,-8.63],[114.6,-7.53],[116.17,-7.32],[116.26,-6.64],[109.15,-6.63],[105.98,-5.29],[106.41,-3.28],[108.49,-3.41],[108.82,-2.35],[107.33,-2.61],[105.35,-1.25],[105.27,0.11],[104.64,0.28],[105.17,1.24],[104.36,1.81],[104.87,2.52],[108.7,2.2],[109.04,1.43],[108.04,0.03],[109.07,-0.17],[108.46,-1.84],[109.7,-1.92],[109.78,-3.01],[111.4,-3.11],[111.91,-3.97],[114.33,-3.64],[114.81,-4.47],[115.67,-3.82],[113.64,-2.89],[110.43,-2.69],[109.73,0.14],[109.12,0.31],[109.48,1.64],[111.35,1.61],[111.22,2.23],[113.16,2.92],[115.03,4.93],[115.63,3.41],[116.15,4.32],[115.7,5.46],[117.28,6.85],[119.08,5.37],[118.05,5.16],[117.22,3.45],[117.95,1.5],[118.83,2.09],[118.1,4.05],[122.24,5.77],[122.64,7.09],[123.7,7.07],[124.16,5.86],[125.58,5.26],[126.97,7.22],[126.26,11.13],[124.79,11.45],[124.51,12.48],[125.79,12.32],[124.59,12.97],[124.58,14.33],[123.47,14.09],[122.13,15.08],[122.91,17.42],[122.3,17.59],[122.2,21.01],[120.11,18.35],[120.28,16.69],[119.51,15.68],[121.03,11.9],[120.55,11.46],[120.51,12.57],[119.69,12.65],[118.84,10.92],[119.35,10.25],[116.96,8.96],[116.74,7.29],[115.27,5.27],[110.56,1.92],[109.12,2.17],[110.49,4.9],[109.74,7.62],[107.0,8.29],[106.88,9.19],[106.13,8.38],[105.77,9.18],[108.6,10.91],[110.9,10.25],[111.96,11.87],[111.12,13.86],[109.46,14.59],[109.58,15.58],[106.09,18.41],[106.01,19.79],[107.24,20.5],[107.87,20.04],[107.98,21.01],[108.93,21.36],[109.91,20.12],[108.23,19.25],[109.4,17.85],[111.91,20.17],[115.75,19.73],[119.11,21.3],[122.46,21.34],[125.22,22.3],[127.88,24.84],[129.14,27.95],[130.12,28.31],[129.26,28.59],[128.4,27.68],[129.1,28.93],[136.67,31.78],[139.13,34.03],[139.78,33.63],[140.59,35.57],[141.29,35.64],[141.01,38.04],[142.3,38.79],[141.37,42.3],[143.14,41.87],[145.95,42.9],[147.68,44.85],[151.18,46.14],[150.78,46.91],[144.8,44.3],[142.69,44.87],[142.26,45.83],[144.0,46.49],[142.83,48.28],[143.8,49.08],[144.55,48.24],[145.24,48.92],[143.34,51.76],[143.94,53.31],[142.79,54.76],[142.17,53.62],[139.85,54.89],[138.46,54.59],[138.7,55.18],[137.07,55.77],[138.71,56.92],[143.65,59.33],[148.65,58.82],[150.02,59.61],[150.3,58.76],[155.35,58.95],[155.97,59.5],[154.84,59.95],[158.21,61.64],[161.65,60.39],[157.5,58.04],[156.27,58.03],[156.45,57.42],[155.51,57.03],[155.05,54.39],[156.4,52.39],[155.85,51.85],[156.32,51.32],[155.23,51.08],[154.22,49.13],[153.26,49.11],[154.07,48.66],[158.93,51.84],[158.68,52.84],[160.22,53.12],[160.49,54.39],[162.26,54.26],[162.75,55.14],[161.88,55.62],[163.54,55.85],[164.08,56.73],[163.05,57.0],[163.59,57.9],[162.51,58.17],[165.25,59.12],[162.87,59.48],[158.21,55.02],[159.38,53.59],[156.87,53.53],[157.02,55.83],[160.05,57.4],[160.66,59.4],[162.97,60.34],[165.09,59.52],[167.18,59.94],[165.92,60.66],[163.79,60.22],[165.1,62.7],[163.67,62.78],[162.82,62.25],[163.9,61.72],[160.59,60.89],[160.75,62.0],[159.47,62.26],[155.92,61.71],[156.13,61.08],[152.61,59.73],[149.27,60.36],[144.48,59.57],[142.74,60.03],[140.72,59.14],[137.7,56.27],[133.17,55.09],[133.42,54.43],[121.23,55.89],[119.65,55.42],[120.41,54.98],[118.12,53.24],[116.61,54.07],[114.04,52.5],[113.47,52.7],[114.03,53.24],[112.49,53.27],[108.29,52.27],[111.22,54.4],[109.8,54.59],[110.22,55.91],[108.7,55.14],[108.24,56.46],[109.5,57.84],[111.28,57.86],[111.44,58.45],[104.71,58.27],[104.0,59.61],[102.17,59.49]],[[96.22,48.14],[95.79,48.94],[97.22,49.51],[95.55,50.48],[97.58,50.72],[96.52,51.61],[97.59,51.84],[97.9,52.79],[96.28,53.14],[94.95,54.67],[100.27,53.67],[102.17,52.47],[102.04,51.37],[105.44,51.06],[103.39,50.74],[103.1,50.05],[101.17,50.78],[101.41,49.74],[99.88,49.87],[100.65,49.37],[100.15,48.83],[101.4,48.86],[101.22,47.52],[103.26,46.65],[102.37,45.83],[97.01,46.53],[97.01,47.66],[96.22,48.14]],[[27.46,19.35],[27.2,18.23],[24.06,15.01],[21.57,14.22],[21.98,16.43],[20.8,17.77],[21.25,18.28],[18.89,19.23],[17.14,18.48],[15.65,19.1],[14.28,18.62],[14.34,19.51],[12.97,19.02],[12.58,20.04],[10.93,20.14],[9.69,17.45],[8.41,16.94],[6.95,20.09],[4.23,20.06],[2.45,18.92],[1.31,19.68],[2.61,21.8],[2.05,24.52],[4.53,26.36],[4.47,28.14],[6.7,27.41],[6.95,28.38],[8.82,28.86],[9.11,29.83],[10.33,29.68],[10.64,30.66],[12.25,30.8],[15.46,29.42],[16.99,29.94],[17.39,28.87],[18.34,29.95],[18.82,28.44],[19.89,29.07],[22.06,27.81],[23.06,28.85],[25.88,27.85],[28.12,25.19],[27.13,21.96],[27.83,20.71],[27.46,19.35]],[[76.08,37.8],[76.99,36.98],[81.66,36.07],[89.64,39.09],[94.78,39.34],[95.74,40.1],[98.31,39.81],[103.5,37.12],[101.39,36.51],[104.29,34.95],[103.9,33.83],[104.5,32.78],[102.21,29.92],[101.96,27.64],[99.66,26.33],[98.15,27.99],[95.33,28.88],[95.39,29.57],[92.57,27.49],[91.17,28.01],[88.04,27.24],[82.95,28.55],[81.99,28.98],[82.23,29.57],[78.77,30.59],[76.37,32.23],[75.38,34.24],[71.7,35.51],[68.81,35.02],[69.87,33.78],[67.91,30.8],[68.28,30.25],[67.09,29.95],[67.15,28.64],[66.47,28.41],[67.08,32.15],[62.55,33.37],[62.9,34.83],[66.4,35.94],[68.99,35.43],[70.89,36.93],[70.76,39.09],[67.65,38.82],[68.59,39.72],[74.07,40.19],[74.23,41.1],[76.58,41.27],[75.91,42.0],[78.0,41.99],[79.44,42.94],[84.22,42.49],[84.84,43.25],[83.66,43.77],[83.97,44.15],[87.52,43.31],[87.45,42.55],[83.92,42.12],[82.74,42.62],[74.68,39.98],[75.11,38.87],[76.29,38.45],[76.08,37.8]],[[18.27,-29.46],[20.14,-28.97],[19.8,-29.6],[20.41,-29.98],[18.27,-29.46]],[[116.61,25.64],[115.45,26.57],[116.01,27.36],[116.59,26.89],[117.21,28.09],[119.12,27.97],[118.73,26.85],[119.57,26.87],[118.67,25.18],[117.63,25.31],[117.53,24.64],[117.48,25.68],[116.61,25.64]],[[92.22,8.75],[90.18,8.49],[87.62,10.67],[85.0,11.55],[83.55,13.48],[85.4,15.7],[84.61,18.21],[86.72,19.79],[87.25,21.26],[91.67,21.5],[94.42,17.47],[93.83,15.72],[95.43,15.49],[96.91,16.66],[97.73,15.32],[97.27,9.68],[93.82,9.03],[92.95,9.6],[92.22,8.75]],[[2.96,28.82],[4.33,28.55],[4.1,27.58],[3.05,28.17],[1.56,27.71],[2.96,28.82]],[[18.69,-11.54],[17.71,-12.08],[15.95,-10.72],[15.67,-11.83],[14.64,-11.49],[14.6,-12.58],[13.79,-11.78],[14.89,-9.95],[14.13,-6.58],[16.24,-3.99],[16.7,-5.0],[19.28,-5.99],[20.81,-8.44],[22.38,-8.69],[22.33,-9.37],[18.69,-11.54]],[[98.87,-0.79],[98.71,-0.15],[99.58,-0.21],[100.48,-2.39],[98.87,-0.79]],[[124.53,8.34],[126.19,9.24],[125.61,8.31],[126.54,7.28],[125.15,6.73],[125.69,6.01],[124.43,6.2],[124.42,7.59],[123.81,7.81],[124.53,8.34]],[[22.17,33.69],[23.66,33.21],[23.81,32.33],[21.45,33.37],[18.83,30.48],[15.79,31.75],[15.36,32.8],[11.71,33.16],[10.74,34.29],[11.62,34.49],[11.61,36.06],[12.46,35.35],[18.13,34.87],[22.17,33.69]],[[120.43,16.32],[121.4,17.19],[120.74,18.43],[122.38,16.75],[121.44,16.11],[121.28,13.58],[121.18,15.77],[120.43,16.32]],[[45.54,36.66],[45.24,36.26],[42.99,38.06],[44.32,38.6],[45.54,36.66]],[[109.49,18.58],[108.88,19.04],[109.64,19.79],[110.46,19.18],[109.49,18.58]],[[139.88,42.82],[139.33,42.12],[140.06,41.75],[139.29,41.42],[140.03,41.28],[139.96,40.34],[138.89,38.5],[136.37,40.76],[135.92,43.74],[140.93,49.1],[140.75,51.26],[141.35,51.71],[142.06,51.3],[141.48,50.64],[141.94,47.94],[140.91,45.97],[141.69,45.6],[140.87,45.5],[141.25,43.85],[139.88,42.82]],[[107.73,-6.45],[110.34,-6.92],[110.66,-7.62],[108.01,-7.62],[107.73,-6.45]],[[47.32,37.32],[47.41,36.69],[48.61,36.97],[50.2,35.52],[49.81,34.75],[53.29,32.97],[52.76,32.45],[51.55,32.85],[54.12,30.57],[53.96,29.79],[50.92,30.54],[49.45,32.97],[46.42,34.73],[45.93,36.01],[47.32,37.32]],[[133.47,51.4],[134.33,51.81],[132.35,52.61],[133.97,52.89],[133.66,53.77],[135.29,54.26],[135.75,52.71],[134.83,51.31],[133.7,50.77],[133.47,51.4]],[[23.64,36.77],[25.17,36.28],[23.8,35.9],[23.64,36.77]],[[93.32,43.19],[93.77,44.02],[95.0,43.03],[93.32,43.19]],[[16.15,-26.03],[15.65,-25.0],[16.21,-22.44],[16.33,-23.71],[17.5,-23.44],[17.78,-24.91],[17.12,-27.66],[15.81,-26.67],[16.15,-26.03]],[[90.44,51.73],[89.61,50.78],[91.21,50.29],[89.03,48.93],[91.26,48.64],[91.96,47.2],[94.06,46.88],[94.66,45.43],[90.61,46.55],[90.14,47.59],[87.37,48.63],[86.48,49.81],[89.23,50.43],[88.65,51.22],[89.07,51.82],[90.44,51.73]],[[105.5,15.08],[105.69,16.83],[105.05,17.28],[105.74,17.33],[106.58,16.72],[105.94,15.03],[107.09,15.27],[107.84,13.91],[108.97,14.15],[109.2,12.35],[107.23,12.46],[108.17,10.96],[107.04,10.7],[106.51,14.07],[104.52,14.42],[105.5,15.08]],[[122.18,8.28],[121.12,6.69],[119.58,6.04],[119.88,5.25],[118.75,5.91],[118.74,7.27],[118.0,6.27],[117.37,7.57],[118.24,9.53],[119.0,9.19],[118.89,9.82],[121.49,10.74],[121.6,11.46],[122.61,11.22],[121.64,10.35],[123.12,8.91],[122.18,8.28]],[[80.26,45.14],[80.88,45.16],[80.29,44.37],[79.63,45.13],[80.26,45.14]],[[13.45,-2.24],[15.58,-1.96],[15.65,-2.79],[14.93,-2.89],[15.76,-4.05],[12.18,-2.61],[11.38,-1.08],[13.45,-2.24]],[[53.54,35.86],[52.4,35.41],[50.32,36.34],[53.54,35.86]],[[53.97,24.92],[53.49,24.45],[53.13,25.28],[53.97,24.92]],[[20.85,-30.16],[23.87,-30.58],[22.63,-31.88],[20.71,-32.38],[19.56,-31.03],[20.85,-30.16]],[[121.87,54.08],[120.99,54.74],[124.21,55.01],[121.87,54.08]],[[96.38,45.24],[95.03,45.77],[96.05,46.28],[94.99,46.9],[95.37,47.24],[97.78,46.06],[97.58,45.33],[98.28,45.74],[99.25,45.1],[96.38,45.24]],[[59.35,33.47],[60.21,33.28],[59.65,31.9],[59.35,33.47]],[[107.98,15.16],[107.88,16.3],[109.03,14.65],[107.98,15.16]],[[110.95,49.32],[109.11,48.07],[107.34,48.01],[107.02,48.59],[108.0,49.35],[108.94,48.86],[109.76,50.4],[112.54,50.49],[110.95,49.32]],[[56.73,29.03],[56.02,28.97],[53.14,32.18],[55.47,30.3],[56.46,30.92],[55.82,31.88],[57.56,30.69],[58.16,29.12],[56.73,29.03]],[[134.33,50.83],[135.65,50.73],[133.91,50.14],[133.49,50.42],[134.33,50.83]],[[19.08,-26.95],[19.18,-27.78],[17.93,-27.63],[18.38,-26.78],[19.08,-26.95]],[[102.83,11.01],[102.49,9.88],[100.25,10.09],[99.66,11.04],[100.51,12.9],[102.83,11.01]],[[52.04,25.69],[52.88,25.33],[52.27,24.71],[52.04,25.69]],[[124.38,8.74],[123.77,8.95],[124.3,9.63],[124.38,8.74]],[[159.62,54.85],[160.53,55.21],[160.14,55.96],[160.66,56.25],[161.53,54.96],[159.62,54.85]],[[116.98,-8.54],[117.77,-8.5],[117.3,-9.08],[116.98,-8.54]],[[71.61,42.41],[71.98,42.06],[70.79,41.93],[71.61,42.41]],[[42.72,14.4],[42.59,13.8],[41.89,14.15],[42.37,14.98],[42.72,14.4]]],[[[119.89,0.92],[120.44,0.45],[119.58,0.11],[118.79,-2.67],[120.62,0.29],[121.58,-0.25],[120.97,-1.62],[122.36,-0.64],[122.09,0.41],[120.69,0.78],[120.8,1.5],[119.89,0.92]]],[[[45.61,-25.62],[46.79,-25.54],[47.99,-23.97],[49.63,-17.37],[50.73,-15.81],[49.37,-11.84],[48.45,-12.04],[46.49,-15.51],[44.07,-16.04],[43.5,-17.7],[44.11,-19.98],[42.86,-22.21],[43.63,-23.33],[43.38,-24.67],[45.02,-25.97],[45.61,-25.62]]],[[[57.79,-20.71],[57.84,-19.57],[56.91,-20.52],[57.79,-20.71]]],[[[114.78,-33.47],[115.85,-35.18],[117.12,-35.11],[115.01,-33.85],[116.01,-33.42],[116.16,-31.72],[114.82,-29.59],[115.65,-32.87],[114.78,-33.47]]],[[[93.74,14.45],[93.33,15.24],[92.27,12.99],[92.32,10.29],[94.27,12.23],[93.16,12.68],[93.74,14.45]]],[[[116.61,-2.6],[117.25,-0.8],[116.32,-1.82],[116.61,-2.6]]],[[[133.3,59.75],[129.79,59.01],[131.97,58.89],[133.3,59.75]]],[[[72.21,67.08],[75.82,69.05],[77.11,68.62],[76.78,68.03],[78.28,68.41],[76.85,69.32],[73.97,69.34],[71.24,66.81],[69.72,66.6],[72.05,66.05],[72.93,66.55],[72.21,67.08]]],[[[74.66,67.96],[73.35,66.91],[75.29,67.65],[74.66,67.96]]],[[[-23.04,17.17],[-22.71,15.67],[-22.32,16.4],[-23.04,17.17]]],[[[55.06,-3.81],[55.6,-4.01],[54.99,-4.81],[55.75,-4.93],[55.87,-3.71],[55.06,-3.81]]],[[[-172.81,52.74],[-173.03,52.15],[-174.54,52.63],[-178.6,52.14],[-179.35,51.74],[-179.12,51.13],[-168.48,52.6],[-165.26,54.18],[-172.81,52.74]]],[[[-35.41,-4.79],[-36.67,-5.29],[-35.27,-5.55],[-34.81,-8.06],[-37.07,-10.56],[-37.09,-11.72],[-34.37,-7.98],[-35.41,-4.79]]],[[[-54.19,46.9],[-52.86,46.46],[-52.53,48.49],[-54.12,48.75],[-52.95,48.09],[-54.02,48.13],[-54.19,46.9]]],[[[53.45,12.13],[54.63,12.18],[54.71,12.89],[53.34,12.85],[52.86,12.11],[53.45,12.13]]],[[[107.36,1.57],[106.71,1.49],[107.3,1.07],[106.6,0.51],[107.39,-0.05],[107.36,1.57]]],[[[135.58,60.67],[133.86,60.53],[134.98,59.89],[135.58,60.67]]],[[[-166.17,64.35],[-165.24,64.45],[-166.54,65.03],[-166.17,64.35]]],[[[143.39,56.84],[143.03,56.49],[143.8,56.5],[143.39,56.84]]],[[[154.01,-28.82],[153.97,-26.9],[153.24,-26.71],[153.33,-25.96],[152.78,-26.42],[153.39,-29.8],[150.92,-34.35],[151.75,-34.31],[151.57,-33.64],[153.42,-31.74],[154.01,-28.82]]],[[[121.35,1.04],[123.13,0.35],[122.83,1.15],[121.35,1.04]]],[[[180.0,63.14],[170.51,60.6],[179.69,62.48],[180.0,63.14]]],[[[116.4,-4.21],[116.14,-3.21],[115.31,-5.07],[116.07,-5.2],[116.4,-4.21]]],[[[19.07,21.04],[18.36,21.81],[18.09,21.09],[16.4,21.24],[17.56,20.33],[18.18,20.66],[18.54,19.61],[19.07,21.04]]],[[[-165.26,61.5],[-165.83,61.78],[-165.29,62.55],[-166.15,62.44],[-166.67,61.67],[-165.43,60.9],[-166.59,60.63],[-166.28,59.98],[-167.63,60.13],[-166.96,59.66],[-165.14,60.25],[-164.87,59.61],[-162.51,59.89],[-161.89,59.19],[-161.24,59.7],[-163.81,60.08],[-163.33,61.04],[-165.26,61.5]]],[[[120.01,-34.38],[119.61,-33.84],[117.4,-35.13],[120.01,-34.38]]],[[[123.05,-10.02],[123.09,-11.09],[123.61,-10.5],[123.05,-10.02]]],[[[-27.44,38.4],[-26.67,39.1],[-27.89,39.52],[-29.17,38.49],[-27.44,38.4]]],[[[95.13,37.24],[91.71,38.48],[94.22,36.48],[96.46,36.39],[95.13,37.24]]],[[[-146.31,-16.35],[-145.15,-16.25],[-145.46,-17.07],[-143.52,-16.6],[-144.67,-16.71],[-146.23,-15.1],[-148.36,-14.67],[-146.31,-16.35]]],[[[119.03,0.58],[118.95,1.45],[117.47,0.86],[117.81,-1.03],[118.25,0.72],[119.03,0.58]]],[[[124.06,-33.3],[123.04,-34.45],[124.42,-34.07],[124.06,-33.3]]],[[[119.72,-6.1],[120.18,-5.72],[120.37,-7.2],[121.17,-7.37],[120.61,-5.57],[119.82,-5.41],[119.72,-6.1]]],[[[53.95,-5.77],[53.14,-5.14],[53.31,-5.93],[53.95,-5.77]]],[[[145.66,15.38],[145.72,14.49],[146.14,15.53],[145.66,15.38]]],[[[-24.84,14.82],[-23.29,14.59],[-22.91,15.31],[-23.82,15.71],[-24.84,14.82]]],[[[-160.51,22.02],[-160.98,21.41],[-158.9,21.9],[-160.51,22.02]]],[[[59.31,69.4],[58.22,69.26],[58.99,68.44],[60.68,68.53],[61.41,69.07],[60.41,69.53],[61.57,70.03],[55.55,71.49],[59.31,69.4]]],[[[-24.11,64.92],[-22.46,64.43],[-22.6,63.73],[-18.23,63.24],[-12.72,65.27],[-14.59,66.59],[-18.15,66.83],[-19.81,66.09],[-23.36,66.67],[-24.89,65.87],[-24.11,64.92]],[[-13.53,65.34],[-19.31,63.63],[-22.36,64.89],[-16.08,66.35],[-15.55,65.62],[-13.53,65.34]]],[[[150.6,-34.71],[150.47,-35.47],[151.1,-35.02],[150.6,-34.71]]],[[[167.89,11.62],[166.15,11.17],[167.64,11.01],[167.89,11.62]]],[[[152.16,47.51],[151.37,46.85],[152.55,46.73],[153.65,48.34],[152.16,47.51]]],[[[-15.9,28.77],[-17.14,28.38],[-18.15,29.12],[-18.11,27.34],[-17.63,28.11],[-14.19,27.65],[-13.17,29.14],[-13.9,29.53],[-14.92,28.02],[-15.9,28.77]]],[[[124.86,1.94],[124.26,0.78],[125.43,1.47],[124.86,1.94]]],[[[29.95,70.05],[34.97,69.05],[31.29,70.79],[24.27,71.49],[17.93,69.95],[20.72,69.66],[27.79,70.77],[30.63,70.52],[29.95,70.05]]],[[[127.05,3.49],[127.28,4.99],[126.5,4.22],[127.05,3.49]]],[[[114.72,-5.16],[114.07,-5.7],[114.84,-5.73],[114.72,-5.16]]],[[[166.2,54.57],[168.67,54.82],[166.21,55.77],[165.64,55.51],[166.2,54.57]]],[[[73.13,0.77],[72.77,-0.84],[73.36,-1.02],[73.88,0.25],[73.13,0.77]]],[[[55.92,-20.81],[55.06,-20.62],[55.41,-21.85],[55.92,-20.81]]],[[[-147.4,60.68],[-148.65,60.36],[-147.96,59.94],[-147.4,60.68]]],[[[37.51,66.4],[32.33,66.9],[34.4,66.14],[34.88,64.25],[38.39,63.74],[38.57,64.34],[36.96,65.01],[40.57,64.45],[39.98,65.6],[42.37,66.29],[44.53,65.97],[44.9,66.95],[47.11,66.6],[48.5,67.77],[52.37,68.51],[54.66,68.06],[54.41,68.84],[58.18,68.68],[54.59,69.22],[47.65,67.96],[46.59,68.7],[43.28,68.81],[44.11,67.89],[42.37,67.06],[41.24,67.39],[41.21,68.15],[35.89,69.5],[36.2,68.78],[40.66,67.75],[40.46,66.4],[37.51,66.4]],[[47.18,66.99],[45.51,67.35],[47.32,67.76],[47.18,66.99]],[[37.69,65.26],[35.94,66.28],[39.95,65.98],[38.99,65.15],[37.69,65.26]]],[[[117.3,-4.76],[117.0,-5.52],[118.75,-5.78],[117.3,-4.76]]],[[[167.37,8.73],[168.15,9.03],[167.54,9.68],[166.61,9.54],[167.37,8.73]]],[[[96.87,-11.7],[96.6,-12.46],[97.24,-12.39],[96.87,-11.7]]],[[[-160.95,58.63],[-159.84,58.85],[-160.3,59.13],[-162.18,58.82],[-160.95,58.63]]],[[[-123.06,47.37],[-121.93,47.61],[-122.65,48.66],[-123.38,48.18],[-123.06,47.37]]],[[[118.93,-3.06],[119.18,-5.63],[119.77,-4.31],[118.93,-3.06]]],[[[136.06,57.93],[134.91,57.72],[136.2,57.47],[136.06,57.93]]],[[[169.32,60.31],[170.88,60.0],[168.92,60.91],[167.54,60.38],[169.32,60.31]]],[[[105.21,-10.46],[105.58,-10.92],[106.06,-10.27],[105.21,-10.46]]],[[[-172.72,64.91],[-173.27,64.32],[-172.54,64.06],[-171.57,65.47],[-172.71,65.55],[-172.72,64.91]]],[[[71.22,-5.85],[71.28,-6.91],[71.8,-6.27],[71.22,-5.85]]],[[[16.57,-7.82],[17.56,-7.71],[17.48,-6.85],[16.85,-6.71],[16.57,-7.82]]],[[[6.05,22.97],[6.8,23.16],[6.54,23.99],[5.23,23.42],[5.5,22.6],[6.05,22.97]]],[[[-155.79,18.53],[-154.77,19.09],[-154.76,20.19],[-158.05,22.27],[-158.58,21.22],[-156.37,20.36],[-155.79,18.53]],[[-155.89,19.87],[-155.19,20.02],[-155.3,19.15],[-155.89,19.87]]],[[[89.2,62.59],[88.69,62.27],[89.57,62.21],[89.2,62.59]]],[[[-169.19,16.5],[-169.76,17.16],[-169.81,16.32],[-169.19,16.5]]],[[[146.13,17.77],[145.53,18.26],[145.99,17.06],[146.13,17.77]]],[[[112.53,-5.4],[112.26,-5.96],[113.05,-6.0],[112.53,-5.4]]],[[[-17.18,32.96],[-17.7,32.69],[-16.65,32.19],[-15.87,33.34],[-17.18,32.96]]],[[[170.24,9.33],[169.8,9.82],[169.84,8.9],[170.24,9.33]]],[[[46.77,-9.79],[46.37,-9.0],[45.98,-9.51],[46.77,-9.79]]],[[[-37.15,-5.11],[-37.58,-4.01],[-39.03,-3.49],[-37.15,-5.11]]],[[[47.9,69.1],[49.3,68.53],[50.78,69.29],[48.98,69.67],[47.9,69.1]]],[[[174.0,52.59],[172.06,53.08],[173.68,52.16],[174.0,52.59]]],[[[71.97,-5.12],[71.29,-5.39],[72.32,-5.63],[71.97,-5.12]]],[[[-24.95,36.52],[-25.12,38.06],[-26.24,37.98],[-24.95,36.52]]],[[[180.0,52.34],[177.25,52.31],[177.13,51.69],[179.52,51.33],[180.0,52.34]]],[[[52.68,71.55],[51.57,71.75],[51.73,70.98],[55.88,70.51],[52.68,71.55]]],[[[-6.33,61.22],[-5.99,62.6],[-7.72,62.17],[-6.33,61.22]]],[[[134.5,6.81],[134.72,8.08],[133.91,7.3],[134.5,6.81]]],[[[144.41,13.61],[145.24,13.19],[145.43,14.17],[144.41,13.61]]],[[[125.35,3.77],[125.43,2.86],[125.97,3.54],[125.35,3.77]]],[[[166.07,9.83],[166.46,10.27],[165.68,10.52],[166.07,9.83]]],[[[116.43,54.27],[117.26,54.61],[116.04,54.67],[116.43,54.27]]],[[[-152.59,59.86],[-150.09,61.2],[-151.71,61.17],[-152.96,60.16],[-152.59,59.86]]],[[[102.18,-5.06],[102.31,-5.91],[102.81,-5.22],[102.18,-5.06]]],[[[50.63,-9.0],[51.03,-9.76],[51.37,-9.26],[50.63,-9.0]]],[[[140.92,25.29],[141.84,24.1],[141.42,25.43],[140.92,25.29]]],[[[66.82,69.6],[65.32,69.34],[67.78,68.29],[69.27,68.72],[67.22,69.16],[68.56,69.62],[66.82,69.6]]],[[[168.34,7.42],[169.17,7.36],[168.96,7.87],[168.34,7.42]]],[[[-169.41,63.19],[-168.66,63.54],[-170.92,63.95],[-172.02,63.4],[-169.41,63.19]]],[[[-172.42,60.14],[-171.78,60.5],[-173.21,60.6],[-172.42,60.14]]],[[[-138.82,-9.42],[-139.5,-9.74],[-139.05,-10.16],[-138.82,-9.42]]],[[[66.67,71.03],[66.18,70.26],[67.57,70.74],[66.67,71.03]]],[[[-161.41,56.12],[-161.92,55.43],[-160.98,55.86],[-161.41,56.12]]]]}}]}