{"type":"FeatureCollection","features":[{"type":"Feature","properties":{},"geometry":{"type":"MultiPolygon","coordinates":[[[[180.0,63.14],[179.01,63.52],[179.11,64.36],[180.0,64.57],[179.85,69.48],[172.11,70.52],[161.51,69.68],[160.85,70.53],[162.87,70.48],[162.57,70.91],[152.91,71.04],[150.31,71.64],[151.22,72.26],[150.52,72.41],[142.32,72.84],[144.57,73.51],[142.03,74.39],[139.6,74.21],[140.81,72.82],[138.61,72.63],[138.13,71.96],[132.95,72.09],[131.51,71.07],[129.57,71.71],[130.73,72.99],[128.54,73.62],[123.73,74.12],[122.7,73.05],[119.22,73.17],[118.96,73.84],[113.95,73.68],[113.34,76.1],[113.85,76.33],[113.3,76.55],[103.34,77.42],[98.87,76.29],[94.32,76.41],[84.34,74.8],[85.85,73.8],[80.64,73.7],[80.0,73.33],[80.85,72.73],[80.19,72.6],[75.35,72.62],[75.72,73.24],[74.94,73.33],[72.49,72.75],[71.55,73.06],[71.96,73.45],[69.77,73.45],[68.43,71.9],[66.69,71.64],[65.96,70.49],[66.82,69.6],[65.32,69.34],[57.92,70.43],[55.57,72.27],[61.36,74.66],[61.16,75.28],[65.69,75.67],[68.74,76.76],[60.71,76.54],[55.62,75.05],[51.06,72.33],[51.73,70.98],[59.48,69.77],[57.98,68.89],[54.59,69.22],[47.65,67.96],[46.59,68.7],[43.28,68.81],[44.11,67.89],[42.37,67.06],[41.24,67.39],[41.21,68.15],[36.48,69.55],[31.57,69.85],[31.11,70.19],[31.76,70.45],[29.57,70.99],[26.06,71.14],[25.5,70.45],[23.18,70.91],[21.69,70.04],[17.53,69.66],[17.89,68.89],[16.43,68.78],[18.06,68.52],[16.72,68.22],[17.94,67.68],[23.0,68.86],[36.93,68.08],[35.55,66.82],[31.64,66.63],[32.78,66.37],[33.28,63.9],[34.31,63.61],[34.22,63.01],[32.04,61.79],[29.37,63.04],[28.53,62.33],[27.93,63.23],[27.17,61.93],[22.2,62.04],[23.53,62.69],[23.71,63.91],[26.62,64.99],[24.13,66.33],[21.08,65.77],[21.0,64.57],[16.9,62.44],[16.33,61.75],[16.94,61.03],[14.89,59.3],[11.47,59.81],[11.52,60.48],[9.87,60.21],[10.14,59.42],[9.03,59.39],[8.13,58.38],[6.41,58.42],[5.96,58.95],[6.51,59.35],[5.58,59.66],[5.96,60.41],[4.69,61.59],[5.21,59.63],[4.66,59.22],[6.49,57.87],[9.81,58.86],[10.8,58.69],[11.22,57.56],[10.36,57.93],[7.84,57.1],[7.37,55.39],[8.29,55.23],[7.92,54.41],[4.98,53.55],[2.28,51.11],[1.51,51.61],[2.17,52.73],[-1.14,54.66],[-1.38,53.8],[0.32,51.82],[-1.0,51.58],[-1.17,50.92],[-2.66,51.27],[-2.5,51.93],[-4.47,51.75],[-4.27,51.14],[-5.76,49.93],[1.31,50.95],[5.57,49.25],[9.43,48.97],[6.91,48.79],[6.76,47.54],[4.41,45.68],[1.91,45.8],[2.8,43.95],[2.26,42.94],[-1.45,43.25],[-0.79,46.28],[-2.44,48.08],[1.76,50.41],[-0.16,50.06],[-0.33,49.39],[-2.68,49.76],[-2.29,48.76],[-3.1,49.23],[-5.35,48.7],[-4.91,47.7],[-1.91,46.45],[-1.3,45.28],[-1.65,43.64],[-9.3,43.66],[-8.74,40.77],[-9.98,39.36],[-8.78,37.65],[-8.33,39.49],[-6.88,40.23],[-5.03,39.92],[-2.73,40.87],[-1.32,39.94],[-1.89,42.46],[1.5,42.06],[2.08,41.17],[3.59,41.85],[3.67,43.16],[6.35,42.85],[8.77,44.1],[10.12,43.78],[8.37,42.94],[8.05,42.01],[8.97,41.37],[7.67,40.83],[8.35,40.35],[8.19,39.0],[10.0,39.45],[9.76,41.99],[11.56,42.18],[12.74,40.71],[15.55,39.73],[14.35,38.19],[13.17,38.83],[11.98,37.92],[14.53,36.45],[15.35,36.39],[15.61,37.77],[16.45,37.7],[17.58,39.0],[16.93,40.19],[18.11,39.52],[18.97,40.09],[16.36,41.61],[17.11,42.59],[18.98,42.03],[20.33,37.88],[22.86,35.79],[23.13,36.93],[24.31,37.51],[24.15,36.61],[26.42,36.4],[26.79,37.09],[27.55,36.28],[26.13,35.27],[23.8,35.9],[23.26,35.39],[24.04,34.6],[27.55,35.18],[28.49,36.36],[30.73,36.07],[30.81,36.73],[32.76,35.96],[33.99,36.0],[34.54,36.89],[35.8,36.48],[36.03,34.97],[34.3,31.65],[30.42,31.86],[29.21,30.65],[27.8,31.2],[26.97,29.55],[28.32,29.46],[28.6,28.36],[31.16,27.47],[30.0,26.26],[31.61,24.18],[32.44,24.25],[32.33,25.56],[33.47,25.21],[34.57,20.92],[35.39,20.55],[35.75,21.22],[35.85,19.08],[36.78,18.52],[37.06,21.3],[35.27,22.7],[35.32,24.23],[33.31,27.4],[33.4,28.07],[35.41,27.74],[39.38,22.71],[39.79,20.81],[43.01,17.64],[44.09,13.7],[45.11,13.57],[46.15,14.21],[44.39,16.09],[45.09,16.12],[45.24,17.13],[53.05,16.71],[53.88,17.65],[54.94,17.08],[54.83,17.83],[56.51,18.19],[57.58,19.14],[57.85,20.68],[58.56,20.5],[59.92,22.19],[58.26,23.74],[56.86,23.89],[56.45,26.1],[54.48,24.24],[51.31,24.35],[51.37,26.16],[49.73,26.66],[47.94,29.22],[49.29,30.38],[49.92,30.11],[50.02,30.88],[48.58,32.69],[46.6,33.05],[48.62,33.09],[49.79,32.32],[52.63,28.46],[51.43,28.48],[51.73,27.85],[55.77,26.64],[56.8,27.6],[55.25,27.34],[55.06,28.37],[56.37,28.7],[56.19,27.93],[56.89,27.98],[57.71,29.01],[58.41,28.45],[57.56,30.69],[55.82,31.88],[55.56,30.7],[52.2,34.19],[50.55,34.85],[54.82,35.43],[58.62,34.7],[58.11,33.95],[60.01,31.61],[60.58,32.98],[59.09,34.17],[59.5,34.52],[60.7,33.38],[61.32,33.89],[63.19,32.99],[66.19,29.57],[65.21,28.57],[65.44,27.66],[63.86,27.27],[63.92,26.22],[60.66,26.08],[63.34,26.59],[60.1,29.9],[60.89,26.83],[59.38,26.4],[57.32,27.48],[57.05,26.36],[61.45,25.08],[66.41,25.71],[69.08,23.04],[70.64,23.13],[69.01,22.26],[70.16,20.9],[71.09,20.59],[72.61,22.05],[73.16,16.35],[74.94,13.42],[76.42,18.84],[77.9,19.73],[80.25,19.42],[80.32,21.83],[77.73,21.74],[79.91,23.0],[80.4,24.66],[81.53,25.52],[81.53,27.81],[80.8,28.81],[89.67,26.87],[92.31,27.15],[93.1,28.17],[95.81,28.85],[97.14,27.6],[98.37,27.86],[99.39,26.0],[100.21,27.0],[101.41,27.0],[102.06,28.56],[102.65,27.45],[103.45,28.18],[102.21,29.92],[104.41,32.13],[105.42,34.27],[105.06,35.17],[106.74,35.04],[106.92,36.84],[108.78,36.91],[108.8,37.49],[106.23,37.45],[105.72,36.72],[101.29,39.39],[100.31,38.69],[96.6,40.38],[88.55,39.13],[83.27,36.84],[79.73,37.12],[75.89,39.56],[78.43,40.09],[80.11,41.43],[84.22,42.24],[85.36,41.72],[87.71,42.16],[86.5,41.45],[89.05,41.23],[87.8,43.17],[91.35,43.47],[82.14,44.4],[81.51,45.16],[83.37,45.17],[84.63,45.67],[84.33,46.05],[81.81,45.55],[81.17,46.06],[78.38,45.09],[77.84,44.03],[80.59,44.51],[81.83,44.02],[81.53,43.63],[75.79,43.02],[75.12,43.49],[74.93,42.57],[70.64,42.69],[69.78,41.04],[72.34,41.71],[73.41,40.65],[67.46,39.57],[66.49,37.74],[66.34,39.4],[63.95,37.71],[57.94,38.55],[55.34,39.88],[56.39,40.15],[55.53,41.39],[53.01,40.45],[46.48,43.89],[43.74,44.24],[42.15,45.54],[40.24,44.75],[37.92,45.23],[38.22,46.02],[35.38,45.47],[35.32,46.27],[37.33,47.03],[37.06,48.8],[38.06,48.83],[38.14,49.87],[43.8,51.62],[44.59,52.46],[43.45,52.46],[42.9,53.51],[48.04,53.87],[47.37,53.25],[47.83,52.17],[51.27,53.72],[54.11,53.51],[56.14,55.3],[57.27,54.75],[56.83,53.47],[58.31,52.85],[62.02,56.39],[66.66,57.02],[74.44,56.78],[66.9,58.55],[71.34,59.33],[69.17,60.63],[69.39,61.26],[68.02,61.26],[68.32,61.66],[72.47,61.59],[72.66,60.88],[77.15,60.58],[79.04,59.15],[82.39,59.15],[82.82,60.0],[104.99,60.88],[117.38,62.82],[121.04,62.22],[123.07,61.02],[124.52,62.17],[130.4,63.7],[135.54,63.39],[137.25,62.63],[136.22,61.45],[137.93,60.21],[136.75,59.78],[139.89,59.1],[143.13,60.64],[144.05,59.69],[140.02,58.39],[140.94,57.72],[143.65,59.33],[148.65,58.82],[150.02,59.61],[150.3,58.76],[155.35,58.95],[155.97,59.5],[154.84,59.95],[158.21,61.64],[159.48,61.39],[160.2,60.19],[161.65,60.39],[157.5,58.04],[156.27,58.03],[156.45,57.42],[155.51,57.03],[155.05,54.39],[156.4,52.39],[155.85,51.85],[156.32,51.32],[155.23,51.08],[154.89,50.15],[155.8,49.93],[158.93,51.84],[158.68,52.84],[160.22,53.12],[160.49,54.39],[162.79,54.54],[161.88,55.62],[163.54,55.85],[164.08,56.73],[163.05,57.0],[163.76,57.51],[162.65,58.4],[168.53,60.46],[170.67,59.79],[170.8,60.41],[177.58,62.48],[179.64,62.07],[180.0,63.14]]],[[[-180.0,64.57],[-178.7,65.38],[-176.36,65.31],[-176.26,64.67],[-173.44,63.91],[-171.04,64.8],[-171.95,65.29],[-169.62,65.75],[-168.33,65.42],[-168.45,64.79],[-162.23,64.28],[-161.58,63.75],[-163.08,63.96],[-163.23,63.13],[-165.6,63.22],[-166.67,61.67],[-165.43,60.9],[-168.08,60.18],[-166.52,59.61],[-165.14,60.25],[-164.87,59.61],[-162.09,59.83],[-162.86,58.52],[-157.8,58.06],[-158.74,57.03],[-168.98,53.23],[-172.81,52.74],[-173.03,52.15],[-174.54,52.63],[-178.6,52.14],[-179.35,51.74],[-179.12,51.13],[-169.06,52.45],[-163.51,54.52],[-159.03,54.74],[-159.53,55.6],[-157.85,55.87],[-155.91,57.47],[-154.46,56.95],[-155.49,56.57],[-154.78,56.01],[-151.63,57.49],[-151.51,58.94],[-148.77,59.73],[-146.79,60.04],[-146.61,59.31],[-145.75,59.71],[-141.38,58.65],[-138.66,55.85],[-133.64,54.13],[-131.54,51.9],[-130.55,51.87],[-131.23,53.18],[-129.29,52.56],[-128.01,51.2],[-129.44,50.73],[-124.91,48.16],[-124.0,45.13],[-125.1,42.66],[-124.41,41.53],[-124.91,40.57],[-121.08,35.34],[-120.58,35.45],[-121.64,36.34],[-121.4,37.39],[-122.34,38.65],[-123.51,38.86],[-124.4,40.7],[-123.66,41.0],[-124.58,42.79],[-123.6,44.07],[-122.68,43.94],[-122.31,42.03],[-123.14,41.12],[-121.79,41.31],[-121.66,40.02],[-118.79,36.82],[-118.41,35.39],[-117.85,36.37],[-118.29,38.03],[-120.6,40.25],[-120.99,43.26],[-117.22,43.39],[-116.35,42.36],[-116.29,43.2],[-114.79,43.08],[-114.05,42.48],[-115.73,42.23],[-116.1,41.45],[-112.76,41.96],[-111.73,41.26],[-111.38,39.61],[-112.9,37.57],[-111.08,38.18],[-111.48,38.75],[-110.27,39.75],[-110.41,40.46],[-108.65,40.17],[-109.92,39.42],[-107.97,39.51],[-107.8,38.55],[-108.77,37.71],[-105.96,35.63],[-106.71,35.18],[-105.75,32.24],[-104.99,32.43],[-105.64,35.28],[-104.64,35.86],[-104.99,36.45],[-103.66,36.67],[-104.84,37.33],[-104.31,39.44],[-105.15,39.5],[-105.3,40.46],[-104.61,41.57],[-105.51,43.62],[-106.4,43.68],[-107.27,45.21],[-109.13,45.51],[-109.32,46.39],[-108.5,46.8],[-111.42,48.32],[-110.79,49.0],[-113.17,49.5],[-113.68,51.84],[-112.36,53.28],[-106.63,52.74],[-103.75,50.89],[-102.85,51.32],[-98.96,49.9],[-95.5,45.38],[-90.02,42.93],[-88.47,41.43],[-84.16,41.79],[-80.78,40.51],[-80.75,42.63],[-77.44,44.38],[-77.51,45.01],[-69.96,46.59],[-69.92,47.23],[-67.96,47.65],[-65.01,46.42],[-64.76,45.82],[-66.34,44.45],[-65.49,43.3],[-63.6,44.66],[-59.67,45.86],[-60.2,47.29],[-61.76,45.79],[-62.35,46.79],[-63.78,46.71],[-64.59,47.5],[-63.9,47.97],[-64.2,49.01],[-61.9,48.7],[-61.17,49.15],[-62.36,49.95],[-59.66,50.03],[-57.68,51.33],[-57.1,51.11],[-59.66,48.35],[-59.48,47.31],[-52.59,47.06],[-53.95,50.0],[-55.5,49.62],[-56.18,50.47],[-55.37,50.88],[-55.25,53.65],[-59.42,55.42],[-60.1,56.95],[-64.31,60.83],[-67.52,58.89],[-69.56,59.87],[-67.12,60.48],[-69.25,61.47],[-70.5,61.15],[-74.11,63.1],[-76.47,62.61],[-75.53,64.09],[-73.59,63.83],[-71.89,62.62],[-64.37,61.28],[-64.51,62.16],[-63.47,62.64],[-64.65,63.05],[-63.59,63.52],[-63.71,64.41],[-64.96,64.81],[-62.3,65.1],[-60.23,66.65],[-65.34,68.12],[-66.95,68.94],[-65.66,69.42],[-67.23,69.81],[-67.08,70.47],[-74.47,72.28],[-74.89,73.35],[-76.98,73.64],[-77.16,74.28],[-80.0,73.84],[-80.29,74.47],[-78.05,75.09],[-79.02,75.89],[-76.51,76.48],[-77.49,77.28],[-73.95,78.29],[-72.36,77.32],[-74.12,76.82],[-71.33,76.1],[-59.03,75.43],[-59.52,74.81],[-56.54,73.28],[-57.12,72.23],[-54.59,71.09],[-55.29,69.61],[-53.99,69.12],[-54.76,67.19],[-53.59,66.71],[-54.14,65.64],[-50.6,61.93],[-48.04,60.41],[-43.54,59.49],[-41.7,62.8],[-40.45,63.07],[-39.59,64.28],[-40.34,64.84],[-34.43,66.15],[-31.78,67.95],[-22.13,69.83],[-25.28,70.86],[-21.26,70.86],[-22.68,71.98],[-21.89,72.55],[-22.94,73.29],[-20.17,73.66],[-20.57,74.27],[-19.72,74.59],[-20.25,74.97],[-19.35,75.28],[-23.32,74.37],[-22.81,73.76],[-26.87,73.86],[-28.89,73.04],[-29.65,74.11],[-32.48,74.1],[-33.08,73.73],[-32.24,73.14],[-35.37,70.88],[-39.79,71.03],[-40.79,71.59],[-40.4,71.99],[-42.41,71.99],[-42.23,72.63],[-47.42,74.14],[-52.5,73.78],[-52.14,74.61],[-55.05,75.76],[-54.34,76.36],[-58.94,77.08],[-61.25,78.32],[-56.86,79.28],[-57.37,79.89],[-56.64,80.08],[-57.28,80.29],[-56.52,80.47],[-57.19,80.68],[-56.39,80.87],[-34.77,82.58],[-36.51,83.13],[-32.86,83.8],[-47.57,83.41],[-53.82,82.38],[-67.56,83.43],[-79.13,83.39],[-96.72,81.43],[-97.98,81.06],[-96.57,80.51],[-101.18,79.95],[-98.46,79.09],[-106.49,79.39],[-107.17,79.0],[-105.57,78.48],[-107.67,77.53],[-105.04,76.71],[-106.39,76.15],[-108.22,77.13],[-113.39,76.74],[-108.71,77.59],[-107.56,78.38],[-109.22,78.88],[-121.9,77.08],[-124.03,76.25],[-123.59,75.65],[-119.87,75.65],[-113.6,74.2],[-103.64,74.6],[-109.66,74.2],[-110.27,74.02],[-109.04,73.5],[-112.36,73.07],[-116.42,74.53],[-124.98,74.62],[-125.01,72.99],[-126.5,72.16],[-123.04,70.91],[-119.03,71.45],[-118.89,70.81],[-117.0,70.31],[-118.65,69.53],[-128.48,70.89],[-137.65,69.22],[-142.14,70.33],[-157.66,71.51],[-166.66,68.96],[-166.85,68.32],[-162.56,66.51],[-164.96,67.02],[-168.06,65.82],[-170.89,66.71],[-170.84,67.35],[-174.38,67.35],[-175.32,68.26],[-180.0,69.38],[-180.0,64.57]],[[-79.33,56.86],[-79.58,57.28],[-78.77,57.18],[-79.33,56.86]]],[[[139.42,47.59],[134.95,43.49],[131.65,43.35],[130.59,42.29],[135.19,43.16],[139.42,47.59]]],[[[-66.31,-79.42],[-68.92,-78.96],[-66.87,-78.32],[-73.13,-79.33],[-66.31,-79.42]]],[[[141.5,43.72],[141.87,44.78],[142.69,44.87],[142.57,46.17],[143.97,46.25],[142.83,48.28],[143.8,49.08],[144.55,48.24],[145.24,48.92],[143.72,50.79],[144.14,49.42],[142.67,49.32],[142.88,48.74],[141.99,48.4],[142.71,51.32],[141.65,52.05],[140.66,51.91],[142.06,51.3],[141.48,50.64],[141.84,47.01],[140.91,45.97],[141.69,45.6],[140.87,45.5],[141.25,43.85],[140.16,43.17],[141.5,43.72]],[[142.15,47.35],[142.95,46.99],[142.34,46.53],[142.15,47.35]]],[[[95.32,50.88],[90.32,50.98],[90.44,51.73],[88.74,51.97],[85.87,50.85],[84.17,51.27],[83.11,49.89],[84.79,49.74],[84.42,48.6],[88.58,47.81],[93.97,45.0],[94.66,45.43],[94.76,44.55],[95.64,44.58],[95.81,45.31],[100.12,44.22],[100.88,44.84],[98.52,45.58],[98.66,46.06],[102.2,45.36],[103.7,46.32],[106.01,45.71],[109.52,46.11],[110.04,46.59],[109.47,47.11],[112.38,48.29],[112.27,49.07],[111.46,49.18],[113.15,49.55],[112.73,50.31],[114.79,51.39],[113.5,51.61],[115.93,52.43],[113.65,52.88],[107.26,52.15],[107.38,52.99],[105.64,52.14],[103.44,53.1],[102.98,52.82],[103.99,52.12],[103.69,51.43],[101.1,53.16],[96.95,54.17],[96.72,53.45],[98.34,53.1],[98.03,52.15],[95.94,51.93],[97.44,51.36],[96.95,50.8],[95.32,50.88]],[[104.95,49.3],[105.57,50.66],[107.59,50.95],[107.9,49.75],[106.48,49.33],[106.49,48.71],[104.65,48.61],[104.95,49.3]],[[93.56,47.43],[92.14,48.19],[92.67,49.28],[93.93,49.15],[93.94,47.77],[95.99,46.04],[93.56,47.43]],[[103.39,47.75],[104.55,48.38],[106.08,47.18],[103.39,47.75]],[[93.46,49.96],[92.12,49.83],[92.66,50.91],[95.55,50.48],[93.46,49.96]]],[[[-152.54,-82.62],[-150.99,-82.48],[-152.65,-81.91],[-155.61,-82.17],[-152.54,-82.62]]],[[[-97.18,19.07],[-96.76,19.85],[-101.35,21.94],[-102.45,20.95],[-101.24,20.67],[-102.58,19.79],[-101.58,19.11],[-100.43,19.34],[-99.67,18.51],[-97.18,19.07]]],[[[-75.47,-78.14],[-71.6,-77.81],[-74.8,-77.27],[-81.33,-77.87],[-79.52,-78.42],[-80.39,-78.6],[-85.35,-78.06],[-83.72,-78.63],[-84.42,-79.05],[-79.9,-79.76],[-80.13,-80.43],[-78.21,-80.73],[-79.95,-81.34],[-77.29,-81.88],[-78.49,-82.07],[-77.93,-82.31],[-67.52,-82.28],[-63.66,-82.73],[-64.57,-83.38],[-63.4,-83.6],[-56.66,-83.54],[-61.42,-83.15],[-60.53,-82.93],[-61.67,-82.72],[-60.81,-82.49],[-64.73,-82.07],[-63.86,-81.85],[-67.24,-80.96],[-75.69,-80.59],[-76.2,-80.35],[-75.25,-80.16],[-75.33,-79.49],[-80.62,-79.27],[-75.47,-78.14]]],[[[-62.56,-80.52],[-67.17,-80.52],[-62.41,-80.96],[-59.49,-80.48],[-60.59,-79.83],[-62.56,-80.52]]],[[[-107.45,34.73],[-107.32,35.63],[-110.09,34.44],[-112.15,35.3],[-109.92,33.45],[-110.54,32.47],[-112.09,32.26],[-111.9,31.26],[-108.5,31.32],[-109.83,32.95],[-107.38,32.59],[-107.45,34.73]]],[[[133.23,55.92],[133.38,56.52],[132.44,56.9],[131.37,56.66],[131.67,55.99],[130.0,56.26],[130.29,57.25],[128.36,57.12],[129.18,57.83],[126.65,58.58],[124.23,57.82],[126.16,57.4],[126.0,56.4],[128.6,56.67],[129.61,55.5],[134.13,55.54],[133.23,55.92]]],[[[126.15,40.22],[128.97,40.87],[129.69,42.45],[128.32,43.01],[128.59,42.48],[127.54,42.28],[126.15,40.22]]],[[[41.63,9.46],[40.54,8.98],[41.6,8.89],[42.31,9.53],[41.63,9.46]]],[[[111.78,40.41],[110.93,38.15],[111.54,37.53],[112.48,38.1],[112.49,39.03],[113.58,38.49],[115.72,39.96],[114.63,40.89],[116.06,40.56],[117.64,42.05],[118.65,41.45],[118.39,42.86],[117.48,43.31],[117.98,44.1],[116.79,44.16],[113.18,42.17],[108.69,42.16],[109.37,40.91],[112.1,41.03],[111.78,40.41]]],[[[95.42,41.12],[97.01,40.95],[97.71,41.6],[95.69,42.33],[95.18,41.27],[94.35,41.23],[95.42,41.12]]],[[[180.0,71.66],[177.81,70.81],[180.0,70.79],[180.0,71.66]]],[[[-180.0,70.79],[-177.63,70.73],[-177.03,71.37],[-179.27,71.87],[-180.0,71.66],[-180.0,70.79]]],[[[36.3,-0.88],[36.95,-1.0],[37.62,0.16],[35.83,-0.3],[35.15,1.51],[35.41,-0.79],[36.3,-0.88]]],[[[38.75,10.14],[37.38,8.84],[38.05,7.17],[39.92,9.49],[39.87,14.6],[39.0,15.56],[39.17,12.94],[38.47,12.08],[37.98,12.43],[38.67,13.7],[37.36,12.98],[37.75,12.01],[36.59,11.11],[38.75,10.14]]],[[[147.2,43.79],[147.68,44.85],[150.8,45.8],[151.04,46.76],[146.22,44.58],[143.71,44.36],[145.01,43.93],[145.12,42.84],[147.2,43.79]]],[[[-74.53,-71.96],[-72.45,-71.82],[-71.12,-72.73],[-68.51,-72.34],[-71.97,-71.61],[-72.13,-70.95],[-76.11,-71.89],[-74.53,-71.96]]],[[[5.81,36.38],[4.63,35.81],[5.98,35.09],[8.6,35.12],[6.82,35.32],[5.81,36.38]]],[[[144.45,75.83],[140.64,76.3],[135.42,75.63],[138.63,74.57],[145.36,75.19],[150.41,74.61],[151.4,74.98],[150.67,75.38],[144.45,75.83]]],[[[39.3,8.08],[38.42,5.82],[40.6,6.86],[40.23,8.76],[39.3,8.08]]],[[[-69.18,-67.55],[-66.24,-67.35],[-65.94,-68.86],[-62.78,-69.03],[-65.25,-68.42],[-65.27,-67.13],[-67.79,-66.71],[-69.18,-67.55]]],[[[151.3,-68.73],[147.07,-68.4],[145.71,-67.5],[145.09,-67.84],[145.94,-68.61],[158.94,-69.79],[162.16,-72.0],[165.42,-70.71],[168.03,-71.2],[166.31,-70.4],[160.77,-70.3],[158.17,-68.99],[151.3,-68.73]]],[[[3.54,39.67],[2.87,40.12],[2.19,39.47],[3.54,39.67]]],[[[143.59,53.42],[143.16,54.65],[141.47,53.6],[139.85,54.89],[138.46,54.59],[138.26,55.5],[136.66,55.86],[135.08,54.93],[138.0,53.43],[139.97,54.21],[141.62,52.27],[142.26,52.73],[141.86,53.27],[142.89,53.41],[142.98,52.08],[143.65,52.1],[143.59,53.42]]],[[[-117.88,34.36],[-117.02,34.14],[-117.29,33.07],[-115.77,32.19],[-116.85,34.55],[-118.86,35.05],[-119.53,34.54],[-117.88,34.36]]],[[[-107.87,28.94],[-107.48,29.76],[-108.38,30.56],[-108.77,29.74],[-107.87,28.94]]],[[[-20.31,77.8],[-22.05,77.87],[-21.36,77.49],[-22.36,77.17],[-24.8,77.59],[-22.63,76.48],[-25.15,75.96],[-19.63,76.12],[-20.08,76.73],[-19.07,77.04],[-19.67,77.42],[-18.59,77.73],[-20.31,77.8]]],[[[47.9,69.1],[49.3,68.53],[50.78,69.29],[48.98,69.67],[47.9,69.1]]],[[[-180.0,-84.62],[-160.09,-85.84],[-144.22,-85.25],[-147.22,-84.94],[-145.86,-84.31],[-150.32,-83.89],[-148.88,-83.28],[-152.49,-82.85],[-161.65,-83.68],[-173.67,-82.7],[-174.33,-82.91],[-173.08,-83.08],[-173.76,-83.3],[-164.51,-84.24],[-180.0,-84.62]]],[[[180.0,-84.22],[167.58,-83.43],[171.11,-84.24],[180.0,-84.22]]],[[[59.15,27.06],[59.7,27.53],[58.47,27.62],[59.15,27.06]]],[[[77.98,12.82],[78.62,13.43],[77.8,13.92],[77.37,13.43],[75.75,13.91],[74.73,13.06],[76.72,10.87],[77.35,11.96],[76.33,12.09],[76.75,13.06],[77.56,12.33],[77.98,12.82]]],[[[11.85,64.28],[11.88,65.11],[10.28,65.03],[10.87,64.6],[9.93,63.86],[7.8,63.65],[6.36,62.57],[11.1,63.27],[11.85,64.28]]],[[[-62.6,-70.34],[-62.46,-71.22],[-61.33,-70.97],[-62.6,-70.34]]],[[[174.0,52.59],[172.06,53.08],[173.68,52.16],[174.0,52.59]]],[[[-81.57,36.68],[-83.71,35.85],[-83.77,34.92],[-82.6,35.15],[-81.57,36.68]]],[[[108.71,39.99],[109.65,39.41],[110.37,39.94],[108.71,39.99]]],[[[-79.45,39.37],[-78.64,40.16],[-79.91,39.68],[-79.79,38.29],[-79.07,38.85],[-79.45,39.37]]],[[[-170.66,56.85],[-169.66,57.16],[-170.75,57.64],[-171.2,57.09],[-170.66,56.85]]],[[[-70.61,44.82],[-70.02,45.31],[-70.69,45.86],[-73.01,44.49],[-73.5,42.13],[-74.47,41.97],[-73.59,41.3],[-72.53,42.28],[-71.36,41.63],[-71.0,42.9],[-65.76,45.33],[-70.75,43.97],[-70.61,44.82]]],[[[161.3,-78.79],[158.57,-80.27],[155.14,-80.49],[161.4,-81.15],[162.03,-80.78],[159.9,-80.32],[162.32,-78.86],[166.82,-78.47],[162.53,-76.96],[161.82,-77.12],[163.09,-77.64],[162.53,-78.03],[163.71,-78.32],[161.3,-78.79]]],[[[-14.83,66.15],[-20.9,65.43],[-22.42,66.65],[-24.01,65.63],[-22.68,65.49],[-23.23,64.91],[-21.66,64.18],[-18.51,63.6],[-13.66,65.12],[-14.83,66.15]]],[[[168.41,55.0],[165.64,55.51],[165.92,54.74],[167.56,54.31],[168.41,55.0]]],[[[-26.18,83.06],[-23.96,83.35],[-27.52,83.41],[-26.18,83.06]]],[[[103.65,43.98],[102.15,43.64],[104.8,42.77],[103.65,43.98]]],[[[93.89,43.14],[95.0,43.03],[93.77,44.02],[91.74,44.07],[92.19,43.28],[93.89,43.14]]],[[[-26.52,81.4],[-23.89,82.34],[-25.27,82.48],[-30.06,82.45],[-33.36,81.59],[-26.52,81.4]],[[-28.94,81.88],[-27.79,81.54],[-30.56,81.57],[-28.94,81.88]]],[[[111.26,54.03],[110.52,53.66],[111.68,53.65],[111.26,54.03]]],[[[-2.6,54.21],[-4.49,53.24],[-2.34,52.59],[-1.89,53.09],[-2.6,54.21]]],[[[152.56,47.84],[151.37,46.85],[153.36,47.39],[153.65,48.34],[152.56,47.84]]],[[[168.96,-72.91],[165.42,-73.21],[159.99,-75.43],[161.87,-76.05],[161.5,-76.66],[163.05,-76.58],[163.54,-76.19],[162.38,-75.67],[163.3,-74.9],[169.87,-73.18],[170.11,-72.2],[171.6,-71.92],[169.9,-71.38],[167.89,-72.41],[168.96,-72.91]]],[[[180.0,52.34],[177.25,52.31],[177.13,51.69],[179.52,51.33],[180.0,52.34]]],[[[-63.22,-65.16],[-60.61,-64.86],[-63.3,-64.32],[-64.43,-64.77],[-64.39,-65.62],[-63.46,-65.81],[-63.22,-65.16]]],[[[-106.15,25.63],[-105.75,26.45],[-106.51,26.5],[-106.15,25.63]]],[[[-69.14,-73.43],[-74.05,-73.52],[-74.98,-72.82],[-75.78,-73.45],[-73.38,-73.99],[-69.14,-73.43]]],[[[61.68,31.21],[62.85,31.56],[61.79,32.47],[61.1,32.21],[61.68,31.21]]],[[[-157.91,-78.19],[-156.85,-77.86],[-158.74,-77.86],[-157.91,-78.19]]],[[[17.86,57.63],[18.68,56.68],[19.65,57.99],[17.86,57.63]]],[[[130.2,41.6],[129.93,42.14],[129.58,41.23],[130.2,41.6]]],[[[-173.21,60.6],[-173.97,59.84],[-171.64,60.29],[-173.21,60.6]]],[[[-65.1,-75.44],[-63.56,-75.65],[-61.75,-74.74],[-64.64,-74.78],[-65.1,-75.44]]],[[[-162.29,-78.83],[-164.55,-79.02],[-163.07,-79.72],[-158.47,-79.54],[-162.29,-78.83]]],[[[85.34,47.43],[82.76,47.47],[81.43,48.75],[80.78,48.23],[80.82,47.2],[82.76,47.22],[84.34,46.31],[86.6,47.14],[85.34,47.43]]],[[[75.09,48.4],[77.09,48.51],[77.69,49.3],[74.62,49.28],[74.07,48.46],[75.09,48.4]]],[[[106.64,41.54],[106.37,40.87],[107.94,41.61],[106.64,41.54]]],[[[34.5,35.37],[32.8,35.52],[32.27,34.62],[33.21,34.23],[34.5,35.37]]],[[[-77.31,-75.6],[-79.38,-76.17],[-77.72,-76.7],[-78.13,-77.13],[-72.74,-76.67],[-75.63,-76.13],[-75.67,-75.46],[-77.31,-75.6]]],[[[18.63,21.18],[16.49,20.81],[18.18,20.66],[18.8,19.66],[18.63,21.18]]],[[[38.37,46.61],[38.66,47.4],[37.69,46.63],[38.37,46.61]]],[[[-170.55,64.13],[-172.72,63.65],[-169.13,62.75],[-168.66,63.54],[-170.55,64.13]]],[[[-65.29,-65.84],[-66.21,-66.49],[-65.28,-66.7],[-65.29,-65.84]]],[[[-60.52,-74.05],[-61.28,-72.96],[-62.53,-73.2],[-62.37,-74.09],[-60.52,-74.05]]],[[[-71.42,-69.88],[-71.46,-68.8],[-72.56,-68.98],[-72.86,-69.84],[-70.73,-71.43],[-67.09,-70.38],[-71.42,-69.88]]],[[[98.08,80.11],[95.37,81.12],[91.98,80.44],[95.58,79.05],[99.04,79.02],[98.08,80.11]]],[[[153.26,49.11],[154.07,48.66],[155.36,49.61],[153.26,49.11]]],[[[11.64,65.45],[13.35,66.76],[12.46,66.73],[11.64,65.45]]],[[[-5.47,31.16],[-4.58,32.44],[-3.08,32.79],[-4.51,32.93],[-3.74,33.23],[-4.11,34.0],[-6.62,31.62],[-8.63,31.0],[-7.71,30.45],[-6.9,31.27],[-5.47,31.16]]],[[[-21.71,78.56],[-20.58,78.87],[-22.49,78.93],[-21.71,78.56]]],[[[-104.8,44.7],[-103.78,43.73],[-103.26,44.21],[-104.8,44.7]]],[[[115.09,45.09],[114.46,45.79],[113.66,45.3],[114.29,44.62],[115.09,45.09]]],[[[105.41,78.62],[101.2,78.9],[102.53,78.29],[105.41,78.62]]],[[[137.64,56.5],[137.81,55.82],[138.71,56.92],[137.64,56.5]]],[[[8.88,61.67],[9.95,62.16],[9.44,62.55],[6.84,62.06],[7.87,61.22],[6.81,60.64],[8.14,60.4],[8.88,61.67]]],[[[36.59,7.98],[36.13,8.51],[35.47,7.46],[36.59,7.98]]],[[[138.4,58.32],[138.13,57.71],[139.35,57.65],[139.07,57.05],[140.18,57.46],[138.4,58.32]]],[[[141.14,50.73],[140.47,50.92],[140.32,49.74],[141.14,50.73]]],[[[-157.87,72.49],[-157.25,72.87],[-158.67,72.83],[-157.87,72.49]]],[[[163.63,-82.77],[169.26,-82.86],[162.26,-81.56],[159.55,-81.67],[162.04,-82.14],[157.81,-82.4],[163.63,-82.77]]],[[[-83.55,-73.61],[-84.02,-74.02],[-82.51,-73.92],[-83.55,-73.61]]],[[[-57.22,-83.11],[-54.45,-82.83],[-57.71,-82.67],[-58.48,-82.9],[-57.22,-83.11]]],[[[79.47,47.95],[80.12,48.22],[79.41,48.97],[78.06,48.93],[79.47,47.95]]],[[[-22.96,80.98],[-21.19,81.25],[-23.83,81.33],[-22.96,80.98]]],[[[-77.53,-74.03],[-77.22,-73.6],[-80.84,-73.15],[-77.53,-74.03]]],[[[153.09,76.61],[151.95,76.26],[153.81,76.2],[153.09,76.61]]],[[[123.3,56.3],[124.71,56.55],[123.53,57.07],[122.54,56.77],[123.3,56.3]]],[[[-66.4,-71.7],[-67.63,-71.91],[-67.73,-72.79],[-66.03,-72.8],[-66.4,-71.7]]],[[[166.29,-51.17],[166.26,-50.47],[165.63,-51.2],[166.29,-51.17]]],[[[45.08,45.02],[44.57,44.84],[45.53,44.37],[45.08,45.02]]],[[[148.25,76.59],[149.32,76.96],[147.35,76.98],[148.25,76.59]]]]}}]}