{"type":"FeatureCollection","features":[{"type":"Feature","properties":{},"geometry":{"type":"MultiPolygon","coordinates":[[[[-60.99,56.06],[-60.76,55.84],[-60.98,55.62],[-60.75,55.4],[-58.35,54.77],[-58.14,54.55],[-58.36,54.34],[-57.53,53.9],[-57.76,53.69],[-57.56,53.47],[-57.14,53.47],[-56.92,53.68],[-55.9,53.45],[-55.71,53.23],[-55.94,53.02],[-55.76,52.8],[-55.98,52.59],[-55.8,52.37],[-56.02,52.16],[-56.42,52.17],[-56.64,51.96],[-56.46,51.74],[-56.67,51.53],[-57.65,51.75],[-57.86,51.54],[-59.46,51.1],[-59.65,50.88],[-59.46,50.67],[-59.66,50.46],[-60.63,50.65],[-60.82,50.43],[-61.21,50.42],[-61.42,50.63],[-62.38,50.38],[-62.59,50.58],[-63.56,50.32],[-63.77,50.53],[-64.16,50.51],[-64.34,50.28],[-64.73,50.26],[-65.57,50.63],[-65.96,50.61],[-66.13,50.38],[-66.52,50.35],[-66.68,50.12],[-67.07,50.09],[-67.22,49.86],[-67.61,49.83],[-67.76,49.6],[-69.72,48.76],[-69.86,48.53],[-69.62,48.34],[-69.76,48.11],[-70.13,48.07],[-70.76,47.56],[-70.42,46.96],[-69.56,47.27],[-69.43,47.5],[-69.66,47.69],[-69.52,47.92],[-68.12,48.49],[-67.98,48.72],[-67.0,48.59],[-66.31,49.07],[-65.93,49.1],[-65.71,48.91],[-64.79,49.18],[-64.58,48.98],[-64.74,48.76],[-64.53,48.56],[-64.69,48.34],[-65.59,48.06],[-65.81,48.26],[-66.18,48.23],[-66.33,48.01],[-64.96,47.48],[-66.14,46.75],[-65.93,46.56],[-65.01,46.42],[-64.76,45.82],[-65.41,45.35],[-66.31,45.49],[-67.91,44.51],[-68.8,44.62],[-69.4,44.14],[-70.29,44.24],[-70.32,43.61],[-71.55,43.04],[-71.66,42.81],[-71.45,42.64],[-71.46,42.02],[-71.78,41.98],[-72.31,41.49],[-73.17,41.57],[-73.27,41.35],[-74.41,40.75],[-74.5,40.54],[-74.29,40.37],[-74.26,39.77],[-74.56,39.72],[-74.66,39.5],[-75.48,39.56],[-75.56,39.34],[-75.1,38.43],[-75.56,37.95],[-76.07,38.06],[-76.12,38.64],[-76.33,38.8],[-75.87,39.29],[-76.38,39.39],[-76.47,39.17],[-76.77,39.12],[-76.85,38.9],[-76.63,38.74],[-76.71,38.53],[-76.23,37.63],[-76.68,37.16],[-75.98,36.9],[-76.06,36.69],[-75.61,35.82],[-76.32,35.31],[-76.4,35.1],[-76.2,34.95],[-75.45,34.91],[-74.73,35.41],[-74.54,35.26],[-73.89,35.56],[-73.42,35.45],[-72.96,35.91],[-72.2,35.84],[-71.73,36.29],[-70.97,36.21],[-69.28,37.39],[-68.51,37.3],[-67.58,37.98],[-66.81,37.87],[-65.41,38.78],[-64.24,39.26],[-64.14,39.85],[-63.24,40.3],[-62.46,40.16],[-60.93,41.02],[-60.14,40.87],[-59.04,41.49],[-58.26,41.32],[-56.65,42.13],[-55.87,41.94],[-53.21,43.08],[-52.48,42.83],[-50.29,43.65],[-48.43,44.07],[-48.11,44.67],[-46.71,44.92],[-46.49,45.11],[-40.81,46.42],[-38.69,46.7],[-38.24,47.27],[-37.28,47.31],[-36.81,47.88],[-35.84,47.91],[-35.36,48.48],[-34.59,48.09],[-33.04,48.42],[-32.05,48.42],[-31.52,48.96],[-31.17,48.88],[-30.71,48.32],[-29.72,48.29],[-29.67,48.05],[-29.33,47.96],[-29.03,48.11],[-28.3,47.68],[-27.36,47.88],[-26.64,47.44],[-26.33,47.58],[-25.35,47.52],[-24.95,46.93],[-24.62,46.82],[-23.68,46.99],[-23.35,46.88],[-23.33,46.64],[-23.0,46.53],[-22.69,46.66],[-22.36,46.55],[-22.34,46.3],[-22.02,46.19],[-21.71,46.32],[-21.39,46.21],[-21.37,45.96],[-21.05,45.84],[-20.75,45.97],[-20.43,45.85],[-20.41,45.61],[-19.47,45.5],[-19.46,45.25],[-19.15,45.13],[-17.61,45.25],[-16.99,44.75],[-15.47,44.84],[-14.88,44.33],[-13.98,44.43],[-13.68,44.29],[-13.69,44.04],[-13.4,43.91],[-13.1,44.02],[-12.81,43.88],[-12.82,43.63],[-12.53,43.5],[-12.23,43.6],[-11.95,43.47],[-11.96,43.22],[-11.1,43.04],[-11.12,42.8],[-10.58,42.27],[-10.6,42.02],[-9.76,41.84],[-9.79,41.59],[-9.52,41.45],[-9.22,41.55],[-8.72,41.01],[-8.74,40.77],[-9.34,40.31],[-9.13,39.67],[-9.96,39.61],[-9.98,39.36],[-9.72,39.21],[-9.74,38.97],[-9.01,38.04],[-9.03,37.79],[-9.31,37.68],[-9.1,37.04],[-8.85,36.9],[-7.02,36.88],[-6.56,36.35],[-6.38,35.71],[-5.14,35.47],[-4.88,35.57],[-4.84,35.81],[-5.08,35.96],[-5.04,36.2],[-4.77,36.3],[-4.54,36.15],[-3.97,36.59],[-2.26,36.26],[-1.99,36.35],[-1.95,36.59],[-4.16,36.98],[-4.74,36.54],[-4.97,36.69],[-5.24,36.6],[-5.28,36.35],[-5.55,36.25],[-5.78,36.4],[-6.05,36.3],[-6.71,37.23],[-6.68,37.48],[-6.93,37.62],[-7.51,37.17],[-8.8,37.4],[-8.48,38.0],[-9.2,38.93],[-9.17,39.18],[-8.58,39.63],[-8.79,40.27],[-8.19,40.72],[-8.17,40.97],[-8.91,41.9],[-8.56,42.49],[-9.08,43.03],[-9.05,43.27],[-8.76,43.37],[-8.48,43.22],[-7.86,43.66],[-4.24,43.15],[-3.61,43.56],[-1.75,43.17],[-1.11,43.56],[-1.26,44.19],[-0.96,44.26],[-0.91,44.5],[-1.16,44.66],[-1.11,44.89],[-0.81,44.96],[-0.76,45.19],[-1.4,46.13],[-1.35,46.36],[-1.6,46.52],[-1.55,46.75],[-1.81,46.91],[-1.76,47.14],[-2.02,47.3],[-1.97,47.53],[-3.38,47.86],[-4.28,47.86],[-4.56,48.01],[-4.51,48.24],[-4.2,48.32],[-4.15,48.55],[-3.24,48.55],[-2.39,48.31],[-2.08,48.38],[-2.03,48.61],[-1.13,48.58],[-1.29,49.19],[0.18,49.07],[1.0,49.85],[1.69,50.19],[1.57,50.79],[2.71,50.57],[3.42,50.88],[3.67,50.72],[4.85,50.64],[5.6,51.03],[6.2,50.98],[7.13,51.79],[6.69,52.26],[6.77,52.47],[9.37,53.98],[9.47,54.18],[9.02,54.64],[9.12,54.85],[9.49,54.92],[9.77,54.79],[9.67,54.59],[10.58,54.4],[10.48,54.19],[10.92,53.72],[11.29,53.79],[11.39,53.99],[12.4,53.99],[12.51,54.19],[12.89,54.26],[13.53,54.18],[13.95,53.69],[14.97,53.67],[16.09,54.38],[17.12,54.34],[17.76,54.79],[18.15,54.83],[18.54,54.33],[19.58,54.27],[21.84,55.4],[21.47,55.9],[21.61,56.09],[21.35,56.24],[21.5,56.43],[21.23,56.58],[21.93,56.99],[21.67,57.14],[21.81,57.33],[22.79,57.58],[23.05,57.42],[22.9,57.24],[23.27,56.75],[24.81,57.19],[24.96,57.38],[24.71,57.53],[24.86,57.71],[24.61,57.87],[24.76,58.05],[24.5,58.2],[24.66,58.38],[23.71,58.66],[23.87,58.83],[23.6,58.98],[24.21,59.44],[25.2,59.42],[25.3,59.64],[25.67,59.7],[27.86,59.25],[28.74,59.58],[28.87,59.79],[29.91,59.74],[30.05,59.95],[29.78,60.12],[29.92,60.34],[29.65,60.5],[27.65,60.81],[27.25,60.75],[27.14,60.53],[26.48,60.63],[26.09,60.57],[25.98,60.35],[24.95,60.37],[24.86,60.16],[24.49,60.09],[21.64,60.54],[21.72,60.75],[21.44,60.89],[21.51,61.11],[21.87,61.18],[21.95,61.4],[21.45,61.89],[21.98,62.4],[21.0,62.59],[21.08,62.81],[22.41,63.47],[22.5,63.68],[23.61,63.7],[24.23,64.2],[24.65,64.27],[24.76,64.49],[24.44,64.63],[24.55,64.85],[25.74,64.85],[25.86,65.06],[25.54,65.21],[25.66,65.42],[25.34,65.56],[25.46,65.78],[25.13,65.92],[22.8,66.1],[22.36,66.02],[22.27,65.8],[20.84,65.13],[20.76,64.92],[21.32,64.44],[21.24,64.22],[20.84,64.14],[20.77,63.93],[19.67,63.89],[19.61,63.68],[19.23,63.6],[19.17,63.38],[18.79,63.3],[18.73,63.09],[17.55,62.4],[17.5,62.19],[17.06,62.15],[16.91,61.98],[17.21,61.85],[16.49,61.46],[16.94,61.03],[16.8,60.85],[17.1,60.72],[16.96,60.54],[18.4,60.37],[18.69,60.23],[18.55,60.06],[18.97,59.6],[16.74,58.69],[16.6,58.51],[16.88,58.37],[16.21,57.95],[16.64,57.48],[15.98,57.05],[16.25,56.91],[16.13,56.72],[15.73,56.67],[15.6,56.47],[15.88,56.34],[15.75,56.14],[14.02,56.25],[13.91,56.05],[14.18,55.91],[14.06,55.72],[13.17,55.4],[12.9,55.53],[13.01,55.73],[12.74,55.87],[12.85,56.06],[13.24,56.13],[13.36,56.32],[12.92,56.78],[13.03,56.98],[12.07,57.17],[12.19,57.37],[11.73,57.81],[11.84,58.01],[11.56,58.13],[11.67,58.32],[11.38,58.44],[11.49,58.63],[11.02,59.06],[11.13,59.25],[10.84,59.37],[10.95,59.56],[10.65,59.67],[10.25,59.61],[10.14,59.42],[10.43,59.3],[10.32,59.12],[9.23,59.09],[7.26,58.03],[6.96,58.14],[7.06,58.34],[5.5,58.73],[6.05,59.14],[5.12,59.44],[5.21,59.63],[5.58,59.66],[6.15,60.06],[5.2,60.36],[5.29,60.55],[5.0,60.71],[5.09,60.9],[4.8,61.06],[5.38,61.45],[4.87,61.96],[4.97,62.14],[5.37,62.17],[5.96,62.55],[7.05,62.42],[7.16,62.6],[6.86,62.76],[6.97,62.94],[10.5,64.1],[10.62,64.26],[10.29,64.37],[10.41,64.53],[11.53,64.6],[11.88,65.11],[12.23,65.21],[12.11,65.38],[12.46,65.48],[12.34,65.65],[12.7,65.76],[12.58,65.93],[12.95,66.03],[12.83,66.2],[13.2,66.31],[13.08,66.48],[13.46,66.59],[13.35,66.76],[13.73,66.87],[13.62,67.04],[14.92,67.17],[14.81,67.35],[15.53,67.74],[15.43,67.92],[16.19,68.31],[15.43,68.76],[16.43,68.78],[16.53,68.59],[17.07,68.51],[17.89,68.89],[17.15,69.36],[18.67,69.47],[18.59,69.66],[19.08,69.76],[21.23,69.76],[21.17,69.95],[21.69,70.04],[21.64,70.24],[22.17,70.33],[23.35,69.92],[23.88,70.0],[23.85,70.2],[23.28,70.31],[23.25,70.51],[23.8,70.6],[26.63,70.41],[27.79,70.77],[30.09,70.65],[30.63,70.52],[30.58,70.32],[28.88,70.31],[28.85,70.11],[29.38,69.99],[29.35,69.79],[32.59,69.58],[33.09,69.44],[33.01,69.24],[34.4,69.0],[35.78,69.3],[36.12,69.14],[35.87,68.94],[36.2,68.78],[37.67,68.7],[37.99,68.53],[37.74,68.33],[38.05,68.16],[39.49,68.06],[40.66,67.75],[40.39,67.54],[40.68,67.37],[40.41,67.16],[40.7,66.98],[40.44,66.78],[40.72,66.6],[39.67,66.16],[33.04,67.16],[32.52,67.11],[32.33,66.9],[33.16,66.79],[33.48,66.63],[33.28,66.42],[34.4,66.14],[34.2,65.93],[34.5,65.77],[34.3,65.56],[34.6,65.39],[34.4,65.18],[34.7,65.01],[34.5,64.8],[34.79,64.63],[34.59,64.42],[34.88,64.25],[36.12,64.16],[36.4,63.99],[36.2,63.77],[36.47,63.6],[37.64,63.88],[37.91,63.71],[38.39,63.74],[38.61,63.95],[38.34,64.13],[38.57,64.34],[38.3,64.52],[37.03,64.62],[36.75,64.8],[36.96,65.01],[39.8,64.61],[40.8,65.05],[39.74,65.39],[39.98,65.6],[42.1,66.09],[42.37,66.29],[43.73,66.14],[44.01,66.35],[44.56,66.36],[44.86,66.56],[44.6,66.75],[44.9,66.95],[46.29,66.78],[46.6,66.98],[47.18,66.99],[47.43,66.8],[48.0,66.8],[48.33,67.0],[48.08,67.19],[48.41,67.38],[48.16,67.58],[48.5,67.77],[52.37,68.51],[54.66,68.06],[55.06,68.24],[54.85,68.44],[55.25,68.62],[56.71,68.37],[58.18,68.68],[57.98,68.89],[57.35,68.92],[56.29,68.77],[55.23,69.2],[54.18,69.04],[52.68,69.26],[52.29,69.08],[52.53,68.89],[52.14,68.7],[51.52,68.71],[51.27,68.9],[51.66,69.09],[51.41,69.28],[51.8,69.47],[51.55,69.66],[51.95,69.84],[51.59,70.03],[51.88,70.22],[51.51,70.41],[51.81,70.6],[51.43,70.79],[51.73,70.98],[52.42,70.97],[54.87,70.35],[55.54,70.33],[55.88,70.51],[54.5,70.93],[52.74,71.16],[52.36,71.36],[52.68,71.55],[52.29,71.74],[52.62,71.93],[52.22,72.13],[53.67,72.5],[53.26,72.7],[53.63,72.89],[53.21,73.09],[53.58,73.29],[54.38,73.27],[54.78,73.46],[54.36,73.67],[54.76,73.86],[55.59,73.84],[56.02,74.03],[55.6,74.24],[56.04,74.43],[55.61,74.64],[56.06,74.83],[55.62,75.05],[58.91,75.57],[58.49,75.79],[57.54,75.81],[57.04,75.62],[54.7,75.46],[54.25,75.27],[54.72,75.06],[54.28,74.87],[54.73,74.66],[54.31,74.47],[54.75,74.26],[54.33,74.07],[53.49,74.08],[53.1,73.88],[53.54,73.68],[53.16,73.49],[52.35,73.5],[51.99,73.3],[52.42,73.1],[50.96,72.72],[51.39,72.52],[51.06,72.33],[49.88,72.53],[50.19,72.72],[49.75,72.91],[50.07,73.11],[48.34,73.49],[48.65,73.69],[48.16,73.88],[44.64,74.2],[44.09,74.38],[44.36,74.59],[43.78,74.77],[42.34,74.92],[40.42,74.63],[36.84,75.03],[35.05,74.71],[32.88,74.94],[29.07,75.0],[27.59,75.48],[26.03,75.09],[19.13,75.25],[11.04,74.93],[10.21,75.0],[9.96,75.21],[8.51,75.13],[7.65,75.19],[7.37,75.39],[5.92,75.3],[3.82,75.59],[-0.39,75.23],[-0.87,75.07],[-0.48,74.88],[-0.95,74.72],[-2.98,74.56],[-3.31,74.35],[-4.05,74.33],[-4.36,74.12],[-5.08,74.09],[-5.38,73.88],[-8.05,73.33],[-8.3,73.11],[-8.98,73.07],[-9.22,72.85],[-9.9,72.8],[-10.12,72.58],[-10.79,72.53],[-10.99,72.31],[-13.31,71.68],[-13.49,71.46],[-14.11,71.39],[-14.27,71.16],[-14.89,71.09],[-15.04,70.87],[-16.38,70.49],[-16.51,70.26],[-18.16,70.24],[-18.27,70.01],[-18.85,69.93],[-18.95,69.69],[-20.17,69.28],[-20.25,69.05],[-21.83,68.99],[-21.9,68.76],[-23.03,68.32],[-23.08,68.08],[-24.6,68.0],[-24.64,67.76],[-25.68,67.3],[-27.16,67.42],[-27.66,67.3],[-27.66,67.06],[-28.15,66.94],[-28.15,66.7],[-29.6,66.56],[-29.59,66.32],[-30.06,66.19],[-30.04,65.95],[-31.45,65.79],[-31.42,65.55],[-30.93,65.45],[-30.9,65.21],[-31.35,65.07],[-31.32,64.83],[-31.76,64.69],[-31.72,64.45],[-32.16,64.31],[-32.12,64.08],[-32.54,63.93],[-32.5,63.7],[-33.29,63.17],[-33.24,62.93],[-32.79,62.84],[-32.75,62.6],[-33.15,62.45],[-33.11,62.22],[-33.5,62.07],[-33.46,61.83],[-33.02,61.74],[-32.98,61.5],[-32.1,61.08],[-32.06,60.84],[-31.21,60.42],[-31.19,60.18],[-30.02,60.13],[-30.0,59.89],[-29.62,59.79],[-29.6,59.56],[-28.47,59.49],[-28.47,59.26],[-28.1,59.16],[-28.1,58.93],[-26.81,58.23],[-26.76,58.02],[-27.12,57.89],[-27.08,57.67],[-26.23,57.28],[-25.75,56.75],[-26.41,56.27],[-26.37,56.05],[-26.72,55.92],[-26.67,55.7],[-27.41,55.66],[-28.04,55.16],[-27.99,54.94],[-26.89,54.89],[-26.84,54.67],[-27.18,54.53],[-27.14,54.31],[-27.76,53.81],[-27.71,53.58],[-28.04,53.44],[-28.0,53.21],[-28.6,52.7],[-28.55,52.47],[-31.98,52.15],[-32.29,52.0],[-32.23,51.77],[-33.2,51.54],[-33.14,51.31],[-33.67,50.77],[-34.47,51.14],[-34.54,51.37],[-35.57,51.35],[-36.08,51.87],[-37.11,51.84],[-37.65,52.35],[-38.02,52.41],[-38.1,52.63],[-37.81,52.79],[-37.89,53.02],[-39.2,53.62],[-39.28,53.85],[-40.31,53.8],[-40.85,54.32],[-41.9,54.26],[-42.0,54.48],[-42.38,54.54],[-42.67,54.36],[-43.06,54.41],[-43.16,54.64],[-43.55,54.69],[-43.84,54.51],[-44.23,54.56],[-44.34,54.79],[-44.74,54.84],[-45.02,54.66],[-45.42,54.7],[-45.54,54.93],[-45.94,54.97],[-46.22,54.79],[-46.63,54.83],[-46.76,55.06],[-47.17,55.1],[-47.44,54.91],[-47.85,54.94],[-47.99,55.17],[-48.97,55.47],[-49.12,55.7],[-50.71,56.25],[-50.88,56.48],[-50.6,56.68],[-51.38,57.16],[-51.11,57.36],[-51.28,57.59],[-51.73,57.62],[-51.91,57.85],[-51.63,58.05],[-51.81,58.28],[-53.6,58.81],[-53.8,59.03],[-54.28,59.05],[-54.49,59.28],[-54.97,59.3],[-55.18,59.52],[-55.67,59.54],[-55.89,59.76],[-57.85,60.24],[-58.09,60.47],[-58.6,60.47],[-58.85,60.69],[-59.37,60.69],[-59.62,60.92],[-60.91,60.69],[-61.18,60.91],[-62.5,61.11],[-62.79,61.32],[-64.08,61.06],[-64.37,61.28],[-64.14,61.51],[-64.44,61.72],[-64.2,61.95],[-64.51,62.16],[-63.47,62.64],[-64.65,63.05],[-63.59,63.52],[-63.9,63.74],[-63.65,63.96],[-63.97,64.18],[-63.71,64.41],[-64.96,64.81],[-64.71,65.04],[-64.11,65.06],[-63.77,64.85],[-63.18,64.86],[-62.02,65.32],[-62.34,65.54],[-62.95,65.53],[-63.23,65.3],[-63.84,65.29],[-65.14,65.7],[-64.87,65.93],[-65.23,66.14],[-66.85,66.3],[-67.97,65.8],[-67.6,65.6],[-66.11,65.88],[-65.75,65.68],[-66.86,65.19],[-65.56,64.8],[-65.81,64.56],[-65.47,64.35],[-64.88,64.37],[-64.55,64.16],[-64.8,63.93],[-64.48,63.72],[-64.73,63.49],[-66.1,63.22],[-67.34,63.6],[-68.84,63.75],[-69.05,63.51],[-68.7,63.31],[-68.13,63.34],[-67.79,63.13],[-68.01,62.9],[-66.79,62.51],[-67.01,62.28],[-70.23,62.75],[-70.59,62.95],[-71.14,62.91],[-71.51,63.11],[-71.32,63.35],[-72.64,63.69],[-72.45,63.93],[-72.84,64.13],[-75.37,64.34],[-75.78,64.52],[-76.36,64.46],[-76.52,64.21],[-78.08,64.26],[-78.22,64.01],[-79.47,63.61],[-79.6,63.36],[-79.18,63.18],[-77.94,63.58],[-77.53,63.4],[-77.67,63.15],[-77.26,62.97],[-77.41,62.72],[-77.01,62.54],[-76.47,62.61],[-76.32,62.85],[-76.72,63.04],[-76.57,63.29],[-76.01,63.35],[-75.86,63.6],[-76.26,63.78],[-76.1,64.03],[-75.53,64.09],[-75.13,63.91],[-73.59,63.83],[-73.2,63.64],[-73.38,63.39],[-72.07,63.06],[-72.25,62.82],[-71.89,62.62],[-68.64,62.19],[-68.31,61.98],[-68.52,61.74],[-69.93,61.87],[-70.27,62.07],[-71.54,61.74],[-71.89,61.94],[-71.71,62.18],[-72.07,62.38],[-73.53,62.47],[-73.9,62.66],[-73.73,62.91],[-74.11,63.1],[-74.67,63.04],[-74.83,62.79],[-75.38,62.73],[-75.54,62.49],[-75.15,62.3],[-72.79,62.09],[-72.43,61.89],[-72.6,61.65],[-71.37,61.31],[-71.55,61.06],[-70.35,60.71],[-70.54,60.47],[-70.21,60.27],[-70.39,60.03],[-70.07,59.83],[-70.25,59.59],[-69.12,59.23],[-69.3,58.99],[-68.99,58.79],[-68.5,58.82],[-68.2,58.62],[-68.39,58.38],[-68.09,58.18],[-67.61,58.21],[-67.32,58.01],[-66.16,58.3],[-65.96,58.54],[-66.25,58.74],[-65.34,59.23],[-65.63,59.44],[-65.42,59.68],[-64.19,59.95],[-63.9,59.74],[-64.13,59.51],[-63.85,59.29],[-64.07,59.06],[-63.79,58.85],[-63.3,58.87],[-63.04,58.65],[-63.26,58.43],[-62.99,58.21],[-62.51,58.23],[-62.26,58.01],[-62.48,57.79],[-61.51,57.37],[-61.73,57.14],[-61.49,56.93],[-61.7,56.7],[-61.46,56.49],[-61.68,56.26],[-61.44,56.05],[-60.99,56.06]],[[22.14,58.21],[21.88,58.36],[22.03,58.54],[22.72,58.42],[22.14,58.21]],[[-4.12,56.42],[-4.17,56.2],[-4.53,56.14],[-4.85,56.29],[-4.8,56.5],[-5.4,57.01],[-5.35,57.22],[-5.68,57.37],[-5.64,57.58],[-4.83,57.91],[-4.23,57.41],[-2.85,57.22],[-2.9,57.01],[-2.59,56.86],[-2.65,56.65],[-3.7,56.69],[-3.75,56.48],[-4.12,56.42]],[[-57.18,49.84],[-56.8,49.84],[-56.63,49.63],[-54.64,48.97],[-54.49,48.76],[-54.69,48.56],[-54.02,48.13],[-55.35,47.54],[-56.22,47.75],[-56.39,47.96],[-57.3,47.75],[-57.47,47.96],[-57.84,47.96],[-58.03,47.75],[-58.39,47.74],[-58.55,48.37],[-58.36,48.58],[-58.54,48.79],[-57.78,49.21],[-57.96,49.42],[-57.76,49.63],[-57.94,49.84],[-57.74,50.05],[-57.36,50.05],[-57.18,49.84]],[[-19.99,64.12],[-19.92,64.35],[-21.15,64.51],[-21.09,64.74],[-21.49,64.87],[-21.43,65.1],[-20.97,65.2],[-20.1,65.17],[-20.03,65.4],[-20.43,65.53],[-20.36,65.77],[-19.88,65.86],[-17.74,65.64],[-17.26,65.73],[-17.16,65.96],[-15.81,65.98],[-15.44,65.84],[-15.55,65.62],[-15.19,65.48],[-13.53,65.34],[-13.66,65.12],[-14.71,64.75],[-14.82,64.52],[-16.08,64.5],[-16.19,64.27],[-17.18,63.87],[-18.35,64.05],[-19.31,63.63],[-19.99,64.12]],[[-9.36,51.7],[-10.02,51.75],[-9.62,52.3],[-8.62,52.32],[-8.59,52.55],[-7.87,52.94],[-7.83,53.16],[-7.17,53.1],[-6.44,53.47],[-6.13,53.32],[-6.17,53.1],[-7.28,52.42],[-7.32,52.2],[-8.31,52.18],[-8.71,51.64],[-9.36,51.7]],[[-64.62,44.59],[-65.26,44.13],[-65.6,44.1],[-65.79,44.29],[-64.67,45.0],[-64.32,45.02],[-64.13,44.83],[-64.28,44.62],[-64.62,44.59]],[[10.33,57.23],[9.74,56.76],[10.2,56.32],[10.09,56.12],[10.37,55.99],[10.27,55.79],[9.89,55.72],[9.32,55.25],[8.67,55.3],[8.76,55.5],[8.3,55.95],[8.4,56.15],[8.12,56.27],[8.21,56.47],[9.66,57.28],[10.33,57.23]],[[-0.65,52.9],[-0.71,52.68],[-0.43,52.52],[-0.49,52.3],[-0.83,52.24],[-0.88,52.02],[-0.61,51.86],[-0.67,51.65],[-1.0,51.58],[-0.84,50.98],[-2.66,51.27],[-2.22,51.78],[-1.5,52.12],[-1.44,52.34],[-1.72,52.5],[-2.45,52.15],[-2.89,51.64],[-3.84,51.66],[-4.13,51.82],[-4.08,52.04],[-3.75,52.11],[-3.7,52.33],[-4.24,52.86],[-4.19,53.08],[-3.21,53.06],[-2.68,52.53],[-2.34,52.59],[-2.52,53.19],[-2.18,53.25],[-2.12,53.47],[-2.65,54.0],[-2.6,54.21],[-3.55,54.46],[-3.09,54.95],[-4.05,55.2],[-4.82,54.85],[-5.13,55.0],[-5.08,55.22],[-4.31,55.56],[-4.27,55.78],[-3.59,55.69],[-2.82,56.02],[-2.51,55.87],[-2.57,55.65],[-1.61,55.4],[-1.67,55.19],[-1.37,55.03],[-1.84,54.55],[-1.32,54.02],[-1.78,53.53],[-1.49,53.37],[-1.55,53.15],[-0.65,52.9]],[[48.88,69.29],[49.51,69.29],[49.77,69.1],[48.78,68.91],[48.52,69.1],[48.88,69.29]],[[-6.56,54.72],[-6.6,54.5],[-6.95,54.43],[-7.27,54.58],[-7.23,54.8],[-6.56,54.72]],[[-4.4,50.46],[-3.98,50.99],[-3.37,50.91],[-3.79,50.38],[-4.4,50.46]],[[10.62,55.14],[9.96,55.19],[10.07,55.39],[10.44,55.47],[10.72,55.34],[10.62,55.14]],[[-63.86,45.67],[-63.71,45.89],[-63.35,45.91],[-62.09,45.36],[-62.25,45.15],[-63.1,44.9],[-63.32,45.5],[-63.67,45.48],[-63.86,45.67]],[[-23.57,65.5],[-24.01,65.63],[-23.97,65.86],[-23.49,65.97],[-22.15,65.82],[-22.21,65.59],[-23.57,65.5]],[[-56.77,50.26],[-57.15,50.26],[-57.33,50.48],[-57.13,50.69],[-56.74,50.68],[-56.56,50.47],[-56.77,50.26]],[[-55.93,51.1],[-56.14,50.89],[-56.53,50.89],[-56.71,51.11],[-56.49,51.32],[-56.1,51.31],[-55.93,51.1]],[[45.01,68.1],[43.86,68.45],[44.17,68.65],[44.77,68.66],[45.05,68.48],[45.65,68.5],[45.93,68.31],[45.6,68.12],[45.87,67.93],[45.55,67.73],[44.97,67.72],[44.7,67.9],[45.01,68.1]],[[44.63,67.14],[44.06,67.12],[43.79,67.3],[44.09,67.5],[44.66,67.52],[44.93,67.34],[44.63,67.14]],[[11.86,55.54],[11.75,55.34],[11.1,55.4],[11.69,55.87],[12.35,55.8],[12.24,55.61],[11.86,55.54]],[[11.54,54.94],[12.19,54.87],[12.08,54.67],[11.7,54.6],[11.43,54.74],[11.54,54.94]]],[[[1.05,41.27],[1.0,41.04],[-0.26,40.03],[-0.31,39.79],[-0.09,39.63],[0.18,39.71],[1.23,40.9],[2.02,40.94],[2.08,41.17],[2.36,41.26],[2.42,41.49],[2.19,41.64],[1.91,41.55],[1.85,41.31],[1.05,41.27]]],[[[-45.61,60.83],[-45.94,60.65],[-47.06,60.98],[-47.39,60.79],[-47.88,60.84],[-48.04,61.07],[-47.71,61.26],[-47.88,61.5],[-49.76,62.09],[-49.95,62.32],[-49.61,62.52],[-50.53,63.03],[-50.19,63.22],[-50.39,63.46],[-50.94,63.49],[-51.15,63.73],[-51.7,63.76],[-52.03,63.56],[-51.07,63.06],[-51.4,62.86],[-51.19,62.63],[-50.66,62.59],[-50.47,62.36],[-50.79,62.16],[-50.6,61.93],[-49.39,61.62],[-49.21,61.39],[-49.53,61.19],[-49.35,60.96],[-48.86,60.92],[-48.04,60.41],[-46.75,60.51],[-46.6,60.28],[-45.51,59.94],[-45.37,59.71],[-44.91,59.65],[-44.58,59.84],[-44.12,59.78],[-43.99,59.55],[-42.76,59.61],[-42.42,59.79],[-42.54,60.02],[-42.99,60.08],[-43.12,60.32],[-41.96,60.61],[-42.08,60.85],[-41.73,61.02],[-41.84,61.26],[-41.49,61.43],[-41.6,61.67],[-41.24,61.84],[-41.35,62.08],[-41.83,62.15],[-41.95,62.38],[-41.58,62.56],[-41.7,62.8],[-40.45,63.07],[-40.56,63.31],[-40.17,63.47],[-40.28,63.71],[-39.89,63.88],[-39.99,64.12],[-39.59,64.28],[-39.7,64.52],[-40.22,64.6],[-40.34,64.84],[-38.98,65.09],[-39.09,65.33],[-38.66,65.49],[-38.13,65.41],[-37.7,65.57],[-36.57,65.16],[-36.14,65.31],[-36.22,65.55],[-35.78,65.7],[-35.86,65.94],[-34.43,66.15],[-34.5,66.39],[-32.06,66.61],[-32.11,66.85],[-32.63,66.96],[-32.68,67.2],[-31.74,67.71],[-31.78,67.95],[-30.24,68.11],[-28.68,68.01],[-27.64,68.49],[-25.56,68.48],[-25.54,68.72],[-25.0,68.83],[-24.97,69.07],[-23.37,69.16],[-23.32,69.39],[-22.13,69.83],[-22.07,70.07],[-20.82,70.49],[-20.74,70.72],[-21.26,70.86],[-21.18,71.1],[-20.57,71.19],[-20.48,71.42],[-21.02,71.57],[-20.93,71.8],[-21.48,71.94],[-21.4,72.17],[-21.97,72.31],[-21.89,72.55],[-20.47,72.96],[-20.38,73.2],[-19.69,73.28],[-19.58,73.52],[-20.17,73.66],[-20.06,73.89],[-18.49,74.29],[-18.36,74.52],[-17.61,74.6],[-17.46,74.83],[-16.7,74.9],[-16.53,75.13],[-17.15,75.28],[-16.98,75.51],[-19.09,75.74],[-18.95,75.97],[-18.13,76.05],[-17.97,76.28],[-18.66,76.43],[-18.5,76.66],[-17.64,76.73],[-17.47,76.96],[-18.18,77.12],[-18.01,77.35],[-15.98,77.71],[-15.76,77.94],[-18.25,78.18],[-18.07,78.41],[-17.07,78.48],[-16.86,78.71],[-17.68,78.86],[-17.47,79.09],[-16.28,79.13],[-15.89,79.33],[-16.74,79.49],[-16.36,79.69],[-17.24,79.85],[-15.09,80.29],[-16.01,80.45],[-15.57,80.66],[-17.97,80.78],[-18.37,80.58],[-17.39,80.42],[-17.78,80.21],[-19.11,80.17],[-19.46,79.96],[-22.14,79.62],[-22.26,79.39],[-21.33,79.25],[-21.46,79.02],[-20.58,78.87],[-20.72,78.64],[-23.58,78.62],[-23.67,78.38],[-24.63,78.29],[-24.69,78.06],[-23.82,77.92],[-23.9,77.69],[-24.8,77.59],[-24.86,77.36],[-24.04,77.22],[-24.1,76.99],[-23.32,76.85],[-23.39,76.62],[-24.23,76.52],[-24.29,76.29],[-23.54,76.15],[-23.61,75.92],[-22.88,75.78],[-22.08,75.87],[-21.99,76.1],[-22.72,76.24],[-22.63,76.48],[-21.05,76.42],[-21.17,76.19],[-20.46,76.04],[-20.57,75.81],[-19.89,75.66],[-20.01,75.43],[-20.8,75.35],[-20.9,75.11],[-20.25,74.97],[-20.36,74.74],[-19.72,74.59],[-19.84,74.36],[-21.94,74.33],[-22.02,74.09],[-21.39,73.95],[-21.48,73.72],[-24.84,73.7],[-24.89,73.47],[-24.25,73.33],[-24.3,73.1],[-24.97,72.99],[-25.01,72.76],[-25.66,72.65],[-25.69,72.41],[-23.84,72.25],[-23.89,72.02],[-23.32,71.88],[-23.37,71.65],[-22.81,71.51],[-22.87,71.28],[-22.33,71.14],[-22.39,70.91],[-23.53,70.94],[-23.48,71.18],[-24.04,71.31],[-23.99,71.54],[-24.57,71.68],[-26.39,71.59],[-26.41,71.35],[-25.82,71.22],[-25.85,70.99],[-27.04,70.52],[-27.05,70.28],[-27.62,70.17],[-27.62,69.93],[-27.07,69.81],[-25.92,70.27],[-23.69,70.23],[-23.16,70.1],[-23.21,69.86],[-24.38,69.42],[-25.46,69.43],[-25.49,69.2],[-26.59,68.73],[-28.17,68.85],[-29.21,68.37],[-31.87,68.44],[-32.37,68.3],[-32.33,68.06],[-32.83,67.92],[-32.77,67.68],[-33.26,67.54],[-33.21,67.3],[-34.7,67.11],[-34.63,66.87],[-35.1,66.72],[-35.03,66.48],[-35.48,66.33],[-36.02,66.43],[-36.47,66.27],[-36.38,66.03],[-36.83,65.88],[-39.3,65.81],[-39.73,65.65],[-39.62,65.41],[-40.04,65.25],[-40.57,65.32],[-40.99,65.15],[-40.86,64.91],[-41.27,64.75],[-41.15,64.51],[-41.55,64.34],[-41.42,64.1],[-40.91,64.03],[-40.79,63.79],[-41.18,63.62],[-41.06,63.38],[-42.33,63.1],[-42.2,62.86],[-42.57,62.69],[-42.45,62.45],[-42.81,62.27],[-42.68,62.04],[-43.04,61.86],[-42.92,61.62],[-43.27,61.45],[-43.14,61.21],[-43.49,61.03],[-43.36,60.79],[-43.71,60.61],[-43.58,60.38],[-44.71,60.07],[-45.18,60.13],[-45.32,60.36],[-44.99,60.55],[-45.13,60.78],[-45.61,60.83]],[[-20.44,77.57],[-19.67,77.42],[-19.81,77.19],[-21.47,77.26],[-21.36,77.49],[-20.44,77.57]],[[-23.01,73.06],[-22.41,72.92],[-22.48,72.69],[-23.74,72.72],[-23.68,72.96],[-23.01,73.06]]],[[[61.53,75.06],[62.43,75.02],[62.99,75.19],[62.64,75.42],[60.24,75.32],[59.72,75.13],[60.11,74.91],[59.6,74.73],[58.72,74.76],[58.23,74.57],[58.62,74.36],[56.86,74.01],[57.25,73.8],[56.82,73.61],[57.2,73.4],[58.01,73.38],[58.45,73.56],[58.08,73.77],[59.85,74.11],[59.48,74.33],[59.98,74.51],[60.84,74.47],[61.36,74.66],[61.0,74.88],[61.53,75.06]]],[[[69.16,71.82],[69.69,71.98],[69.49,72.21],[68.74,72.28],[68.22,72.12],[68.43,71.9],[69.16,71.82]]],[[[-82.69,61.93],[-81.55,62.36],[-81.45,62.61],[-81.87,62.78],[-82.4,62.69],[-82.5,62.44],[-83.02,62.35],[-83.11,62.1],[-82.69,61.93]]],[[[-77.16,57.89],[-77.03,58.14],[-78.21,58.43],[-78.09,58.68],[-78.45,58.86],[-78.33,59.11],[-77.23,59.5],[-77.1,59.75],[-77.47,59.93],[-77.34,60.18],[-77.71,60.36],[-77.58,60.61],[-77.96,60.79],[-77.83,61.04],[-77.32,61.11],[-77.18,61.36],[-77.56,61.54],[-77.43,61.79],[-77.82,61.97],[-77.68,62.22],[-78.08,62.4],[-77.95,62.65],[-78.35,62.83],[-78.89,62.76],[-79.02,62.51],[-80.5,62.52],[-80.61,62.27],[-81.13,62.19],[-81.24,61.94],[-80.83,61.77],[-80.94,61.52],[-81.45,61.43],[-81.86,61.6],[-82.97,61.17],[-84.3,61.4],[-84.79,61.31],[-84.87,61.05],[-85.36,60.96],[-85.78,61.11],[-86.27,61.01],[-86.33,60.76],[-87.71,60.7],[-87.76,60.45],[-88.23,60.34],[-89.55,60.52],[-90.5,60.04],[-92.7,60.21],[-94.9,60.09],[-94.89,59.83],[-94.45,59.71],[-94.45,59.45],[-94.88,59.32],[-94.87,59.07],[-93.6,58.94],[-93.6,58.68],[-93.18,58.55],[-93.19,58.3],[-92.38,57.78],[-92.39,57.52],[-92.8,57.4],[-92.81,57.15],[-91.61,57.0],[-90.76,57.48],[-90.36,57.34],[-90.39,57.09],[-90.0,56.95],[-89.58,57.06],[-89.19,56.91],[-89.23,56.66],[-88.84,56.51],[-88.43,56.62],[-88.05,56.47],[-88.09,56.22],[-87.72,56.07],[-87.3,56.17],[-86.93,56.02],[-86.98,55.77],[-85.84,55.56],[-85.89,55.31],[-85.54,55.15],[-83.59,55.11],[-82.48,54.87],[-82.56,54.62],[-82.98,54.53],[-83.05,54.28],[-82.71,54.12],[-82.79,53.87],[-82.21,53.29],[-82.28,53.04],[-81.72,52.46],[-81.8,52.21],[-80.78,51.96],[-80.86,51.71],[-80.56,51.54],[-80.64,51.3],[-79.65,51.04],[-78.78,51.43],[-78.69,51.67],[-78.99,51.84],[-78.89,52.09],[-78.49,52.16],[-78.4,52.41],[-78.91,53.0],[-78.81,53.25],[-79.13,53.42],[-78.51,53.99],[-79.57,54.27],[-79.47,54.51],[-78.52,54.91],[-78.2,54.73],[-77.77,54.8],[-77.12,55.37],[-77.44,55.55],[-77.32,55.79],[-76.32,56.17],[-76.19,56.42],[-76.52,56.6],[-76.39,56.85],[-76.73,57.03],[-76.6,57.28],[-76.94,57.46],[-76.82,57.71],[-77.16,57.89]],[[-78.99,61.58],[-80.31,61.85],[-80.2,62.1],[-79.67,62.18],[-79.27,62.0],[-78.74,62.08],[-78.35,61.9],[-78.48,61.65],[-78.08,61.47],[-78.21,61.22],[-78.73,61.15],[-79.12,61.33],[-78.99,61.58]]],[[[60.13,76.35],[59.14,76.38],[58.59,76.19],[59.02,75.98],[59.99,75.94],[60.55,76.13],[67.03,76.65],[66.71,76.88],[65.68,76.94],[65.0,76.77],[60.71,76.54],[60.13,76.35]]],[[[-87.1,63.51],[-87.04,63.77],[-86.51,63.87],[-86.44,64.12],[-86.91,64.28],[-86.85,64.53],[-87.33,64.68],[-87.87,64.57],[-87.93,64.32],[-88.46,64.21],[-88.51,63.95],[-88.04,63.81],[-88.09,63.55],[-87.62,63.41],[-87.1,63.51]]],[[[-25.68,38.02],[-25.98,38.13],[-26.24,37.98],[-26.21,37.72],[-25.92,37.62],[-25.09,37.8],[-25.12,38.06],[-25.41,38.17],[-25.68,38.02]]],[[[66.11,81.23],[65.59,81.47],[64.0,81.52],[63.4,81.75],[61.74,81.79],[60.77,81.59],[56.72,81.86],[55.86,81.66],[54.22,81.67],[53.45,81.46],[54.28,81.24],[53.54,81.04],[49.61,81.23],[49.0,81.02],[45.5,80.75],[45.01,80.53],[45.93,80.34],[45.45,80.12],[46.32,79.93],[47.65,79.95],[50.54,79.57],[53.76,79.78],[54.41,79.99],[57.76,79.74],[60.63,80.11],[62.01,80.07],[62.85,80.26],[62.31,80.49],[63.2,80.68],[62.64,80.91],[66.11,81.23]],[[57.98,80.58],[58.63,80.36],[57.86,80.16],[56.47,80.18],[55.79,80.39],[56.53,80.6],[55.81,80.81],[56.58,81.02],[58.11,81.0],[58.78,80.78],[57.98,80.58]]],[[[-26.98,39.21],[-27.24,39.06],[-27.89,39.52],[-28.15,39.36],[-28.12,39.11],[-28.95,38.9],[-29.13,38.24],[-27.14,38.29],[-26.64,38.85],[-26.67,39.1],[-26.98,39.21]]],[[[61.41,69.07],[60.41,69.53],[61.83,69.82],[61.57,70.03],[59.95,70.33],[59.66,70.54],[57.92,70.43],[57.6,70.64],[57.98,70.82],[56.62,71.26],[56.99,71.44],[56.65,71.65],[55.92,71.67],[55.55,71.49],[55.91,71.28],[55.55,71.1],[56.92,70.67],[56.56,70.49],[56.88,70.28],[58.53,70.02],[59.76,69.56],[58.22,69.26],[58.42,69.06],[59.05,69.03],[59.24,68.82],[58.8,68.65],[58.99,68.44],[60.68,68.53],[61.13,68.7],[60.95,68.91],[61.41,69.07]]],[[[-82.53,63.62],[-82.43,63.87],[-82.88,64.04],[-84.06,63.6],[-84.15,63.34],[-83.7,63.18],[-83.79,62.93],[-84.32,62.84],[-84.4,62.58],[-84.92,62.49],[-84.99,62.23],[-84.56,62.07],[-84.05,62.17],[-83.97,62.42],[-83.45,62.51],[-83.36,62.77],[-82.83,62.86],[-82.73,63.11],[-83.17,63.28],[-83.08,63.53],[-82.53,63.62]]],[[[28.32,80.16],[28.37,80.39],[24.7,80.55],[24.67,80.78],[20.8,80.9],[19.62,80.78],[19.78,80.55],[16.25,80.39],[16.49,80.17],[15.46,80.04],[11.89,80.06],[8.74,79.83],[9.13,79.62],[10.38,79.55],[10.72,79.34],[9.86,79.19],[10.2,78.98],[9.38,78.83],[9.72,78.62],[10.85,78.55],[11.15,78.33],[10.36,78.19],[10.66,77.98],[13.57,77.97],[13.81,77.75],[13.03,77.62],[13.27,77.4],[12.51,77.27],[12.75,77.06],[15.44,77.02],[15.63,76.81],[14.88,76.68],[15.08,76.47],[15.99,76.38],[18.41,76.53],[18.27,76.74],[17.34,76.84],[17.18,77.06],[17.98,77.18],[17.83,77.39],[18.66,77.51],[18.52,77.73],[19.38,77.85],[20.38,77.75],[20.49,77.53],[22.46,77.09],[25.11,77.17],[25.09,77.39],[24.16,77.52],[24.12,77.74],[25.05,77.84],[25.02,78.06],[22.97,78.52],[22.9,78.75],[21.83,78.86],[21.74,79.09],[25.97,79.06],[25.98,78.83],[24.95,78.73],[24.98,78.51],[25.98,78.38],[26.99,78.48],[27.0,78.7],[30.11,78.75],[30.19,78.97],[31.29,79.06],[31.41,79.28],[30.37,79.43],[28.09,79.02],[27.04,79.16],[27.06,79.38],[28.17,79.48],[28.22,79.7],[29.38,79.8],[29.46,80.02],[28.32,80.16]],[[18.81,78.74],[18.96,78.51],[18.05,78.39],[18.21,78.17],[17.34,78.05],[17.51,77.83],[16.67,77.71],[16.85,77.49],[16.04,77.36],[15.05,77.45],[14.84,77.67],[15.65,77.8],[15.45,78.01],[16.3,78.14],[16.1,78.36],[16.98,78.49],[16.79,78.71],[12.8,78.61],[11.67,78.69],[11.37,78.9],[12.23,79.05],[11.93,79.26],[12.83,79.41],[15.45,79.02],[16.38,79.15],[16.17,79.37],[17.14,79.5],[19.63,79.08],[19.76,78.86],[18.81,78.74]],[[22.09,78.19],[23.09,78.08],[23.15,77.86],[21.26,77.86],[21.17,78.08],[22.09,78.19]],[[21.2,80.22],[27.12,80.07],[27.1,79.84],[25.96,79.74],[25.96,79.51],[22.68,79.42],[20.23,79.87],[20.09,80.1],[21.2,80.22]]],[[[-73.62,45.89],[-73.38,45.71],[-73.03,45.76],[-72.45,46.27],[-72.69,46.45],[-73.04,46.4],[-73.62,45.89]]],[[[-52.95,65.58],[-53.19,65.82],[-52.84,66.02],[-53.09,66.25],[-52.72,66.45],[-52.97,66.68],[-53.59,66.71],[-53.95,66.51],[-53.7,66.28],[-54.05,66.07],[-53.8,65.84],[-54.14,65.64],[-53.06,65.15],[-53.4,64.95],[-53.16,64.72],[-52.59,64.69],[-52.36,64.46],[-52.7,64.25],[-52.47,64.02],[-51.91,63.99],[-51.57,64.19],[-51.79,64.42],[-51.45,64.62],[-51.67,64.86],[-52.24,64.89],[-52.48,65.12],[-52.12,65.32],[-52.36,65.55],[-52.95,65.58]]],[[[5.96,43.38],[4.57,43.42],[4.34,43.56],[4.41,43.79],[3.87,43.85],[3.8,43.62],[2.78,42.89],[2.72,42.66],[3.13,42.14],[2.71,41.58],[2.94,41.44],[3.59,41.85],[3.48,42.46],[3.25,42.6],[3.67,43.16],[5.04,43.13],[6.35,42.85],[7.05,43.24],[7.12,43.48],[7.98,43.48],[8.46,44.02],[9.33,44.02],[9.41,44.25],[9.17,44.4],[8.62,44.48],[8.3,44.4],[7.82,43.87],[6.96,43.86],[6.5,43.31],[5.96,43.38]]],[[[112.41,75.22],[111.95,74.99],[112.47,74.77],[112.02,74.55],[109.73,74.3],[109.34,74.07],[107.17,73.79],[106.83,73.56],[107.36,73.35],[108.23,73.38],[109.86,73.86],[112.15,73.67],[112.58,73.89],[113.49,73.9],[113.93,74.12],[113.46,74.34],[113.92,74.56],[113.43,74.78],[113.9,75.0],[113.4,75.22],[112.41,75.22]]],[[[-33.59,64.61],[-33.15,64.75],[-33.2,64.99],[-33.69,65.09],[-34.13,64.94],[-34.07,64.7],[-33.59,64.61]]],[[[100.47,76.84],[100.18,76.59],[100.91,76.41],[101.95,76.46],[102.28,76.7],[101.54,76.89],[100.47,76.84]]],[[[-36.14,-55.12],[-35.77,-55.01],[-35.76,-54.78],[-36.49,-54.77],[-36.5,-55.0],[-36.14,-55.12]]],[[[65.96,69.88],[67.06,69.98],[66.85,70.2],[67.31,70.36],[67.1,70.58],[67.57,70.74],[67.36,70.97],[67.85,71.12],[67.63,71.35],[68.13,71.51],[67.92,71.74],[67.19,71.8],[66.69,71.64],[66.92,71.42],[66.44,71.25],[66.67,71.03],[66.2,70.87],[66.42,70.65],[65.96,70.49],[66.18,70.26],[65.74,70.1],[65.96,69.88]]],[[[72.05,67.53],[71.55,67.39],[71.64,67.17],[71.15,67.03],[71.24,66.81],[69.72,66.6],[69.82,66.38],[70.85,66.44],[72.05,66.05],[72.93,66.55],[72.85,66.77],[72.29,66.86],[72.21,67.08],[73.13,67.57],[73.05,67.8],[73.56,67.93],[73.49,68.15],[75.03,68.33],[74.92,68.56],[75.41,68.69],[75.31,68.92],[76.42,68.96],[76.51,68.72],[77.11,68.62],[77.19,68.39],[76.69,68.26],[76.78,68.03],[77.35,67.93],[77.85,68.05],[77.78,68.28],[78.28,68.41],[78.21,68.64],[76.94,69.09],[76.85,69.32],[73.97,69.34],[73.84,69.57],[74.35,69.71],[74.23,69.94],[74.75,70.08],[74.63,70.31],[75.17,70.45],[75.05,70.69],[74.38,70.78],[74.25,71.01],[73.57,71.11],[73.43,71.34],[73.98,71.48],[73.84,71.72],[74.42,71.86],[75.13,71.77],[75.25,71.53],[74.68,71.39],[74.81,71.16],[75.49,71.06],[78.58,71.26],[78.5,71.49],[76.53,71.57],[76.42,71.81],[78.34,71.97],[78.26,72.21],[78.89,72.34],[80.36,71.88],[81.0,72.0],[80.95,72.24],[81.61,72.37],[81.57,72.61],[80.85,72.73],[80.8,72.97],[81.49,73.1],[81.44,73.34],[82.15,73.46],[82.12,73.71],[81.35,73.83],[79.16,73.68],[79.24,73.44],[78.56,73.31],[78.65,73.07],[77.99,72.93],[76.36,73.38],[76.24,73.62],[75.45,73.72],[74.8,73.57],[74.94,73.33],[72.92,73.13],[71.17,73.53],[70.97,73.77],[70.15,73.84],[69.56,73.69],[69.77,73.45],[69.2,73.29],[69.41,73.06],[68.85,72.9],[69.07,72.67],[72.49,72.75],[72.66,72.51],[72.08,72.36],[72.25,72.13],[71.69,71.98],[71.86,71.74],[71.32,71.59],[71.49,71.36],[72.19,71.28],[72.34,71.05],[71.81,70.9],[71.97,70.67],[73.17,70.73],[73.84,70.64],[73.97,70.41],[72.79,70.35],[72.28,70.21],[72.42,69.98],[71.93,69.83],[72.07,69.6],[72.71,69.52],[72.85,69.29],[72.36,69.15],[72.5,68.92],[73.11,68.83],[73.24,68.6],[72.77,68.46],[72.9,68.24],[72.38,68.1],[72.47,67.88],[71.96,67.75],[72.05,67.53]],[[73.55,72.19],[73.4,72.42],[74.0,72.57],[74.74,72.48],[74.87,72.24],[73.55,72.19]]],[[[91.97,75.5],[92.1,75.74],[93.03,75.83],[93.18,76.08],[92.38,76.24],[91.42,76.15],[91.3,75.9],[88.66,75.85],[88.58,75.6],[87.71,75.5],[87.65,75.25],[88.44,75.11],[90.28,75.55],[91.07,75.4],[91.97,75.5]]],[[[37.58,55.62],[38.57,55.46],[38.75,55.68],[37.93,56.05],[37.54,56.02],[37.37,55.81],[37.58,55.62]]],[[[-61.44,65.77],[-61.15,65.99],[-61.47,66.2],[-61.17,66.43],[-60.54,66.43],[-60.23,66.65],[-61.53,67.08],[-61.22,67.3],[-61.56,67.52],[-63.24,67.72],[-63.61,67.94],[-64.28,67.92],[-64.57,67.7],[-64.2,67.49],[-62.53,67.29],[-62.18,67.08],[-62.48,66.85],[-62.14,66.64],[-62.43,66.42],[-62.1,66.2],[-62.39,65.98],[-62.06,65.76],[-61.44,65.77]]],[[[23.47,76.54],[25.2,76.08],[26.86,76.48],[26.87,76.7],[24.27,76.86],[23.42,76.75],[23.47,76.54]]],[[[81.04,75.3],[81.88,75.18],[82.68,75.3],[82.65,75.55],[83.49,75.67],[83.47,75.92],[82.59,76.04],[81.74,75.92],[81.79,75.67],[80.98,75.54],[81.04,75.3]]],[[[18.71,-34.41],[19.15,-34.59],[19.27,-34.4],[18.38,-34.03],[18.26,-34.23],[18.42,-34.42],[18.71,-34.41]]],[[[-50.94,69.84],[-53.65,70.41],[-53.96,70.64],[-53.53,70.83],[-52.79,70.8],[-52.49,70.57],[-51.76,70.54],[-51.31,70.73],[-51.6,70.96],[-53.4,71.26],[-53.72,71.49],[-54.49,71.52],[-54.92,71.32],[-54.59,71.09],[-55.02,70.89],[-54.7,70.66],[-55.11,70.46],[-54.8,70.24],[-53.06,69.95],[-52.77,69.72],[-53.18,69.52],[-54.89,69.81],[-55.29,69.61],[-53.99,69.12],[-54.39,68.92],[-54.1,68.69],[-54.49,68.49],[-54.2,68.26],[-54.58,68.06],[-54.3,67.83],[-54.67,67.63],[-54.39,67.4],[-54.76,67.19],[-54.49,66.97],[-53.86,66.94],[-53.49,67.14],[-53.75,67.37],[-53.38,67.57],[-53.65,67.8],[-53.27,68.01],[-53.54,68.24],[-51.01,68.76],[-51.26,68.99],[-50.84,69.18],[-51.1,69.42],[-50.67,69.61],[-50.94,69.84]],[[-53.31,69.09],[-52.9,69.29],[-52.21,69.26],[-51.94,69.03],[-52.35,68.83],[-53.03,68.86],[-53.31,69.09]]],[[[83.71,71.51],[83.04,71.64],[83.02,71.88],[82.34,72.0],[81.69,71.88],[81.73,71.64],[82.4,71.52],[82.43,71.28],[81.8,71.16],[81.83,70.92],[82.48,70.8],[83.72,71.27],[83.71,71.51]]],[[[32.65,45.45],[32.8,45.66],[32.61,45.85],[32.26,45.85],[32.11,45.64],[32.31,45.44],[32.65,45.45]]],[[[-66.82,68.51],[-66.41,68.3],[-65.73,68.32],[-65.44,68.55],[-65.84,68.76],[-66.53,68.74],[-66.82,68.51]]],[[[-73.94,66.3],[-73.74,66.54],[-73.11,66.59],[-72.91,66.83],[-73.34,67.02],[-73.98,66.97],[-74.18,66.73],[-74.81,66.67],[-74.99,66.43],[-74.56,66.24],[-73.94,66.3]]],[[[35.55,80.19],[34.47,80.34],[34.68,80.57],[33.55,80.73],[32.21,80.65],[32.06,80.42],[30.79,80.34],[30.68,80.11],[34.08,79.89],[35.32,79.96],[35.55,80.19]]],[[[-81.89,65.13],[-82.47,65.05],[-82.57,64.79],[-82.12,64.63],[-82.22,64.38],[-81.77,64.21],[-81.21,64.29],[-81.1,64.55],[-81.55,64.71],[-81.43,64.97],[-81.89,65.13]]],[[[-92.15,62.12],[-92.62,62.0],[-92.63,61.74],[-92.18,61.61],[-91.71,61.73],[-91.69,61.98],[-92.15,62.12]]],[[[55.93,72.06],[55.57,72.27],[55.95,72.45],[56.71,72.43],[57.11,72.61],[56.74,72.82],[57.16,73.01],[56.78,73.22],[55.98,73.24],[55.58,73.05],[55.96,72.84],[54.43,72.49],[54.81,72.28],[54.45,72.1],[54.83,71.89],[55.56,71.87],[55.93,72.06]]],[[[97.34,76.64],[96.55,76.81],[96.78,77.06],[95.96,77.23],[94.9,77.15],[94.7,76.9],[93.68,76.82],[93.51,76.57],[94.32,76.41],[95.32,76.49],[96.1,76.32],[95.89,76.08],[96.65,75.91],[97.63,75.98],[97.87,76.22],[97.1,76.4],[97.34,76.64]]],[[[-76.3,65.38],[-75.87,65.2],[-75.27,65.26],[-75.1,65.51],[-76.57,65.81],[-77.18,65.75],[-77.33,65.5],[-76.9,65.32],[-76.3,65.38]]],[[[84.35,73.82],[85.09,73.69],[86.65,74.16],[86.69,74.4],[85.92,74.54],[85.94,74.78],[86.76,74.9],[86.8,75.14],[85.99,75.28],[85.16,75.17],[85.15,74.92],[84.34,74.8],[84.34,74.56],[82.0,74.44],[82.04,74.2],[82.82,74.07],[82.85,73.83],[83.6,73.7],[84.35,73.82]]],[[[-73.58,67.45],[-73.14,67.26],[-72.49,67.31],[-72.27,67.55],[-72.71,67.74],[-73.37,67.69],[-73.58,67.45]]],[[[-9.74,-40.47],[-9.53,-40.27],[-9.66,-40.03],[-9.99,-40.0],[-10.2,-40.2],[-10.07,-40.43],[-9.74,-40.47]]],[[[-77.64,33.73],[-77.57,33.93],[-77.77,34.07],[-78.04,34.02],[-78.11,33.82],[-77.64,33.73]]],[[[30.97,46.42],[30.63,46.41],[30.48,46.2],[30.68,46.0],[31.03,46.02],[31.67,46.44],[31.47,46.63],[31.12,46.62],[30.97,46.42]]],[[[-12.97,81.67],[-14.58,81.64],[-15.11,81.43],[-14.09,81.26],[-14.6,81.06],[-13.64,80.89],[-12.17,80.91],[-11.6,81.11],[-12.55,81.29],[-11.97,81.49],[-12.97,81.67]]],[[[68.48,69.02],[68.29,69.24],[68.74,69.39],[68.56,69.62],[67.91,69.69],[65.32,69.34],[65.53,69.12],[66.16,69.06],[66.3,68.85],[66.92,68.79],[67.05,68.57],[67.66,68.5],[67.78,68.29],[68.39,68.22],[68.88,68.36],[68.77,68.58],[69.27,68.72],[69.1,68.95],[68.48,69.02]]],[[[74.66,67.96],[73.7,67.48],[73.77,67.26],[73.27,67.13],[73.35,66.91],[74.4,66.95],[74.34,67.17],[74.84,67.3],[74.78,67.52],[75.29,67.65],[75.23,67.87],[74.66,67.96]]],[[[-80.21,64.21],[-80.77,64.13],[-80.89,63.87],[-80.45,63.7],[-79.9,63.78],[-79.77,64.03],[-80.21,64.21]]],[[[64.15,75.55],[66.33,75.84],[68.88,75.88],[69.56,76.05],[69.3,76.28],[70.01,76.45],[69.74,76.69],[70.48,76.85],[70.22,77.09],[69.19,77.16],[68.45,76.99],[68.74,76.76],[68.03,76.59],[68.32,76.35],[67.64,76.18],[63.46,76.0],[62.86,75.82],[63.22,75.6],[64.15,75.55]]],[[[-31.09,39.57],[-31.14,39.82],[-31.45,39.91],[-31.71,39.75],[-31.66,39.5],[-30.99,39.07],[-30.73,39.22],[-30.78,39.48],[-31.09,39.57]]],[[[37.25,-46.84],[37.15,-47.02],[37.65,-47.09],[38.16,-46.7],[37.97,-46.58],[37.25,-46.84]]],[[[30.3,44.97],[30.64,44.99],[30.79,45.2],[30.59,45.39],[29.7,45.56],[29.55,45.35],[30.3,44.97]]],[[[-77.02,34.79],[-77.09,34.59],[-76.89,34.44],[-76.15,34.4],[-76.08,34.6],[-77.02,34.79]]],[[[78.73,74.9],[77.99,74.76],[78.09,74.52],[78.91,74.41],[79.64,74.55],[79.56,74.79],[78.73,74.9]]],[[[-94.02,61.36],[-93.57,61.24],[-93.11,61.36],[-93.1,61.62],[-93.56,61.75],[-94.02,61.62],[-94.02,61.36]]],[[[-59.02,53.68],[-58.8,53.9],[-59.01,54.12],[-59.43,54.11],[-60.28,53.67],[-60.07,53.46],[-59.02,53.68]]],[[[-90.17,62.85],[-90.14,63.11],[-90.61,63.24],[-91.11,63.13],[-91.13,62.87],[-91.63,62.75],[-91.65,62.5],[-91.18,62.36],[-90.17,62.85]]],[[[-12.13,-37.47],[-11.92,-37.27],[-12.04,-37.03],[-12.35,-36.99],[-12.56,-37.19],[-12.45,-37.43],[-12.13,-37.47]]],[[[-78.37,64.68],[-77.79,64.75],[-77.64,65.0],[-78.08,65.18],[-78.66,65.11],[-78.8,64.86],[-78.37,64.68]]],[[[63.8,69.67],[63.56,69.89],[62.9,69.94],[62.49,69.77],[62.74,69.56],[63.39,69.51],[63.8,69.67]]],[[[-27.61,70.65],[-27.61,70.88],[-28.2,71.01],[-28.78,70.89],[-28.77,70.65],[-27.61,70.65]]],[[[10.46,63.48],[11.02,63.72],[10.25,63.76],[10.13,63.59],[10.46,63.48]]]]}}]}