{"type":"FeatureCollection","features":[{"type":"Feature","properties":{},"geometry":{"type":"MultiPolygon","coordinates":[[[[30.3,44.97],[30.64,44.99],[30.79,45.2],[30.04,45.57],[30.19,45.78],[31.52,46.23],[32.26,45.85],[32.16,45.24],[32.35,45.04],[32.7,45.05],[32.93,44.44],[33.27,44.44],[33.98,44.04],[34.31,44.05],[34.46,44.25],[34.8,44.25],[36.42,45.06],[37.78,44.63],[37.96,44.02],[38.78,44.2],[38.96,43.58],[41.21,42.68],[41.36,42.47],[41.21,42.27],[41.36,41.65],[40.27,41.08],[39.49,41.31],[39.34,40.7],[38.07,41.14],[37.94,40.52],[37.16,40.32],[37.01,40.11],[37.17,39.89],[37.97,39.68],[38.11,39.89],[37.95,40.1],[38.1,40.3],[38.41,40.3],[38.58,40.09],[38.43,39.88],[38.6,39.25],[38.91,39.24],[39.06,39.45],[39.37,39.44],[39.53,39.23],[40.29,39.42],[40.9,38.98],[42.57,39.53],[42.71,39.32],[42.11,38.93],[42.25,38.72],[42.55,38.7],[43.16,39.09],[43.45,39.07],[43.6,38.86],[43.43,38.24],[43.14,38.26],[42.99,38.47],[42.7,38.49],[42.55,38.29],[42.69,38.07],[42.99,38.06],[43.12,37.42],[43.41,37.41],[43.56,37.61],[44.28,37.36],[44.87,37.74],[44.31,38.19],[44.46,38.39],[44.75,38.37],[44.93,38.97],[44.35,39.43],[44.51,39.62],[44.37,39.84],[44.07,39.86],[43.93,40.07],[44.09,40.27],[45.7,39.53],[45.84,39.32],[45.68,39.12],[45.81,38.9],[46.11,38.88],[46.3,39.48],[46.6,39.46],[46.77,39.65],[46.67,40.29],[46.84,40.48],[46.7,40.7],[47.36,41.07],[48.11,40.79],[48.2,40.15],[48.51,40.12],[48.69,40.31],[48.55,40.54],[48.73,40.73],[49.54,40.86],[49.67,40.64],[49.49,40.44],[49.56,39.8],[50.36,39.92],[50.49,39.69],[50.8,39.65],[51.48,40.0],[52.23,39.69],[52.42,39.88],[52.73,39.83],[52.85,39.6],[53.16,39.56],[53.87,39.89],[53.76,40.12],[52.93,40.02],[52.81,40.26],[54.05,40.73],[54.89,40.83],[55.1,41.02],[54.99,41.25],[54.67,41.3],[54.55,41.54],[55.3,41.87],[55.63,41.82],[55.64,41.16],[56.82,40.52],[57.03,40.71],[59.54,41.15],[59.77,41.33],[60.51,40.96],[60.75,41.14],[63.33,41.51],[63.58,41.68],[63.91,41.61],[64.15,41.78],[64.48,41.71],[64.73,41.88],[65.46,41.47],[65.71,41.64],[66.04,41.56],[66.11,41.31],[66.43,41.23],[66.88,41.82],[67.2,41.74],[67.27,41.49],[68.17,41.48],[68.64,42.06],[68.96,41.98],[69.23,42.14],[69.38,42.81],[69.65,42.97],[69.98,42.88],[70.25,43.04],[70.96,42.6],[71.84,42.82],[71.79,43.08],[72.07,43.23],[72.76,42.78],[73.65,42.99],[74.58,42.93],[75.12,43.49],[75.44,43.38],[75.73,43.53],[76.39,43.06],[77.29,43.24],[77.27,43.49],[77.56,43.63],[77.88,43.52],[78.17,43.66],[78.49,43.55],[81.23,43.75],[81.53,43.63],[81.84,43.76],[81.83,44.02],[81.21,44.52],[79.05,44.34],[78.73,44.46],[79.0,45.11],[79.31,45.25],[80.26,45.14],[80.87,45.67],[81.81,45.55],[81.82,45.3],[80.88,45.16],[80.89,44.9],[81.82,44.78],[81.83,44.53],[82.44,44.02],[83.06,44.53],[83.36,44.41],[83.67,44.53],[84.27,44.02],[84.89,44.52],[86.4,44.36],[87.04,44.84],[87.06,45.09],[87.38,45.21],[87.4,45.46],[87.72,45.57],[87.47,46.22],[88.14,46.7],[88.17,46.95],[88.49,47.06],[88.52,47.31],[88.22,47.45],[88.25,47.7],[87.3,47.88],[87.32,48.13],[87.01,48.27],[86.68,48.15],[86.36,48.29],[86.38,48.55],[86.06,48.68],[85.07,48.59],[84.75,48.72],[85.11,49.35],[84.46,49.87],[84.47,50.12],[83.45,50.27],[83.46,50.52],[83.8,50.65],[83.81,50.9],[83.47,51.03],[83.47,51.28],[83.82,51.41],[84.86,51.26],[85.58,51.74],[86.62,51.58],[86.97,51.69],[87.0,51.94],[88.05,52.01],[88.08,52.26],[87.43,52.8],[87.46,53.05],[88.23,53.51],[88.26,53.76],[87.59,54.29],[87.62,54.54],[87.27,54.68],[87.29,54.93],[86.93,55.07],[86.96,55.32],[86.59,55.46],[86.62,55.71],[85.48,55.88],[85.5,56.13],[84.76,56.65],[84.77,56.89],[84.0,57.41],[82.8,57.31],[82.0,57.81],[79.98,57.69],[79.12,58.18],[77.09,58.01],[76.19,58.47],[74.15,58.26],[73.21,58.71],[71.17,58.45],[70.72,58.54],[70.65,58.78],[70.2,58.87],[69.82,58.71],[69.37,58.8],[69.28,59.04],[68.83,59.12],[68.45,58.96],[67.44,59.36],[64.6,58.91],[63.56,59.28],[63.21,59.1],[63.32,58.87],[62.98,58.69],[61.93,59.05],[61.59,58.87],[60.32,58.8],[60.0,58.62],[60.13,58.39],[59.8,58.2],[59.94,57.97],[59.62,57.79],[59.75,57.55],[59.43,57.37],[57.8,57.97],[57.66,58.2],[57.2,58.25],[57.05,58.47],[56.59,58.51],[56.44,58.74],[56.75,58.93],[56.6,59.16],[56.13,59.19],[55.82,59.0],[54.59,58.88],[54.3,58.68],[54.46,58.46],[53.42,58.1],[51.72,58.61],[51.54,58.83],[51.08,58.85],[50.9,59.07],[50.44,59.09],[50.17,58.88],[49.72,58.9],[49.53,59.11],[49.07,59.12],[48.81,58.92],[48.35,58.93],[48.16,59.14],[47.7,59.15],[47.45,58.94],[46.35,59.16],[45.41,58.74],[44.32,58.94],[44.09,58.73],[43.65,58.73],[43.43,58.93],[42.34,58.7],[42.12,58.89],[41.03,59.06],[40.82,58.85],[41.04,58.65],[40.83,58.44],[40.41,58.42],[40.19,58.62],[39.76,58.6],[39.53,58.79],[39.11,58.77],[36.9,59.44],[35.3,58.91],[35.13,58.7],[35.37,58.51],[35.21,58.3],[34.8,58.26],[33.28,58.72],[33.43,58.94],[33.18,59.12],[33.34,59.33],[34.32,59.63],[34.49,59.85],[34.24,60.02],[34.4,60.24],[34.15,60.42],[34.32,60.63],[33.37,60.94],[33.54,61.15],[33.28,61.33],[30.49,61.8],[28.97,61.2],[25.97,61.74],[25.08,61.39],[22.41,61.69],[21.9,62.18],[21.98,62.4],[21.68,62.53],[21.76,62.75],[21.46,62.88],[22.01,63.39],[21.7,63.53],[20.85,63.15],[20.78,62.94],[21.3,62.46],[20.78,61.95],[21.3,61.46],[21.22,61.25],[20.29,60.7],[19.27,60.45],[17.82,60.63],[17.38,61.07],[17.52,61.25],[17.23,61.38],[17.95,61.77],[17.21,61.85],[16.63,61.63],[16.49,61.46],[16.79,61.33],[16.65,61.15],[16.94,61.03],[16.8,60.85],[17.1,60.72],[16.96,60.54],[17.4,60.1],[15.73,59.41],[15.6,59.23],[15.88,59.09],[15.21,58.67],[15.49,58.54],[15.37,58.35],[16.34,58.14],[16.21,57.95],[16.64,57.48],[16.1,57.24],[15.98,57.05],[16.25,56.91],[15.6,56.47],[14.93,56.56],[14.02,56.25],[13.08,56.46],[13.19,56.65],[12.75,57.11],[12.87,57.3],[12.58,57.43],[12.7,57.62],[12.41,57.75],[12.53,57.94],[11.56,58.13],[11.67,58.32],[11.2,58.76],[11.31,58.94],[10.84,59.37],[10.95,59.56],[10.65,59.67],[10.25,59.61],[10.14,59.42],[10.43,59.3],[10.32,59.12],[9.23,59.09],[7.26,58.03],[6.77,58.45],[5.13,58.7],[5.05,58.51],[5.32,58.34],[6.31,58.23],[6.58,58.06],[6.49,57.87],[6.78,57.76],[7.84,57.8],[7.93,57.99],[8.32,58.07],[9.0,58.03],[9.6,58.48],[9.31,58.6],[9.41,58.79],[9.81,58.86],[10.8,58.69],[10.69,58.5],[11.16,58.06],[11.05,57.87],[9.97,57.86],[9.37,57.4],[8.7,57.45],[7.84,57.1],[7.74,56.9],[8.02,56.79],[7.46,56.31],[7.93,55.87],[7.37,55.39],[8.29,55.23],[8.2,55.02],[7.83,54.95],[7.74,54.74],[8.02,54.62],[7.92,54.41],[7.56,54.34],[7.02,53.84],[6.39,53.89],[6.04,53.81],[5.95,53.6],[4.98,53.55],[4.48,53.05],[4.15,53.01],[4.25,52.42],[3.93,52.38],[3.06,51.64],[2.74,51.6],[2.67,51.38],[2.35,51.33],[2.28,51.11],[1.96,51.06],[1.51,51.61],[1.97,52.09],[1.7,52.25],[1.77,52.47],[2.1,52.52],[2.17,52.73],[1.91,52.89],[1.98,53.11],[0.49,53.49],[0.56,53.71],[0.06,54.24],[0.13,54.45],[-0.79,54.72],[-0.73,54.93],[-1.25,55.46],[-1.19,55.67],[-1.49,55.82],[-1.43,56.03],[-2.4,56.29],[-1.92,56.76],[-1.55,56.81],[-1.49,57.02],[-1.8,57.18],[-1.74,57.38],[-1.37,57.43],[-1.3,57.64],[-3.0,58.0],[-2.5,58.46],[-2.82,58.61],[-2.76,58.81],[-1.94,59.12],[-1.87,59.32],[-3.31,59.52],[-3.36,59.32],[-3.75,59.26],[-3.81,59.06],[-3.48,58.91],[-3.53,58.71],[-4.63,58.74],[-4.68,58.54],[-3.64,58.3],[-3.7,58.09],[-4.5,57.77],[-4.55,57.56],[-3.16,57.37],[-2.85,57.22],[-2.9,57.01],[-2.59,56.86],[-2.65,56.65],[-3.7,56.69],[-3.75,56.48],[-4.53,56.14],[-5.54,56.38],[-5.49,56.59],[-5.82,56.74],[-5.77,56.95],[-6.1,57.09],[-5.64,57.58],[-5.26,57.64],[-5.21,57.85],[-5.54,58.0],[-6.35,57.66],[-7.06,57.74],[-7.1,57.53],[-7.48,57.46],[-7.52,57.25],[-6.47,57.03],[-6.51,56.81],[-6.89,56.75],[-6.93,56.53],[-6.6,56.39],[-6.64,56.17],[-7.01,56.1],[-7.04,55.89],[-6.72,55.74],[-6.76,55.52],[-7.45,55.6],[-7.81,55.52],[-7.85,55.3],[-6.16,55.01],[-6.2,54.79],[-6.56,54.72],[-6.6,54.5],[-6.28,54.36],[-6.71,53.84],[-6.13,53.32],[-6.17,53.1],[-6.52,53.03],[-6.29,52.43],[-6.94,52.5],[-7.66,52.12],[-8.31,52.18],[-8.71,51.64],[-8.4,51.49],[-7.69,51.89],[-7.39,51.74],[-7.05,51.82],[-7.01,52.05],[-6.03,52.05],[-5.61,52.58],[-5.91,52.73],[-5.87,52.95],[-5.52,53.02],[-5.48,53.25],[-6.05,53.77],[-6.01,53.99],[-5.26,54.35],[-4.7,53.83],[-4.74,53.61],[-5.09,53.54],[-5.13,53.32],[-4.83,53.17],[-4.88,52.94],[-5.22,52.87],[-5.01,52.28],[-5.35,52.2],[-5.77,51.68],[-4.85,51.45],[-4.64,50.84],[-5.6,50.85],[-5.64,50.62],[-6.7,49.92],[-6.74,49.69],[-6.45,49.54],[-5.76,49.93],[-4.86,49.7],[-4.53,49.78],[-4.49,50.01],[-3.56,50.0],[-3.13,50.52],[-2.81,50.59],[-1.34,50.25],[-0.63,50.6],[0.22,50.34],[0.54,50.4],[0.6,50.62],[1.18,50.52],[0.74,50.02],[-0.16,50.06],[-0.02,49.45],[-0.91,49.49],[-1.39,50.03],[-1.98,50.12],[-2.68,49.76],[-2.73,49.53],[-3.42,49.16],[-3.47,48.93],[-4.06,49.01],[-4.75,48.63],[-5.35,48.7],[-5.39,48.47],[-4.87,47.93],[-4.91,47.7],[-3.74,47.55],[-3.47,47.39],[-3.52,47.16],[-2.94,47.08],[-2.68,46.92],[-2.73,46.69],[-1.91,46.45],[-1.96,46.22],[-1.3,45.28],[-1.7,44.74],[-1.45,44.58],[-1.5,44.35],[-1.8,44.27],[-1.85,44.04],[-1.6,43.88],[-1.99,43.33],[-1.75,43.17],[-1.11,43.56],[-1.26,44.19],[-0.72,44.1],[-0.08,44.48],[0.34,43.93],[2.2,43.77],[2.61,43.26],[3.63,43.99],[3.87,43.85],[3.8,43.62],[3.5,43.53],[3.44,43.3],[3.67,43.16],[4.34,43.56],[4.88,43.51],[5.28,42.98],[6.12,43.0],[6.35,42.85],[7.43,43.56],[7.51,43.79],[8.37,43.79],[8.46,44.02],[8.77,44.1],[9.88,43.94],[10.26,43.39],[10.58,43.46],[10.67,43.69],[10.44,43.85],[10.52,44.08],[11.41,44.06],[11.78,43.51],[12.11,43.58],[12.2,43.81],[11.97,43.97],[12.06,44.2],[12.81,44.56],[12.77,45.18],[13.1,45.25],[13.33,45.08],[13.24,44.86],[14.04,44.59],[13.94,44.36],[14.17,44.2],[15.06,44.15],[15.42,43.58],[16.31,43.52],[16.66,42.94],[18.65,42.62],[18.87,42.44],[18.76,42.21],[19.53,41.9],[19.42,41.66],[19.74,41.07],[19.19,40.55],[19.94,40.23],[19.83,40.0],[20.04,39.81],[20.36,39.86],[20.67,39.25],[21.52,39.14],[21.73,38.95],[21.62,38.72],[22.35,38.37],[22.67,38.41],[22.78,38.64],[22.58,38.84],[22.7,39.07],[21.96,39.42],[22.52,39.92],[22.31,40.11],[22.43,40.34],[22.76,40.38],[22.88,40.61],[23.74,40.49],[24.31,40.98],[24.64,41.01],[24.85,40.82],[25.63,41.11],[25.84,40.91],[26.16,40.94],[26.44,40.32],[26.76,40.35],[27.49,39.98],[28.27,40.25],[28.46,40.05],[29.3,39.89],[29.49,39.68],[29.36,39.46],[28.52,39.62],[28.39,39.4],[28.58,39.19],[28.91,39.22],[29.61,38.83],[29.93,38.85],[30.06,39.07],[30.89,38.9],[31.02,39.12],[30.33,39.52],[30.46,39.74],[30.28,39.94],[29.44,40.11],[29.25,40.31],[29.84,40.77],[29.65,40.98],[29.79,41.2],[29.07,41.58],[28.21,41.74],[27.95,42.35],[28.08,42.57],[27.88,42.77],[28.02,42.99],[28.83,43.25],[28.91,43.88],[28.71,44.07],[28.85,44.29],[29.67,44.53],[29.75,45.15],[30.1,45.17],[30.3,44.97]],[[-3.99,52.49],[-4.19,53.08],[-3.55,53.0],[-3.6,52.78],[-3.31,52.62],[-3.36,52.4],[-2.83,51.87],[-2.89,51.64],[-4.13,51.82],[-3.7,52.33],[-3.99,52.49]],[[3.95,46.99],[3.7,47.13],[3.77,47.35],[4.33,47.31],[4.26,47.08],[3.95,46.99]],[[2.21,44.82],[2.27,45.05],[1.73,45.12],[1.32,45.67],[0.79,45.77],[1.2,46.29],[3.92,45.96],[3.85,45.73],[3.55,45.64],[3.65,45.05],[3.35,44.96],[2.93,45.46],[2.63,45.37],[2.74,44.78],[2.21,44.82]],[[22.14,43.93],[22.02,43.7],[21.68,43.66],[20.34,44.12],[19.55,43.81],[18.77,44.12],[18.88,44.34],[18.65,44.52],[18.31,44.47],[18.09,44.65],[17.3,44.32],[16.51,44.61],[15.04,44.77],[14.67,45.33],[14.78,45.56],[15.11,45.62],[15.48,45.06],[16.26,45.4],[16.49,45.23],[16.83,45.28],[17.39,45.79],[17.74,45.84],[17.97,45.67],[17.86,45.44],[18.2,44.87],[19.11,44.79],[19.9,44.48],[20.7,44.8],[21.02,44.21],[21.37,44.25],[21.49,44.48],[21.27,44.66],[21.85,45.14],[21.63,45.32],[21.76,45.54],[22.1,45.58],[22.23,45.8],[23.14,45.69],[23.27,45.91],[22.48,46.24],[22.51,46.85],[22.86,46.89],[22.99,47.11],[23.35,47.14],[23.57,46.96],[23.44,46.74],[23.66,46.56],[23.53,46.35],[23.84,45.76],[24.67,46.04],[24.8,46.26],[24.5,46.84],[24.63,47.06],[23.83,47.39],[23.97,47.6],[23.74,47.78],[23.16,47.93],[23.2,48.53],[22.38,48.85],[22.51,49.06],[22.27,49.23],[22.41,49.44],[22.77,49.48],[23.96,49.19],[24.28,48.63],[25.23,48.5],[25.45,48.32],[25.31,48.11],[26.11,47.77],[26.05,47.17],[26.84,46.82],[26.7,46.61],[26.91,46.42],[26.77,46.21],[27.06,45.62],[26.44,45.16],[25.53,45.3],[24.92,44.83],[23.45,45.11],[23.33,44.89],[22.51,44.59],[22.39,44.37],[22.61,44.19],[22.48,43.96],[22.14,43.93]],[[36.17,46.46],[36.32,46.66],[36.67,46.65],[36.85,46.45],[37.69,46.63],[37.88,46.03],[37.23,45.65],[36.37,45.86],[35.72,45.47],[35.38,45.47],[35.17,46.07],[35.32,46.27],[36.17,46.46]],[[56.61,41.66],[56.72,41.43],[57.04,41.37],[57.15,41.13],[56.93,40.95],[56.18,41.29],[56.07,41.53],[56.28,41.72],[56.61,41.66]],[[14.29,54.3],[13.87,54.78],[13.22,54.86],[12.35,54.53],[12.08,54.67],[12.19,54.87],[12.57,54.94],[12.68,55.14],[13.72,55.12],[13.83,55.32],[14.22,55.38],[14.64,54.9],[15.68,54.87],[15.8,55.07],[15.53,55.21],[15.65,55.41],[14.72,55.64],[14.84,55.83],[15.24,55.89],[15.9,55.8],[16.54,56.25],[16.94,56.3],[17.07,56.49],[16.8,56.63],[16.93,56.82],[17.46,57.06],[17.04,57.53],[17.18,57.72],[16.9,57.86],[17.58,58.28],[17.3,58.42],[17.43,58.61],[19.53,59.33],[19.68,59.51],[19.4,59.65],[19.54,59.82],[21.66,59.51],[22.25,59.72],[22.95,59.6],[22.79,59.43],[23.07,59.28],[22.91,59.1],[21.79,59.19],[21.64,59.01],[21.91,58.86],[21.19,58.47],[21.46,58.32],[21.31,58.14],[21.7,57.66],[21.14,57.44],[20.99,57.26],[21.26,57.11],[20.56,56.7],[20.83,56.55],[20.69,56.36],[21.07,55.86],[20.93,55.67],[20.53,55.63],[20.39,55.44],[20.65,55.29],[20.51,55.09],[19.46,55.16],[19.33,54.97],[19.59,54.82],[19.45,54.62],[19.06,54.58],[18.67,55.08],[17.63,55.13],[16.98,54.69],[15.95,54.73],[15.32,54.27],[14.29,54.3]],[[28.34,40.89],[28.67,40.92],[28.86,40.72],[28.73,40.49],[27.88,40.65],[27.75,40.42],[27.42,40.4],[27.22,40.6],[27.81,41.07],[28.14,41.09],[28.34,40.89]],[[8.16,48.08],[8.08,48.67],[8.41,48.75],[8.83,48.24],[9.16,48.31],[9.25,48.53],[9.84,48.46],[9.32,47.95],[8.74,48.02],[7.99,47.64],[7.74,47.78],[7.83,48.0],[8.16,48.08]],[[45.4,42.27],[45.09,42.29],[44.95,42.5],[44.16,42.34],[42.62,43.24],[41.84,43.05],[41.68,43.26],[42.31,43.66],[42.62,43.65],[44.17,42.76],[44.97,42.92],[45.11,42.7],[45.43,42.69],[45.57,42.47],[45.4,42.27]],[[13.44,48.78],[13.4,49.37],[14.0,49.28],[14.03,48.69],[13.44,48.78]],[[10.68,50.42],[10.42,50.57],[10.52,50.78],[10.87,50.85],[11.74,50.63],[11.64,50.42],[10.68,50.42]],[[23.93,58.0],[24.29,57.51],[23.72,57.3],[23.36,57.79],[23.93,58.0]],[[-3.65,54.03],[-3.7,53.81],[-3.4,53.65],[-3.45,53.44],[-3.8,53.37],[-4.35,53.9],[-4.3,54.11],[-3.65,54.03]],[[11.76,46.43],[11.38,46.96],[10.19,46.3],[9.38,46.53],[8.48,46.53],[8.39,46.3],[7.66,45.92],[7.42,46.06],[7.5,46.29],[6.94,46.36],[6.53,46.87],[5.81,46.48],[5.56,46.62],[6.03,47.15],[6.93,47.17],[7.01,47.4],[7.33,47.48],[7.74,46.97],[8.32,46.9],[9.06,47.28],[9.15,47.5],[10.06,47.5],[10.15,47.72],[10.49,47.8],[11.32,47.56],[12.1,47.92],[12.93,47.68],[13.72,48.03],[14.55,47.77],[15.36,48.11],[16.19,47.84],[16.08,47.62],[15.27,47.29],[15.17,47.07],[15.54,46.52],[15.43,46.29],[14.51,46.34],[14.14,46.89],[13.35,46.54],[12.53,46.79],[11.76,46.43]],[[-2.08,54.92],[-1.79,54.76],[-1.84,54.55],[-2.49,54.65],[-2.43,54.86],[-2.08,54.92]],[[82.11,47.22],[82.11,47.47],[82.43,47.6],[82.76,47.47],[82.76,47.22],[82.44,47.09],[82.11,47.22]],[[85.93,46.66],[84.99,46.81],[84.34,46.31],[84.03,46.44],[84.36,47.07],[85.03,47.57],[86.62,47.39],[86.89,46.75],[85.93,46.66]],[[8.44,51.12],[8.53,51.33],[8.88,51.41],[9.13,51.27],[9.04,51.06],[8.26,50.69],[8.0,50.83],[8.09,51.04],[8.44,51.12]],[[-2.24,48.99],[-2.29,48.76],[-2.61,48.69],[-2.88,48.85],[-2.83,49.08],[-2.24,48.99]],[[6.7,45.68],[7.26,45.61],[7.19,45.38],[6.87,45.3],[6.63,45.45],[6.7,45.68]],[[11.85,56.79],[12.52,56.72],[12.41,56.53],[12.02,56.46],[11.74,56.59],[11.85,56.79]],[[36.66,58.21],[36.42,58.39],[36.6,58.61],[37.01,58.64],[37.25,58.45],[37.07,58.24],[36.66,58.21]],[[64.08,42.03],[63.33,42.43],[63.25,42.67],[63.5,42.85],[64.25,42.45],[64.5,42.63],[64.83,42.55],[64.91,42.3],[64.08,42.03]],[[-3.34,55.32],[-3.39,55.11],[-4.41,55.13],[-4.46,54.92],[-4.82,54.85],[-5.13,55.0],[-5.08,55.22],[-4.31,55.56],[-4.27,55.78],[-3.23,55.75],[-2.93,55.6],[-2.98,55.38],[-3.34,55.32]],[[11.4,57.24],[11.68,57.11],[11.57,56.92],[10.69,56.58],[10.4,56.71],[11.01,57.17],[11.4,57.24]],[[6.63,50.5],[6.55,50.29],[5.96,50.34],[6.04,50.55],[6.37,50.64],[6.63,50.5]],[[25.03,59.79],[25.13,60.01],[25.5,60.07],[25.77,59.92],[25.67,59.7],[25.03,59.79]],[[-2.84,54.59],[-2.89,54.37],[-3.25,54.31],[-3.55,54.46],[-3.49,54.68],[-2.84,54.59]],[[13.0,49.89],[11.79,50.06],[12.35,50.55],[12.7,50.62],[12.96,50.47],[13.0,49.89]],[[1.56,44.43],[2.08,44.37],[2.02,44.14],[1.73,44.04],[1.5,44.21],[1.56,44.43]],[[19.5,49.11],[19.63,49.33],[19.99,49.37],[20.82,49.07],[20.7,48.86],[19.85,48.56],[19.02,48.85],[19.14,49.07],[19.5,49.11]],[[7.17,47.84],[6.59,47.9],[6.67,48.12],[7.0,48.21],[7.25,48.07],[7.17,47.84]],[[47.3,42.13],[47.89,41.66],[47.71,41.46],[47.39,41.49],[45.89,42.45],[46.06,42.65],[46.38,42.62],[46.98,42.16],[47.3,42.13]],[[26.8,59.88],[26.15,59.98],[26.26,60.2],[26.64,60.26],[26.91,60.1],[26.8,59.88]],[[-3.92,48.17],[-4.2,48.32],[-4.15,48.55],[-3.83,48.63],[-2.97,48.39],[-3.02,48.16],[-3.92,48.17]],[[83.37,45.17],[82.75,45.68],[82.75,45.94],[83.07,46.07],[83.38,45.94],[83.38,45.68],[83.69,45.55],[83.69,45.3],[83.37,45.17]]],[[[-63.75,44.45],[-63.6,44.66],[-63.79,44.85],[-64.13,44.83],[-64.28,44.62],[-64.09,44.42],[-63.75,44.45]]],[[[46.48,37.81],[46.19,37.84],[46.03,37.65],[46.16,37.43],[46.45,37.4],[46.61,37.59],[46.48,37.81]]],[[[-116.76,48.77],[-117.09,48.83],[-117.21,49.04],[-117.76,48.93],[-118.55,49.25],[-118.75,49.09],[-118.68,48.89],[-118.35,48.83],[-118.28,48.63],[-119.12,48.37],[-119.45,48.42],[-119.52,48.63],[-119.27,48.78],[-119.34,48.99],[-119.93,48.88],[-119.85,48.68],[-120.11,48.52],[-120.03,48.31],[-120.29,48.16],[-120.21,47.95],[-120.46,47.79],[-120.39,47.59],[-120.64,47.43],[-120.56,47.22],[-120.81,47.06],[-120.73,46.85],[-120.98,46.69],[-120.91,46.48],[-121.15,46.32],[-121.08,46.11],[-121.65,45.2],[-121.19,44.72],[-121.43,44.56],[-121.35,44.34],[-121.04,44.29],[-121.13,43.69],[-119.68,42.82],[-118.86,42.03],[-118.01,42.07],[-117.94,41.85],[-117.63,41.78],[-117.39,41.95],[-116.71,41.59],[-115.61,41.77],[-114.82,40.94],[-113.96,40.95],[-114.1,40.33],[-113.44,39.94],[-112.64,40.17],[-112.69,40.41],[-112.44,40.56],[-111.33,40.71],[-111.73,41.26],[-111.48,41.41],[-111.53,41.64],[-111.83,41.72],[-111.89,41.95],[-111.06,42.17],[-111.48,42.71],[-110.65,42.93],[-111.06,43.46],[-111.37,43.54],[-111.21,44.14],[-110.95,44.29],[-111.0,44.51],[-111.32,44.59],[-112.48,44.45],[-112.74,44.3],[-112.68,44.08],[-113.51,43.85],[-113.46,43.62],[-113.71,43.47],[-114.85,43.31],[-115.54,43.67],[-115.4,44.27],[-116.1,44.62],[-116.16,44.84],[-115.72,45.37],[-115.78,45.59],[-114.94,45.83],[-114.8,46.41],[-114.54,46.56],[-114.22,46.49],[-114.16,46.28],[-114.42,46.13],[-114.36,45.91],[-114.04,45.84],[-113.57,46.36],[-112.07,46.43],[-112.01,46.22],[-112.28,46.07],[-112.22,45.85],[-112.7,45.34],[-112.64,45.12],[-112.32,45.04],[-111.47,45.26],[-111.53,45.48],[-111.26,45.62],[-110.57,45.25],[-109.4,45.37],[-109.35,45.14],[-109.62,45.0],[-109.21,44.47],[-109.47,44.33],[-109.43,44.1],[-109.11,44.02],[-109.07,43.79],[-109.33,43.65],[-109.28,43.42],[-108.97,43.34],[-109.15,42.73],[-108.84,42.65],[-108.44,42.1],[-109.01,42.04],[-109.41,42.59],[-110.07,42.99],[-110.34,42.84],[-109.93,42.3],[-110.19,42.15],[-110.35,41.54],[-109.69,41.14],[-109.22,41.66],[-108.35,41.63],[-108.31,41.4],[-108.78,40.87],[-108.74,40.64],[-107.88,40.6],[-107.4,41.12],[-107.79,41.68],[-107.22,41.73],[-107.18,41.5],[-106.87,41.41],[-106.39,41.92],[-105.82,41.96],[-106.2,42.52],[-105.63,42.57],[-105.59,42.33],[-105.29,42.24],[-105.25,42.01],[-105.52,41.87],[-105.14,41.3],[-105.63,40.79],[-105.59,40.55],[-105.3,40.46],[-105.49,39.84],[-104.86,39.4],[-104.04,39.58],[-104.74,40.5],[-104.18,40.53],[-103.68,41.04],[-103.12,41.07],[-103.48,41.64],[-102.74,42.5],[-102.77,42.73],[-102.5,42.86],[-102.53,43.09],[-102.26,43.22],[-99.4,43.3],[-99.1,43.19],[-99.08,42.95],[-98.23,42.85],[-98.21,42.62],[-97.92,42.5],[-97.08,42.62],[-96.5,42.15],[-95.97,42.61],[-96.28,43.19],[-96.0,43.3],[-96.01,43.53],[-96.3,43.64],[-96.32,43.87],[-95.46,43.98],[-95.17,43.86],[-95.16,43.62],[-94.3,43.49],[-93.43,44.27],[-93.42,44.5],[-92.54,44.59],[-92.82,45.19],[-92.51,45.29],[-92.51,45.53],[-92.8,45.66],[-92.8,45.9],[-93.41,45.92],[-93.41,45.68],[-93.71,45.57],[-94.32,46.06],[-95.53,46.08],[-95.24,46.67],[-95.55,46.79],[-95.56,47.03],[-94.01,47.13],[-94.01,47.36],[-93.38,47.83],[-93.38,48.07],[-93.05,48.18],[-93.05,48.43],[-92.72,48.54],[-92.71,48.78],[-93.69,48.93],[-93.69,49.17],[-94.34,49.67],[-94.35,49.92],[-95.35,50.05],[-95.35,50.3],[-96.05,50.79],[-96.06,51.03],[-96.41,51.16],[-96.42,51.4],[-96.77,51.52],[-96.79,51.77],[-97.14,51.89],[-97.16,52.14],[-97.52,52.25],[-97.86,52.12],[-98.22,52.24],[-98.25,52.49],[-98.61,52.6],[-98.94,52.47],[-99.31,52.58],[-99.34,52.83],[-99.71,52.94],[-100.04,52.8],[-100.82,53.27],[-101.15,53.13],[-102.23,53.19],[-102.81,52.67],[-103.18,52.77],[-103.24,53.01],[-102.92,53.15],[-102.98,53.4],[-102.66,53.54],[-102.71,53.79],[-103.09,53.88],[-103.42,53.74],[-104.5,53.78],[-105.05,53.25],[-105.43,53.34],[-105.5,53.58],[-105.89,53.67],[-106.19,53.52],[-107.04,53.93],[-107.34,53.78],[-107.25,53.54],[-107.76,52.99],[-109.08,53.71],[-109.17,53.95],[-108.2,54.18],[-107.81,54.1],[-107.51,54.26],[-107.6,54.5],[-108.68,54.5],[-109.66,54.26],[-110.04,54.34],[-110.15,54.57],[-111.22,54.56],[-111.84,55.09],[-112.75,55.46],[-113.03,55.29],[-112.91,55.06],[-113.18,54.89],[-114.89,54.74],[-115.15,54.57],[-115.02,54.34],[-115.28,54.17],[-115.15,53.94],[-115.4,53.78],[-115.27,53.55],[-115.52,53.38],[-115.39,53.16],[-115.75,52.6],[-115.62,52.37],[-115.25,52.31],[-115.13,52.09],[-115.37,51.93],[-115.25,51.7],[-114.89,51.64],[-114.77,51.42],[-115.0,51.26],[-114.89,51.03],[-114.53,50.97],[-114.42,50.75],[-114.65,50.59],[-114.08,50.08],[-114.31,49.92],[-114.32,49.32],[-113.09,48.68],[-112.99,48.45],[-113.22,48.3],[-112.73,47.8],[-113.0,47.65],[-112.94,47.44],[-112.62,47.37],[-112.56,47.16],[-112.83,47.01],[-113.54,47.37],[-113.6,47.58],[-113.33,47.72],[-113.39,47.94],[-113.72,48.0],[-113.78,48.21],[-113.55,48.37],[-113.66,48.59],[-113.99,48.66],[-114.1,48.88],[-114.99,48.85],[-115.0,49.44],[-115.34,49.5],[-115.45,49.72],[-116.02,49.62],[-115.9,49.41],[-115.56,49.35],[-115.55,48.75],[-116.1,48.65],[-116.12,49.25],[-116.45,49.3],[-116.76,48.77]],[[-107.02,43.86],[-108.04,44.58],[-108.08,44.8],[-107.5,44.85],[-107.46,44.63],[-107.14,44.54],[-107.1,44.31],[-106.79,44.22],[-106.75,44.0],[-107.02,43.86]],[[-100.85,51.42],[-101.16,51.28],[-101.52,51.39],[-101.56,51.63],[-101.25,51.77],[-101.29,52.01],[-100.98,52.15],[-100.61,52.04],[-100.57,51.8],[-100.89,51.66],[-100.85,51.42]],[[-117.43,45.09],[-117.5,45.31],[-117.25,45.46],[-116.93,45.4],[-116.86,45.18],[-117.43,45.09]],[[-102.34,52.08],[-102.39,52.32],[-102.07,52.46],[-102.12,52.71],[-101.8,52.85],[-100.74,52.78],[-100.7,52.53],[-101.02,52.39],[-101.39,52.5],[-101.97,51.98],[-102.34,52.08]]],[[[36.15,38.41],[36.32,38.2],[36.63,38.2],[36.77,38.42],[36.61,38.63],[36.3,38.63],[36.15,38.41]]],[[[18.68,57.2],[19.09,57.25],[19.23,57.43],[18.95,57.58],[19.09,57.76],[19.65,57.99],[18.27,58.19],[18.13,58.0],[18.41,57.86],[17.73,57.44],[18.0,57.3],[17.87,57.11],[18.28,56.63],[18.81,56.87],[18.54,57.01],[18.68,57.2]]],[[[-78.78,44.98],[-79.71,45.01],[-79.96,45.17],[-80.71,44.79],[-80.78,44.56],[-79.93,44.31],[-80.0,44.08],[-81.12,43.4],[-81.18,43.17],[-80.93,43.01],[-81.0,42.78],[-80.18,42.54],[-79.47,42.9],[-78.91,42.81],[-78.83,43.04],[-77.28,43.98],[-77.19,44.21],[-76.28,44.17],[-75.75,44.69],[-74.83,44.63],[-74.29,45.14],[-73.94,45.2],[-73.71,45.02],[-73.69,44.39],[-73.45,44.22],[-73.12,44.27],[-73.01,44.49],[-73.24,44.67],[-72.67,45.18],[-72.91,45.35],[-72.8,45.58],[-71.03,46.46],[-70.9,46.69],[-70.55,46.73],[-70.42,46.96],[-70.06,47.0],[-69.92,47.23],[-69.56,47.27],[-69.43,47.5],[-69.66,47.69],[-69.52,47.92],[-68.12,48.49],[-67.98,48.72],[-67.0,48.59],[-66.31,49.07],[-65.33,48.93],[-65.17,49.16],[-65.39,49.36],[-65.77,49.33],[-66.0,49.53],[-66.92,49.24],[-67.15,49.44],[-65.9,50.18],[-64.9,50.03],[-64.73,50.26],[-65.57,50.63],[-65.96,50.61],[-66.13,50.38],[-68.15,49.56],[-68.3,49.33],[-69.72,48.76],[-69.86,48.53],[-69.62,48.34],[-69.76,48.11],[-70.63,47.79],[-70.76,47.56],[-70.52,47.38],[-70.65,47.15],[-71.5,46.83],[-71.74,47.01],[-72.1,46.96],[-72.22,46.73],[-73.97,45.83],[-74.08,45.6],[-75.01,45.67],[-75.26,45.84],[-76.05,45.49],[-76.9,45.77],[-77.24,45.71],[-77.33,45.48],[-76.49,45.2],[-76.43,44.57],[-77.35,44.61],[-77.6,44.78],[-78.35,44.42],[-78.78,44.98]]],[[[-5.01,43.61],[-5.05,43.37],[-4.79,43.21],[-3.95,43.23],[-3.91,43.47],[-4.16,43.63],[-5.01,43.61]]],[[[1.38,42.66],[-0.4,43.09],[-0.69,43.01],[-0.74,42.78],[1.33,42.43],[1.73,41.92],[2.25,41.87],[2.54,41.96],[2.43,42.57],[2.72,42.66],[2.78,42.89],[2.02,43.08],[1.38,42.66]]],[[[-63.48,49.47],[-63.65,49.25],[-63.44,49.05],[-63.06,49.07],[-62.89,49.29],[-61.92,49.12],[-61.75,49.34],[-62.54,49.73],[-63.52,49.9],[-63.73,50.1],[-63.56,50.32],[-63.77,50.53],[-64.16,50.51],[-64.34,50.28],[-64.12,50.08],[-64.29,49.86],[-63.48,49.47]]],[[[13.07,42.28],[13.3,42.12],[13.2,41.88],[13.97,41.6],[14.72,41.96],[14.81,42.19],[14.59,42.37],[13.84,42.01],[13.62,42.18],[13.58,42.81],[13.91,42.88],[14.0,43.11],[13.64,43.67],[13.31,43.61],[13.22,43.38],[13.45,43.21],[13.35,42.98],[13.03,42.92],[13.07,42.28]]],[[[12.62,44.11],[12.52,43.88],[12.76,43.71],[13.08,43.78],[13.18,44.01],[12.95,44.17],[12.62,44.11]]],[[[-66.19,44.67],[-66.34,44.45],[-66.13,44.26],[-65.79,44.29],[-64.17,45.24],[-63.29,45.09],[-63.13,45.3],[-63.32,45.5],[-63.67,45.48],[-63.86,45.67],[-63.71,45.89],[-63.35,45.91],[-63.16,45.71],[-62.27,45.56],[-62.09,45.36],[-62.76,44.92],[-62.57,44.72],[-62.23,44.74],[-61.05,45.41],[-60.19,45.64],[-60.02,46.26],[-60.73,46.65],[-61.09,46.64],[-61.24,46.02],[-62.11,45.77],[-62.32,46.38],[-63.78,46.71],[-64.02,47.33],[-64.39,47.3],[-64.59,47.5],[-64.43,47.72],[-64.64,47.92],[-64.48,48.14],[-64.11,48.16],[-63.94,48.39],[-64.2,49.01],[-64.58,48.98],[-64.74,48.76],[-64.53,48.56],[-64.69,48.34],[-65.59,48.06],[-65.81,48.26],[-66.18,48.23],[-66.33,48.01],[-66.12,47.81],[-65.75,47.84],[-65.48,47.23],[-66.14,46.75],[-65.93,46.56],[-66.02,45.93],[-66.38,45.9],[-66.59,46.09],[-66.94,46.06],[-67.08,45.83],[-66.87,45.65],[-66.52,45.68],[-66.31,45.49],[-66.46,45.27],[-67.36,45.39],[-67.5,45.17],[-67.85,45.14],[-67.98,44.91],[-67.77,44.73],[-68.38,44.25],[-68.17,44.07],[-67.83,44.1],[-66.74,44.83],[-65.91,45.11],[-65.82,45.74],[-65.47,45.76],[-65.32,45.98],[-64.96,46.01],[-64.76,45.82],[-64.91,45.6],[-65.26,45.57],[-65.36,44.95],[-66.19,44.67]]],[[[46.51,38.22],[47.13,38.58],[47.0,38.8],[46.24,38.66],[46.08,38.47],[46.22,38.25],[46.51,38.22]]],[[[-79.47,51.53],[-79.86,51.45],[-80.39,52.04],[-80.78,51.96],[-80.86,51.71],[-80.34,51.13],[-79.26,51.11],[-78.69,51.67],[-78.99,51.84],[-78.89,52.09],[-78.49,52.16],[-78.4,52.41],[-78.7,52.58],[-79.59,52.19],[-79.69,51.94],[-79.38,51.77],[-79.47,51.53]]],[[[93.14,53.12],[93.19,53.37],[92.18,53.59],[92.23,53.83],[91.9,53.99],[90.82,53.95],[90.77,53.71],[91.38,53.16],[93.14,53.12]]],[[[-68.93,44.4],[-70.2,43.83],[-71.22,43.08],[-71.0,42.9],[-70.68,42.95],[-69.65,43.69],[-68.85,43.99],[-68.72,44.21],[-68.93,44.4]]],[[[89.19,42.48],[89.46,42.34],[89.76,42.45],[89.79,42.7],[89.27,43.23],[88.97,43.12],[89.19,42.48]]],[[[-86.6,48.05],[-87.55,48.25],[-87.51,48.5],[-87.82,48.64],[-88.16,48.54],[-88.47,48.69],[-88.81,48.59],[-89.2,48.0],[-90.18,47.94],[-90.55,47.35],[-90.24,47.21],[-89.56,47.66],[-87.99,47.43],[-87.28,47.86],[-86.98,47.71],[-87.02,47.47],[-86.47,46.94],[-85.75,47.36],[-85.71,47.6],[-86.0,47.75],[-85.96,47.99],[-86.25,48.14],[-86.6,48.05]]],[[[33.14,40.48],[33.29,40.7],[33.61,40.71],[33.79,40.5],[34.58,40.73],[34.69,41.36],[34.51,41.56],[34.66,41.77],[34.99,41.78],[35.66,41.36],[35.98,41.36],[36.13,41.57],[34.96,42.19],[34.15,41.98],[33.97,42.18],[33.64,42.18],[33.5,41.97],[33.17,41.96],[32.99,42.16],[32.66,42.15],[31.1,41.26],[30.77,41.24],[30.69,40.6],[31.89,40.02],[32.22,40.03],[32.36,40.25],[33.18,40.06],[33.32,40.28],[33.14,40.48]],[[31.8,40.86],[31.62,41.07],[31.76,41.29],[32.09,41.3],[32.23,41.51],[32.56,41.52],[32.74,41.32],[32.13,40.88],[31.8,40.86]]],[[[105.64,52.14],[105.53,51.92],[105.77,51.74],[106.11,51.79],[106.68,52.28],[106.45,52.46],[106.1,52.42],[105.99,52.19],[105.64,52.14]]],[[[-10.09,54.16],[-10.44,54.08],[-10.47,53.85],[-9.84,53.35],[-9.57,52.75],[-8.91,52.69],[-8.88,52.92],[-9.49,53.43],[-9.46,53.66],[-9.79,53.8],[-9.76,54.02],[-8.73,54.04],[-8.31,54.57],[-8.63,54.71],[-9.38,54.33],[-9.71,54.47],[-10.06,54.38],[-10.09,54.16]]],[[[5.96,58.95],[6.05,59.14],[5.77,59.3],[5.12,59.44],[4.75,59.41],[4.66,59.22],[5.96,58.95]]],[[[-9.62,52.3],[-10.29,52.35],[-10.67,51.8],[-10.07,51.29],[-9.08,51.32],[-9.05,51.55],[-9.36,51.7],[-10.02,51.75],[-9.62,52.3]]],[[[-116.75,55.41],[-116.6,55.19],[-116.21,55.13],[-115.95,55.31],[-116.09,55.53],[-116.49,55.59],[-116.75,55.41]]],[[[35.53,61.14],[35.28,61.32],[34.84,61.28],[34.66,61.06],[35.61,60.75],[36.04,60.78],[36.22,61.0],[35.97,61.18],[35.53,61.14]]],[[[105.07,51.64],[105.18,51.87],[104.94,52.05],[104.59,51.99],[104.49,51.77],[104.73,51.59],[105.07,51.64]]],[[[-117.29,55.69],[-117.04,55.86],[-117.19,56.09],[-117.59,56.14],[-117.84,55.96],[-118.8,56.27],[-119.05,56.09],[-118.33,55.6],[-119.83,55.16],[-119.67,54.94],[-118.66,55.03],[-118.51,54.81],[-118.12,54.76],[-117.88,54.94],[-118.03,55.16],[-117.79,55.33],[-117.39,55.29],[-117.14,55.46],[-117.29,55.69]]],[[[22.44,37.94],[22.23,38.14],[21.91,38.1],[21.8,37.86],[22.0,37.67],[22.32,37.71],[22.44,37.94]]],[[[-68.54,45.06],[-68.41,45.29],[-68.62,45.47],[-68.97,45.43],[-69.1,45.21],[-68.8,44.62],[-68.46,44.66],[-68.33,44.88],[-68.54,45.06]]],[[[47.63,40.63],[47.32,40.65],[47.14,40.46],[47.28,40.24],[47.59,40.21],[47.76,40.4],[47.63,40.63]]],[[[-2.48,43.64],[-2.73,43.8],[-3.02,43.72],[-3.07,43.48],[-2.82,43.33],[-2.53,43.41],[-2.48,43.64]]],[[[-89.22,42.29],[-88.65,42.25],[-88.63,42.48],[-89.15,42.98],[-89.44,42.89],[-89.22,42.29]]],[[[103.74,52.29],[103.99,52.12],[104.35,52.17],[104.45,52.4],[103.6,52.7],[103.24,52.64],[103.14,52.41],[103.39,52.24],[103.74,52.29]]],[[[87.85,56.51],[87.45,56.41],[87.43,56.17],[87.79,56.02],[88.19,56.12],[88.22,56.37],[87.85,56.51]]],[[[47.52,37.92],[47.82,37.89],[47.99,38.08],[47.86,38.3],[47.56,38.33],[47.39,38.14],[47.52,37.92]]],[[[-119.49,50.75],[-119.42,50.15],[-118.87,50.27],[-118.94,50.87],[-119.49,50.75]]],[[[-81.32,52.54],[-81.72,52.46],[-81.8,52.21],[-81.48,52.05],[-81.09,52.13],[-81.01,52.37],[-81.32,52.54]]],[[[-109.0,40.49],[-109.3,40.58],[-109.55,40.43],[-109.51,40.2],[-108.95,40.26],[-109.0,40.49]]],[[[-8.9,55.29],[-8.93,55.07],[-8.24,55.01],[-8.21,55.23],[-8.54,55.37],[-8.9,55.29]]],[[[-118.18,41.68],[-118.49,41.75],[-118.73,41.58],[-118.66,41.36],[-118.12,41.46],[-118.18,41.68]]],[[[-116.05,50.83],[-116.28,50.66],[-116.16,50.44],[-115.58,50.55],[-115.7,50.77],[-116.05,50.83]]],[[[22.99,63.98],[22.9,63.76],[23.21,63.62],[24.12,63.99],[24.23,64.2],[23.5,64.27],[23.4,64.05],[22.99,63.98]]],[[[13.29,58.57],[13.41,58.76],[13.12,58.89],[12.59,58.64],[13.29,58.57]]],[[[86.68,56.45],[86.31,56.59],[85.91,56.48],[85.89,56.24],[86.27,56.1],[86.66,56.2],[86.68,56.45]]],[[[-62.59,50.58],[-62.99,50.57],[-63.16,50.34],[-62.95,50.14],[-62.56,50.16],[-62.38,50.38],[-62.59,50.58]]]]}}]}