{"type":"FeatureCollection","features":[{"type":"Feature","properties":{},"geometry":{"type":"MultiPolygon","coordinates":[[[[5.37,62.17],[5.96,62.55],[7.05,62.42],[7.16,62.6],[6.86,62.76],[6.97,62.94],[9.93,63.86],[10.62,64.26],[9.88,64.36],[5.26,62.69],[4.67,62.31],[5.37,62.17]]],[[[20.52,42.03],[20.41,41.8],[20.62,41.62],[20.95,41.66],[21.07,41.89],[20.85,42.08],[20.52,42.03]]],[[[-85.02,33.26],[-84.8,33.13],[-84.31,33.56],[-84.09,33.42],[-83.86,33.52],[-83.84,33.75],[-83.15,33.81],[-82.89,34.37],[-82.65,34.46],[-81.98,34.27],[-81.75,34.36],[-81.73,34.59],[-81.05,34.63],[-81.03,34.86],[-80.28,34.84],[-80.23,35.05],[-79.95,35.11],[-79.47,35.03],[-79.07,35.5],[-78.31,35.47],[-77.9,35.94],[-78.11,36.09],[-78.04,36.3],[-77.4,36.62],[-77.46,37.19],[-76.68,37.16],[-76.47,37.0],[-76.55,36.79],[-75.85,36.54],[-76.29,36.07],[-75.61,35.82],[-76.04,35.36],[-75.57,35.26],[-75.13,35.72],[-75.57,36.59],[-75.48,36.8],[-75.69,36.96],[-75.23,37.43],[-75.44,37.59],[-75.36,37.8],[-74.68,38.11],[-74.71,38.7],[-74.41,38.75],[-74.32,38.96],[-74.53,39.13],[-74.44,39.34],[-72.1,40.72],[-72.0,40.93],[-71.16,40.85],[-71.05,41.07],[-70.73,41.11],[-70.21,40.98],[-70.1,41.19],[-69.78,41.24],[-69.75,41.84],[-69.95,42.02],[-69.84,42.24],[-70.58,42.55],[-70.01,43.03],[-69.68,43.07],[-69.65,43.69],[-68.77,43.59],[-67.7,44.32],[-66.88,44.61],[-66.68,44.42],[-66.82,44.2],[-66.61,44.02],[-66.69,43.4],[-66.49,43.21],[-65.63,43.09],[-65.02,43.54],[-64.2,43.81],[-64.09,44.42],[-63.22,44.28],[-62.07,44.95],[-61.72,44.97],[-61.54,44.77],[-60.69,45.01],[-60.53,45.63],[-59.67,45.86],[-59.49,46.07],[-59.66,46.69],[-60.02,46.68],[-60.2,46.88],[-58.94,47.53],[-58.58,47.53],[-58.4,47.33],[-58.04,47.33],[-57.86,47.54],[-57.5,47.55],[-57.33,47.34],[-56.42,47.55],[-56.26,47.34],[-57.0,46.93],[-56.32,46.52],[-54.89,46.91],[-53.75,46.28],[-52.86,46.46],[-52.59,47.06],[-52.73,47.27],[-51.96,47.64],[-52.6,48.08],[-52.38,48.28],[-52.53,48.49],[-52.88,48.5],[-53.03,48.72],[-52.82,48.92],[-52.96,49.13],[-53.33,49.14],[-53.48,49.36],[-53.27,49.56],[-53.42,49.77],[-54.32,50.01],[-54.54,49.81],[-54.91,49.81],[-56.18,50.47],[-55.97,50.68],[-55.03,50.45],[-54.81,50.65],[-55.54,51.09],[-54.71,51.5],[-54.88,51.71],[-54.66,51.92],[-54.83,52.14],[-55.22,52.15],[-55.4,52.37],[-55.18,52.57],[-55.35,52.79],[-55.12,53.0],[-55.3,53.22],[-55.07,53.43],[-55.85,53.88],[-56.89,54.11],[-57.08,54.33],[-56.85,54.54],[-57.05,54.76],[-57.48,54.77],[-57.71,54.55],[-57.51,54.33],[-57.73,54.12],[-57.53,53.9],[-56.5,53.67],[-55.71,53.23],[-55.94,53.02],[-55.76,52.8],[-55.98,52.59],[-55.8,52.37],[-56.02,52.16],[-56.42,52.17],[-56.64,51.96],[-56.46,51.74],[-56.67,51.53],[-57.65,51.75],[-57.86,51.54],[-58.86,51.32],[-59.06,51.11],[-59.46,51.1],[-59.65,50.88],[-59.46,50.67],[-60.24,50.23],[-61.21,50.42],[-61.4,50.2],[-61.79,50.19],[-62.59,50.58],[-63.56,50.32],[-63.77,50.53],[-64.16,50.51],[-64.34,50.28],[-64.73,50.26],[-65.57,50.63],[-65.96,50.61],[-66.13,50.38],[-66.52,50.35],[-66.68,50.12],[-67.07,50.09],[-67.22,49.86],[-67.61,49.83],[-67.76,49.6],[-69.72,48.76],[-69.86,48.53],[-69.62,48.34],[-69.76,48.11],[-70.63,47.79],[-70.76,47.56],[-70.52,47.38],[-71.14,46.87],[-72.7,47.09],[-73.75,46.3],[-75.31,46.48],[-75.71,47.07],[-76.07,47.01],[-76.62,46.47],[-77.58,46.52],[-77.84,46.69],[-78.62,46.32],[-79.07,46.89],[-78.99,47.13],[-79.26,47.29],[-79.17,47.53],[-79.45,47.7],[-79.8,47.63],[-79.88,47.39],[-79.61,47.22],[-79.69,46.98],[-80.66,47.0],[-80.73,46.76],[-81.08,46.69],[-81.36,46.85],[-82.11,46.46],[-83.01,46.69],[-83.97,46.68],[-84.49,47.23],[-84.43,47.47],[-84.73,47.63],[-84.67,47.87],[-84.97,48.02],[-85.96,47.99],[-86.51,48.54],[-86.47,48.78],[-87.43,48.98],[-87.78,48.89],[-88.09,49.03],[-88.44,48.93],[-88.47,48.69],[-89.46,48.63],[-89.49,48.39],[-90.18,47.94],[-90.2,47.7],[-91.16,47.62],[-91.18,47.38],[-91.83,46.93],[-91.85,46.69],[-91.54,46.56],[-89.98,46.6],[-89.07,46.42],[-88.39,46.85],[-88.09,46.71],[-87.76,46.8],[-87.47,46.66],[-87.5,46.42],[-88.45,46.37],[-88.48,46.13],[-88.8,46.04],[-88.83,45.8],[-89.15,45.7],[-89.17,45.46],[-90.15,44.7],[-91.04,44.87],[-91.02,45.1],[-91.31,45.24],[-92.51,45.29],[-92.8,45.9],[-93.1,46.02],[-93.71,45.57],[-94.01,44.99],[-93.42,44.5],[-92.25,44.46],[-92.26,44.22],[-91.69,43.73],[-90.53,43.66],[-90.29,43.07],[-89.44,42.89],[-89.22,42.29],[-88.39,42.11],[-88.73,41.57],[-88.23,41.07],[-86.84,41.05],[-86.48,41.59],[-86.18,41.67],[-84.81,41.41],[-84.85,41.18],[-86.15,40.18],[-86.19,39.96],[-87.27,40.07],[-87.55,39.98],[-87.89,39.46],[-88.43,39.5],[-88.96,39.09],[-89.48,39.12],[-89.48,38.88],[-89.22,38.75],[-88.21,38.68],[-87.67,39.1],[-86.9,38.91],[-87.22,38.38],[-86.97,38.24],[-86.75,37.64],[-87.25,37.21],[-87.52,36.64],[-87.27,36.51],[-87.05,35.9],[-86.33,35.73],[-86.59,35.16],[-86.13,34.65],[-86.39,34.08],[-85.69,33.91],[-85.95,33.33],[-85.02,33.26]],[[-57.7,50.9],[-57.9,50.69],[-57.72,50.48],[-58.5,50.05],[-58.32,49.84],[-58.52,49.63],[-58.34,49.42],[-58.53,49.21],[-58.91,49.2],[-59.66,48.77],[-59.47,48.56],[-59.66,48.35],[-59.48,47.73],[-59.66,47.51],[-61.1,47.05],[-61.26,46.43],[-62.16,46.59],[-62.35,46.79],[-63.23,46.54],[-63.42,46.74],[-63.78,46.71],[-64.02,47.33],[-64.39,47.3],[-64.59,47.5],[-63.9,47.97],[-64.15,48.58],[-63.99,48.81],[-64.2,49.01],[-64.03,49.23],[-61.9,48.7],[-61.17,49.15],[-61.95,49.54],[-62.33,49.53],[-62.54,49.73],[-62.36,49.95],[-61.97,49.97],[-61.77,49.76],[-60.81,50.01],[-60.61,49.8],[-60.23,49.81],[-59.46,50.25],[-58.49,50.47],[-58.29,50.69],[-58.48,50.9],[-58.28,51.11],[-57.28,51.32],[-57.1,51.11],[-57.31,50.9],[-57.7,50.9]],[[-71.28,46.0],[-71.51,46.18],[-71.39,46.41],[-69.56,47.27],[-69.43,47.5],[-69.66,47.69],[-69.52,47.92],[-68.12,48.49],[-67.98,48.72],[-67.0,48.59],[-66.31,49.07],[-65.93,49.1],[-65.71,48.91],[-64.79,49.18],[-64.58,48.98],[-64.74,48.76],[-64.53,48.56],[-64.69,48.34],[-65.59,48.06],[-65.81,48.26],[-66.18,48.23],[-66.33,48.01],[-66.12,47.81],[-66.27,47.59],[-65.99,46.98],[-67.15,46.25],[-67.51,46.21],[-67.72,46.4],[-67.58,46.63],[-67.8,46.82],[-68.16,46.78],[-68.22,46.14],[-68.57,46.11],[-68.71,45.88],[-70.49,45.05],[-71.29,45.37],[-71.28,46.0]],[[-66.61,49.7],[-65.9,50.18],[-65.51,50.21],[-64.68,49.83],[-65.39,49.36],[-66.38,49.5],[-66.54,49.27],[-66.92,49.24],[-67.15,49.44],[-66.99,49.66],[-66.61,49.7]],[[-58.38,48.16],[-58.54,48.79],[-57.78,49.21],[-57.96,49.42],[-57.76,49.63],[-57.94,49.84],[-57.74,50.05],[-56.8,49.84],[-56.08,49.41],[-56.29,49.21],[-56.12,49.0],[-56.35,48.37],[-57.28,48.17],[-58.03,47.75],[-58.39,47.74],[-58.57,47.95],[-58.38,48.16]],[[-57.15,50.26],[-57.33,50.48],[-57.13,50.69],[-56.74,50.68],[-56.56,50.47],[-56.77,50.26],[-57.15,50.26]],[[-56.53,50.89],[-56.71,51.11],[-56.49,51.32],[-56.1,51.31],[-55.93,51.1],[-56.14,50.89],[-56.53,50.89]],[[-66.19,44.67],[-66.4,44.86],[-66.25,45.08],[-65.91,45.11],[-65.71,44.92],[-65.85,44.7],[-66.19,44.67]]],[[[-117.42,50.45],[-117.76,50.5],[-117.89,50.72],[-117.68,50.88],[-117.81,51.1],[-118.16,51.15],[-118.38,50.98],[-119.21,51.3],[-119.28,51.9],[-119.64,51.94],[-119.85,51.77],[-120.71,52.07],[-120.91,51.9],[-121.27,51.94],[-121.37,52.54],[-122.25,52.82],[-122.37,53.42],[-122.74,53.46],[-122.91,53.67],[-122.13,53.99],[-121.75,53.95],[-121.54,54.13],[-121.71,54.34],[-122.08,54.38],[-122.29,54.2],[-123.21,54.48],[-124.55,53.99],[-124.37,53.79],[-123.44,53.91],[-123.27,53.7],[-123.47,53.52],[-122.77,53.07],[-122.97,52.89],[-122.84,52.3],[-123.03,52.12],[-123.9,52.4],[-124.09,52.22],[-122.06,51.25],[-121.91,51.04],[-122.1,50.87],[-121.46,50.42],[-121.69,49.87],[-122.51,50.16],[-122.69,49.99],[-122.54,49.79],[-123.06,49.66],[-123.18,50.23],[-124.02,50.13],[-125.67,51.03],[-126.17,50.88],[-127.01,51.13],[-127.2,51.7],[-127.71,51.92],[-127.05,52.25],[-128.1,52.69],[-128.28,52.89],[-128.12,53.07],[-128.85,53.48],[-128.69,53.66],[-128.88,53.85],[-129.75,53.7],[-129.99,54.27],[-129.83,54.45],[-130.04,54.65],[-129.88,54.83],[-130.65,55.23],[-130.5,55.42],[-130.71,55.61],[-131.08,55.62],[-131.74,55.25],[-130.4,54.66],[-130.55,54.47],[-130.35,54.28],[-131.0,53.92],[-130.8,53.73],[-130.94,53.54],[-130.4,53.34],[-130.16,52.78],[-129.29,52.56],[-129.1,52.36],[-129.25,52.19],[-128.73,51.98],[-128.55,51.78],[-128.7,51.6],[-128.01,51.2],[-128.64,50.87],[-129.48,51.09],[-129.62,50.92],[-129.44,50.73],[-128.12,50.29],[-127.95,50.09],[-128.18,49.93],[-128.08,49.74],[-127.21,49.86],[-127.26,49.31],[-124.91,48.16],[-124.82,47.96],[-125.06,47.79],[-124.97,47.59],[-124.66,47.56],[-124.57,47.35],[-124.81,47.19],[-124.72,46.99],[-124.41,46.95],[-124.33,46.75],[-124.56,46.58],[-124.08,46.13],[-124.32,45.96],[-124.39,45.38],[-123.84,45.51],[-123.53,45.47],[-123.45,45.26],[-124.23,44.96],[-124.15,44.75],[-124.38,44.58],[-124.3,44.37],[-124.52,44.2],[-124.44,43.99],[-124.96,43.05],[-124.88,42.83],[-124.35,42.96],[-124.43,43.18],[-124.06,43.73],[-124.14,43.95],[-123.76,44.5],[-123.45,44.45],[-123.52,43.86],[-122.13,44.06],[-121.57,44.98],[-121.65,45.2],[-120.29,45.59],[-120.37,45.8],[-120.68,45.85],[-121.24,45.74],[-121.15,46.32],[-121.47,46.37],[-121.55,46.58],[-121.3,46.74],[-120.19,46.17],[-119.38,46.44],[-119.84,46.91],[-119.27,47.02],[-119.2,46.81],[-118.48,46.49],[-118.59,45.91],[-118.27,45.85],[-117.84,46.38],[-117.52,46.32],[-117.45,46.11],[-116.35,45.5],[-115.91,46.02],[-115.32,46.11],[-115.77,46.6],[-115.51,46.75],[-115.58,46.97],[-116.49,46.94],[-116.36,47.52],[-115.9,48.03],[-116.36,48.5],[-116.1,48.65],[-116.21,48.87],[-116.0,49.03],[-116.57,49.52],[-116.36,49.68],[-116.48,49.9],[-116.82,49.96],[-116.94,50.17],[-116.73,50.34],[-116.85,50.56],[-117.42,50.45]],[[-120.27,51.43],[-120.53,50.88],[-120.87,50.92],[-121.02,51.13],[-120.77,51.69],[-120.41,51.64],[-120.27,51.43]],[[-121.19,48.09],[-121.09,48.66],[-120.84,48.81],[-121.33,49.26],[-121.07,49.42],[-120.33,49.13],[-119.75,49.24],[-119.67,49.03],[-119.93,48.88],[-119.85,48.68],[-120.29,48.16],[-120.21,47.95],[-120.46,47.79],[-121.19,48.09]],[[-118.68,48.89],[-118.35,48.83],[-118.28,48.63],[-118.87,48.53],[-118.94,48.73],[-118.68,48.89]],[[-116.76,48.77],[-117.09,48.83],[-117.21,49.04],[-116.67,49.14],[-116.55,48.93],[-116.76,48.77]],[[-117.93,49.74],[-118.06,49.95],[-117.85,50.12],[-117.5,50.07],[-117.38,49.85],[-117.93,49.74]]],[[[8.88,40.27],[9.96,40.96],[10.05,41.2],[9.82,41.36],[9.51,41.29],[9.28,41.45],[9.76,41.99],[9.53,42.15],[9.61,42.38],[9.92,42.46],[11.24,42.11],[11.56,42.18],[11.79,42.02],[11.7,41.78],[12.47,41.52],[12.38,41.28],[12.61,41.11],[14.55,40.85],[14.89,40.27],[15.75,40.21],[15.85,40.44],[16.17,40.5],[16.27,40.73],[16.05,40.91],[15.73,40.85],[15.51,41.03],[15.61,41.26],[15.93,41.32],[16.15,41.14],[16.48,41.2],[16.46,41.84],[15.69,42.14],[14.81,42.19],[14.46,42.77],[14.13,42.71],[13.91,42.88],[14.0,43.11],[13.64,43.67],[13.74,43.9],[12.95,44.17],[13.04,44.4],[12.67,44.95],[12.77,45.18],[13.1,45.25],[13.33,45.08],[13.24,44.86],[14.04,44.59],[13.94,44.36],[14.17,44.2],[14.5,44.26],[14.86,43.69],[15.75,43.64],[15.98,43.47],[15.87,43.24],[16.66,42.94],[16.55,42.71],[16.78,42.54],[17.54,42.88],[17.77,42.7],[18.1,42.75],[18.43,42.16],[19.31,42.08],[19.42,42.31],[20.65,42.9],[20.77,43.13],[20.45,43.72],[20.11,43.67],[19.89,43.85],[20.0,44.08],[20.34,44.12],[20.57,43.94],[20.9,43.99],[20.92,44.62],[20.7,44.8],[19.9,44.48],[19.67,44.66],[20.25,45.16],[20.03,45.33],[20.15,45.56],[20.49,45.6],[20.61,45.82],[20.39,46.0],[20.51,46.22],[20.86,46.26],[20.98,46.48],[20.75,46.66],[20.87,46.87],[22.67,47.68],[22.8,47.89],[23.38,47.75],[23.25,47.53],[23.48,47.36],[23.35,47.14],[22.41,47.25],[22.28,47.03],[22.51,46.85],[21.91,46.38],[23.27,45.91],[23.62,45.95],[23.75,46.16],[23.44,46.74],[23.57,46.96],[24.41,47.24],[24.72,46.66],[25.07,46.69],[25.21,46.9],[24.9,47.48],[24.32,47.63],[24.46,47.84],[25.31,48.11],[25.62,47.54],[25.97,47.56],[26.03,48.17],[28.41,49.09],[28.56,49.3],[28.93,49.31],[29.14,49.13],[28.99,48.93],[29.78,48.56],[30.14,48.58],[30.29,48.78],[31.21,48.61],[31.88,49.01],[32.45,48.83],[32.8,48.83],[32.96,49.03],[33.52,48.84],[34.39,49.03],[34.94,48.83],[35.62,49.21],[35.4,49.79],[35.56,49.98],[36.45,49.8],[36.55,50.42],[36.89,50.43],[37.03,50.65],[36.3,51.02],[36.94,51.47],[36.74,51.66],[36.9,51.88],[37.76,52.12],[37.92,52.34],[37.68,52.95],[37.84,53.16],[39.84,53.87],[40.02,54.08],[40.98,53.9],[41.17,54.11],[41.55,54.12],[41.75,53.92],[42.13,53.92],[42.33,54.13],[42.71,54.14],[42.91,53.93],[43.3,53.94],[43.5,54.15],[43.31,54.35],[44.11,54.78],[43.92,54.99],[44.13,55.2],[45.16,55.41],[45.35,55.2],[45.75,55.19],[47.26,55.8],[48.28,55.57],[49.18,55.96],[49.01,56.18],[48.58,56.19],[47.18,56.86],[46.75,56.86],[46.52,56.66],[45.48,56.87],[45.25,56.66],[44.83,56.66],[43.38,57.27],[42.33,57.05],[42.12,57.25],[41.08,57.42],[40.86,57.62],[41.07,57.83],[40.85,58.03],[39.81,57.78],[39.59,57.98],[38.53,58.13],[38.35,57.91],[36.77,57.4],[36.54,57.59],[36.71,57.81],[36.48,57.99],[36.08,57.96],[35.85,58.15],[34.88,57.86],[34.64,58.05],[34.8,58.26],[34.56,58.44],[34.16,58.41],[33.92,58.59],[32.97,58.29],[32.73,58.47],[33.43,58.94],[33.18,59.12],[33.34,59.33],[33.75,59.37],[33.91,59.59],[33.66,59.77],[33.82,59.98],[33.56,60.16],[33.73,60.37],[32.79,60.68],[32.95,60.89],[32.69,61.07],[30.62,61.42],[29.65,61.1],[25.97,61.74],[22.2,62.04],[21.68,62.53],[22.23,63.04],[21.93,63.18],[22.01,63.39],[22.9,63.76],[23.61,63.7],[23.71,63.91],[22.27,64.04],[22.19,63.82],[21.31,63.45],[21.0,63.58],[21.08,63.8],[21.96,64.17],[22.05,64.39],[21.49,64.87],[21.08,64.78],[21.0,64.57],[21.32,64.44],[20.77,63.93],[19.67,63.89],[19.61,63.68],[19.23,63.6],[19.17,63.38],[18.79,63.3],[18.73,63.09],[17.55,62.4],[17.5,62.19],[16.47,61.93],[16.33,61.75],[16.63,61.63],[15.92,61.23],[16.21,61.1],[16.08,60.93],[14.92,60.95],[14.36,60.72],[14.23,60.54],[14.53,60.41],[14.4,60.23],[13.98,60.17],[12.54,60.3],[12.06,60.72],[10.99,60.23],[9.87,60.21],[8.84,59.69],[8.74,59.51],[9.03,59.39],[8.93,59.21],[7.54,58.6],[5.96,58.95],[6.51,59.35],[6.05,59.87],[6.15,60.06],[5.86,60.22],[5.96,60.41],[5.67,60.57],[5.77,60.76],[5.48,60.92],[5.57,61.11],[5.28,61.27],[5.38,61.45],[5.08,61.62],[5.17,61.8],[4.48,61.94],[4.39,61.75],[4.69,61.59],[4.11,61.2],[4.41,61.04],[4.32,60.85],[4.62,60.69],[4.53,60.5],[5.02,59.98],[4.46,59.58],[4.94,59.06],[4.85,58.86],[5.13,58.7],[5.05,58.51],[6.58,58.06],[6.49,57.87],[6.78,57.76],[6.69,57.56],[6.31,57.48],[5.69,57.62],[5.6,57.43],[5.24,57.4],[4.34,57.7],[3.54,57.43],[2.89,57.56],[2.38,57.12],[1.73,57.24],[0.93,56.95],[0.27,57.06],[0.21,56.86],[-0.16,56.81],[-0.82,56.92],[-0.88,56.71],[-1.67,56.4],[-1.98,56.55],[-1.49,57.02],[-1.8,57.18],[-1.74,57.38],[-1.37,57.43],[-1.3,57.64],[-3.0,58.0],[-2.5,58.46],[-2.82,58.61],[-2.76,58.81],[-1.49,59.37],[-1.42,59.57],[-1.03,59.61],[-0.97,59.81],[-0.58,59.85],[-0.51,60.05],[-0.83,60.2],[-0.76,60.4],[-0.37,60.44],[-0.3,60.64],[-0.62,60.79],[-0.55,60.99],[-1.28,61.1],[-1.35,60.9],[-2.67,60.37],[-2.74,60.17],[-1.68,59.92],[-2.2,59.47],[-2.92,59.57],[-3.75,59.26],[-4.48,59.36],[-4.53,59.15],[-3.48,58.91],[-3.53,58.71],[-4.97,58.89],[-5.79,58.56],[-6.51,58.64],[-6.56,58.43],[-6.94,58.37],[-7.67,58.44],[-7.71,58.23],[-7.36,58.09],[-7.4,57.88],[-7.78,57.81],[-7.82,57.6],[-7.48,57.46],[-7.52,57.25],[-7.89,57.17],[-8.34,56.67],[-7.3,56.46],[-7.33,56.25],[-6.72,55.74],[-6.76,55.52],[-8.5,55.59],[-8.54,55.37],[-9.29,54.99],[-9.32,54.77],[-8.99,54.63],[-9.02,54.41],[-10.75,54.44],[-10.77,54.21],[-10.44,54.08],[-10.84,53.54],[-10.21,53.03],[-10.24,52.81],[-10.95,52.4],[-10.97,52.17],[-10.65,52.03],[-10.38,51.43],[-8.77,51.18],[-8.07,51.58],[-8.03,51.81],[-7.39,51.74],[-7.42,51.51],[-7.76,51.43],[-7.52,50.83],[-8.22,50.43],[-7.99,49.82],[-8.67,49.41],[-8.7,49.18],[-8.4,49.03],[-8.78,48.47],[-8.49,48.32],[-8.26,47.7],[-9.26,46.95],[-9.29,46.71],[-9.94,46.28],[-9.96,46.04],[-10.87,45.98],[-10.62,45.35],[-8.57,45.07],[-8.26,45.17],[-8.24,45.41],[-7.34,45.44],[-6.97,46.01],[-6.66,46.1],[-6.39,45.95],[-6.42,45.71],[-5.58,45.5],[-4.92,45.9],[-4.88,46.14],[-4.58,46.22],[-3.74,45.99],[-3.08,46.38],[-1.96,46.22],[-1.3,45.28],[-1.35,45.05],[-1.65,44.97],[-1.7,44.74],[-1.45,44.58],[-1.5,44.35],[-1.8,44.27],[-1.65,43.64],[-1.94,43.57],[-3.82,43.95],[-4.46,43.54],[-8.1,44.05],[-8.73,43.61],[-9.0,43.76],[-9.3,43.66],[-9.65,43.07],[-8.88,42.14],[-9.22,41.55],[-8.96,41.41],[-8.74,40.77],[-9.34,40.31],[-9.13,39.67],[-9.41,39.57],[-9.67,39.71],[-9.96,39.61],[-9.98,39.36],[-9.72,39.21],[-9.74,38.97],[-9.01,38.04],[-9.33,37.43],[-8.85,36.9],[-7.02,36.88],[-6.77,36.74],[-6.8,36.49],[-6.15,35.56],[-5.38,35.62],[-5.04,36.2],[-4.77,36.3],[-4.54,36.15],[-3.97,36.59],[-3.24,36.38],[-2.97,36.47],[-2.93,36.71],[-2.17,36.74],[-2.31,37.38],[-2.54,37.53],[-3.31,37.5],[-3.35,37.26],[-3.62,37.17],[-4.36,37.37],[-4.94,36.94],[-5.68,37.14],[-5.65,37.38],[-5.89,37.53],[-6.68,37.48],[-6.93,37.62],[-6.9,37.87],[-6.62,37.97],[-6.38,37.82],[-6.1,37.92],[-6.07,38.17],[-5.79,38.27],[-5.55,38.12],[-5.27,38.21],[-5.24,38.46],[-4.96,38.55],[-4.72,38.4],[-4.45,38.5],[-4.41,38.74],[-4.13,38.83],[-3.9,38.68],[-3.62,38.77],[-3.58,39.01],[-3.3,39.1],[-3.07,38.95],[-2.47,39.36],[-1.73,39.14],[-1.14,39.55],[-0.91,39.39],[-0.96,39.15],[-0.24,38.92],[-0.29,38.69],[-0.88,38.28],[-0.92,38.05],[-0.7,37.89],[-0.43,37.97],[0.25,38.85],[-0.14,39.4],[-0.09,39.63],[0.84,40.34],[1.23,40.9],[2.02,40.94],[2.42,41.49],[3.23,41.53],[3.29,41.76],[3.59,41.85],[3.48,42.46],[3.25,42.6],[3.67,43.16],[5.04,43.13],[6.35,42.85],[7.05,43.24],[7.12,43.48],[7.98,43.48],[8.46,44.02],[8.77,44.1],[10.12,43.78],[10.03,43.55],[9.71,43.47],[9.63,43.24],[8.13,42.24],[8.21,41.61],[8.97,41.37],[8.89,41.14],[8.05,41.14],[7.97,40.91],[8.35,40.35],[8.27,40.12],[8.5,39.95],[8.8,40.03],[8.88,40.27]],[[25.3,59.64],[25.03,59.79],[25.13,60.01],[25.77,59.92],[25.67,59.7],[25.3,59.64]],[[18.21,62.36],[19.85,63.34],[19.92,63.55],[20.3,63.63],[20.62,63.5],[20.09,62.99],[20.4,62.86],[20.33,62.65],[20.63,62.51],[20.56,62.3],[20.86,62.16],[20.78,61.95],[21.3,61.46],[20.79,60.95],[19.7,60.49],[18.55,60.55],[18.11,60.99],[17.38,61.07],[18.1,61.46],[17.66,61.89],[18.15,62.15],[18.21,62.36]],[[10.51,58.81],[10.8,58.69],[10.69,58.5],[10.98,58.38],[10.87,58.19],[9.97,57.86],[9.0,58.03],[9.6,58.48],[9.31,58.6],[9.41,58.79],[10.51,58.81]],[[-7.37,47.5],[-7.65,47.65],[-7.62,47.88],[-7.02,47.82],[-6.8,47.2],[-7.4,47.26],[-7.37,47.5]],[[26.26,60.2],[26.91,60.1],[26.8,59.88],[26.42,59.82],[26.15,59.98],[26.26,60.2]],[[21.66,59.51],[22.37,59.4],[21.79,59.19],[21.64,59.01],[21.91,58.86],[21.19,58.47],[19.38,58.64],[18.97,59.11],[20.25,59.72],[21.66,59.51]]],[[[28.77,43.66],[28.85,44.29],[29.67,44.53],[29.81,44.75],[29.61,44.94],[28.3,44.46],[28.16,44.25],[28.36,44.05],[28.29,43.42],[28.49,43.23],[28.83,43.25],[28.97,43.46],[28.77,43.66]]],[[[-16.91,32.32],[-16.65,32.19],[-16.39,32.32],[-15.87,33.34],[-16.13,33.47],[-16.39,33.34],[-16.39,33.09],[-16.65,32.96],[-17.44,33.08],[-17.7,32.95],[-17.7,32.69],[-16.91,32.58],[-16.91,32.32]]],[[[-80.64,51.3],[-79.65,51.04],[-78.78,51.43],[-78.69,51.67],[-78.99,51.84],[-78.89,52.09],[-78.49,52.16],[-78.4,52.41],[-78.91,53.0],[-78.81,53.25],[-79.85,53.52],[-80.26,53.44],[-80.35,53.2],[-79.32,52.93],[-79.41,52.68],[-79.81,52.61],[-79.9,52.36],[-80.78,51.96],[-80.86,51.71],[-80.56,51.54],[-80.64,51.3]]],[[[1.35,39.2],[1.07,39.11],[1.02,38.87],[1.24,38.73],[1.52,38.82],[1.57,39.06],[1.35,39.2]]],[[[37.76,45.03],[37.43,45.04],[37.25,45.25],[37.9,45.63],[37.72,45.84],[36.89,45.65],[36.73,45.46],[35.88,45.67],[35.72,45.47],[35.38,45.47],[35.17,46.07],[35.82,46.47],[36.67,46.65],[36.85,46.45],[37.69,46.63],[37.88,46.03],[38.22,46.02],[38.37,46.61],[38.19,46.81],[38.35,47.0],[38.18,47.21],[37.33,47.03],[37.17,46.84],[36.3,47.06],[35.14,46.47],[34.79,46.47],[34.64,46.27],[34.82,46.07],[34.67,45.87],[34.86,45.67],[34.74,45.07],[33.15,45.66],[33.79,46.07],[33.6,46.27],[32.76,46.06],[30.92,46.82],[30.57,46.81],[30.42,46.6],[30.63,46.41],[30.48,46.2],[29.64,45.96],[29.49,45.75],[29.75,45.15],[30.64,44.99],[30.79,45.2],[30.04,45.57],[30.19,45.78],[30.53,45.8],[31.18,46.22],[32.07,46.04],[32.26,45.85],[32.16,45.24],[32.35,45.04],[32.7,45.05],[32.93,44.44],[33.27,44.44],[33.98,44.04],[34.31,44.05],[34.46,44.25],[34.8,44.25],[36.42,45.06],[39.27,43.98],[39.43,44.18],[39.26,44.38],[37.76,45.03]]],[[[4.47,40.17],[4.25,40.32],[3.96,40.23],[3.89,40.0],[4.12,39.85],[4.41,39.93],[4.47,40.17]]],[[[-9.24,57.95],[-9.27,57.73],[-8.92,57.6],[-8.13,57.95],[-8.09,58.16],[-8.82,58.23],[-8.86,58.02],[-9.24,57.95]]],[[[173.76,-40.92],[173.79,-41.16],[174.08,-41.25],[174.33,-41.1],[174.3,-40.86],[174.01,-40.77],[173.76,-40.92]]],[[[-24.79,37.69],[-25.41,38.17],[-26.24,37.98],[-26.21,37.72],[-25.92,37.62],[-25.88,37.36],[-24.95,36.52],[-24.69,36.67],[-25.03,37.29],[-24.77,37.44],[-24.79,37.69]]],[[[-17.63,28.37],[-17.39,28.5],[-17.39,28.75],[-17.9,29.25],[-18.15,29.12],[-18.14,28.86],[-17.63,28.37]]],[[[-131.59,52.27],[-131.73,52.09],[-131.54,51.9],[-130.69,51.69],[-130.6,52.24],[-131.32,52.63],[-131.23,53.18],[-131.43,53.37],[-131.98,53.56],[-131.84,53.75],[-132.04,53.94],[-132.39,53.94],[-132.46,53.39],[-131.71,53.01],[-131.85,52.82],[-131.59,52.27]]],[[[9.72,40.25],[9.41,40.18],[9.33,39.94],[9.55,39.78],[9.86,39.85],[9.94,40.09],[9.72,40.25]]],[[[-176.2,-43.62],[-176.5,-43.53],[-176.73,-43.67],[-176.67,-43.9],[-176.13,-43.85],[-176.2,-43.62]]],[[[40.41,43.33],[39.76,43.76],[39.44,43.77],[39.28,43.57],[40.41,42.92],[40.73,42.91],[40.89,43.1],[40.73,43.31],[40.41,43.33]]],[[[23.36,45.51],[23.14,45.69],[22.23,45.8],[22.1,45.58],[22.32,45.4],[21.73,44.92],[21.95,44.74],[22.29,44.78],[23.36,45.51]]],[[[-116.86,44.15],[-117.11,43.99],[-117.04,43.77],[-116.48,43.87],[-116.54,44.09],[-116.86,44.15]]],[[[-124.41,41.53],[-124.63,41.36],[-124.18,40.88],[-123.66,41.0],[-124.11,41.49],[-123.89,41.66],[-123.97,41.88],[-124.27,41.93],[-124.34,42.14],[-124.12,42.31],[-124.2,42.53],[-124.5,42.58],[-124.87,42.01],[-124.41,41.53]]],[[[-61.65,47.24],[-61.29,47.26],[-61.11,47.47],[-61.32,48.09],[-61.69,48.08],[-62.4,47.63],[-62.18,47.01],[-61.82,47.03],[-61.65,47.24]]],[[[-2.18,38.1],[-2.41,38.25],[-2.69,38.16],[-2.73,37.92],[-2.5,37.77],[-2.23,37.86],[-2.18,38.1]]],[[[-113.98,49.25],[-113.62,49.79],[-113.73,50.01],[-113.49,50.17],[-113.6,50.39],[-113.36,50.55],[-113.47,50.78],[-113.23,50.94],[-113.81,51.45],[-113.56,51.62],[-113.68,51.84],[-112.81,52.1],[-112.92,52.33],[-112.67,52.49],[-112.78,52.72],[-112.52,52.88],[-112.63,53.11],[-112.21,53.67],[-112.82,54.2],[-113.21,54.26],[-113.62,53.7],[-114.0,53.76],[-114.89,53.49],[-113.78,52.69],[-114.03,52.52],[-115.01,52.48],[-115.37,51.93],[-115.25,51.7],[-114.89,51.64],[-114.89,51.03],[-114.53,50.97],[-114.42,50.75],[-114.65,50.59],[-114.08,50.08],[-114.43,49.54],[-114.32,49.32],[-113.98,49.25]]],[[[172.65,-43.12],[172.14,-43.66],[172.17,-43.9],[172.47,-44.0],[173.31,-43.79],[173.27,-43.55],[172.65,-43.12]]],[[[-60.07,53.46],[-59.65,53.46],[-59.44,53.68],[-59.65,53.9],[-60.07,53.89],[-60.28,53.67],[-60.07,53.46]]],[[[2.24,39.71],[2.19,39.47],[2.92,39.26],[3.54,39.67],[3.61,39.91],[2.87,40.12],[2.24,39.71]]],[[[-115.44,49.13],[-114.88,49.22],[-115.0,49.44],[-114.77,49.6],[-115.34,50.1],[-115.69,50.16],[-115.7,50.77],[-116.05,50.83],[-116.38,50.28],[-116.26,50.06],[-115.91,50.0],[-115.79,49.78],[-116.02,49.62],[-115.44,49.13]]],[[[171.35,-44.34],[171.65,-44.44],[171.93,-44.29],[171.9,-44.05],[171.6,-43.95],[171.32,-44.1],[171.35,-44.34]]],[[[-123.36,39.26],[-123.44,39.49],[-123.95,39.37],[-123.87,39.14],[-123.58,39.09],[-123.36,39.26]]],[[[-6.84,62.49],[-7.26,62.43],[-7.76,61.97],[-7.39,61.84],[-7.43,61.64],[-7.06,61.5],[-7.1,61.3],[-6.33,61.22],[-6.28,61.42],[-6.65,61.56],[-6.6,61.76],[-5.72,62.07],[-5.67,62.26],[-6.37,62.74],[-6.79,62.68],[-6.84,62.49]]],[[[-105.52,40.08],[-105.49,39.84],[-104.53,39.06],[-104.04,39.58],[-104.74,40.5],[-105.3,40.46],[-105.26,40.22],[-105.52,40.08]]],[[[-72.74,-36.54],[-72.41,-35.85],[-72.66,-35.79],[-73.08,-36.26],[-73.08,-36.84],[-72.82,-36.91],[-72.65,-36.75],[-72.74,-36.54]]],[[[20.12,-34.37],[20.0,-34.57],[19.72,-34.58],[19.27,-34.4],[19.1,-34.21],[19.22,-34.01],[18.61,-33.64],[18.33,-33.65],[17.82,-34.04],[19.77,-34.96],[20.45,-34.74],[20.57,-34.55],[20.12,-34.37]]],[[[-73.69,-37.66],[-73.25,-37.58],[-73.25,-36.99],[-73.68,-37.08],[-73.69,-37.66]]],[[[-65.07,32.11],[-64.31,32.52],[-64.73,32.66],[-65.11,32.44],[-65.22,32.26],[-65.07,32.11]]],[[[-30.73,39.22],[-31.14,39.82],[-31.45,39.91],[-31.71,39.75],[-31.3,39.16],[-30.99,39.07],[-30.73,39.22]]],[[[172.67,-41.02],[173.02,-41.61],[173.31,-41.7],[173.57,-41.55],[173.22,-40.97],[172.93,-40.87],[172.67,-41.02]]],[[[-11.92,-37.27],[-12.04,-37.03],[-12.35,-36.99],[-12.56,-37.19],[-12.45,-37.43],[-12.13,-37.47],[-11.92,-37.27]]],[[[-26.67,39.1],[-27.55,39.16],[-27.58,39.41],[-27.89,39.52],[-28.15,39.36],[-28.12,39.11],[-28.95,38.9],[-29.13,38.24],[-27.14,38.29],[-26.64,38.85],[-26.67,39.1]]],[[[21.66,-34.11],[21.37,-34.12],[21.26,-34.32],[21.42,-34.51],[21.71,-34.5],[21.83,-34.3],[21.66,-34.11]]],[[[175.4,-40.98],[175.37,-40.74],[175.08,-40.65],[174.62,-41.19],[174.66,-41.44],[174.94,-41.53],[175.19,-41.38],[175.16,-41.13],[175.4,-40.98]]],[[[-73.08,-39.79],[-72.9,-39.63],[-73.26,-39.35],[-73.44,-39.51],[-73.35,-39.73],[-73.08,-39.79]]],[[[-18.23,63.24],[-17.8,63.33],[-17.71,63.56],[-18.51,63.6],[-18.59,63.37],[-18.23,63.24]]],[[[-124.84,40.35],[-124.17,40.04],[-124.1,39.81],[-123.58,39.94],[-124.4,40.7],[-124.7,40.75],[-124.91,40.57],[-124.84,40.35]]],[[[173.89,-41.89],[173.41,-42.43],[173.44,-42.67],[173.73,-42.77],[173.99,-42.62],[173.96,-42.37],[174.44,-41.83],[174.4,-41.59],[174.11,-41.5],[173.86,-41.65],[173.89,-41.89]]],[[[-60.0,44.23],[-60.17,44.02],[-60.51,44.01],[-60.67,43.8],[-60.5,43.61],[-59.67,43.84],[-59.5,44.04],[-59.67,44.24],[-60.0,44.23]]],[[[176.42,-40.61],[176.14,-40.53],[175.9,-40.68],[175.73,-41.31],[176.02,-41.4],[176.26,-41.25],[176.42,-40.61]]],[[[-113.93,47.65],[-113.99,47.86],[-114.58,47.78],[-114.52,47.57],[-114.19,47.5],[-113.93,47.65]]],[[[-13.37,57.69],[-13.35,57.91],[-13.72,58.04],[-14.1,57.95],[-14.11,57.73],[-13.37,57.69]]],[[[-110.04,49.45],[-109.79,49.6],[-109.87,49.83],[-110.47,49.76],[-110.38,49.53],[-110.04,49.45]]],[[[-81.09,52.13],[-80.52,52.7],[-81.56,52.96],[-81.96,52.88],[-82.04,52.63],[-81.72,52.46],[-81.8,52.21],[-81.48,52.05],[-81.09,52.13]]],[[[-5.99,59.32],[-6.38,59.26],[-6.43,59.06],[-5.69,58.97],[-5.65,59.18],[-5.99,59.32]]],[[[10.13,63.59],[10.9,63.55],[11.02,63.72],[10.7,63.82],[10.13,63.59]]],[[[-71.97,48.49],[-71.6,48.54],[-71.47,48.77],[-71.72,48.96],[-72.09,48.91],[-72.22,48.67],[-71.97,48.49]]]]}}]}