{"type":"FeatureCollection","features":[{"type":"Feature","properties":{},"geometry":{"type":"MultiPolygon","coordinates":[[[[171.34,6.95],[171.93,6.86],[172.33,7.26],[170.91,7.43],[170.88,6.89],[171.34,6.95]]],[[[78.8,2.14],[79.83,2.44],[80.89,3.72],[81.52,3.81],[82.63,5.61],[82.68,7.35],[81.48,9.65],[80.02,10.57],[79.18,10.09],[77.91,8.4],[77.09,8.43],[75.91,10.64],[76.12,11.24],[74.93,12.46],[75.13,13.06],[74.54,13.89],[74.74,14.5],[73.36,16.71],[73.56,17.31],[72.97,18.11],[72.97,16.7],[73.56,15.89],[73.36,15.3],[73.95,15.19],[73.75,14.59],[74.34,14.49],[74.14,13.89],[74.73,13.06],[74.53,12.45],[74.92,11.73],[74.33,11.61],[73.94,12.09],[71.24,12.07],[70.3,11.24],[67.76,10.97],[67.42,10.51],[65.19,9.91],[64.87,9.24],[64.38,9.13],[63.46,6.94],[63.96,5.75],[70.12,1.94],[71.83,1.9],[72.2,1.41],[76.79,1.09],[78.8,2.14]],[[79.97,8.34],[80.19,8.95],[79.79,9.7],[80.43,9.81],[81.84,7.39],[81.38,6.42],[80.53,5.96],[79.73,7.23],[79.97,8.34]]],[[[-180.0,-24.99],[-178.38,-24.61],[-177.85,-24.99],[-175.92,-24.44],[-175.37,-24.82],[-174.73,-24.55],[-172.64,-25.33],[-171.99,-25.04],[-166.86,-26.45],[-165.92,-26.2],[-161.93,-27.18],[-160.8,-26.69],[-160.14,-27.02],[-159.02,-26.52],[-156.63,-27.09],[-155.99,-26.72],[-153.13,-27.07],[-152.33,-27.6],[-151.7,-27.22],[-148.84,-27.47],[-147.34,-26.69],[-146.66,-26.96],[-143.51,-25.38],[-142.83,-25.63],[-141.6,-25.03],[-139.99,-24.23],[-139.85,-23.59],[-138.04,-22.79],[-137.92,-22.16],[-136.8,-21.56],[-136.16,-22.2],[-136.07,-21.16],[-134.75,-20.57],[-134.65,-19.96],[-133.37,-19.38],[-132.97,-18.18],[-132.41,-17.99],[-131.41,-16.06],[-131.49,-14.9],[-131.95,-14.5],[-132.29,-12.58],[-133.47,-10.63],[-135.43,-9.36],[-136.02,-9.49],[-136.68,-8.87],[-137.28,-9.0],[-138.25,-8.14],[-138.86,-8.27],[-139.55,-7.62],[-140.16,-7.75],[-140.86,-7.09],[-142.89,-7.06],[-143.52,-6.59],[-144.07,-6.92],[-147.5,-6.31],[-149.16,-6.7],[-149.73,-6.43],[-150.67,-6.91],[-151.25,-6.63],[-152.18,-7.11],[-152.75,-6.83],[-154.84,-7.74],[-155.42,-7.46],[-157.54,-8.35],[-158.11,-8.07],[-160.66,-9.09],[-161.22,-8.8],[-167.45,-11.01],[-174.91,-9.75],[-175.22,-9.28],[-176.08,-9.1],[-178.89,-10.06],[-179.34,-9.76],[-180.0,-10.0],[-180.0,-24.99]]],[[[180.0,-10.0],[179.94,-9.01],[179.68,-9.73],[179.15,-10.0],[178.72,-9.7],[177.83,-10.07],[177.4,-9.77],[176.53,-10.13],[175.03,-9.92],[174.71,-10.31],[171.32,-10.42],[170.97,-10.82],[166.63,-10.65],[166.61,-10.03],[166.02,-10.31],[165.61,-9.87],[165.43,-10.81],[164.42,-10.87],[164.01,-10.42],[162.58,-10.45],[161.77,-9.97],[161.99,-9.46],[161.59,-9.02],[161.18,-9.41],[161.37,-9.95],[160.96,-9.92],[160.77,-9.38],[161.4,-8.48],[160.88,-8.31],[160.64,-7.58],[159.43,-8.94],[158.68,-8.85],[158.39,-8.35],[157.92,-8.76],[158.06,-8.07],[157.55,-7.65],[158.15,-7.61],[158.94,-8.53],[159.52,-8.49],[159.82,-7.94],[159.16,-7.39],[157.43,-7.28],[157.0,-6.39],[156.01,-6.37],[155.71,-5.84],[155.35,-6.64],[155.05,-6.11],[155.36,-5.55],[154.66,-4.96],[154.39,-5.28],[154.91,-6.82],[155.48,-7.02],[155.17,-7.57],[155.74,-7.77],[156.48,-7.03],[156.48,-8.1],[153.49,-7.83],[153.18,-7.3],[152.15,-7.28],[151.83,-6.74],[150.6,-6.56],[151.6,-5.72],[152.24,-5.7],[152.55,-5.13],[153.18,-5.1],[154.04,-3.88],[153.32,-3.27],[152.65,-3.53],[152.96,-2.96],[152.65,-2.41],[151.33,-2.69],[149.48,-1.11],[149.34,-1.85],[149.94,-2.08],[149.62,-2.66],[150.45,-2.8],[150.78,-3.35],[152.01,-3.55],[150.64,-5.21],[150.32,-4.66],[149.54,-5.41],[149.67,-4.68],[149.07,-4.46],[148.7,-5.28],[146.59,-4.95],[146.25,-4.39],[145.59,-4.41],[144.82,-3.78],[144.53,-2.96],[143.67,-2.82],[143.14,-3.24],[142.52,-3.01],[142.23,-3.35],[144.39,-3.71],[146.6,-6.08],[147.86,-6.28],[146.88,-6.87],[146.98,-7.51],[148.15,-8.18],[148.39,-9.19],[149.5,-10.06],[147.61,-9.93],[147.32,-9.16],[146.71,-8.95],[146.61,-8.32],[145.85,-7.71],[144.15,-7.45],[143.35,-8.2],[143.45,-8.83],[142.5,-9.18],[140.78,-8.91],[140.28,-7.96],[139.42,-7.82],[138.9,-8.24],[138.27,-8.01],[138.83,-7.35],[139.01,-6.37],[138.38,-6.14],[138.27,-5.49],[137.48,-4.85],[136.37,-4.79],[136.02,-4.22],[134.04,-4.0],[133.69,-3.43],[133.17,-3.85],[132.86,-3.03],[133.82,-2.68],[133.7,-2.02],[132.12,-2.13],[131.81,-1.3],[131.1,-1.56],[130.94,-1.15],[132.17,-0.46],[133.91,-0.77],[134.26,-1.34],[133.94,-1.93],[134.25,-2.76],[135.47,-3.48],[137.85,-1.44],[138.2,-2.02],[139.32,-2.08],[139.66,-2.66],[141.84,-3.03],[142.13,-2.69],[140.82,-2.47],[140.47,-1.89],[139.95,-2.32],[139.6,-1.74],[138.48,-1.68],[138.13,-1.1],[137.02,-1.04],[134.45,1.09],[130.09,1.83],[129.15,1.47],[128.8,2.05],[129.11,2.64],[128.49,2.87],[127.28,2.17],[128.41,0.96],[127.74,0.94],[127.16,1.43],[127.28,0.77],[126.78,0.34],[126.89,-0.31],[126.4,-0.73],[126.24,-1.72],[124.5,-1.9],[123.59,-0.86],[123.48,-1.59],[124.05,-2.07],[122.85,-1.6],[123.15,-2.4],[123.97,-2.55],[124.46,-2.14],[125.07,-2.38],[125.75,-2.13],[126.1,-4.07],[125.42,-5.68],[124.51,-6.0],[124.62,-5.28],[123.76,-5.36],[123.61,-3.6],[122.86,-2.96],[122.34,-3.6],[123.35,-3.92],[122.95,-5.19],[123.69,-5.83],[123.81,-6.47],[123.18,-6.46],[122.66,-7.08],[122.11,-6.6],[122.22,-7.23],[121.35,-7.52],[121.3,-6.44],[120.36,-5.88],[120.22,-6.81],[120.95,-7.44],[120.67,-7.97],[119.81,-8.26],[118.08,-7.75],[118.98,-7.01],[119.58,-7.03],[118.9,-6.17],[118.8,-6.86],[118.03,-6.69],[117.55,-7.28],[116.96,-7.27],[117.21,-8.25],[115.13,-7.88],[115.65,-8.34],[115.42,-8.63],[114.87,-8.43],[114.6,-7.53],[115.05,-7.1],[116.17,-7.32],[116.26,-6.64],[111.96,-6.75],[112.12,-7.1],[112.9,-7.13],[112.82,-7.81],[114.37,-7.86],[113.9,-8.51],[113.18,-8.05],[112.31,-8.69],[114.25,-8.74],[114.58,-9.19],[115.02,-8.76],[115.76,-8.94],[115.9,-9.32],[113.1,-10.15],[112.84,-10.69],[112.24,-10.78],[112.36,-11.33],[111.65,-12.28],[109.95,-13.33],[108.73,-15.1],[106.37,-16.4],[104.92,-16.68],[102.7,-20.77],[103.09,-22.67],[102.77,-23.15],[102.94,-24.73],[104.54,-26.95],[105.12,-26.99],[106.07,-28.43],[106.64,-28.46],[107.15,-29.02],[107.39,-30.06],[108.31,-30.55],[108.32,-31.07],[109.72,-31.97],[113.1,-32.77],[115.95,-32.55],[116.16,-31.72],[115.0,-30.27],[115.25,-29.16],[114.17,-27.77],[115.07,-26.69],[114.97,-25.46],[115.37,-25.05],[114.67,-24.28],[115.36,-23.3],[115.22,-22.98],[116.01,-22.84],[116.3,-21.0],[117.62,-21.27],[117.89,-20.85],[118.47,-20.91],[119.21,-20.0],[120.83,-20.01],[122.81,-17.98],[122.27,-17.53],[122.55,-17.05],[123.65,-17.96],[124.64,-17.1],[124.63,-15.88],[125.37,-15.26],[125.26,-14.67],[125.89,-14.69],[126.19,-14.18],[127.51,-14.0],[128.0,-14.9],[129.26,-15.15],[129.76,-14.79],[129.65,-14.19],[130.42,-13.53],[130.58,-12.62],[131.51,-12.32],[132.13,-12.55],[132.91,-11.86],[136.11,-12.54],[136.63,-12.14],[136.78,-12.53],[135.71,-13.54],[135.82,-14.14],[135.31,-14.53],[135.42,-15.12],[136.77,-16.15],[137.43,-16.14],[138.36,-17.08],[139.02,-17.07],[139.33,-17.58],[140.58,-17.79],[141.11,-17.4],[141.87,-14.84],[142.3,-14.9],[142.59,-15.64],[143.95,-15.36],[144.28,-15.86],[144.8,-15.47],[144.7,-14.88],[145.12,-14.93],[145.56,-16.03],[145.23,-16.57],[146.15,-17.52],[145.83,-18.07],[146.29,-19.21],[147.17,-19.33],[148.61,-20.35],[148.91,-21.37],[149.58,-21.57],[149.43,-22.54],[150.4,-22.4],[150.91,-23.83],[152.48,-24.87],[153.07,-26.06],[152.75,-26.67],[153.18,-27.22],[152.86,-27.83],[153.51,-28.78],[153.18,-29.39],[153.39,-29.8],[152.81,-30.26],[152.9,-31.69],[150.71,-33.94],[150.88,-34.61],[150.27,-35.06],[150.43,-35.73],[150.1,-36.08],[150.35,-36.24],[151.31,-35.43],[151.1,-35.02],[151.46,-34.41],[152.6,-34.0],[153.39,-34.2],[153.99,-33.73],[155.31,-33.95],[155.9,-33.47],[157.22,-33.68],[159.95,-32.51],[160.24,-31.88],[162.07,-31.03],[164.34,-27.39],[165.3,-26.9],[166.03,-27.02],[166.5,-26.52],[174.18,-26.42],[174.57,-25.91],[176.57,-25.9],[176.93,-25.4],[180.0,-24.99],[180.0,-10.0]]],[[[97.57,4.89],[98.62,4.17],[98.05,5.37],[96.48,5.36],[95.43,6.34],[94.95,5.86],[95.09,4.69],[95.82,5.53],[96.23,4.99],[97.57,4.89]]],[[[-94.88,18.21],[-92.89,18.19],[-92.45,18.71],[-91.57,18.25],[-91.14,19.0],[-90.49,19.15],[-90.71,19.75],[-89.83,21.25],[-86.81,21.27],[-87.04,20.67],[-87.68,20.54],[-87.5,19.22],[-88.35,18.72],[-88.38,17.03],[-89.02,15.93],[-88.2,15.49],[-87.78,15.98],[-87.38,15.52],[-86.17,15.56],[-85.75,16.04],[-85.37,15.58],[-84.37,15.72],[-83.61,15.28],[-83.33,14.1],[-83.9,13.31],[-83.64,12.78],[-84.14,11.07],[-82.94,9.44],[-82.29,9.37],[-82.23,8.68],[-80.32,8.92],[-80.57,9.25],[-81.42,9.2],[-80.63,9.93],[-79.98,9.86],[-79.92,9.17],[-79.54,9.66],[-79.3,9.33],[-80.71,8.43],[-80.2,7.53],[-80.83,7.37],[-81.54,8.14],[-83.06,8.39],[-83.81,9.61],[-85.54,9.95],[-85.8,10.5],[-85.43,11.2],[-86.07,11.27],[-87.03,12.75],[-87.65,12.82],[-87.43,13.41],[-88.85,13.46],[-89.05,13.09],[-88.24,13.14],[-87.85,12.46],[-87.21,12.4],[-86.04,10.82],[-86.21,10.24],[-85.49,9.26],[-84.88,9.65],[-83.99,9.26],[-83.92,8.33],[-82.6,7.96],[-81.87,6.95],[-80.15,7.06],[-79.77,7.55],[-79.83,8.25],[-78.07,7.65],[-78.16,8.58],[-79.05,8.99],[-78.87,9.35],[-78.23,9.27],[-77.96,8.71],[-76.63,8.09],[-77.39,9.32],[-79.12,9.68],[-78.94,10.03],[-76.25,10.51],[-75.71,9.4],[-75.35,9.87],[-75.61,10.42],[-74.83,10.91],[-74.37,10.48],[-74.04,11.16],[-72.46,11.65],[-71.76,10.9],[-72.22,9.66],[-71.52,8.9],[-70.77,9.38],[-71.49,10.36],[-71.36,10.92],[-69.02,11.41],[-68.1,10.34],[-66.36,10.48],[-64.93,9.79],[-64.62,10.31],[-62.92,10.62],[-62.42,9.83],[-61.2,9.66],[-60.71,9.08],[-60.83,8.47],[-59.58,8.27],[-58.83,7.37],[-58.25,7.61],[-58.9,7.83],[-59.43,8.66],[-60.04,8.64],[-61.02,9.82],[-60.76,10.8],[-60.19,11.04],[-60.47,11.55],[-62.16,10.81],[-62.6,11.15],[-63.74,10.87],[-63.83,11.52],[-64.74,11.18],[-64.65,10.53],[-65.39,10.39],[-66.22,10.81],[-68.15,10.78],[-67.46,11.44],[-65.77,11.78],[-66.8,12.3],[-65.38,14.38],[-65.58,15.8],[-66.0,16.1],[-65.97,17.23],[-66.42,17.77],[-65.84,17.58],[-65.53,18.07],[-64.08,18.49],[-64.53,18.97],[-64.84,18.48],[-65.26,18.76],[-66.28,18.05],[-67.23,18.17],[-65.98,18.55],[-66.56,18.73],[-67.1,19.88],[-67.21,20.62],[-66.89,20.97],[-67.23,21.98],[-66.91,22.32],[-67.45,23.39],[-67.83,26.58],[-67.13,27.45],[-67.37,28.21],[-65.36,31.23],[-65.59,32.05],[-64.31,32.52],[-65.26,32.6],[-65.43,35.24],[-66.59,36.4],[-68.74,36.89],[-69.47,37.56],[-70.21,40.98],[-69.66,41.45],[-70.04,42.42],[-70.91,42.51],[-70.83,41.5],[-72.1,41.32],[-72.85,41.62],[-74.0,41.03],[-74.26,39.77],[-75.48,39.56],[-75.1,38.43],[-75.56,37.95],[-76.63,38.74],[-76.23,37.63],[-76.68,37.16],[-75.85,36.54],[-76.65,35.81],[-75.81,35.97],[-75.69,35.62],[-76.8,35.4],[-77.09,34.59],[-77.84,34.62],[-79.44,33.05],[-80.09,33.01],[-80.36,32.46],[-81.27,32.1],[-81.1,31.49],[-81.83,30.51],[-80.52,28.16],[-80.6,27.23],[-81.47,26.82],[-82.08,26.98],[-82.78,29.4],[-83.42,29.57],[-83.82,30.31],[-84.73,29.9],[-85.61,30.43],[-89.31,30.6],[-89.79,30.12],[-89.79,29.38],[-91.21,29.41],[-91.69,29.91],[-94.84,29.77],[-95.35,30.27],[-96.04,29.12],[-97.48,28.57],[-98.58,26.61],[-98.05,25.88],[-98.25,25.23],[-97.74,24.75],[-98.06,22.18],[-97.56,21.7],[-97.75,21.06],[-96.02,18.52],[-95.12,18.57],[-94.88,18.21]],[[-82.96,23.12],[-79.75,22.97],[-79.24,22.13],[-77.9,22.17],[-76.54,20.95],[-74.78,20.61],[-74.65,20.27],[-75.05,19.86],[-77.2,19.98],[-77.12,20.65],[-78.57,21.18],[-78.88,21.88],[-80.24,21.83],[-80.6,22.31],[-81.6,22.24],[-81.97,22.72],[-82.99,22.64],[-82.96,23.12]],[[-69.48,19.27],[-68.6,18.49],[-70.92,18.52],[-71.42,17.83],[-72.83,19.59],[-73.46,19.87],[-72.04,19.58],[-71.7,19.96],[-70.92,19.96],[-69.48,19.27]],[[-72.05,11.67],[-71.91,12.22],[-71.51,12.23],[-71.65,11.68],[-72.05,11.67]],[[-71.44,9.91],[-71.36,9.24],[-71.82,9.68],[-71.44,9.91]],[[-76.91,18.45],[-76.86,18.05],[-77.89,18.12],[-76.91,18.45]],[[-77.82,24.79],[-77.89,24.11],[-78.21,24.83],[-77.82,24.79]]],[[[115.02,-4.37],[114.87,-4.01],[114.27,-4.1],[114.42,-4.45],[115.02,-4.37]]],[[[-158.2,20.97],[-157.5,21.13],[-157.07,20.21],[-156.37,20.36],[-156.48,19.49],[-156.06,18.56],[-154.77,19.09],[-154.76,20.19],[-155.57,20.28],[-155.08,19.79],[-155.57,19.17],[-156.05,19.67],[-155.89,20.97],[-156.64,21.49],[-157.72,21.59],[-157.78,22.25],[-158.68,21.45],[-158.2,20.97]]],[[[170.24,9.33],[170.41,9.72],[169.8,9.82],[169.84,8.9],[170.22,8.77],[170.24,9.33]]],[[[14.83,-23.14],[14.76,-22.29],[12.04,-18.36],[11.86,-15.8],[14.22,-10.88],[13.29,-9.89],[13.64,-8.14],[12.3,-6.15],[12.35,-5.09],[11.43,-3.74],[10.11,-2.88],[8.87,-1.02],[9.52,-0.53],[9.47,0.27],[9.9,0.72],[9.7,2.07],[10.13,2.53],[10.08,3.3],[9.59,3.99],[9.04,4.09],[8.56,4.77],[7.39,4.38],[5.69,4.65],[5.35,5.71],[4.7,6.35],[3.58,6.71],[2.51,6.3],[1.18,6.41],[0.67,5.75],[-0.47,5.71],[-0.73,5.29],[-1.84,5.24],[-2.28,4.79],[-4.67,5.37],[-5.06,5.05],[-6.27,5.08],[-7.58,4.36],[-7.9,4.71],[-8.62,4.67],[-10.14,6.18],[-10.69,6.25],[-10.85,6.72],[-11.41,6.79],[-11.57,7.27],[-12.7,7.61],[-13.78,10.22],[-14.38,10.29],[-14.77,11.12],[-15.38,11.2],[-16.61,12.43],[-16.4,13.66],[-17.04,14.63],[-15.96,16.85],[-16.18,17.42],[-15.73,18.14],[-16.17,18.59],[-16.18,17.89],[-16.62,17.41],[-16.4,16.83],[-19.23,16.35],[-22.0,14.69],[-22.56,13.4],[-23.19,13.24],[-24.12,11.51],[-24.06,10.86],[-23.61,8.57],[-22.06,6.64],[-20.83,6.34],[-20.28,5.47],[-18.83,4.85],[-16.99,4.9],[-16.54,4.5],[-15.11,4.49],[-14.11,3.84],[-13.62,4.03],[-12.1,3.15],[-11.61,2.34],[-9.3,1.32],[-8.86,1.52],[-7.67,0.99],[-6.96,1.23],[-6.59,0.88],[-5.93,1.09],[-4.31,0.58],[-3.87,0.83],[-2.14,0.23],[-1.68,0.48],[-0.73,-0.1],[-0.25,0.16],[1.33,-0.72],[1.82,-0.46],[2.75,-0.89],[2.86,-1.45],[5.64,-2.64],[6.45,-3.93],[12.33,-6.57],[12.86,-7.36],[12.79,-8.01],[13.3,-8.38],[12.5,-9.1],[13.01,-9.48],[12.94,-10.14],[13.45,-10.52],[13.52,-11.38],[12.77,-12.95],[12.07,-13.43],[12.27,-14.49],[11.48,-15.61],[11.7,-17.09],[11.24,-17.54],[13.05,-20.23],[12.97,-20.87],[14.39,-22.52],[13.91,-22.96],[14.5,-23.78],[14.83,-23.14]]],[[[167.41,10.98],[168.05,11.45],[167.5,11.75],[166.54,11.61],[166.15,11.17],[167.41,10.98]]],[[[172.72,1.63],[172.85,0.71],[173.19,0.6],[173.1,1.21],[173.74,2.08],[172.75,2.11],[172.72,1.63]]],[[[126.65,-32.3],[125.82,-32.02],[124.77,-32.8],[124.82,-33.2],[126.14,-32.38],[126.71,-32.7],[128.54,-32.39],[129.14,-32.7],[131.0,-32.36],[131.63,-32.66],[132.25,-32.32],[133.0,-33.03],[133.63,-32.68],[134.4,-33.39],[133.96,-33.93],[134.15,-34.1],[134.79,-33.75],[135.11,-34.34],[135.47,-34.04],[133.88,-31.97],[132.96,-31.74],[132.34,-32.08],[132.06,-31.5],[131.17,-31.25],[130.56,-31.59],[129.95,-31.28],[128.9,-31.48],[128.46,-31.99],[126.65,-32.3]]],[[[111.81,-6.4],[110.82,-6.24],[110.37,-6.69],[109.15,-6.63],[108.8,-6.15],[108.55,-6.49],[108.91,-6.97],[110.52,-7.04],[111.81,-6.4]]],[[[111.16,-8.43],[111.4,-8.1],[110.6,-8.07],[110.26,-7.6],[107.6,-7.6],[107.02,-7.23],[107.36,-7.94],[110.01,-7.93],[110.36,-8.4],[111.16,-8.43]]],[[[29.48,32.24],[29.05,31.98],[28.1,32.34],[27.14,31.58],[26.18,31.93],[25.76,31.66],[27.38,30.93],[28.09,31.23],[29.21,30.65],[30.47,31.42],[31.65,31.5],[33.49,30.73],[34.89,31.67],[34.44,31.87],[33.59,31.39],[32.96,31.8],[32.25,31.54],[31.14,32.13],[30.42,31.86],[29.48,32.24]]],[[[58.72,20.64],[57.85,20.68],[57.58,19.14],[56.81,18.98],[56.51,18.19],[55.53,18.09],[54.94,17.08],[53.51,17.09],[50.67,14.97],[49.17,14.92],[49.02,14.35],[48.15,14.31],[47.0,13.49],[46.46,13.65],[46.44,13.26],[46.98,13.1],[48.12,13.93],[48.65,13.76],[51.77,15.38],[52.27,15.2],[52.47,16.14],[53.47,16.71],[54.89,16.71],[56.8,17.43],[56.06,17.79],[56.96,18.08],[57.12,18.73],[58.27,18.96],[57.9,19.41],[58.07,20.08],[58.77,19.9],[59.43,20.46],[59.05,20.92],[59.62,21.14],[60.02,22.54],[58.35,24.1],[57.69,24.07],[57.6,23.71],[58.26,23.74],[59.61,22.46],[58.72,20.64]]],[[[169.25,14.36],[169.18,14.75],[168.53,14.85],[168.6,14.46],[169.25,14.36]]],[[[-110.18,22.8],[-109.88,22.45],[-109.7,22.87],[-110.57,23.66],[-110.74,23.25],[-110.18,22.8]]],[[[-41.6,-3.02],[-40.28,-2.79],[-39.31,-3.14],[-38.98,-3.74],[-38.54,-3.66],[-39.16,-2.73],[-40.13,-2.37],[-41.45,-2.6],[-41.6,-3.02]]],[[[53.49,24.45],[52.88,25.33],[52.04,24.72],[51.75,26.31],[50.11,26.84],[50.08,27.87],[49.45,27.7],[48.74,28.15],[48.71,27.74],[49.66,27.28],[50.31,25.0],[50.88,24.78],[50.99,25.98],[51.37,26.16],[51.21,24.56],[51.59,23.74],[54.48,24.24],[55.12,24.86],[54.37,25.02],[54.11,25.65],[53.88,25.12],[54.3,24.66],[53.49,24.45]]],[[[103.49,4.03],[104.0,4.75],[103.45,5.94],[102.81,6.13],[102.55,5.77],[103.2,5.58],[103.49,4.03]]],[[[45.98,-9.51],[46.54,-9.84],[46.84,-9.56],[46.6,-8.96],[45.98,-9.51]]],[[[126.81,3.4],[126.93,4.15],[127.43,4.58],[127.28,4.99],[126.35,4.63],[126.81,3.4]]],[[[54.43,25.96],[55.19,25.8],[55.45,25.17],[56.2,26.16],[56.79,25.83],[57.39,26.08],[56.62,26.26],[56.63,26.85],[54.92,26.44],[53.9,26.65],[52.41,27.91],[50.86,28.2],[54.43,25.96]]],[[[105.82,-10.6],[105.87,-10.15],[105.24,-10.24],[105.38,-10.8],[105.82,-10.6]]],[[[40.05,20.4],[39.27,21.21],[39.38,22.71],[38.43,24.17],[37.34,24.56],[37.31,25.42],[34.95,28.38],[34.87,29.69],[34.45,29.45],[34.64,28.8],[34.1,28.33],[33.37,28.51],[33.18,29.16],[32.73,29.36],[32.65,30.24],[32.24,29.99],[32.31,29.11],[33.4,28.07],[33.31,27.4],[33.91,27.0],[33.81,26.33],[34.85,25.3],[34.75,24.63],[35.32,24.23],[35.25,23.14],[36.07,22.75],[37.06,21.3],[37.02,18.96],[38.19,18.4],[39.1,17.0],[38.99,15.96],[39.49,15.18],[40.1,15.43],[40.22,14.83],[41.18,14.5],[41.3,13.91],[43.27,12.67],[43.37,12.1],[42.68,12.04],[42.68,11.66],[43.24,11.51],[43.34,10.94],[43.9,10.8],[44.32,10.08],[45.99,10.78],[46.84,10.47],[46.98,11.03],[48.47,11.14],[48.5,11.51],[47.0,11.41],[44.34,10.46],[44.24,11.02],[43.69,11.16],[43.71,12.32],[44.62,12.38],[46.11,13.44],[45.79,13.61],[44.63,12.77],[43.72,12.7],[43.28,13.45],[43.41,14.05],[42.95,14.42],[43.08,15.02],[42.61,15.39],[43.1,16.22],[40.81,20.02],[40.05,20.4]]],[[[172.09,5.83],[172.53,5.89],[172.35,6.39],[171.44,6.27],[171.5,5.93],[172.09,5.83]]],[[[94.14,7.2],[93.5,7.63],[94.02,8.63],[93.32,8.29],[92.9,8.83],[93.17,9.46],[92.72,9.49],[92.45,8.86],[93.64,6.46],[94.34,6.8],[94.14,7.2]]],[[[-51.83,4.71],[-51.95,4.06],[-51.29,4.06],[-51.41,3.41],[-50.9,2.99],[-50.87,4.14],[-51.41,4.79],[-51.83,4.71]]],[[[98.04,10.79],[97.85,11.19],[97.35,10.71],[97.74,9.91],[97.4,8.51],[98.07,8.33],[98.2,7.16],[98.9,7.49],[98.81,6.46],[100.11,5.84],[99.83,5.23],[100.42,4.28],[100.55,5.81],[99.98,7.01],[98.5,8.04],[98.11,8.84],[98.39,9.47],[97.78,10.42],[98.04,10.79]]],[[[-15.65,28.14],[-15.17,27.65],[-14.19,27.65],[-13.17,29.14],[-13.65,29.65],[-14.67,28.15],[-15.4,28.52],[-15.65,28.14]]],[[[100.8,8.62],[100.16,9.06],[99.91,8.7],[100.66,7.08],[101.32,6.9],[101.58,7.26],[100.92,7.45],[100.8,8.62]]],[[[166.3,10.43],[165.68,10.52],[165.84,9.8],[166.38,10.07],[166.3,10.43]]],[[[140.13,10.29],[139.44,10.28],[139.75,9.44],[140.73,9.79],[140.13,10.29]]],[[[114.46,-5.72],[114.84,-5.73],[114.78,-4.7],[114.1,-5.47],[114.46,-5.72]]],[[[162.27,12.07],[161.97,11.82],[162.23,11.29],[162.53,11.54],[162.27,12.07]]],[[[-110.89,19.72],[-111.44,18.74],[-111.15,18.39],[-110.48,18.62],[-110.89,19.72]]],[[[-16.85,19.64],[-16.17,18.83],[-15.95,19.19],[-16.4,19.65],[-16.17,20.26],[-17.08,21.43],[-17.54,20.69],[-16.85,20.59],[-16.85,19.64]]],[[[170.71,6.52],[169.21,8.45],[168.22,8.67],[167.54,9.68],[166.61,9.54],[166.38,8.95],[164.38,9.38],[163.24,8.92],[162.72,9.17],[161.89,8.91],[160.84,7.48],[161.6,5.37],[162.17,5.35],[162.45,4.81],[165.29,4.16],[165.72,4.52],[166.88,4.13],[168.19,4.62],[168.92,4.38],[168.93,4.89],[170.37,5.77],[170.71,6.52]]],[[[101.81,12.27],[101.98,11.61],[102.43,11.56],[102.27,12.22],[101.81,12.27]]],[[[40.48,-15.65],[39.03,-17.04],[37.22,-17.37],[36.85,-18.33],[34.43,-20.07],[34.95,-20.65],[35.46,-24.29],[34.73,-24.85],[34.01,-24.75],[33.53,-25.25],[32.81,-25.15],[32.41,-26.07],[32.73,-27.09],[32.25,-27.58],[32.4,-28.4],[30.97,-29.23],[30.62,-30.52],[29.95,-30.8],[29.91,-31.42],[29.23,-31.7],[29.3,-32.1],[30.37,-31.57],[30.41,-30.95],[31.08,-30.66],[31.5,-29.78],[33.54,-29.9],[34.02,-29.42],[34.75,-29.51],[37.09,-27.65],[37.81,-27.72],[38.19,-26.81],[40.96,-24.77],[40.96,-24.12],[42.69,-22.68],[43.46,-23.15],[43.19,-21.92],[44.52,-20.1],[43.83,-17.41],[44.56,-16.6],[44.3,-15.33],[43.64,-14.59],[44.29,-14.01],[44.52,-12.65],[45.01,-13.21],[45.64,-12.64],[44.67,-12.18],[44.16,-9.64],[44.56,-9.13],[44.31,-8.52],[44.62,-7.59],[45.78,-6.73],[46.29,-5.14],[46.12,-4.31],[45.11,-3.42],[44.86,-1.55],[43.46,-0.5],[43.6,0.56],[39.99,-2.71],[39.74,-4.05],[39.17,-4.35],[38.58,-5.98],[39.23,-6.76],[39.46,-8.04],[39.04,-8.56],[39.62,-8.9],[39.69,-10.0],[40.26,-10.35],[40.67,-12.5],[40.25,-13.02],[40.74,-14.94],[40.48,-15.65]]],[[[-23.87,16.4],[-24.14,16.97],[-24.84,17.27],[-25.73,17.19],[-25.45,16.63],[-24.53,16.23],[-23.87,16.4]]],[[[93.0,10.37],[92.82,11.03],[93.58,12.14],[94.27,12.23],[94.07,12.63],[93.38,12.54],[92.62,11.43],[92.67,12.2],[91.97,11.85],[92.1,10.43],[93.0,10.37]]],[[[49.84,-12.37],[49.55,-12.66],[49.8,-13.24],[50.09,-12.96],[49.84,-12.37]]],[[[72.77,20.07],[72.77,20.53],[72.37,20.05],[72.77,19.38],[72.77,20.07]]],[[[-24.82,14.59],[-23.29,14.59],[-22.91,15.31],[-23.82,15.71],[-24.22,15.21],[-25.09,15.14],[-24.82,14.59]]],[[[116.54,-4.6],[116.4,-4.21],[115.81,-4.21],[115.31,-5.07],[116.07,-5.2],[115.96,-4.59],[116.54,-4.6]]],[[[-92.4,15.04],[-92.82,15.02],[-93.27,15.97],[-94.16,16.4],[-95.48,16.32],[-95.9,15.79],[-96.78,15.73],[-97.25,16.19],[-97.91,16.01],[-96.98,15.34],[-94.37,16.02],[-91.32,13.55],[-90.49,13.6],[-90.28,13.97],[-91.96,14.35],[-92.4,15.04]]],[[[-15.93,23.29],[-15.21,24.41],[-15.68,24.65],[-17.32,21.79],[-16.86,21.8],[-15.93,23.29]]],[[[171.23,9.1],[170.53,9.0],[171.06,8.71],[170.65,8.29],[171.17,8.0],[171.49,8.22],[171.23,9.1]]],[[[100.23,9.83],[99.87,10.89],[99.42,10.93],[99.78,9.87],[99.07,9.54],[100.19,9.32],[100.23,9.83]]],[[[49.77,-16.9],[49.63,-17.37],[50.16,-17.02],[50.14,-16.38],[50.66,-16.04],[50.48,-15.23],[50.04,-15.98],[49.56,-15.45],[49.77,-16.9]]],[[[-61.41,17.67],[-62.02,17.82],[-62.1,17.06],[-62.78,17.62],[-62.9,18.41],[-63.65,18.2],[-63.29,17.16],[-62.72,17.22],[-62.01,16.45],[-62.12,15.89],[-61.1,14.42],[-60.97,13.56],[-61.54,13.32],[-61.97,12.21],[-61.73,11.93],[-61.17,12.18],[-60.59,13.66],[-61.01,16.39],[-61.84,16.61],[-61.31,17.06],[-61.41,17.67]]],[[[174.36,-0.9],[175.09,-1.68],[174.61,-0.42],[174.07,-0.35],[174.36,-0.9]]],[[[100.0,-0.49],[99.74,-0.85],[100.5,-2.14],[100.17,-3.47],[100.8,-3.64],[101.17,-4.39],[101.41,-4.04],[100.85,-3.15],[101.12,-2.56],[100.0,-0.49]]],[[[97.54,13.02],[97.74,12.62],[98.23,13.1],[97.84,13.9],[97.54,13.02]]],[[[106.37,-7.54],[106.44,-6.85],[105.83,-6.7],[105.69,-6.1],[107.35,-6.19],[107.59,-5.85],[105.98,-5.29],[105.51,-5.74],[104.25,-5.67],[104.6,-6.4],[105.27,-6.08],[105.17,-7.01],[106.0,-7.06],[106.37,-7.54]]],[[[-105.73,22.31],[-107.22,24.35],[-107.7,24.29],[-105.38,21.44],[-105.82,21.13],[-106.68,22.2],[-107.06,21.38],[-106.33,21.33],[-106.2,20.31],[-105.08,18.89],[-104.09,18.49],[-104.17,19.25],[-104.89,19.3],[-105.44,20.01],[-104.9,21.49],[-105.73,22.31]]],[[[-55.67,5.84],[-54.39,5.84],[-52.8,5.28],[-52.49,4.71],[-52.07,4.79],[-52.64,5.68],[-54.24,6.24],[-56.57,6.15],[-56.49,5.67],[-55.67,5.84]]],[[[102.84,1.8],[101.78,2.26],[101.94,1.62],[102.76,1.05],[103.45,1.38],[102.84,1.8]]],[[[-98.86,16.69],[-103.63,18.53],[-103.33,17.92],[-99.5,16.26],[-98.86,16.69]]],[[[-80.91,-7.09],[-80.46,-7.05],[-80.29,-6.39],[-81.23,-5.95],[-81.42,-6.35],[-80.91,-7.09]]],[[[122.09,0.41],[121.4,-0.09],[122.77,-0.71],[122.5,0.34],[122.09,0.41]]],[[[126.2,0.83],[126.7,1.25],[126.55,1.66],[126.05,1.23],[126.2,0.83]]],[[[-88.97,3.29],[-89.37,2.77],[-90.23,2.7],[-90.8,1.31],[-91.44,1.14],[-92.03,-0.02],[-91.75,-1.37],[-90.88,-1.31],[-90.42,-1.78],[-89.77,-1.61],[-89.3,-2.08],[-88.42,-2.01],[-88.02,-1.48],[-87.35,-1.56],[-86.5,-0.99],[-86.33,-0.35],[-84.42,0.67],[-84.3,2.05],[-83.22,2.25],[-84.83,3.24],[-88.51,2.84],[-88.97,3.29]]],[[[107.66,-3.36],[107.16,-2.24],[105.97,-1.42],[107.22,-3.57],[107.66,-3.36]]],[[[68.88,22.9],[68.62,21.99],[69.7,21.05],[69.85,21.39],[69.01,22.26],[69.88,22.38],[70.04,22.73],[68.88,22.9]]],[[[175.85,-2.85],[176.17,-2.74],[176.15,-2.22],[175.85,-2.85]]],[[[114.97,-34.2],[115.47,-33.37],[114.62,-33.63],[114.97,-34.2]]],[[[103.66,-0.89],[104.32,-0.81],[104.42,0.18],[104.04,0.7],[103.96,-0.04],[103.48,-0.5],[103.66,-0.89]]],[[[174.2,0.27],[173.83,0.68],[173.24,0.3],[174.2,0.27]]],[[[-162.41,6.62],[-162.59,6.0],[-161.9,5.48],[-162.41,6.62]]],[[[-44.35,-1.53],[-44.68,-0.94],[-45.55,-1.09],[-44.55,-1.7],[-44.42,-2.46],[-44.07,-1.87],[-44.35,-1.53]]],[[[120.86,-5.26],[120.31,-4.79],[120.61,-5.57],[120.86,-5.26]]],[[[96.04,2.45],[96.31,3.07],[95.21,3.27],[94.96,2.91],[95.61,2.74],[96.0,1.94],[97.11,1.99],[97.63,2.97],[96.04,2.45]]],[[[51.37,-9.26],[50.85,-8.95],[50.56,-9.22],[50.8,-9.81],[51.37,-9.26]]],[[[98.58,0.99],[98.94,-0.04],[99.39,0.18],[98.46,2.14],[97.57,2.21],[97.3,1.59],[97.99,1.92],[97.93,1.17],[98.58,0.99]]],[[[118.61,-2.51],[119.0,-2.59],[119.28,-2.03],[118.88,-1.96],[118.61,-2.51]]],[[[108.87,-0.04],[108.7,0.35],[108.06,0.27],[108.23,-0.11],[108.87,-0.04]]],[[[-41.54,-22.42],[-41.13,-22.12],[-41.83,-22.11],[-42.35,-23.02],[-42.9,-22.63],[-43.21,-23.38],[-42.06,-23.33],[-41.54,-22.42]]],[[[56.08,-4.42],[55.87,-3.71],[55.12,-3.6],[55.6,-4.01],[54.95,-4.24],[55.15,-4.95],[55.75,-4.93],[56.08,-4.42]]],[[[-80.98,-0.96],[-81.17,-1.35],[-80.73,-1.32],[-80.0,0.49],[-80.44,0.46],[-80.98,-0.96]]],[[[119.13,-4.54],[118.74,-4.46],[118.88,-4.85],[119.49,-4.86],[119.13,-4.54]]],[[[122.84,-5.9],[122.69,-5.51],[121.51,-5.03],[121.81,-5.82],[122.43,-5.82],[122.77,-6.38],[122.84,-5.9]]],[[[103.23,-5.25],[104.05,-5.53],[103.9,-4.93],[103.1,-4.4],[102.85,-4.74],[103.23,-5.25]]],[[[55.73,-21.54],[55.92,-20.81],[55.06,-20.62],[55.23,-21.68],[55.73,-21.54]]],[[[122.35,6.51],[121.86,6.08],[122.02,5.68],[122.76,6.45],[122.61,6.85],[122.35,6.51]]],[[[98.83,-1.28],[98.4,-1.25],[98.77,-2.02],[98.83,-1.28]]],[[[50.25,9.09],[49.69,7.39],[50.43,7.83],[50.6,8.93],[51.06,9.15],[50.7,9.84],[50.72,9.3],[50.25,9.09]]],[[[54.71,12.89],[53.65,13.04],[52.94,11.93],[54.63,12.18],[54.71,12.89]]],[[[-48.29,-27.07],[-48.78,-26.9],[-48.53,-28.19],[-48.0,-27.37],[-48.29,-27.07]]],[[[124.33,1.27],[125.21,1.38],[125.09,0.64],[125.59,1.06],[125.97,3.54],[125.62,4.11],[125.73,4.85],[125.08,4.83],[125.39,4.02],[125.13,2.28],[124.33,1.27]]],[[[14.53,-24.2],[14.01,-24.22],[14.57,-24.62],[14.6,-26.49],[15.01,-26.69],[14.94,-24.4],[14.53,-24.2]]],[[[44.43,1.7],[43.6,1.18],[43.91,0.81],[47.53,3.31],[47.52,3.9],[48.58,4.61],[48.56,5.19],[49.05,5.44],[49.16,6.4],[47.92,5.12],[47.93,4.54],[46.86,3.82],[46.87,3.23],[44.43,1.7]]],[[[53.79,-5.63],[53.14,-5.14],[53.31,-5.93],[53.89,-5.99],[53.79,-5.63]]],[[[-22.71,15.67],[-22.32,16.4],[-23.04,17.17],[-23.19,16.1],[-22.71,15.67]]],[[[-38.84,-13.45],[-39.19,-14.02],[-38.9,-14.35],[-38.54,-13.78],[-38.84,-13.45]]],[[[-159.34,3.43],[-158.95,3.6],[-159.0,4.25],[-159.8,3.92],[-159.34,3.43]]],[[[165.35,12.0],[165.36,11.42],[165.75,11.29],[165.75,11.87],[165.35,12.0]]],[[[-79.09,2.42],[-79.43,1.41],[-80.05,0.99],[-79.18,1.05],[-78.45,2.59],[-78.7,2.94],[-79.09,2.42]]],[[[-171.02,-3.12],[-171.36,-3.26],[-170.72,-3.75],[-171.02,-3.12]]],[[[160.87,9.65],[161.24,9.55],[161.0,10.34],[160.87,9.65]]],[[[47.1,-24.62],[45.61,-25.62],[46.79,-25.54],[47.44,-24.95],[47.1,-24.62]]],[[[145.08,-1.13],[144.27,-0.73],[143.65,-1.66],[144.37,-1.39],[144.99,-1.63],[145.08,-1.13]]],[[[45.53,-15.73],[45.12,-15.6],[44.72,-16.12],[45.13,-16.25],[45.53,-15.73]]],[[[-134.63,-23.46],[-134.25,-23.67],[-134.27,-23.26],[-135.27,-22.84],[-135.26,-23.25],[-134.63,-23.46]]],[[[-80.53,-3.59],[-81.0,-3.37],[-81.17,-4.02],[-80.53,-3.59]]],[[[-89.25,13.67],[-89.87,13.75],[-90.08,13.39],[-89.46,13.3],[-89.25,13.67]]],[[[107.85,4.15],[107.72,2.91],[108.64,3.58],[107.85,4.15]]],[[[147.66,-2.72],[148.36,-2.45],[148.22,-2.05],[147.56,-2.06],[147.23,-1.49],[146.28,-1.85],[146.29,-3.0],[146.81,-2.57],[147.66,-2.72]]],[[[151.6,7.94],[151.28,7.37],[152.02,6.71],[153.07,6.62],[151.6,7.94]]],[[[48.01,-9.97],[47.77,-9.37],[47.16,-9.93],[47.71,-10.25],[48.01,-9.97]]],[[[49.72,-17.77],[49.25,-17.89],[49.51,-18.47],[49.72,-17.77]]],[[[101.23,3.45],[100.83,3.99],[100.58,3.63],[101.34,2.3],[101.6,2.66],[101.23,3.45]]],[[[-56.97,6.06],[-57.52,6.92],[-57.93,6.84],[-57.38,5.98],[-56.97,6.06]]],[[[-48.62,-26.55],[-47.36,-24.72],[-48.43,-25.18],[-48.91,-26.24],[-48.62,-26.55]]],[[[109.95,-1.58],[109.78,-1.2],[109.12,-1.52],[109.4,-0.93],[108.82,-0.52],[108.96,-1.14],[108.46,-1.84],[109.48,-2.03],[109.95,-1.58]]],[[[144.8,13.28],[145.24,13.19],[145.23,14.33],[144.41,13.61],[144.8,13.28]]],[[[70.4,20.82],[70.67,20.53],[72.14,20.82],[71.88,21.11],[70.82,20.87],[70.32,21.24],[70.4,20.82]]],[[[159.09,-5.73],[160.05,-5.75],[159.97,-5.15],[159.22,-5.04],[159.09,-5.73]]],[[[-40.34,-20.19],[-40.45,-20.81],[-40.0,-20.74],[-39.42,-18.94],[-39.87,-19.01],[-40.34,-20.19]]],[[[-43.25,-2.65],[-42.53,-2.92],[-41.89,-2.68],[-42.9,-2.07],[-43.54,-2.31],[-43.25,-2.65]]],[[[-59.64,12.77],[-59.07,13.01],[-59.56,13.57],[-59.89,13.05],[-59.64,12.77]]],[[[122.08,-2.57],[122.33,-2.25],[122.0,-1.69],[121.74,-2.01],[122.08,-2.57]]],[[[102.57,10.65],[102.94,9.84],[103.43,10.31],[103.25,10.71],[102.57,10.65]]],[[[121.61,-4.32],[121.06,-3.84],[121.36,-4.63],[121.61,-4.32]]],[[[125.46,5.92],[125.16,5.33],[125.58,5.26],[126.97,7.22],[125.57,6.66],[125.46,5.92]]],[[[108.16,-2.67],[108.82,-2.35],[107.57,-2.26],[108.16,-2.67]]],[[[104.5,9.82],[104.09,10.12],[103.8,9.5],[103.1,9.18],[103.75,8.99],[104.25,9.46],[104.87,9.01],[104.5,9.82]]],[[[-47.04,-23.99],[-46.91,-24.67],[-46.09,-24.11],[-45.55,-24.5],[-44.17,-23.28],[-44.71,-22.88],[-45.69,-23.83],[-47.04,-23.99]]],[[[121.64,1.61],[121.05,1.83],[120.8,1.5],[121.38,1.28],[121.64,1.61]]],[[[-35.27,-5.55],[-35.08,-6.56],[-34.65,-6.47],[-34.83,-5.47],[-35.41,-4.79],[-36.28,-4.95],[-37.24,-4.61],[-37.86,-3.67],[-38.3,-3.75],[-37.39,-5.02],[-36.43,-5.37],[-35.8,-5.13],[-35.27,-5.55]]],[[[49.88,11.77],[49.53,11.2],[50.5,11.81],[51.0,11.65],[50.87,10.21],[51.48,10.25],[51.36,12.22],[49.88,11.77]]],[[[47.12,-14.94],[46.81,-15.23],[47.21,-15.35],[47.83,-14.78],[47.81,-14.13],[48.95,-13.22],[49.37,-11.84],[48.45,-12.04],[48.47,-12.68],[47.63,-13.3],[47.12,-14.94]]],[[[-36.0,-10.23],[-35.56,-10.14],[-35.45,-9.48],[-35.89,-9.56],[-36.0,-10.23]]],[[[47.43,-24.32],[47.99,-23.97],[47.81,-23.17],[47.43,-24.32]]],[[[-12.71,28.39],[-12.48,28.01],[-11.75,28.12],[-11.98,28.5],[-12.71,28.39]]],[[[173.13,3.29],[172.87,3.58],[172.53,2.88],[173.18,2.97],[173.13,3.29]]],[[[98.12,0.77],[97.43,0.45],[98.08,0.27],[97.81,-0.33],[98.64,-0.89],[98.89,-0.54],[98.25,-0.37],[98.52,0.24],[98.12,0.77]]],[[[102.56,-5.56],[102.61,-5.09],[101.95,-5.17],[102.11,-5.77],[102.56,-5.56]]],[[[-80.87,-2.22],[-80.69,-1.82],[-81.12,-1.86],[-81.29,-2.5],[-80.87,-2.22]]],[[[-169.44,16.51],[-169.17,16.92],[-169.76,17.16],[-169.81,16.32],[-169.44,16.51]]],[[[-13.46,27.77],[-13.71,27.65],[-13.48,27.27],[-12.97,28.02],[-13.46,27.77]]],[[[145.84,17.46],[145.99,17.06],[146.28,17.37],[145.78,18.33],[145.49,18.02],[145.84,17.46]]],[[[121.2,5.8],[121.09,5.07],[121.61,5.74],[121.2,5.8]]],[[[118.25,-5.08],[117.3,-4.76],[116.83,-5.37],[117.45,-5.15],[117.77,-5.69],[118.22,-5.31],[118.54,-5.85],[118.78,-5.55],[118.25,-5.08]]],[[[-49.64,0.66],[-49.76,1.41],[-50.08,0.59],[-49.29,-0.18],[-49.13,0.24],[-49.64,0.66]]],[[[176.14,-1.18],[175.96,-1.49],[176.68,-1.62],[176.67,-1.27],[176.14,-1.18]]],[[[49.08,6.77],[49.44,6.62],[49.77,7.02],[49.42,7.18],[49.08,6.77]]],[[[166.8,-9.72],[167.01,-10.04],[167.6,-9.97],[167.38,-9.65],[166.8,-9.72]]],[[[146.36,7.06],[146.49,7.81],[145.63,7.98],[145.73,7.31],[146.36,7.06]]],[[[-76.28,8.8],[-76.35,9.48],[-76.7,8.78],[-76.28,8.8]]],[[[-109.22,22.93],[-109.04,23.34],[-109.3,23.44],[-109.52,23.28],[-109.22,22.93]]],[[[109.32,2.03],[108.73,2.45],[108.87,1.81],[109.32,2.03]]],[[[57.53,-19.89],[56.98,-20.28],[57.1,-20.69],[58.1,-20.39],[58.03,-19.73],[57.53,-19.89]]],[[[126.73,8.53],[126.34,8.84],[126.66,8.03],[126.73,8.53]]],[[[-171.97,-8.94],[-171.8,-9.58],[-171.52,-9.03],[-171.97,-8.94]]],[[[-159.39,22.38],[-160.93,21.84],[-160.98,21.41],[-160.13,21.78],[-159.06,21.7],[-159.39,22.38]]],[[[143.89,7.14],[144.62,7.39],[143.74,7.55],[143.89,7.14]]],[[[176.08,-5.71],[176.45,-5.79],[176.03,-5.34],[176.08,-5.71]]],[[[-157.25,1.87],[-157.75,1.93],[-157.05,1.41],[-157.25,1.87]]],[[[-77.71,6.14],[-77.64,5.43],[-77.26,5.93],[-77.71,6.14]]],[[[121.63,7.36],[120.9,6.59],[121.05,6.2],[121.68,6.23],[121.63,7.36]]],[[[-50.59,2.41],[-50.86,2.75],[-51.02,2.34],[-50.51,1.92],[-50.59,2.41]]],[[[61.64,25.23],[60.69,25.27],[61.34,24.71],[61.96,24.94],[61.64,25.23]]],[[[57.03,24.61],[56.45,25.52],[56.2,25.0],[56.53,24.16],[57.27,23.98],[57.03,24.61]]],[[[73.69,-0.08],[73.88,0.25],[73.32,1.1],[72.73,0.35],[73.29,-0.04],[72.77,-0.84],[73.58,-0.94],[73.69,-0.08]]],[[[51.49,-10.3],[51.18,-9.94],[50.83,-10.44],[51.49,-10.3]]],[[[133.91,7.3],[134.02,6.63],[134.46,6.56],[135.03,7.25],[135.2,8.26],[134.76,8.33],[133.91,7.3]]],[[[169.91,10.58],[169.59,10.35],[170.35,10.09],[169.91,10.58]]],[[[145.94,16.82],[145.36,16.19],[145.99,15.94],[146.28,16.25],[145.94,16.82]]],[[[112.44,-6.09],[113.05,-6.0],[112.74,-5.29],[112.29,-5.73],[112.44,-6.09]]],[[[169.03,10.08],[168.56,10.02],[169.33,9.75],[169.03,10.08]]],[[[-48.1,-0.62],[-47.43,-0.63],[-47.27,-0.21],[-47.94,-0.2],[-48.1,-0.62]]],[[[107.47,0.69],[106.85,0.86],[106.6,0.51],[107.39,-0.05],[107.47,0.69]]],[[[71.71,-5.44],[72.32,-5.63],[72.58,-5.32],[71.55,-5.07],[71.29,-5.39],[71.71,-5.44]]],[[[22.45,33.05],[21.75,33.41],[20.94,32.84],[21.84,32.97],[23.32,32.5],[23.24,32.93],[22.45,33.05]]],[[[51.97,12.25],[52.34,11.9],[52.66,12.1],[52.29,12.44],[51.97,12.25]]],[[[107.1,1.21],[107.55,1.43],[106.71,1.49],[107.1,1.21]]],[[[-65.45,10.82],[-65.11,11.08],[-65.86,11.03],[-65.45,10.82]]],[[[106.61,2.63],[105.98,2.81],[105.73,2.45],[106.36,2.27],[106.61,2.63]]],[[[-39.38,-16.7],[-38.89,-16.86],[-38.62,-15.82],[-39.07,-15.89],[-39.38,-16.7]]],[[[63.58,-20.02],[63.88,-19.68],[62.97,-19.53],[63.58,-20.02]]],[[[151.97,8.75],[151.88,8.26],[152.43,8.9],[151.97,8.75]]],[[[142.79,-1.51],[142.7,-2.01],[143.26,-1.33],[142.79,-1.51]]],[[[-34.52,-8.4],[-34.42,-7.73],[-34.86,-7.81],[-35.26,-9.31],[-34.82,-9.23],[-34.52,-8.4]]],[[[157.94,6.94],[158.06,6.54],[158.67,6.52],[158.42,7.32],[157.81,7.33],[157.94,6.94]]],[[[-154.76,-4.35],[-154.71,-3.94],[-155.29,-3.66],[-155.34,-4.06],[-154.76,-4.35]]],[[[24.3,32.17],[25.35,31.39],[25.21,32.27],[24.23,32.61],[23.81,32.33],[24.3,32.17]]],[[[-14.72,25.4],[-13.73,26.9],[-14.46,26.52],[-15.2,25.4],[-14.97,25.03],[-14.72,25.4]]],[[[-40.65,-20.97],[-41.11,-21.04],[-41.22,-21.66],[-40.77,-21.59],[-40.65,-20.97]]],[[[153.35,5.8],[152.98,6.13],[153.07,5.48],[153.89,5.31],[153.35,5.8]]],[[[119.08,-3.45],[119.19,-4.08],[119.59,-4.16],[119.47,-3.53],[119.08,-3.45]]],[[[97.22,11.89],[97.41,11.48],[98.11,11.56],[97.91,11.96],[97.22,11.89]]],[[[154.71,-3.61],[154.97,-3.29],[154.67,-2.74],[154.4,-3.07],[154.71,-3.61]]],[[[-37.03,-10.81],[-37.38,-11.39],[-37.09,-11.72],[-36.74,-11.14],[-37.03,-10.81]]],[[[150.22,-37.0],[150.52,-36.91],[150.31,-36.49],[149.97,-36.85],[150.22,-37.0]]],[[[59.17,25.66],[58.31,25.47],[59.07,25.29],[59.17,25.66]]],[[[175.88,-2.0],[175.88,-1.65],[175.35,-1.9],[175.88,-2.0]]],[[[95.73,4.26],[96.15,3.97],[95.98,4.62],[95.53,4.66],[95.73,4.26]]],[[[-64.23,11.64],[-64.09,12.01],[-64.83,11.82],[-64.23,11.64]]],[[[50.3,-14.41],[50.21,-14.01],[49.91,-14.29],[50.16,-14.88],[50.3,-14.41]]],[[[145.52,14.66],[145.96,14.57],[145.95,15.7],[145.42,15.3],[145.52,14.66]]],[[[20.0,30.67],[19.91,31.11],[19.62,31.06],[19.12,30.53],[20.0,30.67]]],[[[-92.33,1.56],[-91.66,1.24],[-91.91,1.84],[-92.33,1.56]]],[[[18.24,31.06],[17.66,30.96],[18.64,30.68],[18.54,31.11],[18.24,31.06]]],[[[-80.6,-2.83],[-79.91,-3.16],[-80.41,-2.43],[-80.6,-2.83]]],[[[113.0,-3.21],[112.76,-3.55],[113.55,-3.59],[113.0,-3.21]]],[[[-87.14,5.25],[-86.71,5.28],[-87.19,5.96],[-87.14,5.25]]],[[[149.16,7.8],[148.88,7.47],[149.73,7.3],[149.16,7.8]]],[[[99.89,-1.73],[99.45,-1.7],[99.18,-2.3],[99.62,-2.33],[99.89,-1.73]]],[[[-64.58,18.04],[-65.08,17.59],[-64.35,17.8],[-64.58,18.04]]],[[[48.82,-19.29],[49.22,-19.4],[49.6,-18.87],[49.2,-18.76],[48.82,-19.29]]],[[[138.15,-32.97],[137.38,-32.94],[136.23,-34.1],[137.08,-33.9],[137.7,-34.43],[137.65,-33.77],[138.28,-33.39],[138.15,-32.97]]],[[[105.0,-0.49],[104.75,-0.84],[105.12,-1.36],[105.05,-2.09],[105.55,-1.39],[105.0,-0.49]]],[[[-16.64,28.13],[-16.89,28.0],[-16.64,27.63],[-16.39,28.01],[-16.64,28.13]]],[[[73.17,18.7],[72.57,19.02],[72.97,18.34],[73.17,18.7]]],[[[71.09,-6.77],[71.77,-6.5],[71.45,-5.76],[70.96,-6.16],[71.09,-6.77]]],[[[110.72,1.54],[111.19,1.99],[111.03,2.37],[110.56,1.92],[110.72,1.54]]],[[[110.66,-5.89],[110.5,-5.53],[109.88,-5.62],[110.04,-5.98],[110.66,-5.89]]],[[[116.69,-35.25],[116.16,-34.85],[115.73,-34.99],[116.25,-35.39],[116.69,-35.25]]],[[[120.66,-3.76],[120.83,-2.58],[120.37,-2.98],[120.66,-3.76]]],[[[97.26,-12.17],[96.87,-11.7],[96.4,-12.34],[97.02,-12.49],[97.26,-12.17]]],[[[43.72,-24.38],[43.72,-23.74],[43.29,-23.62],[43.38,-24.67],[43.81,-24.78],[43.72,-24.38]]],[[[-79.52,-7.49],[-79.95,-7.78],[-79.46,-8.25],[-79.52,-7.49]]],[[[72.3,-7.39],[72.69,-7.68],[72.56,-7.07],[72.13,-7.02],[72.3,-7.39]]],[[[120.33,1.09],[119.93,1.16],[119.64,0.59],[120.04,0.52],[120.33,1.09]]],[[[15.05,-27.1],[15.51,-27.71],[15.43,-26.88],[15.05,-27.1]]],[[[112.19,-8.13],[111.79,-8.11],[111.52,-8.67],[111.92,-8.68],[112.19,-8.13]]],[[[-14.54,-8.26],[-14.16,-8.14],[-14.16,-7.6],[-14.54,-7.72],[-14.54,-8.26]]],[[[155.79,7.54],[155.65,7.95],[155.03,7.96],[155.29,7.15],[155.79,7.54]]],[[[106.06,3.56],[105.38,3.24],[106.01,3.06],[106.06,3.56]]]]}}]}