{"type":"FeatureCollection","features":[{"type":"Feature","properties":{},"geometry":{"type":"MultiPolygon","coordinates":[[[[12.11,65.38],[16.19,68.31],[15.43,68.76],[17.07,68.51],[17.89,68.89],[17.15,69.36],[22.17,70.33],[23.88,70.0],[23.25,70.51],[23.8,70.6],[30.09,70.65],[28.88,70.31],[29.35,69.79],[35.78,69.3],[40.68,67.37],[45.14,69.24],[44.89,69.79],[45.97,70.19],[45.34,70.74],[46.49,71.15],[44.65,73.61],[37.86,75.3],[22.53,76.87],[26.0,77.71],[21.74,79.09],[25.97,79.06],[24.95,78.73],[25.98,78.38],[31.29,79.06],[27.04,79.16],[29.38,79.8],[28.37,80.39],[20.8,80.9],[8.74,79.83],[10.72,79.34],[9.38,78.83],[10.85,78.55],[10.66,77.98],[13.03,77.62],[12.51,77.27],[13.94,76.77],[-1.2,77.92],[-14.39,74.27],[-14.22,73.66],[-20.48,71.42],[-21.89,72.55],[-16.53,75.13],[-18.66,76.43],[-17.47,76.96],[-18.01,77.35],[-15.76,77.94],[-18.25,78.18],[-15.89,79.33],[-17.24,79.85],[-13.72,80.32],[-13.64,80.89],[-11.6,81.11],[-12.55,81.29],[-9.73,81.7],[-10.71,81.89],[-17.27,81.77],[-19.55,82.89],[-26.98,83.86],[-47.57,83.41],[-53.82,82.38],[-69.64,83.41],[-63.62,82.67],[-64.58,82.47],[-63.54,81.9],[-77.08,79.19],[-73.15,78.12],[-72.36,77.32],[-73.79,77.05],[-73.4,76.64],[-59.03,75.43],[-59.52,74.81],[-56.54,73.28],[-57.18,71.81],[-54.59,71.09],[-56.26,70.28],[-53.99,69.12],[-54.76,67.19],[-53.59,66.71],[-54.14,65.64],[-49.35,60.96],[-45.37,59.71],[-42.42,59.79],[-43.12,60.32],[-41.96,60.61],[-41.24,61.84],[-41.7,62.8],[-40.45,63.07],[-39.59,64.28],[-40.34,64.84],[-32.06,66.61],[-32.68,67.2],[-31.78,67.95],[-28.68,68.01],[-31.87,65.41],[-31.32,64.83],[-32.16,64.31],[-32.01,63.36],[-30.6,62.35],[-25.75,61.31],[-21.72,57.86],[-19.75,57.11],[-19.61,54.88],[-20.58,53.39],[-19.78,51.77],[-21.43,50.93],[-20.69,49.99],[-17.03,49.14],[-13.56,47.23],[-1.7,46.06],[-1.65,43.64],[-8.1,44.05],[-9.63,43.32],[-8.88,42.14],[-9.05,43.27],[-7.86,43.66],[-1.11,43.56],[-0.76,45.19],[-1.97,47.53],[-4.28,47.86],[-4.75,48.63],[-2.39,48.31],[-1.13,48.58],[-1.29,49.19],[0.18,49.07],[1.57,50.79],[3.85,50.38],[6.2,50.98],[10.11,54.12],[14.59,53.61],[18.15,54.83],[19.58,54.27],[21.73,55.74],[21.11,56.92],[21.7,57.66],[24.39,57.17],[23.46,57.45],[24.76,58.05],[23.71,58.66],[21.88,58.36],[22.48,59.07],[25.2,59.42],[25.5,60.07],[27.22,59.35],[29.26,59.85],[28.32,60.71],[23.39,59.89],[21.14,60.29],[21.98,62.4],[21.08,62.81],[25.86,65.06],[25.13,65.92],[22.36,66.02],[20.84,65.13],[21.24,64.22],[19.67,63.89],[16.49,61.46],[16.96,60.54],[18.69,60.23],[18.83,59.43],[16.74,58.69],[15.75,56.14],[13.01,55.73],[13.03,56.98],[12.07,57.17],[10.95,59.56],[7.26,58.03],[5.5,58.73],[6.15,60.06],[4.8,61.06],[5.38,61.45],[4.97,62.14],[7.05,62.42],[6.97,62.94],[12.11,65.38]],[[24.78,80.09],[27.1,79.84],[22.68,79.42],[20.09,80.1],[24.78,80.09]],[[-50.58,70.69],[-52.34,72.07],[-54.37,71.94],[-55.78,72.84],[-55.0,74.3],[-58.01,75.83],[-62.63,76.48],[-68.26,76.2],[-70.92,76.95],[-65.66,77.49],[-71.58,78.38],[-62.74,79.53],[-65.82,80.31],[-65.43,80.91],[-59.4,80.51],[-58.61,81.09],[-61.77,81.51],[-58.45,82.26],[-50.16,81.1],[-48.74,81.65],[-51.57,82.13],[-48.65,82.24],[-45.2,81.3],[-42.59,82.4],[-29.23,83.55],[-25.27,82.48],[-30.06,82.45],[-33.36,81.59],[-28.14,81.11],[-23.23,81.76],[-22.01,81.61],[-23.83,81.33],[-23.25,80.77],[-19.7,81.3],[-17.39,80.42],[-24.2,79.68],[-21.33,79.25],[-24.63,78.29],[-23.82,77.92],[-24.86,77.36],[-23.32,76.85],[-25.15,75.96],[-19.89,75.66],[-21.67,75.03],[-21.2,74.42],[-23.32,74.37],[-21.48,73.72],[-24.84,73.7],[-24.3,73.1],[-25.69,72.41],[-23.89,72.02],[-26.39,71.59],[-25.85,70.99],[-27.62,69.93],[-23.21,69.86],[-26.59,68.73],[-31.87,68.44],[-35.03,66.48],[-40.99,65.15],[-43.71,60.61],[-49.06,61.82],[-49.66,63.18],[-51.15,63.73],[-49.96,64.75],[-53.19,65.82],[-52.6,66.88],[-53.75,67.37],[-50.43,67.63],[-51.42,68.56],[-49.92,68.91],[-51.1,69.42],[-50.58,70.69]],[[-1.0,51.58],[-0.84,50.98],[-2.15,50.73],[-2.89,51.64],[-4.76,51.9],[-3.75,52.11],[-4.19,53.08],[-2.12,53.47],[-3.55,54.46],[-3.09,54.95],[-5.08,55.22],[-2.82,56.02],[-1.61,55.4],[-1.84,54.55],[-0.87,53.27],[-1.33,52.78],[-0.01,51.76],[-1.0,51.58]],[[-7.32,52.2],[-10.02,51.75],[-8.79,53.6],[-9.76,54.02],[-6.48,55.16],[-6.29,52.43],[-7.32,52.2]],[[18.81,78.74],[17.34,78.05],[15.45,79.02],[18.32,79.4],[19.63,79.08],[18.81,78.74]],[[19.38,77.85],[20.38,77.75],[19.63,77.41],[20.79,76.87],[17.98,77.18],[19.38,77.85]],[[-69.7,79.85],[-64.81,79.72],[-71.97,78.78],[-72.84,79.56],[-69.7,79.85]],[[-18.01,64.96],[-15.52,64.81],[-17.45,64.24],[-18.93,64.77],[-18.01,64.96]],[[-27.64,68.49],[-27.13,68.14],[-28.16,68.13],[-27.64,68.49]],[[-4.7,56.93],[-3.86,57.47],[-2.59,56.86],[-4.53,56.14],[-4.7,56.93]],[[-52.79,70.8],[-51.48,70.3],[-53.65,70.41],[-52.79,70.8]],[[-28.94,81.88],[-27.79,81.54],[-30.56,81.57],[-28.94,81.88]]],[[[-57.61,-64.04],[-56.54,-64.61],[-56.63,-63.54],[-54.98,-63.41],[-55.5,-62.81],[-58.42,-63.24],[-57.61,-64.04]]],[[[-79.66,32.96],[-77.57,33.93],[-78.51,34.11],[-79.66,32.96]]],[[[142.46,50.34],[142.71,51.32],[141.62,52.27],[142.19,53.39],[143.24,53.3],[142.66,51.97],[143.38,51.11],[147.07,50.61],[150.47,51.6],[152.25,53.12],[148.77,56.34],[147.27,56.84],[143.39,56.84],[143.08,55.79],[140.16,55.25],[136.66,55.86],[135.33,55.29],[135.15,54.7],[138.0,53.43],[139.97,54.21],[141.17,53.25],[140.41,51.35],[142.06,51.3],[141.48,50.64],[141.84,47.01],[140.94,46.2],[141.71,45.84],[140.87,45.5],[141.25,43.85],[139.35,42.36],[140.08,41.99],[139.3,41.66],[140.03,41.28],[139.74,40.7],[141.01,41.01],[141.9,39.78],[141.01,38.04],[142.3,38.79],[142.4,39.75],[141.37,42.3],[143.14,41.87],[145.95,42.9],[147.68,44.85],[150.42,45.47],[151.24,46.38],[150.46,46.82],[149.64,45.91],[144.8,44.3],[143.23,44.85],[143.14,44.14],[145.19,43.32],[142.92,42.24],[140.64,42.68],[141.71,43.12],[141.87,44.78],[142.69,44.87],[142.57,46.17],[143.97,46.25],[142.83,48.28],[143.8,49.08],[144.55,48.24],[145.2,48.69],[143.72,50.79],[144.14,49.42],[142.31,48.75],[142.46,50.34]]],[[[-173.2,59.99],[-171.35,59.86],[-171.68,59.09],[-170.97,58.64],[-171.59,57.7],[-170.7,56.28],[-163.27,55.25],[-168.09,54.31],[-168.98,53.23],[-170.48,53.36],[-173.03,52.15],[-174.54,52.63],[-178.6,52.14],[-179.35,51.74],[-179.12,51.13],[-169.06,52.45],[-165.84,54.06],[-161.76,54.83],[-155.73,54.84],[-148.5,53.75],[-137.73,50.17],[-131.39,49.01],[-128.85,43.51],[-129.25,38.29],[-128.68,36.75],[-121.91,31.74],[-119.3,30.63],[-118.3,29.67],[-118.55,28.59],[-116.33,28.87],[-114.34,26.62],[-112.78,26.34],[-112.45,24.57],[-110.14,22.55],[-109.0,23.09],[-109.46,24.46],[-111.97,24.64],[-112.6,26.76],[-114.49,27.37],[-113.7,28.54],[-115.78,29.88],[-117.53,34.04],[-120.03,34.43],[-121.64,36.34],[-122.34,38.65],[-123.51,38.86],[-124.58,42.79],[-123.14,43.6],[-121.73,49.5],[-127.01,51.13],[-127.05,52.25],[-128.31,53.26],[-128.22,54.59],[-128.78,54.8],[-129.24,53.87],[-130.04,54.65],[-129.6,55.59],[-131.95,56.39],[-131.26,56.77],[-131.55,57.35],[-132.4,56.77],[-133.35,58.49],[-134.53,58.46],[-135.66,59.58],[-137.48,58.54],[-138.19,59.84],[-142.19,60.13],[-144.85,61.28],[-149.32,61.0],[-148.81,61.54],[-149.82,62.95],[-152.46,62.46],[-151.67,61.61],[-153.75,60.56],[-154.59,62.06],[-153.74,62.75],[-148.68,64.28],[-144.75,63.88],[-146.66,64.93],[-152.26,65.61],[-155.18,65.07],[-155.68,65.4],[-154.73,66.13],[-157.27,66.14],[-159.8,64.13],[-160.55,65.12],[-159.76,65.88],[-165.35,64.68],[-167.07,65.94],[-161.75,65.73],[-158.86,66.41],[-165.88,68.66],[-156.93,71.17],[-136.35,68.76],[-135.74,69.42],[-128.33,69.66],[-128.08,70.28],[-126.1,69.47],[-122.49,70.06],[-129.15,70.88],[-137.65,69.22],[-142.14,70.33],[-155.02,71.58],[-160.8,71.01],[-163.11,70.37],[-163.83,69.33],[-166.66,68.96],[-166.85,68.32],[-163.91,67.12],[-168.06,65.82],[-170.89,66.71],[-170.84,67.35],[-175.65,67.41],[-174.72,66.51],[-172.92,67.06],[-170.53,66.25],[-172.71,65.55],[-173.27,64.32],[-176.22,65.73],[-179.73,66.25],[-179.62,65.19],[-176.36,65.31],[-176.26,64.67],[-173.98,63.94],[-171.04,64.8],[-171.57,65.47],[-168.33,65.42],[-167.77,64.51],[-168.66,63.54],[-170.55,64.13],[-172.72,63.65],[-170.45,63.28],[-169.85,62.4],[-171.05,62.08],[-171.78,60.5],[-173.85,60.84],[-173.05,60.39],[-174.13,60.05],[-173.2,59.99]],[[-123.7,48.21],[-122.98,47.94],[-123.3,47.2],[-124.5,47.92],[-123.7,48.21]],[[-123.45,45.26],[-124.08,45.34],[-123.77,46.87],[-122.98,46.38],[-123.45,45.26]]],[[[180.0,63.14],[179.01,63.52],[180.0,64.98],[176.84,64.78],[178.5,63.94],[178.17,63.32],[178.92,62.69],[174.42,62.02],[170.72,60.82],[170.59,60.19],[168.92,60.91],[163.31,60.17],[161.29,58.22],[161.01,56.92],[158.12,54.79],[160.02,54.92],[160.66,56.25],[161.7,56.0],[161.05,55.49],[161.41,54.74],[157.83,53.3],[157.72,52.24],[156.46,54.27],[157.28,56.51],[159.51,57.11],[160.07,59.1],[164.26,60.91],[165.1,62.7],[163.67,62.78],[160.59,60.89],[160.99,61.59],[160.37,62.17],[157.43,61.96],[153.78,59.3],[149.65,59.99],[143.2,59.68],[140.48,58.06],[141.32,57.85],[143.65,59.33],[155.35,58.95],[155.97,59.5],[154.84,59.95],[158.21,61.64],[159.48,61.39],[160.2,60.19],[161.65,60.39],[157.5,58.04],[156.27,58.03],[156.45,57.42],[155.51,57.03],[155.05,54.39],[156.4,52.39],[155.85,51.85],[156.32,51.32],[155.23,51.08],[154.22,49.13],[153.26,49.11],[154.07,48.66],[158.93,51.84],[160.49,54.39],[162.79,54.54],[161.88,55.62],[164.23,56.34],[163.05,57.0],[163.76,57.51],[162.65,58.4],[168.53,60.46],[170.67,59.79],[171.51,60.66],[177.58,62.48],[179.64,62.07],[180.0,63.14]]],[[[74.23,-69.62],[71.26,-70.38],[76.52,-70.03],[74.23,-69.62]]],[[[108.17,78.25],[104.16,78.57],[99.71,77.02],[101.95,76.46],[101.87,77.13],[104.47,77.47],[104.53,78.14],[108.17,78.25]]],[[[37.44,-69.64],[31.92,-68.75],[35.26,-69.96],[39.03,-70.27],[40.01,-69.15],[42.67,-68.25],[37.44,-69.64]]],[[[-66.18,48.23],[-65.48,47.23],[-66.14,46.75],[-65.37,46.4],[-66.02,45.93],[-64.91,45.6],[-69.83,44.5],[-71.55,43.04],[-71.89,41.76],[-72.86,42.23],[-72.85,41.62],[-76.77,39.12],[-76.68,37.16],[-75.61,35.82],[-76.87,35.2],[-75.72,34.85],[-75.24,36.08],[-70.11,38.43],[-69.25,39.52],[-48.95,45.82],[-46.28,47.42],[-45.88,48.63],[-47.24,49.39],[-47.59,51.93],[-48.63,53.08],[-54.3,54.48],[-54.99,55.8],[-56.06,56.05],[-55.78,58.66],[-56.66,59.56],[-63.72,62.41],[-63.71,64.41],[-64.96,64.81],[-61.42,65.32],[-61.47,66.2],[-60.23,66.65],[-66.95,68.94],[-65.77,69.85],[-67.53,70.67],[-74.47,72.28],[-74.89,73.35],[-77.39,74.05],[-78.48,73.74],[-77.64,72.93],[-81.37,73.04],[-81.06,72.39],[-75.85,72.4],[-74.63,71.39],[-72.82,71.73],[-69.8,70.58],[-67.96,69.78],[-69.22,69.29],[-67.65,68.92],[-68.88,68.42],[-66.82,68.51],[-62.14,66.64],[-64.18,65.5],[-70.99,66.97],[-73.19,68.6],[-74.76,68.26],[-75.03,68.68],[-74.14,68.98],[-77.36,69.83],[-78.06,70.66],[-80.56,69.95],[-86.94,70.27],[-88.09,70.8],[-87.23,71.4],[-89.85,71.96],[-89.0,72.56],[-89.69,72.69],[-91.21,72.22],[-90.57,71.84],[-91.41,70.73],[-95.48,72.69],[-94.78,73.31],[-95.56,73.66],[-94.04,74.17],[-90.99,73.69],[-94.04,72.95],[-93.32,72.59],[-87.12,73.75],[-86.4,73.61],[-87.39,73.02],[-86.12,72.49],[-87.06,71.9],[-83.78,71.4],[-85.67,71.85],[-84.69,72.44],[-85.24,72.83],[-80.0,73.84],[-80.29,74.47],[-78.05,75.09],[-79.02,75.89],[-76.51,76.48],[-77.49,77.28],[-74.66,77.84],[-79.39,77.37],[-78.54,76.35],[-88.57,76.56],[-80.2,75.58],[-79.68,75.18],[-80.99,74.63],[-86.72,74.72],[-82.05,74.31],[-81.36,74.16],[-82.38,73.83],[-92.41,74.9],[-91.49,75.51],[-94.04,75.62],[-93.16,76.22],[-96.83,76.89],[-93.08,77.41],[-92.13,77.3],[-93.13,76.7],[-89.45,76.69],[-87.27,77.38],[-87.98,77.98],[-86.77,78.31],[-92.07,77.77],[-90.94,78.35],[-94.05,78.46],[-92.96,79.05],[-99.05,80.46],[-101.04,79.72],[-96.27,79.13],[-99.49,78.95],[-100.38,78.57],[-99.1,78.02],[-104.96,77.8],[-103.54,78.58],[-105.07,79.1],[-100.62,79.03],[-102.09,79.57],[-107.17,79.0],[-105.57,78.48],[-107.67,77.53],[-105.04,76.71],[-106.39,76.15],[-108.22,77.13],[-109.98,77.01],[-108.74,76.73],[-109.23,76.33],[-113.09,76.51],[-112.3,77.33],[-113.99,77.8],[-109.79,78.48],[-110.81,77.69],[-109.49,77.41],[-107.56,78.38],[-110.39,78.93],[-115.12,78.45],[-116.63,76.42],[-120.66,76.07],[-120.98,76.68],[-118.58,77.48],[-120.11,77.69],[-124.03,76.25],[-123.59,75.65],[-119.87,75.65],[-113.6,74.2],[-102.44,75.39],[-99.66,74.65],[-103.53,73.01],[-102.65,72.69],[-103.06,72.05],[-100.18,71.69],[-100.73,71.3],[-104.41,71.97],[-104.04,72.61],[-104.94,72.93],[-103.79,73.49],[-104.87,74.04],[-112.36,73.07],[-117.28,74.56],[-117.81,74.36],[-116.59,73.48],[-121.17,71.5],[-124.01,71.54],[-123.04,70.91],[-119.03,71.45],[-118.89,70.81],[-117.0,70.31],[-118.65,69.53],[-121.54,69.83],[-118.54,68.89],[-114.95,68.9],[-115.36,68.07],[-114.34,67.56],[-107.32,67.08],[-106.99,67.5],[-107.73,67.81],[-105.78,68.48],[-101.93,67.48],[-95.72,67.32],[-93.43,68.6],[-94.03,69.23],[-93.41,69.61],[-95.93,70.08],[-95.34,70.71],[-96.02,71.07],[-94.72,71.59],[-92.1,70.36],[-92.78,69.73],[-90.91,69.6],[-91.6,68.98],[-90.5,68.21],[-88.6,68.8],[-88.09,68.41],[-88.82,67.8],[-87.79,67.26],[-86.05,67.32],[-86.43,67.97],[-84.33,68.77],[-85.16,69.82],[-82.65,69.7],[-81.81,68.88],[-82.72,68.29],[-81.55,67.05],[-84.68,66.35],[-86.21,66.81],[-86.87,66.46],[-86.51,65.8],[-87.7,65.34],[-90.29,65.79],[-87.33,64.68],[-90.49,64.27],[-91.03,63.89],[-90.61,63.24],[-92.59,62.76],[-95.35,60.47],[-95.31,59.45],[-93.18,58.55],[-92.81,57.15],[-89.58,57.06],[-87.39,55.66],[-82.48,54.87],[-83.05,54.28],[-81.25,51.63],[-82.69,50.4],[-81.71,50.16],[-78.1,51.32],[-77.69,52.3],[-78.91,53.0],[-78.51,53.99],[-79.05,54.59],[-77.23,55.12],[-77.32,55.79],[-76.19,56.42],[-76.94,57.46],[-76.22,58.03],[-78.45,58.86],[-76.47,60.07],[-77.96,60.79],[-77.18,61.36],[-77.68,62.22],[-72.79,62.09],[-70.35,60.71],[-69.97,58.71],[-67.99,57.74],[-65.47,58.56],[-65.42,59.68],[-64.19,59.95],[-64.07,59.06],[-61.49,56.93],[-62.38,56.46],[-61.38,54.74],[-58.14,54.55],[-60.91,53.44],[-57.73,54.12],[-56.35,53.03],[-56.46,51.74],[-58.85,51.75],[-60.24,50.66],[-65.96,50.61],[-70.76,47.56],[-70.06,47.0],[-69.52,47.92],[-66.31,49.07],[-64.58,48.98],[-64.69,48.34],[-66.18,48.23]],[[-85.6,65.24],[-86.01,65.65],[-85.44,65.75],[-81.77,64.21],[-86.04,63.72],[-86.23,64.89],[-85.6,65.24]],[[-97.85,77.22],[-103.42,77.03],[-101.85,77.58],[-97.85,77.22]],[[-103.81,70.76],[-101.01,70.16],[-102.72,69.7],[-101.98,69.36],[-102.44,68.96],[-106.94,69.53],[-112.22,68.48],[-113.64,69.47],[-116.51,69.86],[-112.26,70.02],[-111.69,70.85],[-116.81,70.73],[-116.88,71.37],[-118.87,71.87],[-115.52,73.23],[-114.73,73.19],[-114.73,72.55],[-109.05,72.62],[-109.25,71.98],[-107.61,71.61],[-106.62,72.19],[-107.7,72.73],[-106.18,73.71],[-105.23,73.41],[-106.33,72.84],[-105.42,72.53],[-105.88,72.12],[-105.0,71.81],[-105.32,71.16],[-103.81,70.76]],[[-56.39,47.96],[-58.57,47.95],[-57.74,50.05],[-54.02,48.13],[-56.39,47.96]],[[-96.39,68.44],[-98.68,68.13],[-98.21,68.77],[-98.88,69.13],[-97.12,69.55],[-95.83,68.83],[-96.39,68.44]],[[-110.33,74.89],[-113.29,74.62],[-111.7,75.39],[-117.14,75.6],[-114.71,76.36],[-110.14,75.52],[-109.0,76.1],[-105.28,75.85],[-106.37,75.06],[-110.33,74.89]],[[-71.51,63.11],[-71.49,63.78],[-74.26,65.13],[-72.69,66.4],[-67.97,65.8],[-64.48,63.72],[-66.1,63.22],[-68.84,63.75],[-67.01,62.28],[-71.51,63.11]],[[-101.79,75.78],[-104.7,76.25],[-98.6,76.61],[-97.66,76.52],[-98.45,76.14],[-97.44,75.56],[-98.97,75.04],[-101.79,75.78]],[[-75.44,38.97],[-75.1,38.43],[-75.86,37.9],[-76.25,39.01],[-75.44,38.97]],[[-100.58,72.91],[-100.06,73.54],[-100.94,73.88],[-97.9,73.98],[-97.07,73.63],[-97.7,73.01],[-96.15,72.31],[-98.83,71.74],[-101.15,72.52],[-100.58,72.91]],[[-76.9,65.32],[-75.61,64.77],[-77.79,64.75],[-76.9,65.32]],[[-82.83,62.86],[-82.5,62.44],[-83.45,62.51],[-82.83,62.86]],[[-65.16,44.75],[-64.13,44.83],[-65.6,44.1],[-65.16,44.75]],[[-97.09,78.07],[-98.29,78.63],[-96.18,78.67],[-94.05,77.76],[-97.09,78.07]],[[-76.63,67.4],[-76.76,68.07],[-76.09,68.14],[-75.34,67.53],[-76.63,67.4]]],[[[141.22,50.09],[141.12,50.95],[140.47,50.92],[140.36,49.09],[134.95,43.49],[131.65,43.35],[130.59,42.29],[135.19,43.16],[137.71,45.27],[141.22,50.09]]],[[[71.49,71.36],[73.97,70.41],[72.28,70.21],[71.93,69.83],[73.24,68.6],[71.24,66.81],[69.72,66.6],[72.05,66.05],[72.93,66.55],[72.21,67.08],[75.31,68.92],[77.11,68.62],[76.69,68.26],[77.35,67.93],[78.28,68.41],[76.85,69.32],[73.97,69.34],[75.17,70.45],[73.57,71.11],[73.84,71.72],[77.99,71.13],[78.5,71.49],[76.42,71.81],[78.89,72.34],[81.69,71.88],[82.4,71.52],[81.83,70.92],[83.72,71.27],[80.85,72.73],[82.15,73.46],[81.35,73.83],[77.99,72.93],[75.45,73.72],[72.92,73.13],[70.15,73.84],[68.85,72.9],[72.49,72.75],[71.49,71.36]],[[74.28,72.1],[73.4,72.42],[74.74,72.48],[74.28,72.1]]],[[[81.74,75.92],[81.04,75.3],[83.49,75.67],[81.74,75.92]]],[[[47.68,-68.33],[49.18,-68.17],[49.67,-67.15],[51.05,-67.38],[50.3,-66.76],[53.11,-65.95],[48.11,-66.7],[48.47,-67.53],[46.37,-67.05],[42.91,-67.88],[47.57,-67.71],[47.68,-68.33]]],[[[49.62,69.67],[48.07,69.85],[47.54,68.91],[50.28,68.72],[50.78,69.29],[49.62,69.67]]],[[[78.73,74.9],[78.09,74.52],[79.64,74.55],[78.73,74.9]]],[[[-8.17,40.97],[-9.2,41.8],[-8.74,40.77],[-9.13,39.67],[-9.96,39.61],[-9.74,38.97],[-8.58,39.63],[-8.17,40.97]]],[[[118.05,73.86],[116.65,73.66],[121.31,72.88],[123.48,73.69],[118.05,73.86]]],[[[-80.29,28.49],[-81.1,31.49],[-81.64,30.14],[-80.37,27.56],[-80.29,28.49]]],[[[99.57,-66.97],[100.05,-66.8],[99.17,-66.22],[96.79,-65.88],[92.61,-66.61],[99.57,-66.97]]],[[[180.0,69.38],[175.54,69.93],[180.0,68.89],[180.0,69.38]]],[[[-180.0,68.89],[-175.08,68.03],[-179.14,69.25],[-180.0,68.89]]],[[[46.4,67.56],[47.32,67.76],[47.18,66.99],[48.0,66.8],[48.5,67.77],[57.98,68.89],[54.59,69.22],[47.65,67.96],[45.09,68.86],[45.93,68.31],[45.55,67.73],[44.14,68.27],[42.93,67.08],[40.7,66.98],[39.67,66.16],[32.33,66.9],[34.4,66.14],[34.59,64.42],[36.47,63.6],[38.57,64.34],[36.96,65.01],[39.8,64.61],[40.8,65.05],[39.98,65.6],[46.29,66.78],[45.51,67.35],[46.4,67.56]]],[[[87.65,-67.09],[90.4,-66.67],[85.43,-66.58],[82.55,-67.66],[87.65,-67.09]]],[[[-106.49,22.61],[-106.05,22.92],[-107.51,24.7],[-108.49,24.58],[-106.49,22.61]]],[[[66.68,-67.7],[63.46,-67.5],[69.03,-68.37],[68.6,-69.73],[66.86,-70.3],[69.52,-70.98],[68.9,-70.15],[69.92,-69.62],[69.44,-69.44],[70.43,-68.9],[69.66,-68.31],[70.59,-67.77],[66.68,-67.7]]],[[[91.42,76.15],[88.66,75.85],[87.71,75.5],[88.44,75.11],[94.32,76.41],[97.63,75.98],[97.34,76.64],[98.64,76.95],[94.9,77.15],[91.42,76.15]]],[[[21.16,-70.98],[26.94,-71.25],[32.42,-70.39],[25.68,-70.03],[25.06,-70.38],[26.91,-70.53],[26.3,-70.88],[19.97,-70.68],[18.9,-70.13],[17.46,-70.54],[16.04,-69.57],[15.25,-69.88],[15.66,-70.29],[12.53,-70.14],[10.74,-70.73],[11.07,-71.15],[13.58,-70.49],[21.16,-70.98]]],[[[-36.49,-54.77],[-35.77,-55.01],[-35.74,-54.1],[-38.58,-54.04],[-36.49,-54.77]]],[[[-7.98,-70.96],[-8.99,-71.81],[-0.88,-71.89],[8.27,-70.46],[3.7,-70.25],[-0.95,-71.45],[-2.15,-71.24],[-2.22,-70.37],[-4.5,-71.24],[-5.61,-70.57],[-7.98,-70.96]]],[[[-14.87,-73.35],[-10.95,-72.64],[-10.13,-71.55],[-12.51,-71.45],[-12.95,-72.32],[-16.61,-73.24],[-16.95,-73.68],[-15.48,-74.22],[-15.81,-74.65],[-14.23,-74.51],[-13.95,-74.07],[-15.46,-73.54],[-14.87,-73.35]]],[[[-83.41,29.81],[-83.86,29.6],[-82.82,28.7],[-83.31,27.78],[-81.93,26.15],[-82.88,27.75],[-82.39,28.66],[-83.41,29.81]]],[[[137.44,36.92],[137.9,37.13],[137.02,38.32],[136.31,36.61],[137.44,36.92]]],[[[54.22,81.67],[53.54,81.04],[42.64,80.68],[50.54,79.57],[59.66,79.49],[66.11,81.23],[61.06,82.01],[54.22,81.67]]],[[[-27.95,-80.39],[-23.88,-80.42],[-22.24,-79.58],[-35.79,-78.92],[-33.55,-78.15],[-34.63,-77.76],[-38.1,-78.9],[-32.04,-80.06],[-43.65,-81.5],[-27.95,-80.39]]],[[[82.77,74.56],[82.0,74.44],[82.85,73.83],[85.09,73.69],[86.65,74.16],[85.94,74.78],[86.8,75.14],[82.77,74.56]]],[[[-112.35,29.52],[-113.3,31.7],[-114.93,31.95],[-115.11,30.38],[-112.89,28.28],[-111.31,25.12],[-110.56,25.1],[-111.12,26.97],[-112.52,27.68],[-111.03,27.9],[-112.35,29.52]]],[[[-179.9,70.78],[-177.63,70.73],[-177.03,71.37],[-179.27,71.87],[-178.26,71.19],[-179.9,70.78]]],[[[58.22,69.26],[58.99,68.44],[60.68,68.53],[61.41,69.07],[60.41,69.53],[61.83,69.82],[57.92,70.43],[55.92,71.67],[55.55,71.1],[56.88,70.28],[59.76,69.56],[58.22,69.26]]],[[[130.18,41.82],[129.56,41.45],[130.04,40.82],[130.18,41.82]]],[[[140.32,71.9],[139.48,72.27],[140.1,72.67],[138.03,72.22],[139.72,71.5],[140.32,71.9]]],[[[67.92,71.74],[66.69,71.64],[65.74,70.1],[67.06,69.98],[67.92,71.74]]],[[[179.41,71.23],[178.26,71.46],[177.81,70.81],[178.93,70.58],[179.41,71.23]]],[[[-97.13,26.68],[-97.61,26.66],[-97.09,25.92],[-97.13,26.68]]],[[[-73.97,45.83],[-72.91,45.35],[-71.98,46.55],[-73.97,45.83]]],[[[-45.76,-60.69],[-44.02,-60.82],[-45.58,-60.22],[-45.76,-60.69]]],[[[70.13,-49.83],[68.19,-49.22],[68.74,-50.13],[70.13,-49.83]]],[[[153.24,48.01],[151.37,46.85],[152.55,46.73],[153.24,48.01]]],[[[98.67,77.87],[100.98,77.99],[99.95,78.84],[105.53,79.29],[95.58,79.05],[98.4,78.53],[98.67,77.87]]],[[[93.36,79.13],[94.83,79.46],[92.51,79.54],[93.36,79.13]]],[[[130.15,71.89],[130.73,72.99],[129.27,72.88],[128.55,72.02],[130.15,71.89]]],[[[112.15,73.67],[113.93,74.12],[113.43,74.78],[113.9,75.0],[112.41,75.22],[112.02,74.55],[106.83,73.56],[112.15,73.67]]],[[[-128.85,55.57],[-128.51,55.95],[-129.64,55.98],[-128.85,55.57]]],[[[77.53,79.22],[78.44,79.61],[77.02,79.96],[74.65,79.9],[77.53,79.22]]],[[[165.78,55.12],[168.79,54.43],[166.21,55.77],[165.23,55.46],[165.78,55.12]]],[[[68.99,-73.2],[68.85,-72.56],[71.66,-71.68],[66.27,-72.28],[66.6,-73.34],[68.99,-73.2]]],[[[-95.06,29.14],[-97.21,28.2],[-97.64,27.17],[-95.06,29.14]]],[[[138.15,37.47],[139.83,38.22],[140.2,40.21],[138.15,37.47]]],[[[138.76,56.69],[137.94,56.87],[137.41,55.91],[138.76,56.69]]],[[[137.15,34.5],[138.92,34.39],[139.55,33.53],[139.38,34.6],[140.79,35.2],[140.36,35.71],[137.15,34.5]]],[[[-109.89,25.58],[-108.56,25.1],[-109.33,26.82],[-109.89,25.58]]],[[[141.48,73.22],[139.86,73.44],[141.6,72.7],[142.28,73.1],[141.48,73.22]]],[[[59.76,-67.26],[55.31,-66.35],[56.47,-66.74],[55.65,-67.38],[59.76,-67.26]]],[[[-124.98,74.62],[-125.01,72.99],[-126.5,72.16],[-124.35,71.75],[-125.4,72.37],[-123.88,72.79],[-124.12,74.24],[-122.38,74.65],[-124.98,74.62]]],[[[180.0,52.34],[176.52,51.88],[179.52,51.33],[180.0,52.34]]],[[[74.26,-53.19],[72.91,-53.06],[73.43,-53.61],[74.26,-53.19]]],[[[-26.19,-76.2],[-18.97,-75.84],[-17.41,-74.79],[-26.49,-75.69],[-27.19,-76.1],[-26.19,-76.2]]],[[[160.85,70.53],[163.1,70.72],[159.18,71.07],[160.28,69.79],[161.19,70.11],[160.85,70.53]]],[[[50.43,71.95],[51.73,70.98],[55.54,70.33],[52.36,71.36],[52.22,72.13],[56.02,74.03],[55.62,75.05],[58.91,75.57],[54.7,75.46],[54.75,74.26],[50.43,71.95]]],[[[-44.14,-79.16],[-41.63,-78.97],[-45.47,-78.07],[-44.14,-79.16]]],[[[-7.83,53.16],[-7.73,53.83],[-8.4,53.9],[-7.83,53.16]]],[[[-29.04,-76.15],[-33.61,-77.37],[-28.71,-76.92],[-27.93,-76.51],[-29.04,-76.15]]],[[[-28.0,38.35],[-26.91,38.7],[-28.68,39.05],[-28.0,38.35]]],[[[100.25,-66.13],[101.77,-65.85],[100.3,-65.21],[100.25,-66.13]]],[[[172.4,52.49],[174.8,52.63],[172.62,53.32],[172.4,52.49]]],[[[61.71,75.46],[56.82,73.61],[58.01,73.38],[62.99,75.19],[61.71,75.46]]],[[[133.48,36.55],[132.86,35.99],[133.71,35.99],[133.48,36.55]]],[[[-147.8,65.97],[-144.17,66.45],[-145.99,66.96],[-149.72,66.21],[-147.8,65.97]]],[[[34.08,79.89],[35.55,80.19],[33.55,80.73],[30.68,80.11],[34.08,79.89]]],[[[-86.9,48.2],[-86.76,47.08],[-85.75,47.36],[-86.9,48.2]]],[[[135.42,75.63],[138.04,75.85],[135.07,76.13],[134.25,75.97],[135.42,75.63]]],[[[-146.51,62.5],[-146.69,61.85],[-144.84,62.46],[-146.51,62.5]]],[[[147.2,75.95],[144.46,75.57],[148.04,75.56],[147.2,75.95]]],[[[-177.2,-43.95],[-176.17,-44.68],[-175.76,-44.17],[-177.2,-43.95]]],[[[54.81,72.28],[55.56,71.87],[57.16,73.01],[55.98,73.24],[54.81,72.28]]],[[[168.96,69.74],[173.68,70.12],[171.36,70.5],[168.96,69.74]]],[[[-96.82,25.55],[-97.78,25.51],[-97.94,24.1],[-96.82,25.55]]],[[[6.89,43.63],[4.17,43.94],[2.72,42.66],[3.97,43.25],[6.35,42.85],[7.43,43.56],[6.89,43.63]]],[[[69.27,68.72],[68.56,69.62],[65.32,69.34],[67.78,68.29],[69.27,68.72]]],[[[78.71,81.25],[77.63,80.85],[80.26,80.89],[78.71,81.25]]],[[[140.85,35.91],[141.29,35.64],[141.2,37.43],[140.43,36.65],[140.85,35.91]]],[[[130.94,71.82],[129.22,71.28],[130.38,70.72],[132.51,71.67],[134.81,71.42],[130.94,71.82]]],[[[143.77,73.63],[143.03,73.24],[144.58,73.25],[143.77,73.63]]],[[[107.26,76.67],[108.8,76.93],[106.76,77.55],[106.33,77.31],[107.26,76.67]]],[[[-31.48,82.79],[-29.6,83.1],[-33.05,83.13],[-31.48,82.79]]],[[[70.48,76.85],[69.19,77.16],[67.64,76.18],[62.86,75.82],[68.88,75.88],[70.48,76.85]]],[[[69.64,-48.7],[69.46,-49.15],[71.07,-48.98],[69.64,-48.7]]],[[[135.32,74.45],[134.92,73.77],[137.1,74.26],[135.32,74.45]]],[[[97.26,81.44],[89.85,81.24],[97.35,80.53],[99.2,80.85],[97.26,81.44]]],[[[162.73,69.56],[163.67,69.86],[162.44,69.99],[162.73,69.56]]],[[[-20.46,-74.34],[-20.02,-73.91],[-21.58,-74.02],[-20.46,-74.34]]],[[[-27.6,71.6],[-26.97,71.95],[-28.21,71.96],[-27.6,71.6]]],[[[71.62,-70.79],[70.75,-71.09],[72.0,-71.2],[71.62,-70.79]]],[[[9.92,-70.13],[9.0,-70.42],[10.22,-70.55],[9.92,-70.13]]],[[[-54.94,-61.48],[-54.6,-61.02],[-56.11,-61.16],[-54.94,-61.48]]],[[[90.18,77.44],[89.06,77.09],[90.95,77.04],[90.18,77.44]]]]}}]}