{"type":"FeatureCollection","features":[{"type":"Feature","properties":{},"geometry":{"type":"MultiPolygon","coordinates":[[[[-66.95,11.98],[-69.97,12.69],[-71.19,11.25],[-70.95,12.56],[-71.97,12.65],[-75.86,10.75],[-75.93,9.5],[-76.9,8.65],[-79.36,10.01],[-81.19,9.1],[-83.71,11.1],[-82.74,12.17],[-83.29,13.67],[-81.98,13.1],[-81.68,12.13],[-81.54,12.91],[-79.58,12.24],[-78.19,13.08],[-77.58,15.25],[-79.76,16.21],[-81.14,17.82],[-84.63,18.76],[-83.35,19.94],[-83.48,21.24],[-80.82,21.97],[-77.71,20.34],[-77.78,19.67],[-74.07,19.96],[-74.57,20.93],[-78.21,22.87],[-79.57,22.84],[-79.69,23.66],[-80.71,23.37],[-78.62,24.63],[-77.58,23.4],[-77.24,24.86],[-75.72,23.25],[-75.88,21.92],[-74.33,24.12],[-74.91,23.85],[-76.55,25.82],[-75.6,27.3],[-76.67,31.53],[-81.08,31.73],[-77.36,34.53],[-75.09,35.16],[-75.36,36.44],[-73.96,37.27],[-71.47,40.81],[-69.78,41.24],[-69.1,43.55],[-66.88,44.61],[-66.69,43.4],[-65.63,43.09],[-64.09,44.42],[-61.2,44.79],[-59.49,46.07],[-60.2,46.88],[-58.94,47.53],[-56.42,47.55],[-56.83,46.72],[-53.41,46.27],[-51.96,47.64],[-53.42,49.77],[-56.18,50.47],[-54.81,50.65],[-55.54,51.09],[-54.66,51.92],[-55.4,52.37],[-55.25,53.65],[-59.42,55.42],[-61.06,57.82],[-62.48,57.79],[-61.51,57.37],[-60.96,55.18],[-58.14,54.55],[-60.91,53.44],[-58.38,53.9],[-57.56,53.47],[-58.21,52.82],[-56.98,52.82],[-60.66,51.93],[-60.85,51.29],[-67.22,50.94],[-71.71,49.61],[-76.1,50.09],[-77.89,52.72],[-78.91,53.0],[-78.51,53.99],[-79.57,54.27],[-77.12,55.37],[-80.46,55.03],[-79.76,53.77],[-80.76,53.12],[-82.3,54.2],[-81.98,55.21],[-87.63,56.58],[-88.09,56.22],[-87.39,55.66],[-82.48,54.87],[-83.05,54.28],[-82.28,53.04],[-85.9,51.74],[-87.19,50.46],[-90.65,50.17],[-93.67,51.14],[-96.18,53.26],[-99.21,54.45],[-103.0,55.01],[-104.57,54.03],[-106.81,54.33],[-104.52,55.15],[-107.55,55.37],[-109.68,56.89],[-110.83,56.87],[-109.93,59.14],[-111.16,59.11],[-113.13,61.78],[-115.76,62.92],[-119.87,61.76],[-121.24,62.27],[-119.6,63.01],[-123.13,62.78],[-123.32,60.72],[-124.96,59.37],[-121.75,57.16],[-123.3,55.87],[-125.42,57.39],[-124.85,56.37],[-126.02,56.04],[-128.0,56.9],[-129.51,56.55],[-130.39,57.34],[-131.26,56.77],[-131.39,57.54],[-129.74,58.5],[-131.53,58.31],[-131.02,58.9],[-131.91,59.29],[-132.15,60.47],[-134.79,60.79],[-134.17,61.6],[-135.29,62.35],[-134.81,62.96],[-141.46,65.08],[-140.58,66.62],[-141.98,66.81],[-141.16,67.35],[-145.73,67.65],[-150.17,66.55],[-150.55,67.36],[-162.46,67.6],[-162.15,68.23],[-164.98,68.12],[-166.16,69.13],[-166.85,68.32],[-161.92,66.2],[-166.33,66.52],[-168.19,65.19],[-166.17,64.35],[-161.22,64.13],[-165.88,62.83],[-166.67,61.67],[-165.43,60.9],[-167.05,60.68],[-167.51,59.92],[-162.09,59.83],[-162.66,59.1],[-161.64,58.34],[-157.8,58.06],[-158.74,57.03],[-168.98,53.23],[-172.81,52.74],[-173.03,52.15],[-174.54,52.63],[-179.35,51.74],[-178.73,51.13],[-175.12,52.05],[-173.04,51.75],[-168.48,52.6],[-165.84,54.06],[-159.03,54.74],[-159.53,55.6],[-157.85,55.87],[-155.91,57.47],[-154.46,56.95],[-154.78,56.01],[-151.63,57.49],[-151.51,58.94],[-145.55,60.34],[-144.66,59.59],[-141.54,59.89],[-138.39,58.87],[-133.02,54.5],[-133.64,54.13],[-132.65,52.65],[-130.69,51.69],[-131.55,54.12],[-131.06,54.29],[-128.01,51.2],[-129.44,50.73],[-124.91,48.16],[-124.0,45.13],[-125.1,42.66],[-124.41,41.53],[-124.91,40.57],[-123.87,39.14],[-124.21,36.85],[-118.78,31.63],[-116.67,31.52],[-116.27,29.79],[-114.52,28.8],[-115.95,28.29],[-114.34,26.62],[-112.78,26.34],[-112.14,24.22],[-110.14,22.55],[-109.48,23.03],[-106.9,22.04],[-105.08,18.89],[-103.33,17.92],[-96.98,15.34],[-94.37,16.02],[-91.32,13.55],[-88.04,13.03],[-85.49,9.26],[-83.99,9.26],[-83.92,8.33],[-82.09,7.05],[-80.15,7.06],[-79.83,8.25],[-78.52,7.86],[-77.53,6.51],[-77.48,3.75],[-78.9,2.8],[-81.19,-1.1],[-81.29,-2.5],[-80.35,-3.19],[-81.57,-4.57],[-81.42,-6.35],[-79.78,-7.12],[-78.59,-10.37],[-76.53,-13.0],[-76.87,-14.06],[-76.08,-15.13],[-70.54,-18.33],[-70.15,-21.47],[-71.07,-23.18],[-70.59,-25.13],[-72.19,-30.66],[-72.09,-34.76],[-74.12,-37.16],[-73.83,-41.64],[-74.5,-41.9],[-74.13,-42.8],[-75.04,-43.84],[-74.56,-44.36],[-75.4,-45.02],[-75.02,-45.94],[-76.02,-47.01],[-74.44,-47.3],[-75.74,-47.7],[-76.14,-48.9],[-74.76,-53.35],[-71.86,-54.94],[-67.91,-56.11],[-66.4,-55.13],[-63.33,-54.83],[-66.97,-54.19],[-68.28,-53.28],[-68.02,-52.36],[-69.09,-51.33],[-67.06,-48.74],[-65.63,-48.3],[-65.65,-46.94],[-67.29,-45.96],[-65.06,-45.27],[-64.91,-43.39],[-63.15,-42.68],[-63.63,-41.88],[-64.68,-42.11],[-64.74,-41.17],[-62.09,-41.0],[-61.94,-39.41],[-57.42,-38.42],[-56.29,-36.56],[-57.27,-36.0],[-56.68,-35.73],[-57.54,-34.7],[-54.8,-35.25],[-53.38,-34.54],[-48.81,-29.08],[-48.0,-27.37],[-48.62,-26.55],[-47.36,-24.72],[-45.55,-24.5],[-43.96,-23.13],[-42.06,-23.33],[-40.63,-22.28],[-39.56,-18.22],[-38.46,-17.91],[-39.09,-17.02],[-38.44,-13.12],[-34.37,-7.98],[-35.41,-4.79],[-37.24,-4.61],[-39.16,-2.73],[-43.98,-2.38],[-44.68,-0.94],[-49.09,-0.01],[-51.41,4.79],[-54.24,6.24],[-56.97,6.06],[-58.28,7.84],[-60.04,8.64],[-61.02,9.82],[-60.47,11.55],[-62.16,10.81],[-63.74,10.87],[-63.83,11.52],[-65.78,10.38],[-68.63,11.42],[-66.86,11.34],[-65.77,11.78],[-66.95,11.98]],[[-85.5,17.34],[-85.93,16.62],[-87.98,16.33],[-87.32,18.14],[-85.04,18.53],[-84.89,17.47],[-85.5,17.34]],[[-120.77,60.78],[-116.44,60.21],[-119.47,59.23],[-122.87,60.7],[-120.77,60.78]],[[-133.69,59.06],[-134.53,58.46],[-135.0,59.42],[-136.06,59.57],[-137.48,58.54],[-137.52,59.69],[-144.3,60.63],[-144.49,61.16],[-142.4,61.41],[-144.34,61.58],[-144.84,62.46],[-143.84,62.87],[-147.69,62.84],[-147.08,61.96],[-144.78,61.49],[-145.78,60.87],[-149.32,61.0],[-148.34,61.86],[-149.56,61.97],[-148.55,62.84],[-149.33,63.28],[-152.46,62.46],[-152.9,61.9],[-151.67,61.61],[-153.35,60.47],[-154.57,61.18],[-154.59,62.06],[-147.77,64.28],[-144.75,63.88],[-140.52,61.95],[-137.5,62.82],[-133.69,59.06]],[[-70.24,-50.4],[-69.79,-50.65],[-71.08,-51.11],[-71.27,-51.91],[-72.18,-51.39],[-71.53,-50.85],[-72.53,-50.72],[-71.57,-49.62],[-70.28,-49.78],[-70.89,-50.32],[-70.24,-50.4]],[[-115.96,59.52],[-115.06,60.06],[-113.85,59.48],[-115.78,58.65],[-116.98,59.2],[-115.96,59.52]],[[-132.89,59.08],[-133.74,60.04],[-132.4,59.67],[-132.89,59.08]],[[-115.97,51.82],[-117.99,51.92],[-117.96,52.92],[-115.97,51.82]],[[-70.2,-54.59],[-66.39,-54.75],[-68.9,-55.54],[-71.23,-54.76],[-70.2,-54.59]],[[-132.4,58.7],[-132.02,56.77],[-133.41,57.91],[-132.4,58.7]],[[-73.42,-50.18],[-73.2,-51.26],[-73.97,-50.31],[-73.52,-49.33],[-74.05,-48.83],[-72.76,-48.41],[-73.29,-47.91],[-72.56,-47.62],[-72.68,-46.16],[-68.82,-47.15],[-69.6,-48.85],[-72.98,-49.21],[-72.65,-49.88],[-73.42,-50.18]],[[-66.36,-24.75],[-66.54,-26.63],[-68.21,-25.9],[-67.64,-26.72],[-69.98,-31.3],[-69.29,-34.29],[-70.31,-35.41],[-70.71,-31.09],[-69.77,-29.49],[-69.37,-25.75],[-68.02,-23.99],[-67.83,-25.37],[-66.96,-25.21],[-66.89,-24.14],[-66.23,-24.14],[-66.36,-24.75]],[[-60.56,47.28],[-61.26,46.43],[-63.78,46.71],[-64.59,47.5],[-63.9,47.97],[-64.03,49.23],[-61.9,48.7],[-61.17,49.15],[-62.36,49.95],[-60.23,49.81],[-57.28,51.32],[-58.53,49.21],[-59.66,48.77],[-59.48,47.73],[-60.56,47.28]],[[-114.97,43.76],[-115.78,44.56],[-115.33,45.08],[-113.89,44.15],[-114.97,43.76]],[[-67.15,-23.84],[-67.85,-23.61],[-68.13,-21.51],[-66.68,-22.45],[-67.15,-23.84]],[[-87.77,26.52],[-91.66,26.93],[-91.2,28.66],[-89.79,29.14],[-89.33,28.64],[-88.15,30.19],[-85.85,30.09],[-85.21,29.21],[-83.85,29.84],[-83.7,28.52],[-87.77,26.52]],[[-118.47,53.19],[-118.92,52.84],[-120.57,54.23],[-118.47,53.19]],[[-111.89,26.99],[-112.34,28.1],[-110.76,27.8],[-110.9,27.13],[-109.52,26.41],[-109.84,25.32],[-108.26,24.74],[-109.16,24.11],[-110.21,24.49],[-111.12,26.97],[-111.89,26.99]],[[-145.74,64.91],[-145.5,65.58],[-140.8,64.6],[-143.48,63.73],[-144.4,64.76],[-145.74,64.91]],[[-115.32,57.32],[-116.29,57.02],[-115.76,58.01],[-115.32,57.32]],[[-109.76,42.91],[-110.43,43.3],[-110.57,45.25],[-109.72,45.45],[-109.07,43.79],[-109.91,43.59],[-109.15,42.73],[-109.76,42.91]],[[-113.65,30.87],[-113.18,29.79],[-114.61,30.46],[-114.26,31.29],[-113.65,30.87]],[[-111.73,57.88],[-114.2,57.38],[-113.75,57.96],[-111.73,57.88]],[[-109.17,54.82],[-110.36,55.05],[-110.28,55.68],[-108.57,55.14],[-109.17,54.82]],[[-120.46,57.46],[-119.71,58.01],[-117.85,57.62],[-118.96,56.49],[-120.46,57.46]],[[-73.81,-46.79],[-73.39,-46.45],[-72.98,-47.34],[-73.81,-46.79]],[[-64.9,50.03],[-65.39,49.36],[-67.15,49.44],[-64.9,50.03]]],[[[-24.01,65.63],[-24.51,65.28],[-23.73,64.57],[-22.46,64.43],[-23.0,63.86],[-18.23,63.24],[-13.32,64.98],[-19.31,63.63],[-21.66,64.18],[-22.36,64.89],[-21.79,65.46],[-16.08,66.35],[-15.19,65.48],[-12.93,65.64],[-16.35,66.72],[-24.01,65.63]]],[[[110.1,26.89],[110.63,25.75],[111.12,27.63],[110.1,26.89]]],[[[89.11,62.13],[89.62,62.45],[88.73,62.5],[89.11,62.13]]],[[[119.07,28.97],[120.11,28.82],[120.47,29.69],[121.47,29.37],[117.65,24.04],[116.09,23.57],[116.25,24.69],[114.4,23.9],[110.48,24.6],[112.39,22.14],[111.66,21.66],[113.85,21.52],[119.62,24.62],[120.93,26.21],[123.17,30.47],[119.54,35.2],[122.92,36.91],[123.07,37.63],[121.18,37.94],[121.59,38.85],[123.3,38.69],[123.86,39.79],[124.93,39.16],[124.63,37.73],[126.1,37.66],[125.81,34.95],[124.97,34.11],[126.06,33.98],[125.9,33.21],[127.23,33.16],[126.95,33.95],[128.87,34.45],[129.15,33.66],[128.29,32.81],[129.56,32.33],[129.11,31.24],[130.09,30.44],[128.81,28.63],[133.47,33.24],[135.0,33.92],[135.63,33.1],[137.59,34.48],[139.78,33.63],[139.38,34.6],[141.29,35.64],[141.01,38.04],[142.3,38.79],[141.37,42.3],[143.14,41.87],[145.95,42.9],[147.68,44.85],[150.8,45.8],[150.78,46.91],[146.78,44.55],[142.69,44.87],[142.26,45.83],[144.0,46.49],[142.83,48.28],[143.8,49.08],[144.55,48.24],[145.24,48.92],[143.34,51.76],[143.98,52.43],[143.54,54.32],[142.43,54.64],[142.17,53.62],[139.89,54.66],[138.55,54.14],[138.7,55.18],[137.07,55.77],[139.85,57.09],[140.83,58.43],[134.12,54.5],[131.33,54.2],[127.5,55.2],[126.12,54.98],[126.51,54.34],[125.57,54.07],[119.63,54.08],[116.33,52.78],[115.77,52.99],[116.38,53.52],[115.39,53.38],[114.61,52.3],[112.38,52.0],[112.61,51.09],[113.7,51.06],[113.04,50.34],[113.72,50.0],[113.72,48.63],[106.19,46.79],[106.92,47.74],[106.28,48.26],[107.46,49.48],[110.05,51.45],[111.44,51.18],[110.84,51.73],[111.43,52.19],[108.07,52.45],[109.61,53.44],[109.63,55.72],[108.71,54.17],[106.8,53.13],[106.32,53.49],[107.27,54.02],[106.43,54.34],[105.6,53.4],[104.38,53.66],[104.34,54.29],[105.93,54.7],[105.54,55.28],[103.93,54.87],[105.02,55.64],[104.45,56.63],[105.77,56.95],[103.28,57.97],[103.54,58.99],[99.77,59.66],[94.22,58.81],[90.83,59.97],[89.8,61.13],[90.35,61.68],[86.42,62.04],[87.4,62.7],[87.0,63.07],[85.55,62.31],[81.01,62.41],[77.58,63.92],[68.07,64.51],[67.32,63.97],[65.8,65.01],[64.41,64.76],[64.79,64.08],[60.63,64.3],[59.12,61.5],[58.47,61.77],[58.86,62.57],[57.0,63.75],[54.0,63.71],[53.39,62.71],[51.46,63.19],[45.26,62.42],[42.85,63.17],[42.87,64.36],[39.74,65.39],[42.37,66.29],[44.53,65.97],[44.9,66.95],[48.0,66.8],[48.16,67.58],[47.18,66.99],[45.51,67.35],[46.73,67.75],[46.59,68.7],[45.65,68.5],[45.55,67.73],[43.83,68.07],[44.93,67.34],[43.75,66.53],[42.37,67.06],[41.28,66.24],[38.33,66.27],[33.04,67.16],[31.82,66.84],[31.25,65.62],[28.74,65.1],[26.09,66.85],[20.57,66.45],[20.51,65.26],[18.18,64.95],[17.96,64.1],[14.47,63.82],[13.97,63.34],[14.64,62.66],[12.98,61.5],[10.89,61.83],[7.15,59.21],[6.05,59.87],[7.09,60.47],[5.96,61.13],[6.66,62.4],[12.24,63.73],[11.88,65.11],[13.62,67.04],[16.19,68.31],[15.43,68.76],[17.07,68.51],[17.89,68.89],[17.15,69.36],[22.17,70.33],[23.88,70.0],[23.25,70.51],[23.8,70.6],[30.09,70.65],[24.89,71.17],[15.09,69.32],[12.6,67.83],[13.38,67.4],[12.84,66.83],[11.59,66.69],[12.34,66.27],[11.12,66.13],[11.42,65.18],[4.76,62.49],[4.11,61.2],[5.05,58.51],[7.45,57.72],[10.51,58.81],[11.16,58.06],[7.84,57.1],[7.37,55.39],[8.29,55.23],[7.92,54.41],[4.98,53.55],[3.85,52.16],[0.49,53.49],[-1.43,56.03],[-2.4,56.29],[-1.3,57.64],[-3.0,58.0],[-2.76,58.81],[-0.58,59.85],[-0.88,61.14],[-2.67,60.37],[-1.68,59.92],[-2.2,59.47],[-4.48,59.36],[-3.53,58.71],[-7.67,58.44],[-7.52,57.25],[-8.34,56.67],[-6.76,55.52],[-8.5,55.59],[-9.29,54.99],[-9.02,54.41],[-10.75,54.44],[-10.21,53.03],[-10.97,52.17],[-8.77,51.18],[-5.65,52.35],[-6.01,53.99],[-4.95,54.2],[-5.01,52.28],[-5.77,51.68],[-4.64,50.84],[-5.6,50.85],[-6.45,49.54],[-2.81,50.59],[1.18,50.52],[-0.16,50.06],[-0.02,49.45],[-1.98,50.12],[-3.47,48.93],[-5.35,48.7],[-4.91,47.7],[-1.91,46.45],[-1.3,45.28],[-1.65,43.64],[-8.1,44.05],[-9.63,43.32],[-8.72,41.01],[-9.13,39.67],[-9.96,39.61],[-9.92,36.72],[-6.8,36.49],[-6.18,35.32],[-7.35,33.91],[-8.9,33.51],[-10.03,32.07],[-9.94,29.94],[-11.49,28.49],[-13.45,28.02],[-13.49,27.02],[-14.21,26.9],[-14.97,24.78],[-17.32,22.03],[-17.54,20.69],[-16.62,20.24],[-16.18,17.89],[-16.61,15.79],[-17.68,14.72],[-16.4,10.82],[-13.99,9.89],[-12.91,7.3],[-7.79,4.08],[-5.22,5.13],[-1.4,4.61],[2.71,6.34],[4.81,5.99],[5.81,3.92],[8.25,4.53],[8.42,1.1],[9.27,-0.16],[8.6,-0.26],[8.54,-1.26],[12.01,-5.34],[13.3,-8.38],[12.5,-9.1],[13.58,-12.23],[12.07,-13.43],[11.24,-17.54],[14.39,-22.52],[14.01,-24.22],[15.13,-27.92],[18.1,-31.68],[17.82,-34.04],[19.65,-35.15],[22.17,-34.67],[22.23,-34.08],[26.88,-34.14],[28.87,-32.95],[31.42,-29.38],[32.85,-28.55],[33.34,-25.71],[35.54,-24.71],[36.05,-22.23],[35.23,-19.94],[37.29,-17.8],[39.11,-17.47],[41.16,-15.08],[41.09,-10.65],[40.02,-9.72],[40.2,-7.92],[39.47,-6.72],[40.39,-2.87],[43.68,0.78],[47.53,3.31],[51.59,10.43],[51.36,12.22],[44.34,10.46],[43.6,12.11],[50.98,14.79],[53.47,16.71],[56.65,17.3],[56.06,17.79],[58.27,18.96],[58.07,20.08],[59.43,20.46],[59.05,20.92],[60.02,22.54],[58.35,24.1],[56.94,24.25],[56.54,25.89],[61.34,24.71],[66.52,25.26],[68.88,22.9],[68.62,21.99],[69.46,21.13],[70.67,20.53],[72.54,21.07],[73.36,15.3],[75.72,11.25],[76.09,8.82],[77.9,7.91],[78.74,9.12],[79.78,8.96],[79.52,6.87],[80.73,5.58],[82.26,7.37],[80.02,10.57],[79.85,11.93],[80.73,13.16],[80.37,15.64],[81.22,15.39],[84.65,18.95],[82.14,17.11],[79.97,17.11],[79.24,13.05],[79.26,13.79],[76.17,15.36],[76.38,15.97],[75.16,16.42],[74.97,17.72],[73.97,18.51],[74.57,18.89],[73.97,19.91],[74.38,20.87],[74.99,20.55],[75.21,21.61],[77.53,22.55],[75.63,22.33],[75.8,23.36],[76.91,23.57],[77.5,24.61],[83.76,24.87],[83.96,24.05],[87.44,24.89],[86.67,23.34],[86.79,21.27],[86.1,21.15],[86.51,20.16],[85.13,19.69],[85.09,18.95],[86.72,19.79],[87.01,21.14],[87.96,21.61],[88.39,21.11],[91.0,21.9],[92.14,21.48],[91.98,22.6],[89.82,21.81],[89.66,22.92],[91.56,23.35],[91.37,23.96],[92.62,25.0],[90.26,25.08],[89.84,25.81],[92.71,26.19],[93.03,27.24],[94.9,26.68],[94.35,25.76],[95.05,25.6],[95.17,27.02],[96.23,28.13],[96.37,27.06],[97.54,26.63],[95.39,29.57],[92.57,27.49],[91.17,28.01],[89.46,27.23],[82.95,28.55],[82.23,29.57],[77.44,31.58],[75.07,34.58],[73.42,34.93],[74.13,35.63],[69.57,35.25],[69.91,36.3],[71.24,36.59],[71.12,38.74],[67.59,39.07],[75.99,41.23],[72.53,42.37],[75.21,42.72],[75.62,41.85],[76.16,42.4],[78.0,41.99],[79.44,42.94],[80.66,42.47],[83.95,43.39],[83.05,43.77],[83.67,44.53],[87.54,43.56],[87.73,42.42],[79.21,41.78],[77.54,40.43],[74.98,39.88],[74.78,39.22],[75.97,38.8],[76.7,37.08],[78.35,37.18],[79.22,36.35],[80.29,36.89],[81.12,36.05],[89.09,39.11],[92.35,39.17],[96.6,40.38],[100.31,38.69],[101.9,38.93],[102.28,37.79],[103.95,37.04],[102.83,36.52],[102.99,35.56],[104.49,34.61],[103.9,33.83],[104.5,32.78],[101.56,28.38],[103.68,26.04],[102.89,25.29],[102.38,27.13],[101.68,27.32],[100.41,26.62],[100.32,25.68],[99.12,25.67],[98.37,27.86],[97.67,28.03],[98.11,25.03],[99.1,25.43],[100.67,24.44],[101.93,25.16],[102.54,24.25],[103.75,24.48],[109.11,26.35],[109.23,28.98],[110.92,29.48],[110.83,28.82],[112.11,28.14],[111.88,26.58],[112.96,26.26],[113.89,29.47],[115.62,29.11],[114.13,28.09],[114.79,26.59],[115.71,26.86],[115.85,27.73],[116.85,27.17],[116.79,28.19],[118.11,28.33],[117.07,29.88],[117.63,30.61],[119.54,30.46],[119.81,29.54],[119.07,28.97]],[[115.39,44.75],[113.66,45.3],[116.13,46.35],[115.39,44.75]],[[120.88,38.59],[119.49,37.17],[119.44,38.04],[117.96,38.52],[121.7,40.78],[120.88,38.59]],[[36.01,24.05],[34.7,25.51],[35.2,26.41],[34.21,26.58],[34.28,27.68],[35.43,27.3],[36.95,24.32],[38.99,22.48],[38.49,21.6],[39.68,19.33],[40.81,18.77],[40.57,17.92],[42.04,17.59],[41.19,16.93],[42.02,14.75],[42.72,14.8],[42.59,13.8],[40.95,14.88],[41.3,15.51],[40.45,16.89],[39.47,16.82],[38.54,19.48],[37.38,19.62],[37.45,21.54],[35.64,23.38],[36.57,23.65],[36.01,24.05]],[[71.61,42.41],[71.98,42.06],[70.79,41.93],[71.61,42.41]],[[120.81,49.02],[121.64,49.64],[120.45,49.94],[121.87,50.71],[120.79,50.81],[120.93,51.53],[122.91,52.64],[123.24,51.67],[124.35,51.54],[122.23,50.67],[122.77,49.88],[121.91,49.26],[122.52,48.84],[120.33,46.31],[120.29,45.16],[117.98,44.1],[118.39,42.86],[116.87,42.31],[115.89,43.49],[116.8,43.79],[116.38,44.3],[118.92,45.45],[117.14,45.5],[116.56,46.2],[120.81,49.02]],[[113.44,47.22],[112.55,47.12],[113.51,47.82],[113.98,47.67],[113.44,47.22]],[[21.64,59.01],[21.55,57.48],[19.23,57.43],[19.24,58.46],[17.73,57.44],[16.9,57.86],[20.25,59.72],[22.09,59.54],[21.64,59.01]],[[128.03,39.82],[130.25,40.94],[130.59,42.29],[135.19,43.16],[140.93,49.1],[140.75,51.26],[142.06,51.3],[141.48,50.64],[141.84,47.01],[140.94,46.2],[141.71,45.84],[140.87,45.5],[141.25,43.85],[139.35,42.36],[140.08,41.99],[139.3,41.66],[139.96,40.34],[138.14,37.24],[137.02,38.32],[135.86,35.93],[133.92,35.87],[133.26,36.66],[133.08,35.66],[130.81,34.92],[130.39,34.07],[129.41,34.81],[129.7,37.18],[128.03,39.82]],[[15.09,-21.64],[15.68,-20.96],[15.5,-21.83],[16.28,-21.79],[16.15,-26.03],[15.09,-21.64]],[[53.95,25.49],[54.14,24.5],[52.88,25.33],[52.04,24.72],[51.75,26.31],[50.05,27.46],[52.34,27.54],[55.19,25.8],[55.03,25.07],[53.95,25.49]],[[6.91,41.06],[8.35,40.35],[7.67,39.09],[8.56,38.44],[9.76,38.73],[12.98,36.8],[26.78,31.99],[25.46,31.63],[25.21,32.27],[21.45,33.37],[18.83,30.48],[15.79,31.75],[15.36,32.8],[11.71,33.16],[10.74,34.29],[11.7,34.74],[11.43,37.13],[9.14,37.7],[8.11,37.0],[1.36,37.01],[-2.2,35.15],[-3.09,35.75],[-4.65,35.42],[-5.04,36.2],[-2.26,36.26],[-0.58,37.26],[0.25,38.85],[-0.09,39.63],[3.59,41.85],[3.67,43.16],[6.35,42.85],[5.7,41.6],[6.91,41.06]],[[138.42,49.85],[139.41,49.59],[139.5,48.74],[138.08,47.91],[137.76,46.65],[136.47,46.95],[137.51,48.33],[137.09,48.82],[138.42,49.85]],[[90.9,46.4],[86.42,49.05],[85.41,48.7],[85.15,50.11],[86.84,50.18],[86.22,50.96],[86.62,51.58],[87.61,51.15],[88.78,52.22],[93.82,53.05],[94.75,53.95],[92.82,54.9],[98.33,55.09],[103.09,51.55],[105.89,51.34],[103.98,50.62],[104.15,49.59],[101.57,49.33],[103.72,49.3],[103.3,47.51],[105.57,46.68],[101.66,45.45],[98.35,45.98],[100.88,44.84],[100.43,44.3],[95.81,45.31],[95.44,44.97],[96.2,44.51],[94.76,44.55],[94.66,45.43],[93.39,45.06],[92.67,46.01],[90.9,46.4]],[[79.31,45.25],[81.81,45.55],[80.88,45.16],[80.9,44.39],[79.35,44.48],[79.31,45.25]],[[90.06,53.76],[88.63,53.86],[88.03,54.89],[89.19,55.19],[88.73,54.6],[90.06,53.76]],[[15.65,22.67],[15.5,21.52],[13.89,21.87],[13.32,20.86],[11.24,21.99],[8.38,21.99],[10.18,23.32],[11.34,23.13],[13.37,25.6],[14.57,25.39],[18.16,26.74],[22.13,24.21],[21.99,22.62],[20.33,21.02],[20.01,24.11],[18.63,22.53],[15.65,22.67]],[[24.23,64.99],[21.0,63.58],[22.05,64.39],[21.57,65.08],[24.23,64.99]],[[136.45,45.81],[135.94,46.48],[136.98,46.51],[137.22,45.95],[136.45,45.81]],[[80.36,7.08],[79.98,8.58],[80.63,9.43],[81.83,7.14],[81.17,6.3],[80.59,7.94],[80.36,7.08]],[[97.47,40.64],[94.3,40.99],[96.59,42.6],[97.37,42.38],[97.47,40.64]],[[117.55,51.43],[117.84,50.68],[116.25,51.32],[117.55,51.43]],[[21.9,-21.84],[23.14,-21.95],[23.42,-24.09],[23.03,-25.42],[21.49,-26.38],[22.31,-28.43],[21.97,-30.1],[21.47,-29.51],[20.02,-30.21],[18.98,-29.64],[19.66,-28.38],[18.18,-28.65],[15.81,-26.67],[17.44,-25.56],[16.41,-24.55],[17.23,-23.45],[21.9,-21.84]],[[130.75,53.9],[132.76,53.33],[135.29,54.26],[136.0,53.07],[135.21,52.23],[135.7,51.71],[134.83,51.31],[136.69,50.49],[132.95,50.15],[132.44,50.63],[133.68,51.75],[132.23,52.04],[132.55,52.97],[129.39,53.72],[130.75,53.9]],[[13.87,54.78],[12.08,54.67],[14.22,55.38],[13.87,54.78]],[[11.07,56.65],[10.51,56.91],[11.68,57.11],[11.07,56.65]],[[132.01,50.91],[131.31,51.82],[132.4,51.61],[132.01,50.91]],[[38.94,65.53],[35.39,65.27],[35.01,65.81],[39.67,66.16],[38.94,65.53]],[[87.85,43.67],[91.39,43.72],[90.13,43.05],[87.85,43.67]],[[39.03,64.76],[40.1,64.04],[38.34,64.13],[39.03,64.76]],[[94.55,43.57],[95.55,42.97],[95.2,42.63],[91.7,43.82],[94.55,43.57]],[[15.24,55.89],[16.69,55.91],[15.65,55.41],[14.72,55.64],[15.24,55.89]],[[19.85,63.34],[20.62,63.5],[20.12,62.0],[21.22,61.25],[19.27,60.45],[17.38,61.07],[19.85,63.34]],[[-3.65,54.03],[-3.8,53.37],[-4.35,53.9],[-3.65,54.03]],[[127.79,41.98],[128.16,42.45],[129.33,41.55],[127.79,41.98]],[[67.41,34.07],[67.93,34.14],[67.58,33.34],[67.41,34.07]]],[[[-89.83,-0.61],[-90.3,0.11],[-89.67,0.53],[-90.57,0.96],[-92.03,-0.02],[-91.75,-1.37],[-90.42,-1.78],[-89.33,-1.57],[-88.95,-0.54],[-89.83,-0.61]]],[[[180.0,63.14],[179.01,63.52],[179.16,64.78],[180.0,64.98],[179.65,66.26],[179.21,65.2],[173.3,65.14],[173.09,64.49],[174.31,63.68],[172.39,63.41],[173.58,62.61],[171.94,61.09],[167.98,61.47],[168.78,62.37],[168.07,63.81],[167.45,63.12],[166.01,63.22],[165.98,62.57],[163.3,62.95],[158.96,62.19],[160.11,61.69],[159.36,61.15],[159.97,60.59],[161.3,60.55],[160.62,61.76],[161.41,62.3],[163.58,61.26],[159.26,59.19],[158.83,58.26],[156.27,58.03],[155.0,55.43],[156.32,51.32],[155.23,51.08],[154.89,50.15],[156.16,50.01],[158.93,51.84],[158.68,52.84],[160.22,53.12],[160.49,54.39],[162.26,54.26],[162.75,55.14],[161.88,55.62],[163.54,55.85],[164.08,56.73],[163.05,57.0],[163.76,57.51],[162.65,58.4],[165.25,59.12],[163.49,59.76],[166.07,60.25],[167.01,59.71],[167.05,60.34],[169.02,60.5],[170.67,59.79],[170.8,60.41],[177.58,62.48],[179.64,62.07],[180.0,63.14]]],[[[-180.0,64.98],[-177.17,65.55],[-176.26,64.67],[-172.54,64.06],[-171.95,65.29],[-169.37,66.16],[-177.05,68.11],[-175.41,67.19],[-175.71,66.35],[-179.39,66.46],[-180.0,66.25],[-180.0,64.98]]],[[[92.9,8.83],[93.86,6.32],[94.02,8.63],[92.9,8.83]]],[[[138.85,-8.48],[140.0,-8.29],[140.5,-9.24],[142.65,-9.57],[141.66,-10.16],[140.69,-17.33],[139.86,-17.2],[139.85,-16.17],[138.63,-16.79],[136.27,-15.27],[136.01,-14.29],[136.83,-14.66],[137.28,-13.44],[136.65,-13.22],[137.08,-10.89],[134.24,-11.85],[133.16,-10.45],[129.96,-11.07],[129.81,-12.0],[130.42,-12.23],[129.34,-14.71],[128.27,-14.61],[127.78,-13.71],[125.63,-13.72],[124.04,-15.64],[123.01,-15.51],[122.01,-16.6],[122.16,-18.14],[120.68,-19.66],[118.69,-19.56],[118.8,-20.1],[116.62,-20.2],[115.94,-20.89],[115.29,-20.11],[115.32,-21.2],[113.74,-21.68],[112.64,-25.89],[113.97,-27.43],[115.41,-31.31],[115.62,-33.21],[114.58,-33.98],[116.25,-35.39],[117.81,-35.34],[119.99,-33.99],[123.7,-34.57],[124.41,-33.05],[125.88,-32.42],[130.03,-31.69],[133.06,-32.15],[132.81,-32.85],[133.63,-32.68],[134.15,-34.1],[134.99,-33.93],[134.66,-34.88],[136.58,-36.25],[139.35,-36.08],[140.1,-38.18],[143.51,-39.19],[145.1,-38.54],[147.42,-39.77],[146.89,-40.86],[143.63,-39.85],[144.62,-40.53],[144.18,-41.1],[145.15,-43.17],[147.4,-43.99],[148.48,-43.23],[148.83,-41.49],[147.37,-38.6],[150.4,-37.67],[151.57,-33.64],[153.42,-31.74],[154.09,-28.06],[153.97,-26.9],[153.24,-26.71],[153.72,-24.6],[151.77,-22.79],[151.02,-23.09],[151.34,-22.5],[149.97,-20.51],[147.02,-18.94],[145.51,-16.26],[145.82,-14.67],[144.5,-13.69],[143.8,-13.94],[142.9,-10.59],[143.66,-10.09],[142.89,-9.49],[144.06,-7.94],[146.0,-8.11],[147.75,-10.31],[154.39,-11.72],[154.5,-11.04],[151.42,-9.96],[151.19,-8.96],[152.28,-9.83],[153.18,-9.46],[152.91,-8.71],[150.32,-8.0],[150.74,-9.15],[149.82,-9.5],[147.26,-7.18],[148.38,-5.86],[148.7,-6.4],[151.28,-6.29],[154.04,-3.88],[152.65,-3.53],[152.65,-2.41],[151.33,-2.69],[149.48,-1.11],[149.62,-2.66],[152.01,-3.55],[150.64,-5.21],[150.32,-4.66],[149.54,-5.41],[146.31,-5.28],[146.44,-4.55],[144.53,-2.96],[142.52,-3.01],[142.81,-3.83],[141.23,-3.95],[144.17,-4.94],[142.31,-5.4],[142.41,-6.05],[145.14,-6.86],[143.91,-7.54],[142.9,-7.01],[142.74,-9.09],[140.78,-8.91],[140.28,-7.96],[138.27,-8.01],[139.01,-6.37],[138.07,-5.33],[138.4,-7.28],[137.27,-8.59],[138.85,-8.48]],[[145.56,-6.92],[146.7,-7.84],[145.43,-7.65],[145.56,-6.92]],[[136.56,-34.69],[137.29,-34.08],[137.34,-34.74],[136.56,-34.69]]],[[[178.94,-37.33],[176.69,-37.5],[175.92,-35.86],[172.44,-34.3],[174.62,-37.48],[173.6,-39.69],[175.08,-40.65],[172.84,-40.14],[171.81,-40.72],[172.15,-41.31],[170.62,-42.93],[167.22,-44.37],[166.09,-46.15],[167.71,-47.65],[171.26,-46.18],[170.9,-45.6],[171.65,-44.44],[173.07,-44.18],[172.95,-43.22],[174.4,-41.59],[175.81,-41.8],[176.99,-40.79],[178.94,-37.33]]],[[[129.07,2.39],[127.55,2.51],[126.89,-0.31],[128.09,-1.03],[128.64,-0.36],[128.05,0.12],[129.14,0.06],[129.92,-0.59],[129.38,-1.26],[130.51,-1.08],[129.53,-1.67],[130.27,-2.57],[130.94,-1.15],[131.77,-1.55],[131.93,-0.55],[131.02,-0.65],[131.27,0.85],[130.48,0.09],[129.89,0.57],[129.77,-0.18],[128.99,0.47],[129.15,1.47],[128.52,1.71],[129.07,2.39]]],[[[120.38,17.39],[119.51,15.68],[120.56,14.39],[120.01,13.47],[121.03,11.9],[122.04,11.66],[121.75,11.08],[122.61,11.22],[122.21,9.9],[123.12,8.91],[121.92,7.94],[121.68,6.23],[120.24,6.31],[120.5,5.28],[123.55,7.47],[124.16,5.86],[125.58,5.26],[126.97,7.22],[126.3,9.99],[125.68,10.2],[126.26,11.13],[125.64,11.34],[125.79,12.32],[124.17,13.02],[124.55,14.09],[122.21,14.22],[122.32,14.94],[121.15,15.54],[122.5,16.13],[122.88,17.18],[122.3,17.59],[122.35,20.65],[121.52,20.71],[121.79,19.76],[120.37,18.69],[120.38,17.39]],[[123.1,11.66],[122.27,11.76],[122.83,12.68],[122.26,13.11],[123.09,13.02],[123.1,11.66]],[[124.03,9.29],[124.64,9.08],[124.11,8.39],[124.03,9.29]]],[[[-61.82,47.03],[-61.32,48.09],[-62.4,47.63],[-61.82,47.03]]],[[[-180.0,-19.26],[-179.45,-19.03],[-179.98,-18.45],[-180.0,-19.26]]],[[[180.0,-18.47],[179.44,-18.71],[179.94,-15.68],[176.93,-16.89],[173.53,-16.88],[170.37,-18.71],[170.66,-19.75],[168.84,-18.35],[169.14,-19.63],[170.25,-19.98],[168.57,-21.17],[166.74,-19.96],[165.64,-20.78],[163.38,-19.29],[164.29,-20.99],[162.91,-22.4],[164.54,-23.3],[167.77,-23.33],[169.11,-22.84],[169.01,-21.16],[171.17,-20.68],[173.69,-22.14],[177.22,-21.64],[179.46,-20.0],[180.0,-18.47]]],[[[-180.0,-17.17],[-178.42,-19.98],[-179.19,-15.91],[-179.72,-16.4],[-180.0,-15.69],[-180.0,-17.17]]],[[[-62.22,16.51],[-60.97,13.56],[-61.73,11.93],[-60.54,14.67],[-61.01,16.39],[-61.84,16.61],[-61.44,17.87],[-62.1,17.06],[-62.9,18.41],[-63.65,18.2],[-62.22,16.51]]],[[[97.24,0.84],[98.08,0.27],[98.56,-1.88],[100.96,-4.26],[101.1,-2.8],[104.4,-6.27],[105.27,-6.08],[105.17,-7.01],[107.36,-7.94],[117.44,-9.46],[118.51,-8.9],[119.12,-10.2],[120.69,-10.56],[121.19,-9.97],[120.1,-9.03],[123.48,-8.57],[124.64,-9.29],[125.8,-8.69],[124.53,-9.98],[123.82,-9.12],[122.54,-10.62],[122.84,-11.38],[127.09,-8.7],[129.28,-8.64],[128.55,-7.76],[126.94,-8.31],[127.55,-7.2],[119.81,-8.26],[118.25,-7.91],[118.03,-6.69],[116.96,-7.27],[117.21,-8.25],[114.9,-8.21],[114.84,-7.2],[116.17,-7.32],[116.26,-6.64],[109.15,-6.63],[105.98,-5.29],[106.41,-3.28],[108.49,-3.41],[108.82,-2.35],[107.33,-2.61],[105.35,-1.25],[105.27,0.11],[104.64,0.28],[105.17,1.24],[103.46,3.78],[104.0,4.75],[103.45,5.94],[100.92,7.45],[100.25,10.09],[99.33,9.91],[100.2,12.03],[98.69,10.35],[99.03,11.74],[98.19,12.58],[98.91,12.91],[97.9,14.67],[97.47,9.28],[98.13,9.1],[97.4,8.51],[100.11,5.84],[101.16,2.69],[100.07,2.91],[98.05,5.37],[96.48,5.36],[95.43,6.34],[94.87,4.83],[97.17,2.75],[94.96,2.91],[97.32,1.85],[96.63,1.52],[97.24,0.84]],[[99.45,-1.7],[98.94,-0.04],[100.5,-2.14],[99.45,-1.7]],[[100.43,6.98],[98.3,8.44],[98.65,9.83],[99.01,8.77],[99.93,8.95],[100.43,6.98]],[[101.93,6.21],[102.94,5.22],[102.43,4.5],[101.93,6.21]],[[101.48,6.24],[100.99,5.77],[100.62,6.57],[101.48,6.24]]],[[[-151.08,-17.13],[-150.62,-16.54],[-152.59,-16.52],[-151.08,-17.13]]],[[[-157.39,-19.81],[-159.08,-19.33],[-158.27,-20.12],[-157.19,-20.28],[-157.39,-19.81]]],[[[44.92,-12.78],[45.25,-13.16],[45.48,-12.45],[43.13,-11.38],[43.38,-12.65],[44.92,-12.78]]],[[[155.31,-6.87],[155.35,-7.72],[156.65,-7.18],[156.39,-8.57],[156.86,-8.16],[157.28,-9.03],[159.39,-9.17],[159.32,-9.81],[160.54,-10.32],[160.98,-9.29],[160.94,-10.56],[162.78,-10.99],[160.64,-7.58],[159.94,-8.31],[159.16,-7.39],[157.43,-7.28],[154.66,-4.96],[155.31,-6.87]],[[157.51,-7.88],[158.15,-7.61],[159.64,-8.85],[157.51,-7.88]]],[[[110.28,19.57],[110.95,19.59],[110.46,21.01],[111.43,21.58],[108.34,22.06],[108.04,21.49],[108.75,21.75],[109.94,20.36],[108.93,19.52],[110.28,19.57]]],[[[-140.43,-9.65],[-139.39,-8.6],[-140.31,-8.51],[-140.43,-9.65]]],[[[-7.76,61.97],[-6.74,61.16],[-5.67,62.26],[-6.79,62.68],[-7.76,61.97]]],[[[132.2,-6.96],[131.38,-6.56],[130.79,-7.44],[131.65,-7.6],[130.4,-8.48],[131.53,-8.32],[132.2,-6.96]]],[[[-73.39,19.29],[-75.05,18.19],[-72.26,18.22],[-71.74,17.23],[-70.69,18.22],[-68.7,17.81],[-68.22,18.48],[-70.76,20.24],[-73.11,20.25],[-73.86,19.87],[-73.39,19.29]]],[[[149.2,59.88],[143.23,59.2],[150.02,59.61],[151.27,59.44],[151.12,58.73],[154.9,58.86],[155.43,59.18],[154.84,59.95],[157.11,61.24],[155.92,61.71],[156.13,61.08],[152.61,59.73],[149.2,59.88]]],[[[129.45,-3.56],[131.01,-3.46],[128.94,-2.58],[129.45,-3.56]]],[[[101.36,12.31],[102.27,12.22],[102.99,10.35],[103.83,9.76],[104.32,10.22],[104.61,8.65],[105.49,8.57],[105.57,9.33],[104.87,9.01],[105.23,10.39],[104.14,10.63],[102.31,12.73],[100.96,12.86],[101.96,13.79],[100.26,15.23],[100.55,15.85],[99.47,14.15],[101.36,12.31]]],[[[-145.88,-17.66],[-143.66,-16.8],[-142.8,-17.49],[-143.58,-17.86],[-141.69,-18.62],[-142.9,-16.86],[-142.11,-15.68],[-144.65,-16.3],[-144.35,-15.49],[-145.72,-15.15],[-146.14,-15.74],[-146.59,-14.86],[-148.76,-14.84],[-148.47,-15.93],[-148.03,-15.34],[-145.91,-16.18],[-145.88,-17.66]]],[[[105.83,20.19],[105.98,19.55],[106.81,20.8],[105.83,20.19]]],[[[1.02,38.87],[1.41,38.35],[2.07,39.0],[1.68,39.53],[1.02,38.87]]],[[[167.96,-17.88],[168.82,-17.89],[168.69,-15.62],[166.55,-14.44],[167.27,-16.83],[168.34,-16.97],[167.96,-17.88]]],[[[42.86,-22.21],[43.63,-23.33],[43.38,-24.67],[45.02,-25.97],[47.44,-24.95],[49.63,-17.37],[50.73,-15.81],[49.37,-11.84],[48.45,-12.04],[46.49,-15.51],[44.07,-16.04],[43.5,-17.7],[44.11,-19.98],[42.86,-22.21]]],[[[165.96,-51.3],[166.59,-50.57],[165.62,-50.97],[165.96,-51.3]]],[[[108.98,0.94],[109.7,1.74],[111.38,1.85],[109.32,2.03],[108.81,3.19],[109.04,1.43],[108.04,0.03],[109.07,-0.17],[108.46,-1.84],[109.7,-1.92],[109.78,-3.01],[111.4,-3.11],[111.91,-3.97],[112.76,-3.55],[110.43,-2.69],[108.98,0.94]]],[[[72.57,6.29],[72.57,2.54],[73.51,1.67],[73.72,6.25],[72.95,7.46],[72.57,6.29]]],[[[-149.4,-17.53],[-149.73,-16.86],[-151.12,-17.56],[-149.59,-18.16],[-149.4,-17.53]]],[[[94.73,49.82],[95.7,49.83],[95.26,50.64],[92.66,50.91],[91.21,50.29],[94.73,49.82]]],[[[69.02,-49.45],[70.21,-49.6],[69.06,-48.62],[69.02,-49.45]]],[[[171.51,7.33],[170.91,7.43],[171.02,6.73],[172.33,7.26],[171.51,7.33]]],[[[115.26,-4.03],[113.03,-2.97],[114.81,-4.47],[115.26,-4.03]]],[[[50.16,68.34],[48.5,67.77],[55.06,68.24],[53.55,69.05],[50.16,68.34]]],[[[124.7,24.39],[125.88,24.87],[124.81,25.05],[122.71,24.16],[124.7,24.39]]],[[[137.66,-3.86],[136.5,-4.04],[140.81,-5.03],[138.62,-3.51],[137.66,-3.86]]],[[[112.84,-6.1],[112.74,-5.29],[112.26,-5.96],[112.84,-6.1]]],[[[-139.06,-19.4],[-138.32,-19.43],[-139.43,-18.34],[-139.06,-19.4]]],[[[20.58,-29.15],[21.09,-28.71],[20.21,-28.35],[20.58,-29.15]]],[[[119.39,10.49],[120.01,10.54],[120.47,12.33],[119.09,11.26],[119.39,10.49]]],[[[140.33,10.12],[139.4,10.02],[139.75,9.44],[140.73,9.79],[140.33,10.12]]],[[[-169.78,63.02],[-168.53,63.32],[-169.33,63.81],[-172.72,63.65],[-169.78,63.02]]],[[[134.84,-7.17],[133.94,-5.89],[133.78,-6.86],[134.84,-7.17]]],[[[118.8,4.8],[118.05,5.16],[117.92,4.2],[118.8,4.8]]],[[[108.22,3.62],[108.73,4.32],[107.93,4.9],[107.52,3.05],[108.22,3.62]]],[[[-15.66,27.64],[-13.95,27.77],[-13.18,28.89],[-13.65,29.65],[-14.92,28.02],[-16.14,28.9],[-17.14,28.38],[-17.9,29.25],[-18.39,28.73],[-17.86,27.22],[-17.63,28.11],[-15.66,27.64]]],[[[-81.23,53.95],[-80.73,54.28],[-81.48,54.37],[-81.23,53.95]]],[[[106.69,3.37],[105.4,3.49],[105.73,2.45],[106.59,2.38],[106.69,3.37]]],[[[-80.41,19.76],[-79.87,19.4],[-79.43,20.07],[-80.41,19.76]]],[[[-24.79,37.69],[-26.24,37.98],[-24.95,36.52],[-24.79,37.69]]],[[[132.37,-0.63],[135.86,-1.23],[135.14,-1.49],[136.17,-2.06],[135.32,-3.07],[133.98,-1.68],[135.04,-3.41],[138.0,-1.86],[142.08,-2.94],[138.13,-1.1],[136.45,-1.72],[137.02,-1.04],[135.79,-0.31],[134.55,-1.0],[134.19,-0.43],[132.45,-0.12],[132.37,-0.63]]],[[[96.21,16.59],[96.65,16.3],[97.19,17.28],[96.21,16.59]]],[[[105.46,-10.13],[105.58,-10.92],[106.06,-10.27],[105.46,-10.13]]],[[[125.59,2.46],[125.62,4.11],[124.97,2.69],[125.59,2.46]]],[[[-92.38,57.78],[-93.2,57.79],[-92.41,57.01],[-89.58,57.06],[-92.38,57.78]]],[[[172.4,52.49],[174.24,52.4],[172.62,53.32],[172.4,52.49]]],[[[124.0,0.45],[123.02,1.0],[123.32,0.19],[124.0,0.45]]],[[[160.7,-11.52],[159.46,-11.22],[160.47,-12.27],[160.7,-11.52]]],[[[-16.91,32.58],[-16.39,32.32],[-15.87,33.34],[-17.7,32.95],[-16.91,32.58]]],[[[126.89,3.9],[127.28,4.99],[126.35,4.63],[126.89,3.9]]],[[[-156.64,21.49],[-158.05,22.27],[-158.58,21.22],[-156.37,20.36],[-156.06,18.56],[-154.93,18.88],[-154.76,20.19],[-155.83,20.31],[-156.64,21.49]]],[[[-173.05,60.99],[-173.85,60.84],[-173.2,59.99],[-171.64,60.29],[-173.05,60.99]]],[[[-28.26,38.19],[-26.67,39.1],[-27.89,39.52],[-29.17,38.49],[-28.26,38.19]]],[[[151.96,46.8],[153.36,47.39],[153.65,48.34],[151.43,47.09],[151.96,46.8]]],[[[-60.22,-52.56],[-57.37,-51.55],[-61.39,-50.99],[-60.77,-51.49],[-61.42,-52.27],[-60.22,-52.56]]],[[[151.55,7.7],[152.02,6.71],[153.07,6.62],[151.55,7.7]]],[[[-22.99,16.47],[-22.71,15.67],[-22.32,16.4],[-23.04,17.17],[-22.99,16.47]]],[[[-170.34,-18.97],[-169.71,-19.55],[-169.41,-18.96],[-170.34,-18.97]]],[[[-77.51,18.76],[-78.43,18.68],[-78.5,18.0],[-77.2,17.44],[-76.03,17.87],[-77.51,18.76]]],[[[92.77,13.74],[91.97,11.85],[92.62,11.43],[92.32,10.29],[93.36,12.28],[92.77,13.74]]],[[[-71.87,21.68],[-71.25,20.99],[-70.94,21.54],[-71.77,22.32],[-73.87,20.88],[-71.87,21.68]]],[[[46.76,-9.14],[45.98,-9.51],[46.77,-9.79],[46.76,-9.14]]],[[[171.0,9.07],[170.65,8.29],[171.4,8.03],[171.0,9.07]]],[[[148.36,-2.45],[147.23,-1.49],[146.28,-1.85],[146.57,-2.66],[148.36,-2.45]]],[[[180.0,52.34],[177.25,52.31],[177.13,51.69],[179.52,51.33],[180.0,52.34]]],[[[-110.6,19.37],[-111.1,19.56],[-111.4,18.49],[-110.48,18.62],[-110.6,19.37]]],[[[-73.88,22.09],[-72.42,22.6],[-73.61,22.83],[-73.52,23.48],[-74.5,22.81],[-74.62,21.93],[-73.88,22.09]]],[[[-24.16,14.53],[-23.09,14.72],[-23.15,15.64],[-25.09,15.14],[-24.16,14.53]]],[[[-145.45,-14.76],[-144.2,-14.88],[-144.9,-13.99],[-145.45,-14.76]]],[[[-66.74,18.64],[-67.49,18.66],[-67.38,17.89],[-65.84,17.58],[-64.08,18.49],[-66.74,18.64]]],[[[-125.28,65.11],[-125.55,64.5],[-124.52,64.48],[-125.28,65.11]]],[[[31.23,70.58],[28.88,70.31],[29.35,69.79],[35.2,69.26],[32.81,70.17],[31.05,69.99],[31.76,70.45],[31.23,70.58]]],[[[132.82,-3.27],[133.82,-2.68],[133.51,-1.86],[131.84,-2.46],[132.7,-4.02],[133.89,-3.59],[132.82,-3.27]]],[[[107.07,56.04],[107.9,55.12],[108.56,55.89],[108.16,56.84],[108.95,57.25],[107.56,57.6],[107.82,56.45],[107.07,56.04]]],[[[55.92,-20.81],[55.06,-20.62],[55.41,-21.85],[55.92,-20.81]]],[[[-76.76,56.11],[-76.19,56.42],[-76.73,57.03],[-77.87,56.4],[-76.76,56.11]]],[[[117.47,8.29],[118.39,9.15],[117.6,9.24],[116.87,8.25],[117.47,8.29]]],[[[-141.05,-18.03],[-140.68,-18.68],[-140.54,-17.65],[-141.05,-18.03]]],[[[-175.76,-44.17],[-177.27,-43.72],[-176.48,-44.59],[-175.76,-44.17]]],[[[-174.77,-18.57],[-173.95,-19.21],[-173.64,-18.63],[-174.52,-17.77],[-174.77,-18.57]]],[[[69.72,66.6],[72.52,66.19],[71.81,66.72],[73.49,68.15],[69.72,66.6]]],[[[73.36,-1.02],[73.88,0.25],[73.32,1.1],[72.7,0.14],[73.36,-1.02]]],[[[-128.16,59.27],[-127.52,59.06],[-126.92,60.04],[-130.19,60.28],[-128.16,59.27]]],[[[94.11,48.51],[93.64,49.31],[92.67,49.28],[93.1,48.23],[92.09,47.94],[94.17,47.37],[94.11,48.51]]],[[[-36.84,-54.65],[-36.12,-54.66],[-36.45,-54.09],[-37.87,-54.06],[-36.84,-54.65]]],[[[168.15,9.03],[167.54,9.68],[166.53,9.34],[167.52,8.57],[168.15,9.03]]],[[[170.08,63.72],[171.52,63.58],[171.69,64.23],[170.08,63.72]]],[[[167.65,11.59],[166.15,11.17],[167.64,11.01],[167.65,11.59]]],[[[40.66,67.75],[40.44,66.78],[41.27,66.63],[41.52,67.6],[40.66,67.75]]],[[[-151.43,69.0],[-150.8,69.35],[-151.96,69.35],[-151.43,69.0]]],[[[107.1,1.21],[106.6,0.51],[107.39,-0.05],[107.72,1.04],[107.1,1.21]]],[[[167.99,-14.16],[166.5,-12.9],[167.38,-14.47],[167.99,-14.16]]],[[[165.81,-9.99],[165.84,-11.25],[166.61,-10.23],[165.81,-9.99]]],[[[168.71,7.3],[169.1,7.71],[167.9,8.44],[168.71,7.3]]],[[[3.08,38.88],[4.57,39.54],[4.47,40.17],[2.58,40.03],[2.19,39.47],[3.08,38.88]]],[[[119.76,22.84],[120.63,21.79],[121.69,21.84],[121.12,22.22],[121.8,22.52],[122.12,25.74],[119.05,23.62],[119.76,22.84]]],[[[135.63,-3.89],[134.0,-4.25],[135.94,-4.71],[135.63,-3.89]]],[[[128.44,26.69],[130.16,28.52],[129.26,28.59],[128.53,27.13],[127.92,27.5],[126.39,26.51],[127.76,25.41],[128.44,26.69]]],[[[-59.74,13.42],[-59.85,12.83],[-59.07,13.01],[-59.74,13.42]]],[[[-159.82,22.19],[-160.98,21.41],[-159.06,21.7],[-159.82,22.19]]],[[[167.06,-11.52],[166.64,-10.87],[166.25,-11.27],[166.67,-11.93],[167.06,-11.52]]],[[[-43.33,59.91],[-42.77,60.5],[-43.36,60.79],[-46.12,60.23],[-43.33,59.91]]],[[[170.47,9.36],[169.8,9.82],[169.98,8.74],[170.47,9.36]]],[[[96.16,51.53],[92.98,52.39],[92.82,51.65],[90.0,51.13],[95.32,50.88],[96.16,51.53]]],[[[-129.28,65.74],[-127.97,65.95],[-131.25,66.31],[-129.28,65.74]]],[[[55.06,-3.81],[55.6,-4.01],[54.99,-4.81],[55.75,-4.93],[55.87,-3.71],[55.06,-3.81]]],[[[171.72,5.96],[172.53,5.89],[171.98,6.51],[171.72,5.96]]],[[[-154.41,-16.29],[-154.87,-15.8],[-154.89,-16.87],[-154.41,-16.29]]],[[[106.55,10.25],[106.21,9.13],[107.94,10.86],[106.55,10.25]]],[[[114.72,-5.16],[114.07,-5.7],[114.84,-5.73],[114.72,-5.16]]],[[[51.31,-9.49],[50.63,-9.0],[50.8,-9.81],[51.31,-9.49]]],[[[95.67,15.6],[95.73,16.36],[94.77,15.92],[95.67,15.6]]],[[[155.65,7.95],[155.03,7.96],[155.29,7.15],[155.65,7.95]]],[[[124.11,1.19],[124.9,0.8],[125.47,1.71],[124.11,1.19]]],[[[54.67,12.54],[53.65,13.04],[52.86,12.11],[54.67,12.54]]],[[[174.65,-0.72],[173.99,-0.51],[175.09,-1.68],[174.65,-0.72]]],[[[116.15,4.32],[115.24,3.45],[116.03,3.37],[116.15,4.32]]],[[[166.75,54.83],[167.56,54.31],[168.67,54.82],[166.34,55.39],[165.92,54.74],[166.75,54.83]]],[[[-79.41,55.68],[-78.42,56.08],[-78.54,56.76],[-80.13,56.96],[-80.52,55.95],[-79.41,55.68]]],[[[113.03,3.54],[112.35,2.99],[113.16,2.92],[113.68,3.84],[113.03,3.54]]],[[[39.45,68.44],[37.74,68.33],[40.36,67.92],[39.45,68.44]]],[[[97.08,-11.83],[96.4,-12.34],[97.24,-12.39],[97.08,-11.83]]],[[[153.8,48.81],[155.36,49.61],[154.11,49.75],[154.22,49.13],[153.26,49.11],[153.8,48.81]]],[[[-23.89,16.63],[-25.73,17.19],[-24.53,16.23],[-23.89,16.63]]],[[[145.42,15.3],[145.96,14.57],[146.14,15.53],[145.42,15.3]]],[[[157.76,7.1],[158.67,6.52],[158.42,7.32],[157.76,7.1]]],[[[-172.13,-13.2],[-172.89,-13.67],[-171.37,-14.42],[-172.13,-13.2]]],[[[-174.15,-20.26],[-174.08,-19.62],[-175.03,-19.37],[-175.69,-21.4],[-174.73,-21.65],[-175.19,-20.65],[-174.15,-20.26]]],[[[-12.66,-37.62],[-12.04,-37.03],[-13.09,-37.34],[-12.66,-37.62]]],[[[-88.77,57.02],[-89.23,56.66],[-88.43,56.62],[-88.77,57.02]]],[[[-148.29,70.05],[-147.58,70.39],[-148.8,70.41],[-148.29,70.05]]],[[[134.43,7.74],[134.22,6.47],[135.2,8.26],[134.43,7.74]]],[[[57.97,-19.98],[56.91,-20.52],[57.79,-20.71],[57.97,-19.98]]],[[[102.58,13.09],[103.95,13.21],[103.36,14.17],[102.41,13.75],[102.58,13.09]]],[[[145.36,16.19],[146.28,16.25],[145.94,16.82],[145.36,16.19]]],[[[157.71,61.56],[158.33,61.88],[157.43,61.96],[157.71,61.56]]],[[[173.74,2.08],[172.75,2.11],[172.98,0.57],[173.74,2.08]]],[[[111.31,2.96],[111.22,2.23],[112.1,2.65],[111.31,2.96]]],[[[-169.52,17.15],[-169.81,16.32],[-169.06,16.7],[-169.52,17.15]]],[[[131.7,25.84],[130.84,26.15],[131.17,25.44],[131.7,25.84]]],[[[123.2,25.8],[123.56,25.34],[124.1,25.98],[123.2,25.8]]],[[[119.89,-2.03],[120.43,-2.5],[120.57,-1.54],[119.89,-2.03]]],[[[141.96,59.29],[141.22,58.56],[142.42,58.95],[141.96,59.29]]],[[[159.68,-5.7],[159.97,-5.15],[159.22,-5.04],[158.93,-5.59],[159.68,-5.7]]],[[[130.09,-7.69],[129.43,-7.69],[129.74,-8.48],[130.09,-7.69]]],[[[176.22,-1.02],[175.96,-1.49],[176.68,-1.62],[176.22,-1.02]]],[[[145.09,13.6],[144.99,14.26],[144.36,13.36],[145.09,13.6]]],[[[47.77,-9.37],[47.16,-9.93],[47.71,-10.25],[47.77,-9.37]]],[[[-163.6,68.86],[-163.19,69.26],[-164.36,69.17],[-163.6,68.86]]],[[[56.71,68.37],[58.18,68.68],[56.29,68.77],[56.71,68.37]]]]}}]}