{"type":"FeatureCollection","features":[{"type":"Feature","properties":{},"geometry":{"type":"MultiPolygon","coordinates":[[[[106.1,52.42],[105.53,51.92],[105.77,51.74],[106.11,51.79],[106.22,52.01],[106.57,52.06],[106.68,52.28],[107.03,52.33],[108.09,53.07],[107.86,53.26],[107.5,53.22],[106.45,52.46],[106.1,52.42]]],[[[36.09,22.32],[36.24,22.11],[36.5,22.13],[36.64,21.92],[36.52,21.7],[37.06,21.3],[37.02,18.96],[37.16,18.75],[37.41,18.77],[37.56,18.15],[38.19,18.4],[38.32,18.2],[38.2,17.98],[38.33,17.78],[38.58,17.8],[38.71,17.6],[38.59,17.38],[39.1,17.0],[38.99,15.96],[39.12,15.77],[39.36,15.79],[39.49,15.18],[40.1,15.43],[40.22,14.83],[41.54,14.32],[41.54,14.72],[40.95,14.88],[40.82,15.08],[40.94,16.1],[40.46,16.48],[40.58,16.69],[40.45,16.89],[39.84,16.64],[39.72,16.84],[39.47,16.82],[39.34,17.02],[39.46,17.23],[38.96,17.62],[39.08,17.83],[38.95,18.03],[38.7,18.02],[38.57,18.22],[39.06,18.67],[38.55,19.06],[38.67,19.27],[38.54,19.48],[37.91,19.23],[37.38,19.62],[37.45,21.54],[36.91,21.94],[37.03,22.16],[36.89,22.37],[36.62,22.35],[36.48,22.56],[36.61,22.78],[36.46,22.99],[35.79,23.17],[35.64,23.38],[35.76,23.6],[36.03,23.62],[36.18,23.41],[36.45,23.43],[36.55,24.08],[36.82,24.1],[36.95,24.32],[38.03,23.94],[38.17,23.73],[38.04,23.51],[38.18,23.3],[38.45,23.31],[38.58,23.1],[38.46,22.88],[38.99,22.48],[38.87,22.26],[38.6,22.24],[38.49,21.6],[38.62,21.39],[38.88,21.4],[39.02,21.2],[38.89,20.98],[39.02,20.77],[39.28,20.79],[39.41,20.58],[39.29,20.36],[39.8,19.97],[39.68,19.33],[40.94,18.56],[40.57,18.34],[40.45,18.12],[40.57,17.92],[41.19,18.16],[41.31,17.55],[42.04,18.0],[41.56,18.39],[41.68,18.6],[41.56,18.8],[41.31,18.79],[41.19,18.99],[41.31,19.21],[41.19,19.41],[40.94,19.4],[40.81,19.6],[40.94,19.81],[40.81,20.02],[39.8,20.39],[39.66,21.02],[39.41,21.0],[39.27,21.21],[39.38,22.71],[38.85,23.11],[38.97,23.76],[37.61,24.57],[37.7,26.09],[37.13,26.5],[37.26,26.73],[37.12,26.94],[36.84,26.93],[36.69,27.14],[36.82,27.36],[37.1,27.37],[37.25,27.16],[37.93,27.4],[38.07,27.19],[38.35,27.2],[39.7,28.09],[41.19,28.75],[41.33,29.83],[41.61,29.82],[41.74,29.61],[42.01,29.61],[42.15,29.82],[42.42,29.82],[42.56,29.6],[43.24,29.81],[43.76,29.37],[44.44,29.57],[44.95,29.13],[45.61,29.32],[46.49,28.66],[47.14,28.84],[47.26,28.63],[48.24,28.17],[48.35,27.96],[48.22,27.76],[48.68,27.32],[48.54,27.12],[48.65,26.91],[49.6,26.46],[49.67,25.84],[50.25,25.61],[50.31,25.0],[50.88,24.78],[50.96,25.58],[51.33,25.76],[51.21,24.56],[51.54,24.34],[51.59,23.74],[52.32,24.11],[52.88,23.84],[54.48,24.24],[54.71,24.76],[55.12,24.86],[54.78,25.12],[54.37,25.02],[54.21,24.86],[54.3,24.66],[53.74,24.4],[53.16,24.71],[53.13,25.28],[52.88,25.33],[52.48,25.22],[52.33,25.07],[52.42,24.86],[52.04,24.72],[51.98,25.32],[51.66,25.54],[51.85,26.1],[51.75,26.31],[51.41,26.57],[50.8,26.4],[50.35,26.83],[50.11,26.84],[50.08,27.87],[49.45,27.7],[48.99,28.13],[48.74,28.15],[48.66,28.77],[48.41,28.78],[48.3,29.0],[48.84,29.38],[48.72,29.59],[48.87,29.79],[49.26,29.97],[49.87,29.73],[49.94,29.11],[50.91,28.58],[50.96,27.99],[51.67,27.47],[52.34,27.54],[54.52,25.75],[55.19,25.8],[55.2,25.22],[55.61,25.32],[55.53,25.53],[55.69,25.69],[56.54,25.89],[56.54,26.47],[57.14,26.73],[57.15,27.32],[56.02,27.18],[55.77,26.64],[55.17,26.97],[54.58,26.7],[54.23,26.97],[53.56,26.91],[52.05,28.18],[51.37,28.11],[51.33,28.7],[50.97,28.96],[51.18,29.51],[51.08,29.72],[50.07,30.28],[50.02,30.88],[49.64,31.14],[49.8,31.32],[51.19,30.49],[51.24,29.89],[52.23,29.32],[52.33,29.1],[52.17,28.94],[52.63,28.46],[53.05,28.57],[52.96,28.79],[53.12,28.96],[53.74,28.64],[54.61,28.86],[55.32,28.32],[56.37,28.7],[56.99,28.36],[57.61,28.63],[57.53,28.85],[57.71,29.01],[58.32,28.67],[58.51,28.83],[58.07,29.34],[58.26,29.5],[58.18,29.73],[57.55,30.07],[57.46,30.3],[57.65,30.46],[57.2,30.98],[57.39,31.14],[57.3,31.37],[57.02,31.43],[56.93,31.66],[57.59,31.94],[57.5,32.17],[57.69,32.34],[57.97,32.28],[58.06,32.05],[59.78,30.82],[59.86,30.59],[59.67,30.42],[59.75,30.2],[60.02,30.13],[59.98,29.51],[60.94,28.86],[61.14,29.02],[60.72,29.54],[60.91,29.71],[60.84,29.93],[60.56,30.0],[60.49,30.23],[60.8,30.79],[60.37,31.31],[61.05,31.58],[60.97,31.81],[61.17,31.97],[62.43,32.1],[62.63,32.26],[63.27,31.88],[63.48,32.04],[63.76,31.97],[63.83,31.74],[64.11,31.66],[64.81,31.91],[65.09,31.83],[65.15,31.6],[65.92,31.6],[65.98,31.36],[66.26,31.29],[66.48,31.44],[66.58,32.07],[65.3,31.99],[65.24,32.23],[65.96,32.47],[65.9,32.71],[65.11,32.7],[65.05,32.94],[64.76,33.02],[64.55,32.86],[64.61,32.62],[64.4,32.46],[64.12,32.53],[63.69,33.08],[63.91,33.25],[63.84,33.48],[63.55,33.56],[63.34,33.39],[62.69,33.77],[62.61,34.01],[63.34,34.27],[63.26,34.51],[63.48,34.68],[64.29,34.7],[64.51,34.86],[64.08,35.42],[64.3,35.59],[67.76,36.02],[68.0,36.18],[68.99,35.43],[69.61,36.39],[69.56,36.64],[70.35,36.87],[70.5,37.52],[70.2,37.61],[70.15,37.86],[70.4,38.02],[70.35,38.27],[69.69,38.7],[69.64,38.95],[68.77,38.97],[67.4,38.65],[67.09,38.74],[67.03,38.98],[67.84,39.23],[67.78,39.48],[68.03,39.64],[71.19,39.91],[71.45,40.07],[71.76,39.97],[72.03,40.13],[72.34,40.03],[72.6,40.18],[72.91,40.09],[73.41,40.65],[73.72,40.54],[73.99,40.7],[73.61,41.31],[72.7,41.35],[72.66,41.61],[73.53,41.82],[73.49,42.07],[71.98,42.06],[71.7,41.9],[71.75,41.65],[70.89,41.43],[70.94,41.17],[70.68,41.01],[70.36,41.11],[70.52,41.77],[70.2,41.87],[70.15,42.12],[72.81,42.53],[75.53,42.62],[76.08,43.17],[76.39,43.06],[76.68,43.2],[77.0,43.09],[79.72,43.33],[80.03,43.22],[80.62,43.74],[80.93,43.62],[81.23,43.75],[81.53,43.63],[81.54,43.38],[82.45,43.26],[82.75,43.39],[82.75,43.64],[82.14,44.15],[81.22,44.01],[80.59,44.51],[79.05,44.34],[78.73,44.46],[79.0,45.11],[80.56,45.28],[80.86,45.92],[81.17,46.06],[81.81,45.55],[81.51,44.91],[82.14,44.4],[83.06,44.53],[83.06,44.79],[83.37,44.92],[83.97,44.4],[86.11,44.49],[86.45,45.12],[87.11,45.6],[86.85,46.24],[85.29,46.42],[84.97,46.3],[84.96,46.04],[85.26,45.91],[84.92,45.28],[82.75,45.17],[82.44,45.3],[82.44,45.55],[82.75,45.68],[82.75,45.94],[83.7,46.06],[84.03,46.7],[83.08,46.83],[83.08,47.09],[82.76,47.22],[82.44,47.09],[82.11,47.22],[82.11,47.47],[83.73,47.59],[85.34,47.43],[85.67,47.55],[85.68,47.81],[86.66,47.9],[86.68,48.15],[86.36,48.29],[84.73,48.21],[84.41,48.35],[84.1,48.99],[84.43,49.11],[84.44,49.36],[85.45,49.47],[85.46,49.72],[84.82,50.24],[84.47,50.12],[84.14,50.26],[84.14,50.51],[83.8,50.65],[83.81,50.9],[84.52,51.39],[86.24,51.21],[86.6,51.32],[86.62,51.58],[87.67,51.65],[88.08,52.26],[88.84,52.72],[88.87,52.97],[88.54,53.11],[88.57,53.36],[88.23,53.51],[88.26,53.76],[88.63,53.86],[88.67,54.11],[88.0,54.64],[88.03,54.89],[87.68,55.04],[87.7,55.28],[88.09,55.39],[88.12,55.63],[89.26,55.68],[89.62,55.54],[89.58,55.29],[90.66,55.09],[90.61,54.84],[90.23,54.75],[90.19,54.5],[91.24,54.29],[91.19,54.05],[90.82,53.95],[90.77,53.71],[89.98,53.27],[89.95,53.02],[90.28,52.87],[91.06,53.31],[92.77,53.03],[93.57,53.45],[93.62,53.7],[93.04,54.25],[92.66,54.17],[92.33,54.32],[92.39,54.57],[91.34,54.78],[91.38,55.03],[91.77,55.12],[92.11,54.96],[92.49,55.05],[92.55,55.29],[92.21,55.45],[91.82,55.36],[91.48,55.52],[91.53,55.76],[91.92,55.85],[91.98,56.09],[93.84,56.03],[94.44,55.47],[94.83,55.55],[95.86,55.3],[96.25,55.38],[96.32,55.62],[96.0,55.78],[96.08,56.02],[97.18,56.0],[97.74,56.54],[96.71,56.8],[96.79,57.04],[96.46,57.2],[95.32,57.22],[94.71,57.78],[94.78,58.02],[93.67,58.26],[93.25,58.18],[92.59,58.73],[92.65,58.97],[91.49,59.19],[91.54,59.43],[90.83,59.97],[90.89,60.21],[90.15,60.74],[90.2,60.98],[89.8,61.13],[89.85,61.36],[90.3,61.45],[90.35,61.68],[89.94,61.83],[88.98,61.42],[88.57,61.57],[87.63,61.14],[86.35,61.33],[86.37,61.56],[86.82,61.66],[86.85,61.9],[86.42,62.04],[86.45,62.27],[86.91,62.37],[86.94,62.6],[88.3,62.65],[89.11,62.13],[89.57,62.21],[89.62,62.45],[88.82,62.97],[88.86,63.2],[88.02,63.72],[88.06,63.95],[88.54,64.04],[88.59,64.27],[88.14,64.41],[88.18,64.64],[88.67,64.72],[88.71,64.95],[88.25,65.1],[88.29,65.33],[88.8,65.41],[88.84,65.64],[87.92,66.16],[87.96,66.39],[88.49,66.48],[88.54,66.72],[87.56,67.23],[87.6,67.47],[88.76,67.89],[88.81,68.13],[87.17,68.32],[87.2,68.55],[86.65,68.69],[86.67,68.93],[87.26,69.03],[87.3,69.27],[86.17,69.78],[86.19,70.02],[86.81,70.12],[86.84,70.36],[85.63,70.88],[85.65,71.12],[83.72,71.27],[83.71,71.51],[85.03,71.98],[85.04,72.22],[82.98,72.37],[82.31,72.25],[82.34,72.0],[81.69,71.88],[81.0,72.0],[80.95,72.24],[81.61,72.37],[81.57,72.61],[80.85,72.73],[80.8,72.97],[81.49,73.1],[81.44,73.34],[83.62,73.46],[83.6,73.7],[84.35,73.82],[87.35,73.77],[87.4,74.02],[86.65,74.16],[86.69,74.4],[88.38,74.86],[88.44,75.11],[89.3,75.21],[89.39,75.46],[88.58,75.6],[87.71,75.5],[87.65,75.25],[85.16,75.17],[85.15,74.92],[84.34,74.8],[84.34,74.56],[85.13,74.43],[85.11,74.18],[84.35,74.06],[83.58,74.19],[82.82,74.07],[82.85,73.83],[82.12,73.71],[81.35,73.83],[79.16,73.68],[79.24,73.44],[78.56,73.31],[78.65,73.07],[77.99,72.93],[78.08,72.69],[77.44,72.56],[76.71,72.66],[76.6,72.9],[77.24,73.04],[77.13,73.28],[76.36,73.38],[76.24,73.62],[75.45,73.72],[74.8,73.57],[74.94,73.33],[72.92,73.13],[71.17,73.53],[70.97,73.77],[70.15,73.84],[69.56,73.69],[69.77,73.45],[69.2,73.29],[69.41,73.06],[68.85,72.9],[69.07,72.67],[68.53,72.51],[68.74,72.28],[68.22,72.12],[68.43,71.9],[66.69,71.64],[66.92,71.42],[66.44,71.25],[66.67,71.03],[66.2,70.87],[66.42,70.65],[65.96,70.49],[66.18,70.26],[66.85,70.2],[67.06,69.98],[66.61,69.82],[66.82,69.6],[65.32,69.34],[63.8,69.67],[63.56,69.89],[61.83,69.82],[59.66,70.54],[57.92,70.43],[57.6,70.64],[57.98,70.82],[56.62,71.26],[56.99,71.44],[56.65,71.65],[55.92,71.67],[55.56,71.87],[55.93,72.06],[55.57,72.27],[57.11,72.61],[56.74,72.82],[57.16,73.01],[56.78,73.22],[58.45,73.56],[58.08,73.77],[58.54,73.96],[59.37,73.93],[59.85,74.11],[59.48,74.33],[59.98,74.51],[60.84,74.47],[61.36,74.66],[61.0,74.88],[61.53,75.06],[62.43,75.02],[62.99,75.19],[62.64,75.42],[64.75,75.73],[67.27,75.78],[67.93,75.95],[67.64,76.18],[61.91,75.87],[61.34,75.69],[61.71,75.46],[61.16,75.28],[60.24,75.32],[59.72,75.13],[60.11,74.91],[59.6,74.73],[58.72,74.76],[58.23,74.57],[58.62,74.36],[58.15,74.17],[57.3,74.2],[56.86,74.01],[57.25,73.8],[55.59,73.45],[55.98,73.24],[55.58,73.05],[55.96,72.84],[54.43,72.49],[54.81,72.28],[54.45,72.1],[54.83,71.89],[54.47,71.71],[52.62,71.93],[52.22,72.13],[53.67,72.5],[53.26,72.7],[53.63,72.89],[53.21,73.09],[54.78,73.46],[54.36,73.67],[54.76,73.86],[55.59,73.84],[56.02,74.03],[55.6,74.24],[56.04,74.43],[56.9,74.41],[57.36,74.6],[56.94,74.81],[57.42,75.0],[56.99,75.22],[58.91,75.57],[58.49,75.79],[57.54,75.81],[57.04,75.62],[56.1,75.64],[55.62,75.45],[56.08,75.24],[55.62,75.05],[56.06,74.83],[55.61,74.64],[54.73,74.66],[54.31,74.47],[54.75,74.26],[54.33,74.07],[53.49,74.08],[53.1,73.88],[53.54,73.68],[51.99,73.3],[52.42,73.1],[52.07,72.91],[52.49,72.71],[51.06,72.33],[51.48,72.14],[51.16,71.94],[51.57,71.75],[51.25,71.56],[51.65,71.36],[51.34,71.18],[54.87,70.35],[56.56,70.49],[56.88,70.28],[59.48,69.77],[59.76,69.56],[58.66,69.43],[58.22,69.26],[58.42,69.06],[57.98,68.89],[56.29,68.77],[55.23,69.2],[54.59,69.22],[49.55,68.34],[48.25,67.96],[46.79,68.14],[46.53,68.32],[46.86,68.52],[46.59,68.7],[45.98,68.69],[45.7,68.88],[45.09,68.86],[44.77,68.66],[43.28,68.81],[42.97,68.61],[43.26,68.43],[43.86,68.45],[44.14,68.27],[43.83,68.07],[44.11,67.89],[43.81,67.69],[43.23,67.67],[42.94,67.47],[43.22,67.28],[42.93,67.08],[42.37,67.06],[41.24,67.39],[41.52,67.6],[41.23,67.77],[41.51,67.98],[41.21,68.15],[38.88,68.4],[38.57,68.57],[38.83,68.77],[38.51,68.94],[37.02,69.03],[36.7,69.19],[36.95,69.39],[36.48,69.55],[35.2,69.26],[34.33,69.74],[33.24,69.83],[33.32,70.03],[31.7,70.25],[31.76,70.45],[31.23,70.58],[31.29,70.79],[30.74,70.92],[28.97,70.91],[27.85,71.37],[26.65,71.01],[25.46,71.46],[23.68,71.4],[23.71,71.2],[21.98,71.12],[22.03,70.93],[21.0,70.54],[18.76,70.54],[18.84,70.35],[17.93,69.95],[18.02,69.76],[16.96,69.74],[16.48,69.64],[16.58,69.45],[15.55,69.43],[15.09,69.32],[15.2,69.14],[13.75,69.0],[13.88,68.81],[13.45,68.7],[13.58,68.52],[13.16,68.41],[13.29,68.23],[11.93,68.08],[12.07,67.9],[11.42,67.5],[12.08,67.26],[12.73,67.65],[13.26,67.58],[13.38,67.4],[12.98,67.29],[13.11,67.12],[11.83,66.97],[11.96,66.8],[11.59,66.69],[11.72,66.52],[11.35,66.41],[11.48,66.24],[10.9,65.85],[11.64,65.45],[10.48,65.3],[10.61,65.14],[10.28,65.03],[10.41,64.87],[9.6,64.53],[9.88,64.36],[9.77,64.2],[8.66,64.35],[8.54,64.18],[8.13,64.17],[8.02,64.0],[8.32,63.83],[8.2,63.66],[7.8,63.65],[6.16,62.91],[5.76,62.89],[5.66,62.71],[5.26,62.69],[5.16,62.51],[4.76,62.49],[4.67,62.31],[4.97,62.14],[4.87,61.96],[4.48,61.94],[4.39,61.75],[4.69,61.59],[4.11,61.2],[4.41,61.04],[4.32,60.85],[4.62,60.69],[4.53,60.5],[5.02,59.98],[4.46,59.58],[4.94,59.06],[4.85,58.86],[5.13,58.7],[5.05,58.51],[6.31,58.23],[6.58,58.06],[6.49,57.87],[6.78,57.76],[7.45,57.72],[7.84,57.8],[7.93,57.99],[9.0,58.03],[9.1,58.22],[9.5,58.29],[9.6,58.48],[9.31,58.6],[9.41,58.79],[10.51,58.81],[10.8,58.69],[10.69,58.5],[11.16,58.06],[11.05,57.87],[9.97,57.86],[9.37,57.4],[8.7,57.45],[7.84,57.1],[7.74,56.9],[8.02,56.79],[7.46,56.31],[7.93,55.87],[7.37,55.39],[8.29,55.23],[8.2,55.02],[7.83,54.95],[7.74,54.74],[8.02,54.62],[7.92,54.41],[7.56,54.34],[7.02,53.84],[6.39,53.89],[6.04,53.81],[5.95,53.6],[4.98,53.55],[4.48,53.05],[4.15,53.01],[4.25,52.42],[3.13,51.86],[2.28,51.11],[2.53,50.95],[2.85,51.0],[2.92,51.22],[3.81,51.15],[3.71,51.74],[4.86,52.38],[4.75,52.93],[5.71,52.97],[6.22,53.47],[7.2,53.51],[7.47,53.39],[7.39,53.18],[7.65,53.05],[7.56,52.84],[8.45,52.66],[8.36,52.45],[8.62,52.31],[8.98,52.39],[9.41,51.91],[11.26,51.7],[10.71,51.21],[11.32,51.14],[11.74,50.63],[12.7,50.62],[12.81,50.83],[13.16,50.9],[13.42,50.75],[13.31,50.54],[13.56,50.38],[13.46,50.17],[13.71,50.02],[13.6,49.8],[14.0,49.28],[13.89,49.06],[13.09,48.72],[11.3,48.97],[10.77,48.46],[9.84,48.46],[9.91,47.87],[9.32,47.95],[8.57,47.57],[7.99,47.64],[7.58,48.15],[7.25,48.07],[6.76,47.54],[7.33,47.48],[7.58,47.34],[7.5,47.11],[7.17,47.03],[6.69,46.5],[6.13,46.56],[5.81,46.48],[5.73,46.25],[4.86,46.22],[4.79,45.99],[5.03,45.85],[4.96,45.63],[4.65,45.54],[4.75,44.94],[3.7,44.22],[3.8,43.62],[2.78,42.89],[2.89,42.28],[2.25,41.87],[1.85,41.31],[2.08,41.17],[2.36,41.26],[2.42,41.49],[3.23,41.53],[3.29,41.76],[3.59,41.85],[3.48,42.46],[3.25,42.6],[3.67,43.16],[5.04,43.13],[6.35,42.85],[7.05,43.24],[7.12,43.48],[7.98,43.48],[8.06,43.71],[8.37,43.79],[8.76,43.25],[9.08,43.33],[9.31,43.17],[9.23,42.94],[8.37,42.94],[8.29,42.71],[8.52,42.55],[8.05,42.01],[8.43,41.46],[8.74,41.53],[8.97,41.37],[8.89,41.14],[8.05,41.14],[7.6,40.59],[8.35,40.35],[8.27,40.12],[7.97,40.04],[7.9,39.8],[8.12,39.64],[7.67,39.09],[8.42,38.84],[8.34,38.6],[8.56,38.44],[9.24,38.82],[9.31,39.06],[10.14,39.04],[10.08,39.68],[9.86,39.85],[9.94,40.09],[10.25,40.16],[10.47,39.99],[10.39,39.76],[10.61,39.59],[10.92,39.66],[11.14,39.49],[11.06,39.25],[11.28,39.08],[11.58,39.15],[11.81,38.98],[11.72,38.74],[12.46,38.46],[11.98,37.92],[12.33,37.33],[14.19,37.05],[14.41,36.87],[14.32,36.63],[15.04,36.33],[15.35,36.39],[15.44,36.63],[15.23,36.81],[15.33,37.05],[16.04,37.4],[16.14,37.64],[16.97,37.57],[16.96,38.23],[17.69,38.57],[17.8,38.81],[17.47,39.41],[17.58,39.65],[17.36,39.83],[17.47,40.07],[17.79,40.12],[18.11,39.52],[18.86,39.85],[19.07,39.67],[19.4,39.72],[19.61,39.53],[19.5,39.3],[20.24,38.97],[20.13,38.73],[20.34,38.54],[19.8,38.02],[20.53,37.69],[20.42,37.45],[20.63,37.26],[20.94,37.31],[21.24,36.68],[22.07,36.57],[22.35,35.95],[23.18,35.83],[23.37,35.63],[23.26,35.39],[23.53,34.76],[23.84,34.8],[24.04,34.6],[24.77,34.9],[24.96,34.7],[25.77,34.57],[26.75,35.33],[27.55,35.18],[27.62,35.85],[28.42,35.69],[28.49,36.36],[30.29,35.83],[30.86,36.3],[30.68,36.51],[30.81,36.73],[31.12,36.75],[31.3,36.54],[32.1,36.36],[32.32,35.72],[32.63,35.73],[32.76,35.96],[33.07,35.97],[33.24,35.76],[31.79,34.82],[32.91,34.22],[34.09,34.7],[34.19,35.36],[34.5,35.37],[35.08,35.82],[34.91,36.03],[34.6,36.02],[34.02,35.57],[33.72,35.56],[33.55,35.77],[33.68,35.99],[33.99,36.0],[34.57,36.45],[35.35,36.26],[35.52,36.04],[35.38,35.83],[35.54,35.61],[35.41,35.39],[35.62,34.31],[35.48,34.09],[35.18,34.08],[35.08,33.43],[34.78,33.42],[34.15,33.83],[33.42,33.58],[32.78,33.99],[32.04,33.73],[31.4,34.14],[30.66,33.87],[29.52,34.45],[28.78,34.18],[28.11,34.56],[27.8,34.54],[27.68,34.31],[27.86,34.1],[27.74,33.87],[27.92,33.66],[27.86,32.99],[27.07,33.14],[26.95,32.9],[26.16,33.05],[26.04,32.81],[26.23,32.61],[28.45,31.93],[28.63,31.72],[28.51,31.49],[28.21,31.46],[27.56,31.85],[26.84,31.55],[26.18,31.93],[25.46,31.63],[25.21,32.27],[24.42,32.41],[24.23,32.61],[23.51,32.3],[23.24,32.93],[21.45,33.37],[21.34,33.13],[19.83,32.23],[19.73,31.98],[19.92,31.79],[19.91,31.11],[18.83,30.48],[18.54,31.11],[18.24,31.06],[16.08,31.81],[15.79,31.75],[15.36,32.8],[15.07,32.74],[13.37,33.3],[12.7,32.93],[11.5,33.34],[11.45,34.01],[10.74,34.29],[10.82,34.54],[11.62,34.49],[11.7,34.74],[11.23,35.75],[11.31,35.99],[11.1,36.17],[11.56,36.72],[11.21,37.3],[10.91,37.23],[9.14,37.7],[8.11,37.0],[6.37,37.42],[5.73,37.02],[4.0,37.4],[3.72,37.32],[3.66,37.08],[2.89,37.06],[2.83,36.82],[2.56,36.73],[1.85,36.95],[1.58,36.86],[1.53,36.62],[2.72,36.34],[3.33,36.75],[4.04,36.53],[4.66,36.93],[5.03,36.37],[5.31,36.46],[5.38,36.7],[6.16,36.7],[6.23,36.94],[6.52,37.01],[8.25,36.59],[8.91,36.98],[9.13,36.81],[9.43,36.88],[9.64,36.71],[9.56,36.47],[9.78,36.3],[10.07,36.37],[10.29,36.2],[10.21,35.96],[10.93,35.68],[10.85,35.44],[11.06,35.26],[10.98,35.02],[9.95,34.33],[9.88,34.09],[10.22,33.49],[11.0,33.45],[11.34,32.86],[12.12,32.81],[12.82,32.51],[13.49,32.88],[14.69,32.44],[14.98,32.5],[15.18,32.31],[15.2,31.64],[15.4,31.45],[15.7,31.51],[16.0,30.89],[16.68,31.24],[17.37,30.91],[17.66,30.96],[17.86,30.77],[18.15,30.82],[18.34,30.63],[18.25,30.38],[18.93,30.05],[20.4,30.96],[20.32,32.08],[21.43,32.69],[21.54,32.93],[22.83,32.66],[23.1,32.02],[23.4,32.06],[24.08,31.69],[24.79,32.0],[24.98,31.8],[24.86,31.56],[25.53,31.19],[26.24,31.49],[26.49,30.84],[26.79,30.87],[27.44,30.49],[27.32,30.26],[26.62,29.96],[26.56,29.28],[26.27,29.25],[26.09,29.45],[25.8,29.42],[25.69,29.18],[25.87,28.98],[26.16,29.01],[26.34,28.81],[28.48,28.13],[28.65,27.92],[28.54,27.69],[27.85,27.39],[27.73,27.16],[27.9,26.95],[28.64,26.8],[28.71,27.48],[29.45,27.33],[29.62,27.12],[29.5,26.88],[30.11,26.49],[30.0,26.26],[30.16,26.05],[30.04,25.82],[30.21,25.61],[30.09,25.38],[30.25,25.17],[30.13,24.94],[30.39,23.85],[30.66,23.88],[30.74,24.55],[31.01,24.57],[31.13,24.8],[30.93,25.45],[31.05,25.68],[31.33,25.71],[31.49,25.5],[32.17,25.77],[32.33,25.56],[32.21,25.33],[32.36,25.13],[32.24,24.9],[32.4,24.69],[32.28,24.46],[32.54,22.94],[33.24,22.77],[33.29,23.87],[33.57,23.89],[33.72,23.69],[34.38,23.95],[34.48,24.61],[34.33,24.82],[34.45,25.05],[34.73,25.07],[34.88,24.86],[34.75,24.63],[35.32,24.23],[35.2,24.0],[35.35,23.8],[34.83,23.33],[34.98,23.12],[35.25,23.14],[35.42,22.49],[36.09,22.32]],[[6.7,59.73],[6.8,59.91],[6.52,60.08],[6.62,60.27],[6.99,60.29],[7.09,60.47],[6.63,60.99],[6.73,61.17],[7.77,61.04],[7.87,61.22],[6.25,61.68],[6.35,61.86],[7.24,62.08],[7.34,62.25],[7.05,62.42],[7.16,62.6],[8.23,62.46],[8.34,62.64],[9.78,63.07],[10.3,62.69],[10.74,62.75],[12.43,63.45],[12.75,63.34],[12.62,63.17],[13.7,63.0],[12.43,62.37],[13.18,62.32],[13.49,62.2],[13.36,62.02],[11.44,62.07],[10.89,61.83],[10.77,61.65],[11.08,61.54],[10.96,61.36],[10.54,61.3],[10.23,61.41],[10.35,61.59],[9.62,61.63],[9.5,61.45],[9.81,61.34],[9.7,61.16],[8.66,60.65],[8.96,60.54],[8.85,60.36],[9.16,60.25],[9.05,60.07],[8.14,59.73],[7.54,59.28],[7.15,59.21],[6.7,59.73]],[[15.32,43.35],[15.54,43.18],[15.44,42.95],[16.22,42.66],[16.12,42.43],[15.79,42.37],[15.01,42.66],[14.99,43.29],[15.32,43.35]],[[25.38,37.84],[24.67,38.2],[24.79,38.43],[25.11,38.47],[26.34,37.93],[26.22,37.7],[25.38,37.84]],[[36.49,25.38],[36.77,25.4],[36.91,25.19],[36.79,24.96],[36.51,24.95],[36.37,25.16],[36.49,25.38]],[[12.02,56.46],[11.74,56.59],[11.85,56.79],[12.52,56.72],[12.41,56.53],[12.02,56.46]],[[19.66,68.24],[20.3,67.77],[19.85,67.68],[19.91,67.49],[19.47,67.4],[19.53,67.22],[18.18,67.13],[18.25,66.95],[18.75,66.86],[18.68,66.64],[16.61,66.57],[17.05,66.27],[17.0,66.06],[15.75,65.36],[15.71,65.15],[14.55,64.44],[14.53,64.24],[13.85,64.25],[14.25,64.77],[13.61,65.2],[13.63,65.4],[14.39,65.81],[14.28,65.99],[14.66,66.08],[14.56,66.26],[14.94,66.36],[14.84,66.54],[13.46,66.59],[13.35,66.76],[15.53,66.91],[15.43,67.09],[16.15,67.47],[16.05,67.65],[16.48,67.75],[16.38,67.94],[16.82,68.04],[16.72,68.22],[18.14,68.33],[17.43,68.8],[18.91,68.9],[18.83,69.09],[19.31,69.19],[19.24,69.38],[20.78,69.47],[20.72,69.66],[21.23,69.76],[22.86,69.64],[22.89,69.44],[22.38,69.35],[22.43,69.16],[21.93,69.07],[21.97,68.88],[21.06,68.51],[21.11,68.32],[19.66,68.24]],[[39.8,41.72],[39.96,41.5],[40.74,41.68],[40.9,41.47],[40.27,41.08],[39.49,41.31],[39.33,41.11],[39.02,41.12],[38.86,41.33],[38.07,41.14],[36.43,41.99],[35.64,41.78],[35.46,41.99],[36.08,42.4],[36.41,42.4],[36.58,42.19],[37.38,42.39],[39.01,41.53],[39.8,41.72]],[[39.95,65.98],[39.71,65.77],[39.18,65.74],[38.94,65.53],[39.22,65.36],[38.99,65.15],[36.61,65.56],[35.39,65.27],[35.1,65.44],[36.02,65.9],[35.72,66.07],[35.94,66.28],[37.28,66.19],[38.38,65.88],[38.9,65.92],[39.14,66.13],[39.67,66.16],[39.95,65.98]],[[43.21,66.9],[43.77,66.92],[44.04,66.73],[43.75,66.53],[43.19,66.51],[42.92,66.7],[43.21,66.9]],[[11.04,46.89],[10.95,46.67],[10.37,46.75],[10.46,46.98],[10.8,47.05],[11.04,46.89]],[[58.38,63.24],[58.75,63.42],[58.59,63.64],[58.96,63.82],[58.79,64.04],[59.17,64.21],[58.3,64.69],[58.68,64.87],[58.51,65.08],[58.89,65.26],[58.72,65.47],[63.03,66.14],[62.88,66.36],[63.31,66.52],[63.17,66.74],[64.63,67.0],[64.5,67.22],[64.95,67.38],[64.81,67.59],[65.27,67.75],[65.14,67.96],[65.61,68.12],[65.47,68.33],[65.95,68.49],[67.05,68.57],[67.66,68.5],[67.78,68.29],[67.3,68.14],[67.42,67.92],[66.94,67.77],[67.06,67.56],[67.66,67.49],[67.77,67.27],[66.72,67.19],[66.26,67.03],[66.38,66.81],[65.93,66.66],[63.89,66.46],[64.03,66.25],[63.6,66.08],[63.74,65.86],[62.33,65.59],[62.48,65.37],[62.07,65.2],[62.22,64.98],[59.93,64.56],[60.09,64.35],[59.71,64.17],[59.86,63.95],[59.49,63.77],[59.64,63.55],[59.27,63.38],[59.43,63.15],[59.06,62.98],[58.55,63.02],[58.38,63.24]],[[25.24,35.84],[25.99,36.14],[26.18,35.94],[26.06,35.7],[25.32,35.41],[24.62,35.77],[23.8,35.9],[23.52,36.53],[23.64,36.77],[23.95,36.8],[24.15,36.61],[24.97,36.48],[25.24,35.84]],[[25.56,38.73],[24.71,38.86],[24.51,39.06],[24.63,39.29],[24.96,39.32],[25.16,39.12],[25.48,39.15],[25.68,38.96],[25.56,38.73]],[[55.27,26.17],[55.69,26.27],[55.77,26.06],[55.61,25.9],[55.27,26.17]],[[31.1,41.26],[30.26,41.43],[30.12,41.21],[29.79,41.2],[29.07,41.58],[28.74,41.56],[28.54,41.76],[28.68,41.98],[27.95,42.35],[28.08,42.57],[27.88,42.77],[28.02,42.99],[28.36,43.01],[28.56,42.81],[29.42,42.65],[29.68,42.03],[30.01,42.05],[30.72,41.66],[31.52,41.91],[31.71,41.71],[31.1,41.26]],[[74.14,67.84],[74.21,67.61],[73.27,67.13],[73.35,66.91],[72.29,66.86],[72.21,67.08],[73.13,67.57],[73.05,67.8],[73.56,67.93],[73.49,68.15],[74.55,68.19],[74.66,67.96],[74.14,67.84]],[[16.46,41.84],[16.24,42.02],[16.34,42.25],[17.11,42.59],[18.43,42.16],[18.76,42.21],[18.98,42.03],[18.87,41.8],[19.09,41.62],[18.98,41.39],[19.3,40.79],[19.19,40.55],[18.86,40.51],[18.65,40.69],[17.78,40.77],[17.45,41.36],[16.58,41.43],[16.36,41.61],[16.46,41.84]],[[56.55,29.47],[56.1,29.36],[56.01,29.58],[56.19,29.75],[57.09,29.97],[57.36,29.91],[57.45,29.68],[57.17,29.13],[56.55,29.47]],[[95.03,56.27],[94.64,56.19],[94.3,56.35],[94.37,56.59],[94.03,56.75],[94.1,56.99],[94.5,57.07],[94.84,56.91],[94.77,56.67],[95.1,56.51],[95.03,56.27]],[[18.68,58.74],[19.25,58.97],[18.97,59.11],[19.11,59.29],[20.25,59.72],[20.96,59.62],[20.81,59.44],[21.21,58.98],[19.93,58.36],[18.82,58.42],[18.27,58.19],[18.13,58.0],[18.41,57.86],[18.27,57.68],[17.32,57.39],[16.9,57.86],[17.58,58.28],[17.3,58.42],[17.43,58.61],[18.54,58.56],[18.68,58.74]],[[13.72,55.12],[13.83,55.32],[14.22,55.38],[14.49,55.24],[14.37,55.04],[15.29,54.82],[14.67,54.36],[14.29,54.3],[13.87,54.78],[13.22,54.86],[12.35,54.53],[12.08,54.67],[12.68,55.14],[13.72,55.12]],[[73.55,72.19],[73.4,72.42],[74.0,72.57],[74.74,72.48],[74.87,72.24],[73.55,72.19]],[[54.01,68.66],[55.04,68.82],[55.25,68.62],[54.85,68.44],[54.23,68.46],[54.01,68.66]],[[15.24,55.89],[15.51,55.75],[15.39,55.55],[14.72,55.64],[14.84,55.83],[15.24,55.89]],[[47.5,67.19],[46.6,66.98],[45.51,67.35],[46.73,67.75],[47.32,67.76],[47.57,67.57],[47.25,67.38],[47.5,67.19]],[[13.5,64.16],[13.49,63.95],[12.82,63.96],[12.84,64.17],[13.18,64.27],[13.5,64.16]],[[36.48,25.82],[36.35,25.6],[36.07,25.58],[35.93,25.79],[36.05,26.02],[36.33,26.03],[36.48,25.82]],[[12.06,61.84],[12.37,61.73],[12.24,61.55],[11.51,61.6],[12.06,61.84]],[[49.99,64.63],[50.31,64.82],[50.85,64.81],[51.07,64.61],[50.74,64.41],[50.21,64.42],[49.99,64.63]],[[11.07,56.65],[10.4,56.71],[10.51,56.91],[10.9,56.98],[11.01,57.17],[11.68,57.11],[11.07,56.65]],[[72.64,70.58],[73.17,70.73],[73.84,70.64],[73.97,70.41],[73.45,70.26],[72.79,70.35],[72.64,70.58]],[[84.37,70.42],[83.74,70.55],[83.74,70.79],[84.36,70.9],[85.0,70.77],[84.99,70.53],[84.37,70.42]],[[34.01,31.63],[33.82,32.28],[33.95,32.51],[34.24,32.52],[34.44,31.87],[34.3,31.65],[34.01,31.63]],[[25.93,39.41],[25.61,39.38],[25.41,39.58],[25.53,39.81],[25.86,39.84],[26.06,39.64],[25.93,39.41]],[[49.74,31.92],[49.85,31.71],[49.42,31.57],[49.31,31.79],[49.47,31.96],[49.74,31.92]],[[24.35,39.91],[24.48,40.14],[24.8,40.17],[25.0,39.97],[24.88,39.75],[24.56,39.71],[24.35,39.91]]],[[[-2.29,52.81],[-1.95,52.88],[-1.89,53.09],[-2.41,53.63],[-2.36,53.84],[-2.65,54.0],[-2.6,54.21],[-2.89,54.37],[-2.43,54.86],[-2.08,54.92],[-1.55,54.39],[-2.01,53.9],[-1.49,53.37],[-0.35,53.97],[0.15,53.44],[0.09,53.22],[-0.25,53.17],[-0.31,52.95],[-0.04,52.79],[0.57,52.69],[1.31,53.01],[1.77,52.47],[2.1,52.52],[2.17,52.73],[1.71,53.27],[0.49,53.49],[0.56,53.71],[0.06,54.24],[0.13,54.45],[-0.79,54.72],[-0.73,54.93],[-1.25,55.46],[-1.19,55.67],[-1.49,55.82],[-1.43,56.03],[-2.4,56.29],[-1.92,56.76],[-1.55,56.81],[-1.49,57.02],[-1.8,57.18],[-1.74,57.38],[-1.37,57.43],[-1.3,57.64],[-3.0,58.0],[-2.5,58.46],[-2.82,58.61],[-2.76,58.81],[-1.49,59.37],[-1.42,59.57],[-1.03,59.61],[-0.97,59.81],[-0.58,59.85],[-0.51,60.05],[-0.83,60.2],[-0.76,60.4],[-0.37,60.44],[-0.3,60.64],[-0.88,61.14],[-2.67,60.37],[-2.74,60.17],[-1.68,59.92],[-2.2,59.47],[-2.92,59.57],[-3.75,59.26],[-4.48,59.36],[-4.53,59.15],[-3.48,58.91],[-3.53,58.71],[-4.97,58.89],[-5.79,58.56],[-6.51,58.64],[-6.56,58.43],[-6.94,58.37],[-7.67,58.44],[-7.71,58.23],[-7.36,58.09],[-7.4,57.88],[-7.78,57.81],[-7.82,57.6],[-7.48,57.46],[-7.52,57.25],[-7.89,57.17],[-8.34,56.67],[-7.3,56.46],[-7.33,56.25],[-6.72,55.74],[-6.76,55.52],[-8.5,55.59],[-8.54,55.37],[-9.29,54.99],[-9.32,54.77],[-8.99,54.63],[-9.02,54.41],[-10.75,54.44],[-10.77,54.21],[-10.44,54.08],[-10.84,53.54],[-10.21,53.03],[-10.24,52.81],[-10.95,52.4],[-10.97,52.17],[-10.65,52.03],[-10.38,51.43],[-8.77,51.18],[-8.07,51.58],[-8.03,51.81],[-7.39,51.74],[-6.67,52.13],[-6.03,52.05],[-5.61,52.58],[-5.91,52.73],[-5.87,52.95],[-5.52,53.02],[-5.48,53.25],[-6.05,53.77],[-6.01,53.99],[-5.26,54.35],[-4.7,53.83],[-4.74,53.61],[-5.09,53.54],[-5.13,53.32],[-4.83,53.17],[-4.88,52.94],[-5.22,52.87],[-5.01,52.28],[-5.35,52.2],[-5.77,51.68],[-4.85,51.45],[-4.64,50.84],[-5.6,50.85],[-5.64,50.62],[-6.7,49.92],[-6.74,49.69],[-6.45,49.54],[-5.76,49.93],[-4.86,49.7],[-4.53,49.78],[-4.49,50.01],[-3.56,50.0],[-3.13,50.52],[-2.81,50.59],[-1.34,50.25],[-0.63,50.6],[0.22,50.34],[0.93,50.68],[1.18,50.52],[1.12,50.3],[0.8,50.24],[0.74,50.02],[1.0,49.85],[1.69,50.19],[1.57,50.79],[1.89,50.84],[1.96,51.06],[1.51,51.61],[1.97,52.09],[1.37,52.2],[0.92,51.71],[0.59,51.66],[0.73,51.06],[-0.19,51.1],[-0.25,50.88],[-0.57,50.82],[-1.44,51.08],[-2.15,50.73],[-2.66,51.27],[-2.22,51.78],[-2.5,51.93],[-3.22,51.58],[-4.13,51.82],[-3.7,52.33],[-3.99,52.49],[-3.94,52.71],[-3.6,52.78],[-3.55,53.0],[-2.92,52.91],[-2.97,52.69],[-2.68,52.53],[-2.34,52.59],[-2.29,52.81]],[[-3.79,50.38],[-4.4,50.46],[-4.36,50.69],[-3.65,51.06],[-3.37,50.91],[-3.79,50.38]],[[-3.65,54.03],[-3.7,53.81],[-3.4,53.65],[-3.45,53.44],[-3.8,53.37],[-4.35,53.9],[-4.3,54.11],[-3.65,54.03]]],[[[42.4,17.4],[42.28,17.6],[42.04,17.59],[41.19,16.93],[41.31,16.73],[41.55,16.75],[41.67,16.14],[41.91,16.16],[42.38,15.78],[42.38,15.38],[41.9,14.95],[42.02,14.75],[42.61,14.99],[42.71,14.0],[42.36,13.78],[41.89,14.15],[41.54,13.92],[42.24,13.58],[42.35,12.99],[43.27,12.67],[43.26,12.28],[43.6,12.11],[43.72,12.7],[43.27,13.06],[43.41,14.05],[42.95,14.42],[42.96,15.21],[42.61,15.39],[42.74,16.0],[43.1,16.22],[42.63,16.6],[42.64,17.01],[42.4,17.0],[42.28,17.19],[42.4,17.4]],[[42.71,13.61],[42.94,13.63],[42.93,13.23],[42.59,13.4],[42.71,13.61]]],[[[-24.92,65.64],[-24.08,65.16],[-24.11,64.92],[-24.57,64.81],[-24.6,64.58],[-22.46,64.43],[-22.51,64.2],[-22.95,64.09],[-23.0,63.86],[-21.33,63.82],[-20.63,63.34],[-19.39,63.41],[-18.23,63.24],[-17.8,63.33],[-17.71,63.56],[-16.48,63.6],[-15.84,64.14],[-14.59,64.16],[-14.48,64.38],[-12.85,65.05],[-12.72,65.27],[-13.06,65.42],[-12.93,65.64],[-13.27,65.78],[-14.11,65.86],[-13.98,66.08],[-14.34,66.22],[-14.22,66.45],[-14.59,66.59],[-16.35,66.72],[-17.45,66.32],[-17.85,66.46],[-17.75,66.69],[-18.15,66.83],[-18.66,66.74],[-18.74,66.51],[-19.81,66.09],[-21.61,66.16],[-22.42,66.65],[-23.36,66.67],[-24.38,66.22],[-24.41,65.99],[-24.89,65.87],[-24.92,65.64]],[[-16.19,64.27],[-17.18,63.87],[-17.98,63.92],[-18.07,63.69],[-18.51,63.6],[-19.31,63.63],[-19.99,64.12],[-21.66,64.18],[-21.61,64.41],[-22.01,64.53],[-21.95,64.77],[-22.36,64.89],[-22.31,65.13],[-21.84,65.23],[-21.79,65.46],[-20.9,65.43],[-19.88,65.86],[-17.74,65.64],[-16.08,66.35],[-15.7,66.21],[-15.81,65.98],[-15.44,65.84],[-15.55,65.62],[-13.53,65.34],[-13.66,65.12],[-14.71,64.75],[-14.82,64.52],[-15.63,64.58],[-16.08,64.5],[-16.19,64.27]],[[-22.15,65.82],[-22.21,65.59],[-22.68,65.49],[-24.01,65.63],[-23.97,65.86],[-23.49,65.97],[-22.15,65.82]]],[[[-1.35,46.36],[-1.81,46.91],[-2.11,46.84],[-2.16,46.61],[-1.91,46.45],[-1.96,46.22],[-1.3,45.28],[-1.0,45.35],[-0.95,45.58],[-1.4,46.13],[-1.35,46.36]]],[[[13.14,35.72],[13.23,35.96],[13.02,36.14],[12.72,36.08],[12.25,35.53],[12.46,35.35],[13.14,35.72]]],[[[40.15,-3.55],[40.39,-3.51],[40.39,-2.87],[41.9,-1.78],[41.82,-1.37],[39.99,-2.71],[39.99,-3.36],[39.74,-3.4],[39.66,-3.62],[39.82,-3.82],[40.06,-3.78],[40.15,-3.55]]],[[[79.14,37.85],[79.97,38.01],[80.22,38.65],[81.06,38.8],[81.32,39.44],[82.17,39.58],[81.88,40.2],[82.17,40.34],[82.16,40.59],[81.87,40.71],[81.87,40.96],[82.45,41.48],[82.45,41.73],[80.98,41.84],[80.41,41.31],[79.8,41.8],[79.51,41.67],[79.52,41.41],[79.23,41.27],[79.25,41.02],[78.7,40.49],[77.24,40.54],[76.71,40.0],[75.83,40.07],[75.56,39.92],[75.34,39.27],[75.64,39.16],[76.0,38.55],[76.85,38.48],[76.63,37.84],[76.92,37.73],[77.19,37.87],[77.78,37.4],[78.05,37.54],[78.89,37.46],[79.15,37.6],[79.14,37.85]]],[[[103.08,53.05],[102.82,53.22],[102.46,53.16],[102.36,52.93],[102.62,52.76],[102.98,52.82],[103.39,52.24],[104.35,52.17],[104.91,52.68],[104.06,52.98],[103.08,53.05]]],[[[-6.6,61.76],[-5.72,62.07],[-5.67,62.26],[-6.37,62.74],[-7.72,62.17],[-7.76,61.97],[-7.39,61.84],[-7.43,61.64],[-6.74,61.16],[-6.33,61.22],[-6.28,61.42],[-6.65,61.56],[-6.6,61.76]]],[[[-5.99,59.32],[-6.38,59.26],[-6.43,59.06],[-5.69,58.97],[-5.65,59.18],[-5.99,59.32]]],[[[2.24,39.71],[2.35,39.09],[3.08,38.88],[3.71,39.29],[3.77,39.52],[4.57,39.54],[4.63,39.78],[4.41,39.93],[4.47,40.17],[3.73,40.38],[3.44,40.3],[3.38,40.06],[2.58,40.03],[2.53,39.8],[2.24,39.71]]],[[[-6.47,34.97],[-6.74,34.86],[-6.77,34.62],[-6.53,34.47],[-6.27,34.58],[-5.64,35.52],[-5.88,35.66],[-6.15,35.56],[-6.47,34.97]]],[[[104.59,51.99],[104.49,51.77],[104.73,51.59],[105.07,51.64],[105.18,51.87],[104.94,52.05],[104.59,51.99]]],[[[44.75,12.97],[44.63,12.77],[44.96,12.6],[45.77,13.22],[45.44,13.4],[44.75,12.97]]],[[[-16.39,33.34],[-16.39,33.09],[-16.13,32.96],[-15.87,33.09],[-15.87,33.34],[-16.13,33.47],[-16.39,33.34]]],[[[1.41,38.35],[2.02,38.76],[2.07,39.0],[1.68,39.53],[1.07,39.11],[1.02,38.87],[1.41,38.35]]],[[[-17.39,28.5],[-17.65,29.13],[-17.9,29.25],[-18.15,29.12],[-17.89,28.49],[-17.63,28.37],[-17.39,28.5]]],[[[26.01,76.39],[26.86,76.48],[26.87,76.7],[26.01,76.83],[23.42,76.75],[23.47,76.54],[26.01,76.39]]],[[[48.46,14.13],[48.44,13.75],[49.11,14.16],[48.8,14.34],[48.46,14.13]]],[[[-2.36,49.83],[-2.68,49.76],[-2.73,49.53],[-2.46,49.38],[-2.29,48.76],[-1.71,48.67],[-1.66,48.9],[-2.14,49.44],[-2.09,49.67],[-1.18,49.65],[-1.12,49.87],[-1.98,50.12],[-2.31,50.05],[-2.36,49.83]]],[[[23.51,80.44],[19.78,80.55],[18.65,80.43],[18.83,80.2],[17.76,80.08],[17.96,79.85],[12.53,79.62],[12.83,79.41],[15.45,79.02],[16.38,79.15],[16.17,79.37],[18.32,79.4],[18.49,79.18],[19.63,79.08],[19.76,78.86],[18.81,78.74],[18.96,78.51],[18.05,78.39],[18.21,78.17],[17.34,78.05],[16.3,78.14],[16.1,78.36],[16.98,78.49],[16.79,78.71],[12.8,78.61],[13.07,78.4],[14.16,78.32],[14.39,78.1],[13.57,77.97],[13.81,77.75],[13.03,77.62],[13.27,77.4],[14.26,77.32],[14.48,77.11],[16.57,76.72],[17.34,76.84],[17.18,77.06],[17.98,77.18],[17.83,77.39],[18.66,77.51],[18.52,77.73],[19.38,77.85],[19.25,78.07],[20.15,78.19],[21.17,78.08],[21.26,77.86],[20.38,77.75],[20.49,77.53],[22.46,77.09],[24.16,77.52],[24.12,77.74],[25.05,77.84],[25.02,78.06],[22.97,78.52],[22.9,78.75],[21.83,78.86],[21.74,79.09],[20.62,79.2],[20.5,79.42],[21.53,79.54],[21.43,79.76],[20.23,79.87],[20.09,80.1],[25.95,80.2],[25.94,80.43],[24.7,80.55],[23.51,80.44]],[[16.04,77.36],[15.05,77.45],[14.84,77.67],[16.67,77.71],[16.85,77.49],[16.04,77.36]]],[[[-9.41,39.57],[-9.74,38.97],[-9.24,38.43],[-8.96,38.54],[-9.17,39.18],[-8.89,39.28],[-8.87,39.53],[-9.13,39.67],[-9.41,39.57]]],[[[52.04,25.69],[52.39,25.43],[52.54,25.59],[52.45,25.8],[52.04,25.69]]],[[[8.33,49.33],[7.83,48.81],[8.08,48.67],[8.84,49.04],[9.25,48.53],[9.59,48.61],[9.52,49.19],[8.67,49.4],[9.19,49.92],[8.94,50.06],[9.03,50.27],[8.43,50.34],[8.34,50.12],[8.0,50.04],[7.91,49.82],[8.33,49.33]]],[[[43.59,11.73],[43.02,11.88],[42.91,11.68],[43.35,11.33],[43.7,11.55],[43.59,11.73]]],[[[50.4,69.1],[50.78,69.29],[50.52,69.48],[48.98,69.67],[47.98,69.47],[47.62,69.28],[47.9,69.1],[47.54,68.91],[47.81,68.72],[49.3,68.53],[50.65,68.91],[50.4,69.1]]],[[[-8.27,70.94],[-8.05,71.15],[-8.44,71.32],[-9.06,71.27],[-9.28,71.05],[-8.27,70.94]]],[[[-12.46,62.95],[-12.16,62.81],[-11.73,62.89],[-11.6,63.1],[-12.34,63.17],[-12.46,62.95]]],[[[52.01,15.76],[52.31,15.57],[52.38,16.33],[52.05,16.13],[52.01,15.76]]],[[[57.72,25.81],[57.31,26.3],[56.88,26.2],[57.63,25.44],[58.06,25.53],[57.72,25.81]]],[[[-4.51,48.24],[-4.79,48.4],[-4.75,48.63],[-5.35,48.7],[-5.39,48.47],[-4.87,47.93],[-4.56,48.01],[-4.51,48.24]]],[[[12.37,36.67],[12.46,36.91],[12.25,37.09],[11.94,37.02],[11.86,36.78],[12.07,36.61],[12.37,36.67]]],[[[70.58,34.25],[70.53,34.49],[70.25,34.58],[70.01,34.43],[70.06,34.18],[70.34,34.09],[70.58,34.25]]],[[[-16.64,28.38],[-16.89,28.51],[-17.14,28.38],[-17.14,28.12],[-16.89,28.0],[-16.64,28.13],[-16.64,28.38]]],[[[-17.44,33.08],[-17.7,32.95],[-17.7,32.69],[-17.43,32.57],[-17.17,32.7],[-16.65,32.19],[-16.39,32.32],[-16.65,32.96],[-17.44,33.08]]],[[[-27.44,38.4],[-27.14,38.29],[-26.87,38.44],[-26.91,38.7],[-27.55,39.16],[-28.95,38.9],[-28.91,38.65],[-28.26,38.19],[-27.44,38.4]]],[[[14.56,35.79],[14.65,36.03],[14.44,36.21],[14.13,36.15],[14.04,35.91],[14.25,35.73],[14.56,35.79]]],[[[-3.83,48.63],[-3.79,48.86],[-4.06,49.01],[-4.39,48.94],[-4.43,48.71],[-3.83,48.63]]],[[[47.12,13.68],[47.0,13.49],[47.32,13.31],[48.12,13.93],[47.81,14.1],[47.12,13.68]]],[[[53.47,16.71],[53.18,16.9],[52.72,16.52],[53.01,16.33],[53.47,16.71]]],[[[-1.11,44.89],[-1.65,44.97],[-1.7,44.74],[-1.26,44.19],[-0.96,44.26],[-0.91,44.5],[-1.16,44.66],[-1.11,44.89]]],[[[67.03,76.65],[66.71,76.88],[65.68,76.94],[65.0,76.77],[65.35,76.54],[66.35,76.48],[67.03,76.65]]],[[[24.81,79.87],[23.69,79.76],[23.75,79.53],[22.68,79.42],[22.76,79.2],[24.9,79.18],[24.87,79.41],[25.96,79.51],[25.96,79.74],[24.81,79.87]]],[[[-0.81,36.07],[-0.85,35.83],[-1.12,35.74],[-1.16,35.51],[-0.94,35.35],[-0.68,35.44],[-0.64,35.68],[0.1,35.7],[0.46,36.27],[0.24,36.42],[-0.02,36.33],[-0.07,36.09],[-0.81,36.07]]],[[[59.5,25.38],[59.83,25.1],[60.01,25.25],[59.93,25.47],[59.5,25.38]]],[[[57.43,23.56],[58.01,23.8],[57.93,24.01],[57.52,23.92],[56.94,24.25],[56.95,24.82],[56.62,25.09],[56.78,25.25],[56.7,25.46],[56.45,25.52],[56.2,25.0],[56.53,24.73],[56.53,24.16],[57.43,23.56]]],[[[77.07,42.32],[77.36,42.47],[78.27,42.38],[78.56,42.52],[78.54,42.78],[76.42,42.8],[76.13,42.65],[76.16,42.4],[77.07,42.32]]],[[[54.89,16.71],[55.34,17.08],[55.27,17.26],[54.74,17.08],[54.61,16.9],[54.89,16.71]]],[[[-1.9,35.48],[-1.94,35.24],[-1.73,35.09],[-1.46,35.18],[-1.42,35.42],[-1.64,35.57],[-1.9,35.48]]],[[[58.43,23.89],[58.26,23.74],[58.33,23.53],[58.9,23.2],[59.07,23.35],[58.43,23.89]]],[[[42.53,-0.63],[43.07,-0.35],[42.99,0.06],[42.14,-0.48],[42.22,-0.89],[42.45,-0.86],[42.53,-0.63]]],[[[-9.06,40.42],[-8.79,40.27],[-8.51,40.38],[-8.48,40.62],[-8.74,40.77],[-9.03,40.67],[-9.06,40.42]]],[[[-4.68,35.18],[-4.45,35.03],[-4.19,35.12],[-4.15,35.37],[-4.88,35.57],[-5.14,35.47],[-5.18,35.22],[-4.95,35.08],[-4.68,35.18]]],[[[46.38,2.36],[46.45,2.57],[46.07,2.73],[45.71,2.28],[45.86,2.1],[46.38,2.36]]],[[[18.77,-33.83],[18.61,-33.64],[18.33,-33.65],[18.21,-33.84],[18.66,-34.03],[18.77,-33.83]]],[[[89.46,42.34],[89.76,42.45],[89.79,42.7],[89.52,42.84],[89.55,43.09],[89.27,43.23],[88.97,43.12],[88.94,42.87],[89.46,42.34]]],[[[60.71,76.54],[58.59,76.19],[59.02,75.98],[61.52,76.09],[62.11,76.27],[61.72,76.5],[60.71,76.54]]],[[[68.74,76.76],[68.03,76.59],[68.32,76.35],[69.3,76.28],[70.01,76.45],[69.74,76.69],[68.74,76.76]]],[[[-18.13,28.1],[-18.37,27.97],[-18.37,27.72],[-18.12,27.6],[-17.87,27.73],[-17.88,27.98],[-18.13,28.1]]],[[[-3.38,47.86],[-3.97,47.94],[-4.28,47.86],[-4.33,47.63],[-3.16,47.47],[-3.12,47.7],[-3.38,47.86]]],[[[49.7,14.75],[49.79,14.57],[50.13,14.77],[49.82,14.95],[49.7,14.75]]],[[[1.05,41.27],[1.0,41.04],[1.23,40.9],[1.51,40.99],[1.56,41.22],[1.05,41.27]]],[[[56.74,18.65],[57.12,18.73],[57.04,18.92],[56.81,18.98],[56.74,18.65]]],[[[-1.0,51.58],[-1.06,51.36],[-0.46,51.27],[-0.4,51.49],[-0.67,51.65],[-1.0,51.58]]],[[[43.9,10.8],[43.91,11.18],[43.69,11.16],[43.57,10.96],[43.9,10.8]]],[[[-30.73,39.22],[-31.14,39.82],[-31.45,39.91],[-31.71,39.75],[-31.3,39.16],[-30.99,39.07],[-30.73,39.22]]],[[[80.98,75.54],[81.04,75.3],[81.88,75.18],[82.68,75.3],[82.65,75.55],[81.79,75.67],[80.98,75.54]]],[[[-8.13,57.95],[-8.09,58.16],[-8.44,58.3],[-8.82,58.23],[-9.27,57.73],[-8.92,57.6],[-8.13,57.95]]],[[[41.66,15.33],[42.02,15.56],[41.9,15.75],[41.66,15.74],[41.66,15.33]]],[[[100.62,76.17],[100.91,76.41],[100.18,76.59],[99.14,76.53],[98.87,76.29],[99.61,76.11],[100.62,76.17]]],[[[-3.42,49.16],[-3.47,48.93],[-2.88,48.85],[-2.83,49.08],[-3.1,49.23],[-3.42,49.16]]],[[[51.31,14.99],[51.34,15.37],[51.13,15.36],[51.01,15.17],[51.31,14.99]]],[[[95.32,76.49],[94.32,76.41],[94.14,76.16],[94.93,76.0],[97.63,75.98],[97.87,76.22],[95.32,76.49]]],[[[-0.16,50.06],[-0.22,49.84],[0.36,49.74],[0.42,49.96],[0.16,50.12],[-0.16,50.06]]],[[[46.68,13.66],[46.46,13.65],[46.44,13.26],[46.78,13.47],[46.68,13.66]]],[[[92.1,75.74],[91.3,75.9],[90.38,75.8],[90.28,75.55],[91.07,75.4],[91.97,75.5],[92.1,75.74]]],[[[20.31,74.3],[20.22,74.51],[19.45,74.61],[18.78,74.5],[18.89,74.3],[20.31,74.3]]],[[[-14.1,57.95],[-14.11,57.73],[-13.37,57.69],[-13.35,57.91],[-13.72,58.04],[-14.1,57.95]]],[[[-25.68,38.02],[-25.98,38.13],[-26.24,37.98],[-26.21,37.72],[-25.92,37.62],[-25.09,37.8],[-25.12,38.06],[-25.41,38.17],[-25.68,38.02]]],[[[38.1,26.32],[37.98,25.67],[38.12,25.45],[38.8,25.26],[38.93,25.48],[38.79,25.69],[38.52,25.69],[38.38,25.9],[38.51,26.12],[38.37,26.33],[38.1,26.32]]],[[[58.82,25.35],[59.25,25.44],[59.17,25.66],[58.92,25.72],[58.74,25.57],[58.82,25.35]]],[[[0.77,36.6],[0.72,36.36],[0.94,36.21],[1.21,36.3],[1.26,36.54],[1.04,36.68],[0.77,36.6]]],[[[39.57,-4.51],[39.82,-4.47],[39.9,-4.24],[39.74,-4.05],[39.5,-4.08],[39.41,-4.32],[39.57,-4.51]]],[[[46.53,10.63],[46.55,11.0],[46.33,10.99],[46.21,10.79],[46.53,10.63]]]]}}]}