{"type":"FeatureCollection","features":[{"type":"Feature","properties":{},"geometry":{"type":"MultiPolygon","coordinates":[[[[140.84,50.61],[140.2,50.59],[139.96,50.04],[140.59,50.07],[140.84,50.61]]],[[[100.04,10.23],[99.68,11.3],[100.44,12.13],[100.51,12.9],[102.64,11.41],[102.73,9.99],[103.64,10.16],[103.8,9.5],[103.1,9.18],[103.75,8.99],[104.25,9.46],[104.82,8.51],[105.49,8.57],[105.77,9.18],[106.44,9.24],[106.98,10.2],[108.34,10.56],[108.63,11.16],[109.55,11.55],[109.4,12.2],[109.92,12.89],[109.37,13.85],[109.58,15.58],[107.71,16.7],[107.55,17.35],[106.9,17.56],[106.75,18.21],[105.9,18.81],[106.01,19.79],[106.7,19.83],[107.24,20.5],[107.87,20.04],[107.71,20.68],[108.25,21.34],[108.93,21.36],[109.29,20.58],[109.94,20.36],[109.23,20.1],[108.93,19.52],[108.25,19.5],[108.76,18.06],[109.4,17.85],[110.34,18.21],[111.65,19.85],[110.87,20.7],[111.17,21.26],[112.1,21.59],[112.73,21.36],[113.22,21.75],[114.08,21.6],[114.86,22.52],[115.47,22.28],[116.37,22.57],[116.66,23.1],[118.36,23.2],[118.87,23.77],[119.35,22.86],[120.17,22.83],[120.44,21.91],[121.69,21.84],[121.12,22.22],[121.8,22.52],[121.53,23.44],[122.4,24.85],[121.96,26.07],[122.62,26.15],[125.35,29.25],[125.23,29.78],[126.02,30.48],[125.9,31.0],[126.99,31.97],[126.87,32.48],[128.42,34.48],[128.87,34.45],[129.2,33.85],[128.33,33.01],[128.45,32.5],[129.36,32.45],[129.72,32.02],[129.15,31.44],[129.27,30.92],[130.38,30.74],[130.04,30.24],[129.35,30.18],[129.47,29.65],[128.65,28.96],[128.81,28.63],[129.79,28.98],[129.67,29.53],[130.25,30.12],[130.95,30.17],[131.12,30.99],[131.66,31.36],[130.42,32.07],[130.72,33.46],[131.43,33.51],[131.8,33.08],[131.54,31.89],[132.08,32.25],[131.96,32.77],[132.88,32.69],[133.72,33.32],[134.39,33.16],[135.0,33.92],[135.64,33.55],[135.21,34.48],[135.85,34.56],[135.64,34.91],[133.94,34.97],[132.92,34.21],[131.1,34.13],[132.89,35.32],[134.14,35.3],[133.5,35.65],[133.7,36.21],[133.26,36.66],[132.85,36.22],[133.08,35.66],[131.67,34.89],[130.81,34.92],[130.64,34.16],[129.57,34.51],[129.7,37.18],[127.83,39.7],[128.65,39.75],[129.45,40.24],[129.61,40.8],[130.25,40.94],[129.99,41.48],[130.59,42.29],[131.26,42.22],[131.69,42.69],[132.6,42.73],[133.08,42.3],[133.53,42.77],[134.24,42.68],[135.19,43.16],[135.68,44.08],[136.42,44.21],[136.94,45.14],[137.71,45.27],[140.61,48.75],[140.36,49.09],[140.65,49.65],[140.32,49.74],[139.77,49.29],[140.05,48.74],[137.47,45.61],[136.69,45.48],[135.93,44.43],[134.94,44.4],[134.23,43.36],[133.51,43.67],[134.94,44.86],[134.68,45.41],[135.68,45.9],[135.43,46.46],[136.2,46.6],[136.73,47.3],[136.43,47.83],[137.28,48.0],[136.87,48.49],[138.33,50.28],[137.91,50.79],[139.11,51.29],[140.47,50.92],[141.65,52.05],[140.89,52.69],[140.57,52.56],[140.98,52.03],[139.93,52.31],[140.18,52.88],[139.79,53.19],[140.08,53.54],[139.1,53.16],[139.54,52.63],[138.16,51.13],[137.76,51.43],[138.02,51.77],[136.85,52.46],[137.05,53.04],[135.93,53.29],[135.45,52.58],[135.94,52.06],[135.41,51.58],[135.82,51.29],[135.65,50.73],[136.69,50.49],[136.17,50.02],[135.43,50.39],[134.32,49.86],[133.49,50.42],[132.52,50.42],[133.34,50.84],[132.84,51.33],[132.01,50.91],[131.21,51.25],[131.69,52.54],[130.27,53.38],[126.37,53.97],[124.79,53.58],[122.67,54.01],[121.15,53.57],[120.2,53.84],[116.92,52.93],[115.39,53.38],[115.19,52.83],[114.04,52.5],[111.92,53.1],[110.68,52.52],[109.57,52.82],[108.76,52.53],[108.66,52.93],[109.61,53.44],[109.17,54.77],[108.61,54.57],[108.71,54.17],[107.39,53.62],[107.03,54.2],[106.43,54.34],[104.96,54.16],[104.56,54.74],[103.71,54.42],[103.12,55.4],[97.66,56.3],[96.79,55.93],[92.83,56.5],[91.98,56.09],[85.14,56.51],[84.38,57.03],[83.58,56.55],[82.41,56.7],[81.63,56.21],[75.36,56.08],[74.49,56.54],[71.76,56.24],[70.84,56.67],[68.91,56.37],[66.66,57.02],[65.53,56.75],[62.43,57.22],[59.82,56.67],[57.47,57.14],[56.43,56.8],[55.25,57.33],[52.03,57.11],[51.25,57.58],[48.78,57.45],[47.97,57.89],[42.34,57.87],[40.83,58.44],[39.17,57.96],[38.92,58.56],[38.27,58.72],[37.3,58.05],[33.52,58.55],[33.54,57.54],[34.17,57.4],[34.25,57.0],[31.7,56.34],[31.49,57.12],[32.92,57.68],[32.73,58.47],[33.91,59.59],[33.47,60.55],[31.43,60.92],[29.92,60.34],[27.65,60.81],[23.2,60.25],[22.73,60.76],[21.44,60.89],[21.95,61.4],[21.23,62.24],[20.78,61.95],[21.22,61.25],[19.7,60.49],[16.94,61.03],[16.96,60.54],[18.4,60.37],[18.83,59.92],[17.7,59.47],[17.7,58.97],[16.74,58.69],[16.88,58.37],[16.21,57.95],[16.64,57.48],[16.1,57.24],[16.13,56.72],[15.08,56.23],[14.02,56.25],[14.06,55.72],[13.4,55.79],[13.03,56.98],[12.07,57.17],[10.84,59.37],[9.23,59.09],[7.26,58.03],[5.77,58.56],[6.78,57.76],[9.0,58.03],[9.81,58.86],[10.8,58.69],[11.16,58.06],[7.84,57.1],[8.02,56.79],[7.46,56.31],[7.93,55.87],[7.37,55.39],[8.29,55.23],[7.83,54.95],[7.92,54.41],[7.02,53.84],[4.98,53.55],[4.15,53.01],[4.25,52.42],[2.28,51.11],[1.51,51.61],[2.17,52.73],[1.98,53.11],[0.49,53.49],[0.13,54.45],[-0.79,54.72],[-1.43,56.03],[-2.4,56.29],[-1.92,56.76],[-2.22,56.92],[-3.49,56.11],[-1.85,55.77],[-1.2,54.45],[-0.35,53.97],[-3.25,54.31],[-3.49,54.68],[-3.09,54.95],[-3.39,55.11],[-4.15,54.77],[-5.13,55.0],[-3.85,56.05],[-4.94,55.86],[-6.23,56.46],[-5.77,56.95],[-6.1,57.09],[-6.89,56.75],[-6.6,56.39],[-7.01,56.1],[-6.76,55.52],[-7.81,55.52],[-7.52,55.16],[-6.16,55.01],[-6.71,53.84],[-9.79,53.8],[-8.34,54.35],[-8.6,54.93],[-8.21,55.23],[-8.54,55.37],[-9.29,54.99],[-9.02,54.41],[-10.75,54.44],[-10.44,54.08],[-10.84,53.54],[-10.21,53.03],[-10.97,52.17],[-10.38,51.43],[-8.77,51.18],[-8.03,51.81],[-5.65,52.35],[-5.87,52.95],[-5.48,53.25],[-6.01,53.99],[-4.95,54.2],[-4.7,53.83],[-5.09,53.54],[-5.01,52.28],[-5.77,51.68],[-4.85,51.45],[-4.64,50.84],[-5.6,50.85],[-6.7,49.92],[-6.45,49.54],[-5.76,49.93],[-4.86,49.7],[-3.56,50.0],[-2.81,50.59],[-1.34,50.25],[-0.63,50.6],[1.18,50.52],[0.74,50.02],[-0.16,50.06],[-0.91,49.49],[-1.39,50.03],[-2.31,50.05],[-3.1,49.23],[-5.35,48.7],[-5.15,48.09],[-6.87,46.73],[-6.66,46.1],[-7.99,45.02],[-7.77,44.39],[-8.43,43.71],[-9.3,43.66],[-9.63,43.32],[-9.4,42.68],[-10.03,41.98],[-10.89,41.91],[-12.42,40.12],[-12.18,39.48],[-12.76,39.0],[-12.5,38.61],[-12.84,37.23],[-12.33,36.71],[-12.62,36.08],[-12.12,35.56],[-12.49,33.42],[-11.72,33.27],[-9.59,34.43],[-8.84,34.26],[-6.98,35.01],[-6.77,34.62],[-7.35,33.91],[-8.9,33.51],[-10.03,32.07],[-9.94,29.94],[-10.48,29.21],[-11.21,29.11],[-11.49,28.49],[-12.46,28.51],[-13.45,28.02],[-13.71,27.65],[-13.49,27.02],[-14.21,26.9],[-15.2,25.4],[-14.97,24.78],[-15.68,24.65],[-17.32,22.03],[-17.08,21.43],[-17.54,20.69],[-16.85,20.59],[-16.85,19.64],[-16.17,18.83],[-16.18,17.89],[-16.62,17.41],[-16.4,16.83],[-16.83,16.35],[-16.61,15.79],[-17.04,15.09],[-17.68,14.94],[-16.82,13.64],[-17.02,12.41],[-16.4,11.68],[-16.6,11.13],[-13.99,9.89],[-14.21,9.36],[-13.61,9.29],[-12.91,7.3],[-11.78,6.97],[-11.61,6.49],[-9.81,5.63],[-9.5,4.9],[-8.81,4.57],[-8.76,5.12],[-10.15,5.99],[-11.0,7.4],[-10.56,8.22],[-10.01,7.94],[-7.94,8.13],[-7.24,7.77],[-7.1,7.29],[-6.2,7.23],[-5.27,6.14],[-5.36,5.4],[-6.06,5.36],[-7.58,4.36],[-8.26,4.69],[-8.47,4.4],[-7.79,4.08],[-5.57,5.11],[-4.38,4.9],[-4.0,5.16],[-2.83,4.68],[-2.43,4.94],[-2.15,4.46],[-0.61,4.95],[-0.35,5.36],[0.2,5.29],[0.47,5.71],[1.02,5.64],[1.3,6.06],[3.7,6.35],[4.98,5.83],[5.81,3.92],[8.58,4.39],[8.44,2.85],[9.28,3.75],[9.78,2.67],[9.08,1.2],[9.27,-0.16],[8.6,-0.26],[8.54,-1.26],[9.78,-3.12],[11.1,-3.99],[12.01,-5.34],[11.96,-6.4],[13.3,-8.38],[12.5,-9.1],[13.45,-10.52],[13.44,-12.03],[13.97,-12.42],[13.61,-12.66],[12.85,-12.29],[12.77,-12.95],[12.18,-13.21],[12.27,-14.49],[11.48,-15.61],[11.7,-17.09],[11.24,-17.54],[13.05,-20.23],[12.97,-20.87],[14.39,-22.52],[13.91,-22.96],[14.5,-23.78],[14.01,-24.22],[14.57,-24.62],[14.64,-26.9],[15.2,-27.3],[15.13,-27.92],[15.97,-28.31],[16.59,-29.11],[16.51,-29.72],[17.1,-30.11],[17.03,-30.71],[18.1,-31.68],[18.19,-32.47],[17.68,-32.88],[17.82,-34.04],[19.15,-34.59],[19.37,-35.16],[20.57,-34.55],[22.17,-34.67],[22.23,-34.08],[24.46,-34.53],[25.27,-34.08],[26.88,-34.14],[28.87,-32.95],[28.91,-32.35],[30.37,-31.57],[30.41,-30.95],[31.08,-30.66],[31.42,-29.38],[32.85,-28.55],[32.7,-27.73],[33.18,-27.23],[32.93,-26.63],[33.34,-25.71],[35.54,-24.71],[35.93,-23.78],[35.6,-22.74],[36.05,-22.23],[35.9,-21.37],[35.29,-21.04],[35.23,-19.94],[37.28,-18.47],[37.29,-17.8],[39.11,-17.47],[40.48,-16.32],[40.48,-15.65],[41.16,-15.08],[40.66,-13.17],[41.08,-12.65],[40.75,-11.6],[41.09,-10.65],[40.02,-9.72],[39.78,-8.43],[40.2,-7.92],[39.47,-6.72],[40.13,-5.51],[39.82,-4.47],[40.39,-2.87],[42.22,-1.53],[42.22,-0.89],[43.68,0.16],[43.68,0.78],[44.89,1.76],[45.49,1.64],[47.53,3.31],[47.52,3.9],[48.58,4.61],[48.56,5.19],[49.05,5.44],[49.69,7.39],[50.43,7.83],[50.6,8.93],[51.12,9.33],[50.96,10.04],[51.59,10.43],[51.23,10.77],[51.36,12.22],[50.54,12.18],[49.44,11.38],[47.0,11.41],[44.34,10.46],[44.24,11.02],[43.58,11.34],[43.6,12.11],[44.06,12.53],[44.62,12.38],[46.11,13.44],[46.98,13.1],[50.13,14.77],[50.64,14.59],[51.77,15.38],[52.27,15.2],[52.47,16.14],[53.47,16.71],[53.96,16.53],[56.65,17.3],[56.73,17.62],[56.06,17.79],[56.96,18.08],[57.12,18.73],[58.27,18.96],[57.9,19.41],[58.23,20.22],[58.77,19.9],[59.43,20.46],[59.05,20.92],[59.62,21.14],[60.02,22.54],[58.75,23.62],[58.85,23.98],[60.89,23.27],[61.5,23.49],[64.68,22.6],[65.3,22.81],[68.71,21.57],[68.61,21.01],[69.54,20.71],[71.21,18.36],[72.97,17.64],[72.97,16.7],[73.56,15.89],[73.36,15.3],[73.95,15.19],[73.75,14.59],[74.34,14.49],[74.14,13.89],[74.73,13.06],[74.53,12.45],[75.72,11.25],[75.51,10.64],[76.3,9.42],[76.09,8.82],[76.69,8.68],[77.09,7.94],[77.9,7.91],[78.74,9.12],[79.78,8.96],[79.34,7.99],[79.74,7.48],[79.52,6.87],[80.32,5.6],[81.58,6.03],[82.26,7.37],[81.05,9.67],[80.43,9.81],[80.02,10.57],[80.25,11.18],[79.85,11.93],[80.73,13.16],[80.32,13.91],[80.37,15.64],[81.0,15.26],[81.45,16.0],[83.45,16.86],[84.41,18.58],[86.72,19.79],[87.21,20.52],[87.01,21.14],[88.85,21.1],[89.34,21.58],[90.5,21.42],[91.0,21.9],[91.69,21.75],[92.71,19.59],[93.4,19.42],[93.32,18.42],[94.01,18.25],[94.42,17.47],[93.9,16.74],[93.83,15.72],[95.43,15.49],[96.39,15.93],[96.91,16.66],[97.73,15.32],[97.38,13.94],[97.8,13.39],[97.71,12.36],[97.2,11.63],[97.87,11.45],[97.35,10.71],[97.74,9.91],[97.4,8.51],[98.07,8.33],[98.2,7.16],[98.9,7.49],[98.81,6.46],[100.11,5.84],[99.83,5.23],[101.14,2.44],[98.62,4.17],[98.05,5.37],[96.48,5.36],[95.43,6.34],[94.95,5.86],[94.87,4.83],[97.0,3.4],[97.17,2.75],[96.5,2.67],[96.09,3.21],[95.21,3.27],[94.96,2.91],[95.61,2.74],[96.0,1.94],[97.32,1.85],[96.61,1.27],[98.08,0.27],[98.0,-0.72],[98.64,-0.89],[98.56,-1.88],[99.82,-2.47],[100.37,-3.61],[100.62,-3.26],[100.07,-2.11],[99.43,-1.94],[98.69,-0.4],[98.94,-0.04],[100.39,-1.02],[100.11,-1.62],[100.75,-1.79],[100.48,-2.39],[101.37,-2.21],[101.1,-2.8],[101.48,-3.32],[101.8,-2.24],[100.87,-0.56],[101.12,-0.2],[101.87,-1.5],[102.78,-1.07],[103.16,-1.59],[104.24,-1.55],[104.6,-2.31],[105.45,-2.36],[105.99,-3.25],[106.83,-3.3],[107.08,-2.96],[106.19,-1.31],[105.55,-1.39],[105.17,-0.87],[105.1,-1.61],[104.67,-1.58],[104.52,-0.95],[105.27,0.11],[104.67,0.53],[105.17,1.24],[104.54,1.42],[104.46,2.81],[103.83,2.99],[103.46,3.78],[104.0,4.75],[103.45,5.94],[102.58,6.02],[101.74,6.61],[101.58,7.26],[100.92,7.45],[101.01,8.47],[100.35,8.66],[100.45,9.68],[100.04,10.23]],[[93.06,35.6],[92.91,36.21],[93.18,36.31],[93.6,35.8],[95.34,35.78],[97.0,34.45],[98.19,34.44],[99.67,33.29],[99.13,32.9],[98.42,33.06],[98.03,33.76],[97.0,33.39],[96.17,33.94],[96.06,34.53],[94.89,34.75],[95.25,35.31],[95.03,35.45],[93.06,35.6]],[[90.12,29.98],[89.43,30.33],[90.38,30.32],[90.12,29.98]],[[28.9,58.0],[28.03,58.27],[29.15,58.43],[29.4,58.27],[28.9,58.0]],[[93.49,33.79],[93.89,33.29],[94.19,33.62],[93.84,34.35],[95.54,34.34],[95.4,33.65],[96.54,33.44],[95.93,32.79],[95.09,33.32],[94.36,33.26],[95.0,32.86],[95.15,32.28],[95.87,32.13],[96.08,31.79],[95.81,31.47],[94.83,31.52],[93.73,32.36],[91.58,32.36],[89.99,33.25],[87.76,33.18],[87.3,33.67],[87.59,34.26],[87.37,34.63],[89.11,34.23],[89.47,35.3],[88.96,35.32],[88.38,34.61],[88.16,34.98],[88.45,35.33],[87.69,35.47],[88.0,36.07],[86.43,36.1],[86.19,36.47],[87.28,36.95],[88.34,36.92],[88.81,36.42],[90.37,36.36],[90.94,36.81],[91.9,36.27],[92.06,35.66],[92.79,35.5],[92.45,34.92],[93.17,34.76],[92.86,34.42],[91.65,34.61],[91.36,34.26],[92.08,34.11],[92.23,33.51],[93.12,32.99],[93.49,33.79]],[[133.97,33.62],[132.51,33.13],[132.68,33.91],[134.37,34.28],[134.58,33.93],[133.97,33.62]],[[21.37,-7.71],[20.76,-8.0],[19.96,-7.66],[19.77,-7.02],[17.94,-6.37],[17.87,-7.02],[18.41,-7.4],[18.5,-8.26],[18.08,-9.19],[17.47,-9.47],[16.69,-9.12],[16.12,-8.31],[16.19,-7.65],[15.38,-6.88],[14.96,-7.78],[15.48,-8.16],[15.59,-9.45],[14.54,-10.2],[14.85,-9.52],[13.48,-7.51],[13.49,-6.02],[12.55,-4.65],[11.95,-4.51],[11.79,-3.9],[10.84,-3.61],[10.69,-3.01],[9.98,-2.69],[9.91,-1.48],[10.64,-0.37],[9.77,0.9],[9.73,1.69],[10.72,3.79],[11.77,3.37],[12.32,3.65],[14.61,2.62],[15.17,2.9],[15.91,2.61],[16.08,2.03],[16.83,1.73],[16.39,1.25],[16.94,0.51],[16.87,-0.12],[17.43,-0.88],[18.58,-1.36],[18.27,-2.03],[18.86,-1.74],[19.05,-2.35],[19.68,-2.49],[19.25,-1.9],[19.31,-1.26],[21.02,-1.03],[22.2,-1.51],[22.8,-2.29],[22.9,-3.14],[22.45,-3.63],[22.64,-4.26],[22.24,-5.18],[22.84,-5.99],[21.42,-7.04],[21.37,-7.71]],[[97.92,53.91],[98.13,53.51],[100.09,53.21],[99.56,52.67],[100.02,52.1],[100.47,52.4],[100.28,52.8],[100.64,52.86],[101.62,51.95],[99.76,51.39],[98.47,52.46],[99.0,53.01],[97.02,53.29],[96.5,53.86],[95.82,53.94],[95.65,54.59],[96.03,54.66],[97.92,53.91]],[[14.84,55.83],[15.9,55.8],[16.94,56.3],[16.93,56.82],[17.46,57.06],[18.68,56.68],[18.54,57.01],[19.65,57.99],[19.51,58.32],[18.27,58.19],[18.27,57.68],[17.32,57.39],[16.9,57.86],[17.58,58.28],[17.43,58.61],[19.1,58.78],[19.11,59.29],[20.25,59.72],[22.37,59.4],[21.19,58.47],[21.7,57.66],[20.56,56.7],[21.07,55.86],[20.53,55.63],[20.51,55.09],[17.63,55.13],[14.94,54.22],[13.87,54.78],[12.35,54.53],[12.19,54.87],[12.68,55.14],[14.22,55.38],[14.64,54.9],[15.68,54.87],[15.65,55.41],[14.84,55.83]],[[24.74,59.14],[26.31,59.61],[26.93,58.11],[27.8,57.84],[26.87,57.3],[26.16,58.58],[25.34,58.25],[24.92,58.77],[23.6,58.98],[24.74,59.14]],[[119.54,26.66],[119.06,26.33],[118.47,26.58],[119.39,27.03],[119.54,26.66]],[[91.37,30.75],[92.88,31.38],[95.26,30.82],[94.99,30.5],[92.78,30.25],[93.0,29.91],[92.73,29.57],[92.09,30.62],[91.37,30.75]],[[14.88,35.18],[18.44,34.25],[19.15,34.59],[19.65,34.45],[19.95,33.82],[21.45,33.37],[19.83,32.23],[19.91,31.11],[18.83,30.48],[18.54,31.11],[15.79,31.75],[15.36,32.8],[11.5,33.34],[11.45,34.01],[10.74,34.29],[11.7,34.74],[11.31,35.99],[12.12,35.95],[12.46,35.35],[13.14,35.72],[14.88,35.18]],[[93.38,31.58],[93.15,31.7],[93.44,32.03],[93.38,31.58]],[[95.94,38.62],[98.01,38.63],[96.51,37.71],[96.11,38.24],[95.28,37.95],[95.94,38.62]],[[106.24,-2.9],[105.7,-2.01],[105.94,-1.66],[106.49,-2.56],[106.24,-2.9]],[[29.91,59.74],[30.04,59.35],[29.39,59.47],[29.91,59.74]],[[7.97,37.4],[8.48,37.31],[8.11,37.0],[6.37,37.42],[5.73,37.02],[5.01,37.25],[7.09,38.05],[7.97,37.4]],[[53.56,24.81],[54.3,24.66],[53.49,24.45],[53.07,24.92],[53.56,24.81]],[[-4.3,54.11],[-3.65,54.03],[-3.45,53.44],[-4.09,53.52],[-4.3,54.11]],[[81.14,35.31],[80.88,34.93],[80.33,35.65],[81.13,35.8],[81.4,35.69],[81.14,35.31]],[[-1.6,35.81],[-2.2,35.15],[-2.91,35.35],[-1.6,35.81]],[[41.92,17.38],[41.19,17.34],[41.68,17.78],[41.92,17.38]],[[121.0,22.79],[120.69,23.48],[121.44,24.22],[121.6,23.88],[121.0,22.79]],[[42.72,14.4],[42.36,13.78],[40.95,14.88],[41.3,15.51],[40.82,15.89],[40.94,16.51],[41.55,16.75],[42.03,15.96],[41.54,15.53],[42.02,14.75],[42.61,14.99],[42.72,14.4]],[[100.02,34.23],[99.31,34.2],[98.57,34.99],[99.75,34.96],[100.02,34.23]],[[123.33,52.03],[122.32,51.03],[121.81,51.26],[122.12,51.79],[122.72,51.91],[122.91,52.64],[123.3,52.6],[123.33,52.03]],[[18.78,-0.91],[18.4,-0.75],[18.74,-0.49],[19.27,-0.84],[18.78,-0.91]],[[-6.52,53.03],[-6.79,53.4],[-6.13,53.32],[-6.52,53.03]],[[85.9,35.86],[86.15,35.74],[85.87,35.38],[85.63,35.74],[85.9,35.86]],[[129.09,41.86],[129.33,41.55],[128.77,40.74],[128.3,41.15],[128.21,42.01],[129.09,41.86]],[[97.16,35.14],[96.47,35.32],[97.11,35.97],[97.95,35.41],[97.16,35.14]],[[23.72,57.3],[23.36,57.79],[23.93,58.0],[24.29,57.51],[23.72,57.3]],[[16.99,-26.42],[17.08,-27.25],[16.38,-27.06],[16.3,-26.23],[16.99,-26.42]],[[25.3,59.64],[25.13,60.01],[25.77,59.92],[25.3,59.64]],[[-1.49,53.37],[-0.87,53.27],[-0.71,52.68],[-1.33,52.78],[-1.49,53.37]],[[119.24,27.39],[118.87,27.71],[119.93,27.77],[119.64,27.3],[119.24,27.39]],[[98.32,37.87],[97.99,37.55],[97.28,37.75],[97.61,38.07],[98.32,37.87]],[[10.9,56.98],[11.68,57.11],[10.69,56.58],[10.51,56.91],[10.9,56.98]],[[29.41,56.46],[29.28,56.85],[29.89,56.72],[29.41,56.46]],[[97.93,33.1],[98.16,32.97],[97.88,32.66],[97.67,33.01],[97.93,33.1]],[[26.64,60.26],[26.8,59.88],[26.15,59.98],[26.64,60.26]],[[97.81,32.01],[97.6,32.35],[97.86,32.45],[98.09,32.32],[97.81,32.01]],[[96.92,30.38],[96.71,30.74],[96.97,30.83],[97.2,30.71],[96.92,30.38]],[[86.33,34.4],[85.56,34.28],[85.32,34.65],[86.1,34.77],[86.33,34.4]],[[98.56,0.74],[98.75,0.35],[98.31,0.38],[98.14,1.03],[98.56,0.74]],[[96.38,29.74],[96.17,30.09],[96.9,30.16],[97.32,29.44],[96.58,29.38],[96.38,29.74]]],[[[47.02,-24.85],[45.69,-25.39],[44.42,-25.07],[43.72,-24.38],[44.06,-23.45],[43.28,-22.33],[44.76,-19.39],[44.18,-19.09],[44.59,-18.56],[44.0,-18.25],[44.41,-17.73],[43.91,-17.18],[43.5,-17.7],[44.11,-19.98],[42.86,-22.21],[43.03,-23.03],[43.63,-23.33],[43.21,-23.85],[43.38,-24.67],[44.08,-25.36],[44.76,-25.41],[45.02,-25.97],[46.79,-25.54],[47.99,-23.97],[47.81,-23.17],[47.01,-24.22],[47.02,-24.85]]],[[[137.0,37.63],[135.86,35.93],[134.56,35.97],[134.35,35.63],[135.86,35.48],[136.76,36.83],[137.89,36.9],[137.69,37.49],[137.0,37.63]]],[[[-25.56,37.0],[-24.69,36.67],[-25.03,37.29],[-24.79,37.69],[-25.98,38.13],[-26.21,37.72],[-25.56,37.0]]],[[[55.85,-21.05],[55.73,-20.64],[55.06,-20.62],[55.29,-21.44],[55.98,-21.47],[55.85,-21.05]]],[[[106.64,9.09],[106.56,8.33],[107.08,9.04],[106.64,9.09]]],[[[109.7,1.74],[111.35,1.61],[111.47,2.58],[113.16,2.92],[114.17,4.53],[115.03,4.93],[115.61,4.74],[115.12,4.06],[115.42,3.31],[114.91,2.39],[115.3,2.35],[116.03,3.37],[116.15,4.32],[115.7,5.46],[116.43,6.47],[117.28,6.85],[118.29,5.49],[118.9,5.52],[117.82,6.41],[117.55,7.43],[116.98,7.62],[117.5,8.53],[118.36,8.91],[118.24,9.53],[117.84,9.58],[116.62,7.91],[116.74,7.29],[116.01,6.28],[115.4,6.23],[115.27,5.27],[114.02,4.91],[113.0,3.3],[111.31,2.96],[110.56,1.92],[109.12,2.17],[109.4,2.76],[108.81,3.19],[108.53,2.59],[109.07,1.67],[108.54,0.73],[109.04,-0.42],[109.48,-0.21],[108.98,0.94],[109.7,1.74]]],[[[46.09,-15.39],[45.12,-15.6],[44.72,-16.12],[44.07,-16.04],[44.07,-16.7],[44.49,-16.83],[45.21,-16.02],[45.86,-16.09],[46.09,-15.39]]],[[[47.32,-10.11],[47.94,-10.2],[47.77,-9.37],[47.23,-9.7],[47.32,-10.11]]],[[[94.36,7.06],[93.5,7.63],[94.02,8.63],[93.32,8.29],[92.9,8.83],[93.17,9.46],[92.72,9.49],[92.45,8.86],[93.64,6.46],[94.09,6.43],[94.36,7.06]]],[[[121.67,20.35],[121.79,19.76],[121.15,19.69],[121.0,18.76],[120.37,18.69],[120.52,18.32],[121.57,18.36],[121.72,19.29],[122.36,19.36],[122.2,21.01],[121.78,21.03],[121.67,20.35]]],[[[72.96,11.73],[72.57,11.96],[72.77,11.37],[72.19,11.25],[72.0,10.66],[72.96,11.02],[72.96,11.73]]],[[[73.7,2.71],[73.9,3.05],[73.52,3.77],[73.9,4.46],[73.33,4.84],[73.71,5.3],[73.72,6.25],[72.95,7.46],[72.38,6.64],[72.95,6.27],[72.57,5.58],[72.95,4.62],[72.39,3.6],[73.13,1.69],[73.89,2.11],[73.7,2.71]]],[[[43.79,-12.79],[44.35,-12.46],[45.01,-13.21],[45.64,-12.64],[44.84,-12.36],[44.59,-11.75],[43.62,-11.94],[43.37,-11.33],[43.05,-11.61],[43.22,-12.46],[43.79,-12.79]]],[[[129.51,28.68],[128.4,27.68],[128.53,27.13],[127.68,27.41],[127.8,26.85],[126.35,26.29],[126.99,26.13],[127.31,25.44],[128.0,25.5],[127.88,26.07],[129.26,27.4],[129.14,27.95],[130.12,28.31],[129.51,28.68]]],[[[102.41,-2.65],[101.98,-2.62],[101.89,-3.59],[102.27,-4.1],[102.41,-2.65]]],[[[137.07,55.77],[137.35,56.14],[136.94,56.23],[136.33,55.72],[136.79,55.4],[137.07,55.77]]],[[[142.31,48.75],[141.99,48.4],[142.56,48.4],[142.31,48.75]]],[[[119.7,15.55],[119.81,14.94],[120.22,14.9],[120.1,15.51],[119.7,15.55]]],[[[140.85,35.91],[140.94,37.09],[140.41,36.41],[139.25,36.37],[139.45,35.77],[138.51,35.35],[138.27,34.79],[137.6,34.71],[136.96,35.55],[136.28,34.54],[136.71,34.07],[137.15,34.5],[138.25,34.32],[138.71,34.76],[139.34,33.9],[139.59,34.23],[139.17,34.96],[140.32,35.0],[140.85,35.91]]],[[[-28.15,39.36],[-28.95,38.9],[-29.13,38.24],[-27.14,38.29],[-26.64,38.85],[-28.15,39.36]]],[[[143.25,49.32],[143.59,49.66],[143.01,49.67],[142.64,49.09],[143.25,49.32]]],[[[107.88,4.4],[107.72,2.91],[108.62,3.33],[108.73,4.32],[107.93,4.9],[107.88,4.4]]],[[[53.14,11.94],[54.63,12.18],[54.71,12.89],[53.34,12.85],[52.86,12.11],[53.14,11.94]]],[[[139.88,42.82],[139.62,42.71],[139.83,42.11],[140.84,42.09],[139.88,42.82]]],[[[-23.2,16.33],[-22.71,15.67],[-22.31,16.16],[-23.04,17.17],[-23.2,16.33]]],[[[50.66,-16.04],[50.0,-12.55],[49.37,-11.84],[48.45,-12.04],[48.47,-12.68],[47.63,-13.3],[47.43,-14.65],[46.49,-15.51],[46.9,-15.64],[48.13,-14.49],[48.87,-15.62],[49.65,-15.86],[49.84,-16.67],[49.16,-17.49],[49.2,-18.76],[49.74,-18.41],[49.63,-17.37],[50.66,-16.04]],[[48.12,-13.85],[48.81,-13.69],[48.2,-14.26],[48.12,-13.85]],[[49.98,-14.06],[50.25,-15.28],[49.95,-15.57],[49.4,-15.27],[49.77,-14.76],[49.59,-13.94],[49.98,-14.06]]],[[[139.84,38.46],[140.1,38.8],[139.62,38.82],[139.1,37.9],[139.57,37.88],[139.84,38.46]]],[[[142.39,47.0],[141.76,46.31],[142.63,46.64],[142.39,47.0]]],[[[110.22,-2.8],[110.38,-3.17],[111.81,-3.13],[111.65,-2.77],[110.43,-2.69],[110.19,-1.23],[109.7,-1.92],[110.22,-2.8]]],[[[117.76,3.0],[118.1,4.05],[118.95,4.4],[118.65,5.19],[118.05,5.16],[118.16,4.53],[117.46,3.78],[117.76,3.0]]],[[[-17.64,28.87],[-17.9,29.25],[-18.39,28.73],[-18.13,28.35],[-18.37,27.72],[-17.86,27.22],[-17.63,28.11],[-17.13,27.62],[-16.15,28.14],[-15.66,27.64],[-14.19,27.65],[-13.17,29.14],[-13.9,29.53],[-14.92,28.02],[-16.14,28.9],[-17.14,28.38],[-17.64,28.87]]],[[[102.92,-4.02],[102.68,-4.37],[103.53,-4.42],[102.92,-4.02]]],[[[115.57,-32.34],[115.62,-33.21],[114.62,-33.63],[114.7,-34.17],[116.01,-33.42],[116.13,-32.05],[115.34,-31.98],[115.57,-32.34]]],[[[72.73,0.35],[73.29,-0.04],[72.77,-0.84],[73.58,-0.94],[73.45,-0.38],[73.88,0.25],[73.51,0.97],[73.13,1.0],[72.73,0.35]]],[[[122.45,18.53],[121.87,18.93],[122.18,18.2],[122.45,18.53]]],[[[46.22,-22.5],[45.96,-21.93],[45.31,-22.51],[45.9,-22.8],[46.0,-23.84],[46.84,-24.05],[46.73,-23.02],[46.22,-22.5]]],[[[48.77,-20.16],[48.91,-19.69],[48.29,-20.28],[48.55,-20.85],[48.77,-20.16]]],[[[47.7,-22.14],[47.71,-22.77],[48.12,-22.88],[48.42,-21.95],[47.7,-22.14]]],[[[-1.61,57.79],[-3.7,58.09],[-4.13,57.83],[-2.73,57.64],[-2.17,57.12],[-1.37,57.43],[-1.61,57.79]]],[[[92.45,12.34],[91.97,11.85],[91.9,10.83],[92.32,10.29],[93.0,10.37],[92.82,11.03],[93.58,12.14],[94.27,12.23],[94.07,12.63],[93.16,12.68],[93.23,13.71],[93.98,14.56],[93.57,15.35],[93.52,14.59],[92.27,12.99],[92.45,12.34]]],[[[7.2,1.49],[7.85,1.59],[7.4,1.91],[7.2,1.49]]],[[[6.82,0.27],[6.8,0.66],[6.27,0.39],[6.31,-0.38],[6.84,-0.11],[6.82,0.27]]],[[[-23.73,14.56],[-22.89,15.08],[-23.38,15.74],[-25.09,15.14],[-24.82,14.59],[-23.73,14.56]]],[[[107.47,-3.22],[108.08,-3.38],[108.57,-2.69],[107.91,-3.01],[107.99,-2.29],[107.57,-2.26],[107.47,-3.22]]],[[[-15.87,33.09],[-16.13,33.47],[-17.7,32.69],[-16.65,32.19],[-15.87,33.09]]],[[[46.25,-19.7],[46.11,-20.82],[46.69,-21.11],[46.29,-21.63],[46.47,-22.44],[46.89,-22.55],[47.53,-21.97],[47.35,-21.16],[47.98,-20.57],[48.4,-18.53],[48.95,-18.18],[48.76,-17.37],[49.19,-15.97],[48.26,-16.19],[47.33,-17.06],[47.34,-17.71],[45.65,-18.1],[45.75,-19.17],[46.25,-19.7]]],[[[108.71,-1.49],[108.46,-1.84],[109.07,-2.0],[109.81,-0.96],[108.98,-0.9],[108.71,-1.49]]],[[[115.64,-31.67],[115.67,-31.33],[115.26,-31.46],[115.64,-31.67]]],[[[-31.35,39.41],[-30.73,39.22],[-31.14,39.82],[-31.71,39.75],[-31.35,39.41]]],[[[140.44,43.51],[140.16,43.17],[141.19,43.14],[140.44,43.51]]],[[[125.44,24.9],[123.25,24.8],[122.71,24.16],[124.19,23.97],[124.97,24.71],[125.84,24.65],[125.44,24.9]]],[[[106.85,0.86],[106.6,0.51],[107.45,0.44],[107.55,1.43],[106.71,1.49],[107.3,1.07],[106.85,0.86]]],[[[123.79,25.44],[124.1,25.98],[123.24,26.02],[123.36,25.46],[123.79,25.44]]],[[[120.21,16.22],[119.76,16.02],[120.58,15.95],[120.21,16.22]]],[[[57.85,-20.47],[58.16,-20.15],[57.84,-19.57],[56.91,-20.52],[57.54,-20.79],[57.85,-20.47]]],[[[-25.47,16.86],[-24.53,16.23],[-23.87,16.4],[-24.14,16.97],[-25.08,17.36],[-25.73,17.19],[-25.47,16.86]]],[[[55.49,-3.66],[55.06,-3.81],[55.54,-4.22],[54.89,-4.46],[55.53,-5.01],[56.08,-4.42],[55.87,-3.71],[55.49,-3.66]]],[[[53.14,-5.14],[53.31,-5.93],[53.89,-5.99],[53.14,-5.14]]],[[[122.46,17.22],[122.34,17.83],[121.92,17.86],[122.19,16.88],[122.61,16.85],[122.46,17.22]]],[[[136.5,53.78],[137.31,53.39],[138.69,53.47],[139.3,53.96],[138.88,54.27],[137.9,53.88],[138.12,54.46],[136.97,54.73],[137.97,55.14],[136.85,55.18],[136.25,54.67],[135.8,54.98],[136.06,55.35],[135.66,55.43],[135.15,54.7],[136.7,54.37],[136.5,53.78]]],[[[51.09,-9.54],[51.22,-9.08],[50.63,-9.0],[50.65,-9.63],[51.09,-9.54]]],[[[115.52,-34.25],[115.48,-34.61],[115.92,-34.47],[115.52,-34.25]]],[[[51.97,12.25],[52.34,11.9],[52.66,12.1],[52.29,12.44],[51.97,12.25]]],[[[106.36,2.27],[106.69,3.37],[105.4,3.49],[105.73,2.45],[106.36,2.27]]],[[[142.55,53.29],[142.87,53.63],[142.17,53.62],[142.55,53.29]]],[[[121.49,15.02],[121.64,14.64],[122.29,14.7],[122.13,15.08],[121.49,15.02]]],[[[120.15,11.51],[120.4,11.85],[120.06,12.37],[119.96,11.65],[119.09,11.26],[119.54,10.11],[120.01,10.54],[120.15,11.51]]],[[[46.29,-9.23],[46.14,-9.7],[46.77,-9.79],[46.6,-8.96],[46.29,-9.23]]],[[[120.97,14.35],[121.04,14.82],[120.37,14.52],[121.07,12.14],[121.28,13.58],[120.97,14.35]]],[[[118.85,9.58],[118.95,10.3],[118.49,9.87],[118.85,9.58]]],[[[72.58,-5.32],[71.97,-5.12],[71.71,-5.44],[72.32,-5.63],[72.58,-5.32]]],[[[112.31,16.43],[113.02,16.93],[112.17,17.07],[111.88,16.49],[112.31,16.43]]],[[[138.45,56.32],[138.71,56.92],[138.3,57.01],[137.64,56.5],[138.45,56.32]]],[[[131.74,26.06],[131.09,26.24],[130.8,25.93],[131.17,25.44],[131.74,26.06]]],[[[51.27,-10.34],[51.4,-9.89],[50.83,-10.44],[51.27,-10.34]]],[[[120.64,17.73],[120.26,17.99],[120.57,17.26],[120.64,17.73]]],[[[90.19,34.91],[90.49,35.26],[90.25,35.39],[89.98,35.28],[90.19,34.91]]]]}}]}