{"type":"FeatureCollection","features":[{"type":"Feature","properties":{},"geometry":{"type":"MultiPolygon","coordinates":[[[[138.98,71.6],[142.32,72.84],[140.61,73.59],[139.86,73.44],[140.81,72.82],[137.47,71.81],[130.94,71.82],[138.98,71.6]]],[[[135.43,34.58],[133.12,34.54],[133.14,33.87],[134.58,33.93],[132.71,33.01],[132.68,33.91],[131.1,34.13],[131.23,34.7],[129.65,33.83],[128.45,32.5],[129.69,32.93],[129.39,31.53],[130.38,30.74],[128.61,28.75],[129.79,28.98],[131.66,31.36],[130.59,31.75],[129.81,33.52],[131.63,33.39],[131.54,31.89],[131.96,32.77],[133.29,32.45],[133.47,33.24],[135.0,33.92],[135.85,33.2],[135.43,34.58]]],[[[153.04,48.4],[151.37,46.85],[153.36,47.39],[153.65,48.34],[153.04,48.4]]],[[[-172.42,60.14],[-171.78,60.5],[-173.85,60.84],[-172.42,60.14]]],[[[-35.86,65.94],[-33.05,66.58],[-31.78,67.95],[-25.56,68.48],[-20.82,70.49],[-21.18,71.1],[-20.48,71.42],[-21.89,72.55],[-16.53,75.13],[-19.09,75.74],[-17.47,76.96],[-18.01,77.35],[-16.91,77.64],[-18.25,78.18],[-16.86,78.71],[-18.33,79.25],[-15.09,80.29],[-15.57,80.66],[-11.6,81.11],[-17.27,81.77],[-14.09,81.26],[-22.14,79.62],[-20.72,78.64],[-24.63,78.29],[-23.82,77.92],[-24.86,77.36],[-23.32,76.85],[-25.15,75.96],[-19.89,75.66],[-21.2,74.42],[-23.32,74.37],[-21.48,73.72],[-24.84,73.7],[-24.3,73.1],[-25.66,72.65],[-23.84,72.25],[-22.39,70.91],[-26.39,71.59],[-25.85,70.99],[-27.62,69.93],[-23.21,69.86],[-26.59,68.73],[-31.87,68.44],[-35.03,66.48],[-40.99,65.15],[-43.71,60.61],[-49.76,62.09],[-51.15,63.73],[-50.88,64.59],[-53.19,65.82],[-52.6,66.88],[-53.75,67.37],[-53.54,68.24],[-51.01,68.76],[-50.67,69.61],[-53.96,70.64],[-51.76,70.54],[-51.14,71.15],[-53.59,71.91],[-56.03,71.57],[-54.59,71.09],[-55.29,69.61],[-53.99,69.12],[-54.76,67.19],[-53.59,66.71],[-54.14,65.64],[-50.6,61.93],[-48.04,60.41],[-42.76,59.61],[-43.12,60.32],[-41.96,60.61],[-42.67,61.15],[-41.49,61.43],[-42.2,61.97],[-41.7,62.8],[-40.45,63.07],[-39.59,64.28],[-40.34,64.84],[-35.86,65.94]],[[-20.44,77.57],[-19.81,77.19],[-21.47,77.26],[-20.44,77.57]]],[[[-171.49,-13.97],[-172.13,-13.2],[-172.94,-13.45],[-172.31,-14.22],[-171.49,-13.97]]],[[[134.75,6.9],[135.0,8.42],[133.91,7.3],[134.22,6.47],[134.75,6.9]]],[[[93.52,14.59],[92.27,12.99],[92.32,10.29],[94.27,12.23],[93.16,12.68],[93.52,14.59]]],[[[-88.11,81.91],[-96.72,81.43],[-86.82,80.06],[-85.33,80.38],[-86.32,80.74],[-91.37,81.23],[-88.11,81.91]]],[[[146.0,14.81],[145.95,15.7],[145.37,15.06],[146.0,14.81]]],[[[159.39,-9.17],[159.32,-9.81],[160.54,-10.32],[160.98,-9.29],[160.94,-10.56],[162.78,-10.99],[160.64,-7.58],[159.94,-8.31],[159.16,-7.39],[157.43,-7.28],[154.43,-5.05],[155.17,-7.57],[156.48,-7.03],[156.39,-8.57],[156.86,-8.16],[157.28,-9.03],[159.39,-9.17]],[[157.68,-8.02],[158.15,-7.61],[159.64,-8.85],[157.68,-8.02]]],[[[65.33,77.17],[58.59,76.19],[66.35,76.48],[67.09,77.29],[65.33,77.17]]],[[[112.94,2.81],[115.43,4.89],[115.39,3.07],[114.51,2.42],[114.84,1.91],[115.69,2.31],[115.7,5.46],[117.28,6.85],[118.19,4.77],[117.04,3.6],[117.95,1.5],[118.1,4.05],[122.24,5.77],[122.64,7.09],[123.7,7.07],[125.35,5.17],[126.93,6.97],[125.64,12.72],[124.59,12.97],[124.58,14.33],[123.47,14.09],[121.98,15.46],[122.91,17.42],[122.3,17.59],[122.01,21.14],[121.79,19.76],[120.11,18.35],[120.28,16.69],[119.51,15.68],[121.03,11.9],[120.55,11.46],[120.51,12.57],[119.69,12.65],[118.95,10.3],[113.0,3.3],[111.31,2.96],[110.56,1.92],[109.12,2.17],[109.04,3.29],[108.56,2.84],[109.04,1.43],[108.04,0.03],[109.07,-0.17],[108.46,-1.84],[109.7,-1.92],[109.78,-3.01],[111.4,-3.11],[111.91,-3.97],[115.64,-4.05],[110.68,-2.35],[110.14,0.11],[109.37,0.66],[110.12,1.71],[111.51,1.22],[111.63,2.2],[112.94,2.81]],[[120.82,10.45],[121.78,11.32],[121.64,10.35],[123.08,8.66],[119.48,5.31],[117.82,6.41],[117.5,8.53],[118.24,9.53],[120.82,10.45]]],[[[100.71,67.09],[103.16,67.91],[101.0,68.2],[100.71,67.09]]],[[[180.0,-15.69],[177.31,-16.8],[171.48,-16.88],[166.96,-20.09],[163.6,-19.18],[163.38,-20.0],[160.65,-20.13],[157.57,-21.54],[157.42,-23.75],[151.77,-22.79],[151.24,-23.24],[150.79,-21.33],[147.02,-18.94],[145.51,-16.26],[145.82,-14.67],[144.5,-13.69],[143.8,-13.94],[142.9,-10.59],[143.51,-9.7],[140.43,-8.36],[140.5,-9.24],[142.65,-9.57],[141.66,-10.16],[140.69,-17.33],[139.86,-17.2],[139.85,-16.17],[138.63,-16.79],[136.27,-15.27],[136.01,-14.29],[136.83,-14.66],[137.28,-13.44],[136.65,-13.22],[137.26,-12.37],[136.89,-10.74],[134.24,-11.85],[133.16,-10.45],[130.2,-11.0],[129.81,-12.0],[130.38,-12.46],[129.34,-14.71],[128.27,-14.61],[127.78,-13.71],[125.63,-13.72],[124.04,-15.64],[123.01,-15.51],[122.01,-16.6],[122.16,-18.14],[120.68,-19.66],[118.69,-19.56],[118.8,-20.1],[116.62,-20.2],[115.94,-20.89],[115.29,-20.11],[115.32,-21.2],[113.74,-21.68],[112.64,-25.89],[113.97,-27.43],[115.41,-31.31],[115.62,-33.21],[114.58,-33.98],[116.25,-35.39],[119.91,-34.59],[119.99,-33.99],[123.7,-34.57],[124.41,-33.05],[125.88,-32.42],[131.26,-31.66],[132.35,-32.73],[130.02,-32.97],[128.93,-34.43],[130.27,-36.13],[140.56,-38.53],[142.76,-39.84],[143.45,-39.44],[144.62,-40.53],[144.18,-41.1],[145.15,-43.17],[147.4,-43.99],[148.48,-43.23],[148.91,-39.57],[153.99,-38.38],[157.14,-38.19],[157.67,-38.73],[162.5,-37.94],[167.92,-41.23],[171.09,-41.9],[170.62,-42.93],[167.22,-44.37],[166.08,-45.9],[167.71,-47.65],[171.26,-46.18],[170.9,-45.6],[171.65,-44.44],[173.07,-44.18],[172.95,-43.22],[174.4,-41.59],[175.81,-41.8],[176.99,-40.79],[178.98,-37.57],[178.49,-36.29],[176.23,-34.59],[170.86,-33.65],[167.19,-31.78],[160.27,-31.11],[159.54,-29.93],[161.59,-29.49],[162.38,-27.36],[168.81,-25.51],[168.99,-24.66],[171.06,-24.73],[172.3,-23.49],[176.53,-24.12],[179.9,-22.53],[180.0,-15.69]]],[[[-180.0,-22.45],[-177.13,-19.91],[-176.59,-18.32],[-179.42,-16.9],[-179.19,-15.91],[-179.72,-16.4],[-180.0,-15.69],[-180.0,-22.45]]],[[[128.63,37.9],[129.72,36.96],[127.83,39.7],[129.45,40.24],[129.39,40.89],[127.03,39.65],[128.63,37.9]]],[[[120.09,73.14],[123.87,72.77],[124.12,73.21],[122.92,73.49],[123.48,73.69],[127.04,73.49],[129.5,72.63],[128.44,71.34],[131.69,70.82],[129.57,71.71],[130.73,72.99],[127.38,73.93],[123.73,74.12],[121.49,73.32],[116.71,74.1],[115.29,73.45],[120.09,73.14]]],[[[123.79,25.44],[124.1,25.98],[123.24,26.02],[123.79,25.44]]],[[[-156.8,20.18],[-155.79,18.53],[-154.65,19.96],[-156.26,21.23],[-155.61,22.04],[-155.99,23.39],[-158.28,24.88],[-160.99,25.06],[-164.09,23.52],[-164.28,21.39],[-162.31,19.98],[-156.8,20.18]]],[[[143.17,-9.16],[144.16,-8.57],[143.87,-7.78],[143.17,-9.16]]],[[[168.53,54.61],[165.64,55.51],[166.2,54.57],[168.53,54.61]]],[[[147.73,-7.0],[148.38,-5.86],[150.37,-6.65],[153.18,-5.1],[154.04,-3.88],[152.65,-3.53],[152.65,-2.41],[151.33,-2.69],[149.24,-1.2],[149.62,-2.66],[152.01,-3.55],[151.56,-4.85],[150.64,-5.21],[150.32,-4.66],[149.54,-5.41],[146.31,-5.28],[146.25,-4.39],[144.39,-3.71],[146.6,-6.08],[147.86,-6.28],[146.98,-7.51],[149.55,-9.83],[147.75,-10.31],[152.14,-11.59],[154.63,-11.41],[151.42,-9.96],[151.15,-8.11],[149.82,-9.5],[148.85,-9.01],[147.26,-7.18],[147.73,-7.0]]],[[[40.01,-69.15],[42.85,-68.47],[42.07,-68.18],[38.57,-69.58],[31.92,-68.75],[32.66,-69.32],[32.19,-69.69],[33.8,-69.3],[39.03,-70.27],[40.01,-69.15]]],[[[1.41,-71.41],[2.82,-70.94],[0.53,-71.0],[1.41,-71.41]]],[[[-145.25,-76.74],[-143.51,-75.62],[-123.94,-74.83],[-126.96,-74.28],[-130.5,-74.68],[-131.52,-74.08],[-141.08,-75.56],[-146.07,-75.44],[-153.1,-77.14],[-157.47,-76.87],[-159.62,-77.75],[-147.46,-81.11],[-146.26,-80.96],[-147.94,-80.42],[-146.1,-79.66],[-154.03,-79.06],[-155.05,-78.73],[-154.01,-78.16],[-157.68,-77.53],[-148.2,-78.01],[-144.76,-77.4],[-144.13,-77.03],[-145.25,-76.74]]],[[[-14.59,66.59],[-18.15,66.83],[-19.81,66.09],[-23.36,66.67],[-24.92,65.64],[-24.08,65.16],[-24.6,64.58],[-22.46,64.43],[-23.0,63.86],[-21.33,63.82],[-20.32,62.98],[-12.85,65.05],[-14.59,66.59]],[[-16.19,64.27],[-18.09,64.73],[-16.7,65.0],[-16.19,64.27]]],[[[53.22,12.66],[52.94,11.93],[54.79,12.72],[53.22,12.66]]],[[[145.36,16.19],[146.28,16.25],[145.94,16.82],[145.36,16.19]]],[[[-150.71,-17.39],[-150.64,-18.05],[-149.03,-17.79],[-149.47,-16.88],[-150.71,-17.39]]],[[[-157.39,-19.81],[-159.08,-19.33],[-158.27,-20.12],[-157.19,-20.28],[-157.39,-19.81]]],[[[144.52,-67.93],[145.16,-67.59],[143.36,-66.76],[144.52,-67.93]]],[[[167.7,-16.84],[168.34,-16.97],[167.96,-17.88],[168.82,-17.89],[168.69,-15.62],[166.34,-14.55],[167.7,-16.84]]],[[[128.72,1.55],[129.11,2.64],[128.49,2.87],[127.4,1.51],[128.33,0.46],[128.72,1.55]]],[[[100.25,-66.13],[85.43,-66.58],[82.55,-67.66],[87.09,-66.96],[99.57,-66.97],[103.6,-66.06],[108.59,-67.17],[112.27,-66.04],[114.68,-66.57],[113.55,-67.2],[115.43,-67.7],[117.82,-67.08],[115.88,-67.05],[115.67,-66.38],[113.02,-65.63],[108.79,-66.73],[102.36,-65.0],[102.82,-65.75],[100.3,-65.21],[99.52,-65.8],[100.25,-66.13]]],[[[102.54,-5.8],[102.81,-5.22],[101.95,-5.17],[102.54,-5.8]]],[[[135.78,73.68],[136.36,74.1],[134.76,74.03],[135.78,73.68]]],[[[124.54,24.73],[122.71,24.16],[124.19,23.97],[125.84,24.65],[124.54,24.73]]],[[[37.66,-46.62],[37.15,-47.02],[38.15,-47.17],[37.66,-46.62]]],[[[137.57,-1.78],[136.25,-1.56],[137.02,-1.04],[135.79,-0.31],[135.27,-0.74],[135.86,-1.23],[135.29,-1.91],[136.76,-2.55],[137.57,-1.78]]],[[[-56.48,-63.96],[-54.25,-63.12],[-56.38,-62.67],[-61.72,-63.42],[-57.38,-62.11],[-60.32,-62.09],[-64.45,-64.35],[-64.39,-65.62],[-65.88,-65.0],[-67.14,-66.28],[-70.11,-67.32],[-69.91,-67.97],[-67.92,-67.99],[-68.4,-69.07],[-71.06,-68.59],[-76.16,-69.91],[-74.94,-70.41],[-76.88,-71.18],[-72.98,-73.12],[-76.09,-72.55],[-78.34,-73.31],[-81.27,-72.67],[-82.71,-73.68],[-87.93,-72.48],[-93.54,-72.68],[-95.64,-71.63],[-100.2,-71.51],[-103.08,-72.18],[-99.2,-72.97],[-102.56,-72.56],[-105.69,-73.19],[-103.64,-73.38],[-101.91,-74.52],[-102.98,-75.11],[-102.34,-75.49],[-99.89,-75.66],[-98.08,-74.93],[-101.0,-74.17],[-98.56,-73.34],[-89.82,-73.19],[-83.17,-74.09],[-80.62,-73.39],[-69.14,-73.43],[-67.33,-73.01],[-68.51,-72.34],[-66.02,-72.36],[-67.58,-71.47],[-67.09,-70.38],[-68.52,-69.94],[-65.95,-69.29],[-67.33,-68.86],[-67.23,-67.57],[-66.24,-67.35],[-66.28,-68.65],[-62.72,-69.47],[-62.88,-71.01],[-61.23,-71.41],[-62.75,-71.88],[-61.02,-72.29],[-61.16,-73.4],[-59.76,-73.58],[-60.23,-70.72],[-61.85,-70.32],[-60.57,-69.41],[-63.16,-68.82],[-61.85,-68.36],[-63.89,-68.4],[-64.29,-67.33],[-60.5,-66.79],[-60.43,-65.71],[-61.45,-65.11],[-58.98,-65.42],[-58.86,-64.77],[-56.54,-64.61],[-56.48,-63.96]],[[-69.57,-69.71],[-71.71,-69.66],[-71.18,-69.02],[-69.57,-69.71]],[[-64.32,-66.9],[-66.23,-66.92],[-63.22,-65.16],[-62.31,-65.35],[-64.32,-66.9]],[[-68.44,-71.9],[-74.82,-71.73],[-68.65,-70.81],[-68.44,-71.9]],[[-72.86,-69.84],[-71.68,-70.75],[-72.89,-70.93],[-74.02,-70.01],[-72.86,-69.84]]],[[[170.62,9.2],[171.4,8.03],[171.38,8.93],[170.62,9.2]]],[[[-141.3,-18.02],[-140.68,-18.68],[-140.66,-17.43],[-141.3,-18.02]]],[[[-23.61,-18.6],[-22.51,-20.11],[-18.9,-21.08],[-9.11,-19.29],[-4.47,-19.24],[-1.22,-17.54],[0.57,-14.74],[-1.65,-13.17],[-5.95,-13.24],[-10.59,-12.04],[-13.61,-12.36],[-22.12,-15.01],[-23.22,-15.78],[-23.61,-18.6]]],[[[-169.18,63.59],[-170.55,64.13],[-172.72,63.65],[-169.13,62.75],[-168.53,63.32],[-169.18,63.59]]],[[[137.21,36.81],[137.9,37.13],[137.02,38.32],[135.86,35.93],[134.35,35.63],[135.86,35.48],[137.21,36.81]]],[[[65.66,-67.56],[60.1,-67.46],[52.31,-65.75],[48.11,-66.7],[48.47,-67.53],[46.37,-67.05],[42.91,-67.88],[47.57,-67.71],[48.26,-68.35],[51.05,-67.38],[51.45,-66.36],[54.47,-66.15],[56.55,-67.57],[68.59,-68.19],[68.32,-69.32],[67.47,-69.6],[67.94,-69.78],[66.86,-70.3],[68.51,-70.62],[65.27,-73.19],[67.16,-73.52],[71.66,-71.68],[67.99,-71.96],[69.71,-70.74],[69.08,-69.91],[70.75,-69.32],[69.66,-68.31],[70.59,-67.77],[65.66,-67.56]]],[[[166.38,10.07],[165.68,10.52],[165.84,9.8],[166.38,10.07]]],[[[-140.27,-15.61],[-141.37,-15.73],[-139.91,-16.25],[-140.27,-15.61]]],[[[169.87,-73.18],[171.22,-72.68],[169.21,-72.53],[165.78,-73.66],[170.34,-73.62],[169.87,-73.18]]],[[[168.4,69.27],[171.55,68.1],[172.83,68.57],[171.36,68.96],[171.56,69.63],[174.81,69.92],[162.44,69.99],[168.4,69.27]]],[[[-18.37,27.97],[-17.86,27.22],[-17.63,28.11],[-14.19,27.65],[-13.17,29.14],[-13.9,29.53],[-14.92,28.02],[-16.14,28.9],[-17.14,28.38],[-17.9,29.25],[-18.37,27.97]]],[[[125.09,3.43],[125.66,2.95],[125.81,3.95],[125.09,3.43]]],[[[-125.22,-73.46],[-127.58,-73.1],[-128.1,-73.7],[-122.58,-75.0],[-103.84,-75.21],[-108.58,-75.03],[-110.06,-74.08],[-115.65,-73.67],[-120.02,-74.51],[-120.52,-74.33],[-119.44,-73.67],[-125.22,-73.46]]],[[[-75.53,-77.47],[-71.6,-77.81],[-74.8,-77.27],[-74.89,-76.6],[-78.46,-76.89],[-75.53,-77.47]]],[[[-73.48,22.49],[-72.85,21.99],[-72.42,22.6],[-73.71,23.39],[-74.62,21.93],[-73.48,22.49]]],[[[96.65,-11.8],[96.4,-12.34],[97.24,-12.39],[96.65,-11.8]]],[[[102.97,77.18],[110.53,76.74],[104.12,77.9],[108.17,78.25],[105.41,78.62],[105.53,79.29],[104.67,79.49],[98.08,80.11],[99.04,79.02],[95.34,78.8],[98.4,78.53],[99.51,77.69],[102.95,77.86],[100.01,77.26],[100.47,76.84],[98.87,76.29],[99.61,76.11],[102.97,77.18]],[[101.59,79.15],[104.16,78.57],[102.53,78.29],[101.59,79.15]]],[[[-89.39,-0.57],[-90.57,0.96],[-92.03,-0.02],[-91.75,-1.37],[-90.42,-1.78],[-89.33,-1.57],[-89.39,-0.57]]],[[[-59.55,-53.06],[-57.94,-52.35],[-57.68,-51.03],[-61.39,-50.99],[-62.04,-51.76],[-59.55,-53.06]]],[[[13.81,77.75],[13.03,77.62],[15.44,77.02],[15.08,76.47],[17.64,76.41],[18.27,76.74],[17.18,77.06],[19.38,77.85],[25.11,77.17],[24.12,77.74],[25.02,78.06],[21.74,79.09],[25.97,79.06],[24.95,78.73],[25.98,78.38],[31.41,79.28],[27.04,79.16],[29.46,80.02],[23.36,80.9],[9.64,79.98],[8.74,79.83],[10.72,79.34],[9.38,78.83],[10.85,78.55],[10.66,77.98],[13.81,77.75]],[[18.32,79.4],[19.76,78.86],[17.34,78.05],[15.45,79.02],[18.32,79.4]]],[[[-61.31,17.06],[-61.44,17.87],[-62.1,17.06],[-62.9,18.41],[-63.65,18.2],[-61.1,14.42],[-61.73,11.93],[-60.59,13.66],[-61.01,16.39],[-61.84,16.61],[-61.31,17.06]]],[[[13.58,-70.49],[27.58,-71.14],[23.82,-70.34],[17.46,-70.54],[16.04,-69.57],[15.25,-69.88],[15.66,-70.29],[11.65,-70.44],[13.58,-70.49]]],[[[-163.21,-78.71],[-165.71,-79.11],[-165.28,-79.68],[-161.17,-80.2],[-158.47,-79.54],[-163.21,-78.71]]],[[[124.46,-66.35],[123.61,-67.03],[126.05,-66.51],[126.51,-67.14],[128.4,-67.05],[125.95,-66.07],[124.46,-66.35]]],[[[-142.57,-18.35],[-141.69,-18.62],[-142.9,-16.86],[-142.11,-15.68],[-144.65,-16.3],[-144.35,-15.49],[-148.91,-15.04],[-148.47,-15.93],[-148.03,-15.34],[-145.91,-16.18],[-145.88,-17.66],[-143.66,-16.8],[-142.8,-17.49],[-143.58,-17.86],[-142.57,-18.35]]],[[[-158.9,4.02],[-159.8,3.92],[-159.1,3.4],[-158.9,4.02]]],[[[126.35,4.63],[127.05,3.49],[127.47,4.84],[126.35,4.63]]],[[[-23.01,16.7],[-22.71,15.67],[-22.32,16.4],[-23.01,16.7]]],[[[140.4,39.61],[139.71,40.23],[138.14,37.24],[139.31,37.54],[140.4,39.61]]],[[[-25.47,16.86],[-23.87,16.4],[-25.08,17.36],[-25.47,16.86]]],[[[142.86,-3.58],[144.01,-3.39],[142.52,-3.01],[142.86,-3.58]]],[[[161.32,69.43],[160.85,70.53],[162.87,70.48],[162.57,70.91],[155.0,71.07],[159.0,70.82],[160.1,69.55],[161.32,69.43]]],[[[93.17,9.46],[92.45,8.86],[93.86,6.32],[94.02,8.63],[93.1,8.43],[93.17,9.46]]],[[[-169.92,16.53],[-169.06,16.7],[-169.76,17.16],[-169.92,16.53]]],[[[-143.69,-20.4],[-143.06,-21.08],[-143.41,-19.99],[-143.69,-20.4]]],[[[-79.65,72.31],[-71.24,71.82],[-80.55,73.12],[-81.53,72.8],[-79.65,72.31]]],[[[71.9,-5.58],[72.58,-5.32],[71.32,-5.16],[71.9,-5.58]]],[[[-174.96,-18.74],[-173.95,-19.21],[-173.64,-18.63],[-174.52,-17.77],[-174.96,-18.74]]],[[[-27.28,-56.87],[-26.03,-57.14],[-27.44,-56.18],[-27.28,-56.87]]],[[[148.25,72.07],[149.57,71.53],[151.22,72.26],[148.25,72.07]]],[[[-9.69,70.62],[-7.05,71.03],[-8.22,71.53],[-9.69,70.62]]],[[[108.38,34.69],[107.13,34.35],[109.01,34.06],[111.92,35.93],[111.28,36.35],[111.43,35.82],[108.38,34.69]]],[[[166.46,11.41],[166.7,10.87],[168.05,11.45],[166.46,11.41]]],[[[120.63,21.79],[121.69,21.84],[121.12,22.22],[121.8,22.52],[121.53,23.44],[122.4,24.85],[121.93,25.85],[119.05,23.62],[120.63,21.79]]],[[[171.56,6.98],[172.33,7.26],[170.91,7.43],[171.02,6.73],[171.56,6.98]]],[[[108.39,3.23],[108.73,4.32],[107.93,4.9],[107.52,3.05],[108.39,3.23]]],[[[140.04,9.78],[140.77,10.04],[139.69,10.36],[139.55,9.61],[140.04,9.78]]],[[[-139.19,-19.6],[-138.32,-19.43],[-139.43,-18.34],[-139.19,-19.6]]],[[[172.72,1.63],[173.19,0.6],[173.74,2.08],[172.72,1.63]]],[[[32.34,-70.16],[29.31,-70.07],[28.18,-70.78],[32.34,-70.16]]],[[[-6.85,-71.21],[-4.11,-71.46],[-5.61,-70.57],[-6.85,-71.21]]],[[[54.95,-4.24],[55.53,-5.01],[56.08,-4.42],[55.71,-3.58],[54.95,-4.24]]],[[[109.6,74.73],[109.34,74.07],[106.17,73.09],[113.95,73.68],[113.4,75.22],[109.6,74.73]]],[[[105.58,-10.92],[105.87,-10.15],[105.24,-10.24],[105.58,-10.92]]],[[[73.51,0.74],[72.73,0.35],[73.29,-0.04],[72.96,-0.97],[73.58,-0.94],[73.51,0.74]]],[[[-78.41,-79.15],[-83.07,-78.22],[-84.66,-78.8],[-78.41,-79.15]]],[[[-111.44,18.74],[-110.48,18.62],[-110.64,19.63],[-111.44,18.74]]],[[[128.28,27.03],[127.92,27.5],[126.39,26.51],[128.0,25.5],[129.14,27.95],[130.16,28.52],[129.26,28.59],[128.28,27.03]]],[[[132.88,35.55],[131.69,34.67],[134.14,35.3],[132.88,35.55]]],[[[-163.38,-81.2],[-161.36,-81.92],[-154.07,-80.89],[-163.38,-81.2]]],[[[121.38,-67.29],[122.3,-66.62],[119.77,-66.65],[118.44,-67.52],[121.38,-67.29]]],[[[-138.3,-22.36],[-139.07,-21.49],[-139.07,-22.34],[-138.3,-22.36]]],[[[-60.79,-74.72],[-60.52,-74.05],[-62.37,-74.09],[-60.79,-74.72]]],[[[94.49,36.57],[97.65,36.15],[97.44,37.37],[95.86,37.05],[93.36,38.85],[90.33,38.19],[93.22,36.55],[94.49,36.57]]],[[[174.77,-0.85],[173.99,-0.51],[175.09,-1.68],[174.77,-0.85]]],[[[139.23,-66.69],[141.91,-66.53],[135.97,-65.97],[131.5,-66.18],[139.23,-66.69]]],[[[106.16,2.41],[106.69,3.37],[105.4,3.49],[106.16,2.41]]],[[[-80.58,60.16],[-81.27,59.58],[-80.61,58.98],[-80.91,58.23],[-79.43,59.64],[-80.58,60.16]]],[[[68.48,-48.55],[68.74,-50.13],[70.73,-49.9],[71.07,-48.98],[68.48,-48.55]]],[[[147.7,-2.47],[147.79,-1.97],[146.28,-1.85],[146.57,-2.66],[147.7,-2.47]]],[[[-175.43,-20.59],[-175.69,-21.4],[-174.73,-21.65],[-175.19,-20.65],[-174.28,-20.67],[-174.08,-19.62],[-175.03,-19.37],[-175.43,-20.59]]],[[[-152.07,-16.59],[-151.49,-17.3],[-150.51,-16.77],[-152.07,-16.59]]],[[[72.57,11.25],[72.19,10.54],[73.15,11.37],[72.77,12.08],[72.57,11.25]]],[[[138.68,-4.42],[139.64,-4.07],[136.78,-3.71],[138.68,-4.42]]],[[[169.48,-71.54],[171.37,-71.7],[167.07,-70.69],[169.48,-71.54]]],[[[-7.3,62.23],[-7.76,61.97],[-6.74,61.16],[-5.67,62.26],[-6.37,62.74],[-7.3,62.23]]],[[[74.04,-52.8],[72.91,-53.06],[73.81,-53.52],[74.04,-52.8]]],[[[-161.38,-84.99],[-154.29,-85.12],[-164.51,-84.24],[-170.55,-84.86],[-161.38,-84.99]]],[[[180.0,71.66],[177.81,70.81],[180.0,70.79],[180.0,71.66]]],[[[-180.0,70.79],[-177.63,70.73],[-177.03,71.37],[-179.27,71.87],[-180.0,71.66],[-180.0,70.79]]],[[[-166.89,-83.49],[-156.02,-83.58],[-150.99,-82.48],[-154.1,-81.81],[-155.61,-82.17],[-154.13,-82.51],[-157.64,-83.23],[-162.37,-82.85],[-166.89,-83.49]]],[[[172.49,6.23],[171.36,6.08],[172.45,5.71],[172.49,6.23]]],[[[144.36,13.36],[145.24,13.19],[145.43,14.17],[144.36,13.36]]],[[[-44.33,-60.43],[-46.73,-60.85],[-44.58,-61.15],[-44.33,-60.43]]],[[[-72.17,21.92],[-73.87,20.88],[-72.98,20.73],[-72.2,21.71],[-71.07,21.08],[-71.77,22.32],[-72.17,21.92]]],[[[92.18,80.69],[90.47,80.09],[93.36,79.13],[94.83,79.46],[92.92,80.03],[94.78,80.62],[92.62,81.19],[91.14,81.09],[92.18,80.69]]],[[[151.83,-8.93],[152.28,-9.83],[153.18,-9.46],[152.91,-8.71],[151.83,-8.93]]],[[[45.24,-12.5],[43.13,-11.38],[43.38,-12.65],[44.35,-12.46],[45.01,-13.21],[45.24,-12.5]]],[[[115.81,-4.21],[115.31,-5.07],[115.87,-5.27],[116.66,-3.68],[115.91,-3.52],[115.81,-4.21]]],[[[172.4,52.49],[174.24,52.4],[172.62,53.32],[172.4,52.49]]],[[[-151.32,-81.55],[-150.09,-81.17],[-152.75,-81.22],[-151.32,-81.55]]],[[[143.03,73.24],[144.57,73.51],[142.92,74.01],[142.14,73.87],[143.03,73.24]]],[[[-145.28,-14.16],[-145.33,-14.98],[-144.33,-15.07],[-144.65,-14.01],[-145.28,-14.16]]],[[[168.01,-14.6],[167.54,-13.26],[166.5,-12.9],[166.31,-13.44],[168.01,-14.6]]],[[[107.36,1.57],[106.71,1.49],[107.3,1.07],[106.6,0.51],[107.39,-0.05],[107.36,1.57]]],[[[-79.81,20.09],[-80.43,19.53],[-79.67,19.51],[-79.81,20.09]]],[[[153.91,-68.37],[153.41,-68.73],[156.08,-69.05],[153.91,-68.37]]],[[[153.26,49.11],[154.07,48.66],[155.36,49.61],[153.26,49.11]]],[[[92.42,-65.84],[92.86,-65.44],[91.8,-65.48],[92.42,-65.84]]],[[[129.55,-8.32],[130.29,-7.85],[129.43,-7.69],[129.55,-8.32]]],[[[-22.96,80.98],[-19.3,81.51],[-22.9,81.97],[-22.01,81.61],[-24.11,81.12],[-22.96,80.98]]],[[[-37.49,-53.74],[-38.61,-54.27],[-36.14,-55.12],[-35.39,-54.67],[-37.49,-53.74]]],[[[55.85,-21.05],[55.06,-20.62],[55.41,-21.85],[55.85,-21.05]]],[[[147.19,-9.87],[147.32,-9.16],[146.19,-8.26],[147.19,-9.87]]],[[[-23.95,14.66],[-23.09,14.72],[-23.15,15.64],[-25.09,15.14],[-23.95,14.66]]],[[[114.07,-5.7],[114.84,-5.73],[114.96,-4.82],[114.07,-5.7]]],[[[158.93,-5.59],[160.09,-5.52],[159.43,-4.95],[158.93,-5.59]]],[[[76.93,-69.05],[73.06,-69.53],[70.75,-71.09],[73.7,-70.59],[73.44,-69.94],[76.52,-70.03],[80.18,-68.08],[81.92,-68.02],[79.7,-67.69],[76.93,-69.05]]],[[[-139.39,-8.6],[-140.31,-8.51],[-140.43,-9.65],[-139.39,-8.6]]],[[[-78.3,77.44],[-79.39,77.37],[-79.07,76.75],[-76.99,76.88],[-78.3,77.44]]],[[[153.39,6.04],[153.07,5.48],[153.89,5.31],[153.39,6.04]]],[[[113.83,76.77],[111.63,76.76],[113.34,76.1],[113.83,76.77]]],[[[160.47,-12.27],[160.91,-11.64],[159.46,-11.22],[160.47,-12.27]]],[[[180.0,52.34],[177.25,52.31],[177.13,51.69],[179.52,51.33],[180.0,52.34]]],[[[166.22,-10.22],[165.41,-9.97],[165.84,-11.25],[166.22,-10.22]]],[[[138.29,-1.52],[139.66,-2.66],[142.08,-2.94],[138.29,-1.52]]],[[[145.58,7.73],[146.6,7.15],[146.3,7.98],[145.58,7.73]]],[[[170.56,9.56],[169.8,9.82],[169.98,8.74],[170.56,9.56]]],[[[155.25,8.04],[155.29,7.15],[155.83,7.78],[155.25,8.04]]],[[[-79.19,74.79],[-86.82,74.48],[-81.36,74.16],[-79.19,74.79]]],[[[-91.35,55.08],[-91.31,55.59],[-92.48,55.49],[-91.35,55.08]]],[[[-2.97,-70.37],[-2.93,-71.25],[-1.78,-71.02],[-2.97,-70.37]]],[[[-11.6,-72.16],[-10.44,-72.43],[-10.13,-71.55],[-13.02,-71.65],[-11.6,-72.16]]],[[[47.9,69.1],[49.3,68.53],[50.78,69.29],[48.98,69.67],[47.9,69.1]]],[[[158.54,6.92],[157.81,7.33],[158.06,6.54],[158.54,6.92]]],[[[146.82,72.35],[147.61,72.72],[146.87,72.86],[144.6,72.74],[146.82,72.35]]],[[[58.4,81.84],[45.01,80.53],[48.46,79.76],[62.01,80.07],[66.11,81.23],[58.4,81.84]]],[[[141.42,25.43],[140.92,25.29],[141.59,24.02],[141.42,25.43]]],[[[30.68,80.11],[35.55,80.19],[33.55,80.73],[30.68,80.11]]],[[[166.57,-50.1],[165.28,-50.86],[166.29,-51.17],[166.57,-50.1]]],[[[-176.2,-43.62],[-177.27,-43.72],[-176.17,-44.68],[-176.2,-43.62]]],[[[-76.68,-79.44],[-77.66,-80.3],[-74.84,-79.72],[-76.68,-79.44]]],[[[167.45,8.93],[168.15,9.03],[167.54,9.68],[166.61,9.54],[167.45,8.93]]],[[[-131.68,62.46],[-132.5,62.05],[-131.07,61.67],[-131.68,62.46]]],[[[-62.18,47.01],[-61.11,47.47],[-61.32,48.09],[-62.23,47.84],[-62.18,47.01]]],[[[160.09,-69.98],[161.15,-69.93],[159.83,-69.28],[159.43,-69.65],[160.09,-69.98]]],[[[143.39,56.84],[143.03,56.49],[143.8,56.5],[143.39,56.84]]],[[[-79.52,-78.42],[-76.67,-78.77],[-75.47,-78.14],[-80.49,-77.69],[-81.03,-78.11],[-79.52,-78.42]]],[[[50.13,-46.51],[50.64,-46.66],[50.4,-45.92],[50.13,-46.51]]],[[[143.67,74.66],[144.49,75.06],[143.61,75.18],[137.61,74.93],[143.67,74.66]]],[[[-136.18,-21.37],[-136.93,-21.35],[-136.41,-22.2],[-136.18,-21.37]]],[[[128.87,-66.58],[130.03,-67.16],[130.91,-66.22],[128.87,-66.58]]],[[[130.96,25.58],[131.74,26.06],[130.84,26.15],[130.96,25.58]]],[[[147.07,-68.4],[147.67,-68.06],[146.19,-67.64],[147.07,-68.4]]],[[[-170.38,-83.41],[-171.85,-82.64],[-174.33,-82.91],[-170.38,-83.41]]],[[[58.16,-20.15],[57.84,-19.57],[56.91,-20.52],[58.16,-20.15]]],[[[144.65,-1.06],[143.65,-1.66],[145.23,-1.54],[144.65,-1.06]]],[[[151.83,6.87],[153.12,6.86],[151.83,8.02],[151.28,7.37],[151.83,6.87]]],[[[98.46,81.27],[95.37,81.12],[98.81,80.6],[98.46,81.27]]],[[[-54.6,-61.02],[-56.11,-61.16],[-54.09,-61.61],[-53.41,-61.32],[-54.6,-61.02]]],[[[136.54,75.28],[137.2,75.69],[135.42,75.63],[136.54,75.28]]],[[[47.54,-9.42],[47.16,-9.93],[47.94,-10.2],[47.54,-9.42]]],[[[51.37,-9.26],[50.56,-9.22],[50.8,-9.81],[51.37,-9.26]]],[[[-55.69,73.26],[-56.94,73.5],[-57.06,72.66],[-55.87,72.42],[-55.69,73.26]]],[[[80.98,75.54],[81.88,75.18],[83.47,75.92],[80.98,75.54]]],[[[154.14,70.73],[151.72,71.6],[150.9,71.24],[154.14,70.73]]],[[[-59.35,13.51],[-59.85,12.83],[-59.07,13.01],[-59.35,13.51]]],[[[-77.43,73.17],[-76.36,73.47],[-77.84,73.57],[-77.43,73.17]]],[[[78.71,81.25],[77.63,80.85],[80.26,80.89],[78.71,81.25]]],[[[150.58,75.13],[149.61,74.76],[151.3,74.72],[150.58,75.13]]]]}}]}