{"type":"FeatureCollection","features":[{"type":"Feature","properties":{},"geometry":{"type":"MultiPolygon","coordinates":[[[[7.83,54.95],[7.92,54.41],[7.02,53.84],[4.98,53.55],[4.15,53.01],[4.25,52.42],[2.28,51.11],[2.85,51.0],[4.86,52.38],[4.75,52.93],[7.65,53.8],[8.91,53.7],[8.56,54.36],[9.12,54.85],[8.21,56.47],[7.46,56.31],[7.93,55.87],[7.37,55.39],[8.29,55.23],[7.83,54.95]]],[[[4.85,58.86],[5.32,58.34],[5.77,58.56],[4.93,59.79],[4.46,59.58],[4.85,58.86]]],[[[180.0,64.98],[177.4,64.36],[179.26,63.31],[178.92,62.69],[176.79,62.69],[174.42,62.02],[172.17,61.31],[172.01,60.68],[170.59,60.19],[168.92,60.91],[166.87,60.12],[163.31,60.17],[163.49,59.76],[162.73,59.25],[162.92,58.85],[161.74,58.28],[161.93,57.89],[163.01,57.62],[162.31,57.11],[162.49,56.72],[163.51,56.45],[163.38,56.23],[161.7,56.0],[162.1,54.64],[159.81,54.48],[159.99,54.1],[159.38,53.59],[159.55,53.21],[158.5,53.22],[158.68,52.84],[158.1,52.31],[158.28,51.93],[156.97,51.25],[155.92,52.92],[156.49,53.45],[155.51,54.7],[156.05,55.23],[155.55,55.97],[156.45,56.36],[156.28,56.96],[156.79,57.27],[162.34,60.05],[162.28,60.68],[163.61,60.62],[163.58,61.26],[164.25,61.55],[163.9,61.72],[164.75,62.24],[164.21,62.83],[162.98,62.48],[163.03,61.84],[160.59,60.89],[159.73,61.86],[157.43,61.96],[153.99,60.01],[154.23,59.39],[152.44,59.02],[151.71,59.54],[150.42,59.48],[149.65,59.99],[148.27,59.18],[146.61,59.69],[145.75,59.22],[142.8,59.31],[141.19,58.79],[140.18,57.46],[139.02,57.29],[138.45,56.32],[137.35,56.14],[137.13,55.54],[135.8,54.98],[136.25,54.67],[136.85,55.18],[137.97,55.14],[136.97,54.73],[138.12,54.46],[137.9,53.88],[139.59,54.31],[140.41,53.67],[141.86,53.27],[142.51,53.74],[142.11,54.29],[143.2,53.98],[142.89,53.41],[143.62,52.76],[142.98,52.08],[143.68,51.66],[143.38,51.11],[144.04,50.69],[143.66,50.12],[144.42,49.29],[144.07,48.95],[143.25,49.32],[142.91,48.97],[143.13,48.39],[142.47,47.7],[143.3,47.57],[142.95,46.99],[143.74,46.61],[142.34,46.53],[142.57,46.17],[142.26,45.83],[141.52,46.66],[141.86,47.24],[141.62,47.59],[142.26,48.28],[141.74,48.75],[142.07,49.1],[141.85,49.67],[142.18,50.02],[141.83,50.33],[142.12,50.65],[141.76,50.97],[142.06,51.3],[141.35,51.71],[140.47,50.92],[140.95,49.76],[140.38,49.32],[140.61,48.75],[137.44,44.92],[137.93,44.23],[138.69,44.12],[138.91,43.53],[139.67,43.41],[140.13,42.7],[140.41,43.04],[140.18,43.4],[141.48,43.49],[141.28,44.08],[141.87,44.78],[140.85,45.27],[141.15,45.61],[142.49,45.47],[142.92,44.51],[144.0,44.46],[144.47,43.96],[145.09,44.41],[145.89,44.24],[145.52,43.66],[146.31,43.49],[145.44,43.18],[145.66,42.8],[147.27,42.68],[147.91,43.12],[149.81,42.81],[150.47,43.24],[151.28,43.03],[151.96,43.45],[153.34,43.15],[154.05,43.56],[156.57,43.06],[157.31,43.45],[158.7,43.08],[159.45,43.46],[161.41,42.96],[163.78,43.37],[164.58,43.06],[166.98,43.41],[167.57,43.93],[171.63,44.16],[172.26,44.65],[173.18,44.51],[173.81,44.99],[174.73,44.83],[176.96,45.6],[177.87,45.42],[179.93,46.33],[180.0,64.98]]],[[[180.0,35.64],[176.6,35.23],[175.92,35.63],[174.67,35.53],[174.1,35.03],[173.29,35.18],[168.95,32.19],[166.86,31.88],[163.66,32.94],[163.44,33.81],[163.93,34.35],[163.6,34.98],[164.1,35.52],[163.99,35.96],[165.12,36.6],[165.11,37.28],[165.53,37.58],[165.2,38.88],[164.44,39.21],[164.32,39.64],[162.68,40.04],[161.94,39.67],[159.51,40.32],[158.78,39.94],[157.45,40.32],[156.75,39.93],[155.42,40.29],[154.73,39.89],[148.03,40.89],[143.32,38.97],[141.83,39.06],[141.55,38.72],[141.74,38.11],[141.01,38.04],[140.83,35.67],[140.08,34.9],[139.2,35.43],[138.93,34.63],[138.5,35.12],[138.04,34.68],[137.38,34.84],[136.5,34.42],[135.85,33.43],[135.21,33.57],[134.58,34.61],[134.37,34.28],[134.8,33.59],[133.97,33.62],[132.88,32.69],[131.96,32.77],[130.96,31.32],[130.3,31.47],[129.48,33.04],[128.9,32.47],[127.56,32.55],[126.99,31.97],[126.3,31.9],[123.22,28.39],[122.56,28.3],[121.19,26.53],[120.54,26.44],[120.02,25.81],[120.14,25.26],[119.51,25.21],[117.55,23.37],[116.92,23.39],[116.53,22.19],[116.87,21.65],[118.89,21.23],[121.59,21.16],[121.48,20.48],[121.98,19.63],[122.43,21.11],[122.78,20.62],[125.14,20.55],[125.5,20.05],[129.84,19.37],[130.2,18.85],[132.67,18.66],[133.03,18.12],[135.52,17.9],[135.88,17.35],[139.27,16.93],[139.63,16.37],[143.16,15.49],[143.51,14.92],[146.4,14.48],[146.74,13.91],[148.9,13.45],[149.43,13.84],[156.66,12.04],[157.15,12.41],[157.94,12.21],[158.24,11.65],[158.06,10.72],[159.26,9.57],[161.11,8.87],[161.63,7.53],[164.87,6.72],[165.69,7.22],[166.3,7.13],[167.51,8.02],[168.08,9.39],[168.71,9.85],[169.33,9.75],[169.35,10.32],[170.12,10.05],[173.9,10.56],[174.79,10.12],[175.36,10.37],[175.87,10.07],[176.43,10.32],[176.94,10.01],[179.27,10.28],[180.0,10.02],[180.0,35.64]],[[120.12,23.83],[121.17,25.12],[122.01,25.08],[121.76,23.54],[121.0,22.79],[121.12,22.22],[120.29,22.26],[120.12,23.83]]],[[[-180.0,10.02],[-178.29,10.37],[-177.35,10.11],[-176.91,10.48],[-175.73,10.2],[-175.28,10.58],[-173.73,10.47],[-173.26,10.85],[-172.7,10.6],[-171.87,11.17],[-170.24,11.04],[-168.4,10.04],[-161.53,9.36],[-160.98,9.74],[-160.37,9.46],[-159.01,10.19],[-157.98,10.07],[-157.78,10.71],[-157.16,10.42],[-152.84,12.35],[-152.21,12.05],[-146.94,14.23],[-146.33,13.91],[-143.6,15.05],[-142.99,14.72],[-140.28,15.8],[-139.68,15.46],[-137.42,16.35],[-136.84,16.01],[-135.44,16.6],[-134.87,16.25],[-133.89,16.69],[-133.33,16.35],[-131.96,16.9],[-131.42,16.55],[-130.46,16.96],[-129.93,16.62],[-128.29,16.8],[-127.76,16.43],[-127.19,16.68],[-123.09,15.19],[-122.49,15.44],[-114.29,12.6],[-113.96,12.02],[-112.28,11.4],[-111.96,10.83],[-109.6,9.92],[-108.0,7.95],[-108.65,6.45],[-108.36,5.9],[-108.71,5.39],[-108.42,4.85],[-108.77,4.34],[-108.48,3.81],[-108.89,2.29],[-108.48,-0.5],[-106.29,-4.12],[-105.72,-4.2],[-104.93,-5.6],[-104.92,-6.56],[-104.33,-6.65],[-103.92,-7.61],[-103.32,-7.71],[-102.49,-9.39],[-101.87,-9.5],[-101.65,-10.11],[-96.71,-12.36],[-95.57,-13.71],[-94.9,-13.82],[-93.45,-16.3],[-92.07,-16.76],[-90.86,-18.11],[-89.2,-18.92],[-88.41,-20.26],[-87.71,-20.36],[-84.53,-24.85],[-83.81,-24.93],[-82.19,-26.96],[-82.38,-27.56],[-81.58,-28.32],[-81.99,-29.05],[-81.63,-30.28],[-83.03,-30.83],[-82.74,-31.38],[-83.16,-32.07],[-84.09,-32.57],[-84.77,-34.01],[-84.42,-34.57],[-84.97,-35.45],[-83.7,-36.77],[-84.01,-38.86],[-82.65,-40.17],[-81.85,-40.19],[-81.15,-40.83],[-81.24,-41.46],[-80.88,-41.78],[-81.63,-42.0],[-81.74,-42.64],[-82.51,-42.86],[-83.24,-44.44],[-82.41,-46.46],[-82.86,-47.02],[-82.39,-47.58],[-82.85,-48.14],[-82.38,-48.71],[-83.69,-50.88],[-83.19,-51.45],[-85.12,-54.43],[-84.6,-54.99],[-84.85,-55.39],[-85.89,-55.63],[-86.37,-56.67],[-87.75,-57.3],[-88.92,-57.28],[-89.6,-57.82],[-90.8,-57.78],[-92.28,-58.61],[-93.49,-58.79],[-95.85,-61.29],[-97.17,-61.44],[-100.01,-63.82],[-101.46,-63.93],[-103.12,-65.18],[-104.65,-65.26],[-107.79,-67.08],[-109.42,-67.11],[-113.84,-69.06],[-118.3,-69.44],[-122.4,-70.64],[-124.12,-70.51],[-126.56,-71.15],[-128.27,-70.98],[-133.19,-71.92],[-138.15,-71.76],[-141.09,-72.19],[-145.86,-71.84],[-146.7,-71.38],[-150.39,-71.19],[-151.06,-70.71],[-152.79,-70.69],[-153.38,-70.21],[-159.72,-69.38],[-161.25,-68.05],[-162.66,-67.95],[-165.67,-65.39],[-165.39,-64.86],[-166.43,-64.78],[-167.63,-63.9],[-167.57,-63.45],[-168.58,-63.16],[-168.51,-62.71],[-172.13,-61.22],[-172.06,-60.69],[-175.25,-59.41],[-175.15,-58.86],[-175.97,-58.61],[-175.85,-58.06],[-176.66,-57.79],[-176.54,-57.23],[-177.34,-56.95],[-177.21,-56.39],[-178.42,-55.85],[-178.28,-55.28],[-179.05,-54.97],[-178.9,-54.39],[-179.66,-54.08],[-179.09,-52.74],[-178.23,-52.47],[-178.1,-51.87],[-177.08,-51.22],[-174.14,-50.9],[-173.87,-49.99],[-173.02,-49.8],[-172.09,-47.41],[-171.27,-47.2],[-170.95,-46.46],[-169.81,-46.3],[-169.36,-45.16],[-169.77,-44.86],[-169.71,-44.24],[-170.44,-43.86],[-170.37,-43.24],[-171.48,-42.55],[-171.41,-41.93],[-174.33,-39.64],[-174.18,-39.25],[-174.6,-38.69],[-174.07,-37.74],[-174.49,-37.18],[-173.97,-36.21],[-174.67,-35.57],[-174.51,-35.17],[-174.92,-34.61],[-174.56,-34.04],[-174.96,-33.48],[-174.26,-33.23],[-173.89,-31.76],[-173.21,-31.49],[-173.14,-30.84],[-172.46,-30.57],[-172.39,-29.91],[-171.71,-29.63],[-171.65,-28.97],[-170.25,-27.73],[-167.44,-27.01],[-166.81,-27.37],[-165.21,-26.79],[-164.56,-27.15],[-163.43,-26.68],[-162.78,-27.03],[-160.71,-26.25],[-160.05,-26.59],[-158.93,-26.08],[-158.27,-26.41],[-157.62,-26.05],[-156.09,-26.48],[-155.17,-26.15],[-154.67,-26.66],[-150.95,-27.06],[-150.33,-26.68],[-147.5,-26.9],[-146.47,-26.31],[-145.79,-26.58],[-144.77,-25.97],[-144.09,-26.23],[-142.69,-25.42],[-142.02,-25.67],[-141.06,-25.05],[-140.4,-25.29],[-139.07,-24.46],[-138.42,-24.69],[-136.76,-23.66],[-136.12,-23.88],[-135.26,-23.25],[-134.25,-23.67],[-133.8,-22.84],[-133.18,-23.04],[-131.69,-22.01],[-131.09,-22.21],[-127.87,-20.17],[-126.7,-18.03],[-126.78,-17.28],[-127.24,-16.9],[-127.32,-15.21],[-129.22,-12.56],[-132.52,-10.52],[-133.04,-10.66],[-133.82,-10.05],[-135.35,-9.92],[-135.8,-9.51],[-137.02,-9.59],[-138.4,-8.89],[-139.01,-9.02],[-139.39,-8.6],[-142.08,-8.52],[-142.48,-8.09],[-143.41,-7.98],[-143.95,-8.31],[-145.93,-7.89],[-147.58,-8.28],[-149.58,-7.84],[-152.33,-8.27],[-154.03,-8.05],[-155.35,-8.66],[-155.93,-8.38],[-157.27,-8.99],[-157.85,-8.71],[-160.01,-9.6],[-160.58,-9.3],[-165.2,-11.0],[-165.75,-10.7],[-166.43,-11.41],[-166.97,-11.1],[-168.67,-11.41],[-171.96,-10.55],[-173.6,-10.83],[-175.15,-10.5],[-176.09,-10.9],[-176.57,-10.59],[-177.89,-11.09],[-178.35,-10.79],[-178.9,-11.06],[-179.73,-10.86],[-180.0,-10.99],[-180.0,-84.22],[-171.53,-84.47],[-168.66,-85.02],[-156.65,-85.01],[-156.52,-84.77],[-163.06,-84.62],[-162.66,-84.38],[-165.78,-83.86],[-165.33,-83.63],[-156.02,-83.58],[-150.99,-82.48],[-155.42,-81.24],[-146.26,-80.96],[-150.29,-80.71],[-150.37,-80.48],[-148.22,-79.96],[-148.35,-79.74],[-150.83,-79.11],[-154.03,-79.06],[-155.05,-78.73],[-154.01,-78.16],[-157.91,-78.19],[-158.83,-78.08],[-158.74,-77.86],[-155.77,-77.07],[-152.17,-77.46],[-150.13,-78.07],[-147.67,-77.2],[-145.59,-77.56],[-144.76,-77.4],[-145.89,-77.12],[-146.04,-76.9],[-145.25,-76.74],[-145.4,-76.53],[-148.1,-76.32],[-144.79,-76.15],[-143.51,-75.62],[-141.56,-75.94],[-140.42,-75.39],[-136.54,-75.16],[-135.64,-74.59],[-133.32,-75.04],[-129.77,-75.09],[-127.02,-74.68],[-124.38,-75.05],[-116.34,-74.74],[-114.01,-74.18],[-113.44,-74.35],[-113.72,-74.58],[-114.89,-74.87],[-114.3,-75.04],[-104.88,-75.55],[-102.98,-75.11],[-101.57,-75.63],[-99.89,-75.66],[-98.08,-74.93],[-98.85,-74.81],[-98.8,-74.56],[-101.09,-74.41],[-101.0,-74.17],[-98.56,-73.34],[-92.73,-73.28],[-91.14,-73.73],[-89.82,-73.19],[-88.15,-73.62],[-85.19,-73.46],[-83.17,-74.09],[-81.65,-73.99],[-80.62,-73.39],[-78.41,-73.98],[-74.85,-74.16],[-70.52,-73.63],[-66.03,-72.8],[-66.44,-72.58],[-66.01,-71.92],[-67.58,-71.47],[-67.16,-71.26],[-67.53,-71.04],[-67.13,-70.82],[-67.49,-70.6],[-67.09,-70.38],[-67.41,-69.73],[-65.95,-69.29],[-67.0,-69.08],[-67.33,-68.86],[-66.97,-68.65],[-62.72,-69.47],[-63.0,-70.13],[-62.6,-70.34],[-62.94,-70.57],[-62.53,-70.78],[-62.88,-71.01],[-61.23,-71.41],[-62.75,-71.88],[-62.23,-72.54],[-62.61,-72.76],[-62.14,-72.98],[-62.53,-73.2],[-62.05,-73.42],[-62.45,-73.65],[-61.95,-73.86],[-62.37,-74.09],[-61.85,-74.3],[-62.28,-74.53],[-64.64,-74.78],[-65.12,-75.0],[-64.61,-75.22],[-66.63,-75.66],[-66.13,-75.89],[-66.66,-76.1],[-71.66,-76.7],[-75.63,-76.13],[-75.98,-75.89],[-75.33,-75.69],[-76.65,-75.41],[-77.67,-76.03],[-79.38,-76.17],[-77.72,-76.7],[-78.46,-76.89],[-78.13,-77.13],[-76.66,-77.42],[-81.33,-77.87],[-78.31,-78.47],[-77.92,-78.72],[-78.8,-78.9],[-83.32,-77.97],[-85.35,-78.06],[-83.72,-78.63],[-84.66,-78.8],[-84.42,-79.05],[-82.88,-79.37],[-77.59,-79.63],[-77.15,-79.87],[-78.1,-80.06],[-80.52,-80.18],[-76.2,-80.35],[-75.69,-80.59],[-76.69,-80.78],[-76.17,-81.02],[-77.23,-81.21],[-74.43,-81.74],[-75.54,-81.93],[-74.91,-82.17],[-70.19,-82.04],[-69.39,-82.26],[-70.46,-82.47],[-66.68,-82.94],[-67.77,-83.16],[-66.75,-83.38],[-63.4,-83.6],[-64.5,-83.82],[-63.25,-84.04],[-57.51,-83.77],[-56.66,-83.54],[-58.03,-83.34],[-57.22,-83.11],[-51.88,-82.54],[-49.99,-82.48],[-47.53,-83.08],[-41.94,-83.07],[-41.69,-82.82],[-43.29,-82.66],[-43.01,-82.41],[-39.36,-81.96],[-37.56,-81.34],[-31.66,-81.34],[-30.26,-81.19],[-30.38,-80.94],[-29.05,-80.79],[-29.2,-80.54],[-22.73,-80.25],[-23.03,-80.0],[-21.94,-79.83],[-22.24,-79.58],[-24.66,-79.66],[-27.47,-79.22],[-27.63,-78.97],[-24.31,-78.74],[-25.92,-78.14],[-31.23,-78.64],[-32.39,-78.52],[-33.57,-77.89],[-32.53,-77.75],[-32.57,-77.5],[-29.54,-77.33],[-29.64,-77.07],[-27.93,-76.51],[-25.0,-76.55],[-23.54,-75.96],[-17.23,-75.71],[-16.53,-75.52],[-16.83,-75.28],[-16.16,-75.09],[-16.46,-74.85],[-12.69,-74.36],[-13.03,-74.12],[-12.45,-73.92],[-12.78,-73.68],[-10.79,-73.31],[-11.14,-73.07],[-9.75,-72.9],[-9.12,-72.25],[-5.32,-71.67],[-2.11,-71.68],[-1.63,-72.34],[-0.8,-72.33],[1.54,-71.85],[1.87,-71.62],[1.41,-71.41],[1.74,-71.19],[5.28,-71.28],[9.28,-70.84],[11.07,-71.15],[12.71,-70.8],[14.53,-71.08],[16.08,-70.69],[26.94,-71.25],[29.98,-70.42],[32.42,-70.39],[33.8,-69.3],[35.26,-69.96],[37.58,-69.87],[39.03,-70.27],[39.53,-70.12],[39.37,-69.89],[39.85,-69.75],[40.01,-69.15],[41.54,-68.92],[41.37,-68.7],[42.42,-68.62],[43.09,-68.1],[47.01,-67.69],[47.8,-67.92],[47.45,-68.11],[47.68,-68.33],[49.18,-68.17],[49.67,-67.15],[51.36,-67.18],[50.54,-66.97],[50.3,-66.76],[50.6,-66.56],[53.11,-65.95],[55.29,-65.93],[55.6,-66.55],[56.47,-66.74],[55.35,-67.18],[55.65,-67.38],[57.09,-67.14],[59.26,-67.71],[60.7,-67.44],[63.02,-67.95],[64.45,-67.65],[69.03,-68.37],[68.86,-68.61],[69.32,-68.79],[68.32,-69.32],[68.79,-69.5],[68.6,-69.73],[66.86,-70.3],[68.51,-70.62],[68.31,-70.85],[68.82,-71.03],[66.97,-71.59],[66.74,-71.82],[67.25,-72.01],[67.03,-72.24],[66.03,-72.51],[66.56,-72.7],[65.27,-73.19],[67.96,-73.48],[68.99,-73.2],[69.2,-72.97],[68.64,-72.79],[68.85,-72.56],[71.66,-71.68],[67.99,-71.96],[70.04,-71.15],[69.2,-70.56],[70.07,-70.27],[70.25,-70.03],[69.75,-69.85],[70.58,-69.56],[70.75,-69.32],[70.26,-69.14],[71.22,-68.6],[70.75,-68.43],[70.59,-67.77],[69.1,-67.48],[67.71,-67.83],[64.27,-67.23],[62.86,-67.54],[60.58,-67.02],[59.17,-67.29],[58.25,-67.11],[57.86,-66.49],[56.43,-66.32],[56.13,-66.12],[56.39,-65.91],[55.27,-65.52],[53.13,-65.54],[48.11,-66.7],[47.68,-67.3],[46.37,-67.05],[45.86,-67.61],[42.32,-67.81],[41.64,-68.33],[40.6,-68.4],[40.76,-68.63],[39.23,-68.84],[39.06,-69.44],[38.57,-69.58],[35.67,-69.59],[34.94,-69.27],[35.23,-68.67],[32.44,-68.62],[31.45,-69.11],[30.31,-69.12],[32.12,-69.45],[31.71,-70.05],[29.31,-70.07],[29.84,-69.71],[29.2,-69.35],[28.08,-69.82],[26.29,-69.68],[25.07,-70.14],[25.67,-70.75],[25.03,-70.86],[22.05,-69.92],[19.97,-70.68],[19.38,-70.53],[19.47,-70.28],[16.04,-69.57],[13.74,-70.25],[12.86,-69.67],[11.32,-70.03],[9.63,-69.71],[5.87,-70.16],[5.41,-69.96],[5.47,-69.31],[2.69,-68.33],[2.82,-67.68],[1.79,-67.5],[1.42,-67.29],[1.69,-67.07],[-0.68,-66.05],[-0.47,-65.41],[-1.69,-65.0],[-1.42,-64.78],[-1.73,-64.57],[-1.54,-63.53],[-2.66,-63.11],[-2.42,-62.48],[-3.22,-62.27],[-3.49,-62.06],[-3.23,-61.86],[-4.01,-61.64],[-4.26,-61.43],[-4.0,-61.23],[-5.71,-60.16],[-5.43,-59.56],[-6.35,-59.13],[-6.1,-58.93],[-6.78,-58.7],[-6.94,-58.1],[-8.05,-57.84],[-8.0,-57.44],[-8.82,-57.0],[-8.51,-56.42],[-9.73,-55.95],[-9.62,-55.56],[-10.34,-55.11],[-10.23,-54.72],[-12.86,-53.66],[-12.74,-53.27],[-13.27,-53.01],[-13.15,-52.61],[-13.68,-52.34],[-13.55,-51.95],[-14.07,-51.68],[-13.94,-51.27],[-14.95,-50.09],[-14.31,-48.04],[-15.29,-48.12],[-16.36,-47.31],[-18.4,-47.19],[-18.96,-46.65],[-22.6,-46.36],[-23.87,-45.41],[-23.77,-44.77],[-24.59,-44.13],[-24.24,-43.31],[-23.43,-43.06],[-23.34,-42.4],[-21.82,-41.62],[-21.6,-40.54],[-19.71,-40.03],[-19.66,-39.36],[-20.92,-39.09],[-21.71,-38.47],[-21.56,-38.04],[-19.96,-37.7],[-19.25,-38.08],[-17.43,-37.52],[-16.7,-37.88],[-15.42,-37.42],[-14.68,-37.77],[-13.62,-37.48],[-13.51,-37.04],[-12.78,-36.7],[-12.35,-36.99],[-13.09,-37.34],[-12.98,-37.58],[-12.23,-37.91],[-12.04,-37.03],[-11.31,-36.68],[-10.04,-36.84],[-8.59,-37.91],[-7.75,-37.77],[-6.72,-38.54],[-5.88,-38.39],[-4.96,-38.91],[-2.49,-38.84],[-1.41,-39.56],[-0.58,-39.37],[4.23,-41.61],[4.39,-42.69],[10.94,-45.13],[11.73,-44.85],[14.9,-45.56],[15.66,-45.27],[17.85,-45.99],[18.58,-45.68],[20.74,-46.33],[21.43,-46.01],[22.6,-46.39],[23.27,-46.05],[23.94,-46.31],[24.59,-45.98],[26.55,-46.13],[27.15,-45.78],[28.26,-46.1],[28.85,-45.75],[31.31,-46.02],[35.79,-45.63],[37.28,-45.89],[39.53,-47.15],[40.63,-47.17],[41.76,-46.64],[44.8,-45.11],[44.53,-43.99],[45.0,-43.59],[44.73,-43.03],[45.74,-41.42],[45.47,-40.86],[45.92,-40.43],[45.65,-39.86],[46.1,-39.42],[46.27,-38.41],[48.4,-36.95],[49.13,-37.06],[50.98,-35.54],[51.72,-35.63],[52.85,-34.58],[56.44,-33.89],[57.89,-32.45],[58.66,-32.5],[62.09,-29.1],[62.85,-29.11],[64.38,-27.96],[65.14,-27.96],[65.51,-27.37],[66.27,-27.37],[66.64,-26.77],[69.01,-26.21],[69.36,-25.61],[70.42,-25.23],[70.52,-23.03],[68.99,-21.91],[67.78,-21.87],[67.4,-21.29],[68.0,-20.6],[68.18,-19.59],[67.8,-19.01],[68.26,-17.67],[67.89,-17.1],[68.19,-15.35],[68.76,-14.67],[68.43,-13.87],[67.79,-13.65],[67.67,-13.01],[66.28,-11.93],[65.18,-11.89],[64.84,-11.35],[64.17,-11.37],[63.04,-9.36],[61.88,-8.7],[61.54,-7.33],[60.95,-7.13],[60.32,-5.28],[60.65,-4.76],[60.28,-3.68],[59.49,-3.57],[59.21,-3.08],[55.18,-2.62],[54.57,-2.05],[53.14,-2.29],[51.93,-1.69],[51.44,-1.97],[49.11,-0.91],[48.6,-1.19],[46.2,-0.11],[45.68,-0.39],[43.37,0.53],[41.82,-0.74],[41.82,-1.37],[39.99,-2.71],[39.74,-4.05],[39.17,-4.35],[38.58,-5.98],[39.23,-6.76],[39.46,-8.04],[39.04,-8.56],[39.62,-8.9],[39.69,-10.0],[40.26,-10.35],[40.67,-12.5],[40.25,-13.02],[40.74,-14.94],[40.4,-15.89],[39.03,-17.04],[37.22,-17.37],[36.85,-18.33],[34.43,-20.07],[34.95,-20.65],[35.48,-23.64],[35.09,-24.57],[34.01,-24.75],[33.53,-25.25],[32.81,-25.15],[32.41,-26.07],[32.73,-27.09],[32.25,-27.58],[32.4,-28.4],[30.97,-29.23],[30.62,-30.52],[29.95,-30.8],[29.91,-31.42],[28.45,-32.2],[28.41,-32.8],[27.22,-33.52],[25.6,-33.46],[24.69,-34.12],[22.63,-33.86],[22.11,-34.28],[21.37,-34.12],[20.85,-34.54],[19.72,-34.58],[18.82,-34.22],[18.73,-33.44],[18.12,-33.07],[18.63,-32.66],[18.54,-31.87],[17.42,-30.5],[16.97,-28.89],[15.51,-27.71],[15.54,-26.67],[14.98,-26.27],[14.76,-22.29],[12.04,-18.36],[11.86,-15.8],[14.22,-10.88],[13.29,-9.89],[13.64,-8.14],[12.3,-6.15],[12.35,-5.09],[11.82,-4.32],[11.23,-4.18],[10.69,-3.01],[9.75,-2.72],[9.26,-1.97],[9.34,-1.35],[8.87,-1.02],[9.59,0.08],[9.41,1.44],[10.1,2.92],[8.9,4.64],[6.12,4.16],[5.64,4.45],[4.86,6.19],[3.95,6.59],[0.94,6.18],[0.67,5.75],[0.11,5.82],[-1.93,4.68],[-4.67,5.37],[-7.23,4.38],[-8.45,4.59],[-10.14,6.18],[-10.69,6.25],[-10.85,6.72],[-11.41,6.79],[-11.57,7.27],[-12.7,7.61],[-13.59,9.91],[-14.19,9.99],[-14.57,10.81],[-15.18,10.89],[-15.58,11.72],[-16.19,11.8],[-16.82,12.75],[-16.4,13.66],[-17.25,14.74],[-16.83,15.67],[-17.91,15.73],[-18.33,15.25],[-18.78,15.69],[-20.3,15.48],[-20.75,15.92],[-21.4,15.76],[-21.59,15.17],[-22.23,15.01],[-22.41,14.43],[-23.05,14.27],[-23.23,13.69],[-24.65,12.79],[-25.37,11.41],[-25.19,10.49],[-26.42,9.52],[-27.31,6.62],[-27.9,6.41],[-28.81,3.42],[-30.66,2.99],[-31.63,4.73],[-32.99,5.02],[-34.15,6.59],[-35.81,7.21],[-36.43,6.99],[-36.95,7.41],[-38.72,7.38],[-41.39,8.56],[-42.01,8.33],[-42.97,8.67],[-43.57,9.56],[-44.24,9.57],[-45.4,11.07],[-47.05,11.63],[-48.19,13.08],[-48.85,13.08],[-49.39,13.68],[-49.52,15.62],[-50.02,15.98],[-50.41,18.14],[-49.5,21.85],[-50.31,24.07],[-49.43,26.53],[-48.25,27.73],[-47.57,27.78],[-46.86,28.46],[-46.85,29.1],[-44.99,30.84],[-42.25,31.72],[-41.91,32.31],[-39.95,32.72],[-38.46,33.0],[-37.83,32.6],[-35.57,33.11],[-34.1,32.43],[-32.83,32.73],[-31.37,32.01],[-30.1,32.3],[-29.5,31.84],[-26.12,32.29],[-25.54,31.82],[-22.66,32.14],[-22.11,31.65],[-20.29,31.86],[-18.96,31.01],[-17.94,31.54],[-16.91,31.55],[-15.63,30.67],[-13.84,31.55],[-13.08,31.41],[-12.56,31.9],[-11.55,31.88],[-11.3,31.74],[-11.59,31.12],[-10.85,30.97],[-9.83,31.43],[-8.4,33.48],[-6.85,33.88],[-5.97,34.92],[-6.15,35.56],[-4.88,35.57],[-4.45,35.03],[-1.81,35.96],[-0.85,35.83],[-0.24,36.48],[0.72,36.36],[1.69,37.34],[1.41,38.35],[2.07,39.0],[1.51,39.91],[2.19,40.56],[2.08,41.17],[3.59,41.85],[3.25,42.6],[3.67,43.16],[5.58,43.06],[4.88,43.51],[3.5,43.53],[2.78,42.89],[3.06,41.91],[1.05,41.27],[0.06,40.34],[-0.64,39.47],[0.2,38.61],[-0.56,38.6],[-0.88,38.28],[-0.75,37.65],[-1.51,37.64],[-1.86,37.07],[-2.93,36.71],[-4.16,36.98],[-5.55,36.25],[-6.29,36.45],[-6.71,37.23],[-8.8,37.4],[-8.48,38.0],[-9.17,39.18],[-8.58,39.63],[-8.79,40.27],[-8.17,40.97],[-8.91,41.9],[-8.56,42.49],[-9.05,43.27],[-7.86,43.66],[-4.24,43.15],[-3.61,43.56],[-1.99,43.33],[-1.31,43.95],[-1.3,45.28],[-0.95,45.58],[-1.35,46.36],[-2.16,46.61],[-2.33,47.23],[-3.47,47.39],[-4.79,48.4],[-4.06,49.01],[-1.71,48.67],[-2.14,49.44],[-3.1,49.23],[-2.31,50.05],[-1.39,50.03],[-0.91,49.49],[-0.54,49.77],[-0.96,50.54],[-1.82,50.79],[-3.51,50.23],[-5.39,50.24],[-4.22,51.37],[-3.27,51.35],[-4.71,52.12],[-3.99,52.49],[-4.19,53.08],[-2.81,53.35],[-3.0,53.94],[-2.6,54.21],[-3.55,54.46],[-3.09,54.95],[-3.39,55.11],[-4.15,54.77],[-5.13,55.0],[-4.27,55.78],[-6.23,56.46],[-5.77,56.95],[-6.06,57.31],[-5.26,57.64],[-5.5,58.21],[-5.07,58.48],[-3.2,58.56],[-4.13,57.83],[-2.73,57.64],[-2.17,57.12],[-3.49,56.11],[-1.85,55.77],[-1.2,54.45],[-0.28,54.19],[0.15,53.44],[-0.31,52.95],[0.57,52.69],[1.31,53.01],[2.1,52.52],[1.71,53.27],[0.49,53.49],[1.3,54.02],[1.16,54.6],[1.58,54.86],[0.94,55.97],[0.01,56.24],[-0.87,57.89],[1.74,59.15],[1.59,59.7],[2.05,59.93],[3.12,59.84],[4.53,60.5],[4.32,60.85],[5.17,61.8],[4.97,62.14],[8.38,63.32],[8.32,63.83],[9.41,63.69],[10.5,64.1],[10.29,64.37],[10.87,64.8],[11.87,64.9],[13.62,67.04],[14.92,67.17],[16.19,68.31],[15.43,68.76],[17.07,68.51],[17.89,68.89],[17.15,69.36],[21.23,69.76],[22.17,70.33],[23.88,70.0],[23.25,70.51],[23.8,70.6],[26.63,70.41],[27.79,70.77],[30.63,70.52],[28.88,70.31],[29.87,69.66],[32.59,69.58],[34.4,69.0],[35.78,69.3],[36.2,68.78],[40.36,67.92],[40.66,67.75],[40.39,67.54],[41.53,67.22],[40.7,66.98],[40.46,66.4],[39.14,66.13],[37.21,66.57],[35.94,66.28],[35.55,66.82],[32.52,67.11],[32.33,66.9],[34.4,66.14],[34.59,64.42],[36.12,64.16],[36.47,63.6],[38.57,64.34],[37.03,64.62],[36.75,64.8],[36.96,65.01],[39.8,64.61],[40.8,65.05],[39.74,65.39],[39.98,65.6],[42.37,66.29],[44.56,66.36],[44.9,66.95],[48.0,66.8],[48.5,67.77],[52.37,68.51],[54.66,68.06],[55.25,68.62],[57.75,68.51],[58.42,69.06],[59.05,69.03],[58.99,68.44],[60.68,68.53],[61.41,69.07],[60.41,69.53],[61.83,69.82],[64.45,69.62],[68.39,68.22],[69.27,68.72],[68.29,69.24],[68.74,69.39],[68.56,69.62],[66.61,69.82],[67.57,70.74],[67.36,70.97],[67.85,71.12],[67.63,71.35],[68.43,71.9],[69.69,71.98],[68.53,72.51],[71.73,72.83],[72.66,72.51],[71.32,71.59],[72.19,71.28],[72.34,71.05],[71.81,70.9],[72.79,70.35],[71.93,69.83],[72.71,69.52],[72.85,69.29],[72.36,69.15],[73.24,68.6],[71.24,66.81],[69.72,66.6],[72.05,66.05],[72.85,66.77],[74.4,66.95],[75.29,67.65],[74.55,68.19],[75.31,68.92],[77.11,68.62],[76.69,68.26],[77.35,67.93],[78.28,68.41],[76.85,69.32],[73.97,69.34],[74.23,69.94],[75.17,70.45],[73.57,71.11],[73.84,71.72],[75.13,71.77],[74.81,71.16],[77.99,71.13],[78.5,71.49],[76.42,71.81],[78.34,71.97],[78.26,72.21],[78.89,72.34],[81.69,71.88],[82.4,71.52],[81.83,70.92],[83.1,70.92],[83.71,71.51],[80.85,72.73],[82.12,73.71],[85.85,73.8],[86.69,74.4],[85.94,74.78],[86.8,75.14],[91.97,75.5],[94.14,76.16],[96.65,75.91],[99.14,76.53],[101.95,76.46],[102.28,76.7],[101.54,76.89],[101.87,77.13],[104.47,77.47],[106.33,77.31],[107.26,76.67],[111.63,76.76],[113.85,76.33],[113.34,76.1],[113.87,75.89],[113.37,75.66],[113.89,75.44],[113.4,75.22],[110.98,74.98],[110.55,74.75],[111.08,74.54],[110.66,74.31],[105.95,73.52],[105.63,73.29],[106.17,73.09],[109.6,73.19],[109.98,73.42],[109.48,73.63],[109.86,73.86],[116.22,73.89],[121.31,72.88],[124.96,73.84],[128.54,73.62],[129.89,73.06],[128.55,72.02],[129.57,71.71],[129.78,71.46],[129.22,71.28],[129.43,71.03],[131.13,70.65],[132.51,71.67],[134.2,71.25],[135.3,71.84],[136.94,71.4],[138.13,71.96],[139.72,71.5],[140.39,71.65],[139.48,72.27],[140.18,72.41],[140.1,72.67],[143.84,72.86],[145.35,72.35],[149.76,72.3],[150.9,71.24],[152.27,71.19],[153.42,70.63],[155.0,71.07],[159.0,70.82],[160.28,69.79],[163.93,69.43],[165.6,69.78],[169.12,69.31],[169.68,68.68],[171.66,69.19],[170.12,69.57],[170.42,69.81],[172.2,70.09],[173.74,69.68],[175.54,69.93],[180.0,68.89],[180.0,90.0],[-180.0,90.0],[-180.0,68.89],[-175.49,67.84],[-175.25,67.61],[-175.65,67.41],[-174.56,66.93],[-174.95,66.74],[-174.72,66.51],[-172.92,67.06],[-170.36,66.02],[-172.71,65.55],[-172.53,65.33],[-173.27,64.32],[-175.35,64.85],[-175.41,65.48],[-176.22,65.73],[-177.76,65.57],[-178.86,66.02],[-178.51,66.23],[-178.77,66.44],[-179.73,66.25],[-179.47,66.03],[-179.81,65.83],[-179.62,65.19],[-180.0,64.98],[-180.0,46.41],[-178.33,47.18],[-177.42,46.97],[-174.04,48.34],[-173.16,48.09],[-171.35,48.81],[-170.49,48.55],[-168.13,49.36],[-167.29,49.08],[-164.39,49.94],[-161.1,49.45],[-160.37,49.73],[-158.69,49.23],[-157.97,49.49],[-155.86,49.05],[-155.39,48.55],[-154.61,48.57],[-154.16,48.07],[-153.39,48.09],[-152.96,47.59],[-151.09,47.11],[-149.81,45.97],[-149.77,45.48],[-149.04,45.25],[-149.01,44.76],[-148.28,44.52],[-148.25,44.02],[-147.53,43.77],[-147.5,43.26],[-146.79,43.0],[-146.43,41.93],[-145.22,41.24],[-146.54,40.18],[-148.85,39.38],[-149.11,38.86],[-152.39,38.27],[-153.09,38.52],[-156.51,37.64],[-157.21,37.86],[-158.77,37.18],[-159.47,37.39],[-163.55,35.82],[-166.3,36.06],[-166.82,36.52],[-171.48,36.76],[-172.1,36.35],[-176.03,36.39],[-177.09,35.73],[-177.86,35.93],[-178.46,35.47],[-180.0,35.64],[-180.0,10.02]],[[-71.89,12.0],[-71.51,12.23],[-71.84,11.56],[-71.89,12.0]]],[[[180.0,-10.99],[179.53,-11.08],[179.42,-10.46],[178.75,-11.08],[178.32,-10.78],[177.43,-11.14],[177.0,-10.83],[175.76,-11.24],[174.06,-11.11],[173.73,-11.51],[172.37,-11.38],[172.03,-11.79],[170.65,-11.65],[170.29,-12.06],[168.49,-11.89],[168.1,-12.31],[165.45,-12.1],[165.05,-12.51],[163.81,-12.45],[163.39,-12.0],[161.52,-12.0],[160.09,-11.15],[157.8,-11.1],[157.41,-10.64],[155.59,-10.58],[155.29,-10.08],[153.09,-9.93],[152.91,-8.71],[151.47,-8.64],[151.33,-9.34],[150.74,-8.05],[150.1,-8.08],[149.96,-8.8],[149.13,-8.68],[148.24,-7.7],[147.97,-8.03],[149.82,-9.5],[150.1,-10.26],[150.79,-9.99],[150.1,-9.18],[150.92,-9.29],[151.19,-10.05],[150.65,-10.69],[147.75,-10.31],[147.46,-9.54],[146.29,-8.89],[146.0,-8.11],[144.06,-7.94],[142.65,-9.57],[141.88,-8.96],[140.93,-9.31],[140.43,-8.36],[137.75,-8.42],[137.96,-7.21],[133.88,-8.87],[133.25,-8.63],[132.74,-9.03],[131.26,-8.64],[130.75,-9.04],[130.13,-8.8],[128.51,-9.34],[127.47,-9.02],[126.98,-9.41],[126.64,-8.85],[123.86,-10.2],[124.04,-9.05],[123.31,-9.72],[120.47,-9.34],[120.22,-9.63],[120.79,-9.88],[120.55,-10.17],[119.97,-9.93],[119.92,-8.87],[118.93,-8.76],[119.04,-9.37],[118.59,-9.73],[116.74,-8.83],[116.51,-9.12],[117.26,-9.3],[117.41,-9.68],[114.16,-9.4],[113.72,-9.83],[113.16,-9.71],[110.67,-10.75],[110.19,-11.4],[104.17,-12.42],[101.09,-14.03],[98.56,-14.11],[98.11,-14.51],[97.07,-14.34],[96.61,-14.74],[95.18,-14.56],[94.81,-15.01],[93.01,-14.83],[92.61,-15.29],[92.0,-15.14],[90.35,-16.27],[89.72,-16.12],[85.56,-18.24],[85.09,-18.96],[85.29,-19.59],[84.58,-20.43],[84.79,-21.07],[84.06,-21.92],[84.01,-22.93],[85.33,-25.25],[86.03,-25.4],[86.25,-26.03],[86.95,-26.17],[87.4,-26.92],[86.92,-27.67],[87.12,-29.04],[86.38,-29.91],[86.61,-30.53],[85.35,-31.4],[85.57,-32.02],[85.31,-32.39],[86.03,-33.26],[85.76,-33.88],[86.51,-33.99],[86.99,-34.96],[87.75,-35.07],[88.24,-35.78],[87.47,-36.17],[86.94,-37.14],[89.5,-38.24],[90.01,-38.91],[89.76,-40.21],[90.34,-40.62],[90.11,-41.2],[90.98,-41.48],[90.49,-42.2],[89.65,-42.38],[89.41,-42.97],[88.29,-43.5],[87.42,-43.42],[86.86,-43.91],[84.83,-43.86],[84.24,-44.33],[83.38,-44.22],[82.77,-44.69],[81.91,-44.57],[80.7,-45.02],[79.99,-45.94],[80.53,-46.42],[80.15,-47.0],[80.41,-47.36],[79.47,-47.45],[79.07,-48.03],[78.13,-48.11],[77.37,-48.79],[77.56,-49.4],[75.18,-51.18],[75.35,-51.8],[74.55,-52.23],[74.71,-52.86],[72.33,-52.76],[73.13,-53.45],[74.11,-53.67],[73.57,-54.24],[74.12,-54.79],[73.56,-55.36],[73.88,-55.51],[73.31,-56.09],[74.13,-57.04],[73.54,-57.62],[74.32,-58.83],[75.48,-59.05],[76.62,-60.91],[78.05,-62.28],[77.42,-62.87],[78.15,-63.68],[77.56,-64.03],[78.4,-64.58],[77.72,-65.18],[79.44,-66.54],[78.73,-67.13],[79.7,-67.69],[77.91,-67.97],[78.27,-68.62],[76.83,-69.3],[73.06,-69.53],[70.4,-70.68],[70.93,-70.86],[70.75,-71.09],[72.0,-71.2],[73.7,-70.59],[73.44,-69.94],[76.52,-70.03],[80.18,-68.08],[81.92,-68.02],[84.28,-67.32],[85.97,-67.47],[87.09,-66.96],[91.02,-67.04],[92.03,-66.5],[93.27,-66.96],[98.21,-66.55],[99.57,-66.97],[100.39,-66.38],[103.6,-66.06],[106.06,-66.3],[108.59,-67.17],[110.71,-66.85],[111.26,-66.21],[113.27,-65.86],[113.89,-65.88],[114.04,-66.55],[114.95,-66.8],[113.55,-67.2],[113.82,-67.43],[116.46,-67.5],[118.47,-67.08],[120.41,-67.52],[123.56,-66.59],[126.05,-66.51],[126.51,-67.14],[127.52,-67.31],[130.03,-67.16],[130.09,-66.5],[131.5,-66.18],[144.29,-67.06],[144.68,-67.45],[144.04,-67.78],[145.71,-67.5],[147.07,-68.4],[150.79,-68.37],[151.83,-68.85],[154.46,-68.72],[157.24,-69.5],[159.35,-69.42],[161.36,-70.39],[161.07,-70.99],[162.18,-70.93],[162.06,-70.7],[162.55,-70.56],[163.88,-70.94],[164.67,-70.41],[167.07,-70.69],[170.32,-71.81],[170.33,-72.42],[169.88,-72.58],[170.1,-72.8],[167.8,-73.02],[165.42,-74.04],[162.39,-74.6],[162.07,-75.21],[161.43,-75.36],[162.54,-75.9],[161.87,-76.05],[162.03,-76.28],[163.05,-76.58],[162.36,-76.73],[162.53,-76.96],[163.61,-77.26],[162.9,-77.42],[163.09,-77.64],[164.24,-77.94],[163.49,-78.1],[163.71,-78.32],[166.82,-78.47],[160.45,-78.95],[160.62,-79.17],[159.72,-79.33],[159.89,-79.55],[158.95,-79.71],[160.89,-80.17],[159.22,-80.68],[161.4,-81.15],[160.3,-81.3],[160.7,-81.51],[162.73,-81.77],[160.81,-82.3],[161.29,-82.51],[166.05,-82.42],[166.69,-82.63],[165.49,-82.81],[168.84,-83.24],[167.58,-83.43],[168.38,-83.63],[180.0,-84.22],[180.0,-10.99]],[[168.49,-77.77],[167.28,-77.5],[168.85,-77.38],[169.14,-77.6],[168.49,-77.77]]],[[[23.5,64.27],[25.66,65.42],[25.13,65.92],[23.13,65.96],[21.08,64.78],[21.32,64.44],[20.84,64.14],[21.0,63.58],[19.85,63.34],[20.78,62.94],[23.5,64.27]]],[[[66.33,-0.05],[68.11,-0.38],[68.58,-0.0],[72.39,-0.58],[72.86,-0.2],[72.77,-0.84],[73.36,-1.02],[73.45,-0.38],[75.22,-0.21],[75.61,0.23],[76.19,0.07],[76.98,0.48],[77.18,1.06],[78.39,1.45],[79.22,2.84],[79.26,4.55],[77.67,6.82],[76.88,7.34],[76.27,7.24],[75.88,7.73],[73.53,7.8],[71.63,6.67],[69.79,6.49],[66.66,4.77],[64.64,2.57],[64.73,2.05],[64.26,1.68],[64.09,0.86],[64.66,0.69],[64.92,0.01],[66.33,-0.05]]],[[[11.68,57.11],[10.69,56.58],[10.75,56.06],[9.41,55.45],[9.67,54.59],[10.95,54.47],[10.14,54.86],[10.07,55.39],[11.27,55.07],[11.03,55.93],[12.58,56.2],[11.74,56.59],[12.36,57.05],[12.19,57.37],[11.05,57.87],[10.23,57.03],[11.68,57.11]]],[[[117.31,-7.58],[116.96,-7.27],[117.25,-8.03],[117.31,-7.58]]],[[[156.78,-7.55],[156.91,-7.92],[157.51,-7.88],[156.87,-7.09],[156.78,-7.55]]],[[[151.88,7.12],[152.02,6.71],[153.07,6.62],[152.94,7.02],[152.11,7.2],[151.83,8.02],[151.28,7.37],[151.88,7.12]]],[[[132.52,-6.39],[133.23,-6.14],[132.6,-5.9],[132.52,-6.39]]],[[[173.83,0.68],[173.24,0.3],[174.2,0.27],[173.83,0.68]]],[[[157.88,-8.99],[158.8,-9.21],[159.06,-8.9],[158.39,-8.35],[157.92,-8.76],[157.16,-8.66],[157.28,-9.03],[157.88,-8.99]]],[[[139.41,39.18],[138.89,38.5],[139.11,38.14],[139.87,38.93],[139.41,39.18]]],[[[-22.81,17.06],[-23.26,17.03],[-23.19,16.1],[-22.71,15.67],[-22.32,16.4],[-22.81,17.06]]],[[[0.22,50.34],[1.89,50.84],[1.51,51.61],[1.97,52.09],[1.37,52.2],[0.59,51.66],[1.31,50.95],[-0.57,50.82],[0.22,50.34]]],[[[122.56,-7.78],[121.9,-8.0],[122.45,-8.47],[124.04,-7.72],[123.44,-7.48],[122.56,-7.78]]],[[[-16.62,17.41],[-16.4,17.07],[-15.96,17.78],[-16.62,17.41]]],[[[152.42,-3.62],[152.69,-3.29],[152.28,-3.22],[151.69,-4.13],[152.1,-4.19],[152.42,-3.62]]],[[[153.5,-4.53],[154.04,-3.88],[153.1,-3.35],[152.78,-3.93],[153.32,-4.38],[152.42,-4.74],[152.1,-5.31],[153.18,-5.1],[153.5,-4.53]]],[[[8.7,57.45],[7.74,56.9],[8.89,57.13],[8.7,57.45]]],[[[158.59,7.16],[157.81,7.33],[157.89,6.7],[158.67,6.52],[158.59,7.16]]],[[[137.98,-5.82],[138.25,-6.88],[138.68,-6.95],[138.42,-5.9],[137.98,-5.82]]],[[[145.24,13.19],[145.23,14.33],[144.36,13.36],[145.24,13.19]]],[[[132.14,-4.68],[131.59,-5.34],[132.21,-5.58],[132.49,-5.25],[132.14,-4.68]]],[[[168.58,8.0],[168.13,8.48],[167.89,7.9],[169.09,7.17],[169.1,7.71],[168.58,8.0]]],[[[154.4,-3.07],[154.93,-3.53],[154.67,-2.74],[154.4,-3.07]]],[[[114.4,-9.08],[114.78,-9.09],[115.04,-8.54],[114.66,-8.53],[114.4,-9.08]]],[[[113.33,-8.39],[112.55,-8.36],[112.31,-8.69],[113.66,-8.84],[113.9,-8.51],[113.33,-8.39]]],[[[-72.74,-52.15],[-72.17,-52.01],[-72.63,-51.75],[-72.74,-52.15]]],[[[135.22,-0.99],[134.26,-1.34],[134.57,-2.17],[135.38,-1.41],[135.22,-0.99]]],[[[144.7,-0.81],[144.27,-0.73],[144.37,-1.39],[145.23,-1.54],[144.7,-0.81]]],[[[131.85,-7.76],[132.4,-7.12],[131.81,-6.64],[131.93,-7.28],[131.14,-8.0],[130.56,-7.53],[130.4,-8.48],[131.53,-8.32],[131.85,-7.76]]],[[[-28.77,70.65],[-29.35,70.52],[-28.76,70.17],[-27.61,70.88],[-28.77,70.65]]],[[[175.82,-2.67],[176.17,-2.74],[176.15,-2.22],[175.82,-2.67]]],[[[117.58,-7.06],[118.01,-8.2],[119.0,-8.31],[118.85,-7.93],[118.08,-7.75],[118.98,-7.01],[118.35,-7.23],[118.03,-6.69],[117.58,-7.06]]],[[[146.6,7.15],[146.3,7.98],[145.63,7.98],[145.73,7.31],[146.6,7.15]]],[[[-15.21,24.41],[-15.68,24.65],[-15.92,24.03],[-15.21,24.41]]],[[[-159.34,3.43],[-158.95,3.6],[-159.0,4.25],[-159.8,3.92],[-159.34,3.43]]],[[[173.99,-0.51],[175.09,-1.68],[174.61,-0.42],[173.99,-0.51]]],[[[163.14,5.49],[162.53,5.27],[163.05,5.03],[163.14,5.49]]],[[[160.58,-9.05],[160.98,-9.29],[160.64,-7.58],[159.39,-9.17],[160.58,-9.05]]],[[[124.86,-9.22],[125.42,-8.37],[126.48,-8.46],[126.79,-7.91],[126.1,-8.14],[124.45,-7.81],[124.97,-8.52],[124.15,-8.35],[123.89,-8.66],[124.86,-9.22]]],[[[96.41,-12.12],[96.6,-12.46],[97.24,-12.39],[96.87,-11.7],[96.41,-12.12]]],[[[148.1,-6.19],[147.72,-5.88],[148.01,-6.67],[148.1,-6.19]]],[[[71.61,-6.13],[71.45,-5.76],[70.96,-6.16],[71.28,-6.91],[71.77,-6.5],[71.61,-6.13]]],[[[167.28,-11.85],[166.66,-11.5],[166.84,-10.98],[166.44,-10.96],[166.47,-11.82],[167.28,-11.85]]],[[[166.8,-9.72],[167.01,-10.04],[167.6,-9.97],[167.38,-9.65],[166.8,-9.72]]],[[[141.35,42.07],[141.13,42.43],[140.84,42.09],[141.53,41.23],[141.82,41.57],[141.35,42.07]]],[[[115.73,22.59],[115.12,22.82],[114.86,22.52],[115.47,22.28],[115.73,22.59]]],[[[72.13,-5.49],[72.55,-5.55],[72.39,-5.18],[71.32,-5.16],[71.48,-5.53],[72.13,-5.49]]],[[[77.56,-37.85],[78.07,-38.12],[77.61,-37.37],[77.3,-37.72],[77.56,-37.85]]],[[[-18.37,27.97],[-17.86,27.22],[-17.63,28.11],[-17.13,27.62],[-16.15,28.14],[-15.66,27.64],[-14.19,27.65],[-13.17,29.14],[-13.9,29.53],[-14.92,28.02],[-16.14,28.9],[-17.14,28.38],[-17.9,29.25],[-18.39,28.73],[-18.13,28.35],[-18.37,27.97]]],[[[148.98,-4.95],[149.12,-5.35],[149.4,-5.01],[149.07,-4.46],[148.98,-4.95]]],[[[-71.42,17.83],[-71.95,17.33],[-71.16,17.33],[-70.87,18.13],[-71.42,17.83]]],[[[-22.91,15.31],[-23.82,15.71],[-25.07,14.91],[-24.59,14.49],[-23.29,14.59],[-22.91,15.31]]],[[[170.82,7.24],[171.02,6.73],[172.33,7.26],[171.83,7.55],[170.82,7.24]]],[[[154.98,7.72],[155.29,7.15],[155.83,7.78],[155.25,8.04],[154.98,7.72]]],[[[172.88,2.77],[173.27,3.14],[173.09,3.61],[172.48,3.2],[172.88,2.77]]],[[[45.11,1.79],[45.49,1.64],[47.6,3.52],[47.23,3.67],[45.11,1.79]]],[[[52.49,-46.5],[52.35,-46.13],[51.56,-46.59],[52.49,-46.5]]],[[[172.8,1.8],[172.85,0.71],[173.19,0.6],[173.1,1.21],[173.74,2.08],[172.75,2.11],[172.8,1.8]]],[[[153.53,5.64],[152.98,6.13],[153.07,5.48],[153.66,5.23],[153.94,5.55],[153.53,5.64]]],[[[-60.07,53.89],[-60.07,53.46],[-58.8,53.9],[-60.07,53.89]]],[[[127.7,-7.6],[127.05,-7.6],[127.63,-8.08],[127.51,-8.78],[128.01,-8.39],[129.28,-8.64],[128.97,-7.84],[127.7,-7.6]]],[[[150.32,-4.66],[150.04,-4.99],[150.37,-5.54],[150.64,-5.21],[150.32,-4.66]]],[[[-14.72,25.9],[-15.2,25.4],[-14.97,25.03],[-14.48,25.53],[-14.72,25.9]]],[[[-157.6,2.13],[-157.65,1.7],[-157.05,1.41],[-157.0,1.83],[-157.6,2.13]]],[[[161.96,-10.73],[161.55,-10.92],[162.16,-11.06],[162.78,-10.78],[162.38,-10.12],[161.77,-9.97],[161.99,-9.46],[161.59,-9.02],[160.94,-10.56],[161.97,-10.3],[161.96,-10.73]]],[[[70.38,-49.98],[70.73,-49.9],[70.56,-49.52],[71.07,-48.98],[69.89,-48.85],[68.91,-48.25],[68.15,-48.62],[68.74,-50.13],[69.53,-49.76],[70.38,-49.98]],[[69.02,-49.45],[68.87,-49.07],[69.46,-49.15],[69.02,-49.45]]],[[[50.64,-46.66],[50.61,-46.09],[50.09,-45.94],[50.13,-46.51],[50.64,-46.66]]],[[[-170.92,-3.33],[-171.36,-3.26],[-170.72,-3.75],[-170.92,-3.33]]],[[[132.0,-2.87],[131.92,-1.96],[131.37,-2.63],[131.72,-3.21],[132.0,-2.87]]],[[[149.9,-2.33],[149.81,-2.82],[151.19,-2.29],[150.36,-2.15],[149.24,-1.2],[149.34,-1.85],[149.9,-2.33]]],[[[7.64,58.11],[6.49,57.87],[7.84,57.8],[7.64,58.11]]],[[[3.47,-54.68],[3.48,-54.29],[2.87,-54.5],[3.47,-54.68]]],[[[133.72,-4.58],[133.56,-4.17],[132.89,-4.18],[133.05,-4.59],[133.72,-4.58]]],[[[156.22,-7.36],[156.53,-6.8],[156.23,-6.28],[156.09,-6.98],[155.48,-7.02],[155.17,-7.57],[155.74,-7.77],[156.22,-7.36]]],[[[171.98,6.51],[171.36,6.08],[172.45,5.71],[172.49,6.23],[171.98,6.51]]],[[[159.81,-5.01],[159.22,-5.04],[158.93,-5.59],[160.05,-5.75],[159.81,-5.01]]],[[[142.7,-2.01],[143.22,-1.59],[143.07,-1.17],[142.55,-1.6],[142.7,-2.01]]],[[[-17.09,21.67],[-15.93,23.54],[-16.63,23.15],[-17.32,22.03],[-17.09,21.67]]],[[[-172.08,-9.32],[-171.8,-9.58],[-171.58,-8.82],[-172.08,-9.32]]],[[[176.11,-5.9],[176.45,-5.79],[176.03,-5.34],[176.11,-5.9]]],[[[105.21,-10.46],[105.58,-10.92],[106.06,-10.27],[105.46,-10.13],[105.21,-10.46]]],[[[115.39,-8.85],[115.76,-8.94],[116.25,-8.14],[115.5,-7.97],[115.39,-8.85]]],[[[147.58,-5.48],[148.28,-5.22],[147.67,-4.99],[146.26,-5.53],[147.3,-5.81],[147.58,-5.48]]],[[[128.7,-6.81],[128.28,-6.73],[127.97,-7.28],[128.39,-7.36],[128.7,-6.81]]],[[[133.5,35.65],[134.14,35.53],[134.35,35.86],[133.28,35.99],[133.08,35.66],[133.5,35.65]]],[[[-141.01,-7.86],[-140.62,-8.29],[-140.23,-8.13],[-140.62,-7.7],[-141.01,-7.86]]],[[[144.39,-3.71],[144.87,-3.53],[144.53,-2.96],[143.43,-2.91],[144.39,-3.71]]],[[[38.06,-46.87],[37.97,-46.58],[37.15,-47.02],[37.85,-47.22],[38.06,-46.87]]],[[[129.28,-7.29],[129.86,-7.77],[129.55,-8.32],[130.25,-8.08],[130.13,-7.45],[129.51,-7.21],[130.33,-6.24],[130.18,-5.84],[129.13,-6.89],[129.28,-7.29]]],[[[18.98,62.74],[18.73,63.09],[18.31,62.79],[18.98,62.74]]],[[[114.28,-7.07],[114.04,-7.4],[114.37,-7.86],[115.08,-6.87],[114.28,-7.07]]],[[[176.4,-1.05],[175.96,-1.15],[175.96,-1.49],[176.68,-1.62],[176.4,-1.05]]],[[[169.72,6.21],[169.27,6.14],[170.01,5.9],[169.72,6.21]]],[[[-72.69,46.45],[-73.16,46.17],[-72.57,46.04],[-72.69,46.45]]],[[[-149.96,64.84],[-149.55,64.51],[-149.02,64.84],[-149.96,64.84]]],[[[-11.98,28.5],[-12.72,28.14],[-11.75,28.12],[-11.98,28.5]]],[[[170.3,8.97],[170.56,9.56],[169.8,9.82],[169.84,8.9],[170.3,8.97]]],[[[136.69,-1.63],[137.13,-1.71],[136.97,-1.29],[136.3,-1.31],[136.69,-1.63]]],[[[8.32,58.07],[9.0,58.03],[9.6,58.48],[8.91,58.52],[8.32,58.07]]],[[[139.69,10.36],[139.4,10.02],[139.75,9.44],[140.73,9.79],[140.58,10.21],[139.69,10.36]]],[[[17.32,57.39],[17.46,57.06],[18.0,57.3],[17.32,57.39]]],[[[-12.98,27.77],[-13.45,28.02],[-13.72,27.4],[-12.98,27.77]]],[[[14.34,55.58],[14.84,55.83],[14.18,55.91],[14.34,55.58]]],[[[1.12,50.3],[0.74,50.02],[1.31,49.91],[1.12,50.3]]],[[[175.7,-1.96],[175.88,-1.65],[175.44,-1.75],[175.44,-2.09],[175.7,-1.96]]],[[[-162.56,6.42],[-162.49,5.77],[-161.9,5.48],[-162.17,6.59],[-162.56,6.42]]],[[[-16.17,20.26],[-16.85,20.59],[-16.85,19.64],[-16.4,19.65],[-16.17,20.26]]],[[[166.43,-10.54],[166.61,-10.03],[166.02,-10.31],[165.41,-9.97],[165.43,-10.81],[165.84,-11.25],[165.83,-10.62],[166.43,-10.54]]],[[[171.0,9.07],[170.62,9.2],[171.06,8.71],[170.65,8.29],[171.4,8.03],[171.38,8.93],[171.0,9.07]]],[[[158.94,-8.53],[159.56,-8.26],[158.81,-8.17],[158.94,-8.53]]],[[[121.36,-8.83],[120.71,-9.04],[121.51,-9.22],[121.36,-8.83]]],[[[149.35,7.63],[148.88,7.47],[149.73,7.3],[149.35,7.63]]],[[[152.02,8.99],[151.88,8.26],[152.43,8.9],[152.02,8.99]]],[[[72.69,-7.68],[72.56,-7.07],[72.13,-7.02],[72.27,-7.63],[72.69,-7.68]]],[[[115.89,-6.56],[115.83,-7.01],[116.41,-7.03],[115.89,-6.56]]],[[[-154.76,-4.35],[-154.71,-3.94],[-155.29,-3.66],[-155.34,-4.06],[-154.76,-4.35]]],[[[-128.42,54.79],[-128.95,54.62],[-128.72,54.04],[-128.2,54.21],[-128.42,54.79]]],[[[80.73,5.58],[80.95,5.94],[80.12,5.98],[80.73,5.58]]],[[[-24.38,17.07],[-25.73,17.19],[-25.45,16.63],[-24.53,16.23],[-23.87,16.4],[-24.38,17.07]]],[[[-80.65,21.62],[-80.24,21.83],[-80.82,21.97],[-81.05,21.63],[-80.65,21.62]]],[[[155.31,-6.87],[155.22,-6.26],[154.83,-6.2],[154.91,-6.82],[155.31,-6.87]]],[[[144.18,7.47],[143.7,7.3],[144.57,7.14],[144.18,7.47]]],[[[134.84,-7.17],[134.92,-6.69],[134.36,-7.34],[134.84,-7.17]]],[[[180.0,-9.03],[179.68,-9.73],[180.0,-9.67],[180.0,-9.03]]],[[[-13.99,26.28],[-13.73,26.9],[-13.97,27.02],[-14.46,26.52],[-13.99,26.28]]],[[[-58.62,-33.55],[-58.46,-33.27],[-58.88,-33.26],[-58.62,-33.55]]],[[[168.93,4.89],[168.57,5.01],[168.7,4.35],[168.93,4.89]]],[[[152.01,-2.43],[152.15,-2.83],[152.78,-2.8],[152.65,-2.41],[152.01,-2.43]]],[[[151.28,-2.93],[150.59,-3.2],[151.19,-3.42],[151.28,-2.93]]],[[[144.27,42.53],[144.59,42.87],[144.34,43.01],[144.06,42.9],[144.27,42.53]]],[[[147.09,-2.24],[146.43,-2.26],[146.1,-2.84],[147.23,-2.64],[147.09,-2.24]]],[[[131.47,35.0],[131.44,34.59],[131.69,34.67],[131.47,35.0]]]]}}]}