{"type":"FeatureCollection","features":[{"type":"Feature","properties":{},"geometry":{"type":"MultiPolygon","coordinates":[[[[-49.19,-27.16],[-48.95,-27.24],[-48.9,-27.46],[-48.66,-27.55],[-48.61,-27.76],[-48.82,-27.89],[-48.78,-28.11],[-48.98,-28.23],[-49.23,-28.15],[-49.43,-28.27],[-49.39,-28.49],[-49.59,-28.61],[-49.55,-28.82],[-49.76,-28.95],[-49.71,-29.16],[-49.92,-29.28],[-49.88,-29.49],[-49.63,-29.58],[-49.43,-29.46],[-49.47,-29.25],[-49.26,-29.12],[-49.31,-28.91],[-49.1,-28.79],[-48.85,-28.87],[-48.65,-28.75],[-48.69,-28.53],[-48.49,-28.41],[-48.53,-28.19],[-48.32,-28.06],[-48.37,-27.85],[-48.16,-27.72],[-48.21,-27.5],[-48.0,-27.37],[-48.04,-27.16],[-48.29,-27.07],[-48.33,-26.85],[-48.58,-26.77],[-48.62,-26.55],[-48.42,-26.41],[-48.46,-26.2],[-48.26,-26.06],[-48.3,-25.84],[-48.1,-25.71],[-48.14,-25.49],[-47.93,-25.35],[-47.98,-25.13],[-47.77,-24.99],[-47.53,-25.08],[-47.32,-24.94],[-47.36,-24.72],[-47.16,-24.58],[-46.91,-24.67],[-46.71,-24.53],[-46.75,-24.3],[-46.55,-24.16],[-46.3,-24.25],[-46.09,-24.11],[-45.85,-24.19],[-45.64,-24.05],[-45.39,-24.14],[-45.19,-23.99],[-45.23,-23.77],[-45.03,-23.63],[-44.78,-23.71],[-44.58,-23.57],[-44.62,-23.34],[-44.41,-23.19],[-44.17,-23.28],[-43.96,-23.13],[-43.71,-23.21],[-43.51,-23.07],[-43.26,-23.15],[-43.05,-23.0],[-42.81,-23.08],[-42.6,-22.94],[-42.35,-23.02],[-42.15,-22.87],[-41.9,-22.95],[-41.69,-22.8],[-41.74,-22.57],[-41.54,-22.42],[-41.58,-22.19],[-41.83,-22.11],[-42.03,-22.26],[-41.99,-22.49],[-42.19,-22.64],[-42.44,-22.56],[-42.65,-22.71],[-42.9,-22.63],[-43.1,-22.77],[-43.35,-22.69],[-43.39,-22.46],[-43.64,-22.38],[-43.85,-22.53],[-43.8,-22.76],[-44.01,-22.9],[-44.25,-22.82],[-44.46,-22.96],[-44.71,-22.88],[-44.91,-23.02],[-44.87,-23.25],[-45.07,-23.4],[-45.32,-23.31],[-45.52,-23.46],[-45.48,-23.68],[-45.69,-23.83],[-45.93,-23.74],[-46.14,-23.88],[-46.39,-23.8],[-46.59,-23.94],[-46.84,-23.85],[-47.04,-23.99],[-47.29,-23.9],[-47.49,-24.04],[-47.74,-23.95],[-47.78,-23.73],[-47.58,-23.59],[-47.33,-23.68],[-47.13,-23.54],[-47.17,-23.31],[-46.97,-23.17],[-46.72,-23.25],[-46.52,-23.11],[-46.56,-22.88],[-46.81,-22.8],[-46.85,-22.57],[-46.65,-22.42],[-46.69,-22.19],[-46.94,-22.1],[-46.98,-21.87],[-46.78,-21.73],[-46.53,-21.82],[-46.32,-21.67],[-46.08,-21.76],[-45.87,-21.61],[-45.63,-21.7],[-45.42,-21.55],[-45.47,-21.32],[-45.26,-21.17],[-45.31,-20.94],[-45.55,-20.85],[-45.6,-20.62],[-45.39,-20.47],[-45.15,-20.56],[-44.94,-20.41],[-44.99,-20.17],[-44.78,-20.02],[-44.83,-19.79],[-45.07,-19.7],[-45.12,-19.46],[-44.92,-19.31],[-44.96,-19.07],[-44.76,-18.92],[-44.8,-18.68],[-45.05,-18.59],[-45.09,-18.35],[-44.89,-18.2],[-44.93,-17.96],[-44.73,-17.81],[-44.77,-17.57],[-44.57,-17.41],[-44.61,-17.17],[-44.41,-17.02],[-44.45,-16.77],[-44.7,-16.69],[-44.74,-16.44],[-44.54,-16.29],[-44.59,-16.04],[-44.38,-15.89],[-44.43,-15.64],[-44.23,-15.49],[-43.98,-15.57],[-43.94,-15.82],[-43.69,-15.91],[-43.49,-15.75],[-43.53,-15.5],[-43.33,-15.35],[-43.37,-15.1],[-43.17,-14.94],[-43.22,-14.7],[-43.46,-14.61],[-43.51,-14.36],[-43.3,-14.2],[-43.06,-14.29],[-42.86,-14.13],[-42.9,-13.88],[-43.15,-13.8],[-43.19,-13.55],[-42.99,-13.39],[-43.03,-13.14],[-43.28,-13.05],[-43.32,-12.8],[-43.12,-12.64],[-43.17,-12.39],[-42.96,-12.23],[-43.01,-11.98],[-42.81,-11.82],[-42.85,-11.57],[-43.1,-11.48],[-43.14,-11.23],[-42.94,-11.07],[-42.98,-10.82],[-43.23,-10.73],[-43.43,-10.89],[-43.67,-10.8],[-43.87,-10.96],[-44.12,-10.87],[-44.16,-10.62],[-43.96,-10.46],[-44.01,-10.21],[-43.8,-10.05],[-43.56,-10.14],[-43.36,-9.97],[-43.4,-9.72],[-43.65,-9.63],[-43.85,-9.79],[-44.09,-9.7],[-44.14,-9.45],[-43.94,-9.29],[-43.98,-9.04],[-43.78,-8.87],[-43.82,-8.62],[-43.62,-8.46],[-43.67,-8.2],[-43.47,-8.04],[-43.51,-7.79],[-43.31,-7.62],[-43.07,-7.71],[-42.87,-7.55],[-42.91,-7.3],[-42.71,-7.13],[-42.75,-6.88],[-43.0,-6.79],[-43.04,-6.53],[-43.28,-6.45],[-43.48,-6.61],[-43.73,-6.52],[-43.77,-6.27],[-43.57,-6.1],[-43.61,-5.85],[-43.42,-5.68],[-43.46,-5.43],[-43.7,-5.34],[-43.75,-5.09],[-43.99,-5.0],[-44.03,-4.74],[-43.83,-4.58],[-43.88,-4.32],[-44.12,-4.23],[-44.16,-3.98],[-44.4,-3.89],[-44.45,-3.64],[-44.25,-3.47],[-44.29,-3.22],[-44.53,-3.13],[-44.57,-2.87],[-44.38,-2.71],[-44.13,-2.8],[-43.94,-2.64],[-43.69,-2.72],[-43.5,-2.56],[-43.25,-2.65],[-43.06,-2.48],[-43.1,-2.23],[-43.34,-2.14],[-43.54,-2.31],[-43.78,-2.22],[-43.98,-2.38],[-44.22,-2.29],[-44.26,-2.04],[-44.5,-1.95],[-44.55,-1.7],[-44.79,-1.61],[-44.83,-1.35],[-45.07,-1.27],[-45.11,-1.01],[-45.35,-0.92],[-45.55,-1.09],[-45.79,-1.0],[-45.84,-0.75],[-46.07,-0.66],[-46.27,-0.82],[-46.51,-0.73],[-46.55,-0.48],[-46.79,-0.39],[-46.99,-0.55],[-47.23,-0.47],[-47.43,-0.63],[-47.67,-0.54],[-47.71,-0.29],[-47.94,-0.2],[-48.14,-0.36],[-48.38,-0.28],[-48.42,-0.03],[-48.66,0.06],[-48.85,-0.1],[-49.09,-0.01],[-49.13,0.24],[-49.37,0.33],[-49.41,0.58],[-49.64,0.66],[-49.68,0.91],[-49.49,1.08],[-49.53,1.32],[-49.76,1.41],[-49.81,1.66],[-50.04,1.75],[-50.08,1.99],[-50.31,2.08],[-50.35,2.33],[-50.59,2.41],[-50.63,2.66],[-50.86,2.75],[-50.9,2.99],[-50.71,3.15],[-50.75,3.4],[-50.98,3.48],[-51.02,3.73],[-50.83,3.89],[-50.87,4.14],[-51.1,4.22],[-51.14,4.46],[-51.37,4.55],[-51.41,4.79],[-51.64,4.87],[-51.83,4.71],[-52.07,4.79],[-52.1,5.04],[-52.33,5.12],[-52.37,5.36],[-52.6,5.44],[-52.64,5.68],[-52.87,5.76],[-53.06,5.6],[-53.29,5.68],[-53.33,5.92],[-53.56,6.0],[-53.75,5.84],[-53.98,5.92],[-54.01,6.16],[-54.24,6.24],[-54.43,6.08],[-54.66,6.16],[-54.85,6.0],[-55.07,6.08],[-55.26,5.92],[-55.49,6.0],[-55.52,6.23],[-55.75,6.31],[-55.93,6.15],[-56.16,6.23],[-56.34,6.07],[-56.57,6.15],[-56.75,5.99],[-56.97,6.06],[-57.01,6.3],[-57.23,6.38],[-57.27,6.61],[-57.49,6.69],[-57.52,6.92],[-57.74,7.0],[-57.93,6.84],[-58.15,6.91],[-58.18,7.14],[-58.4,7.22],[-58.43,7.45],[-58.65,7.52],[-58.68,7.76],[-58.9,7.83],[-58.93,8.06],[-59.15,8.13],[-59.18,8.36],[-59.4,8.43],[-59.43,8.66],[-59.65,8.73],[-59.83,8.57],[-60.04,8.64],[-60.08,8.87],[-60.29,8.94],[-60.47,8.78],[-60.68,8.85],[-60.71,9.08],[-60.53,9.23],[-60.57,9.46],[-60.78,9.52],[-60.81,9.75],[-61.02,9.82],[-61.05,10.04],[-60.88,10.2],[-60.91,10.42],[-60.73,10.57],[-60.76,10.8],[-60.58,10.95],[-60.62,11.17],[-60.44,11.33],[-60.47,11.55],[-60.68,11.61],[-60.86,11.46],[-60.83,11.24],[-61.01,11.08],[-61.22,11.15],[-61.39,10.99],[-61.6,11.05],[-61.78,10.9],[-61.99,10.96],[-62.16,10.81],[-62.37,10.87],[-62.54,10.71],[-62.75,10.78],[-62.78,10.99],[-62.98,11.06],[-63.16,10.9],[-63.36,10.96],[-63.53,10.81],[-63.74,10.87],[-63.77,11.09],[-63.59,11.24],[-63.63,11.46],[-63.83,11.52],[-64.0,11.36],[-63.97,11.15],[-64.14,10.99],[-64.34,11.06],[-64.51,10.9],[-64.48,10.69],[-64.65,10.53],[-64.85,10.59],[-65.02,10.44],[-64.99,10.22],[-65.16,10.07],[-65.37,10.17],[-65.39,10.39],[-65.6,10.49],[-65.78,10.38],[-65.98,10.49],[-66.01,10.7],[-66.22,10.81],[-66.39,10.7],[-66.6,10.8],[-66.78,10.69],[-66.98,10.8],[-67.16,10.69],[-67.37,10.79],[-67.55,10.68],[-67.76,10.78],[-67.94,10.67],[-68.15,10.78],[-68.18,10.99],[-68.0,11.11],[-68.03,11.32],[-68.23,11.43],[-68.42,11.31],[-68.63,11.42],[-68.65,11.64],[-68.47,11.75],[-68.5,11.96],[-68.71,12.07],[-68.74,12.28],[-68.95,12.38],[-68.97,12.6],[-69.18,12.7],[-69.37,12.59],[-69.34,12.38],[-69.13,12.27],[-69.1,12.06],[-68.89,11.95],[-68.86,11.74],[-69.05,11.63],[-69.26,11.73],[-69.44,11.62],[-69.65,11.72],[-69.68,11.94],[-69.5,12.05],[-69.52,12.27],[-69.73,12.37],[-69.76,12.58],[-69.97,12.69],[-70.16,12.58],[-70.13,12.36],[-70.31,12.25],[-70.29,12.04],[-70.47,11.92],[-70.45,11.71],[-70.63,11.59],[-70.61,11.38],[-70.79,11.26],[-71.01,11.37],[-71.19,11.25],[-71.41,11.36],[-71.43,11.57],[-71.25,11.69],[-71.27,11.91],[-71.09,12.02],[-71.11,12.24],[-70.93,12.35],[-70.95,12.56],[-71.16,12.67],[-71.35,12.55],[-71.56,12.66],[-71.75,12.54],[-71.97,12.65],[-72.15,12.53],[-72.13,12.32],[-72.32,12.2],[-72.29,11.99],[-72.48,11.87],[-72.7,11.98],[-72.89,11.86],[-73.1,11.96],[-73.29,11.85],[-73.27,11.63],[-73.46,11.51],[-73.68,11.62],[-73.87,11.5],[-74.09,11.6],[-74.28,11.48],[-74.25,11.26],[-74.45,11.14],[-74.66,11.25],[-74.86,11.13],[-75.08,11.23],[-75.27,11.11],[-75.25,10.89],[-75.44,10.77],[-75.66,10.87],[-75.86,10.75],[-75.83,10.53],[-76.03,10.41],[-76.01,10.18],[-76.2,10.06],[-76.18,9.83],[-75.96,9.73],[-75.93,9.5],[-76.13,9.38],[-76.35,9.48],[-76.55,9.36],[-76.53,9.13],[-76.72,9.01],[-76.7,8.78],[-76.9,8.65],[-77.12,8.75],[-77.14,8.98],[-77.36,9.09],[-77.39,9.32],[-77.61,9.42],[-77.81,9.29],[-78.03,9.4],[-78.05,9.62],[-78.27,9.73],[-78.47,9.6],[-78.7,9.7],[-78.89,9.58],[-79.12,9.68],[-79.14,9.91],[-79.36,10.01],[-79.56,9.88],[-79.78,9.98],[-79.98,9.86],[-79.96,9.63],[-80.16,9.5],[-80.14,9.28],[-80.34,9.15],[-80.57,9.25],[-80.77,9.12],[-80.99,9.22],[-81.19,9.1],[-81.42,9.2],[-81.44,9.43],[-81.66,9.53],[-81.86,9.4],[-82.09,9.5],[-82.1,9.73],[-82.33,9.83],[-82.53,9.7],[-82.75,9.8],[-82.77,10.03],[-82.99,10.13],[-83.01,10.35],[-83.23,10.45],[-83.25,10.68],[-83.47,10.78],[-83.49,11.0],[-83.71,11.1],[-83.73,11.32],[-83.53,11.45],[-83.55,11.67],[-83.35,11.8],[-83.37,12.02],[-83.16,12.14],[-82.94,12.05],[-82.74,12.17],[-82.76,12.39],[-82.98,12.49],[-83.0,12.71],[-83.22,12.8],[-83.24,13.02],[-83.46,13.12],[-83.48,13.33],[-83.28,13.46],[-83.29,13.67],[-83.09,13.79],[-83.11,14.01],[-82.91,14.13],[-82.69,14.04],[-82.49,14.16],[-82.51,14.37],[-82.73,14.46],[-82.75,14.68],[-82.97,14.77],[-82.99,14.98],[-83.21,15.08],[-83.22,15.29],[-83.41,15.4],[-83.4,15.63],[-83.2,15.75],[-83.19,15.98],[-83.37,16.09],[-83.57,15.97],[-83.59,15.74],[-83.79,15.62],[-83.98,15.73],[-83.97,15.96],[-84.16,16.08],[-84.36,15.96],[-84.55,16.07],[-84.75,15.95],[-84.95,16.06],[-84.94,16.29],[-85.13,16.41],[-85.34,16.29],[-85.35,16.05],[-85.55,15.93],[-85.75,16.04],[-85.74,16.28],[-85.53,16.4],[-85.52,16.63],[-85.72,16.75],[-85.93,16.62],[-86.13,16.74],[-86.33,16.62],[-86.53,16.73],[-86.74,16.61],[-86.75,16.37],[-86.95,16.24],[-87.16,16.36],[-87.36,16.23],[-87.57,16.34],[-87.77,16.22],[-87.98,16.33],[-87.97,16.57],[-87.76,16.69],[-87.76,16.93],[-87.55,17.06],[-87.54,17.3],[-87.33,17.42],[-87.33,17.66],[-87.53,17.78],[-87.74,17.65],[-87.95,17.77],[-87.95,18.01],[-87.73,18.13],[-87.73,18.37],[-87.52,18.5],[-87.31,18.38],[-87.1,18.5],[-87.09,18.74],[-87.3,18.86],[-87.29,19.1],[-87.08,19.22],[-87.07,19.46],[-87.28,19.58],[-87.27,19.82],[-87.06,19.94],[-87.05,20.19],[-86.84,20.31],[-86.63,20.19],[-86.42,20.31],[-86.41,20.55],[-86.62,20.67],[-86.61,20.91],[-86.4,21.03],[-86.39,21.27],[-86.6,21.39],[-86.59,21.63],[-86.8,21.76],[-87.01,21.64],[-87.22,21.76],[-87.44,21.64],[-87.65,21.76],[-87.87,21.63],[-88.09,21.76],[-88.3,21.63],[-88.52,21.75],[-88.74,21.63],[-88.95,21.75],[-89.17,21.63],[-89.39,21.75],[-89.61,21.62],[-89.83,21.74],[-90.05,21.61],[-90.05,21.37],[-90.27,21.24],[-90.49,21.36],[-90.71,21.23],[-90.71,20.98],[-90.49,20.87],[-90.49,20.62],[-90.71,20.49],[-90.71,20.25],[-90.93,20.12],[-90.93,19.87],[-91.15,19.74],[-91.15,19.5],[-91.36,19.37],[-91.36,19.12],[-91.58,18.99],[-91.8,19.1],[-92.02,18.97],[-92.24,19.09],[-92.46,18.95],[-92.68,19.07],[-92.9,18.93],[-92.9,18.69],[-93.11,18.55],[-93.34,18.67],[-93.56,18.53],[-93.78,18.65],[-94.0,18.51],[-94.22,18.62],[-94.44,18.49],[-94.67,18.6],[-94.68,18.85],[-94.91,18.96],[-95.13,18.82],[-95.36,18.93],[-95.58,18.8],[-95.81,18.91],[-95.82,19.16],[-96.05,19.27],[-96.06,19.52],[-96.29,19.63],[-96.31,19.88],[-96.54,19.99],[-96.55,20.24],[-96.79,20.36],[-96.8,20.61],[-97.04,20.72],[-97.05,20.97],[-97.29,21.09],[-97.3,21.34],[-97.08,21.48],[-97.09,21.73],[-97.33,21.84],[-97.35,22.1],[-97.59,22.21],[-97.6,22.46],[-97.37,22.6],[-97.39,22.86],[-97.63,22.97],[-97.65,23.22],[-97.42,23.36],[-97.43,23.62],[-97.68,23.73],[-97.69,23.98],[-97.46,24.12],[-97.48,24.38],[-97.25,24.52],[-97.26,24.77],[-97.51,24.88],[-97.52,25.14],[-97.29,25.28],[-97.3,25.53],[-97.07,25.67],[-97.09,25.92],[-96.85,26.06],[-96.87,26.31],[-97.11,26.43],[-97.13,26.68],[-97.38,26.8],[-97.61,26.66],[-97.86,26.78],[-98.1,26.64],[-98.08,26.38],[-98.32,26.24],[-98.57,26.36],[-98.8,26.22],[-98.78,25.96],[-99.02,25.82],[-99.27,25.94],[-99.5,25.8],[-99.75,25.91],[-99.77,26.16],[-100.03,26.28],[-100.05,26.53],[-100.3,26.64],[-100.54,26.5],[-100.79,26.61],[-101.03,26.47],[-101.01,26.21],[-101.24,26.07],[-101.22,25.81],[-100.96,25.7],[-100.73,25.84],[-100.47,25.73],[-100.45,25.48],[-100.2,25.37],[-100.18,25.11],[-99.93,25.0],[-99.91,24.75],[-99.66,24.63],[-99.64,24.38],[-99.87,24.24],[-99.85,23.98],[-99.6,23.87],[-99.58,23.61],[-99.81,23.47],[-100.06,23.58],[-100.28,23.44],[-100.53,23.55],[-100.76,23.4],[-100.74,23.15],[-100.97,23.0],[-100.95,22.75],[-101.17,22.6],[-101.42,22.71],[-101.45,22.96],[-101.7,23.07],[-101.92,22.93],[-102.17,23.03],[-102.2,23.29],[-102.45,23.4],[-102.48,23.65],[-102.73,23.76],[-102.76,24.01],[-103.01,24.12],[-103.04,24.38],[-103.29,24.48],[-103.32,24.74],[-103.58,24.85],[-103.81,24.7],[-104.07,24.8],[-104.09,25.06],[-104.35,25.16],[-104.38,25.42],[-104.15,25.57],[-104.18,25.83],[-104.44,25.93],[-104.47,26.19],[-104.73,26.29],[-104.77,26.55],[-105.03,26.65],[-105.06,26.91],[-105.32,27.01],[-105.36,27.27],[-105.62,27.37],[-105.85,27.22],[-106.12,27.32],[-106.15,27.57],[-105.92,27.73],[-105.95,27.98],[-106.22,28.08],[-106.26,28.34],[-106.52,28.44],[-106.56,28.7],[-106.83,28.8],[-106.86,29.05],[-107.14,29.15],[-107.17,29.41],[-107.44,29.5],[-107.68,29.35],[-107.64,29.1],[-107.87,28.94],[-108.15,29.04],[-108.18,29.29],[-108.46,29.39],[-108.5,29.64],[-108.26,29.8],[-108.3,30.05],[-108.58,30.15],[-108.81,29.99],[-108.77,29.74],[-109.0,29.58],[-108.96,29.33],[-109.2,29.17],[-109.47,29.27],[-109.51,29.52],[-109.78,29.62],[-110.02,29.46],[-110.29,29.55],[-110.52,29.39],[-110.48,29.14],[-110.71,28.98],[-110.98,29.07],[-111.21,28.91],[-111.48,29.0],[-111.71,28.84],[-111.66,28.59],[-111.39,28.49],[-111.35,28.24],[-111.07,28.15],[-111.03,27.9],[-110.76,27.8],[-110.72,27.55],[-110.45,27.46],[-110.4,27.2],[-110.13,27.11],[-110.09,26.85],[-109.82,26.76],[-109.78,26.5],[-109.52,26.41],[-109.48,26.15],[-109.7,25.99],[-109.66,25.74],[-109.4,25.64],[-109.36,25.39],[-109.09,25.29],[-108.87,25.45],[-108.6,25.35],[-108.56,25.1],[-108.3,25.0],[-108.26,24.74],[-108.0,24.64],[-107.96,24.39],[-107.7,24.29],[-107.67,24.03],[-107.41,23.93],[-107.37,23.68],[-107.11,23.58],[-107.08,23.32],[-106.82,23.22],[-106.78,22.97],[-106.53,22.87],[-106.49,22.61],[-106.24,22.51],[-106.2,22.25],[-105.95,22.15],[-105.92,21.9],[-105.66,21.79],[-105.63,21.54],[-105.38,21.44],[-105.35,21.18],[-105.57,21.03],[-105.82,21.13],[-105.85,21.39],[-106.11,21.49],[-106.14,21.74],[-106.39,21.84],[-106.43,22.1],[-106.68,22.2],[-106.9,22.04],[-106.87,21.79],[-107.09,21.63],[-107.06,21.38],[-106.8,21.28],[-106.58,21.43],[-106.33,21.33],[-106.29,21.08],[-106.04,20.98],[-106.01,20.72],[-106.23,20.57],[-106.2,20.31],[-105.95,20.21],[-105.91,19.96],[-105.66,19.86],[-105.63,19.6],[-105.38,19.5],[-105.35,19.25],[-105.11,19.15],[-105.08,18.89],[-104.83,18.79],[-104.61,18.94],[-104.36,18.84],[-104.33,18.59],[-104.09,18.49],[-103.87,18.64],[-103.63,18.53],[-103.6,18.28],[-103.35,18.18],[-103.33,17.92],[-103.09,17.82],[-102.87,17.97],[-102.62,17.87],[-102.6,17.61],[-102.36,17.51],[-102.14,17.66],[-101.9,17.56],[-101.88,17.3],[-101.64,17.2],[-101.42,17.35],[-101.18,17.24],[-101.16,16.99],[-100.92,16.89],[-100.7,17.03],[-100.47,16.93],[-100.45,16.68],[-100.21,16.57],[-99.99,16.72],[-99.76,16.61],[-99.74,16.36],[-99.5,16.26],[-99.29,16.4],[-99.05,16.3],[-98.84,16.44],[-98.61,16.33],[-98.59,16.08],[-98.36,15.98],[-98.14,16.12],[-97.91,16.01],[-97.9,15.77],[-97.67,15.66],[-97.45,15.8],[-97.22,15.7],[-97.21,15.45],[-96.98,15.34],[-96.77,15.48],[-96.54,15.38],[-96.33,15.52],[-96.1,15.41],[-95.89,15.55],[-95.66,15.44],[-95.45,15.58],[-95.46,15.83],[-95.24,15.96],[-95.02,15.86],[-94.8,15.99],[-94.58,15.88],[-94.37,16.02],[-94.14,15.91],[-94.14,15.67],[-93.92,15.56],[-93.7,15.69],[-93.48,15.59],[-93.48,15.34],[-93.26,15.24],[-93.25,14.99],[-93.04,14.88],[-93.03,14.64],[-92.81,14.54],[-92.6,14.67],[-92.39,14.56],[-92.39,14.32],[-92.17,14.21],[-92.17,13.97],[-91.96,13.87],[-91.75,14.0],[-91.53,13.89],[-91.53,13.66],[-91.32,13.55],[-91.11,13.68],[-90.91,13.58],[-90.7,13.71],[-90.49,13.6],[-90.28,13.73],[-90.08,13.62],[-90.08,13.39],[-89.87,13.28],[-89.66,13.41],[-89.46,13.3],[-89.25,13.43],[-89.05,13.33],[-89.05,13.09],[-88.85,12.99],[-88.65,13.12],[-88.45,13.01],[-88.24,13.14],[-88.04,13.03],[-88.05,12.8],[-87.85,12.69],[-87.85,12.46],[-87.63,12.37],[-87.43,12.5],[-87.21,12.4],[-87.2,12.18],[-86.98,12.09],[-86.96,11.87],[-86.74,11.77],[-86.73,11.55],[-86.51,11.46],[-86.49,11.23],[-86.27,11.14],[-86.26,10.92],[-86.04,10.82],[-86.02,10.59],[-86.22,10.47],[-86.21,10.24],[-85.99,10.14],[-85.97,9.92],[-85.75,9.82],[-85.73,9.59],[-85.51,9.49],[-85.49,9.26],[-85.27,9.16],[-85.07,9.29],[-85.08,9.52],[-84.88,9.65],[-84.66,9.55],[-84.64,9.32],[-84.42,9.23],[-84.21,9.36],[-83.99,9.26],[-83.97,9.03],[-84.18,8.9],[-84.16,8.66],[-83.94,8.56],[-83.92,8.33],[-83.7,8.23],[-83.49,8.36],[-83.27,8.26],[-83.25,8.03],[-83.03,7.93],[-82.82,8.06],[-82.6,7.96],[-82.58,7.72],[-82.35,7.62],[-82.33,7.39],[-82.11,7.28],[-82.09,7.05],[-81.87,6.95],[-81.66,7.08],[-81.44,6.97],[-81.23,7.11],[-81.01,7.0],[-80.81,7.13],[-80.58,7.03],[-80.38,7.16],[-80.15,7.06],[-79.95,7.19],[-79.97,7.42],[-79.77,7.55],[-79.79,7.79],[-80.02,7.89],[-80.04,8.12],[-79.83,8.25],[-79.61,8.15],[-79.41,8.28],[-79.19,8.17],[-79.17,7.94],[-78.94,7.84],[-78.74,7.97],[-78.52,7.86],[-78.5,7.63],[-78.27,7.53],[-78.25,7.29],[-78.03,7.19],[-78.0,6.95],[-77.78,6.85],[-77.76,6.61],[-77.53,6.51],[-77.51,6.27],[-77.71,6.14],[-77.69,5.91],[-77.89,5.77],[-77.87,5.54],[-77.64,5.43],[-77.62,5.19],[-77.82,5.06],[-77.8,4.82],[-77.57,4.71],[-77.55,4.48],[-77.75,4.34],[-77.73,4.1],[-77.5,3.99],[-77.48,3.75],[-77.68,3.62],[-77.66,3.38],[-77.86,3.24],[-78.09,3.35],[-78.29,3.21],[-78.27,2.97],[-78.47,2.83],[-78.7,2.94],[-78.9,2.8],[-78.88,2.56],[-79.09,2.42],[-79.06,2.18],[-79.27,2.04],[-79.25,1.79],[-79.45,1.65],[-79.43,1.41],[-79.64,1.27],[-79.86,1.38],[-80.07,1.24],[-80.05,0.99],[-80.26,0.85],[-80.23,0.6],[-80.44,0.46],[-80.42,0.21],[-80.63,0.07],[-80.61,-0.18],[-80.81,-0.32],[-80.79,-0.57],[-81.0,-0.71],[-80.98,-0.96],[-81.19,-1.1],[-81.17,-1.35],[-80.94,-1.46],[-80.92,-1.71],[-81.12,-1.86],[-81.1,-2.11],[-81.31,-2.25],[-81.29,-2.5],[-81.06,-2.61],[-80.85,-2.47],[-80.62,-2.58],[-80.6,-2.83],[-80.37,-2.94],[-80.35,-3.19],[-80.56,-3.34],[-80.79,-3.23],[-81.0,-3.37],[-80.98,-3.62],[-81.19,-3.77],[-81.17,-4.02],[-81.38,-4.17],[-81.36,-4.42],[-81.12,-4.53],[-81.1,-4.79],[-81.31,-4.93],[-81.29,-5.19],[-81.06,-5.3],[-81.04,-5.55],[-80.8,-5.66],[-80.78,-5.92],[-80.55,-6.03],[-80.53,-6.28],[-80.29,-6.39],[-80.27,-6.65],[-80.04,-6.76],[-80.02,-7.01],[-79.78,-7.12],[-79.76,-7.38],[-79.52,-7.49],[-79.5,-7.74],[-79.27,-7.85],[-79.24,-8.11],[-79.01,-8.22],[-78.99,-8.47],[-78.75,-8.58],[-78.73,-8.84],[-78.94,-8.98],[-78.92,-9.24],[-78.68,-9.35],[-78.66,-9.6],[-78.42,-9.71],[-78.4,-9.97],[-78.16,-10.07],[-77.95,-9.93],[-77.98,-9.67],[-78.21,-9.56],[-78.24,-9.31],[-78.47,-9.2],[-78.49,-8.94],[-78.28,-8.8],[-78.31,-8.54],[-78.54,-8.43],[-78.56,-8.18],[-78.8,-8.07],[-78.82,-7.81],[-79.06,-7.7],[-79.08,-7.45],[-79.31,-7.34],[-79.34,-7.08],[-79.12,-6.94],[-79.15,-6.68],[-79.38,-6.57],[-79.4,-6.32],[-79.64,-6.21],[-79.66,-5.95],[-79.45,-5.81],[-79.22,-5.92],[-79.19,-6.17],[-78.96,-6.28],[-78.75,-6.13],[-78.52,-6.24],[-78.49,-6.5],[-78.26,-6.61],[-78.05,-6.46],[-78.07,-6.21],[-77.87,-6.06],[-77.63,-6.17],[-77.61,-6.42],[-77.82,-6.57],[-77.79,-6.82],[-77.56,-6.93],[-77.54,-7.19],[-77.3,-7.29],[-77.28,-7.55],[-77.05,-7.66],[-77.02,-7.91],[-76.79,-8.02],[-76.76,-8.27],[-76.97,-8.42],[-76.95,-8.67],[-76.71,-8.78],[-76.69,-9.04],[-76.46,-9.14],[-76.43,-9.4],[-76.2,-9.5],[-76.17,-9.76],[-75.94,-9.86],[-75.91,-10.12],[-75.68,-10.22],[-75.65,-10.48],[-75.42,-10.58],[-75.39,-10.83],[-75.6,-10.98],[-75.58,-11.24],[-75.34,-11.34],[-75.13,-11.19],[-74.9,-11.3],[-74.87,-11.55],[-74.64,-11.65],[-74.61,-11.9],[-74.82,-12.06],[-74.79,-12.31],[-74.56,-12.41],[-74.35,-12.26],[-74.12,-12.36],[-74.09,-12.61],[-73.85,-12.72],[-73.83,-12.97],[-73.59,-13.07],[-73.57,-13.32],[-73.33,-13.42],[-73.13,-13.27],[-73.15,-13.02],[-72.95,-12.87],[-72.71,-12.97],[-72.69,-13.22],[-72.45,-13.32],[-72.25,-13.16],[-72.28,-12.91],[-72.07,-12.76],[-71.84,-12.86],[-71.81,-13.11],[-71.58,-13.21],[-71.55,-13.46],[-71.32,-13.56],[-71.12,-13.4],[-70.89,-13.5],[-70.86,-13.75],[-70.63,-13.85],[-70.42,-13.69],[-70.19,-13.79],[-70.16,-14.04],[-69.93,-14.13],[-69.73,-13.98],[-69.5,-14.07],[-69.47,-14.32],[-69.25,-14.42],[-69.22,-14.66],[-68.99,-14.75],[-68.96,-15.0],[-68.73,-15.09],[-68.7,-15.34],[-68.9,-15.49],[-68.87,-15.73],[-68.64,-15.83],[-68.44,-15.67],[-68.21,-15.76],[-68.18,-16.01],[-67.95,-16.1],[-67.92,-16.34],[-67.69,-16.43],[-67.66,-16.67],[-67.43,-16.76],[-67.24,-16.6],[-67.01,-16.69],[-66.98,-16.93],[-66.75,-17.02],[-66.56,-16.86],[-66.33,-16.95],[-66.14,-16.8],[-65.91,-16.88],[-65.88,-17.12],[-65.66,-17.21],[-65.63,-17.44],[-65.4,-17.53],[-65.21,-17.37],[-64.99,-17.46],[-64.96,-17.69],[-65.15,-17.85],[-65.37,-17.77],[-65.56,-17.92],[-65.53,-18.16],[-65.31,-18.24],[-65.27,-18.48],[-65.05,-18.56],[-65.02,-18.79],[-64.79,-18.87],[-64.6,-18.72],[-64.38,-18.8],[-64.35,-19.03],[-64.13,-19.11],[-64.09,-19.35],[-64.28,-19.5],[-64.25,-19.73],[-64.03,-19.81],[-63.99,-20.05],[-64.18,-20.2],[-64.15,-20.43],[-64.34,-20.59],[-64.31,-20.82],[-64.09,-20.9],[-64.05,-21.13],[-64.24,-21.28],[-64.21,-21.51],[-63.99,-21.59],[-63.95,-21.82],[-64.15,-21.97],[-64.37,-21.9],[-64.56,-22.05],[-64.53,-22.28],[-64.72,-22.44],[-64.69,-22.67],[-64.46,-22.74],[-64.43,-22.97],[-64.21,-23.04],[-64.17,-23.27],[-63.95,-23.34],[-63.76,-23.18],[-63.53,-23.25],[-63.5,-23.48],[-63.27,-23.55],[-63.24,-23.77],[-63.02,-23.84],[-62.98,-24.07],[-62.76,-24.13],[-62.73,-24.36],[-62.5,-24.42],[-62.32,-24.27],[-62.09,-24.33],[-62.06,-24.55],[-61.84,-24.62],[-61.8,-24.84],[-61.99,-24.99],[-61.96,-25.21],[-61.74,-25.28],[-61.7,-25.49],[-61.48,-25.56],[-61.45,-25.77],[-61.23,-25.84],[-61.19,-26.05],[-61.38,-26.21],[-61.34,-26.42],[-61.12,-26.48],[-61.09,-26.7],[-60.87,-26.76],[-60.83,-26.97],[-61.02,-27.13],[-60.98,-27.34],[-60.76,-27.39],[-60.73,-27.61],[-60.91,-27.76],[-60.88,-27.97],[-60.66,-28.03],[-60.62,-28.24],[-60.4,-28.29],[-60.37,-28.5],[-60.15,-28.56],[-60.11,-28.76],[-59.89,-28.82],[-59.71,-28.66],[-59.48,-28.76],[-59.45,-28.97],[-59.22,-29.07],[-59.03,-28.96],[-58.8,-29.06],[-58.6,-28.96],[-58.37,-29.06],[-58.18,-28.95],[-57.95,-29.05],[-57.75,-28.94],[-57.79,-28.73],[-57.6,-28.62],[-57.36,-28.72],[-57.17,-28.61],[-56.94,-28.71],[-56.9,-28.92],[-56.66,-29.01],[-56.47,-28.9],[-56.23,-29.0],[-56.03,-28.89],[-55.8,-28.99],[-55.6,-28.87],[-55.36,-28.97],[-55.17,-28.85],[-54.93,-28.95],[-54.73,-28.84],[-54.77,-28.63],[-54.57,-28.51],[-54.61,-28.3],[-54.85,-28.2],[-54.88,-27.99],[-54.69,-27.87],[-54.45,-27.97],[-54.25,-27.85],[-54.29,-27.64],[-54.09,-27.52],[-54.13,-27.3],[-53.93,-27.18],[-53.69,-27.28],[-53.49,-27.16],[-53.53,-26.94],[-53.77,-26.85],[-53.97,-26.97],[-54.21,-26.87],[-54.24,-26.65],[-54.05,-26.53],[-54.08,-26.32],[-53.89,-26.19],[-53.65,-26.29],[-53.45,-26.16],[-53.49,-25.95],[-53.29,-25.82],[-53.05,-25.91],[-52.85,-25.79],[-52.89,-25.57],[-52.69,-25.44],[-52.73,-25.22],[-52.52,-25.09],[-52.28,-25.19],[-52.08,-25.06],[-52.12,-24.84],[-51.92,-24.71],[-51.68,-24.8],[-51.48,-24.67],[-51.24,-24.76],[-51.03,-24.63],[-50.79,-24.72],[-50.59,-24.59],[-50.63,-24.36],[-50.43,-24.23],[-50.19,-24.32],[-49.98,-24.19],[-49.74,-24.28],[-49.54,-24.14],[-49.29,-24.23],[-49.09,-24.1],[-48.84,-24.19],[-48.64,-24.05],[-48.39,-24.14],[-48.35,-24.37],[-48.55,-24.5],[-48.8,-24.41],[-49.0,-24.55],[-48.96,-24.77],[-48.72,-24.86],[-48.67,-25.09],[-48.88,-25.22],[-48.83,-25.44],[-49.04,-25.58],[-49.0,-25.8],[-48.75,-25.89],[-48.71,-26.11],[-48.91,-26.24],[-49.16,-26.15],[-49.36,-26.28],[-49.32,-26.5],[-49.07,-26.59],[-49.03,-26.81],[-49.24,-26.94],[-49.19,-27.16]],[[-78.13,-0.87],[-78.1,-1.12],[-78.31,-1.26],[-78.54,-1.15],[-78.75,-1.29],[-78.72,-1.55],[-78.49,-1.65],[-78.47,-1.9],[-78.24,-2.01],[-78.22,-2.26],[-78.43,-2.41],[-78.66,-2.3],[-78.68,-2.05],[-78.91,-1.94],[-78.93,-1.69],[-79.16,-1.58],[-79.18,-1.33],[-78.98,-1.19],[-79.0,-0.94],[-78.79,-0.79],[-78.82,-0.55],[-78.61,-0.4],[-78.38,-0.51],[-78.17,-0.37],[-77.95,-0.48],[-77.92,-0.73],[-78.13,-0.87]],[[-65.37,5.84],[-65.16,5.73],[-65.13,5.51],[-65.31,5.38],[-65.51,5.49],[-65.54,5.72],[-65.37,5.84]],[[-76.66,1.97],[-76.68,2.22],[-76.48,2.36],[-76.51,2.6],[-76.3,2.73],[-76.33,2.98],[-76.13,3.11],[-76.15,3.35],[-75.95,3.49],[-75.73,3.38],[-75.7,3.14],[-75.9,3.01],[-75.88,2.76],[-76.08,2.63],[-76.05,2.38],[-76.26,2.25],[-76.23,2.0],[-76.43,1.87],[-76.41,1.62],[-76.61,1.48],[-76.84,1.59],[-76.86,1.84],[-76.66,1.97]],[[-60.48,4.62],[-60.66,4.47],[-60.87,4.54],[-60.91,4.78],[-61.12,4.85],[-61.3,4.7],[-61.51,4.77],[-61.54,5.0],[-61.75,5.08],[-61.93,4.92],[-62.14,5.0],[-62.17,5.23],[-62.38,5.3],[-62.41,5.53],[-62.62,5.6],[-62.65,5.83],[-62.47,5.99],[-62.26,5.92],[-62.09,6.07],[-61.88,6.0],[-61.7,6.16],[-61.49,6.08],[-61.46,5.85],[-61.25,5.78],[-61.22,5.55],[-61.0,5.47],[-60.97,5.24],[-60.76,5.17],[-60.58,5.32],[-60.37,5.25],[-60.18,5.41],[-59.97,5.33],[-59.94,5.1],[-60.12,4.94],[-60.33,5.02],[-60.51,4.86],[-60.48,4.62]],[[-72.35,7.14],[-72.32,6.91],[-72.1,6.8],[-72.07,6.57],[-71.86,6.47],[-71.83,6.23],[-72.02,6.11],[-72.24,6.21],[-72.43,6.09],[-72.41,5.85],[-72.6,5.72],[-72.57,5.49],[-72.77,5.36],[-72.74,5.12],[-72.94,5.0],[-73.16,5.1],[-73.35,4.97],[-73.33,4.73],[-73.52,4.6],[-73.5,4.37],[-73.69,4.23],[-73.67,4.0],[-73.86,3.86],[-73.84,3.62],[-74.04,3.49],[-74.26,3.6],[-74.46,3.46],[-74.68,3.57],[-74.71,3.81],[-74.51,3.94],[-74.53,4.18],[-74.33,4.32],[-74.36,4.55],[-74.58,4.66],[-74.61,4.9],[-74.41,5.03],[-74.44,5.27],[-74.24,5.4],[-74.02,5.29],[-73.82,5.42],[-73.85,5.66],[-74.07,5.76],[-74.09,6.0],[-73.9,6.13],[-73.68,6.02],[-73.48,6.15],[-73.51,6.38],[-73.31,6.51],[-73.09,6.4],[-72.9,6.53],[-72.92,6.76],[-73.14,6.87],[-73.17,7.1],[-72.98,7.23],[-73.0,7.46],[-73.22,7.56],[-73.25,7.79],[-73.47,7.9],[-73.49,8.13],[-73.3,8.25],[-73.08,8.15],[-73.05,7.92],[-72.83,7.81],[-72.81,7.58],[-72.59,7.48],[-72.4,7.6],[-72.18,7.49],[-72.15,7.26],[-72.35,7.14]],[[-75.23,6.76],[-75.42,6.63],[-75.4,6.4],[-75.18,6.29],[-75.15,6.06],[-75.35,5.93],[-75.57,6.03],[-75.6,6.27],[-75.82,6.37],[-76.02,6.24],[-76.24,6.35],[-76.26,6.58],[-76.07,6.71],[-75.84,6.61],[-75.65,6.74],[-75.67,6.97],[-75.47,7.1],[-75.25,6.99],[-75.23,6.76]],[[-74.01,10.94],[-74.04,11.16],[-73.84,11.28],[-73.63,11.17],[-73.6,10.95],[-73.38,10.85],[-73.36,10.63],[-73.55,10.51],[-73.77,10.61],[-73.96,10.49],[-74.18,10.6],[-74.2,10.82],[-74.01,10.94]],[[-65.19,4.47],[-64.98,4.37],[-64.8,4.49],[-64.6,4.39],[-64.57,4.16],[-64.74,4.03],[-64.95,4.14],[-65.13,4.01],[-65.34,4.12],[-65.37,4.35],[-65.19,4.47]],[[-70.55,9.27],[-70.36,9.39],[-70.39,9.61],[-70.2,9.73],[-70.23,9.95],[-70.05,10.07],[-69.83,9.96],[-69.8,9.74],[-69.99,9.62],[-69.96,9.4],[-70.15,9.28],[-70.12,9.06],[-70.31,8.94],[-70.52,9.05],[-70.71,8.93],[-70.69,8.7],[-70.87,8.58],[-70.85,8.35],[-71.04,8.23],[-71.01,8.01],[-71.2,7.88],[-71.42,7.99],[-71.61,7.87],[-71.82,7.97],[-72.01,7.85],[-72.23,7.95],[-72.26,8.18],[-72.07,8.3],[-71.85,8.2],[-71.66,8.32],[-71.69,8.55],[-71.5,8.67],[-71.52,8.9],[-71.33,9.02],[-71.12,8.91],[-70.93,9.03],[-70.95,9.26],[-70.77,9.38],[-70.55,9.27]],[[-54.56,-27.33],[-54.8,-27.23],[-54.84,-27.02],[-54.64,-26.9],[-54.4,-26.99],[-54.37,-27.21],[-54.56,-27.33]],[[-45.7,-18.81],[-45.94,-18.72],[-45.99,-18.48],[-45.79,-18.33],[-45.83,-18.09],[-46.07,-18.0],[-46.12,-17.76],[-45.92,-17.61],[-45.67,-17.7],[-45.47,-17.54],[-45.51,-17.3],[-45.31,-17.15],[-45.06,-17.24],[-45.02,-17.48],[-45.22,-17.63],[-45.18,-17.87],[-45.38,-18.03],[-45.34,-18.27],[-45.54,-18.42],[-45.5,-18.66],[-45.7,-18.81]],[[-77.88,1.15],[-77.65,1.04],[-77.45,1.18],[-77.22,1.07],[-77.2,0.82],[-77.4,0.68],[-77.63,0.79],[-77.83,0.65],[-78.06,0.76],[-78.08,1.01],[-77.88,1.15]],[[-44.15,-12.04],[-43.9,-12.13],[-43.86,-12.38],[-44.06,-12.54],[-44.01,-12.78],[-44.22,-12.94],[-44.46,-12.86],[-44.5,-12.61],[-44.3,-12.45],[-44.35,-12.2],[-44.15,-12.04]],[[-66.62,4.98],[-66.6,4.75],[-66.78,4.62],[-66.99,4.73],[-67.02,4.96],[-66.84,5.08],[-66.62,4.98]],[[-44.11,-14.84],[-44.07,-15.08],[-44.27,-15.24],[-44.51,-15.15],[-44.72,-15.31],[-44.96,-15.22],[-45.01,-14.97],[-44.8,-14.82],[-44.56,-14.91],[-44.36,-14.75],[-44.11,-14.84]],[[-71.36,9.24],[-71.57,9.35],[-71.6,9.57],[-71.82,9.68],[-71.84,9.9],[-71.65,10.02],[-71.44,9.91],[-71.41,9.69],[-71.2,9.59],[-71.17,9.36],[-71.36,9.24]],[[-46.11,-13.87],[-46.16,-13.63],[-45.96,-13.47],[-45.71,-13.56],[-45.67,-13.81],[-45.87,-13.96],[-45.83,-14.21],[-45.58,-14.3],[-45.54,-14.55],[-45.74,-14.7],[-45.99,-14.61],[-46.03,-14.37],[-46.27,-14.28],[-46.32,-14.03],[-46.11,-13.87]],[[-64.18,2.67],[-64.38,2.78],[-64.41,3.01],[-64.24,3.14],[-64.03,3.06],[-64.0,2.83],[-64.18,2.67]],[[-79.03,-3.09],[-79.23,-3.23],[-79.47,-3.12],[-79.49,-2.87],[-79.28,-2.73],[-79.05,-2.84],[-79.03,-3.09]],[[-75.25,4.98],[-75.03,4.87],[-75.0,4.63],[-75.2,4.5],[-75.18,4.26],[-75.38,4.13],[-75.35,3.89],[-75.55,3.76],[-75.78,3.86],[-75.98,3.73],[-76.2,3.84],[-76.22,4.08],[-76.02,4.21],[-75.8,4.1],[-75.6,4.24],[-75.62,4.48],[-75.43,4.61],[-75.45,4.85],[-75.67,4.95],[-75.7,5.19],[-75.5,5.32],[-75.52,5.56],[-75.33,5.69],[-75.1,5.58],[-75.08,5.35],[-75.28,5.22],[-75.25,4.98]],[[-86.55,16.26],[-86.34,16.38],[-86.14,16.27],[-86.15,16.03],[-86.36,15.91],[-86.55,16.02],[-86.55,16.26]],[[-106.25,26.4],[-106.22,26.14],[-106.44,25.99],[-106.71,26.09],[-106.74,26.35],[-106.51,26.5],[-106.25,26.4]],[[-74.63,3.09],[-74.61,2.85],[-74.8,2.71],[-75.03,2.82],[-75.05,3.06],[-74.85,3.2],[-74.63,3.09]],[[-61.54,10.61],[-61.51,10.39],[-61.68,10.24],[-61.89,10.3],[-62.07,10.15],[-62.27,10.21],[-62.3,10.43],[-62.13,10.59],[-61.92,10.52],[-61.75,10.68],[-61.54,10.61]],[[-107.26,28.23],[-107.22,27.98],[-107.46,27.82],[-107.72,27.92],[-107.76,28.18],[-107.53,28.33],[-107.26,28.23]],[[-79.28,-5.15],[-79.26,-5.41],[-79.47,-5.55],[-79.7,-5.44],[-79.73,-5.19],[-79.52,-5.04],[-79.28,-5.15]],[[-73.14,10.52],[-72.95,10.64],[-72.73,10.54],[-72.71,10.32],[-72.9,10.2],[-72.87,9.97],[-73.07,9.85],[-73.28,9.96],[-73.31,10.18],[-73.12,10.3],[-73.14,10.52]]],[[[-51.91,-31.81],[-51.96,-31.61],[-51.75,-31.5],[-51.79,-31.29],[-51.59,-31.18],[-51.63,-30.98],[-51.43,-30.86],[-51.47,-30.65],[-51.26,-30.54],[-51.02,-30.63],[-50.98,-30.83],[-51.18,-30.95],[-51.14,-31.15],[-51.34,-31.27],[-51.3,-31.47],[-51.06,-31.56],[-50.85,-31.44],[-50.89,-31.24],[-50.69,-31.12],[-50.73,-30.92],[-50.53,-30.8],[-50.57,-30.6],[-50.36,-30.48],[-50.41,-30.27],[-50.2,-30.15],[-50.24,-29.94],[-50.49,-29.86],[-50.53,-29.65],[-50.78,-29.56],[-50.98,-29.68],[-51.23,-29.59],[-51.43,-29.71],[-51.67,-29.62],[-51.71,-29.41],[-51.96,-29.32],[-52.16,-29.44],[-52.12,-29.65],[-52.32,-29.77],[-52.56,-29.67],[-52.77,-29.79],[-53.01,-29.7],[-53.21,-29.81],[-53.45,-29.72],[-53.65,-29.84],[-53.61,-30.04],[-53.37,-30.14],[-53.33,-30.34],[-53.09,-30.43],[-52.89,-30.32],[-52.65,-30.41],[-52.44,-30.3],[-52.2,-30.39],[-52.0,-30.27],[-51.75,-30.36],[-51.71,-30.57],[-51.92,-30.68],[-51.87,-30.89],[-52.08,-31.0],[-52.04,-31.2],[-52.24,-31.32],[-52.2,-31.52],[-52.4,-31.63],[-52.36,-31.84],[-52.56,-31.95],[-52.52,-32.15],[-52.28,-32.24],[-52.08,-32.12],[-52.12,-31.92],[-51.91,-31.81]]],[[[-80.23,26.73],[-80.25,26.5],[-80.06,26.37],[-79.85,26.47],[-79.83,26.7],[-80.02,26.83],[-80.23,26.73]]],[[[-109.64,24.05],[-109.42,24.21],[-109.46,24.46],[-109.72,24.56],[-109.94,24.4],[-110.21,24.49],[-110.43,24.33],[-110.69,24.43],[-110.73,24.68],[-111.0,24.78],[-111.22,24.61],[-111.18,24.36],[-111.4,24.2],[-111.35,23.94],[-111.09,23.85],[-111.05,23.6],[-110.79,23.5],[-110.74,23.25],[-110.48,23.15],[-110.44,22.9],[-110.18,22.8],[-110.14,22.55],[-109.88,22.45],[-109.66,22.61],[-109.7,22.87],[-109.48,23.03],[-109.22,22.93],[-109.0,23.09],[-109.04,23.34],[-109.3,23.44],[-109.34,23.7],[-109.6,23.79],[-109.64,24.05]]],[[[-83.87,17.83],[-84.07,17.71],[-84.09,17.47],[-84.29,17.36],[-84.3,17.12],[-84.11,17.01],[-83.91,17.13],[-83.89,17.36],[-83.69,17.48],[-83.68,17.71],[-83.87,17.83]]],[[[-72.12,-16.3],[-72.09,-16.55],[-71.85,-16.65],[-71.65,-16.49],[-71.68,-16.25],[-71.91,-16.15],[-72.12,-16.3]]],[[[-42.12,-19.38],[-41.92,-19.23],[-41.67,-19.31],[-41.47,-19.16],[-41.51,-18.92],[-41.76,-18.83],[-41.81,-18.6],[-42.05,-18.51],[-42.26,-18.67],[-42.21,-18.91],[-42.41,-19.06],[-42.37,-19.3],[-42.57,-19.45],[-42.53,-19.69],[-42.73,-19.84],[-42.69,-20.08],[-42.44,-20.16],[-42.24,-20.01],[-42.28,-19.77],[-42.08,-19.62],[-42.12,-19.38]]],[[[-78.09,-10.84],[-78.07,-11.1],[-77.83,-11.2],[-77.81,-11.46],[-77.57,-11.56],[-77.55,-11.82],[-77.31,-11.92],[-77.29,-12.18],[-77.05,-12.28],[-77.02,-12.54],[-76.79,-12.64],[-76.76,-12.9],[-76.53,-13.0],[-76.5,-13.26],[-76.26,-13.36],[-76.05,-13.21],[-76.08,-12.96],[-76.31,-12.85],[-76.34,-12.6],[-76.58,-12.49],[-76.6,-12.24],[-76.84,-12.13],[-76.86,-11.88],[-77.1,-11.78],[-77.12,-11.52],[-77.36,-11.41],[-77.38,-11.16],[-77.62,-11.05],[-77.64,-10.8],[-77.43,-10.65],[-77.46,-10.39],[-77.69,-10.29],[-77.9,-10.44],[-78.14,-10.33],[-78.35,-10.48],[-78.33,-10.73],[-78.09,-10.84]]],[[[-112.14,24.22],[-111.88,24.13],[-111.66,24.29],[-111.7,24.55],[-111.97,24.64],[-112.19,24.47],[-112.14,24.22]]],[[[-80.29,26.03],[-80.31,25.8],[-80.52,25.7],[-80.54,25.47],[-80.35,25.34],[-80.14,25.44],[-80.12,25.67],[-79.91,25.77],[-79.89,26.0],[-80.08,26.13],[-80.29,26.03]]],[[[-76.91,18.45],[-77.1,18.35],[-77.31,18.44],[-77.51,18.33],[-77.72,18.43],[-77.7,18.65],[-77.87,18.77],[-78.06,18.66],[-78.09,18.44],[-78.28,18.33],[-78.45,18.45],[-78.65,18.34],[-78.67,18.12],[-78.5,18.0],[-78.3,18.11],[-78.09,18.02],[-78.06,17.82],[-77.85,17.72],[-77.66,17.83],[-77.44,17.73],[-77.42,17.53],[-77.2,17.44],[-77.01,17.55],[-77.03,17.75],[-76.84,17.85],[-76.63,17.76],[-76.43,17.86],[-76.46,18.06],[-76.67,18.16],[-76.69,18.36],[-76.91,18.45]]],[[[-91.82,20.58],[-92.04,20.45],[-92.03,20.21],[-91.81,20.09],[-91.59,20.22],[-91.59,20.47],[-91.82,20.58]]],[[[-42.18,-2.33],[-42.37,-2.5],[-42.62,-2.41],[-42.81,-2.57],[-42.77,-2.83],[-42.53,-2.92],[-42.33,-2.75],[-42.09,-2.84],[-41.89,-2.68],[-41.93,-2.42],[-42.18,-2.33]]],[[[-61.97,12.21],[-61.94,11.99],[-61.73,11.93],[-61.55,12.08],[-61.58,12.3],[-61.79,12.36],[-61.97,12.21]]],[[[-81.9,12.22],[-81.68,12.13],[-81.48,12.25],[-81.5,12.47],[-81.72,12.57],[-81.74,12.79],[-81.96,12.88],[-82.16,12.76],[-82.14,12.54],[-81.92,12.44],[-81.9,12.22]]],[[[-86.71,5.28],[-86.73,5.52],[-86.95,5.62],[-86.97,5.86],[-87.19,5.96],[-87.4,5.83],[-87.38,5.59],[-87.16,5.49],[-87.14,5.25],[-86.92,5.15],[-86.71,5.28]]],[[[-109.95,30.63],[-109.72,30.78],[-109.76,31.04],[-109.53,31.19],[-109.57,31.44],[-109.33,31.6],[-109.38,31.85],[-109.66,31.95],[-109.7,32.2],[-109.98,32.29],[-110.02,32.54],[-110.3,32.63],[-110.54,32.47],[-110.82,32.57],[-110.87,32.81],[-111.15,32.9],[-111.2,33.15],[-111.48,33.24],[-111.53,33.49],[-111.81,33.58],[-111.86,33.83],[-112.15,33.91],[-112.38,33.75],[-112.67,33.84],[-112.9,33.68],[-112.85,33.43],[-112.57,33.34],[-112.33,33.5],[-112.05,33.42],[-112.0,33.17],[-111.72,33.08],[-111.67,32.83],[-111.39,32.75],[-111.34,32.5],[-111.57,32.34],[-111.86,32.42],[-112.09,32.26],[-112.04,32.01],[-111.76,31.93],[-111.71,31.68],[-111.95,31.51],[-111.9,31.26],[-111.62,31.17],[-111.57,30.92],[-111.3,30.83],[-111.25,30.58],[-110.97,30.49],[-110.93,30.24],[-110.65,30.15],[-110.42,30.31],[-110.46,30.56],[-110.23,30.72],[-109.95,30.63]]],[[[-65.48,11.03],[-65.45,10.82],[-65.25,10.71],[-65.08,10.87],[-65.11,11.08],[-65.31,11.14],[-65.48,11.03]]],[[[-70.68,-17.11],[-70.71,-16.87],[-70.95,-16.78],[-71.15,-16.93],[-71.12,-17.17],[-70.89,-17.27],[-70.68,-17.11]]],[[[-82.64,21.69],[-82.63,21.92],[-82.82,22.05],[-82.81,22.28],[-82.6,22.39],[-82.58,22.63],[-82.78,22.76],[-82.99,22.64],[-83.19,22.77],[-83.18,23.01],[-83.37,23.13],[-83.59,23.02],[-83.79,23.14],[-84.0,23.03],[-84.02,22.79],[-84.23,22.68],[-84.43,22.8],[-84.65,22.69],[-84.66,22.45],[-84.87,22.34],[-84.88,22.1],[-85.1,21.98],[-85.11,21.74],[-84.91,21.62],[-84.69,21.73],[-84.49,21.61],[-84.28,21.73],[-84.08,21.6],[-83.87,21.72],[-83.67,21.6],[-83.46,21.71],[-83.26,21.59],[-83.27,21.35],[-83.08,21.23],[-82.87,21.34],[-82.67,21.22],[-82.46,21.33],[-82.27,21.21],[-82.06,21.32],[-82.05,21.55],[-82.24,21.68],[-82.45,21.56],[-82.64,21.69]]],[[[-41.21,-2.69],[-41.45,-2.6],[-41.65,-2.77],[-41.6,-3.02],[-41.36,-3.11],[-41.16,-2.94],[-40.92,-3.03],[-40.72,-2.87],[-40.77,-2.61],[-41.01,-2.52],[-41.21,-2.69]]],[[[-117.19,33.73],[-116.96,33.89],[-117.02,34.14],[-117.31,34.21],[-117.53,34.04],[-117.82,34.12],[-118.04,33.95],[-118.32,34.02],[-118.39,34.26],[-118.67,34.33],[-118.89,34.16],[-118.83,33.92],[-118.55,33.85],[-118.49,33.61],[-118.2,33.53],[-117.98,33.7],[-117.7,33.63],[-117.64,33.39],[-117.35,33.31],[-117.29,33.07],[-117.52,32.9],[-117.46,32.66],[-117.18,32.58],[-117.12,32.34],[-116.84,32.26],[-116.61,32.43],[-116.67,32.67],[-116.95,32.75],[-117.01,33.0],[-116.79,33.16],[-116.84,33.41],[-117.13,33.48],[-117.19,33.73]]],[[[-70.71,-18.73],[-70.68,-18.97],[-70.45,-19.06],[-70.24,-18.91],[-70.27,-18.67],[-70.07,-18.51],[-70.1,-18.27],[-70.33,-18.18],[-70.36,-17.94],[-70.6,-17.85],[-70.8,-18.0],[-71.03,-17.91],[-71.06,-17.66],[-71.3,-17.57],[-71.33,-17.33],[-71.56,-17.23],[-71.59,-16.99],[-71.82,-16.89],[-72.03,-17.05],[-72.0,-17.29],[-71.77,-17.39],[-71.74,-17.63],[-71.5,-17.72],[-71.48,-17.97],[-71.24,-18.06],[-71.21,-18.31],[-70.98,-18.4],[-70.77,-18.24],[-70.54,-18.33],[-70.51,-18.58],[-70.71,-18.73]]],[[[-92.05,21.2],[-92.27,21.31],[-92.5,21.18],[-92.49,20.93],[-92.27,20.82],[-92.04,20.95],[-92.05,21.2]]],[[[-79.65,19.74],[-79.83,19.86],[-80.03,19.75],[-80.05,19.52],[-79.87,19.4],[-79.67,19.51],[-79.65,19.74]]],[[[-110.89,19.72],[-111.1,19.56],[-111.06,19.31],[-111.27,19.15],[-111.23,18.9],[-111.44,18.74],[-111.4,18.49],[-111.15,18.39],[-110.94,18.55],[-110.69,18.46],[-110.48,18.62],[-110.52,18.87],[-110.77,18.96],[-110.81,19.21],[-110.6,19.37],[-110.64,19.63],[-110.89,19.72]]],[[[-44.6,-18.53],[-44.35,-18.62],[-44.15,-18.46],[-44.19,-18.22],[-44.44,-18.14],[-44.64,-18.29],[-44.6,-18.53]]],[[[-82.04,3.81],[-81.81,3.7],[-81.6,3.84],[-81.62,4.08],[-81.85,4.19],[-82.06,4.05],[-82.04,3.81]]],[[[-67.96,12.29],[-68.17,12.39],[-68.35,12.28],[-68.32,12.07],[-68.11,11.97],[-67.93,12.08],[-67.96,12.29]]],[[[-102.71,25.95],[-102.97,26.06],[-103.2,25.91],[-103.46,26.02],[-103.69,25.87],[-103.66,25.61],[-103.4,25.51],[-103.17,25.66],[-102.91,25.55],[-102.68,25.7],[-102.71,25.95]]],[[[-54.71,-34.58],[-54.91,-34.68],[-54.87,-34.87],[-54.63,-34.96],[-54.43,-34.86],[-54.47,-34.67],[-54.71,-34.58]]],[[[-97.79,29.45],[-97.8,29.7],[-97.56,29.83],[-97.58,30.08],[-97.33,30.22],[-97.35,30.47],[-97.61,30.59],[-97.85,30.45],[-98.11,30.57],[-98.35,30.44],[-98.33,30.18],[-98.58,30.05],[-98.56,29.79],[-98.8,29.66],[-98.78,29.4],[-98.52,29.29],[-98.28,29.43],[-98.03,29.31],[-97.79,29.45]]],[[[-53.21,-33.17],[-53.17,-33.37],[-52.93,-33.46],[-52.73,-33.35],[-52.77,-33.16],[-53.01,-33.07],[-53.21,-33.17]]],[[[-120.93,35.75],[-121.0,35.98],[-121.28,36.05],[-121.35,36.28],[-121.64,36.34],[-121.71,36.57],[-121.49,36.75],[-121.56,36.98],[-121.85,37.04],[-121.92,37.27],[-122.2,37.33],[-122.27,37.56],[-122.06,37.73],[-122.13,37.96],[-122.42,38.02],[-122.49,38.25],[-122.78,38.3],[-122.85,38.53],[-123.14,38.59],[-123.22,38.81],[-123.51,38.86],[-123.58,39.09],[-123.36,39.26],[-123.44,39.49],[-123.73,39.54],[-123.95,39.37],[-123.87,39.14],[-124.09,38.97],[-124.02,38.74],[-123.72,38.69],[-123.65,38.46],[-123.36,38.41],[-123.29,38.18],[-123.5,38.01],[-123.43,37.78],[-123.14,37.73],[-122.93,37.9],[-122.64,37.85],[-122.56,37.62],[-122.78,37.44],[-122.71,37.21],[-122.42,37.16],[-122.35,36.92],[-122.06,36.87],[-121.99,36.63],[-122.21,36.46],[-122.14,36.23],[-121.86,36.17],[-121.79,35.93],[-121.5,35.87],[-121.43,35.64],[-121.15,35.58],[-121.08,35.34],[-120.8,35.28],[-120.58,35.45],[-120.64,35.69],[-120.93,35.75]]],[[[-81.03,19.2],[-81.02,19.43],[-81.2,19.55],[-81.41,19.44],[-81.42,19.21],[-81.24,19.09],[-81.03,19.2]]],[[[-67.69,11.76],[-67.48,11.65],[-67.31,11.76],[-67.33,11.98],[-67.54,12.08],[-67.72,11.97],[-67.69,11.76]]],[[[-81.9,26.62],[-82.12,26.51],[-82.13,26.28],[-81.93,26.15],[-81.95,25.91],[-81.75,25.78],[-81.54,25.88],[-81.52,26.12],[-81.72,26.25],[-81.7,26.49],[-81.9,26.62]]],[[[-97.16,27.19],[-97.17,27.44],[-97.42,27.56],[-97.66,27.42],[-97.64,27.17],[-97.39,27.05],[-97.16,27.19]]],[[[-75.21,40.21],[-75.43,40.37],[-75.74,40.32],[-75.83,40.1],[-75.61,39.94],[-75.3,39.99],[-75.08,39.83],[-74.78,39.88],[-74.69,40.1],[-74.38,40.15],[-74.29,40.37],[-73.98,40.42],[-73.88,40.64],[-73.57,40.69],[-73.47,40.91],[-73.68,41.08],[-74.0,41.03],[-74.1,40.81],[-74.41,40.75],[-74.5,40.54],[-74.81,40.48],[-74.9,40.26],[-75.21,40.21]]],[[[-114.91,18.34],[-114.66,18.25],[-114.45,18.41],[-114.5,18.66],[-114.75,18.75],[-114.96,18.59],[-114.91,18.34]]],[[[-73.71,-16.13],[-73.95,-16.03],[-74.16,-16.18],[-74.13,-16.43],[-73.89,-16.53],[-73.68,-16.38],[-73.45,-16.47],[-73.42,-16.72],[-73.18,-16.82],[-72.97,-16.67],[-72.74,-16.76],[-72.71,-17.01],[-72.47,-17.1],[-72.27,-16.95],[-72.29,-16.7],[-72.53,-16.61],[-72.56,-16.36],[-72.79,-16.27],[-73.0,-16.42],[-73.24,-16.32],[-73.27,-16.07],[-73.5,-15.97],[-73.71,-16.13]]],[[[-116.44,31.69],[-116.5,31.94],[-116.78,32.01],[-117.0,31.85],[-116.95,31.6],[-116.67,31.52],[-116.44,31.69]]],[[[-111.11,29.83],[-111.16,30.08],[-111.44,30.17],[-111.67,30.01],[-111.62,29.76],[-111.34,29.67],[-111.11,29.83]]],[[[-81.56,13.13],[-81.36,13.25],[-81.38,13.46],[-81.6,13.56],[-81.8,13.44],[-81.78,13.22],[-81.56,13.13]]],[[[-41.13,-22.12],[-40.92,-21.97],[-40.97,-21.74],[-41.22,-21.66],[-41.42,-21.81],[-41.38,-22.04],[-41.13,-22.12]]],[[[-76.47,39.17],[-76.38,39.39],[-76.08,39.45],[-76.0,39.66],[-76.22,39.82],[-76.52,39.77],[-76.6,39.55],[-76.91,39.49],[-76.99,39.27],[-77.29,39.22],[-77.36,39.0],[-77.14,38.84],[-76.85,38.9],[-76.77,39.12],[-76.47,39.17]]],[[[-64.46,11.91],[-64.66,11.97],[-64.83,11.82],[-64.8,11.6],[-64.6,11.54],[-64.43,11.7],[-64.46,11.91]]],[[[-46.06,-23.06],[-46.27,-23.2],[-46.23,-23.43],[-45.98,-23.51],[-45.77,-23.37],[-45.82,-23.14],[-46.06,-23.06]]],[[[-42.62,-21.63],[-42.58,-21.87],[-42.33,-21.95],[-42.12,-21.8],[-42.17,-21.57],[-42.42,-21.48],[-42.46,-21.25],[-42.71,-21.17],[-42.92,-21.32],[-42.87,-21.55],[-42.62,-21.63]]],[[[-74.87,-15.88],[-74.66,-15.73],[-74.69,-15.48],[-74.92,-15.38],[-75.13,-15.53],[-75.11,-15.78],[-74.87,-15.88]]],[[[-80.6,24.77],[-80.58,25.0],[-80.77,25.13],[-80.99,25.03],[-81.0,24.79],[-80.81,24.66],[-80.6,24.77]]],[[[-82.03,24.73],[-82.05,24.5],[-81.85,24.37],[-81.64,24.48],[-81.45,24.35],[-81.23,24.45],[-81.22,24.69],[-81.41,24.82],[-81.62,24.71],[-81.82,24.84],[-82.03,24.73]]],[[[-66.56,11.98],[-66.77,12.09],[-66.95,11.98],[-66.92,11.77],[-66.71,11.66],[-66.54,11.77],[-66.56,11.98]]],[[[-80.22,14.61],[-80.42,14.49],[-80.4,14.27],[-80.18,14.18],[-79.98,14.3],[-80.01,14.51],[-80.22,14.61]]],[[[-81.16,25.39],[-80.95,25.49],[-80.93,25.73],[-81.13,25.86],[-81.34,25.75],[-81.36,25.52],[-81.16,25.39]]],[[[-39.6,-2.8],[-39.84,-2.71],[-40.04,-2.88],[-40.0,-3.13],[-39.75,-3.22],[-39.56,-3.06],[-39.6,-2.8]]],[[[-123.8,39.76],[-123.58,39.94],[-123.66,40.16],[-123.95,40.21],[-124.17,40.04],[-124.1,39.81],[-123.8,39.76]]]]}}]}