{"type":"FeatureCollection","features":[{"type":"Feature","properties":{},"geometry":{"type":"MultiPolygon","coordinates":[[[[-75.2,-52.45],[-74.62,-52.95],[-74.87,-53.13],[-74.76,-53.35],[-73.92,-53.67],[-73.81,-53.89],[-74.05,-54.07],[-73.94,-54.3],[-73.57,-54.34],[-73.45,-54.56],[-72.48,-54.46],[-71.86,-54.94],[-71.46,-54.94],[-71.3,-55.14],[-71.53,-55.32],[-71.37,-55.51],[-70.31,-55.34],[-70.14,-55.53],[-70.37,-55.72],[-70.19,-55.91],[-69.17,-56.11],[-68.52,-55.92],[-67.71,-56.3],[-66.64,-56.09],[-66.42,-55.89],[-66.63,-55.7],[-66.41,-55.51],[-65.37,-55.67],[-65.16,-55.86],[-65.37,-56.06],[-65.16,-56.25],[-64.08,-56.4],[-63.85,-56.59],[-64.06,-56.79],[-63.83,-56.98],[-63.39,-56.96],[-63.16,-57.15],[-63.37,-57.36],[-63.13,-57.54],[-63.34,-57.75],[-62.39,-58.11],[-62.6,-58.32],[-62.35,-58.5],[-59.7,-58.96],[-59.42,-59.14],[-59.61,-59.36],[-59.33,-59.55],[-58.08,-59.66],[-57.79,-59.84],[-57.97,-60.07],[-57.67,-60.25],[-56.38,-60.35],[-56.07,-60.53],[-54.92,-60.21],[-53.77,-60.51],[-52.64,-60.17],[-52.3,-60.34],[-51.82,-60.28],[-51.68,-60.05],[-51.2,-59.99],[-50.85,-60.16],[-50.99,-60.39],[-50.63,-60.56],[-50.77,-60.79],[-50.41,-60.96],[-49.06,-60.99],[-48.69,-61.16],[-48.81,-61.39],[-48.43,-61.56],[-47.04,-61.57],[-46.65,-61.73],[-46.15,-61.64],[-46.05,-61.41],[-44.67,-61.39],[-44.58,-61.15],[-44.1,-61.06],[-44.02,-60.82],[-44.42,-60.67],[-44.33,-60.43],[-44.72,-60.28],[-44.64,-60.05],[-45.02,-59.89],[-48.0,-59.75],[-48.36,-59.59],[-48.24,-59.35],[-44.09,-59.72],[-43.64,-59.63],[-43.56,-59.4],[-42.73,-59.45],[-42.28,-59.36],[-42.21,-59.12],[-41.38,-59.17],[-40.94,-59.07],[-40.89,-58.83],[-40.07,-58.87],[-39.63,-58.77],[-39.59,-58.53],[-38.35,-58.45],[-38.32,-58.22],[-37.91,-58.11],[-37.88,-57.87],[-37.08,-57.89],[-36.25,-57.43],[-36.24,-57.2],[-36.62,-57.08],[-36.61,-56.84],[-36.22,-56.73],[-36.2,-56.5],[-36.58,-56.38],[-36.57,-56.15],[-35.79,-55.7],[-35.78,-55.47],[-36.15,-55.35],[-36.14,-55.12],[-35.39,-54.67],[-35.39,-54.44],[-35.75,-54.33],[-35.74,-54.1],[-36.09,-53.99],[-36.08,-53.76],[-36.43,-53.64],[-36.41,-53.42],[-36.76,-53.3],[-36.74,-53.08],[-37.08,-52.96],[-37.06,-52.74],[-37.7,-52.29],[-37.68,-52.07],[-38.67,-51.93],[-38.65,-51.71],[-39.31,-51.69],[-39.9,-51.23],[-42.19,-51.21],[-42.73,-50.74],[-43.71,-50.78],[-44.23,-50.31],[-45.2,-50.33],[-45.47,-50.2],[-45.41,-49.99],[-46.02,-49.93],[-46.3,-49.8],[-46.23,-49.59],[-46.83,-49.53],[-47.1,-49.39],[-47.02,-49.19],[-47.88,-48.98],[-47.98,-48.44],[-48.81,-48.24],[-48.73,-48.04],[-49.3,-47.97],[-49.7,-47.5],[-52.25,-47.23],[-52.48,-47.09],[-52.38,-46.9],[-53.15,-46.67],[-53.05,-46.48],[-53.26,-46.34],[-54.11,-46.3],[-54.43,-45.83],[-57.49,-45.24],[-57.92,-45.45],[-58.72,-45.38],[-60.49,-46.22],[-60.58,-46.73],[-61.37,-46.97],[-61.51,-47.15],[-61.33,-47.3],[-61.94,-47.69],[-61.76,-47.85],[-61.91,-48.03],[-62.24,-48.06],[-62.36,-48.58],[-62.86,-48.79],[-62.64,-49.3],[-63.31,-49.69],[-63.12,-49.85],[-63.29,-50.04],[-63.81,-50.25],[-63.6,-50.77],[-63.77,-50.96],[-63.58,-51.13],[-64.29,-51.53],[-64.1,-51.7],[-64.28,-51.89],[-64.83,-52.1],[-64.64,-52.27],[-64.82,-52.46],[-64.63,-52.64],[-65.39,-53.03],[-65.19,-53.21],[-65.39,-53.41],[-65.19,-53.59],[-65.98,-53.98],[-65.78,-54.17],[-65.98,-54.36],[-66.97,-54.19],[-67.16,-54.01],[-66.96,-53.82],[-67.15,-53.64],[-67.54,-53.64],[-67.72,-53.46],[-67.51,-53.27],[-68.25,-52.92],[-68.05,-52.73],[-68.22,-52.55],[-67.99,-52.0],[-68.5,-51.79],[-68.63,-51.58],[-68.43,-51.4],[-69.01,-50.94],[-68.74,-50.36],[-67.91,-50.25],[-67.22,-49.92],[-67.35,-49.7],[-67.17,-49.52],[-67.24,-48.92],[-67.73,-49.07],[-67.66,-49.67],[-67.85,-49.85],[-69.39,-50.29],[-69.34,-50.9],[-69.54,-51.08],[-69.42,-51.3],[-70.16,-51.63],[-69.57,-52.09],[-69.78,-52.28],[-70.9,-52.57],[-71.71,-52.27],[-72.5,-52.59],[-72.5,-53.22],[-72.14,-53.26],[-72.02,-53.48],[-72.25,-53.66],[-71.65,-54.13],[-71.88,-54.32],[-72.73,-54.02],[-72.97,-54.2],[-73.33,-54.16],[-73.45,-53.94],[-73.21,-53.76],[-73.8,-53.27],[-73.44,-52.69],[-74.01,-52.19],[-74.95,-52.27],[-75.2,-52.45]],[[-70.96,-53.59],[-71.19,-53.77],[-71.54,-53.73],[-71.67,-53.51],[-71.44,-53.33],[-71.09,-53.37],[-70.96,-53.59]]],[[[33.54,-68.6],[31.92,-68.75],[31.98,-68.98],[32.58,-69.09],[32.66,-69.32],[32.12,-69.45],[32.19,-69.69],[31.64,-69.81],[31.71,-70.05],[31.14,-70.17],[29.94,-70.18],[29.31,-70.07],[29.27,-69.83],[27.48,-69.7],[26.29,-70.16],[25.07,-70.14],[25.06,-70.38],[25.67,-70.51],[26.91,-70.53],[26.92,-70.77],[26.3,-70.88],[25.03,-70.86],[23.82,-70.34],[21.94,-70.4],[21.35,-70.25],[19.97,-70.68],[19.38,-70.53],[19.47,-70.28],[18.9,-70.13],[17.46,-70.54],[16.89,-70.37],[17.01,-70.13],[16.46,-69.97],[16.58,-69.73],[16.04,-69.57],[15.39,-69.64],[15.25,-69.88],[15.79,-70.05],[15.66,-70.29],[13.74,-70.25],[13.22,-70.08],[13.38,-69.84],[12.86,-69.67],[12.18,-69.73],[12.01,-69.97],[12.53,-70.14],[12.35,-70.38],[11.65,-70.44],[11.13,-70.26],[11.32,-70.03],[9.63,-69.71],[8.94,-69.76],[8.72,-70.0],[6.83,-69.89],[6.59,-70.12],[5.87,-70.16],[5.41,-69.96],[4.69,-70.0],[4.42,-70.22],[3.7,-70.25],[3.25,-70.05],[1.38,-69.89],[0.01,-70.35],[0.43,-70.56],[2.23,-70.3],[2.67,-70.51],[2.37,-70.73],[0.53,-71.0],[0.19,-71.22],[-1.78,-71.02],[-2.19,-70.81],[-1.83,-70.59],[-2.22,-70.37],[-1.87,-70.15],[-2.26,-69.94],[-2.99,-69.94],[-4.47,-70.37],[-4.1,-70.59],[-4.48,-70.8],[-4.1,-71.02],[-4.5,-71.24],[-5.28,-71.23],[-5.66,-71.01],[-5.25,-70.79],[-5.61,-70.57],[-5.22,-70.36],[-5.57,-70.13],[-6.32,-70.12],[-6.72,-70.33],[-6.37,-70.56],[-6.78,-70.77],[-8.64,-70.5],[-10.3,-70.88],[-12.31,-71.01],[-12.8,-71.21],[-12.51,-71.45],[-13.02,-71.65],[-12.72,-71.89],[-13.24,-72.08],[-12.95,-72.32],[-14.87,-72.67],[-14.58,-72.91],[-15.16,-73.1],[-17.47,-73.18],[-18.09,-73.37],[-17.84,-73.62],[-16.95,-73.68],[-16.68,-73.92],[-18.88,-74.23],[-18.62,-74.48],[-19.3,-74.66],[-19.05,-74.91],[-21.44,-75.2],[-21.21,-75.45],[-21.97,-75.62],[-26.49,-75.69],[-27.32,-75.85],[-27.19,-76.1],[-28.05,-76.26],[-29.04,-76.15],[-29.92,-76.3],[-29.83,-76.56],[-32.69,-76.73],[-32.65,-76.98],[-33.64,-77.12],[-33.61,-77.37],[-32.57,-77.5],[-31.58,-77.36],[-31.64,-77.1],[-28.71,-76.92],[-28.82,-76.67],[-27.93,-76.51],[-26.91,-76.61],[-26.03,-76.46],[-26.19,-76.2],[-25.35,-76.04],[-24.35,-76.13],[-23.54,-75.96],[-18.97,-75.84],[-18.24,-75.65],[-18.52,-75.41],[-17.81,-75.22],[-18.09,-74.97],[-14.23,-74.51],[-14.55,-74.27],[-13.95,-74.07],[-14.26,-73.83],[-15.16,-73.78],[-15.46,-73.54],[-14.87,-73.35],[-11.14,-73.07],[-10.61,-72.87],[-10.95,-72.64],[-10.44,-72.43],[-8.29,-72.28],[-7.82,-72.07],[-5.74,-71.89],[-5.32,-71.67],[-4.52,-71.68],[-4.12,-71.9],[-2.11,-71.68],[-1.69,-71.9],[-2.07,-72.12],[-1.63,-72.34],[-0.8,-72.33],[-0.43,-72.11],[0.38,-72.09],[0.73,-71.87],[3.74,-71.34],[4.04,-71.11],[4.8,-71.08],[6.55,-71.44],[7.31,-71.4],[7.56,-71.17],[9.58,-71.26],[9.8,-71.02],[10.53,-70.97],[13.64,-71.38],[15.24,-71.0],[19.72,-71.4],[27.62,-71.62],[28.26,-71.5],[28.23,-71.26],[30.13,-71.14],[30.08,-70.9],[30.68,-70.77],[30.62,-70.54],[33.07,-70.5],[33.63,-70.37],[33.54,-70.13],[34.08,-70.0],[35.9,-70.06],[37.58,-69.87],[39.03,-70.27],[39.53,-70.12],[39.37,-69.89],[40.97,-69.67],[40.8,-69.45],[40.17,-69.37],[40.01,-69.15],[41.54,-68.92],[41.37,-68.7],[42.85,-68.47],[42.67,-68.25],[41.04,-68.25],[40.6,-68.4],[40.76,-68.63],[40.31,-68.77],[39.23,-68.84],[39.38,-69.07],[38.91,-69.21],[39.06,-69.44],[38.57,-69.58],[36.3,-69.69],[34.94,-69.27],[34.83,-69.03],[35.34,-68.9],[35.23,-68.67],[33.54,-68.6]],[[-8.75,-70.94],[-7.98,-70.96],[-7.64,-71.19],[-8.08,-71.4],[-8.87,-71.38],[-9.2,-71.14],[-8.75,-70.94]],[[28.11,-70.06],[28.72,-70.18],[28.76,-70.42],[28.15,-70.54],[27.53,-70.42],[27.51,-70.18],[28.11,-70.06]]],[[[75.48,-59.05],[75.93,-58.96],[76.3,-59.11],[76.22,-59.36],[77.43,-59.57],[77.37,-59.82],[77.76,-59.97],[78.21,-59.87],[78.6,-60.02],[78.55,-60.27],[78.95,-60.42],[82.01,-60.42],[82.84,-60.95],[85.08,-60.85],[85.53,-60.98],[86.42,-60.47],[87.77,-60.58],[88.2,-60.45],[88.19,-60.19],[88.62,-60.06],[89.07,-60.18],[89.5,-60.04],[89.47,-59.78],[90.77,-59.61],[90.73,-59.35],[91.14,-59.21],[91.59,-59.32],[92.0,-59.17],[91.96,-58.91],[92.36,-58.76],[92.31,-58.51],[93.55,-58.31],[93.99,-58.41],[94.38,-58.25],[94.32,-58.0],[94.7,-57.84],[95.15,-57.94],[95.53,-57.78],[95.46,-57.52],[96.65,-57.29],[96.57,-57.04],[96.93,-56.88],[98.18,-56.88],[98.53,-56.71],[98.44,-56.46],[99.58,-56.2],[99.48,-55.95],[99.82,-55.78],[99.73,-55.53],[100.83,-55.26],[100.72,-55.01],[101.05,-54.84],[100.95,-54.59],[101.27,-54.41],[101.17,-54.17],[101.49,-53.99],[101.39,-53.74],[101.7,-53.57],[101.6,-53.32],[101.91,-53.15],[101.8,-52.9],[102.81,-52.61],[102.71,-52.37],[103.0,-52.19],[103.41,-52.26],[103.88,-51.65],[104.96,-51.59],[105.4,-50.99],[108.43,-50.51],[108.81,-49.89],[109.83,-49.79],[110.18,-49.18],[111.79,-48.91],[112.02,-48.72],[111.88,-48.49],[112.19,-47.88],[112.04,-47.65],[112.34,-47.04],[112.2,-46.82],[112.42,-46.63],[112.28,-46.4],[112.49,-46.21],[112.35,-45.99],[112.57,-45.8],[112.5,-45.17],[113.26,-44.83],[112.17,-44.1],[111.28,-44.21],[110.69,-43.73],[109.8,-43.83],[109.68,-43.61],[109.35,-43.57],[109.13,-43.75],[108.34,-43.43],[104.73,-44.34],[104.39,-44.29],[104.3,-44.06],[103.96,-44.0],[103.72,-44.17],[103.39,-44.11],[103.3,-43.88],[102.39,-43.92],[102.31,-43.69],[101.98,-43.63],[101.16,-43.89],[100.83,-43.82],[100.75,-43.59],[99.85,-43.61],[99.78,-43.38],[99.46,-43.31],[98.05,-43.64],[97.35,-43.25],[94.77,-43.68],[94.1,-43.28],[92.09,-43.59],[91.46,-43.17],[90.6,-43.35],[89.98,-42.93],[89.14,-43.1],[88.54,-42.67],[87.12,-42.86],[86.55,-42.43],[85.15,-42.59],[84.61,-42.14],[82.66,-42.27],[81.27,-42.15],[80.67,-42.6],[79.26,-42.46],[78.97,-42.56],[78.94,-42.8],[78.07,-42.88],[78.04,-43.11],[77.74,-43.22],[77.17,-43.19],[77.14,-43.42],[76.83,-43.53],[75.99,-43.37],[75.34,-43.79],[74.49,-43.62],[73.83,-44.04],[72.98,-43.86],[72.67,-43.95],[72.63,-44.18],[72.05,-44.13],[71.74,-44.21],[71.69,-44.44],[71.11,-44.39],[70.79,-44.47],[70.75,-44.7],[70.16,-44.64],[69.85,-44.72],[69.8,-44.94],[69.21,-44.88],[68.9,-44.96],[68.84,-45.18],[68.26,-45.11],[67.94,-45.19],[67.89,-45.41],[67.3,-45.34],[66.61,-45.7],[65.76,-45.47],[65.06,-45.83],[63.9,-45.65],[63.84,-45.87],[62.74,-46.48],[62.67,-46.69],[63.51,-46.94],[63.45,-47.15],[63.9,-47.67],[63.84,-47.88],[64.1,-48.03],[64.04,-48.24],[64.9,-48.47],[64.34,-48.97],[64.66,-49.5],[64.55,-49.72],[65.35,-49.98],[65.35,-50.59],[65.58,-50.75],[65.47,-50.97],[65.71,-51.13],[65.59,-51.36],[65.96,-51.91],[65.84,-52.13],[66.22,-52.69],[66.11,-52.91],[66.36,-53.08],[66.24,-53.31],[66.5,-53.47],[66.38,-53.7],[67.29,-53.97],[67.18,-54.2],[67.45,-54.36],[67.33,-54.6],[67.61,-54.76],[68.0,-54.7],[68.45,-55.26],[68.85,-55.19],[69.14,-55.35],[69.03,-55.59],[69.32,-55.75],[69.21,-55.99],[70.22,-56.25],[70.11,-56.48],[70.42,-56.65],[70.32,-56.89],[71.37,-57.14],[71.27,-57.38],[71.59,-57.54],[72.02,-57.46],[72.35,-57.62],[72.25,-57.87],[72.59,-58.03],[73.02,-57.95],[73.36,-58.11],[73.27,-58.35],[73.61,-58.51],[74.05,-58.42],[74.4,-58.58],[74.32,-58.83],[74.68,-58.99],[75.12,-58.9],[75.48,-59.05]]],[[[-60.18,-38.79],[-60.64,-39.07],[-60.29,-39.29],[-59.5,-38.88],[-57.42,-38.42],[-56.49,-36.65],[-56.29,-36.56],[-56.6,-36.1],[-57.27,-36.0],[-57.31,-35.82],[-56.68,-35.73],[-57.54,-34.7],[-57.97,-34.7],[-57.39,-35.45],[-57.58,-35.54],[-57.71,-36.0],[-57.2,-36.37],[-56.76,-36.37],[-56.72,-36.56],[-56.92,-36.64],[-57.69,-38.15],[-60.18,-38.79]]],[[[-57.1,-34.7],[-56.83,-34.98],[-56.63,-34.89],[-56.67,-34.7],[-57.1,-34.7]]],[[[-21.87,-74.69],[-20.94,-74.77],[-20.23,-74.59],[-20.46,-74.34],[-19.78,-74.16],[-20.02,-73.91],[-19.36,-73.73],[-19.59,-73.49],[-20.46,-73.41],[-21.11,-73.59],[-20.9,-73.84],[-21.58,-74.02],[-22.47,-73.94],[-23.17,-74.11],[-22.98,-74.36],[-22.08,-74.44],[-21.87,-74.69]]],[[[77.53,-38.09],[77.79,-38.23],[78.07,-38.12],[78.1,-37.88],[77.61,-37.37],[77.33,-37.47],[77.3,-37.72],[77.56,-37.85],[77.53,-38.09]]],[[[99.65,-66.05],[98.09,-66.3],[96.79,-65.88],[96.31,-66.04],[96.41,-66.29],[95.91,-66.45],[95.32,-66.35],[92.61,-66.61],[91.4,-66.13],[90.88,-66.28],[90.93,-66.53],[90.4,-66.67],[89.82,-66.56],[88.18,-66.71],[87.62,-66.58],[87.08,-66.71],[86.52,-66.58],[86.52,-66.33],[84.9,-66.19],[84.35,-66.31],[84.33,-66.57],[84.87,-66.7],[84.86,-66.95],[84.3,-67.07],[83.75,-66.93],[83.19,-67.05],[83.16,-67.3],[82.58,-67.41],[82.04,-67.27],[81.46,-67.38],[81.42,-67.63],[80.83,-67.73],[80.29,-67.59],[79.04,-68.03],[78.51,-67.88],[77.91,-67.97],[77.82,-68.22],[78.35,-68.38],[78.27,-68.62],[76.93,-69.05],[76.83,-69.3],[76.19,-69.38],[75.65,-69.22],[74.23,-69.62],[73.71,-69.46],[73.06,-69.53],[72.92,-69.77],[72.25,-69.84],[72.1,-70.08],[71.43,-70.14],[71.26,-70.38],[71.79,-70.56],[71.62,-70.79],[70.93,-70.86],[70.75,-71.09],[71.29,-71.27],[72.0,-71.2],[72.16,-70.97],[73.7,-70.59],[73.84,-70.35],[73.3,-70.18],[73.44,-69.94],[76.52,-70.03],[76.63,-69.79],[77.28,-69.7],[77.38,-69.45],[78.02,-69.36],[78.11,-69.12],[78.74,-69.02],[78.82,-68.78],[80.12,-68.33],[80.18,-68.08],[81.92,-68.02],[81.96,-67.77],[82.55,-67.66],[83.1,-67.8],[84.28,-67.32],[85.97,-67.47],[87.09,-66.96],[87.65,-67.09],[93.27,-66.96],[97.11,-66.63],[97.72,-66.72],[98.21,-66.55],[99.57,-66.97],[100.05,-66.8],[100.67,-66.88],[101.15,-66.7],[101.0,-66.45],[101.47,-66.28],[102.08,-66.35],[103.6,-66.06],[104.21,-66.12],[104.38,-66.37],[105.01,-66.43],[105.44,-66.24],[105.26,-66.0],[103.87,-65.63],[103.7,-65.38],[104.13,-65.2],[103.96,-64.95],[103.38,-64.89],[101.92,-65.18],[100.3,-65.21],[99.85,-65.38],[99.98,-65.63],[99.52,-65.8],[99.65,-66.05]],[[102.82,-65.75],[102.38,-65.93],[101.77,-65.85],[101.62,-65.61],[102.07,-65.43],[102.67,-65.5],[102.82,-65.75]]],[[[69.14,-71.44],[69.86,-71.39],[70.04,-71.15],[69.52,-70.98],[69.71,-70.74],[69.2,-70.56],[69.39,-70.33],[68.9,-70.15],[69.08,-69.91],[70.58,-69.56],[70.75,-69.32],[70.26,-69.14],[70.43,-68.9],[71.07,-68.84],[71.22,-68.6],[70.75,-68.43],[70.9,-68.19],[70.44,-68.01],[70.59,-67.77],[69.1,-67.48],[67.71,-67.83],[64.27,-67.23],[62.86,-67.54],[60.58,-67.02],[59.17,-67.29],[58.83,-67.09],[58.25,-67.11],[57.92,-66.91],[58.18,-66.69],[57.86,-66.49],[56.43,-66.32],[56.13,-66.12],[56.39,-65.91],[55.27,-65.52],[54.73,-65.53],[54.47,-65.74],[53.13,-65.54],[51.2,-66.15],[48.11,-66.7],[47.79,-66.9],[48.01,-67.11],[47.68,-67.3],[46.37,-67.05],[46.03,-67.24],[46.24,-67.45],[45.86,-67.61],[42.91,-67.88],[43.09,-68.1],[43.69,-68.17],[45.09,-67.92],[46.5,-68.25],[46.88,-68.09],[46.66,-67.88],[47.01,-67.69],[47.57,-67.71],[47.8,-67.92],[47.45,-68.11],[47.68,-68.33],[48.26,-68.35],[48.6,-68.15],[49.18,-68.17],[49.51,-67.97],[49.27,-67.76],[49.6,-67.56],[51.92,-67.19],[52.22,-66.98],[51.96,-66.78],[51.4,-66.77],[51.15,-66.56],[51.45,-66.36],[52.83,-66.16],[53.09,-66.37],[53.64,-66.36],[53.92,-66.16],[54.47,-66.15],[55.6,-66.55],[55.33,-66.76],[55.63,-66.96],[55.35,-67.18],[56.55,-67.57],[57.99,-67.33],[60.21,-67.88],[61.66,-67.6],[63.02,-67.95],[64.45,-67.65],[64.85,-67.84],[68.59,-68.19],[69.03,-68.37],[68.86,-68.61],[69.32,-68.79],[69.15,-69.02],[68.5,-69.08],[68.32,-69.32],[68.79,-69.5],[68.6,-69.73],[67.07,-70.07],[66.86,-70.3],[68.51,-70.62],[68.31,-70.85],[68.82,-71.03],[68.62,-71.26],[67.9,-71.32],[67.69,-71.55],[66.97,-71.59],[66.74,-71.82],[67.25,-72.01],[67.03,-72.24],[66.27,-72.28],[66.03,-72.51],[66.56,-72.7],[66.31,-72.92],[65.53,-72.96],[65.27,-73.19],[67.16,-73.52],[68.99,-73.2],[69.2,-72.97],[68.64,-72.79],[68.85,-72.56],[70.57,-72.21],[70.75,-71.98],[71.49,-71.92],[71.66,-71.68],[71.11,-71.51],[70.39,-71.57],[70.2,-71.8],[69.47,-71.86],[69.27,-72.09],[68.52,-72.14],[67.99,-71.96],[68.21,-71.73],[68.94,-71.68],[69.14,-71.44]]],[[[115.92,-34.47],[115.52,-34.25],[115.36,-34.42],[115.48,-34.61],[115.92,-34.47]]],[[[-57.33,-64.89],[-57.11,-64.66],[-56.54,-64.61],[-56.33,-64.38],[-56.69,-64.19],[-56.48,-63.96],[-55.17,-63.64],[-54.25,-63.12],[-56.38,-62.67],[-57.66,-62.98],[-57.87,-63.21],[-59.29,-63.09],[-60.3,-63.56],[-61.72,-63.42],[-62.02,-63.22],[-61.78,-63.0],[-60.38,-63.15],[-60.15,-62.92],[-59.61,-62.89],[-59.39,-62.67],[-57.38,-62.11],[-57.19,-61.89],[-57.51,-61.7],[-58.02,-61.74],[-58.23,-61.96],[-59.58,-61.84],[-59.8,-62.06],[-61.07,-62.34],[-61.31,-62.56],[-62.62,-62.82],[-62.87,-63.04],[-62.57,-63.24],[-62.82,-63.46],[-62.52,-63.66],[-62.78,-63.88],[-64.17,-64.13],[-64.45,-64.35],[-64.15,-64.55],[-64.43,-64.77],[-64.12,-64.97],[-64.41,-65.19],[-65.88,-65.0],[-66.18,-65.22],[-65.89,-65.43],[-67.11,-65.86],[-66.82,-66.07],[-67.14,-66.28],[-68.7,-66.49],[-69.05,-66.7],[-68.76,-66.91],[-69.11,-67.12],[-69.75,-67.11],[-70.11,-67.32],[-69.83,-67.54],[-69.18,-67.55],[-68.82,-67.34],[-68.18,-67.35],[-67.88,-67.56],[-68.23,-67.78],[-67.92,-67.99],[-68.28,-68.21],[-67.97,-68.43],[-67.29,-68.43],[-66.94,-68.21],[-67.26,-68.0],[-66.91,-67.78],[-67.23,-67.57],[-65.91,-67.13],[-66.23,-66.92],[-65.91,-66.7],[-65.28,-66.7],[-64.97,-66.48],[-65.28,-66.27],[-64.98,-66.05],[-63.46,-65.81],[-63.18,-65.59],[-63.5,-65.38],[-63.22,-65.16],[-62.63,-65.15],[-62.31,-65.35],[-62.58,-65.57],[-62.25,-65.78],[-62.52,-66.0],[-64.04,-66.25],[-64.34,-66.47],[-64.02,-66.68],[-64.32,-66.9],[-64.96,-66.91],[-65.27,-67.13],[-64.94,-67.34],[-66.25,-67.78],[-64.92,-68.2],[-65.25,-68.42],[-64.91,-68.64],[-65.25,-68.86],[-64.89,-69.07],[-63.11,-69.26],[-62.72,-69.47],[-63.06,-69.69],[-62.66,-69.91],[-63.0,-70.13],[-62.6,-70.34],[-61.85,-70.32],[-61.52,-70.1],[-60.78,-70.07],[-60.46,-69.84],[-60.88,-69.64],[-60.57,-69.41],[-60.98,-69.2],[-62.78,-69.03],[-63.16,-68.82],[-61.85,-68.36],[-62.22,-68.15],[-63.89,-68.4],[-64.24,-68.19],[-63.92,-67.97],[-64.27,-67.76],[-63.95,-67.54],[-64.29,-67.33],[-63.99,-67.11],[-62.41,-66.86],[-62.12,-66.63],[-60.5,-66.79],[-60.24,-66.56],[-60.6,-66.36],[-60.33,-66.13],[-60.69,-65.93],[-60.43,-65.71],[-60.77,-65.51],[-61.38,-65.53],[-61.71,-65.33],[-61.45,-65.11],[-58.98,-65.42],[-58.74,-65.19],[-59.09,-64.99],[-58.86,-64.77],[-57.33,-64.89]],[[-60.21,-63.98],[-59.88,-64.18],[-60.12,-64.41],[-60.69,-64.43],[-61.02,-64.24],[-60.77,-64.01],[-60.21,-63.98]]],[[[151.31,-68.49],[151.3,-68.73],[151.83,-68.85],[152.36,-68.73],[152.36,-68.49],[151.83,-68.37],[151.31,-68.49]]],[[[-64.85,-42.64],[-65.27,-42.78],[-65.18,-43.35],[-65.75,-43.66],[-65.24,-44.1],[-65.43,-44.65],[-67.03,-45.02],[-67.24,-45.58],[-67.7,-45.71],[-67.69,-46.7],[-66.86,-47.19],[-66.4,-47.05],[-67.23,-46.56],[-67.29,-45.96],[-66.84,-45.82],[-66.63,-45.27],[-66.18,-45.13],[-65.5,-45.41],[-65.06,-45.27],[-64.91,-45.09],[-65.03,-44.89],[-64.88,-44.72],[-64.91,-43.39],[-63.15,-42.68],[-63.53,-42.45],[-63.63,-41.88],[-64.68,-42.11],[-64.8,-41.91],[-64.66,-41.74],[-65.03,-41.5],[-65.2,-42.03],[-64.71,-42.48],[-64.85,-42.64]]],[[[53.62,-43.03],[53.1,-42.9],[53.18,-42.68],[52.97,-42.51],[50.67,-41.97],[48.53,-41.19],[47.88,-41.45],[44.05,-39.98],[43.43,-40.21],[42.4,-39.69],[40.23,-39.42],[38.15,-38.9],[37.76,-39.16],[36.99,-39.1],[36.6,-39.35],[36.12,-39.25],[35.73,-39.49],[35.06,-39.23],[34.37,-39.51],[33.7,-39.24],[33.0,-39.52],[31.37,-38.99],[30.67,-39.25],[29.23,-38.86],[28.98,-38.33],[27.07,-37.76],[26.37,-38.0],[25.25,-37.53],[24.84,-37.74],[24.37,-37.59],[23.96,-37.8],[23.49,-37.64],[22.79,-37.86],[22.15,-37.51],[21.74,-37.72],[21.28,-37.55],[20.61,-37.79],[20.18,-37.64],[19.36,-38.37],[18.64,-38.26],[17.02,-39.5],[17.32,-40.5],[17.21,-40.73],[17.39,-40.91],[17.28,-41.13],[17.46,-41.32],[17.35,-41.54],[17.53,-41.72],[17.02,-42.2],[17.34,-43.19],[17.22,-43.42],[17.41,-43.6],[17.29,-43.82],[17.97,-44.13],[17.93,-44.75],[18.12,-44.93],[17.58,-45.42],[18.27,-45.72],[18.24,-46.34],[18.93,-46.64],[18.82,-46.86],[19.02,-47.03],[20.33,-47.21],[20.62,-47.76],[21.92,-47.92],[22.23,-48.46],[23.73,-48.74],[29.12,-49.59],[29.73,-49.23],[32.53,-49.55],[32.89,-50.02],[36.05,-50.28],[37.06,-50.14],[37.4,-50.33],[37.89,-50.19],[38.3,-50.55],[39.28,-50.25],[39.64,-50.44],[40.42,-50.3],[40.79,-50.48],[41.79,-49.99],[42.56,-50.17],[44.66,-49.13],[45.46,-49.29],[45.96,-48.92],[46.77,-49.08],[48.87,-47.9],[49.18,-47.88],[49.15,-47.33],[50.25,-46.88],[50.73,-46.46],[52.09,-46.73],[52.57,-46.3],[52.22,-45.76],[52.31,-45.55],[52.61,-45.52],[52.56,-44.94],[53.64,-44.43],[53.73,-44.22],[53.51,-44.05],[53.97,-43.59],[53.62,-43.03]]],[[[166.9,-50.2],[166.57,-50.1],[165.94,-50.6],[165.28,-50.63],[165.28,-50.86],[165.62,-50.97],[165.63,-51.2],[166.29,-51.17],[166.28,-50.94],[166.91,-50.43],[166.9,-50.2]]],[[[-32.11,-79.81],[-32.04,-80.06],[-28.12,-80.14],[-27.95,-80.39],[-26.52,-80.49],[-22.73,-80.25],[-23.03,-80.0],[-24.41,-79.91],[-24.66,-79.66],[-28.43,-79.63],[-28.58,-79.37],[-29.84,-79.27],[-29.95,-79.01],[-31.16,-78.9],[-32.28,-79.04],[-32.23,-79.29],[-30.99,-79.41],[-30.9,-79.67],[-32.11,-79.81]]],[[[148.31,-42.58],[148.63,-42.49],[148.68,-42.24],[148.2,-41.67],[147.88,-41.76],[148.04,-42.42],[146.97,-43.17],[146.91,-43.42],[146.59,-43.5],[146.32,-43.34],[146.38,-43.09],[145.53,-42.84],[145.59,-42.6],[145.33,-42.43],[145.39,-42.19],[144.94,-41.61],[145.0,-41.36],[144.75,-41.19],[144.43,-41.27],[144.37,-41.52],[144.81,-42.1],[144.75,-42.35],[145.01,-42.51],[144.95,-42.76],[145.21,-42.92],[145.15,-43.17],[146.0,-43.42],[145.94,-43.66],[146.2,-43.83],[146.53,-43.75],[146.8,-43.91],[147.51,-43.49],[147.78,-43.65],[148.1,-43.57],[148.16,-43.32],[148.48,-43.23],[148.31,-42.58]]],[[[112.27,-66.04],[112.9,-66.07],[113.27,-65.86],[113.02,-65.63],[110.41,-65.94],[110.01,-66.14],[110.24,-66.38],[109.84,-66.58],[109.21,-66.54],[108.79,-66.73],[108.16,-66.69],[107.94,-66.45],[107.31,-66.4],[107.11,-66.16],[106.49,-66.11],[106.06,-66.3],[106.26,-66.54],[106.89,-66.59],[107.09,-66.83],[108.59,-67.17],[109.01,-66.97],[110.71,-66.85],[111.11,-66.65],[110.87,-66.41],[112.27,-66.04]]],[[[18.26,-34.23],[19.15,-34.59],[19.37,-35.16],[20.05,-34.95],[20.57,-34.55],[20.4,-34.36],[19.72,-34.58],[18.82,-34.22],[18.61,-33.64],[18.33,-33.65],[17.82,-34.04],[18.26,-34.23]]],[[[-66.1,-48.45],[-65.63,-48.3],[-65.76,-48.09],[-65.59,-47.91],[-65.65,-46.94],[-66.1,-47.08],[-66.06,-48.06],[-66.23,-48.24],[-67.19,-48.53],[-67.06,-48.74],[-66.75,-48.77],[-66.1,-48.45]]],[[[178.88,-49.87],[178.82,-49.65],[178.5,-49.58],[178.23,-49.74],[178.29,-49.96],[178.88,-49.87]]],[[[151.0,-33.84],[150.71,-33.94],[150.88,-34.61],[150.27,-35.06],[150.43,-35.73],[150.14,-35.83],[150.1,-36.08],[150.35,-36.24],[150.64,-36.14],[150.69,-35.89],[151.31,-35.43],[151.13,-34.76],[151.75,-34.31],[151.57,-33.64],[152.49,-32.82],[153.14,-31.84],[152.9,-31.69],[152.62,-31.8],[152.59,-32.05],[151.68,-32.87],[151.64,-33.13],[151.36,-33.23],[151.32,-33.49],[151.04,-33.59],[151.0,-33.84]]],[[[147.23,-67.68],[146.74,-67.54],[146.19,-67.64],[146.13,-67.88],[146.62,-68.02],[146.57,-68.26],[147.07,-68.4],[147.63,-68.3],[147.67,-68.06],[147.17,-67.92],[147.23,-67.68]]],[[[129.1,-66.35],[128.87,-66.58],[129.25,-66.78],[129.02,-67.01],[129.41,-67.2],[130.03,-67.16],[130.26,-66.93],[129.87,-66.74],[130.91,-66.22],[130.52,-66.03],[129.1,-66.35]]],[[[159.46,-31.72],[159.47,-31.47],[159.22,-31.33],[158.95,-31.45],[158.94,-31.7],[159.19,-31.84],[159.46,-31.72]]],[[[20.85,-34.54],[21.02,-34.72],[21.71,-34.5],[21.88,-34.68],[22.17,-34.67],[22.28,-34.47],[21.66,-34.11],[21.37,-34.12],[20.85,-34.54]]],[[[144.0,-39.53],[143.69,-39.61],[143.63,-39.85],[143.87,-40.02],[144.18,-39.95],[144.24,-39.7],[144.0,-39.53]]],[[[117.82,-67.08],[120.41,-67.52],[120.73,-67.3],[123.27,-66.82],[123.56,-66.59],[123.22,-66.38],[121.67,-66.63],[121.34,-66.42],[120.72,-66.42],[119.45,-66.87],[117.86,-66.64],[117.52,-66.85],[116.88,-66.85],[116.59,-66.62],[114.15,-66.12],[113.78,-66.32],[114.04,-66.55],[114.68,-66.57],[114.95,-66.8],[113.55,-67.2],[113.82,-67.43],[114.48,-67.45],[114.86,-67.24],[116.46,-67.5],[117.82,-67.08]]],[[[23.43,-34.4],[23.54,-34.2],[23.83,-34.18],[24.75,-34.51],[25.27,-34.08],[26.02,-34.22],[26.53,-33.78],[25.89,-33.44],[25.6,-33.46],[24.69,-34.12],[23.77,-33.79],[23.48,-33.81],[23.37,-34.02],[22.63,-33.86],[22.51,-34.07],[22.68,-34.25],[23.43,-34.4]]],[[[141.25,-66.86],[143.74,-67.15],[144.29,-67.06],[144.36,-66.82],[143.9,-66.67],[139.36,-66.45],[135.97,-65.97],[135.4,-66.04],[135.23,-66.28],[137.65,-66.67],[141.25,-66.86]]],[[[-69.4,-68.84],[-70.09,-68.83],[-70.39,-68.61],[-72.15,-68.78],[-72.56,-68.98],[-72.28,-69.2],[-72.7,-69.41],[-72.43,-69.63],[-71.71,-69.66],[-71.3,-69.45],[-71.59,-69.23],[-71.18,-69.02],[-68.46,-69.5],[-68.07,-69.29],[-69.4,-68.84]]],[[[125.34,-66.1],[124.18,-66.57],[124.53,-66.78],[126.05,-66.51],[126.41,-66.71],[126.14,-66.94],[126.51,-67.14],[127.14,-67.11],[127.52,-67.31],[128.15,-67.28],[128.4,-67.05],[128.02,-66.85],[127.4,-66.88],[127.03,-66.68],[127.28,-66.45],[126.91,-66.25],[125.34,-66.1]]],[[[114.6,22.21],[114.43,22.6],[113.35,22.68],[113.32,22.45],[113.68,21.91],[114.11,21.83],[114.6,22.21]]],[[[-63.84,-41.12],[-64.21,-40.88],[-64.35,-41.05],[-63.86,-41.48],[-63.09,-41.22],[-63.46,-40.99],[-63.84,-41.12]]],[[[160.48,-69.61],[160.39,-69.37],[159.83,-69.28],[159.35,-69.42],[159.43,-69.65],[160.0,-69.75],[160.09,-69.98],[161.15,-69.93],[161.05,-69.69],[160.48,-69.61]]],[[[152.99,-30.92],[152.72,-31.03],[152.69,-31.28],[152.93,-31.44],[153.51,-30.97],[153.54,-30.71],[153.3,-30.56],[153.63,-29.95],[153.39,-29.8],[152.81,-30.26],[152.99,-30.92]]],[[[-60.44,-71.39],[-60.11,-71.15],[-60.56,-70.95],[-60.23,-70.72],[-60.67,-70.51],[-61.43,-70.53],[-61.76,-70.76],[-61.33,-70.97],[-61.67,-71.2],[-61.23,-71.41],[-60.44,-71.39]]],[[[167.35,-46.82],[167.05,-46.95],[167.06,-47.2],[167.71,-47.65],[168.01,-47.51],[168.0,-47.27],[168.91,-47.09],[168.89,-46.85],[169.19,-46.71],[170.11,-46.76],[170.4,-46.62],[170.37,-46.38],[170.92,-45.85],[170.9,-45.6],[171.43,-45.07],[171.4,-44.83],[171.1,-44.73],[170.82,-44.88],[170.84,-45.12],[170.3,-45.65],[170.33,-45.89],[170.04,-46.04],[170.06,-46.28],[168.56,-46.5],[167.92,-46.06],[167.01,-46.23],[166.7,-46.12],[166.69,-45.87],[167.27,-45.36],[167.26,-45.11],[166.95,-45.0],[166.65,-45.14],[166.67,-45.38],[166.08,-45.9],[166.09,-46.15],[166.4,-46.25],[166.41,-46.5],[167.34,-46.58],[167.35,-46.82]]],[[[-35.04,-55.01],[-34.67,-55.13],[-34.3,-55.01],[-34.31,-54.78],[-35.03,-54.79],[-35.04,-55.01]]],[[[-59.69,-68.72],[-60.09,-68.51],[-60.78,-68.54],[-61.07,-68.77],[-60.68,-68.97],[-59.98,-68.95],[-59.69,-68.72]]],[[[154.01,-28.82],[153.77,-28.68],[153.59,-28.02],[153.36,-27.87],[153.09,-27.98],[153.27,-28.63],[153.51,-28.78],[153.18,-29.39],[153.42,-29.54],[153.69,-29.44],[154.01,-28.82]]],[[[121.85,25.42],[121.43,25.44],[121.13,24.9],[121.97,24.87],[121.85,25.42]]],[[[167.24,-70.92],[168.28,-70.82],[168.1,-70.6],[167.5,-70.54],[167.07,-70.69],[167.24,-70.92]]],[[[-54.03,-34.66],[-54.27,-34.57],[-54.47,-34.67],[-54.43,-34.86],[-53.99,-34.85],[-54.03,-34.66]]],[[[133.66,-66.21],[134.24,-66.15],[134.42,-65.92],[134.02,-65.73],[132.68,-66.08],[132.29,-65.89],[131.7,-65.94],[131.5,-66.18],[132.88,-66.5],[133.48,-66.45],[133.66,-66.21]]],[[[-26.29,-59.07],[-27.12,-59.12],[-27.06,-59.35],[-27.45,-59.5],[-27.39,-59.73],[-26.93,-59.83],[-26.54,-59.68],[-26.61,-59.45],[-26.22,-59.3],[-26.29,-59.07]]],[[[3.67,-54.48],[3.48,-54.29],[3.07,-54.3],[2.87,-54.5],[3.06,-54.69],[3.47,-54.68],[3.67,-54.48]]],[[[-55.78,-61.35],[-55.96,-61.57],[-55.63,-61.75],[-54.43,-61.43],[-54.09,-61.61],[-53.58,-61.55],[-53.41,-61.32],[-53.76,-61.15],[-53.6,-60.92],[-53.93,-60.74],[-54.43,-60.79],[-54.6,-61.02],[-55.93,-60.94],[-56.11,-61.16],[-55.78,-61.35]]],[[[143.82,-39.11],[144.25,-38.53],[145.1,-38.54],[145.52,-37.95],[145.28,-37.79],[144.43,-37.79],[144.0,-38.37],[143.33,-38.77],[143.27,-39.02],[143.51,-39.19],[143.82,-39.11]]],[[[-75.24,-50.96],[-75.27,-51.59],[-75.51,-51.77],[-75.41,-51.99],[-75.06,-52.05],[-74.23,-51.74],[-74.79,-51.24],[-74.56,-51.06],[-74.54,-50.44],[-74.87,-50.38],[-75.24,-50.96]]],[[[158.72,-69.09],[156.63,-69.16],[156.68,-69.39],[157.24,-69.5],[158.3,-69.46],[158.79,-69.32],[158.72,-69.09]]],[[[-27.3,-58.41],[-27.24,-58.64],[-26.8,-58.74],[-25.61,-58.54],[-25.69,-58.31],[-26.12,-58.22],[-27.3,-58.41]]],[[[155.0,-68.83],[155.03,-69.07],[156.08,-69.05],[156.04,-68.81],[155.5,-68.71],[155.47,-68.47],[153.4,-68.49],[153.41,-68.73],[153.95,-68.85],[155.0,-68.83]]],[[[77.99,-38.85],[78.02,-38.6],[77.76,-38.47],[77.47,-38.58],[77.44,-38.82],[77.7,-38.95],[77.99,-38.85]]],[[[158.59,-54.75],[158.94,-54.87],[159.31,-54.76],[159.33,-54.54],[158.61,-54.53],[158.59,-54.75]]],[[[-13.09,-37.34],[-12.98,-37.58],[-12.66,-37.62],[-11.92,-37.27],[-12.04,-37.03],[-12.35,-36.99],[-13.09,-37.34]]],[[[144.81,-40.94],[145.12,-40.86],[145.18,-40.62],[144.93,-40.45],[144.62,-40.53],[144.56,-40.78],[144.81,-40.94]]],[[[171.37,-71.7],[170.32,-71.81],[170.54,-72.03],[171.19,-72.08],[171.6,-71.92],[171.37,-71.7]]],[[[166.79,-48.06],[166.16,-48.09],[166.17,-48.33],[166.49,-48.43],[166.8,-48.3],[166.79,-48.06]]],[[[-72.29,-51.79],[-72.63,-51.75],[-72.86,-51.93],[-72.74,-52.15],[-72.39,-52.19],[-72.17,-52.01],[-72.29,-51.79]]],[[[146.89,-40.86],[146.84,-41.11],[147.1,-41.27],[147.41,-41.18],[147.46,-40.94],[147.2,-40.77],[146.89,-40.86]]],[[[121.44,24.22],[121.86,24.2],[121.9,24.43],[121.71,24.54],[121.44,24.22]]],[[[-26.62,-57.89],[-25.83,-57.84],[-25.89,-57.61],[-26.32,-57.52],[-26.68,-57.66],[-26.62,-57.89]]],[[[171.65,-44.44],[171.93,-44.29],[171.9,-44.05],[171.6,-43.95],[171.32,-44.1],[171.35,-44.34],[171.65,-44.44]]],[[[146.15,-41.53],[146.46,-41.44],[146.52,-41.19],[146.26,-41.03],[145.95,-41.11],[145.89,-41.36],[146.15,-41.53]]],[[[-18.57,-72.87],[-17.72,-72.94],[-15.71,-72.62],[-15.98,-72.37],[-18.2,-72.44],[-18.8,-72.63],[-18.57,-72.87]]],[[[-54.59,-35.15],[-54.87,-34.87],[-55.52,-34.97],[-55.24,-35.25],[-54.59,-35.15]]],[[[120.38,24.15],[120.12,23.83],[120.09,23.61],[120.28,23.49],[120.8,24.14],[120.38,24.15]]],[[[116.56,-35.06],[116.69,-35.25],[117.12,-35.11],[116.72,-34.89],[116.56,-35.06]]],[[[93.56,-66.05],[93.49,-65.8],[92.92,-65.7],[92.86,-65.44],[92.3,-65.34],[91.8,-65.48],[91.85,-65.74],[92.42,-65.84],[92.48,-66.1],[93.06,-66.2],[93.56,-66.05]]],[[[162.43,-70.33],[161.36,-70.39],[161.46,-70.62],[162.06,-70.7],[163.62,-70.49],[163.49,-70.26],[162.9,-70.18],[162.43,-70.33]]],[[[119.98,22.95],[120.4,22.93],[120.43,23.15],[120.24,23.27],[119.98,22.95]]],[[[163.99,-67.4],[164.1,-67.63],[165.02,-67.56],[164.9,-67.33],[164.38,-67.25],[163.99,-67.4]]],[[[-9.53,-40.27],[-9.66,-40.03],[-9.99,-40.0],[-10.2,-40.2],[-10.07,-40.43],[-9.74,-40.47],[-9.53,-40.27]]],[[[166.47,-70.63],[166.31,-70.4],[165.71,-70.33],[165.27,-70.49],[165.42,-70.71],[166.47,-70.63]]],[[[163.36,-67.09],[163.76,-66.95],[163.65,-66.72],[162.55,-66.32],[162.15,-66.46],[162.25,-66.69],[162.75,-66.78],[162.85,-67.01],[163.36,-67.09]]],[[[169.05,-52.4],[168.72,-52.54],[168.74,-52.77],[169.42,-52.72],[169.39,-52.49],[169.05,-52.4]]],[[[145.09,-67.84],[145.16,-67.59],[144.68,-67.45],[144.12,-67.54],[144.04,-67.78],[144.52,-67.93],[145.09,-67.84]]],[[[114.7,-34.17],[115.13,-34.04],[114.74,-33.82],[114.58,-33.98],[114.7,-34.17]]],[[[-55.92,-35.17],[-55.95,-34.98],[-56.39,-34.98],[-56.12,-35.26],[-55.92,-35.17]]],[[[168.65,-71.26],[168.85,-71.48],[169.48,-71.54],[169.9,-71.38],[169.7,-71.16],[169.08,-71.1],[168.65,-71.26]]],[[[-26.86,-56.96],[-26.8,-57.19],[-26.38,-57.28],[-26.03,-57.14],[-26.09,-56.91],[-26.51,-56.82],[-27.04,-56.27],[-27.79,-56.32],[-27.28,-56.87],[-26.86,-56.96]]],[[[-62.33,-40.96],[-62.09,-41.0],[-61.96,-40.83],[-62.08,-40.64],[-62.45,-40.77],[-62.33,-40.96]]]]}}]}