{"type":"FeatureCollection","features":[{"type":"Feature","properties":{},"geometry":{"type":"MultiPolygon","coordinates":[[[[173.69,-40.43],[173.44,-40.58],[173.15,-40.48],[173.12,-40.23],[172.84,-40.14],[172.58,-40.28],[172.61,-40.53],[172.35,-40.68],[172.07,-40.58],[171.81,-40.72],[171.83,-40.97],[172.12,-41.07],[172.38,-40.92],[172.67,-41.02],[172.7,-41.27],[172.99,-41.36],[173.25,-41.21],[173.54,-41.31],[173.79,-41.16],[174.08,-41.25],[174.11,-41.5],[173.86,-41.65],[173.89,-41.89],[174.18,-41.98],[174.44,-41.83],[174.4,-41.59],[174.66,-41.44],[174.94,-41.53],[174.98,-41.77],[175.27,-41.86],[175.52,-41.71],[175.81,-41.8],[176.06,-41.64],[176.02,-41.4],[176.26,-41.25],[176.22,-41.01],[176.46,-40.85],[176.75,-40.94],[176.99,-40.79],[176.95,-40.55],[177.19,-40.39],[177.14,-40.15],[177.38,-40.0],[177.34,-39.76],[177.57,-39.6],[177.85,-39.69],[178.08,-39.54],[178.04,-39.3],[178.27,-39.14],[178.22,-38.9],[178.45,-38.75],[178.4,-38.51],[178.63,-38.35],[178.58,-38.12],[178.81,-37.96],[178.76,-37.72],[178.98,-37.57],[178.94,-37.33],[178.67,-37.25],[178.45,-37.4],[178.18,-37.31],[177.96,-37.46],[177.69,-37.38],[177.46,-37.53],[177.19,-37.44],[176.96,-37.59],[176.69,-37.5],[176.65,-37.26],[176.38,-37.17],[176.34,-36.92],[176.07,-36.83],[176.03,-36.59],[176.26,-36.44],[176.23,-36.19],[175.96,-36.1],[175.92,-35.86],[175.66,-35.76],[175.42,-35.91],[175.16,-35.81],[175.12,-35.57],[174.86,-35.47],[174.82,-35.22],[174.56,-35.12],[174.52,-34.88],[174.26,-34.78],[174.03,-34.92],[173.76,-34.82],[173.73,-34.58],[173.47,-34.47],[173.44,-34.23],[173.18,-34.12],[172.94,-34.27],[172.68,-34.16],[172.44,-34.3],[172.47,-34.55],[172.73,-34.66],[172.76,-34.9],[173.02,-35.01],[173.05,-35.26],[172.81,-35.4],[172.84,-35.65],[173.11,-35.75],[173.14,-36.0],[173.41,-36.1],[173.44,-36.35],[173.71,-36.45],[173.74,-36.69],[174.01,-36.79],[174.04,-37.04],[174.32,-37.14],[174.35,-37.38],[174.62,-37.48],[174.66,-37.72],[174.42,-37.87],[174.45,-38.12],[174.21,-38.27],[174.24,-38.51],[174.0,-38.66],[174.03,-38.9],[173.78,-39.05],[173.81,-39.3],[173.56,-39.45],[173.6,-39.69],[173.88,-39.79],[174.13,-39.64],[174.41,-39.73],[174.44,-39.98],[174.73,-40.07],[174.76,-40.32],[175.05,-40.41],[175.08,-40.65],[174.83,-40.8],[174.55,-40.71],[174.3,-40.86],[174.01,-40.77],[173.98,-40.52],[173.69,-40.43]],[[175.73,-41.31],[175.48,-41.47],[175.19,-41.38],[175.16,-41.13],[175.4,-40.98],[175.69,-41.07],[175.73,-41.31]]],[[[171.89,-33.84],[171.65,-33.98],[171.67,-34.23],[171.94,-34.34],[172.17,-34.2],[172.15,-33.95],[171.89,-33.84]]]]}}]}