{"type":"FeatureCollection","features":[{"type":"Feature","properties":{},"geometry":{"type":"MultiPolygon","coordinates":[[[[150.98,-35.79],[151.02,-35.53],[151.31,-35.43],[151.35,-35.17],[151.1,-35.02],[151.13,-34.76],[151.42,-34.66],[151.46,-34.41],[151.75,-34.31],[151.78,-34.05],[151.53,-33.9],[151.57,-33.64],[151.85,-33.54],[151.89,-33.28],[152.17,-33.18],[152.21,-32.92],[152.49,-32.82],[152.52,-32.56],[152.8,-32.46],[152.83,-32.2],[153.11,-32.1],[153.14,-31.84],[153.42,-31.74],[153.45,-31.48],[153.21,-31.33],[153.24,-31.08],[153.51,-30.97],[153.54,-30.71],[153.3,-30.56],[153.33,-30.31],[153.6,-30.2],[153.63,-29.95],[153.9,-29.84],[153.93,-29.59],[153.69,-29.44],[153.71,-29.18],[153.98,-29.08],[154.01,-28.82],[153.77,-28.68],[153.8,-28.42],[154.07,-28.32],[154.09,-28.06],[153.86,-27.91],[153.88,-27.66],[153.65,-27.51],[153.68,-27.26],[153.94,-27.15],[153.97,-26.9],[153.73,-26.76],[153.47,-26.86],[153.24,-26.71],[153.27,-26.46],[153.53,-26.36],[153.56,-26.1],[153.33,-25.96],[153.36,-25.71],[153.61,-25.6],[153.64,-25.35],[153.41,-25.21],[153.44,-24.96],[153.7,-24.85],[153.72,-24.6],[153.5,-24.46],[153.24,-24.56],[153.02,-24.41],[153.05,-24.17],[152.82,-24.02],[152.85,-23.77],[152.63,-23.63],[152.66,-23.38],[152.43,-23.23],[152.18,-23.33],[151.96,-23.19],[151.99,-22.94],[151.77,-22.79],[151.52,-22.89],[151.49,-23.14],[151.24,-23.24],[151.02,-23.09],[151.05,-22.84],[151.3,-22.75],[151.34,-22.5],[151.12,-22.35],[151.15,-22.11],[150.94,-21.96],[150.97,-21.72],[150.75,-21.57],[150.79,-21.33],[150.57,-21.18],[150.33,-21.28],[150.11,-21.14],[150.15,-20.89],[149.94,-20.75],[149.97,-20.51],[149.76,-20.36],[149.52,-20.46],[149.31,-20.31],[149.35,-20.07],[149.14,-19.93],[148.89,-20.02],[148.69,-19.87],[148.72,-19.63],[148.52,-19.49],[148.27,-19.58],[148.07,-19.44],[147.83,-19.53],[147.62,-19.38],[147.66,-19.14],[147.46,-19.0],[147.22,-19.09],[147.02,-18.94],[147.06,-18.71],[146.86,-18.56],[146.9,-18.33],[146.7,-18.18],[146.74,-17.95],[146.55,-17.81],[146.59,-17.57],[146.39,-17.43],[146.44,-17.2],[146.24,-17.06],[146.28,-16.83],[146.09,-16.68],[145.85,-16.77],[145.66,-16.63],[145.7,-16.4],[145.51,-16.26],[145.56,-16.03],[145.79,-15.94],[145.84,-15.72],[145.65,-15.58],[145.41,-15.66],[145.37,-15.89],[145.13,-15.98],[144.94,-15.84],[144.71,-15.92],[144.52,-15.78],[144.28,-15.86],[144.1,-15.72],[143.86,-15.81],[143.81,-16.03],[143.58,-16.12],[143.53,-16.35],[143.72,-16.49],[143.67,-16.72],[143.86,-16.86],[143.81,-17.09],[143.57,-17.17],[143.52,-17.4],[143.28,-17.49],[143.23,-17.72],[142.99,-17.8],[142.94,-18.03],[143.13,-18.18],[143.08,-18.41],[142.84,-18.49],[142.78,-18.72],[142.97,-18.87],[142.92,-19.11],[143.11,-19.25],[143.06,-19.49],[143.25,-19.64],[143.2,-19.87],[143.4,-20.02],[143.34,-20.26],[143.54,-20.41],[143.79,-20.32],[143.98,-20.47],[143.93,-20.71],[144.13,-20.86],[144.08,-21.1],[144.28,-21.25],[144.23,-21.49],[144.43,-21.64],[144.38,-21.88],[144.58,-22.04],[144.83,-21.95],[145.03,-22.1],[145.28,-22.01],[145.49,-22.17],[145.44,-22.41],[145.19,-22.49],[145.14,-22.74],[145.34,-22.89],[145.29,-23.13],[145.5,-23.29],[145.45,-23.53],[145.2,-23.62],[145.15,-23.86],[145.35,-24.02],[145.3,-24.26],[145.51,-24.42],[145.46,-24.66],[145.2,-24.75],[145.0,-24.59],[144.74,-24.68],[144.69,-24.93],[144.43,-25.01],[144.37,-25.26],[144.58,-25.42],[144.84,-25.33],[145.05,-25.49],[145.0,-25.73],[145.22,-25.89],[145.16,-26.14],[144.9,-26.23],[144.85,-26.47],[145.06,-26.63],[145.33,-26.54],[145.54,-26.7],[145.49,-26.95],[145.71,-27.11],[145.97,-27.02],[146.19,-27.18],[146.14,-27.43],[146.36,-27.59],[146.31,-27.84],[146.53,-27.99],[146.8,-27.9],[147.02,-28.06],[146.97,-28.31],[147.2,-28.47],[147.15,-28.72],[147.38,-28.88],[147.33,-29.13],[147.56,-29.29],[147.51,-29.54],[147.74,-29.7],[147.69,-29.95],[147.92,-30.11],[147.87,-30.36],[148.1,-30.52],[148.06,-30.78],[147.78,-30.87],[147.74,-31.12],[147.46,-31.22],[147.41,-31.47],[147.13,-31.56],[146.9,-31.4],[146.95,-31.15],[146.72,-30.99],[146.44,-31.08],[146.39,-31.33],[146.11,-31.42],[146.06,-31.67],[145.78,-31.76],[145.73,-32.01],[145.44,-32.1],[145.39,-32.35],[145.62,-32.51],[145.57,-32.76],[145.8,-32.93],[145.74,-33.18],[145.46,-33.27],[145.4,-33.52],[145.12,-33.61],[145.06,-33.86],[144.77,-33.94],[144.54,-33.78],[144.26,-33.86],[144.2,-34.11],[143.91,-34.19],[143.85,-34.44],[143.56,-34.53],[143.33,-34.36],[143.04,-34.44],[142.98,-34.69],[142.69,-34.77],[142.63,-35.02],[142.34,-35.1],[142.11,-34.92],[142.17,-34.68],[141.95,-34.51],[141.66,-34.58],[141.44,-34.41],[141.5,-34.16],[141.28,-33.99],[140.99,-34.07],[140.78,-33.9],[140.49,-33.97],[140.27,-33.8],[140.34,-33.55],[140.12,-33.38],[139.84,-33.45],[139.63,-33.28],[139.7,-33.04],[139.98,-32.96],[140.05,-32.72],[140.33,-32.64],[140.4,-32.4],[140.68,-32.32],[140.74,-32.08],[140.53,-31.9],[140.25,-31.98],[140.18,-32.23],[139.9,-32.3],[139.69,-32.13],[139.41,-32.2],[139.2,-32.03],[139.27,-31.79],[139.06,-31.61],[139.13,-31.37],[138.93,-31.2],[139.0,-30.95],[139.27,-30.88],[139.34,-30.64],[139.14,-30.47],[138.86,-30.54],[138.79,-30.78],[138.52,-30.86],[138.45,-31.1],[138.65,-31.27],[138.58,-31.51],[138.31,-31.59],[138.23,-31.83],[138.44,-32.0],[138.37,-32.24],[138.09,-32.31],[138.02,-32.56],[138.22,-32.73],[138.15,-32.97],[137.87,-33.04],[137.66,-32.87],[137.38,-32.94],[137.31,-33.18],[137.03,-33.24],[136.82,-33.07],[136.54,-33.13],[136.34,-32.96],[136.06,-33.02],[135.99,-33.26],[136.19,-33.44],[136.11,-33.68],[135.83,-33.74],[135.75,-33.98],[135.47,-34.04],[135.27,-33.87],[135.35,-33.63],[135.15,-33.45],[135.23,-33.21],[135.03,-33.03],[134.76,-33.1],[134.56,-32.92],[134.29,-32.98],[134.09,-32.8],[134.18,-32.56],[133.99,-32.39],[133.71,-32.45],[133.63,-32.68],[133.82,-32.86],[133.74,-33.1],[133.93,-33.27],[134.21,-33.22],[134.4,-33.39],[134.32,-33.63],[134.04,-33.69],[133.96,-33.93],[134.15,-34.1],[134.43,-34.05],[134.51,-33.81],[134.79,-33.75],[134.99,-33.93],[134.91,-34.17],[135.11,-34.34],[135.02,-34.58],[134.74,-34.64],[134.66,-34.88],[134.86,-35.06],[135.14,-35.0],[135.34,-35.18],[135.63,-35.12],[135.83,-35.3],[135.75,-35.54],[135.96,-35.72],[136.25,-35.65],[136.45,-35.83],[136.37,-36.07],[136.58,-36.25],[136.87,-36.19],[137.08,-36.37],[137.38,-36.3],[137.59,-36.48],[137.88,-36.42],[137.96,-36.17],[138.25,-36.11],[138.33,-35.86],[138.62,-35.8],[138.83,-35.97],[139.13,-35.9],[139.35,-36.08],[139.27,-36.32],[139.49,-36.5],[139.42,-36.74],[139.64,-36.92],[139.57,-37.16],[139.79,-37.34],[139.72,-37.58],[139.95,-37.76],[139.87,-38.0],[140.1,-38.18],[140.4,-38.11],[140.63,-38.28],[140.94,-38.21],[141.17,-38.38],[141.1,-38.63],[141.33,-38.8],[141.64,-38.73],[141.87,-38.9],[142.18,-38.83],[142.24,-38.58],[142.55,-38.51],[142.79,-38.68],[142.72,-38.93],[142.96,-39.1],[143.27,-39.02],[143.51,-39.19],[143.82,-39.11],[143.88,-38.86],[144.19,-38.78],[144.25,-38.53],[144.55,-38.45],[144.8,-38.62],[145.1,-38.54],[145.35,-38.71],[145.29,-38.96],[145.54,-39.12],[145.84,-39.04],[146.09,-39.2],[146.04,-39.45],[146.29,-39.62],[146.6,-39.53],[146.85,-39.7],[147.16,-39.61],[147.42,-39.77],[147.37,-40.02],[147.62,-40.18],[147.57,-40.43],[147.26,-40.52],[147.2,-40.77],[146.89,-40.86],[146.63,-40.7],[146.32,-40.78],[146.06,-40.62],[145.75,-40.7],[145.5,-40.53],[145.55,-40.29],[145.3,-40.12],[144.99,-40.2],[144.74,-40.03],[144.43,-40.11],[144.18,-39.95],[144.24,-39.7],[144.0,-39.53],[143.69,-39.61],[143.63,-39.85],[143.87,-40.02],[143.81,-40.27],[144.06,-40.44],[144.37,-40.36],[144.62,-40.53],[144.56,-40.78],[144.24,-40.86],[144.18,-41.1],[144.43,-41.27],[144.37,-41.52],[144.62,-41.69],[144.56,-41.93],[144.81,-42.1],[144.75,-42.35],[145.01,-42.51],[144.95,-42.76],[145.21,-42.92],[145.15,-43.17],[145.41,-43.34],[145.73,-43.25],[146.0,-43.42],[145.94,-43.66],[146.2,-43.83],[146.53,-43.75],[146.8,-43.91],[147.13,-43.83],[147.18,-43.58],[147.51,-43.49],[147.78,-43.65],[148.1,-43.57],[148.16,-43.32],[148.48,-43.23],[148.53,-42.98],[148.26,-42.82],[148.31,-42.58],[148.63,-42.49],[148.68,-42.24],[148.42,-42.08],[148.47,-41.83],[148.78,-41.74],[148.83,-41.49],[148.57,-41.33],[148.62,-41.08],[148.35,-40.92],[148.4,-40.67],[148.72,-40.58],[148.77,-40.33],[148.5,-40.17],[148.55,-39.91],[148.29,-39.75],[148.34,-39.5],[148.09,-39.34],[147.78,-39.43],[147.52,-39.27],[147.58,-39.02],[147.32,-38.85],[147.37,-38.6],[147.68,-38.51],[147.73,-38.26],[148.03,-38.17],[148.08,-37.92],[148.38,-37.83],[148.64,-37.99],[148.94,-37.89],[149.19,-38.05],[149.49,-37.96],[149.75,-38.12],[150.05,-38.02],[150.1,-37.77],[150.4,-37.67],[150.44,-37.41],[150.18,-37.26],[150.22,-37.0],[150.52,-36.91],[150.56,-36.65],[150.31,-36.49],[150.35,-36.24],[150.64,-36.14],[150.69,-35.89],[150.98,-35.79]],[[146.38,-43.09],[146.12,-42.93],[145.79,-43.01],[145.53,-42.84],[145.59,-42.6],[145.91,-42.52],[145.97,-42.27],[145.71,-42.1],[145.77,-41.86],[145.51,-41.69],[145.57,-41.44],[145.89,-41.36],[146.15,-41.53],[146.46,-41.44],[146.72,-41.61],[146.67,-41.85],[146.93,-42.02],[147.25,-41.93],[147.51,-42.09],[147.46,-42.34],[147.72,-42.5],[147.67,-42.75],[147.35,-42.84],[147.29,-43.09],[146.97,-43.17],[146.91,-43.42],[146.59,-43.5],[146.32,-43.34],[146.38,-43.09]],[[136.56,-34.69],[136.36,-34.51],[136.44,-34.27],[136.72,-34.21],[136.8,-33.97],[137.08,-33.9],[137.29,-34.08],[137.21,-34.32],[137.42,-34.5],[137.34,-34.74],[137.06,-34.8],[136.85,-34.63],[136.56,-34.69]],[[152.57,-24.12],[152.54,-24.37],[152.28,-24.47],[152.06,-24.32],[152.09,-24.08],[152.34,-23.97],[152.57,-24.12]]],[[[114.97,-34.2],[115.09,-34.39],[115.36,-34.42],[115.48,-34.61],[115.76,-34.63],[115.88,-34.82],[115.73,-34.99],[115.85,-35.18],[116.13,-35.2],[116.28,-35.04],[116.56,-35.06],[116.69,-35.25],[116.97,-35.27],[117.12,-35.11],[117.4,-35.13],[117.53,-35.32],[117.81,-35.34],[117.96,-35.17],[118.23,-35.19],[118.38,-35.02],[118.66,-35.04],[118.8,-34.87],[119.08,-34.89],[119.22,-34.72],[119.49,-34.74],[119.63,-34.57],[119.91,-34.59],[120.01,-34.38],[119.88,-34.2],[119.99,-33.99],[120.23,-33.97],[120.37,-34.15],[120.61,-34.13],[120.75,-34.31],[121.0,-34.28],[121.1,-34.07],[121.35,-34.04],[121.49,-34.23],[121.74,-34.2],[121.88,-34.38],[121.78,-34.6],[121.92,-34.78],[122.17,-34.75],[122.28,-34.54],[122.53,-34.51],[122.64,-34.3],[122.89,-34.27],[123.04,-34.45],[123.29,-34.42],[123.44,-34.6],[123.7,-34.57],[123.8,-34.35],[124.06,-34.32],[124.16,-34.1],[124.42,-34.07],[124.52,-33.85],[124.36,-33.67],[124.46,-33.45],[124.31,-33.27],[124.41,-33.05],[124.26,-32.87],[124.01,-32.91],[123.91,-33.12],[123.66,-33.16],[123.51,-32.98],[123.26,-33.01],[123.15,-33.22],[122.9,-33.26],[122.8,-33.47],[122.55,-33.5],[122.41,-33.32],[122.16,-33.35],[122.02,-33.17],[121.77,-33.2],[121.67,-33.41],[121.42,-33.44],[121.31,-33.65],[121.07,-33.68],[120.93,-33.5],[120.69,-33.52],[120.58,-33.73],[120.34,-33.76],[120.2,-33.58],[119.96,-33.6],[119.85,-33.81],[119.61,-33.84],[119.5,-34.04],[119.23,-34.02],[119.09,-34.19],[118.82,-34.17],[118.68,-34.34],[118.81,-34.52],[118.67,-34.69],[118.39,-34.67],[118.25,-34.84],[117.97,-34.82],[117.83,-34.98],[117.55,-34.96],[117.42,-34.77],[117.14,-34.75],[116.99,-34.92],[116.72,-34.89],[116.59,-34.71],[116.31,-34.68],[116.19,-34.49],[115.92,-34.47],[115.79,-34.28],[115.52,-34.25],[115.4,-34.06],[115.13,-34.04],[115.01,-33.85],[115.16,-33.69],[115.44,-33.72],[115.59,-33.56],[115.86,-33.58],[116.01,-33.42],[115.89,-33.23],[116.04,-33.08],[115.92,-32.89],[116.07,-32.73],[115.95,-32.55],[116.1,-32.39],[115.98,-32.21],[116.13,-32.05],[116.01,-31.87],[116.16,-31.72],[116.04,-31.54],[115.78,-31.51],[115.67,-31.33],[115.41,-31.31],[115.26,-31.46],[115.38,-31.64],[115.23,-31.8],[115.34,-31.98],[115.19,-32.13],[115.31,-32.31],[115.16,-32.47],[115.27,-32.66],[115.54,-32.68],[115.65,-32.87],[115.5,-33.02],[115.62,-33.21],[115.47,-33.37],[115.2,-33.34],[115.05,-33.5],[114.78,-33.47],[114.62,-33.63],[114.74,-33.82],[114.58,-33.98],[114.7,-34.17],[114.97,-34.2]]],[[[152.61,-21.76],[152.37,-21.86],[152.34,-22.1],[152.55,-22.25],[152.52,-22.49],[152.75,-22.64],[153.0,-22.54],[153.02,-22.29],[152.8,-22.15],[152.83,-21.9],[152.61,-21.76]]],[[[140.57,-16.96],[140.75,-17.11],[140.98,-17.03],[141.04,-16.8],[141.27,-16.72],[141.33,-16.49],[141.14,-16.35],[140.9,-16.43],[140.86,-16.66],[140.62,-16.74],[140.57,-16.96]]],[[[154.58,-20.95],[154.36,-20.81],[154.12,-20.91],[154.09,-21.15],[154.31,-21.29],[154.56,-21.19],[154.58,-20.95]]],[[[125.02,-32.76],[124.77,-32.8],[124.67,-33.02],[124.82,-33.2],[125.07,-33.16],[125.17,-32.94],[125.43,-32.9],[125.53,-32.68],[125.37,-32.5],[125.12,-32.54],[125.02,-32.76]]],[[[141.24,-32.17],[141.52,-32.09],[141.58,-31.84],[141.86,-31.76],[141.92,-31.52],[141.71,-31.35],[141.43,-31.43],[141.37,-31.67],[141.09,-31.75],[141.02,-32.0],[141.24,-32.17]]],[[[121.59,25.1],[121.4,25.22],[121.17,25.12],[121.13,24.9],[121.32,24.78],[121.55,24.88],[121.59,25.1]]],[[[159.22,-31.33],[158.95,-31.45],[158.94,-31.7],[159.19,-31.84],[159.46,-31.72],[159.47,-31.47],[159.22,-31.33]]],[[[154.01,-21.89],[154.04,-21.64],[153.82,-21.5],[153.57,-21.6],[153.55,-21.84],[153.77,-21.99],[154.01,-21.89]]],[[[168.06,-29.25],[168.3,-29.12],[168.29,-28.87],[168.04,-28.75],[167.8,-28.88],[167.81,-29.13],[168.06,-29.25]]]]}}]}