{"type":"FeatureCollection","features":[{"type":"Feature","properties":{},"geometry":{"type":"MultiPolygon","coordinates":[[[[32.4,29.78],[34.42,25.49],[35.2,26.41],[34.21,26.58],[34.56,27.7],[35.88,26.67],[36.95,24.32],[38.44,23.74],[34.95,28.38],[34.87,29.69],[33.81,28.32],[32.65,30.24],[32.4,29.78]]],[[[-82.46,21.33],[-79.87,21.59],[-78.83,20.39],[-77.71,20.34],[-77.78,19.67],[-75.22,19.57],[-77.2,19.98],[-77.12,20.65],[-78.88,21.88],[-83.18,23.01],[-79.75,22.97],[-74.25,19.87],[-73.93,20.44],[-76.25,21.94],[-74.67,22.93],[-74.45,21.8],[-73.48,22.49],[-72.85,21.99],[-72.42,22.6],[-73.58,23.05],[-70.04,23.72],[-69.04,22.84],[-68.53,19.35],[-71.7,19.96],[-68.6,18.49],[-70.92,18.52],[-71.42,17.83],[-73.86,19.87],[-72.96,19.1],[-75.05,18.19],[-72.6,17.83],[-73.08,18.42],[-72.49,18.52],[-71.74,17.23],[-70.69,18.22],[-69.83,17.63],[-80.17,11.88],[-81.96,12.88],[-81.9,12.22],[-82.74,12.17],[-83.46,13.12],[-82.49,14.16],[-83.19,15.98],[-85.13,16.41],[-85.56,15.7],[-83.41,14.96],[-84.34,10.94],[-86.31,11.59],[-87.63,13.52],[-91.96,14.35],[-94.83,16.73],[-96.78,15.73],[-98.19,16.87],[-101.68,17.7],[-102.28,19.17],[-102.21,18.42],[-103.14,18.33],[-105.26,20.42],[-104.99,22.25],[-105.56,22.97],[-108.87,25.45],[-109.64,27.17],[-112.48,28.85],[-112.49,30.28],[-113.81,31.62],[-114.82,31.46],[-114.78,30.05],[-113.35,29.37],[-113.01,27.61],[-111.62,26.9],[-110.69,24.43],[-111.97,24.64],[-112.29,26.41],[-114.49,27.37],[-114.03,28.88],[-115.78,29.88],[-117.01,33.0],[-120.73,35.04],[-122.13,37.96],[-123.51,38.86],[-124.58,42.79],[-123.53,46.26],[-124.5,47.92],[-122.98,47.94],[-122.48,49.02],[-125.02,50.23],[-125.59,49.72],[-123.54,48.58],[-125.89,49.01],[-125.83,49.56],[-128.14,50.65],[-126.5,50.54],[-128.82,53.1],[-130.45,53.72],[-130.6,54.85],[-133.1,54.88],[-135.37,56.72],[-136.0,55.21],[-135.37,53.02],[-130.24,49.14],[-130.9,46.2],[-130.31,41.67],[-132.84,37.5],[-132.87,35.67],[-131.12,32.28],[-130.94,29.7],[-125.01,25.09],[-124.66,22.99],[-123.53,24.02],[-124.11,25.31],[-121.5,26.42],[-117.6,25.52],[-116.32,24.19],[-117.41,22.44],[-123.15,22.57],[-124.22,22.19],[-123.52,21.32],[-114.2,18.32],[-111.78,16.51],[-105.22,14.18],[-102.32,12.26],[-97.38,6.7],[-97.27,3.68],[-95.08,1.22],[-94.36,-0.81],[-82.97,-6.6],[-75.11,-15.78],[-74.69,-15.48],[-76.16,-14.37],[-76.08,-12.96],[-81.12,-4.53],[-79.35,-1.97],[-79.67,-0.86],[-79.97,-2.4],[-80.66,-2.07],[-79.82,0.88],[-78.75,1.08],[-77.05,3.78],[-77.11,6.53],[-78.09,7.89],[-77.32,8.63],[-77.4,7.34],[-76.73,7.03],[-76.13,9.38],[-73.84,11.28],[-72.0,11.23],[-72.22,9.66],[-71.52,8.9],[-70.77,9.38],[-71.36,10.92],[-70.21,11.39],[-64.93,9.79],[-63.3,10.53],[-62.7,9.08],[-51.6,3.24],[-49.96,1.25],[-50.23,0.18],[-49.25,-0.43],[-44.83,-1.35],[-44.13,-2.8],[-39.31,-3.14],[-37.39,-5.02],[-35.27,-5.55],[-35.11,-8.9],[-39.33,-13.28],[-39.2,-17.67],[-41.38,-22.04],[-42.35,-23.02],[-44.71,-22.88],[-48.43,-25.18],[-49.1,-28.79],[-51.14,-30.01],[-53.34,-32.58],[-53.66,-34.26],[-55.08,-34.97],[-58.04,-34.32],[-57.98,-32.39],[-58.88,-33.26],[-60.03,-32.86],[-60.84,-31.93],[-59.83,-30.41],[-60.8,-30.97],[-60.85,-33.08],[-56.72,-36.56],[-57.89,-38.23],[-62.28,-38.84],[-62.45,-40.77],[-65.37,-40.89],[-64.71,-42.48],[-65.75,-43.66],[-65.28,-44.48],[-66.3,-44.92],[-65.78,-45.37],[-64.91,-45.09],[-64.76,-43.22],[-61.75,-43.39],[-48.56,-39.33],[-42.82,-35.42],[-39.71,-34.53],[-39.33,-33.55],[-43.07,-29.75],[-42.83,-24.14],[-41.74,-22.57],[-40.63,-22.28],[-40.45,-20.81],[-32.7,-16.79],[-31.72,-14.84],[-35.92,-11.88],[-31.99,-9.96],[-27.98,-5.56],[-18.18,-6.52],[-14.13,-4.37],[-6.43,-5.01],[-0.95,-8.29],[1.12,-10.49],[0.59,-11.9],[-3.61,-12.0],[-5.32,-13.13],[-8.14,-12.96],[-7.97,-14.35],[-5.53,-16.06],[3.33,-15.96],[5.43,-14.85],[6.5,-13.14],[11.32,-13.05],[11.94,-15.15],[11.24,-17.54],[13.52,-21.28],[11.61,-23.02],[9.11,-23.04],[8.3,-24.87],[13.64,-31.65],[14.77,-34.5],[23.08,-36.91],[26.65,-37.05],[31.72,-36.33],[38.91,-32.84],[39.4,-30.53],[38.88,-28.78],[39.97,-27.31],[39.55,-25.27],[37.8,-23.44],[37.24,-20.48],[38.42,-17.38],[39.11,-17.47],[40.4,-15.89],[37.22,-17.37],[34.43,-20.07],[35.48,-23.64],[35.09,-24.57],[32.81,-25.15],[32.32,-27.99],[28.41,-32.8],[24.69,-34.12],[18.82,-34.22],[18.12,-33.07],[18.54,-31.87],[14.98,-26.27],[14.76,-22.29],[12.04,-18.36],[11.86,-15.8],[14.22,-10.88],[13.29,-9.89],[13.64,-8.14],[12.35,-5.09],[9.61,-2.12],[9.86,-0.68],[9.19,-0.77],[9.92,0.33],[9.91,4.24],[9.04,4.09],[7.97,5.61],[7.22,5.1],[6.88,6.95],[5.98,5.83],[5.22,6.83],[2.35,7.41],[-1.3,5.17],[-4.05,6.05],[-8.09,4.61],[-11.76,7.36],[-12.43,9.35],[-14.38,10.29],[-14.56,11.45],[-13.08,13.13],[-16.82,14.76],[-15.95,18.48],[-16.83,17.05],[-19.04,17.41],[-17.54,20.69],[-15.95,18.95],[-16.86,22.05],[-16.16,22.19],[-15.93,23.54],[-13.01,27.02],[-13.22,27.64],[-10.26,28.83],[-8.69,33.13],[-7.14,33.52],[-5.38,35.62],[-2.03,34.76],[1.53,36.62],[8.25,36.59],[9.8,37.19],[11.04,36.82],[10.21,35.96],[11.06,35.26],[10.01,33.67],[11.34,32.86],[14.98,32.5],[16.0,30.89],[16.68,31.24],[19.22,30.09],[20.4,30.96],[20.32,32.08],[21.84,32.97],[25.46,31.63],[25.21,32.27],[21.45,33.37],[18.83,30.48],[15.79,31.75],[15.36,32.8],[11.5,33.34],[10.74,34.29],[11.7,34.74],[11.21,37.3],[1.36,37.01],[3.77,39.52],[4.57,39.54],[4.31,40.55],[5.23,41.9],[7.67,43.4],[10.12,43.78],[8.37,42.94],[8.05,42.01],[8.97,41.37],[7.6,40.59],[8.35,40.35],[7.67,39.09],[8.56,38.44],[9.31,39.06],[8.42,39.72],[9.12,40.98],[9.8,40.49],[9.62,39.14],[10.22,39.28],[9.76,41.99],[11.56,42.18],[12.74,40.71],[14.67,40.44],[10.73,43.07],[10.29,44.24],[8.3,44.4],[6.19,43.23],[3.87,43.85],[2.78,42.89],[3.06,41.91],[1.05,41.27],[-0.59,39.71],[-0.75,37.65],[-1.86,37.07],[-5.55,36.25],[-6.93,37.62],[-8.8,37.4],[-9.17,39.18],[-8.17,40.97],[-9.05,43.27],[-1.11,43.56],[-0.76,45.19],[-1.97,47.53],[-4.28,47.86],[-4.75,48.63],[-1.13,48.58],[-1.29,49.19],[0.18,49.07],[1.69,50.19],[1.7,52.25],[0.59,51.66],[0.73,51.06],[-1.55,50.64],[-4.76,51.9],[-3.75,52.11],[-4.19,53.08],[-2.81,53.35],[-3.39,55.11],[-4.82,54.85],[-4.99,55.65],[-6.72,55.74],[-7.16,55.23],[-5.88,54.65],[-6.67,54.06],[-6.29,52.43],[-9.05,51.55],[-10.02,51.75],[-9.92,52.67],[-8.91,52.69],[-9.79,53.8],[-9.38,54.33],[-10.39,54.52],[-10.84,53.54],[-10.24,52.81],[-13.01,51.84],[-22.22,52.09],[-34.56,50.29],[-56.56,50.47],[-56.63,49.63],[-54.06,49.17],[-53.46,48.32],[-54.28,47.52],[-58.39,47.74],[-58.54,48.79],[-57.31,50.9],[-58.52,49.63],[-60.23,49.39],[-62.36,49.95],[-60.23,49.81],[-58.48,50.9],[-60.24,50.23],[-65.34,50.43],[-64.84,49.61],[-66.38,49.5],[-65.9,50.18],[-66.52,50.35],[-69.2,49.03],[-70.65,47.15],[-67.45,48.98],[-64.79,49.18],[-64.69,48.34],[-66.33,48.01],[-64.96,47.48],[-64.21,45.65],[-66.31,45.49],[-71.11,43.3],[-71.36,41.63],[-73.17,41.57],[-74.26,39.77],[-75.48,39.56],[-75.56,37.95],[-76.33,38.8],[-75.87,39.29],[-76.77,39.12],[-76.68,37.16],[-75.85,36.54],[-76.65,35.81],[-75.69,35.62],[-81.02,32.42],[-81.81,30.74],[-81.25,29.63],[-81.8,28.03],[-82.65,28.09],[-82.78,29.4],[-83.82,30.31],[-89.31,30.6],[-89.79,29.38],[-95.09,29.9],[-95.06,29.14],[-97.71,28.18],[-98.58,26.61],[-97.74,24.75],[-97.75,21.06],[-96.02,18.52],[-94.42,17.74],[-92.45,18.71],[-91.36,18.38],[-89.61,21.37],[-86.81,21.27],[-88.35,18.72],[-88.61,15.47],[-86.17,15.56],[-85.53,16.4],[-87.98,16.33],[-87.29,19.1],[-84.31,21.01],[-82.46,21.33]],[[-65.55,43.7],[-66.13,44.26],[-63.29,45.09],[-63.71,45.89],[-62.09,45.36],[-65.55,43.7]],[[-34.22,35.53],[-28.66,31.54],[-27.39,29.86],[-25.81,29.48],[-23.5,26.33],[-20.94,24.47],[-20.85,22.74],[-18.26,22.49],[-17.08,21.43],[-22.4,21.05],[-23.67,19.5],[-23.34,18.21],[-24.59,16.93],[-25.73,17.19],[-24.51,16.0],[-26.39,15.03],[-29.67,11.25],[-34.26,10.64],[-40.95,11.09],[-46.13,13.93],[-46.76,18.48],[-49.51,24.28],[-47.54,29.05],[-49.27,33.05],[-48.61,35.94],[-44.41,37.57],[-38.46,38.07],[-34.22,35.53]],[[-131.84,53.75],[-132.19,52.83],[-133.08,53.94],[-131.84,53.75]],[[-4.95,54.2],[-5.22,52.87],[-6.01,53.99],[-4.95,54.2]],[[-83.86,10.3],[-82.45,8.78],[-84.45,9.68],[-84.95,10.56],[-83.86,10.3]],[[0.6,50.62],[1.18,50.52],[0.74,50.02],[-1.01,50.32],[0.6,50.62]]],[[[-180.0,-42.28],[-177.24,-40.74],[-176.76,-38.49],[-177.5,-36.5],[-180.0,-34.56],[-180.0,-42.28]]],[[[180.0,-34.56],[176.48,-33.08],[170.51,-32.54],[167.89,-30.63],[157.66,-27.55],[154.18,-24.89],[153.61,-23.46],[151.12,-22.35],[149.97,-20.51],[147.02,-18.94],[145.51,-16.26],[146.29,-19.21],[149.41,-21.18],[149.43,-22.54],[150.4,-22.4],[150.91,-23.83],[152.48,-24.87],[153.39,-27.62],[152.9,-31.69],[149.93,-35.41],[149.84,-37.61],[145.9,-38.79],[145.28,-37.79],[143.33,-38.77],[140.47,-37.86],[139.56,-35.35],[138.69,-35.55],[138.77,-34.4],[137.57,-34.01],[138.28,-33.39],[138.02,-32.56],[135.71,-34.88],[135.23,-33.21],[133.88,-31.97],[132.34,-32.08],[131.17,-31.25],[125.82,-32.02],[123.6,-33.77],[119.61,-33.84],[119.5,-34.39],[116.28,-35.04],[114.97,-34.2],[116.01,-33.42],[116.16,-31.72],[113.58,-26.77],[114.47,-25.71],[113.52,-23.78],[111.83,-27.16],[109.52,-28.74],[109.23,-30.02],[111.85,-33.67],[117.07,-35.82],[133.79,-39.44],[140.5,-39.68],[144.62,-41.69],[146.2,-43.83],[147.72,-43.9],[149.0,-42.15],[156.14,-42.74],[163.01,-44.5],[166.92,-44.26],[166.09,-46.15],[167.71,-47.65],[167.96,-46.78],[168.61,-47.23],[171.26,-46.18],[170.9,-45.6],[171.65,-44.44],[173.07,-44.18],[173.27,-43.55],[172.38,-43.27],[169.77,-46.42],[166.7,-46.12],[167.54,-44.73],[170.95,-43.27],[172.38,-40.92],[173.31,-41.7],[174.08,-41.25],[173.51,-43.16],[180.0,-42.28],[180.0,-34.56]],[[174.66,-35.86],[174.25,-36.65],[173.32,-35.36],[174.66,-35.86]]],[[[110.72,1.54],[111.72,2.93],[113.4,3.26],[114.17,4.53],[115.43,4.89],[116.68,6.81],[119.08,5.37],[117.58,3.15],[117.77,1.65],[118.85,0.73],[117.37,0.15],[117.63,-0.87],[116.32,-1.82],[115.87,-3.75],[110.62,-2.82],[110.38,-1.37],[109.04,-0.42],[108.49,-1.6],[109.89,-2.06],[109.97,-3.14],[112.55,-3.65],[113.01,-4.73],[112.26,-5.96],[113.35,-6.7],[109.15,-6.63],[108.22,-5.77],[107.73,-6.45],[111.38,-6.62],[112.9,-7.13],[112.82,-7.81],[114.37,-7.86],[112.31,-8.69],[113.87,-8.73],[117.07,-12.08],[118.74,-12.83],[119.75,-15.4],[119.91,-16.95],[117.74,-18.07],[116.11,-19.76],[116.13,-20.85],[115.29,-20.11],[115.32,-21.2],[113.74,-21.68],[114.37,-22.44],[116.53,-20.77],[120.83,-20.01],[122.56,-18.24],[122.8,-16.79],[123.83,-16.91],[123.31,-16.25],[124.34,-16.37],[126.42,-14.12],[123.76,-10.88],[127.09,-8.7],[129.28,-8.64],[127.55,-7.2],[124.19,-8.12],[122.56,-7.78],[122.36,-6.29],[128.82,-7.45],[127.43,-3.82],[128.98,-3.73],[128.25,-2.84],[129.88,-3.64],[130.38,-3.22],[130.26,-3.96],[131.32,-4.28],[131.74,-5.74],[132.95,-6.46],[133.64,-5.07],[132.3,-5.09],[130.7,-2.64],[131.49,-1.89],[131.52,-3.04],[133.48,-4.66],[133.89,-3.59],[133.17,-3.85],[132.86,-3.03],[133.86,-2.43],[131.77,-1.55],[130.82,-1.9],[131.22,-0.81],[133.91,-0.77],[134.1,-2.34],[135.47,-3.48],[138.33,-1.27],[137.17,-1.46],[136.23,-0.39],[134.55,-1.0],[131.34,-0.06],[131.55,1.19],[130.48,0.09],[128.99,0.47],[129.11,2.64],[127.75,3.76],[129.52,7.99],[126.93,11.17],[124.79,11.45],[124.51,12.48],[125.79,12.32],[124.59,12.97],[124.58,14.33],[123.47,14.09],[122.13,15.08],[122.91,17.42],[122.3,17.59],[122.01,21.14],[121.79,19.76],[120.11,18.35],[120.28,16.69],[117.46,17.02],[116.24,15.66],[115.47,11.5],[115.84,9.61],[114.51,7.2],[112.47,7.44],[108.95,4.43],[107.71,4.8],[107.52,3.05],[108.73,0.59],[108.04,0.03],[109.29,-0.07],[109.32,2.03],[110.72,1.54]],[[126.64,-8.85],[123.86,-10.2],[124.23,-9.21],[123.31,-9.72],[122.97,-9.18],[123.48,-8.57],[124.64,-9.29],[126.07,-8.38],[126.64,-8.85]],[[121.09,13.73],[121.23,14.68],[119.92,15.65],[120.58,15.95],[120.74,18.43],[122.18,18.2],[122.38,16.75],[121.44,16.11],[121.8,14.26],[121.09,13.73]],[[129.22,-0.85],[128.75,-1.02],[129.14,0.06],[129.22,-0.85]],[[120.82,-8.36],[121.36,-8.83],[120.35,-8.73],[120.82,-8.36]],[[127.01,-3.75],[126.17,-3.59],[126.48,-3.02],[127.01,-3.75]],[[123.32,0.19],[123.24,1.08],[124.68,0.71],[123.32,0.19]],[[120.46,-5.18],[119.63,-5.25],[118.75,-2.9],[120.09,-0.59],[120.97,-1.62],[122.29,-1.12],[121.49,-2.33],[122.68,-4.16],[121.76,-4.71],[120.62,-2.66],[120.46,-5.18]],[[125.54,6.41],[124.43,6.2],[123.85,8.05],[125.99,9.4],[126.54,7.28],[125.69,7.41],[125.54,6.41]],[[122.76,0.67],[120.69,0.78],[121.2,1.43],[122.76,0.67]],[[135.4,-2.57],[134.86,-1.83],[136.17,-2.06],[135.4,-2.57]],[[130.19,-1.66],[129.95,-3.15],[129.65,-2.33],[128.09,-2.43],[130.19,-1.66]]],[[[79.6,10.58],[77.91,8.4],[77.09,8.43],[72.77,17.98],[76.09,8.82],[77.9,7.91],[78.74,9.12],[79.78,8.96],[79.52,6.87],[80.73,5.58],[82.26,7.37],[80.02,10.57],[80.05,11.56],[79.6,10.58]],[[80.19,8.95],[80.83,9.3],[81.84,7.39],[80.53,5.96],[79.75,7.97],[80.19,8.95]]],[[[159.66,-11.56],[160.47,-12.27],[160.9,-11.86],[160.09,-11.15],[159.66,-11.56]]],[[[99.26,6.43],[100.11,5.84],[100.91,2.33],[98.05,5.37],[96.48,5.36],[95.43,6.34],[94.87,4.83],[95.82,5.53],[97.8,5.0],[99.82,2.54],[103.2,1.02],[103.64,-1.13],[105.64,-2.5],[106.01,-5.05],[106.41,-3.28],[108.71,-3.3],[108.63,-2.21],[107.33,-2.61],[105.35,-1.25],[105.27,0.11],[104.64,0.28],[105.17,1.24],[103.67,3.63],[103.88,1.34],[101.39,2.8],[99.98,7.01],[98.3,8.44],[98.77,11.37],[98.11,11.56],[98.19,12.58],[98.91,12.91],[97.93,14.92],[97.4,8.51],[99.26,6.43]]],[[[167.76,9.16],[167.54,9.68],[166.53,9.34],[167.52,8.57],[167.76,9.16]]],[[[-55.49,51.52],[-54.66,51.92],[-55.84,51.95],[-55.49,51.52]]],[[[133.34,-11.94],[136.82,-12.3],[135.42,-15.12],[140.58,-17.79],[141.56,-16.41],[141.69,-12.34],[142.62,-10.91],[143.66,-14.63],[144.37,-14.37],[145.79,-15.94],[145.82,-14.67],[144.5,-13.69],[143.8,-13.94],[142.9,-10.59],[143.74,-9.62],[144.32,-10.07],[143.6,-9.23],[143.87,-7.78],[143.08,-9.64],[140.2,-8.45],[140.5,-9.24],[142.22,-9.51],[141.22,-12.51],[141.53,-14.33],[138.72,-14.02],[138.55,-14.93],[137.88,-14.95],[138.29,-16.28],[135.97,-14.52],[137.11,-14.36],[136.89,-10.74],[134.24,-11.85],[133.16,-10.45],[130.2,-11.0],[129.81,-12.0],[130.38,-12.46],[129.34,-14.71],[126.68,-13.83],[129.26,-15.15],[130.58,-12.62],[133.34,-11.94]]],[[[53.93,12.87],[52.94,11.93],[54.04,12.16],[53.93,12.87]]],[[[135.16,8.01],[133.91,7.3],[134.22,6.47],[135.16,8.01]]],[[[160.98,-9.08],[160.64,-7.58],[159.43,-8.94],[157.92,-8.76],[157.89,-7.93],[156.99,-8.53],[160.56,-9.68],[160.98,-9.08]]],[[[150.04,-4.99],[150.78,-5.6],[151.6,-4.61],[150.04,-4.99]]],[[[-74.39,-16.08],[-72.74,-16.76],[-71.42,-18.46],[-70.59,-21.53],[-73.31,-31.16],[-73.12,-34.28],[-72.31,-34.9],[-71.33,-33.37],[-71.72,-30.59],[-69.71,-21.4],[-70.36,-17.94],[-72.56,-16.36],[-74.39,-16.08]]],[[[12.06,44.2],[13.58,42.81],[14.43,43.4],[12.95,44.17],[12.77,45.18],[14.86,43.69],[15.85,43.87],[13.39,45.93],[12.05,45.66],[12.06,44.2]]],[[[93.74,14.45],[92.27,12.99],[92.32,10.29],[94.27,12.23],[93.16,12.68],[93.74,14.45]]],[[[34.61,33.63],[29.52,34.45],[28.23,33.69],[33.82,32.28],[34.44,31.87],[33.88,31.41],[25.76,31.66],[29.21,30.65],[31.65,31.5],[33.49,30.73],[34.76,31.44],[36.08,34.11],[35.57,35.18],[35.08,33.43],[34.61,33.63]]],[[[92.65,8.46],[94.09,6.43],[94.16,7.46],[93.5,7.63],[94.02,8.63],[93.1,8.43],[92.95,9.6],[92.65,8.46]]],[[[72.76,7.11],[72.39,3.6],[73.51,1.67],[73.72,6.25],[72.76,7.11]]],[[[180.0,-15.69],[179.75,-16.88],[179.16,-15.88],[178.08,-16.61],[173.79,-15.55],[168.96,-16.64],[168.24,-14.94],[166.55,-14.44],[167.27,-16.83],[168.35,-17.2],[164.73,-20.04],[163.38,-19.29],[163.83,-20.98],[162.68,-22.03],[166.86,-23.33],[170.4,-22.1],[174.12,-22.13],[178.8,-19.8],[179.9,-17.77],[180.0,-15.69]]],[[[-180.0,-17.43],[-178.42,-19.98],[-179.19,-15.91],[-179.72,-16.4],[-180.0,-15.69],[-180.0,-17.43]]],[[[140.73,9.79],[139.44,10.28],[139.75,9.44],[140.73,9.79]]],[[[145.38,13.93],[144.36,13.36],[145.24,13.19],[145.38,13.93]]],[[[40.61,-6.75],[41.26,-5.55],[40.71,-2.6],[43.76,0.38],[42.76,0.03],[41.9,0.74],[41.51,-1.63],[40.24,-2.03],[38.58,-5.98],[39.46,-8.04],[39.04,-8.56],[40.26,-10.35],[40.48,-15.65],[41.16,-15.08],[40.66,-13.17],[41.17,-11.08],[39.78,-8.43],[40.61,-6.75]]],[[[40.45,16.89],[39.09,17.42],[38.98,16.38],[41.54,14.32],[40.45,16.89]]],[[[123.65,23.32],[131.41,25.53],[132.32,26.67],[138.12,28.73],[141.21,31.73],[141.46,34.79],[139.65,35.4],[138.93,34.63],[137.38,34.84],[136.69,33.15],[131.96,32.77],[130.67,31.03],[129.23,32.96],[128.9,32.47],[129.72,32.02],[129.11,31.24],[124.24,29.19],[118.24,23.8],[118.29,22.75],[119.91,22.5],[120.12,23.83],[121.82,25.2],[120.97,22.56],[123.65,23.32]]],[[[51.75,25.34],[51.21,24.56],[51.96,23.92],[54.23,24.29],[53.13,25.28],[52.27,24.71],[51.75,25.34]]],[[[166.23,-10.64],[166.61,-10.03],[165.41,-9.97],[165.64,-11.14],[166.23,-10.64]]],[[[43.79,-12.79],[44.35,-12.46],[45.01,-13.21],[45.64,-12.64],[43.37,-11.33],[43.79,-12.79]]],[[[73.67,-0.3],[73.32,1.1],[72.77,-0.84],[73.58,-0.94],[73.67,-0.3]]],[[[159.22,-5.04],[158.93,-5.59],[160.05,-5.75],[159.22,-5.04]]],[[[113.42,21.6],[114.63,22.45],[113.35,22.68],[113.48,22.06],[112.1,21.59],[113.42,21.6]]],[[[148.52,-6.25],[150.6,-6.56],[148.79,-5.92],[149.49,-5.65],[149.49,-4.53],[148.7,-5.28],[146.73,-5.35],[145.59,-4.41],[145.84,-5.46],[147.86,-6.28],[147.03,-7.27],[148.52,-6.25]]],[[[-79.9,52.36],[-80.78,51.96],[-80.34,51.13],[-79.38,51.77],[-79.9,52.36]]],[[[-148.76,-14.84],[-147.01,-15.44],[-146.57,-16.33],[-145.41,-16.23],[-146.59,-14.86],[-148.76,-14.84]]],[[[58.07,20.08],[59.43,20.46],[59.51,22.1],[56.21,17.92],[57.89,18.88],[58.07,20.08]]],[[[-154.47,-16.71],[-154.71,-15.6],[-154.99,-16.64],[-154.47,-16.71]]],[[[47.85,4.92],[46.87,3.23],[43.68,0.78],[47.53,3.31],[49.31,6.22],[47.85,4.92]]],[[[45.1,13.18],[43.38,12.87],[42.75,16.81],[42.28,17.6],[41.31,17.14],[42.03,16.77],[41.54,15.53],[42.72,14.8],[42.59,13.8],[41.54,13.92],[43.27,12.67],[42.91,11.68],[44.0,10.24],[47.31,11.24],[44.34,10.46],[43.6,12.11],[45.1,13.18]]],[[[50.97,11.29],[51.16,10.05],[51.45,12.04],[50.97,11.29]]],[[[168.86,7.14],[169.1,7.71],[167.9,8.44],[168.86,7.14]]],[[[138.57,-8.8],[139.13,-8.15],[137.31,-8.35],[138.57,-8.8]]],[[[72.37,19.81],[72.97,19.5],[72.97,20.43],[72.37,19.81]]],[[[130.87,-8.32],[132.36,-7.36],[132.05,-6.55],[130.56,-7.53],[130.4,-8.48],[130.87,-8.32]]],[[[100.73,-2.04],[99.77,-0.6],[100.23,-2.74],[101.1,-2.8],[100.73,-2.04]]],[[[-78.06,18.66],[-78.67,18.12],[-77.2,17.44],[-76.03,17.87],[-78.06,18.66]]],[[[47.81,14.1],[46.34,13.45],[46.98,13.1],[47.81,14.1]]],[[[144.54,-4.11],[145.44,-4.01],[144.53,-2.96],[142.71,-3.17],[144.54,-4.11]]],[[[48.35,-13.79],[49.37,-11.84],[47.63,-13.3],[46.97,-15.41],[48.35,-13.79]]],[[[170.24,9.33],[169.8,9.82],[169.84,8.9],[170.24,9.33]]],[[[151.74,-2.76],[149.89,-1.18],[149.2,-1.45],[149.81,-2.82],[152.01,-3.55],[152.01,-5.79],[154.04,-3.88],[152.65,-3.53],[152.65,-2.41],[151.74,-2.76]]],[[[-13.61,-14.13],[-17.11,-14.54],[-17.39,-15.7],[-16.01,-16.36],[-13.85,-16.51],[-11.95,-15.38],[-9.23,-15.17],[-10.34,-14.22],[-13.61,-14.13]]],[[[54.67,26.49],[53.4,26.75],[55.2,25.22],[56.11,25.79],[56.11,26.37],[55.61,25.9],[54.67,26.49]]],[[[-8.14,55.67],[-9.29,54.99],[-9.02,54.41],[-8.34,54.35],[-8.14,55.67]]],[[[138.09,-6.47],[138.4,-7.28],[137.68,-7.54],[138.83,-7.35],[138.27,-5.49],[136.37,-4.79],[138.09,-6.47]]],[[[109.55,15.33],[108.53,16.09],[109.4,14.09],[109.55,15.33]]],[[[147.04,-9.48],[147.33,-10.25],[149.64,-10.44],[147.04,-9.48]]],[[[101.51,6.5],[99.66,11.04],[100.27,12.79],[102.64,11.41],[102.73,9.99],[103.83,9.76],[103.31,9.04],[104.25,9.46],[105.26,8.46],[105.77,9.18],[104.87,9.01],[104.97,10.03],[100.12,13.71],[98.88,9.94],[101.51,6.5]]],[[[108.4,18.86],[109.64,17.94],[108.7,19.43],[108.4,18.86]]],[[[81.23,15.63],[82.12,16.37],[81.25,16.37],[81.23,15.63]]],[[[105.69,-6.1],[105.1,-5.71],[105.0,-6.65],[105.69,-6.1]]],[[[49.98,26.65],[50.68,25.19],[51.13,26.18],[51.79,25.74],[50.11,26.84],[50.08,27.87],[48.6,27.95],[49.98,26.65]]],[[[152.25,6.79],[153.12,6.86],[151.6,7.94],[151.28,7.37],[152.25,6.79]]],[[[111.4,21.34],[110.99,21.65],[110.61,20.38],[109.94,20.36],[110.98,19.83],[110.11,18.12],[111.65,19.85],[110.87,20.7],[111.4,21.34]]],[[[95.79,2.09],[97.11,1.99],[99.37,-0.07],[97.04,3.9],[96.35,3.57],[97.17,2.75],[96.25,2.31],[96.09,3.21],[94.98,3.16],[95.79,2.09]]],[[[14.71,36.93],[14.32,36.63],[15.35,36.39],[14.71,36.93]]],[[[-169.53,-19.37],[-169.48,-18.72],[-170.34,-18.97],[-169.53,-19.37]]],[[[43.84,-18.73],[43.86,-20.69],[44.52,-20.1],[44.33,-17.31],[43.5,-17.7],[43.84,-18.73]]],[[[174.76,-1.58],[175.14,-1.24],[174.07,-0.35],[174.76,-1.58]]],[[[46.06,-9.28],[46.77,-9.79],[46.6,-8.96],[46.06,-9.28]]],[[[159.44,-7.9],[157.04,-7.23],[157.0,-6.39],[156.01,-6.37],[155.88,-7.07],[154.83,-6.2],[155.35,-7.72],[156.48,-7.03],[156.52,-7.87],[158.15,-7.61],[159.31,-8.58],[159.44,-7.9]]],[[[97.81,-0.33],[98.44,-0.75],[98.12,0.77],[97.81,-0.33]]],[[[145.28,-1.29],[144.51,-0.64],[143.65,-1.66],[145.28,-1.29]]],[[[110.81,-7.96],[110.17,-8.28],[111.16,-8.43],[110.81,-7.96]]],[[[37.06,21.3],[37.0,19.38],[38.57,18.22],[39.06,18.67],[37.52,19.41],[37.06,21.3]]],[[[166.65,-11.29],[166.47,-11.82],[167.28,-11.85],[166.65,-11.29]]],[[[2.17,52.73],[-1.85,55.77],[0.15,53.44],[-0.31,52.95],[2.17,52.73]]],[[[50.23,-16.79],[50.48,-15.23],[50.27,-15.92],[49.49,-15.68],[49.47,-17.19],[50.23,-16.79]]],[[[151.28,-8.49],[150.1,-8.08],[150.78,-8.91],[149.82,-9.5],[149.13,-8.68],[150.51,-10.32],[149.78,-10.82],[154.39,-11.72],[154.5,-11.04],[151.42,-9.96],[151.19,-8.96],[152.28,-9.83],[153.09,-8.86],[151.28,-8.49]]],[[[147.42,-2.8],[148.22,-2.05],[146.28,-1.85],[146.1,-2.84],[147.42,-2.8]]],[[[3.88,51.36],[4.75,52.93],[8.91,53.7],[8.48,54.9],[4.15,53.01],[4.25,52.42],[2.28,51.11],[3.88,51.36]]],[[[134.56,-7.5],[135.12,-6.85],[133.82,-6.62],[134.56,-7.5]]],[[[27.55,35.18],[28.49,36.36],[27.8,36.74],[26.56,35.53],[22.67,35.99],[24.04,34.6],[27.55,35.18]]],[[[-159.33,21.72],[-159.66,22.4],[-161.09,21.63],[-159.33,21.72]]],[[[-177.03,-43.58],[-175.93,-44.54],[-175.83,-43.94],[-177.03,-43.58]]],[[[106.16,2.41],[106.69,3.37],[105.4,3.49],[106.16,2.41]]],[[[-173.7,-18.4],[-174.52,-17.77],[-174.9,-18.97],[-173.95,-19.21],[-173.7,-18.4]]],[[[167.8,-14.48],[167.54,-13.26],[166.5,-12.9],[166.31,-13.44],[167.8,-14.48]]],[[[170.68,8.84],[171.4,8.03],[171.23,9.1],[170.68,8.84]]],[[[97.31,15.87],[97.97,15.43],[97.59,16.48],[97.31,15.87]]],[[[-73.25,-37.58],[-72.66,-35.79],[-74.4,-38.28],[-73.61,-39.07],[-73.72,-40.65],[-73.25,-37.58]]],[[[134.9,-5.55],[134.07,-5.15],[134.97,-6.44],[134.9,-5.55]]],[[[55.49,-20.71],[54.99,-20.86],[55.41,-21.85],[56.04,-21.23],[55.49,-20.71]]],[[[32.8,35.52],[31.79,34.82],[32.91,34.22],[34.63,35.59],[33.51,36.21],[32.8,35.52]]],[[[28.81,36.38],[29.98,35.81],[30.86,36.3],[28.81,36.38]]],[[[-157.48,-19.58],[-159.08,-19.33],[-158.27,-20.12],[-157.19,-20.28],[-157.48,-19.58]]],[[[58.03,-19.73],[56.91,-20.52],[57.79,-20.71],[58.03,-19.73]]],[[[-157.13,20.87],[-156.06,18.56],[-154.93,18.88],[-154.76,20.19],[-157.72,21.59],[-157.78,22.25],[-158.68,21.45],[-157.13,20.87]],[[-155.57,19.17],[-156.05,19.67],[-155.19,20.02],[-155.57,19.17]]],[[[80.51,13.04],[80.15,15.76],[79.89,13.91],[80.08,12.8],[80.51,13.04]]],[[[-174.76,-20.54],[-174.08,-19.62],[-175.22,-19.55],[-175.4,-21.7],[-174.54,-21.48],[-174.76,-20.54]]],[[[-71.46,21.09],[-70.94,21.54],[-71.77,22.32],[-73.87,20.88],[-72.98,20.73],[-72.2,21.71],[-71.46,21.09]]],[[[107.24,20.5],[107.87,20.04],[108.25,21.34],[106.81,20.8],[106.25,19.89],[107.24,20.5]]],[[[161.55,-10.92],[162.78,-10.99],[161.59,-9.02],[160.94,-10.56],[162.17,-10.42],[161.55,-10.92]]],[[[70.93,-6.39],[71.51,-6.82],[71.64,-5.9],[70.93,-6.39]]],[[[72.96,11.02],[72.77,12.08],[72.0,10.66],[72.96,11.02]]],[[[47.33,-23.93],[47.99,-23.97],[47.81,-23.17],[47.33,-23.93]]],[[[54.11,25.65],[53.97,24.92],[55.12,24.86],[54.11,25.65]]],[[[-140.08,-9.49],[-139.39,-8.6],[-140.46,-8.69],[-140.08,-9.49]]],[[[146.06,7.9],[145.73,7.31],[146.6,7.15],[146.06,7.9]]],[[[40.43,20.21],[39.29,20.36],[39.81,19.55],[40.43,20.21]]],[[[109.89,12.65],[109.14,13.75],[109.2,12.35],[109.89,12.65]]],[[[167.65,11.59],[166.15,11.17],[167.64,11.01],[167.65,11.59]]],[[[36.48,22.56],[35.64,23.38],[36.57,23.65],[34.85,25.3],[35.25,23.14],[36.48,22.56]]],[[[55.22,-3.95],[54.99,-4.81],[55.75,-4.93],[55.87,-3.71],[55.22,-3.95]]],[[[107.45,0.44],[107.55,1.43],[106.71,1.49],[107.3,1.07],[106.6,0.51],[107.39,-0.05],[107.45,0.44]]],[[[-139.39,-9.56],[-138.82,-10.18],[-138.82,-9.42],[-139.39,-9.56]]],[[[155.29,7.15],[155.83,7.78],[155.25,8.04],[155.29,7.15]]],[[[172.53,5.89],[171.98,6.51],[171.36,6.08],[172.53,5.89]]],[[[58.35,24.1],[57.6,23.71],[60.02,22.54],[58.35,24.1]]],[[[-172.07,-13.43],[-172.94,-13.45],[-172.07,-14.27],[-172.07,-13.43]]],[[[109.55,20.9],[109.64,21.62],[108.52,21.67],[109.55,20.9]]],[[[113.98,-22.51],[113.44,-22.43],[113.62,-23.6],[113.98,-22.51]]],[[[102.81,6.13],[103.49,4.03],[104.0,4.75],[102.81,6.13]]],[[[105.38,-10.8],[106.06,-10.27],[105.24,-10.24],[105.38,-10.8]]],[[[107.18,-5.83],[105.76,-5.4],[106.1,-6.13],[107.18,-5.83]]],[[[40.94,18.56],[41.19,19.41],[40.19,19.36],[40.94,18.56]]],[[[173.28,0.77],[173.61,2.22],[172.67,1.94],[173.28,0.77]]],[[[-180.0,-19.26],[-179.45,-19.03],[-179.98,-18.45],[-180.0,-19.26]]],[[[165.69,8.85],[166.38,8.95],[165.45,9.36],[165.69,8.85]]],[[[153.94,5.55],[152.98,6.13],[153.25,5.31],[153.94,5.55]]],[[[43.72,-23.74],[43.21,-23.85],[43.56,-24.84],[43.72,-23.74]]],[[[130.33,-6.24],[129.13,-6.89],[129.74,-8.48],[130.29,-7.85],[129.55,-6.97],[130.33,-6.24]]],[[[-169.76,17.16],[-169.57,16.3],[-169.06,16.7],[-169.76,17.16]]],[[[158.45,6.45],[158.59,7.16],[157.81,7.33],[158.45,6.45]]]]}}]}