{"type":"FeatureCollection","features":[{"type":"Feature","properties":{},"geometry":{"type":"MultiPolygon","coordinates":[[[[104.24,0.56],[104.21,0.32],[104.42,0.18],[104.14,-0.42],[104.34,-0.56],[104.82,-0.1],[104.67,0.53],[104.47,0.67],[104.74,1.28],[103.68,1.48],[103.2,1.02],[102.99,1.16],[102.76,1.05],[102.38,1.59],[102.15,1.48],[102.31,0.84],[102.51,0.7],[103.17,0.77],[103.74,-0.15],[103.96,-0.04],[103.99,0.21],[103.78,0.35],[103.81,0.6],[104.04,0.7],[104.24,0.56]]],[[[54.49,36.77],[54.19,36.82],[53.51,36.5],[53.46,35.45],[53.75,35.4],[53.94,35.58],[54.63,35.25],[54.82,35.43],[55.11,35.38],[55.21,35.15],[55.89,34.81],[55.9,34.18],[56.67,34.24],[56.76,34.01],[56.57,33.83],[57.04,33.32],[56.85,33.14],[56.94,32.91],[57.7,32.97],[57.59,31.94],[58.95,31.01],[58.93,30.39],[59.39,30.49],[59.31,30.72],[59.51,30.88],[59.78,30.82],[59.86,30.59],[59.67,30.42],[60.1,29.9],[59.44,29.64],[59.52,29.42],[60.14,29.06],[60.22,28.84],[59.92,28.29],[60.33,27.78],[60.14,27.62],[59.54,27.97],[59.25,27.44],[58.55,27.4],[58.37,27.24],[58.78,26.74],[57.91,26.55],[57.74,26.4],[57.72,25.81],[58.41,25.84],[58.74,25.57],[58.92,25.72],[59.5,25.38],[60.11,25.62],[60.69,25.27],[61.13,25.36],[61.45,25.08],[62.52,25.39],[63.09,25.03],[65.51,25.56],[65.76,25.49],[65.82,25.27],[66.52,25.26],[66.57,25.04],[67.42,24.37],[67.33,23.8],[68.01,23.78],[68.88,22.9],[68.77,22.34],[69.57,21.68],[70.44,20.61],[71.52,20.64],[71.88,21.11],[72.54,21.07],[72.77,20.53],[72.37,19.81],[72.77,19.38],[72.57,18.78],[72.97,18.34],[72.77,17.75],[73.36,16.95],[73.16,16.35],[74.54,14.13],[74.34,13.53],[76.11,10.52],[75.9,9.91],[77.09,7.94],[78.1,8.03],[78.53,9.0],[78.74,9.12],[79.78,8.96],[79.34,7.99],[79.74,7.48],[79.52,6.87],[80.32,5.6],[80.94,5.69],[80.95,5.94],[81.16,6.05],[81.37,5.92],[81.58,6.03],[82.26,7.37],[81.05,9.42],[81.05,9.67],[80.43,9.81],[80.43,10.06],[80.02,10.57],[80.25,11.18],[80.04,11.31],[79.85,11.93],[80.73,13.16],[80.73,13.41],[80.32,13.91],[80.55,14.52],[80.34,14.65],[80.14,15.27],[80.58,15.76],[81.23,15.63],[81.67,16.13],[81.89,16.0],[82.11,16.12],[82.58,17.11],[83.24,17.23],[83.72,18.22],[84.4,18.34],[84.89,19.32],[85.57,19.44],[85.58,19.68],[85.81,19.8],[86.03,19.68],[86.26,19.8],[86.28,20.04],[86.51,20.16],[86.73,20.04],[86.96,20.16],[87.22,20.77],[87.0,20.9],[87.01,21.14],[87.25,21.26],[87.26,21.5],[87.96,21.61],[88.64,21.48],[89.13,21.96],[89.82,21.81],[90.06,21.93],[89.87,22.55],[90.11,22.66],[90.12,22.91],[89.9,23.04],[89.91,23.28],[90.41,23.75],[90.22,24.36],[90.72,24.83],[90.73,25.07],[92.39,25.13],[93.57,24.96],[93.02,24.01],[92.78,23.9],[92.34,24.41],[92.1,24.3],[91.82,23.7],[92.05,23.57],[92.24,22.95],[92.94,22.8],[92.92,22.55],[92.21,22.46],[92.6,21.46],[93.3,21.3],[93.28,21.05],[93.5,20.92],[93.49,20.67],[94.53,18.98],[94.51,18.73],[94.73,18.59],[94.98,18.7],[94.59,19.73],[94.16,20.26],[94.44,20.87],[94.21,21.0],[94.23,21.25],[94.48,21.36],[94.5,21.61],[94.27,21.74],[94.29,21.99],[94.53,22.1],[94.55,22.34],[93.86,22.51],[94.14,23.11],[93.91,23.24],[93.93,23.48],[94.18,23.59],[94.2,23.83],[93.76,24.34],[94.04,24.93],[94.76,25.01],[95.32,25.94],[94.88,26.44],[94.63,26.34],[94.35,25.76],[93.87,25.78],[93.36,25.33],[92.89,25.35],[92.45,25.84],[92.46,26.08],[91.99,26.1],[91.97,25.86],[91.73,25.75],[91.29,26.24],[91.57,26.82],[91.81,26.93],[92.99,26.77],[93.51,27.22],[93.53,27.45],[94.25,27.54],[94.06,28.13],[93.1,28.17],[93.08,27.94],[92.31,27.15],[91.83,27.17],[91.39,27.65],[90.88,27.2],[90.4,27.21],[89.96,27.69],[89.46,27.23],[88.99,27.23],[88.54,27.7],[88.04,27.24],[87.6,27.71],[86.42,27.59],[86.2,27.71],[86.21,27.94],[85.74,27.93],[85.3,28.38],[84.12,28.24],[83.66,28.69],[82.71,28.66],[82.23,29.57],[81.26,29.54],[80.76,29.98],[80.76,30.22],[79.78,30.17],[79.26,30.62],[78.77,30.59],[78.21,31.51],[77.44,31.58],[77.43,31.82],[76.3,32.96],[76.27,33.2],[76.0,33.3],[75.98,33.54],[75.71,33.65],[75.68,33.89],[75.4,33.99],[75.38,34.24],[75.1,34.34],[75.07,34.58],[74.26,34.64],[74.23,34.88],[73.95,34.98],[73.7,34.83],[73.42,34.93],[73.38,35.18],[73.63,35.33],[74.45,35.28],[74.7,35.42],[74.67,35.67],[73.31,35.67],[72.85,35.13],[71.91,35.91],[71.46,35.35],[69.57,35.25],[69.52,35.5],[69.96,36.06],[69.91,36.3],[71.24,36.59],[70.85,37.18],[71.1,37.34],[71.05,37.59],[70.4,38.02],[70.35,38.27],[70.81,38.84],[70.76,39.09],[67.65,38.82],[67.59,39.07],[68.4,39.31],[68.34,39.56],[68.59,39.72],[68.91,39.63],[69.16,39.8],[69.11,40.05],[67.65,39.98],[67.4,39.82],[67.46,39.57],[66.65,39.32],[66.54,38.65],[65.75,38.4],[65.81,38.15],[66.12,38.07],[66.01,37.41],[66.86,37.41],[67.1,37.58],[67.4,37.49],[67.47,37.25],[67.22,37.08],[66.92,37.17],[66.15,36.92],[65.47,37.32],[64.7,37.07],[64.4,37.14],[64.33,37.39],[64.02,37.46],[63.79,37.29],[63.11,37.68],[62.73,37.1],[61.9,37.07],[60.63,36.68],[59.15,37.66],[59.06,37.9],[58.23,37.84],[57.32,38.67],[57.01,38.72],[56.8,38.54],[56.08,38.89],[55.77,38.28],[55.87,38.05],[55.67,37.87],[55.68,37.21],[54.49,36.77]],[[80.01,9.82],[79.79,9.7],[79.59,9.83],[79.59,10.08],[79.8,10.2],[80.01,10.07],[80.01,9.82]],[[59.18,31.8],[59.26,31.57],[59.06,31.4],[58.79,31.47],[58.7,31.7],[58.9,31.86],[59.18,31.8]],[[69.04,35.18],[68.81,35.02],[68.52,35.11],[68.46,35.35],[68.7,35.51],[68.99,35.43],[69.04,35.18]]],[[[-6.77,5.33],[-6.46,4.97],[-6.06,5.36],[-5.76,5.01],[-4.8,5.7],[-4.51,5.23],[-4.13,5.49],[-2.28,4.79],[-1.84,5.24],[-1.3,5.17],[-1.08,5.4],[-0.73,5.29],[-0.47,5.71],[0.08,5.63],[0.31,5.86],[0.67,5.75],[1.14,6.22],[1.5,6.1],[1.78,6.54],[2.51,6.3],[2.76,6.54],[3.33,6.47],[3.58,6.71],[4.7,6.35],[4.81,5.99],[5.35,5.71],[5.8,4.29],[6.27,4.56],[6.75,4.27],[7.27,4.55],[7.6,4.42],[7.91,4.66],[8.25,4.53],[8.56,4.77],[9.01,4.47],[9.04,4.09],[9.59,3.99],[9.74,3.44],[10.08,3.3],[10.0,2.71],[9.68,2.46],[9.83,1.9],[9.41,1.44],[9.57,0.48],[9.15,0.02],[9.29,-0.56],[8.87,-1.02],[8.89,-1.41],[9.36,-1.75],[9.38,-2.15],[9.73,-2.31],[9.75,-2.72],[10.33,-2.85],[10.48,-3.44],[11.07,-3.58],[11.23,-4.18],[11.46,-4.15],[11.59,-4.34],[11.62,-4.76],[11.85,-4.73],[11.98,-4.93],[12.01,-5.34],[12.24,-5.31],[12.37,-5.51],[12.33,-6.57],[12.83,-6.94],[12.86,-7.36],[13.1,-7.34],[13.24,-7.54],[13.29,-9.89],[13.8,-10.27],[13.79,-11.78],[13.93,-11.99],[13.83,-12.21],[13.23,-12.48],[13.15,-13.13],[12.91,-13.15],[12.45,-13.62],[12.62,-14.25],[12.16,-14.71],[12.32,-15.34],[11.86,-15.8],[12.09,-17.29],[11.62,-17.74],[12.15,-18.14],[12.04,-18.36],[12.18,-18.56],[12.43,-18.55],[12.57,-18.76],[12.49,-19.4],[13.02,-19.81],[12.91,-20.02],[13.05,-20.23],[13.31,-20.22],[13.45,-20.43],[13.37,-21.07],[13.92,-21.47],[13.8,-21.69],[13.95,-21.9],[14.21,-21.89],[14.35,-22.09],[14.42,-24.41],[14.68,-25.87],[14.56,-26.08],[15.13,-26.48],[15.09,-27.51],[15.66,-27.91],[15.55,-28.11],[15.7,-28.32],[16.55,-28.7],[16.47,-29.32],[17.06,-29.71],[17.03,-30.71],[17.62,-31.1],[17.5,-31.3],[17.66,-31.5],[18.1,-31.68],[18.03,-32.28],[18.19,-32.47],[17.68,-32.88],[17.93,-33.85],[17.82,-34.04],[19.15,-34.59],[19.32,-34.78],[19.2,-34.97],[19.65,-35.15],[20.57,-34.55],[21.02,-34.72],[21.71,-34.5],[22.17,-34.67],[22.23,-34.08],[23.14,-34.42],[23.83,-34.18],[24.75,-34.51],[25.27,-34.08],[26.02,-34.22],[26.53,-33.78],[27.28,-33.91],[28.19,-33.22],[28.47,-33.19],[28.52,-32.59],[30.37,-31.57],[30.41,-30.95],[31.08,-30.66],[31.18,-30.44],[31.01,-30.26],[31.5,-29.78],[31.32,-29.6],[31.42,-29.38],[32.85,-28.55],[32.95,-28.32],[32.7,-27.73],[33.18,-27.23],[32.93,-26.63],[33.03,-26.4],[33.31,-26.36],[33.34,-25.71],[33.98,-25.4],[34.45,-24.89],[34.73,-24.85],[34.9,-25.03],[35.54,-24.71],[35.64,-24.48],[35.46,-24.29],[35.93,-23.78],[35.6,-22.74],[35.69,-22.51],[35.44,-21.89],[35.38,-20.8],[35.21,-20.61],[34.95,-20.65],[34.77,-20.46],[34.87,-20.22],[35.5,-19.89],[35.52,-19.22],[35.78,-19.18],[35.87,-18.94],[36.57,-19.04],[36.59,-18.37],[38.25,-17.18],[39.72,-15.8],[39.98,-15.75],[40.14,-15.94],[40.4,-15.89],[40.48,-15.65],[40.23,-15.03],[40.66,-14.51],[40.33,-13.46],[40.75,-12.93],[40.42,-11.88],[40.84,-11.36],[40.67,-11.17],[40.68,-10.5],[40.51,-10.3],[40.26,-10.35],[40.1,-10.15],[40.19,-9.92],[39.61,-9.57],[39.69,-9.34],[39.37,-8.28],[39.46,-8.04],[39.71,-8.0],[39.87,-8.2],[40.11,-8.16],[40.2,-7.92],[39.63,-7.57],[39.71,-7.34],[39.47,-6.72],[39.88,-6.21],[39.32,-5.86],[39.4,-5.63],[39.64,-5.59],[39.81,-5.78],[40.05,-5.74],[40.13,-5.51],[39.97,-5.32],[40.05,-5.09],[39.49,-4.74],[39.57,-4.51],[39.82,-4.47],[39.82,-3.82],[40.39,-3.51],[40.39,-2.87],[41.9,-1.78],[41.9,-1.15],[43.07,-0.35],[43.07,0.28],[46.87,3.23],[46.86,3.82],[47.93,4.54],[47.92,5.12],[48.69,5.59],[48.61,5.96],[48.25,6.12],[48.09,6.86],[47.15,7.15],[47.07,7.52],[46.56,7.85],[46.54,8.41],[46.91,8.26],[46.99,7.89],[47.56,7.75],[47.79,7.21],[48.9,8.06],[48.54,8.22],[48.27,8.01],[46.1,8.93],[46.02,9.3],[45.51,9.62],[45.53,9.99],[45.2,10.15],[44.31,9.71],[43.0,10.34],[42.2,9.71],[41.86,9.86],[41.29,9.62],[40.95,9.78],[40.27,9.33],[40.25,11.26],[39.78,11.61],[39.87,14.6],[39.74,14.8],[38.42,14.08],[38.32,13.47],[37.0,12.75],[36.91,12.13],[36.2,11.66],[35.58,11.8],[35.23,11.57],[35.1,11.75],[34.5,11.49],[33.61,12.0],[33.01,11.73],[32.87,11.92],[32.62,11.89],[32.45,12.48],[31.42,12.78],[31.24,13.38],[30.6,13.51],[30.41,14.12],[29.8,13.84],[28.84,14.36],[28.23,14.07],[28.08,14.26],[27.82,14.23],[27.36,13.75],[26.7,13.88],[26.25,13.4],[25.59,13.52],[25.49,13.29],[23.85,12.23],[22.45,12.87],[20.96,13.27],[20.8,13.46],[20.89,13.69],[20.3,14.02],[20.39,14.25],[20.22,14.44],[19.63,14.13],[18.2,14.75],[17.61,14.44],[17.02,14.76],[16.77,14.72],[16.69,14.49],[16.02,14.59],[15.94,14.36],[15.69,14.32],[15.09,14.64],[14.52,14.32],[13.93,14.63],[13.36,14.31],[12.77,14.63],[12.21,14.31],[11.62,14.61],[11.38,14.57],[11.31,14.34],[10.65,14.42],[10.59,14.19],[10.35,14.14],[9.34,14.57],[8.81,14.25],[7.4,14.79],[6.88,14.46],[6.29,14.75],[5.78,14.42],[3.99,15.05],[3.49,14.71],[2.12,15.21],[1.64,14.87],[0.68,15.25],[0.21,14.91],[-1.12,15.38],[-1.57,15.05],[-2.13,15.3],[-2.57,14.97],[-3.49,15.31],[-6.45,15.22],[-6.8,15.66],[-12.57,15.59],[-13.01,15.13],[-13.41,15.57],[-16.4,15.46],[-17.04,14.41],[-16.4,13.66],[-16.82,12.75],[-16.61,12.65],[-16.19,11.8],[-15.58,11.72],[-15.38,11.2],[-14.77,11.12],[-14.38,10.29],[-13.78,10.22],[-13.41,9.4],[-12.83,9.33],[-12.46,8.73],[-12.67,8.42],[-12.5,7.92],[-12.11,7.94],[-11.75,7.56],[-11.55,7.67],[-11.2,7.1],[-10.82,7.12],[-10.65,6.83],[-10.28,6.85],[-10.11,6.57],[-9.56,6.5],[-9.41,6.03],[-9.05,6.05],[-8.89,5.77],[-8.35,5.71],[-8.04,5.16],[-7.64,5.56],[-7.17,4.94],[-6.77,5.33]],[[21.57,-30.33],[21.69,-30.12],[21.97,-30.1],[22.03,-29.48],[22.7,-29.23],[22.81,-29.01],[22.64,-28.82],[22.75,-28.6],[23.03,-28.58],[23.14,-28.36],[22.98,-28.17],[23.48,-27.71],[24.2,-27.86],[24.37,-28.06],[23.87,-28.52],[24.04,-28.71],[23.92,-28.93],[23.64,-28.95],[23.53,-29.17],[23.7,-29.36],[23.98,-29.34],[24.09,-29.12],[24.37,-29.1],[24.43,-28.47],[25.09,-28.2],[25.2,-27.98],[25.48,-27.96],[26.1,-28.32],[27.16,-27.79],[27.33,-27.98],[28.06,-28.11],[28.1,-27.48],[29.15,-26.93],[29.64,-26.44],[30.37,-26.56],[30.47,-26.33],[30.75,-26.3],[30.92,-26.49],[30.44,-26.98],[30.68,-27.58],[30.58,-27.81],[30.3,-27.85],[29.42,-28.59],[29.67,-29.18],[30.34,-28.89],[30.51,-29.08],[30.02,-29.56],[30.19,-29.74],[30.09,-29.96],[29.81,-30.0],[29.7,-30.22],[29.88,-30.4],[29.38,-30.87],[29.56,-31.06],[29.45,-31.27],[29.17,-31.3],[29.06,-31.52],[29.23,-31.7],[29.13,-31.92],[28.84,-31.95],[27.94,-32.65],[27.48,-32.5],[27.19,-32.52],[27.08,-32.73],[26.62,-32.58],[25.94,-32.84],[24.39,-32.16],[24.11,-32.18],[23.99,-32.39],[23.54,-32.22],[23.26,-32.24],[23.14,-32.45],[22.69,-32.28],[22.4,-32.3],[22.29,-32.5],[21.84,-32.33],[21.16,-32.56],[20.71,-32.38],[20.55,-32.19],[20.66,-31.99],[20.05,-31.62],[20.56,-31.19],[20.84,-31.18],[20.9,-30.57],[21.57,-30.33]],[[38.81,13.11],[38.68,13.3],[38.8,13.51],[39.04,13.53],[39.16,13.34],[38.81,13.11]]],[[[78.9,37.21],[79.47,36.74],[80.29,36.89],[80.84,36.42],[81.11,36.55],[81.92,36.45],[82.46,36.95],[82.73,36.84],[83.0,36.96],[83.0,37.21],[82.46,37.7],[82.46,37.95],[81.63,38.06],[81.34,38.68],[80.5,38.78],[80.49,39.03],[80.2,39.15],[79.36,38.99],[78.76,39.47],[77.92,39.31],[77.31,39.78],[75.31,39.52],[75.34,39.27],[75.64,39.16],[75.67,38.91],[75.97,38.8],[76.0,38.55],[76.29,38.45],[76.32,38.19],[77.23,37.37],[77.25,37.12],[77.54,37.01],[78.9,37.21]]],[[[69.73,39.87],[70.62,39.84],[70.88,40.0],[70.83,40.26],[69.94,40.28],[69.68,40.12],[69.73,39.87]]],[[[131.22,42.88],[130.32,42.83],[129.39,40.89],[128.77,40.74],[128.79,40.53],[128.37,40.5],[128.0,40.04],[127.19,39.98],[127.03,39.65],[127.29,39.13],[127.69,39.15],[127.83,39.7],[128.44,39.85],[128.42,40.07],[129.03,40.21],[129.01,40.43],[129.21,40.55],[129.63,40.58],[129.99,41.48],[130.59,42.29],[131.26,42.22],[131.69,42.69],[134.47,42.8],[134.47,43.02],[134.23,43.13],[132.59,42.95],[132.11,43.38],[131.65,43.35],[131.22,42.88]]],[[[93.68,26.39],[93.2,26.41],[93.19,26.17],[93.41,26.04],[93.66,26.15],[93.68,26.39]]],[[[103.57,2.63],[103.6,2.88],[103.39,3.02],[103.16,2.91],[103.14,2.66],[103.34,2.52],[103.57,2.63]]],[[[126.15,40.22],[125.36,40.15],[125.12,40.45],[125.27,40.78],[124.67,40.83],[124.21,40.04],[122.75,39.91],[122.59,39.78],[122.69,39.63],[122.1,39.41],[122.7,38.94],[122.82,39.26],[123.36,39.42],[123.49,39.75],[124.24,39.83],[124.69,39.45],[125.07,39.49],[125.34,38.98],[124.88,38.2],[125.07,37.73],[125.72,37.63],[126.28,37.77],[126.51,37.47],[126.29,37.17],[126.94,37.07],[127.28,37.51],[127.02,38.03],[127.18,38.37],[126.5,39.07],[126.63,39.62],[126.39,39.92],[126.55,40.26],[126.15,40.22]]],[[[112.92,22.76],[112.89,22.53],[113.32,22.45],[113.52,22.3],[113.48,22.06],[114.11,21.83],[114.34,21.91],[114.89,22.75],[114.47,22.83],[114.43,22.6],[114.2,22.53],[112.92,22.76]]],[[[105.93,-5.76],[105.74,-5.63],[106.01,-5.05],[105.81,-4.92],[105.84,-4.69],[106.08,-4.34],[105.89,-4.21],[105.42,-4.66],[105.05,-4.16],[104.82,-4.26],[104.62,-4.13],[104.65,-3.89],[104.45,-3.76],[104.22,-3.86],[104.02,-3.73],[104.05,-3.49],[103.85,-3.35],[103.62,-3.46],[103.42,-3.33],[103.45,-3.08],[103.24,-2.95],[103.02,-3.06],[102.82,-2.92],[102.12,-1.15],[102.35,-1.04],[102.73,-1.56],[102.96,-1.45],[102.98,-1.21],[102.6,-0.68],[101.94,-0.76],[101.73,-0.62],[101.39,0.4],[100.75,0.58],[100.21,2.01],[100.01,2.15],[100.28,2.76],[100.07,2.91],[100.09,3.16],[99.44,3.34],[99.47,3.59],[99.26,3.73],[99.02,3.62],[98.81,3.77],[98.64,4.42],[97.99,4.6],[97.82,5.26],[97.61,5.4],[96.04,5.39],[95.63,5.93],[94.95,5.86],[95.71,4.0],[95.92,3.86],[96.15,3.97],[96.36,3.83],[96.35,3.57],[97.0,3.4],[96.98,3.14],[97.38,2.6],[97.36,2.35],[96.69,2.27],[96.29,2.81],[96.31,3.07],[95.65,3.24],[95.42,3.13],[95.6,2.48],[95.81,2.34],[96.04,2.45],[96.44,1.91],[96.67,2.02],[97.32,1.85],[97.8,2.32],[98.01,2.17],[98.18,1.53],[98.83,1.35],[99.56,-0.46],[100.2,-0.63],[101.28,-3.18],[101.91,-3.35],[102.25,-4.34],[102.45,-4.48],[102.68,-4.37],[102.88,-4.5],[102.85,-4.74],[103.05,-4.87],[103.28,-4.77],[103.66,-5.27],[104.08,-5.3],[104.05,-5.53],[104.43,-6.03],[105.69,-6.1],[105.44,-6.44],[105.02,-6.42],[105.17,-7.01],[106.0,-7.06],[106.37,-7.54],[107.41,-7.48],[107.77,-7.95],[110.41,-7.95],[110.76,-8.41],[113.12,-8.49],[113.6,-7.83],[113.21,-7.82],[112.88,-7.36],[112.48,-7.34],[112.03,-7.78],[111.72,-7.09],[112.12,-7.1],[112.36,-6.77],[111.17,-6.72],[110.82,-6.24],[110.12,-7.02],[109.31,-6.99],[108.96,-6.51],[108.55,-6.49],[108.58,-6.25],[108.39,-6.13],[107.76,-6.21],[107.4,-5.72],[106.93,-6.17],[106.57,-5.68],[105.93,-5.76]]],[[[-120.8,35.28],[-120.58,35.45],[-120.64,35.69],[-120.93,35.75],[-121.0,35.98],[-121.28,36.05],[-121.35,36.28],[-121.64,36.34],[-121.86,36.17],[-121.08,35.34],[-120.8,35.28]]],[[[93.91,7.09],[94.14,7.2],[94.16,7.46],[93.5,7.63],[93.77,8.26],[93.55,8.4],[92.87,8.32],[93.45,6.86],[93.66,6.72],[93.89,6.83],[93.91,7.09]]],[[[49.7,10.85],[49.79,10.68],[50.12,10.88],[49.82,11.04],[49.7,10.85]]],[[[99.64,-2.08],[100.17,-3.47],[100.37,-3.61],[100.6,-3.5],[100.07,-2.11],[99.87,-1.98],[99.64,-2.08]]],[[[122.79,40.64],[123.1,41.35],[122.99,41.52],[122.33,41.76],[121.43,41.57],[121.26,41.43],[121.32,40.98],[119.01,39.55],[119.36,39.42],[121.26,40.69],[121.7,40.78],[121.97,40.75],[122.01,40.3],[121.46,40.02],[121.56,39.86],[122.22,39.98],[122.45,40.39],[122.35,40.55],[122.79,40.64]]],[[[103.25,1.52],[103.27,1.77],[103.07,1.91],[102.84,1.8],[102.81,1.55],[103.02,1.41],[103.25,1.52]]],[[[101.78,2.26],[102.01,2.37],[102.4,1.84],[102.63,1.94],[102.65,2.2],[102.27,2.73],[102.04,2.62],[101.83,2.77],[101.34,2.3],[100.7,2.48],[100.47,2.37],[100.45,2.12],[100.65,1.97],[101.32,2.05],[101.71,1.51],[101.94,1.62],[101.97,1.87],[101.76,2.01],[101.78,2.26]]],[[[73.26,-0.25],[73.02,-0.54],[73.2,-0.67],[73.42,-0.59],[73.26,-0.25]]],[[[102.18,-5.06],[101.95,-5.17],[101.93,-5.4],[102.13,-5.54],[102.36,-5.43],[102.38,-5.19],[102.18,-5.06]]],[[[73.33,3.9],[73.71,3.88],[73.9,4.46],[73.52,4.48],[73.33,3.9]]],[[[38.65,14.91],[38.77,14.72],[39.13,14.95],[39.0,15.56],[38.75,15.54],[38.65,14.91]]],[[[121.63,36.96],[121.41,36.93],[121.55,36.6],[121.81,36.81],[121.63,36.96]]],[[[-75.48,39.56],[-73.98,40.42],[-73.88,40.64],[-73.04,40.57],[-73.05,41.18],[-72.74,41.23],[-72.63,41.45],[-72.85,41.62],[-73.17,41.57],[-73.27,41.35],[-74.12,41.41],[-74.1,40.81],[-74.41,40.75],[-74.9,40.26],[-75.74,40.32],[-75.83,40.1],[-75.48,39.56]]],[[[103.75,2.23],[103.96,2.09],[103.93,1.84],[104.14,1.7],[104.36,1.81],[104.21,2.45],[104.01,2.59],[103.78,2.48],[103.75,2.23]]],[[[22.86,-29.42],[22.75,-29.64],[22.92,-29.83],[23.2,-29.81],[23.31,-29.6],[22.86,-29.42]]],[[[73.51,0.28],[73.7,0.61],[72.94,0.67],[73.29,-0.04],[73.51,0.05],[73.51,0.28]]],[[[44.12,14.88],[44.09,13.7],[44.67,13.93],[44.78,13.74],[45.12,13.96],[45.68,13.8],[45.8,14.0],[45.37,14.36],[45.38,14.76],[44.8,14.53],[44.69,14.72],[44.83,15.32],[44.38,15.69],[44.39,16.09],[43.68,15.65],[43.67,15.25],[44.12,14.88]]],[[[98.31,0.38],[98.08,0.27],[98.06,0.02],[98.46,-0.51],[98.94,-0.04],[98.96,0.21],[98.31,0.38]]],[[[101.21,3.2],[101.41,3.05],[101.64,3.16],[101.67,3.42],[101.46,3.56],[101.23,3.45],[101.21,3.2]]],[[[118.42,38.94],[118.78,39.17],[118.66,39.32],[118.42,39.29],[118.42,38.94]]],[[[99.45,-1.7],[98.87,-0.79],[98.4,-1.25],[98.37,-1.5],[98.58,-1.64],[98.81,-1.53],[99.2,-2.05],[99.43,-1.94],[99.45,-1.7]]],[[[48.22,9.66],[48.3,9.3],[48.51,9.32],[48.57,9.5],[48.22,9.66]]],[[[106.71,-2.45],[106.49,-2.56],[106.46,-2.8],[106.66,-2.93],[106.91,-2.58],[106.71,-2.45]]],[[[104.09,-0.92],[103.89,-0.78],[103.66,-0.89],[103.64,-1.13],[103.84,-1.27],[104.07,-1.16],[104.45,-1.68],[104.67,-1.58],[104.52,-0.95],[104.32,-0.81],[104.09,-0.92]]],[[[97.43,0.45],[97.64,0.31],[97.87,0.42],[97.89,0.67],[98.12,0.77],[97.95,1.42],[97.74,1.56],[97.07,1.48],[97.43,0.45]]],[[[72.57,3.94],[72.95,3.92],[72.95,4.15],[72.76,4.28],[72.57,3.94]]],[[[101.3,4.21],[101.78,4.68],[101.81,4.93],[101.41,5.48],[101.18,5.37],[101.16,5.12],[101.37,4.97],[101.09,4.35],[101.3,4.21]]],[[[121.42,39.34],[121.53,39.18],[121.87,39.39],[121.21,39.65],[121.09,39.47],[121.42,39.34]]],[[[73.14,2.86],[72.95,3.22],[72.76,2.88],[73.51,1.67],[73.7,2.0],[73.14,2.86]]],[[[100.74,5.41],[100.34,5.95],[100.11,5.84],[100.46,4.79],[100.67,4.64],[100.9,4.75],[100.74,5.41]]],[[[99.92,6.25],[100.15,6.35],[100.17,6.61],[99.77,7.16],[99.54,7.05],[99.52,6.79],[99.92,6.25]]],[[[105.99,-3.25],[106.24,-2.9],[105.87,-2.39],[105.64,-2.5],[105.62,-2.74],[105.99,-3.25]]],[[[-76.77,39.12],[-76.08,39.45],[-76.0,39.66],[-76.52,39.77],[-76.6,39.55],[-77.29,39.22],[-77.36,39.0],[-77.14,38.84],[-76.85,38.9],[-76.77,39.12]]],[[[57.57,26.83],[57.23,27.11],[57.06,26.95],[57.05,26.36],[57.48,26.46],[57.4,26.67],[57.57,26.83]]],[[[-15.99,11.49],[-16.19,11.37],[-15.99,11.06],[-15.78,11.39],[-15.99,11.49]]],[[[105.05,-2.09],[104.85,-1.96],[104.62,-2.06],[104.6,-2.31],[104.8,-2.44],[105.02,-2.34],[105.05,-2.09]]],[[[48.14,10.93],[47.6,10.71],[47.29,10.87],[46.96,10.66],[46.92,9.92],[47.44,9.78],[48.1,10.19],[48.14,10.93]]],[[[120.51,37.85],[120.69,37.7],[120.96,37.91],[120.54,38.03],[120.51,37.85]]],[[[103.23,3.67],[103.21,3.42],[103.42,3.27],[103.65,3.38],[103.67,3.63],[103.46,3.78],[103.23,3.67]]],[[[122.32,37.18],[122.76,37.18],[122.79,37.36],[122.59,37.45],[122.32,37.18]]],[[[72.76,6.63],[72.95,6.27],[72.76,5.93],[72.95,5.56],[72.76,4.98],[72.95,4.86],[73.33,5.31],[73.71,5.3],[73.71,5.53],[73.14,6.38],[73.34,6.97],[73.14,7.09],[72.76,6.63]]],[[[112.79,21.83],[112.99,21.67],[113.22,21.75],[113.25,21.99],[112.83,22.06],[112.79,21.83]]],[[[95.08,28.78],[94.6,28.8],[94.31,28.24],[94.79,28.21],[95.08,28.78]]],[[[118.82,38.3],[118.59,38.27],[118.75,37.94],[119.01,38.16],[118.82,38.3]]],[[[55.81,-4.71],[56.08,-4.42],[55.81,-3.93],[55.54,-4.22],[55.81,-4.71]]],[[[119.49,37.17],[119.06,37.28],[119.03,37.1],[119.22,36.95],[119.49,37.17]]],[[[56.45,27.28],[56.89,27.38],[56.8,27.6],[56.54,27.66],[56.37,27.5],[56.45,27.28]]],[[[121.14,38.79],[121.33,38.65],[121.59,38.85],[121.18,38.97],[121.14,38.79]]],[[[71.97,-5.12],[71.71,-5.44],[71.9,-5.58],[72.13,-5.49],[72.16,-5.26],[71.97,-5.12]]],[[[72.56,40.44],[72.25,40.54],[71.98,40.38],[72.03,40.13],[72.34,40.03],[72.6,40.18],[72.56,40.44]]],[[[105.96,-3.49],[105.74,-3.6],[105.72,-3.84],[105.91,-3.97],[106.16,-3.62],[105.96,-3.49]]],[[[128.16,38.53],[128.61,38.12],[128.8,38.24],[128.31,39.08],[127.91,39.06],[128.16,38.53]]],[[[118.07,39.06],[117.71,39.19],[117.59,38.99],[117.72,38.84],[118.07,39.06]]],[[[119.91,37.06],[120.17,37.27],[119.98,37.42],[119.75,37.39],[119.91,37.06]]],[[[122.16,37.44],[122.2,37.62],[121.78,37.68],[121.93,37.35],[122.16,37.44]]],[[[100.58,3.63],[100.79,3.49],[101.02,3.59],[101.04,3.85],[100.65,4.39],[100.42,4.28],[100.58,3.63]]],[[[123.6,40.53],[123.7,40.37],[124.14,40.45],[123.77,40.66],[123.6,40.53]]],[[[105.52,-1.63],[105.3,-1.74],[105.27,-1.99],[105.47,-2.12],[105.7,-2.01],[105.72,-1.77],[105.52,-1.63]]],[[[8.74,3.47],[8.96,3.51],[8.94,3.88],[8.62,3.64],[8.74,3.47]]],[[[73.51,2.83],[73.89,2.81],[73.9,3.05],[73.71,3.17],[73.51,2.83]]]]}}]}