{"type":"FeatureCollection","features":[{"type":"Feature","properties":{},"geometry":{"type":"MultiPolygon","coordinates":[[[[17.4,-25.14],[17.29,-25.36],[17.44,-25.56],[17.33,-25.78],[17.49,-25.98],[17.37,-26.19],[17.53,-26.4],[17.42,-26.61],[17.57,-26.81],[17.84,-26.8],[18.0,-27.0],[18.27,-26.99],[18.38,-26.78],[18.65,-26.76],[18.81,-26.96],[19.08,-26.95],[19.2,-26.73],[19.47,-26.72],[19.63,-26.92],[19.52,-27.14],[19.68,-27.34],[19.56,-27.55],[19.72,-27.75],[20.0,-27.74],[20.16,-27.94],[20.43,-27.92],[20.6,-28.12],[20.87,-28.1],[20.98,-27.89],[21.26,-27.87],[21.37,-27.65],[21.65,-27.64],[21.76,-27.42],[22.04,-27.4],[22.15,-27.18],[22.42,-27.16],[22.59,-27.36],[22.87,-27.34],[22.98,-27.12],[23.25,-27.1],[23.36,-26.88],[23.64,-26.85],[23.75,-26.63],[24.03,-26.61],[24.14,-26.39],[24.41,-26.36],[24.52,-26.14],[24.8,-26.12],[24.97,-26.31],[25.24,-26.29],[25.35,-26.06],[25.63,-26.04],[25.74,-25.81],[26.01,-25.78],[26.18,-25.98],[26.46,-25.95],[26.57,-25.73],[26.84,-25.7],[27.01,-25.89],[27.29,-25.86],[27.46,-26.06],[27.74,-26.03],[27.91,-26.22],[28.19,-26.19],[28.29,-25.96],[28.57,-25.93],[28.68,-25.7],[28.95,-25.67],[29.06,-25.44],[29.33,-25.41],[29.44,-25.18],[29.71,-25.14],[29.82,-24.91],[30.09,-24.88],[30.2,-24.65],[30.47,-24.61],[30.64,-24.8],[30.92,-24.77],[31.09,-24.96],[30.99,-25.19],[31.16,-25.38],[31.06,-25.61],[31.23,-25.8],[31.13,-26.03],[31.3,-26.22],[31.2,-26.45],[31.38,-26.64],[31.27,-26.87],[31.45,-27.06],[31.34,-27.28],[31.52,-27.47],[31.42,-27.7],[31.59,-27.88],[31.49,-28.11],[31.66,-28.3],[31.56,-28.52],[31.28,-28.56],[31.18,-28.78],[30.9,-28.82],[30.79,-29.04],[30.97,-29.23],[30.86,-29.45],[30.58,-29.49],[30.48,-29.71],[30.65,-29.89],[30.55,-30.11],[30.27,-30.15],[30.16,-30.37],[30.34,-30.55],[30.23,-30.77],[29.95,-30.8],[29.84,-31.02],[29.56,-31.06],[29.45,-31.27],[29.17,-31.3],[29.06,-31.52],[29.23,-31.7],[29.52,-31.67],[29.63,-31.46],[29.91,-31.42],[30.02,-31.2],[30.3,-31.17],[30.41,-30.95],[30.69,-30.92],[30.8,-30.7],[30.62,-30.52],[30.72,-30.3],[31.01,-30.26],[31.11,-30.04],[31.39,-30.0],[31.5,-29.78],[31.32,-29.6],[31.42,-29.38],[31.71,-29.34],[31.81,-29.11],[32.09,-29.08],[32.19,-28.85],[32.47,-28.81],[32.57,-28.59],[32.4,-28.4],[32.5,-28.18],[32.78,-28.14],[32.88,-27.91],[32.7,-27.73],[32.81,-27.5],[33.08,-27.46],[33.18,-27.23],[33.01,-27.05],[33.11,-26.82],[32.93,-26.63],[33.03,-26.4],[32.86,-26.21],[32.96,-25.98],[32.79,-25.8],[32.89,-25.57],[33.16,-25.52],[33.26,-25.29],[33.53,-25.25],[33.63,-25.02],[33.91,-24.98],[34.01,-24.75],[34.28,-24.7],[34.45,-24.89],[34.73,-24.85],[34.82,-24.61],[35.09,-24.57],[35.19,-24.34],[35.02,-24.15],[35.11,-23.92],[34.94,-23.73],[34.67,-23.77],[34.5,-23.58],[34.59,-23.35],[34.42,-23.16],[34.52,-22.92],[34.35,-22.73],[34.44,-22.5],[34.71,-22.45],[34.81,-22.22],[34.64,-22.02],[34.73,-21.79],[34.56,-21.6],[34.66,-21.36],[34.93,-21.32],[35.02,-21.08],[34.85,-20.89],[34.95,-20.65],[34.77,-20.46],[34.87,-20.22],[34.7,-20.02],[34.79,-19.79],[35.06,-19.74],[35.16,-19.5],[35.42,-19.46],[35.52,-19.22],[35.78,-19.18],[35.87,-18.94],[36.14,-18.89],[36.23,-18.66],[36.06,-18.46],[36.15,-18.22],[36.42,-18.18],[36.51,-17.94],[36.34,-17.74],[36.43,-17.51],[36.69,-17.46],[36.79,-17.22],[36.62,-17.03],[36.71,-16.79],[36.97,-16.74],[37.06,-16.5],[36.89,-16.31],[36.63,-16.35],[36.46,-16.16],[36.2,-16.2],[36.03,-16.0],[35.77,-16.05],[35.68,-16.29],[35.42,-16.33],[35.25,-16.13],[35.34,-15.9],[35.61,-15.85],[35.7,-15.61],[35.96,-15.57],[36.05,-15.33],[35.88,-15.13],[35.98,-14.89],[36.23,-14.85],[36.4,-15.05],[36.66,-15.0],[36.75,-14.76],[37.01,-14.72],[37.1,-14.48],[37.36,-14.43],[37.52,-14.63],[37.78,-14.58],[37.87,-14.34],[38.13,-14.3],[38.29,-14.49],[38.55,-14.45],[38.64,-14.21],[38.47,-14.01],[38.56,-13.78],[38.39,-13.58],[38.48,-13.34],[38.73,-13.3],[38.82,-13.06],[39.07,-13.01],[39.16,-12.77],[39.41,-12.73],[39.58,-12.92],[39.83,-12.88],[39.92,-12.64],[39.75,-12.45],[39.84,-12.21],[40.09,-12.16],[40.17,-11.92],[40.42,-11.88],[40.51,-11.64],[40.34,-11.45],[40.43,-11.21],[40.67,-11.17],[40.76,-10.93],[40.59,-10.73],[40.68,-10.5],[40.51,-10.3],[40.26,-10.35],[40.1,-10.15],[39.85,-10.2],[39.69,-10.0],[39.77,-9.77],[39.61,-9.57],[39.69,-9.34],[39.53,-9.14],[39.62,-8.9],[39.45,-8.71],[39.54,-8.47],[39.37,-8.28],[39.46,-8.04],[39.3,-7.85],[39.38,-7.61],[39.22,-7.42],[39.3,-7.19],[39.55,-7.15],[39.63,-6.91],[39.47,-6.72],[39.23,-6.76],[39.06,-6.56],[39.15,-6.33],[39.39,-6.29],[39.48,-6.06],[39.32,-5.86],[39.07,-5.9],[38.91,-5.71],[38.99,-5.47],[39.24,-5.43],[39.32,-5.2],[39.16,-5.01],[39.25,-4.78],[39.49,-4.74],[39.57,-4.51],[39.82,-4.47],[39.9,-4.24],[39.74,-4.05],[39.82,-3.82],[40.06,-3.78],[40.15,-3.55],[39.99,-3.36],[40.07,-3.13],[40.31,-3.09],[40.39,-2.87],[40.63,-2.83],[40.71,-2.6],[40.95,-2.57],[41.03,-2.34],[41.27,-2.3],[41.35,-2.08],[41.59,-2.04],[41.67,-1.82],[41.51,-1.63],[41.59,-1.41],[41.82,-1.37],[41.9,-1.15],[42.14,-1.11],[42.22,-0.89],[42.45,-0.86],[42.53,-0.63],[42.37,-0.45],[42.45,-0.23],[42.68,-0.19],[42.76,0.03],[42.99,0.06],[43.07,0.28],[43.3,0.31],[43.37,0.53],[43.6,0.56],[43.68,0.78],[43.52,0.97],[43.6,1.18],[43.83,1.21],[43.9,1.43],[44.13,1.46],[44.21,1.67],[44.43,1.7],[44.51,1.92],[44.35,2.1],[44.43,2.32],[44.27,2.5],[44.05,2.47],[43.89,2.65],[43.97,2.87],[44.19,2.89],[44.27,3.11],[44.49,3.13],[44.57,3.34],[44.41,3.53],[44.49,3.74],[44.33,3.92],[44.11,3.89],[43.96,4.07],[43.73,4.05],[43.66,3.84],[43.43,3.81],[43.35,3.6],[43.51,3.42],[43.43,3.2],[43.2,3.18],[43.05,3.36],[42.82,3.33],[42.75,3.12],[42.52,3.09],[42.44,2.88],[42.21,2.85],[42.05,3.03],[42.13,3.24],[41.98,3.43],[41.75,3.4],[41.59,3.58],[41.36,3.56],[41.2,3.74],[40.97,3.71],[40.82,3.9],[40.9,4.11],[40.74,4.29],[40.82,4.5],[41.05,4.53],[41.21,4.35],[41.44,4.37],[41.51,4.58],[41.36,4.77],[41.13,4.74],[40.98,4.92],[41.05,5.13],[40.9,5.31],[40.98,5.52],[40.83,5.7],[40.59,5.68],[40.44,5.86],[40.52,6.06],[40.75,6.09],[40.83,6.3],[40.68,6.48],[40.75,6.68],[40.98,6.71],[41.06,6.91],[40.91,7.09],[40.98,7.29],[40.83,7.47],[40.91,7.67],[41.14,7.7],[41.21,7.9],[41.06,8.07],[40.84,8.05],[40.68,8.23],[40.76,8.43],[40.99,8.45],[41.07,8.65],[41.29,8.67],[41.37,8.87],[41.6,8.89],[41.75,8.72],[41.97,8.74],[42.05,8.94],[42.27,8.96],[42.35,9.15],[42.57,9.17],[42.64,9.37],[42.87,9.39],[43.02,9.22],[42.94,9.02],[43.09,8.85],[43.32,8.87],[43.39,9.06],[43.24,9.24],[43.31,9.43],[43.21,9.61],[42.98,9.59],[42.87,9.77],[42.65,9.75],[42.54,9.55],[42.31,9.53],[42.2,9.71],[41.97,9.68],[41.86,9.48],[41.63,9.46],[41.52,9.64],[41.29,9.62],[41.18,9.42],[40.95,9.4],[40.84,9.2],[40.61,9.18],[40.54,8.98],[40.31,8.96],[40.23,8.76],[40.0,8.73],[39.92,8.53],[39.69,8.51],[39.54,8.69],[39.62,8.89],[39.47,9.06],[39.24,9.04],[39.16,8.84],[38.93,8.81],[38.78,8.99],[38.54,8.97],[38.42,9.15],[38.19,9.12],[38.08,8.92],[38.23,8.74],[38.15,8.54],[37.92,8.52],[37.77,8.69],[37.85,8.89],[37.73,9.07],[37.84,9.28],[38.07,9.3],[38.18,9.51],[38.41,9.53],[38.53,9.73],[38.76,9.76],[38.88,9.58],[39.11,9.6],[39.22,9.8],[39.1,9.98],[39.22,10.19],[39.1,10.37],[39.21,10.58],[39.09,10.76],[38.86,10.74],[38.73,10.92],[38.5,10.9],[38.39,10.69],[38.51,10.51],[38.4,10.3],[38.16,10.28],[38.05,10.07],[38.17,9.89],[38.06,9.69],[37.83,9.66],[37.7,9.84],[37.47,9.82],[37.34,10.0],[37.11,9.98],[36.98,10.16],[36.74,10.14],[36.62,10.32],[36.38,10.29],[36.27,10.09],[36.03,10.06],[35.92,9.85],[36.05,9.67],[36.29,9.7],[36.41,9.51],[36.3,9.31],[36.07,9.28],[35.94,9.46],[35.7,9.44],[35.58,9.62],[35.68,9.83],[35.56,10.01],[35.32,9.98],[35.19,10.17],[34.95,10.14],[34.82,10.32],[34.57,10.3],[34.47,10.09],[34.6,9.91],[34.49,9.7],[34.25,9.67],[34.14,9.46],[34.28,9.28],[34.17,9.07],[34.3,8.89],[34.19,8.68],[34.32,8.5],[34.56,8.53],[34.71,8.35],[34.63,8.15],[34.39,8.12],[34.24,8.3],[34.0,8.27],[33.85,8.45],[33.61,8.42],[33.48,8.6],[33.59,8.81],[33.45,8.99],[33.21,8.96],[33.08,9.14],[32.84,9.11],[32.7,9.29],[32.46,9.27],[32.33,9.45],[32.43,9.66],[32.29,9.84],[32.05,9.81],[31.91,10.0],[31.67,9.97],[31.53,10.15],[31.29,10.12],[31.15,10.31],[30.9,10.28],[30.76,10.46],[30.52,10.43],[30.38,10.62],[30.13,10.59],[29.99,10.77],[29.74,10.74],[29.64,10.53],[29.39,10.5],[29.25,10.68],[29.0,10.65],[28.85,10.83],[28.61,10.8],[28.46,10.99],[28.21,10.96],[28.07,11.14],[27.82,11.11],[27.67,11.3],[27.42,11.26],[27.27,11.45],[27.02,11.42],[26.87,11.6],[26.62,11.57],[26.52,11.35],[26.27,11.32],[26.12,11.51],[25.87,11.47],[25.72,11.66],[25.47,11.62],[25.32,11.81],[25.07,11.78],[24.97,11.56],[24.72,11.52],[24.57,11.71],[24.32,11.67],[24.22,11.45],[23.97,11.42],[23.82,11.6],[23.57,11.57],[23.47,11.35],[23.23,11.31],[23.07,11.49],[22.82,11.46],[22.66,11.64],[22.41,11.61],[22.25,11.79],[22.0,11.75],[21.84,11.94],[21.59,11.9],[21.43,12.09],[21.18,12.05],[21.09,11.83],[20.85,11.79],[20.68,11.97],[20.44,11.93],[20.27,12.12],[20.02,12.08],[19.86,12.26],[19.61,12.22],[19.45,12.41],[19.2,12.37],[19.11,12.14],[18.87,12.1],[18.7,12.29],[18.78,12.51],[18.62,12.69],[18.37,12.65],[18.2,12.84],[17.96,12.8],[17.79,12.98],[17.54,12.94],[17.37,13.12],[17.12,13.08],[17.04,12.85],[16.8,12.81],[16.63,12.99],[16.38,12.95],[16.21,13.13],[15.97,13.09],[15.89,12.86],[15.64,12.82],[15.47,13.0],[15.23,12.96],[15.06,13.14],[14.81,13.1],[14.64,13.28],[14.4,13.23],[14.32,13.01],[14.08,12.96],[13.91,13.14],[13.66,13.1],[13.49,13.28],[13.25,13.23],[13.18,13.01],[12.94,12.96],[12.76,13.14],[12.52,13.09],[12.35,13.27],[12.11,13.23],[11.94,13.4],[11.7,13.36],[11.63,13.13],[11.39,13.09],[11.22,13.26],[10.98,13.21],[10.8,13.39],[10.57,13.34],[10.39,13.52],[10.15,13.47],[10.09,13.25],[9.85,13.2],[9.68,13.37],[9.44,13.33],[9.27,13.5],[9.04,13.45],[8.86,13.62],[8.63,13.57],[8.45,13.75],[8.22,13.7],[8.16,13.48],[7.93,13.43],[7.75,13.6],[7.52,13.55],[7.35,13.72],[7.11,13.67],[6.94,13.84],[6.71,13.79],[6.65,13.57],[6.42,13.52],[6.25,13.69],[6.02,13.63],[5.85,13.8],[5.62,13.75],[5.44,13.92],[5.22,13.87],[5.17,13.65],[4.94,13.6],[4.77,13.76],[4.54,13.71],[4.37,13.88],[4.14,13.83],[3.97,13.99],[3.75,13.94],[3.7,13.72],[3.48,13.67],[3.3,13.83],[3.08,13.78],[2.91,13.94],[2.69,13.89],[2.51,14.05],[2.29,14.0],[2.12,14.16],[1.9,14.11],[1.86,13.89],[1.64,13.84],[1.47,14.0],[1.25,13.94],[1.08,14.11],[0.87,14.05],[0.69,14.21],[0.48,14.16],[0.31,14.32],[0.09,14.26],[0.06,14.05],[-0.16,13.99],[-0.33,14.15],[-0.54,14.09],[-0.71,14.25],[-0.92,14.2],[-1.09,14.35],[-1.3,14.3],[-1.33,14.08],[-1.54,14.03],[-1.71,14.18],[-1.92,14.13],[-2.09,14.28],[-2.29,14.23],[-2.46,14.38],[-2.67,14.32],[-2.84,14.48],[-3.04,14.42],[-3.07,14.21],[-3.27,14.15],[-3.44,14.31],[-3.64,14.25],[-3.82,14.36],[-4.02,14.25],[-4.2,14.36],[-4.41,14.25],[-4.59,14.36],[-4.79,14.25],[-4.97,14.36],[-5.18,14.25],[-5.36,14.36],[-5.57,14.25],[-5.75,14.36],[-5.96,14.25],[-6.15,14.36],[-6.12,14.57],[-6.31,14.68],[-6.52,14.57],[-6.54,14.36],[-6.75,14.25],[-6.94,14.35],[-7.15,14.25],[-7.33,14.35],[-7.54,14.24],[-7.56,14.03],[-7.77,13.91],[-7.96,14.02],[-8.17,13.91],[-8.36,14.02],[-8.34,14.23],[-8.53,14.34],[-8.74,14.23],[-8.94,14.33],[-9.15,14.22],[-9.34,14.33],[-9.55,14.21],[-9.75,14.32],[-9.96,14.21],[-9.97,13.99],[-10.19,13.87],[-10.38,13.98],[-10.59,13.86],[-10.79,13.97],[-10.78,14.19],[-10.97,14.29],[-11.19,14.18],[-11.2,13.96],[-11.41,13.84],[-11.61,13.95],[-11.82,13.83],[-12.02,13.94],[-12.23,13.82],[-12.43,13.92],[-12.64,13.81],[-12.65,13.59],[-12.86,13.47],[-12.87,13.25],[-13.08,13.13],[-13.09,12.92],[-13.3,12.8],[-13.31,12.58],[-13.1,12.48],[-12.9,12.6],[-12.7,12.5],[-12.49,12.61],[-12.29,12.51],[-12.3,12.3],[-12.1,12.19],[-11.9,12.31],[-11.7,12.21],[-11.49,12.32],[-11.3,12.22],[-11.09,12.34],[-10.89,12.24],[-10.69,12.35],[-10.49,12.25],[-10.29,12.36],[-10.1,12.26],[-9.89,12.37],[-9.7,12.27],[-9.49,12.38],[-9.3,12.28],[-9.32,12.07],[-9.13,11.97],[-8.92,12.08],[-8.74,11.98],[-8.75,11.77],[-8.57,11.67],[-8.36,11.78],[-8.18,11.68],[-7.97,11.79],[-7.79,11.69],[-7.59,11.8],[-7.4,11.7],[-7.42,11.49],[-7.24,11.39],[-7.04,11.5],[-6.86,11.4],[-6.65,11.5],[-6.47,11.4],[-6.5,11.2],[-6.32,11.1],[-6.12,11.21],[-5.94,11.11],[-5.74,11.21],[-5.56,11.11],[-5.36,11.22],[-5.19,11.12],[-4.99,11.23],[-4.81,11.13],[-4.84,10.92],[-4.67,10.83],[-4.47,10.93],[-4.3,10.83],[-4.1,10.94],[-3.93,10.78],[-3.74,10.83],[-3.58,10.68],[-3.38,10.73],[-3.22,10.58],[-3.03,10.63],[-2.86,10.48],[-2.67,10.53],[-2.5,10.37],[-2.31,10.42],[-2.27,10.63],[-2.08,10.68],[-1.91,10.52],[-1.71,10.57],[-1.55,10.42],[-1.35,10.46],[-1.31,10.67],[-1.11,10.72],[-0.95,10.56],[-0.75,10.61],[-0.58,10.46],[-0.38,10.5],[-0.21,10.35],[-0.01,10.4],[0.16,10.24],[0.37,10.29],[0.53,10.13],[0.74,10.18],[0.9,10.02],[1.11,10.06],[1.28,9.91],[1.49,9.95],[1.65,9.79],[1.86,9.84],[2.03,9.68],[2.24,9.73],[2.4,9.57],[2.61,9.61],[2.78,9.45],[2.99,9.5],[3.16,9.34],[3.37,9.38],[3.42,9.59],[3.63,9.64],[3.8,9.47],[4.01,9.52],[4.18,9.36],[4.39,9.4],[4.44,9.61],[4.66,9.66],[4.83,9.49],[5.04,9.54],[5.21,9.37],[5.43,9.42],[5.6,9.25],[5.81,9.3],[5.87,9.51],[6.08,9.55],[6.25,9.39],[6.47,9.43],[6.64,9.27],[6.86,9.31],[7.03,9.14],[6.98,8.93],[7.14,8.77],[7.36,8.81],[7.53,8.65],[7.75,8.69],[7.81,8.9],[8.03,8.94],[8.2,8.77],[8.42,8.82],[8.59,8.65],[8.81,8.69],[8.98,8.52],[9.2,8.57],[9.37,8.4],[9.6,8.44],[9.66,8.65],[9.88,8.69],[10.05,8.52],[10.28,8.57],[10.44,8.4],[10.67,8.44],[10.84,8.27],[11.06,8.31],[11.23,8.14],[11.17,7.93],[11.33,7.76],[11.27,7.55],[11.04,7.51],[10.98,7.3],[11.14,7.14],[11.08,6.93],[11.24,6.76],[11.18,6.56],[11.34,6.39],[11.57,6.43],[11.63,6.63],[11.86,6.67],[11.92,6.88],[12.15,6.92],[12.21,7.13],[12.44,7.16],[12.61,7.0],[12.84,7.03],[12.9,7.24],[13.13,7.28],[13.29,7.11],[13.52,7.15],[13.69,6.98],[13.92,7.02],[14.08,6.85],[14.31,6.89],[14.47,6.72],[14.7,6.76],[14.86,6.59],[14.79,6.38],[14.95,6.21],[15.18,6.25],[15.34,6.08],[15.58,6.11],[15.65,6.32],[15.88,6.36],[16.04,6.19],[15.97,5.98],[16.1,5.81],[16.33,5.84],[16.47,5.67],[16.7,5.71],[16.83,5.53],[17.07,5.57],[17.2,5.39],[17.1,5.18],[16.87,5.14],[16.73,5.32],[16.5,5.28],[16.4,5.07],[16.54,4.9],[16.77,4.93],[16.91,4.75],[17.14,4.79],[17.28,4.61],[17.51,4.65],[17.65,4.47],[17.88,4.51],[17.98,4.72],[18.22,4.75],[18.32,4.97],[18.56,5.0],[18.69,4.82],[18.93,4.86],[19.07,4.68],[18.97,4.47],[19.11,4.29],[19.35,4.32],[19.49,4.14],[19.73,4.18],[19.83,4.39],[20.07,4.43],[20.21,4.25],[20.45,4.28],[20.59,4.1],[20.83,4.13],[20.97,3.95],[20.87,3.73],[21.02,3.55],[21.26,3.58],[21.4,3.4],[21.64,3.44],[21.79,3.25],[21.69,3.03],[21.83,2.85],[22.08,2.88],[22.22,2.7],[22.46,2.73],[22.61,2.54],[22.85,2.58],[23.0,2.39],[23.24,2.42],[23.39,2.24],[23.29,2.02],[23.44,1.83],[23.69,1.86],[23.83,1.67],[24.08,1.71],[24.23,1.52],[24.13,1.29],[24.28,1.1],[24.18,0.88],[24.33,0.69],[24.58,0.72],[24.73,0.53],[24.63,0.31],[24.78,0.12],[24.68,-0.11],[24.43,-0.14],[24.34,-0.37],[24.49,-0.56],[24.73,-0.53],[24.88,-0.72],[24.79,-0.95],[24.54,-0.98],[24.44,-1.21],[24.59,-1.4],[24.49,-1.63],[24.24,-1.67],[24.14,-1.89],[24.29,-2.09],[24.19,-2.32],[23.94,-2.35],[23.85,-2.58],[24.0,-2.78],[23.9,-3.01],[23.65,-3.04],[23.55,-3.27],[23.7,-3.47],[23.6,-3.7],[23.35,-3.73],[23.25,-3.96],[23.4,-4.16],[23.3,-4.39],[23.05,-4.43],[22.94,-4.66],[22.69,-4.69],[22.59,-4.92],[22.34,-4.95],[22.24,-5.18],[21.99,-5.22],[21.89,-5.45],[21.64,-5.48],[21.53,-5.71],[21.28,-5.74],[21.18,-5.97],[20.93,-6.01],[20.83,-6.24],[20.98,-6.44],[20.87,-6.67],[20.62,-6.7],[20.47,-6.5],[20.22,-6.53],[20.12,-6.76],[19.87,-6.79],[19.77,-7.02],[19.91,-7.22],[19.81,-7.45],[19.96,-7.66],[20.21,-7.63],[20.36,-7.83],[20.25,-8.06],[20.4,-8.26],[20.66,-8.24],[20.81,-8.44],[20.7,-8.67],[20.85,-8.87],[21.11,-8.85],[21.21,-8.61],[21.46,-8.58],[21.57,-8.35],[21.82,-8.32],[21.92,-8.08],[22.18,-8.05],[22.33,-8.26],[22.23,-8.49],[22.38,-8.69],[22.63,-8.66],[22.74,-8.43],[22.99,-8.4],[23.09,-8.16],[22.94,-7.96],[23.04,-7.73],[23.3,-7.69],[23.45,-7.9],[23.71,-7.87],[23.86,-8.07],[24.12,-8.04],[24.22,-7.8],[24.47,-7.77],[24.57,-7.53],[24.83,-7.5],[24.98,-7.7],[24.88,-7.94],[25.04,-8.14],[25.3,-8.11],[25.45,-8.31],[25.35,-8.55],[25.09,-8.58],[24.99,-8.82],[25.15,-9.02],[25.05,-9.26],[24.79,-9.29],[24.69,-9.52],[24.43,-9.56],[24.33,-9.79],[24.48,-10.0],[24.38,-10.23],[24.54,-10.44],[24.8,-10.41],[24.9,-10.17],[25.16,-10.14],[25.31,-10.34],[25.57,-10.31],[25.67,-10.07],[25.93,-10.04],[26.03,-9.8],[25.88,-9.6],[25.98,-9.36],[26.24,-9.33],[26.34,-9.09],[26.59,-9.06],[26.69,-8.82],[26.95,-8.79],[27.11,-8.99],[27.01,-9.23],[26.75,-9.26],[26.65,-9.5],[26.81,-9.7],[26.71,-9.94],[26.45,-9.97],[26.35,-10.21],[26.51,-10.41],[26.77,-10.38],[26.93,-10.58],[26.83,-10.82],[26.99,-11.03],[26.89,-11.26],[27.04,-11.47],[27.31,-11.43],[27.47,-11.64],[27.37,-11.88],[27.53,-12.08],[27.43,-12.32],[27.59,-12.52],[27.49,-12.76],[27.22,-12.79],[27.06,-12.59],[26.8,-12.62],[26.7,-12.86],[26.44,-12.89],[26.34,-13.13],[26.07,-13.17],[25.97,-13.4],[25.71,-13.43],[25.55,-13.23],[25.29,-13.26],[25.13,-13.06],[25.23,-12.82],[25.07,-12.61],[24.81,-12.65],[24.71,-12.88],[24.45,-12.91],[24.29,-12.71],[24.03,-12.74],[23.93,-12.97],[23.67,-13.0],[23.51,-12.8],[23.25,-12.83],[23.09,-12.62],[23.2,-12.39],[23.04,-12.18],[22.78,-12.21],[22.63,-12.01],[22.73,-11.77],[22.58,-11.56],[22.32,-11.59],[22.21,-11.83],[21.96,-11.86],[21.85,-12.09],[21.59,-12.12],[21.44,-11.92],[21.18,-11.94],[21.08,-12.18],[21.23,-12.38],[21.13,-12.62],[20.87,-12.64],[20.76,-12.88],[20.91,-13.08],[20.81,-13.32],[20.55,-13.34],[20.45,-13.58],[20.19,-13.6],[20.08,-13.84],[19.82,-13.86],[19.67,-13.66],[19.41,-13.68],[19.31,-13.91],[19.05,-13.94],[18.9,-13.73],[18.64,-13.75],[18.5,-13.55],[18.24,-13.57],[18.13,-13.8],[17.88,-13.83],[17.73,-13.62],[17.48,-13.64],[17.37,-13.87],[17.11,-13.89],[16.97,-13.69],[16.71,-13.71],[16.61,-13.94],[16.35,-13.96],[16.21,-13.75],[15.96,-13.78],[15.85,-14.0],[15.6,-14.02],[15.45,-13.82],[15.2,-13.84],[15.1,-14.06],[14.85,-14.08],[14.7,-13.88],[14.46,-13.9],[14.35,-14.12],[14.1,-14.14],[13.96,-13.94],[14.07,-13.71],[14.31,-13.69],[14.42,-13.47],[14.67,-13.45],[14.78,-13.22],[14.64,-13.01],[14.74,-12.79],[14.6,-12.58],[14.35,-12.6],[14.21,-12.4],[14.32,-12.17],[14.57,-12.15],[14.67,-11.92],[14.53,-11.72],[14.64,-11.49],[14.5,-11.29],[14.61,-11.06],[14.47,-10.86],[14.22,-10.88],[14.11,-11.11],[14.25,-11.31],[14.15,-11.54],[14.29,-11.74],[14.18,-11.97],[13.93,-11.99],[13.83,-12.21],[13.97,-12.42],[13.86,-12.64],[13.61,-12.66],[13.51,-12.89],[13.26,-12.91],[13.15,-13.13],[12.91,-13.15],[12.8,-13.37],[12.94,-13.58],[12.83,-13.8],[12.97,-14.01],[12.86,-14.23],[12.62,-14.25],[12.51,-14.47],[12.65,-14.68],[12.54,-14.9],[12.68,-15.11],[12.93,-15.09],[13.06,-15.3],[12.96,-15.52],[13.1,-15.73],[12.99,-15.95],[12.74,-15.96],[12.63,-16.18],[12.77,-16.39],[12.66,-16.61],[12.41,-16.63],[12.31,-16.85],[12.06,-16.86],[11.95,-17.08],[12.09,-17.29],[11.98,-17.51],[12.12,-17.71],[12.01,-17.93],[12.15,-18.14],[12.4,-18.13],[12.54,-18.33],[12.43,-18.55],[12.57,-18.76],[12.82,-18.75],[12.96,-18.96],[12.85,-19.17],[12.99,-19.38],[12.88,-19.6],[13.02,-19.81],[13.27,-19.8],[13.42,-20.0],[13.31,-20.22],[13.45,-20.43],[13.7,-20.42],[13.85,-20.62],[13.74,-20.84],[13.88,-21.05],[13.77,-21.27],[13.92,-21.47],[14.17,-21.46],[14.32,-21.67],[14.58,-21.66],[14.72,-21.87],[14.61,-22.08],[14.76,-22.29],[14.65,-22.51],[14.79,-22.71],[14.68,-22.93],[14.83,-23.14],[14.72,-23.35],[14.87,-23.56],[15.13,-23.55],[15.28,-23.75],[15.17,-23.97],[14.9,-23.98],[14.79,-24.19],[14.94,-24.4],[15.2,-24.39],[15.35,-24.59],[15.24,-24.81],[15.39,-25.01],[15.28,-25.22],[15.43,-25.43],[15.69,-25.42],[15.84,-25.62],[16.11,-25.61],[16.22,-25.4],[16.07,-25.2],[16.18,-24.98],[16.03,-24.78],[16.14,-24.56],[15.99,-24.36],[16.1,-24.14],[15.95,-23.94],[16.06,-23.72],[16.33,-23.71],[16.44,-23.49],[16.29,-23.29],[16.4,-23.07],[16.25,-22.86],[16.36,-22.64],[16.62,-22.63],[16.73,-22.41],[17.0,-22.4],[17.11,-22.18],[17.37,-22.16],[17.48,-21.94],[17.75,-21.92],[17.9,-22.13],[17.79,-22.35],[17.94,-22.56],[17.83,-22.78],[17.57,-22.79],[17.46,-23.01],[17.19,-23.03],[17.08,-23.25],[17.23,-23.45],[17.12,-23.67],[17.27,-23.88],[17.16,-24.09],[16.9,-24.11],[16.78,-24.32],[16.94,-24.53],[17.2,-24.52],[17.36,-24.72],[17.25,-24.94],[17.4,-25.14]],[[39.3,8.08],[39.38,8.29],[39.61,8.31],[39.77,8.13],[39.69,7.93],[39.46,7.91],[39.38,7.7],[39.53,7.53],[39.45,7.32],[39.22,7.3],[39.14,7.09],[39.29,6.91],[39.52,6.94],[39.6,7.14],[39.83,7.17],[39.99,6.99],[39.91,6.78],[39.68,6.76],[39.6,6.55],[39.36,6.53],[39.21,6.71],[38.98,6.68],[38.83,6.86],[38.91,7.07],[38.75,7.25],[38.83,7.45],[39.07,7.48],[39.15,7.68],[38.99,7.86],[39.07,8.06],[39.3,8.08]],[[37.37,-13.76],[37.28,-14.0],[37.02,-14.04],[36.86,-13.85],[36.6,-13.89],[36.43,-13.69],[36.52,-13.45],[36.78,-13.41],[36.95,-13.61],[37.2,-13.56],[37.29,-13.32],[37.55,-13.28],[37.72,-13.47],[37.63,-13.71],[37.37,-13.76]],[[35.86,-12.66],[36.02,-12.86],[35.93,-13.1],[35.68,-13.14],[35.51,-12.94],[35.6,-12.7],[35.86,-12.66]],[[12.74,7.41],[12.51,7.37],[12.35,7.54],[12.41,7.75],[12.64,7.79],[12.81,7.62],[12.74,7.41]],[[34.41,-15.15],[34.67,-15.1],[34.84,-15.3],[34.75,-15.54],[34.49,-15.58],[34.32,-15.39],[34.41,-15.15]],[[40.13,6.22],[39.98,6.4],[40.06,6.6],[40.29,6.63],[40.44,6.45],[40.37,6.24],[40.13,6.22]],[[11.43,7.38],[11.66,7.42],[11.72,7.63],[11.95,7.67],[12.12,7.5],[12.05,7.29],[11.82,7.26],[11.76,7.05],[11.53,7.01],[11.37,7.18],[11.43,7.38]],[[27.78,-9.12],[27.53,-9.16],[27.37,-8.96],[27.47,-8.72],[27.31,-8.52],[27.41,-8.28],[27.66,-8.25],[27.82,-8.45],[27.72,-8.68],[27.88,-8.89],[28.14,-8.85],[28.3,-9.06],[28.2,-9.29],[27.94,-9.33],[27.78,-9.12]],[[28.13,-10.65],[28.03,-10.89],[27.77,-10.92],[27.61,-10.72],[27.71,-10.48],[27.96,-10.45],[28.13,-10.65]],[[35.9,-14.46],[35.81,-14.7],[35.55,-14.74],[35.38,-14.54],[35.47,-14.3],[35.31,-14.1],[35.4,-13.86],[35.66,-13.82],[35.82,-14.02],[35.73,-14.26],[35.9,-14.46]],[[39.34,-11.62],[39.18,-11.43],[39.26,-11.19],[39.51,-11.15],[39.68,-11.34],[39.59,-11.58],[39.34,-11.62]],[[32.37,-18.38],[32.47,-18.14],[32.74,-18.1],[32.9,-18.3],[32.81,-18.54],[32.54,-18.58],[32.37,-18.38]],[[33.02,-19.84],[32.75,-19.89],[32.58,-19.69],[32.68,-19.45],[32.95,-19.41],[33.12,-19.61],[33.02,-19.84]]],[[[23.71,-10.09],[23.56,-9.89],[23.66,-9.65],[23.5,-9.45],[23.25,-9.48],[23.15,-9.71],[22.89,-9.74],[22.79,-9.98],[22.94,-10.18],[22.84,-10.42],[22.99,-10.62],[23.25,-10.59],[23.35,-10.36],[23.61,-10.33],[23.71,-10.09]]],[[[28.12,-32.83],[28.41,-32.8],[28.52,-32.59],[28.8,-32.56],[28.91,-32.35],[29.2,-32.31],[29.3,-32.1],[29.13,-31.92],[28.84,-31.95],[28.73,-32.16],[28.45,-32.2],[28.34,-32.41],[28.05,-32.44],[27.94,-32.65],[27.66,-32.68],[27.55,-32.89],[27.26,-32.92],[27.08,-32.73],[26.8,-32.76],[26.69,-32.97],[26.4,-33.0],[26.29,-33.21],[26.0,-33.23],[25.83,-33.05],[25.54,-33.07],[25.37,-32.89],[25.08,-32.91],[24.91,-32.72],[24.62,-32.74],[24.51,-32.95],[24.68,-33.14],[24.57,-33.34],[24.28,-33.37],[24.17,-33.57],[23.88,-33.59],[23.77,-33.79],[23.48,-33.81],[23.31,-33.63],[23.03,-33.65],[22.91,-33.85],[22.63,-33.86],[22.46,-33.68],[22.57,-33.48],[22.4,-33.29],[22.12,-33.3],[22.0,-33.51],[21.72,-33.52],[21.6,-33.72],[21.32,-33.74],[21.15,-33.55],[20.87,-33.56],[20.75,-33.76],[20.92,-33.95],[20.8,-34.15],[20.52,-34.16],[20.35,-33.97],[20.07,-33.98],[19.9,-33.79],[19.62,-33.8],[19.5,-34.0],[19.67,-34.19],[19.55,-34.39],[19.72,-34.58],[20.0,-34.57],[20.12,-34.37],[20.4,-34.36],[20.57,-34.55],[20.85,-34.54],[20.97,-34.34],[21.26,-34.32],[21.42,-34.51],[21.71,-34.5],[21.83,-34.3],[22.11,-34.28],[22.23,-34.08],[22.51,-34.07],[22.68,-34.25],[22.97,-34.24],[23.08,-34.03],[23.37,-34.02],[23.54,-34.2],[23.83,-34.18],[23.94,-33.98],[24.23,-33.96],[24.4,-34.14],[24.69,-34.12],[24.87,-34.31],[25.15,-34.28],[25.27,-34.08],[25.55,-34.06],[25.67,-33.85],[25.95,-33.83],[26.13,-34.01],[26.42,-33.99],[26.53,-33.78],[26.82,-33.75],[26.93,-33.55],[27.22,-33.52],[27.33,-33.31],[27.61,-33.28],[27.72,-33.07],[28.01,-33.04],[28.12,-32.83]]],[[[-120.93,35.75],[-121.0,35.98],[-121.28,36.05],[-121.35,36.28],[-121.64,36.34],[-121.86,36.17],[-121.79,35.93],[-121.5,35.87],[-121.43,35.64],[-121.15,35.58],[-121.08,35.34],[-120.8,35.28],[-120.58,35.45],[-120.64,35.69],[-120.93,35.75]]],[[[10.43,5.46],[10.49,5.67],[10.33,5.83],[10.39,6.03],[10.61,6.07],[10.67,6.28],[10.89,6.31],[10.95,6.52],[10.79,6.69],[10.57,6.65],[10.51,6.44],[10.28,6.4],[10.22,6.2],[10.0,6.16],[9.94,5.96],[10.1,5.79],[10.04,5.59],[10.21,5.43],[10.43,5.46]]],[[[40.05,-5.09],[39.89,-4.89],[39.65,-4.93],[39.57,-5.16],[39.73,-5.36],[39.97,-5.32],[40.05,-5.09]]],[[[18.82,-34.22],[19.1,-34.21],[19.22,-34.01],[19.06,-33.82],[19.17,-33.62],[19.01,-33.43],[18.73,-33.44],[18.61,-33.64],[18.77,-33.83],[18.66,-34.03],[18.82,-34.22]]],[[[45.48,2.25],[45.71,2.28],[45.78,2.49],[45.63,2.67],[45.4,2.64],[45.33,2.43],[45.11,2.4],[45.03,2.19],[45.19,2.01],[45.41,2.04],[45.48,2.25]]],[[[-97.79,29.45],[-97.8,29.7],[-97.56,29.83],[-97.58,30.08],[-97.33,30.22],[-97.35,30.47],[-97.61,30.59],[-97.85,30.45],[-97.83,30.2],[-98.08,30.07],[-98.06,29.81],[-98.3,29.68],[-98.28,29.43],[-98.03,29.31],[-97.79,29.45]]],[[[37.44,10.6],[37.32,10.78],[37.08,10.76],[36.95,10.94],[36.71,10.92],[36.6,10.71],[36.73,10.53],[36.97,10.55],[37.09,10.37],[37.33,10.39],[37.44,10.6]]],[[[22.35,-32.9],[22.46,-32.69],[22.29,-32.5],[22.01,-32.52],[21.89,-32.72],[21.61,-32.74],[21.5,-32.94],[21.66,-33.13],[21.95,-33.12],[22.06,-32.91],[22.35,-32.9]]],[[[-118.32,34.02],[-118.39,34.26],[-118.67,34.33],[-118.89,34.16],[-118.83,33.92],[-118.55,33.85],[-118.49,33.61],[-118.2,33.53],[-117.98,33.7],[-118.04,33.95],[-118.32,34.02]]],[[[-122.2,37.33],[-122.42,37.16],[-122.35,36.92],[-122.06,36.87],[-121.99,36.63],[-121.71,36.57],[-121.49,36.75],[-121.56,36.98],[-121.85,37.04],[-121.92,37.27],[-122.2,37.33]]],[[[17.51,-9.9],[17.76,-9.88],[17.87,-9.65],[17.72,-9.44],[17.47,-9.47],[17.37,-9.7],[17.51,-9.9]]],[[[114.17,22.29],[114.2,22.53],[114.01,22.68],[113.78,22.6],[113.58,22.76],[113.35,22.68],[113.32,22.45],[113.52,22.3],[113.75,22.37],[113.94,22.22],[114.17,22.29]]],[[[0.14,51.16],[-0.19,51.1],[-0.25,50.88],[0.02,50.72],[0.34,50.78],[0.4,51.0],[0.14,51.16]]],[[[-72.74,41.23],[-72.63,41.45],[-72.85,41.62],[-73.17,41.57],[-73.27,41.35],[-73.59,41.3],[-73.68,41.08],[-74.0,41.03],[-74.1,40.81],[-74.41,40.75],[-74.5,40.54],[-74.29,40.37],[-73.98,40.42],[-73.88,40.64],[-73.57,40.69],[-73.47,40.91],[-73.15,40.96],[-73.05,41.18],[-72.74,41.23]]],[[[-122.78,38.3],[-123.0,38.13],[-122.93,37.9],[-122.64,37.85],[-122.56,37.62],[-122.27,37.56],[-122.06,37.73],[-122.13,37.96],[-122.42,38.02],[-122.49,38.25],[-122.78,38.3]]],[[[20.48,-28.33],[20.21,-28.35],[20.1,-28.56],[20.26,-28.76],[20.53,-28.74],[20.65,-28.53],[20.48,-28.33]]],[[[39.81,9.29],[39.92,9.49],[39.81,9.67],[39.57,9.65],[39.46,9.44],[39.58,9.26],[39.81,9.29]]]]}}]}