{"type":"FeatureCollection","features":[{"type":"Feature","properties":{},"geometry":{"type":"MultiPolygon","coordinates":[[[[35.32,24.23],[35.15,24.88],[35.28,25.1],[34.7,25.51],[34.83,25.73],[34.67,25.94],[34.4,25.93],[34.24,26.14],[34.31,27.24],[34.16,27.45],[34.69,27.92],[35.41,27.74],[35.56,27.53],[35.43,27.3],[35.58,27.09],[35.86,27.1],[36.01,26.89],[35.88,26.67],[36.46,26.26],[36.33,26.03],[36.49,25.38],[36.77,25.4],[37.33,24.99],[37.2,24.77],[37.36,24.12],[38.44,23.74],[38.58,23.1],[38.85,23.11],[38.97,23.33],[39.24,23.34],[39.37,23.13],[38.86,22.68],[39.0,22.05],[39.26,22.06],[39.39,22.28],[39.25,22.49],[39.38,22.71],[39.64,22.72],[39.78,22.08],[40.03,22.09],[40.55,21.69],[40.42,21.47],[40.17,21.46],[40.04,21.25],[40.17,21.04],[41.19,20.66],[41.31,20.04],[41.56,20.05],[42.06,19.65],[41.93,19.03],[42.05,18.82],[42.3,18.84],[42.41,18.22],[43.37,17.86],[43.47,16.85],[44.75,16.31],[44.77,17.11],[44.19,17.28],[44.08,17.48],[44.11,18.7],[42.43,19.46],[42.31,20.08],[42.06,20.07],[41.94,20.27],[42.06,20.49],[41.94,20.69],[42.45,21.12],[42.32,21.33],[42.45,21.54],[42.7,21.55],[42.82,21.34],[43.45,21.57],[43.93,21.16],[44.31,21.38],[44.55,21.38],[44.67,21.18],[45.29,21.39],[46.1,20.79],[46.71,21.0],[46.82,20.8],[47.19,21.0],[47.76,20.8],[47.89,21.0],[48.13,21.0],[48.57,20.6],[48.93,20.8],[49.26,20.6],[49.84,20.79],[50.26,20.39],[50.84,20.58],[51.25,20.18],[51.82,20.37],[52.22,19.97],[52.79,20.15],[53.17,19.76],[53.73,19.94],[54.11,19.54],[54.82,19.81],[55.44,19.32],[56.05,19.34],[56.36,19.09],[57.12,19.25],[57.2,19.06],[56.81,18.98],[56.74,18.65],[57.73,18.75],[58.06,19.55],[57.68,20.0],[59.03,20.38],[59.14,21.27],[59.72,21.49],[59.85,22.39],[60.02,22.54],[58.35,24.1],[57.52,23.92],[56.94,24.25],[56.95,24.82],[56.62,25.09],[56.78,25.25],[56.7,25.46],[56.37,25.73],[56.54,25.89],[57.21,25.93],[57.63,25.44],[58.31,25.47],[58.64,25.2],[59.25,25.44],[59.83,25.1],[60.44,25.34],[61.34,24.71],[64.16,25.34],[64.73,24.98],[66.27,25.34],[67.12,24.67],[67.77,23.86],[68.21,23.92],[68.75,23.55],[69.1,24.05],[70.0,24.17],[70.45,25.47],[71.12,25.67],[71.08,25.89],[71.29,26.03],[71.76,26.09],[71.72,26.31],[71.93,26.45],[72.4,26.51],[72.55,27.1],[73.24,27.29],[73.58,28.27],[74.29,28.46],[74.66,29.44],[75.3,30.33],[74.98,30.9],[75.64,31.81],[75.32,32.39],[74.75,32.83],[74.73,33.07],[74.97,33.22],[75.54,32.77],[75.86,32.19],[76.63,32.13],[77.22,31.2],[77.98,31.14],[78.0,30.9],[78.5,30.93],[79.02,30.48],[79.26,30.62],[79.52,30.51],[79.53,30.27],[80.02,30.3],[80.27,30.2],[80.28,29.96],[81.01,29.88],[81.02,29.64],[81.26,29.54],[82.23,29.57],[81.99,28.98],[82.47,29.0],[82.95,28.55],[83.66,28.69],[84.12,28.24],[85.3,28.38],[85.74,27.93],[86.21,27.94],[86.2,27.71],[86.42,27.59],[87.6,27.71],[88.04,27.24],[88.54,27.7],[88.99,27.23],[89.7,27.34],[89.72,27.57],[89.96,27.69],[92.57,27.49],[93.35,28.28],[93.37,28.51],[93.85,28.49],[94.37,28.93],[94.85,28.9],[95.14,29.46],[95.39,29.57],[95.62,29.44],[95.33,28.88],[96.04,28.72],[96.02,28.49],[96.25,28.36],[96.5,28.46],[96.94,27.96],[98.15,27.99],[98.58,27.49],[99.53,27.41],[99.51,27.18],[99.26,27.08],[99.24,26.85],[99.46,26.71],[99.71,26.8],[99.74,27.04],[100.46,27.09],[100.76,27.65],[101.96,27.64],[101.78,28.25],[102.03,28.33],[102.06,28.56],[103.26,28.55],[103.28,28.77],[103.06,28.92],[102.58,28.97],[102.21,29.92],[102.46,30.01],[103.32,31.15],[104.05,31.18],[104.36,31.7],[104.13,31.83],[104.16,32.05],[104.89,32.07],[105.48,32.87],[105.73,32.94],[105.95,32.8],[105.92,32.59],[106.62,32.38],[106.87,32.46],[106.89,32.67],[106.67,32.81],[106.7,33.02],[107.17,32.95],[107.14,32.74],[107.36,32.6],[107.61,32.67],[107.92,33.16],[108.39,33.09],[108.64,33.16],[108.67,33.37],[109.13,33.29],[109.66,33.63],[110.12,33.55],[110.43,34.03],[110.89,33.94],[111.14,34.01],[111.17,34.21],[111.62,34.12],[111.87,34.18],[111.9,34.39],[112.35,34.3],[112.87,34.61],[113.53,34.38],[113.5,34.17],[113.26,34.12],[113.43,33.77],[114.76,33.49],[115.0,33.54],[115.03,33.75],[115.47,33.65],[115.98,33.95],[116.61,33.7],[116.84,33.75],[116.87,33.95],[117.3,33.84],[117.53,33.89],[117.57,34.09],[117.99,33.98],[118.22,34.03],[118.26,34.22],[118.68,34.12],[118.94,34.35],[119.36,34.24],[119.85,34.52],[120.3,33.49],[120.9,33.22],[120.6,32.79],[121.01,32.68],[121.31,33.17],[121.12,33.26],[121.0,33.8],[120.41,34.06],[120.15,34.94],[119.54,35.2],[119.58,35.39],[120.07,35.65],[120.25,35.5],[120.52,35.73],[121.15,35.65],[121.04,36.17],[121.67,36.08],[121.55,36.6],[122.64,36.64],[122.95,37.1],[122.76,37.18],[122.79,37.36],[123.07,37.63],[121.37,37.79],[121.07,38.44],[121.59,38.85],[122.22,38.76],[122.5,39.02],[123.06,38.98],[123.3,38.69],[123.86,39.79],[124.31,39.42],[124.69,39.45],[124.96,38.95],[124.47,37.99],[124.83,37.64],[126.1,37.66],[126.13,37.44],[125.84,37.18],[126.7,35.96],[126.42,35.69],[126.38,35.5],[126.58,35.4],[127.11,35.76],[126.99,36.24],[126.62,36.61],[126.9,36.88],[127.35,36.87],[127.1,37.39],[127.26,37.72],[126.79,38.34],[126.4,38.31],[125.96,38.71],[126.08,39.25],[125.84,39.55],[126.0,39.89],[124.83,39.78],[124.38,40.16],[122.32,39.82],[122.35,40.55],[122.96,40.77],[122.99,41.52],[123.17,41.65],[122.68,42.02],[121.94,41.96],[121.77,41.83],[121.88,41.66],[121.26,41.43],[121.37,41.27],[121.21,41.14],[120.93,41.17],[119.49,40.31],[119.01,40.6],[119.14,40.79],[119.01,40.96],[116.51,41.72],[116.37,41.88],[116.49,42.08],[115.95,42.38],[116.07,42.58],[115.93,42.75],[115.53,42.88],[115.65,43.09],[115.5,43.25],[115.09,43.39],[115.21,43.59],[115.06,43.76],[114.64,43.9],[114.76,44.1],[114.6,44.27],[113.9,44.37],[113.74,44.54],[113.86,44.75],[113.25,45.06],[113.37,45.27],[113.21,45.44],[112.47,45.54],[112.24,46.1],[111.78,46.23],[111.84,46.83],[111.66,47.01],[110.87,47.11],[110.62,47.67],[109.81,47.77],[109.54,48.34],[109.65,48.55],[109.45,48.73],[108.62,48.82],[108.32,49.39],[107.46,49.48],[107.14,50.06],[105.69,50.26],[105.34,50.84],[104.55,50.5],[104.32,50.68],[103.98,50.62],[103.88,50.39],[103.1,50.05],[102.71,50.62],[101.17,50.78],[100.91,50.95],[99.7,50.27],[99.25,50.84],[98.47,50.46],[98.2,50.63],[98.08,51.27],[97.8,51.43],[97.02,51.04],[96.09,51.29],[96.16,51.53],[95.87,51.69],[94.2,51.76],[93.9,51.92],[93.12,51.5],[92.82,51.65],[88.05,52.01],[87.31,51.54],[86.97,51.69],[86.62,51.58],[86.6,51.32],[86.24,51.21],[84.52,51.39],[83.81,50.9],[83.47,51.03],[83.47,51.28],[83.82,51.41],[83.83,51.66],[82.78,51.8],[82.78,52.05],[83.84,52.16],[85.6,51.99],[85.96,52.11],[85.98,52.36],[84.92,52.52],[84.93,52.77],[84.58,52.91],[84.22,52.79],[83.86,52.92],[82.78,52.81],[82.42,52.94],[81.7,52.44],[81.34,52.57],[81.33,52.82],[81.69,52.94],[81.69,53.2],[81.32,53.32],[81.31,53.58],[80.94,53.7],[80.58,53.57],[80.59,53.32],[80.23,53.19],[79.46,53.69],[79.45,53.94],[79.06,54.06],[77.21,53.88],[76.82,54.0],[76.46,53.85],[76.5,53.6],[75.83,53.06],[74.71,53.13],[74.36,52.99],[73.54,53.44],[73.19,53.29],[72.8,53.39],[72.46,53.24],[72.51,52.99],[71.45,52.77],[71.51,52.52],[71.18,52.36],[70.07,52.39],[69.03,52.15],[68.64,52.24],[68.56,52.49],[67.45,52.49],[66.89,53.07],[65.77,53.06],[65.18,53.62],[64.77,53.7],[64.45,53.52],[64.04,53.59],[63.74,53.42],[60.5,53.01],[60.21,52.82],[60.33,52.58],[60.04,52.4],[59.64,52.45],[59.52,52.69],[58.43,52.61],[58.16,52.42],[58.28,52.18],[58.01,51.99],[56.55,52.61],[56.42,52.85],[56.69,53.04],[56.56,53.28],[56.15,53.32],[56.01,53.55],[55.6,53.59],[55.34,53.4],[55.48,53.17],[55.21,52.97],[54.81,53.01],[54.66,53.24],[53.15,53.81],[53.0,54.03],[52.59,54.06],[52.33,53.86],[51.36,54.14],[51.2,54.37],[51.45,54.57],[51.29,54.8],[50.21,54.64],[50.04,54.86],[50.29,55.06],[50.12,55.28],[49.7,55.3],[49.53,55.52],[47.16,54.96],[46.39,55.39],[46.62,55.6],[46.43,55.82],[46.01,55.82],[45.22,56.25],[44.17,56.03],[43.36,56.44],[42.95,56.44],[42.13,56.01],[40.5,56.37],[40.31,56.16],[39.32,55.91],[38.5,56.28],[37.49,56.43],[37.32,56.22],[36.38,55.95],[36.21,55.73],[36.43,55.54],[35.74,55.08],[35.95,54.9],[35.8,54.68],[34.91,54.41],[34.83,53.79],[34.47,53.76],[34.33,53.55],[33.98,53.52],[33.84,53.3],[32.33,52.62],[31.36,52.8],[30.65,52.41],[29.67,52.57],[29.51,52.38],[29.13,52.37],[28.3,52.71],[27.38,52.49],[25.53,52.94],[25.21,53.47],[23.95,53.75],[23.03,53.5],[22.39,53.63],[21.21,52.96],[18.67,53.43],[18.29,53.38],[18.16,53.18],[17.15,53.23],[17.02,53.03],[16.65,52.98],[15.11,53.31],[15.23,53.52],[14.97,53.67],[15.09,53.87],[15.97,54.18],[16.09,54.38],[17.12,54.34],[17.76,54.79],[18.15,54.83],[18.54,54.33],[19.58,54.27],[20.24,54.7],[21.16,54.98],[21.3,55.17],[21.05,55.32],[21.19,55.52],[20.53,55.63],[20.39,55.44],[20.65,55.29],[20.51,55.09],[19.46,55.16],[19.33,54.97],[19.59,54.82],[19.45,54.62],[19.06,54.58],[18.67,55.08],[18.02,55.18],[17.63,55.13],[16.98,54.69],[15.95,54.73],[15.32,54.27],[14.29,54.3],[13.87,54.78],[13.22,54.86],[11.87,54.26],[11.6,54.4],[11.7,54.6],[12.57,54.94],[12.68,55.14],[13.72,55.12],[14.84,55.83],[14.42,56.31],[14.02,56.25],[13.91,56.05],[14.18,55.91],[14.06,55.72],[12.74,55.87],[13.36,56.32],[12.92,56.78],[13.03,56.98],[12.75,57.11],[12.36,57.05],[12.24,56.85],[12.52,56.72],[12.41,56.53],[12.02,56.46],[11.42,56.0],[10.75,56.06],[11.35,56.52],[10.4,56.71],[10.51,56.91],[12.02,57.69],[11.56,58.13],[11.67,58.32],[11.38,58.44],[10.98,58.38],[10.87,58.19],[11.16,58.06],[11.05,57.87],[11.33,57.75],[11.22,57.56],[10.83,57.49],[10.36,57.93],[9.97,57.86],[9.37,57.4],[8.7,57.45],[7.84,57.1],[7.74,56.9],[8.02,56.79],[7.46,56.31],[7.74,56.19],[7.65,55.99],[7.93,55.87],[7.83,55.67],[8.29,55.23],[8.2,55.02],[7.83,54.95],[7.74,54.74],[8.02,54.62],[7.92,54.41],[7.56,54.34],[7.02,53.84],[6.39,53.89],[6.04,53.81],[5.95,53.6],[4.98,53.55],[4.48,53.05],[4.15,53.01],[4.25,52.42],[3.93,52.38],[3.06,51.64],[2.74,51.6],[2.67,51.38],[2.35,51.33],[2.28,51.11],[1.96,51.06],[1.51,51.61],[1.97,52.09],[1.7,52.25],[1.77,52.47],[2.1,52.52],[2.17,52.73],[1.91,52.89],[1.98,53.11],[0.49,53.49],[0.56,53.71],[0.06,54.24],[0.13,54.45],[-0.79,54.72],[-0.73,54.93],[-1.25,55.46],[-1.19,55.67],[-2.15,55.92],[-2.09,56.13],[-2.4,56.29],[-2.34,56.5],[-1.98,56.55],[-1.92,56.76],[-2.22,56.92],[-2.17,57.12],[-1.8,57.18],[-1.74,57.38],[-2.42,57.48],[-2.48,57.28],[-2.85,57.22],[-2.9,57.01],[-2.59,56.86],[-2.65,56.65],[-3.7,56.69],[-3.75,56.48],[-4.53,56.14],[-4.58,55.93],[-5.63,55.95],[-5.67,55.73],[-5.08,55.22],[-3.9,55.84],[-3.23,55.75],[-2.93,55.6],[-2.98,55.38],[-3.75,55.05],[-4.41,55.13],[-4.46,54.92],[-4.82,54.85],[-6.16,55.01],[-5.93,54.43],[-6.28,54.36],[-6.71,53.84],[-6.13,53.32],[-6.17,53.1],[-6.52,53.03],[-6.29,52.43],[-6.94,52.5],[-7.66,52.12],[-8.31,52.18],[-8.71,51.64],[-8.4,51.49],[-7.69,51.89],[-7.39,51.74],[-7.05,51.82],[-7.01,52.05],[-6.03,52.05],[-5.61,52.58],[-5.91,52.73],[-5.87,52.95],[-5.52,53.02],[-5.48,53.25],[-6.05,53.77],[-6.01,53.99],[-4.86,54.63],[-4.56,54.48],[-5.0,53.98],[-4.7,53.83],[-4.74,53.61],[-5.09,53.54],[-5.13,53.32],[-4.83,53.17],[-4.88,52.94],[-5.22,52.87],[-5.01,52.28],[-5.35,52.2],[-5.77,51.68],[-4.85,51.45],[-4.64,50.84],[-5.6,50.85],[-5.64,50.62],[-6.7,49.92],[-6.74,49.69],[-6.45,49.54],[-5.76,49.93],[-4.86,49.7],[-4.53,49.78],[-4.49,50.01],[-3.56,50.0],[-3.13,50.52],[-2.81,50.59],[-1.34,50.25],[-0.63,50.6],[0.22,50.34],[0.93,50.68],[1.18,50.52],[1.12,50.3],[0.42,49.96],[-0.16,50.06],[-0.22,49.84],[0.04,49.67],[-0.02,49.45],[-0.33,49.39],[-1.18,49.65],[-1.12,49.87],[-1.39,50.03],[-2.31,50.05],[-2.36,49.83],[-3.42,49.16],[-3.47,48.93],[-4.06,49.01],[-4.75,48.63],[-5.35,48.7],[-5.39,48.47],[-4.87,47.93],[-4.91,47.7],[-3.74,47.55],[-3.47,47.39],[-3.52,47.16],[-2.94,47.08],[-2.68,46.92],[-2.73,46.69],[-1.91,46.45],[-1.96,46.22],[-1.3,45.28],[-1.35,45.05],[-1.65,44.97],[-1.7,44.74],[-1.45,44.58],[-1.5,44.35],[-1.8,44.27],[-1.65,43.64],[-3.82,43.95],[-4.46,43.54],[-8.1,44.05],[-8.73,43.61],[-9.0,43.76],[-9.3,43.66],[-9.33,43.42],[-9.63,43.32],[-9.65,43.07],[-8.88,42.14],[-9.22,41.55],[-8.72,41.01],[-8.74,40.77],[-9.34,40.31],[-9.13,39.67],[-9.96,39.61],[-9.98,39.36],[-9.72,39.21],[-9.74,38.97],[-9.01,38.04],[-9.33,37.43],[-8.85,36.9],[-8.05,36.97],[-6.77,36.74],[-6.8,36.49],[-6.15,35.56],[-6.18,35.32],[-6.74,34.86],[-7.35,33.91],[-7.61,33.81],[-7.85,33.95],[-8.4,33.48],[-8.64,33.62],[-8.9,33.51],[-8.93,33.26],[-10.03,32.07],[-10.05,31.82],[-9.81,31.68],[-9.83,31.43],[-10.08,31.32],[-10.1,31.07],[-9.87,30.93],[-9.89,30.68],[-10.14,30.57],[-9.94,29.94],[-10.19,29.82],[-10.48,29.21],[-11.21,29.11],[-11.49,28.49],[-12.22,28.38],[-12.46,28.51],[-12.97,28.02],[-13.21,28.14],[-13.45,28.02],[-13.46,27.77],[-13.71,27.65],[-13.49,27.02],[-14.21,26.9],[-14.22,26.65],[-15.2,25.4],[-15.2,25.15],[-14.97,25.03],[-15.21,24.41],[-15.92,24.27],[-15.92,24.03],[-16.4,23.53],[-16.4,23.28],[-16.16,23.16],[-16.4,22.55],[-16.63,22.42],[-16.86,22.53],[-17.32,22.03],[-17.32,21.79],[-17.09,21.67],[-17.31,21.06],[-17.08,20.95],[-17.08,20.71],[-16.4,20.61],[-16.4,20.37],[-16.17,20.26],[-16.17,20.02],[-16.62,19.52],[-16.17,18.59],[-15.51,18.5],[-14.83,19.34],[-14.83,19.58],[-13.94,19.6],[-13.72,19.72],[-13.71,19.96],[-13.04,20.09],[-13.03,20.32],[-12.8,20.44],[-12.14,20.33],[-11.68,20.81],[-9.27,20.68],[-8.79,21.15],[-7.29,21.0],[-6.82,21.46],[-4.08,21.24],[-3.6,21.68],[-2.59,21.51],[-2.12,21.89],[-1.53,21.64],[-1.04,22.01],[-0.45,21.77],[-0.22,21.84],[-0.18,22.07],[0.46,22.05],[0.51,22.28],[0.74,22.35],[1.58,22.16],[2.19,23.01],[3.0,23.69],[2.77,24.73],[3.89,24.61],[3.81,25.26],[4.5,25.23],[4.55,25.47],[4.8,25.54],[5.89,25.16],[6.46,25.54],[6.65,25.37],[6.59,25.13],[7.24,24.84],[7.17,24.6],[6.29,23.93],[5.66,24.2],[5.71,24.44],[5.52,24.62],[5.27,24.55],[5.21,24.31],[5.54,23.73],[5.48,23.49],[5.23,23.42],[5.31,22.77],[5.5,22.6],[6.05,22.97],[6.24,22.8],[6.49,22.86],[7.18,23.71],[7.88,23.66],[7.94,23.9],[7.75,24.08],[7.49,24.01],[7.3,24.19],[7.69,24.73],[8.39,24.69],[8.46,24.93],[8.72,24.99],[8.91,24.81],[9.17,24.88],[9.49,24.28],[10.2,24.22],[10.15,24.88],[9.51,25.18],[9.57,25.42],[9.38,25.6],[9.12,25.54],[8.92,25.72],[8.99,25.96],[9.71,25.91],[9.79,26.15],[10.05,26.22],[11.63,25.67],[12.6,26.34],[12.9,25.72],[13.64,25.65],[14.29,25.33],[14.92,25.69],[15.11,25.5],[15.39,25.55],[15.84,26.09],[16.11,26.14],[18.17,25.38],[18.44,25.43],[18.63,25.24],[19.28,25.57],[19.93,25.22],[20.21,25.27],[20.31,25.51],[21.05,25.4],[21.15,25.64],[21.43,25.68],[23.45,24.85],[24.12,25.16],[24.3,24.96],[24.58,25.0],[24.82,24.35],[25.1,24.39],[25.27,24.19],[25.23,23.51],[25.85,23.14],[27.67,24.24],[27.79,24.48],[28.06,24.51],[28.67,24.13],[29.35,24.42],[30.39,23.85],[31.45,24.39],[31.57,24.62],[31.85,24.64],[32.44,24.25],[33.11,24.52],[33.69,24.12],[34.36,24.39],[34.53,23.74],[34.81,23.76],[35.37,23.36],[35.64,23.38],[35.76,23.6],[35.62,23.81],[35.74,24.04],[35.59,24.25],[35.32,24.23]],[[-4.65,35.42],[-5.08,35.96],[-5.04,36.2],[-4.77,36.3],[-4.54,36.15],[-3.97,36.59],[-2.26,36.26],[-1.37,37.01],[-1.33,37.25],[-0.58,37.26],[-0.21,37.82],[-0.43,37.97],[-0.38,38.21],[0.2,38.61],[0.25,38.85],[-0.14,39.4],[-0.09,39.63],[0.84,40.34],[1.23,40.9],[2.02,40.94],[2.42,41.49],[3.23,41.53],[3.29,41.76],[3.59,41.85],[3.48,42.46],[3.25,42.6],[3.67,43.16],[5.04,43.13],[6.35,42.85],[7.05,43.24],[7.12,43.48],[7.98,43.48],[8.46,44.02],[8.77,44.1],[10.12,43.78],[9.23,42.94],[8.37,42.94],[8.29,42.71],[8.52,42.55],[8.05,42.01],[8.43,41.46],[8.74,41.53],[8.97,41.37],[8.89,41.14],[8.05,41.14],[7.6,40.59],[8.35,40.35],[8.27,40.12],[7.97,40.04],[7.9,39.8],[8.12,39.64],[7.67,39.09],[8.42,38.84],[8.34,38.6],[8.56,38.44],[9.24,38.82],[9.31,39.06],[10.14,39.04],[10.08,39.68],[9.86,39.85],[10.33,40.4],[9.96,40.96],[10.05,41.2],[9.82,41.36],[9.9,41.59],[9.67,41.76],[9.76,41.99],[10.61,41.97],[10.7,42.21],[11.02,42.28],[11.24,42.11],[11.56,42.18],[11.79,42.02],[11.7,41.78],[12.47,41.52],[12.38,41.28],[12.74,40.71],[14.67,40.44],[14.89,40.27],[14.8,40.03],[15.55,39.73],[15.57,39.08],[15.26,39.02],[15.16,38.79],[14.32,38.84],[14.35,38.19],[13.52,38.24],[13.17,38.83],[12.46,38.46],[11.98,37.92],[12.33,37.33],[14.19,37.05],[14.53,36.45],[15.35,36.39],[15.44,36.63],[15.23,36.81],[15.73,37.35],[15.52,37.53],[15.61,37.77],[16.45,37.7],[16.96,38.23],[16.75,38.41],[16.85,38.65],[17.58,39.0],[17.58,39.65],[16.83,39.96],[16.93,40.19],[17.25,40.25],[17.47,40.07],[17.79,40.12],[18.11,39.52],[18.86,39.85],[19.07,39.67],[19.4,39.72],[19.61,39.53],[19.5,39.3],[20.24,38.97],[20.13,38.73],[20.34,38.54],[19.8,38.02],[20.53,37.69],[20.42,37.45],[20.63,37.26],[20.94,37.31],[21.24,36.68],[22.07,36.57],[22.35,35.95],[23.18,35.83],[23.37,35.63],[23.34,34.96],[24.04,34.6],[24.77,34.9],[24.96,34.7],[25.77,34.57],[26.75,35.33],[27.55,35.18],[27.62,35.85],[28.42,35.69],[28.49,36.36],[30.29,35.83],[30.86,36.3],[30.68,36.51],[30.81,36.73],[31.12,36.75],[31.3,36.54],[32.1,36.36],[32.32,35.72],[32.63,35.73],[32.76,35.96],[33.07,35.97],[33.24,35.76],[31.79,34.82],[32.91,34.22],[34.09,34.7],[34.19,35.36],[34.5,35.37],[35.08,35.82],[34.91,36.03],[34.6,36.02],[34.02,35.57],[33.72,35.56],[33.55,35.77],[33.68,35.99],[33.99,36.0],[34.57,36.45],[35.35,36.26],[35.52,36.04],[35.38,35.83],[35.54,35.61],[35.41,35.39],[35.62,34.31],[35.48,34.09],[35.18,34.08],[35.05,33.86],[35.21,33.65],[34.64,33.19],[34.83,32.54],[34.7,32.32],[34.41,32.31],[34.27,32.08],[34.44,31.87],[33.88,31.41],[33.13,31.59],[33.0,31.36],[32.71,31.35],[31.61,31.94],[30.89,31.67],[30.72,31.88],[30.42,31.86],[29.46,31.12],[29.16,31.1],[27.56,31.85],[26.84,31.55],[26.18,31.93],[25.46,31.63],[25.21,32.27],[24.42,32.41],[24.23,32.61],[23.51,32.3],[23.24,32.93],[22.94,32.9],[21.75,33.41],[21.45,33.37],[21.34,33.13],[19.83,32.23],[19.73,31.98],[19.92,31.79],[19.91,31.11],[18.83,30.48],[18.54,31.11],[18.24,31.06],[16.08,31.81],[15.79,31.75],[15.36,32.8],[15.07,32.74],[13.37,33.3],[12.7,32.93],[11.5,33.34],[11.45,34.01],[10.74,34.29],[10.82,34.54],[11.62,34.49],[11.7,34.74],[11.23,35.75],[11.31,35.99],[11.1,36.17],[11.56,36.72],[11.21,37.3],[10.91,37.23],[9.14,37.7],[8.11,37.0],[6.37,37.42],[5.73,37.02],[4.0,37.4],[3.72,37.32],[3.66,37.08],[2.89,37.06],[2.83,36.82],[2.56,36.73],[1.36,37.01],[1.09,36.92],[1.04,36.68],[0.29,36.65],[-0.07,36.09],[-0.33,36.0],[-0.55,36.16],[-1.12,35.74],[-1.33,35.9],[-1.6,35.81],[-1.64,35.57],[-2.2,35.15],[-2.91,35.35],[-2.87,35.6],[-3.09,35.75],[-3.66,35.32],[-4.38,35.52],[-4.65,35.42]],[[9.38,50.35],[9.3,50.92],[10.1,51.28],[10.19,51.49],[9.93,51.63],[10.03,51.84],[10.39,51.92],[11.26,51.7],[10.71,51.21],[11.32,51.14],[11.74,50.63],[12.09,50.7],[12.19,50.92],[13.16,50.9],[13.27,51.11],[13.63,51.17],[14.03,50.66],[13.46,50.17],[14.07,50.08],[14.46,49.56],[15.28,49.89],[15.89,49.79],[16.47,50.27],[15.0,50.63],[15.11,50.84],[14.86,50.99],[14.97,51.2],[15.34,51.26],[15.96,51.16],[16.34,50.64],[17.32,50.59],[17.69,50.06],[17.57,49.84],[16.61,49.9],[16.49,49.69],[15.66,49.36],[15.55,49.14],[15.8,48.98],[15.22,48.49],[11.65,49.04],[11.3,48.97],[11.21,48.75],[10.27,48.76],[10.18,48.54],[9.41,48.17],[9.16,48.31],[9.25,48.53],[10.02,48.9],[9.95,49.49],[10.55,49.41],[10.46,49.2],[10.71,49.05],[11.05,49.12],[11.15,49.34],[10.74,49.85],[10.84,50.06],[10.58,50.21],[9.38,50.35]],[[22.51,49.06],[21.68,49.37],[21.81,49.58],[22.17,49.61],[23.96,49.19],[24.19,49.01],[24.05,48.8],[24.64,48.66],[24.87,48.48],[24.73,48.27],[25.31,48.11],[25.53,47.93],[25.4,47.72],[26.19,47.38],[26.05,47.17],[25.21,46.9],[24.99,47.09],[25.12,47.3],[24.32,47.63],[24.46,47.84],[24.23,48.03],[23.88,47.99],[23.56,48.56],[22.61,48.67],[22.38,48.85],[22.51,49.06]],[[18.98,42.03],[18.87,41.8],[19.09,41.62],[18.98,41.39],[19.3,40.79],[19.19,40.55],[18.86,40.51],[18.65,40.69],[17.78,40.77],[17.45,41.36],[16.58,41.43],[16.24,42.02],[16.78,42.54],[17.11,42.59],[18.98,42.03]],[[51.22,27.94],[51.67,27.47],[52.34,27.54],[54.52,25.75],[55.19,25.8],[55.2,25.22],[54.37,25.02],[54.36,25.59],[54.11,25.65],[53.88,25.12],[54.21,24.86],[54.3,24.66],[54.14,24.5],[53.49,24.45],[53.07,24.92],[53.22,25.07],[53.13,25.28],[52.88,25.33],[52.48,25.22],[52.33,25.07],[52.42,24.86],[52.04,24.72],[51.98,25.32],[51.66,25.54],[51.85,26.1],[51.75,26.31],[51.41,26.57],[50.8,26.4],[50.35,26.83],[50.11,26.84],[50.08,27.87],[49.45,27.7],[48.99,28.13],[48.74,28.15],[48.66,28.77],[48.41,28.78],[48.3,29.0],[48.84,29.38],[48.72,29.59],[48.87,29.79],[49.51,29.96],[49.62,29.74],[49.87,29.73],[49.94,29.11],[50.91,28.58],[51.02,28.36],[50.86,28.2],[51.22,27.94]],[[121.11,39.81],[121.2,39.31],[120.73,38.91],[120.88,38.59],[120.39,38.35],[120.51,37.85],[119.86,37.93],[120.01,37.6],[119.71,37.21],[119.29,37.32],[119.6,37.72],[119.25,38.19],[117.96,38.52],[118.42,38.94],[118.78,38.82],[119.36,39.07],[119.48,39.61],[121.26,40.69],[121.7,40.78],[122.08,40.59],[121.91,40.46],[122.01,40.3],[121.58,40.21],[121.11,39.81]],[[29.31,43.48],[29.5,43.28],[29.37,43.07],[30.09,42.69],[29.95,42.47],[30.15,42.27],[31.52,41.91],[31.71,41.71],[31.57,41.49],[30.77,41.24],[30.58,41.45],[30.26,41.43],[30.12,41.21],[29.79,41.2],[29.07,41.58],[28.74,41.56],[28.54,41.76],[28.68,41.98],[27.95,42.35],[28.08,42.57],[27.88,42.77],[28.49,43.23],[29.31,43.48]],[[15.79,42.37],[15.57,42.54],[14.81,42.19],[14.59,42.37],[14.69,42.6],[14.33,43.17],[14.43,43.4],[13.64,43.67],[13.74,43.9],[13.51,44.07],[13.18,44.01],[12.95,44.17],[13.04,44.4],[12.67,44.95],[12.77,45.18],[13.1,45.25],[13.33,45.08],[13.24,44.86],[13.47,44.69],[13.8,44.76],[14.04,44.59],[13.94,44.36],[14.17,44.2],[14.5,44.26],[14.73,44.09],[14.63,43.86],[15.42,43.58],[15.44,42.95],[16.22,42.66],[16.12,42.43],[15.79,42.37]],[[14.9,47.83],[15.01,48.05],[15.36,48.11],[16.19,47.84],[16.08,47.62],[14.82,47.01],[14.85,46.4],[14.51,46.34],[14.14,46.89],[13.79,46.82],[13.83,46.22],[13.49,46.15],[13.11,46.7],[12.34,46.34],[11.52,46.59],[10.34,45.92],[9.77,46.0],[9.38,46.53],[8.8,46.6],[7.66,45.92],[6.79,45.07],[6.24,45.14],[6.7,45.68],[6.46,45.82],[6.54,46.05],[7.66,46.74],[7.74,46.97],[8.65,46.98],[8.73,47.2],[9.06,47.28],[9.64,47.2],[10.15,47.72],[11.32,47.56],[12.1,47.92],[12.93,47.68],[13.72,48.03],[14.9,47.83]],[[18.99,43.31],[20.32,42.86],[20.2,42.63],[19.87,42.58],[19.65,42.77],[18.76,42.85],[18.54,43.03],[18.65,43.26],[18.99,43.31]],[[25.53,39.81],[25.86,39.84],[26.06,39.64],[25.93,39.41],[25.61,39.38],[25.41,39.58],[25.53,39.81]],[[16.51,44.61],[17.3,44.32],[17.64,44.37],[17.87,44.19],[17.75,43.97],[18.54,43.66],[18.43,43.44],[16.98,43.63],[16.63,44.21],[16.29,44.15],[16.06,44.32],[16.17,44.55],[16.51,44.61]],[[47.07,54.11],[47.47,54.1],[47.64,53.88],[47.42,53.68],[47.59,53.46],[47.37,53.25],[47.54,53.03],[47.32,52.83],[46.33,52.64],[46.15,52.86],[46.37,53.06],[45.62,53.5],[45.83,53.71],[45.65,53.93],[46.49,54.34],[46.89,54.33],[47.07,54.11]],[[56.88,26.2],[56.54,26.47],[56.71,26.63],[56.97,26.57],[57.05,26.36],[56.88,26.2]],[[24.8,40.17],[25.0,39.97],[24.88,39.75],[24.56,39.71],[24.35,39.91],[24.48,40.14],[24.8,40.17]],[[8.0,50.83],[7.92,51.39],[9.13,51.27],[8.61,50.77],[8.0,50.83]],[[20.21,48.61],[18.66,48.81],[18.3,49.35],[18.91,49.83],[19.27,49.87],[21.08,49.5],[21.31,49.33],[21.19,49.11],[20.82,49.07],[20.21,48.61]],[[25.11,38.47],[25.31,38.27],[26.15,38.13],[26.34,37.93],[26.22,37.7],[24.87,38.0],[24.67,38.2],[24.79,38.43],[25.11,38.47]],[[-3.84,53.15],[-3.55,53.0],[-3.36,52.4],[-3.7,52.33],[-4.24,52.86],[-4.19,53.08],[-3.84,53.15]],[[25.05,36.04],[25.24,35.84],[25.99,36.14],[26.18,35.94],[26.06,35.7],[25.32,35.41],[24.62,35.77],[23.8,35.9],[23.52,36.53],[23.64,36.77],[23.95,36.8],[24.15,36.61],[24.47,36.64],[24.66,36.44],[24.97,36.48],[25.17,36.28],[25.05,36.04]],[[-2.24,48.99],[-2.29,48.76],[-2.61,48.69],[-2.88,48.85],[-2.83,49.08],[-2.24,48.99]],[[-3.8,53.37],[-4.35,53.9],[-4.3,54.11],[-3.65,54.03],[-3.7,53.81],[-3.4,53.65],[-3.45,53.44],[-3.8,53.37]],[[48.61,53.63],[48.21,53.65],[48.04,53.87],[48.27,54.08],[48.68,54.06],[48.85,53.84],[48.61,53.63]],[[55.61,25.9],[55.27,26.17],[55.43,26.33],[55.69,26.27],[55.77,26.06],[55.61,25.9]],[[24.51,39.06],[24.63,39.29],[24.96,39.32],[25.68,38.96],[25.56,38.73],[25.23,38.7],[24.51,39.06]],[[11.45,53.45],[12.03,53.92],[12.89,54.26],[13.8,54.04],[13.69,53.83],[14.1,53.34],[13.99,53.14],[13.62,53.08],[11.45,53.45]],[[22.38,46.64],[22.51,46.85],[22.86,46.89],[23.09,46.71],[22.96,46.49],[22.61,46.46],[22.38,46.64]],[[117.35,35.36],[117.59,35.4],[117.75,35.06],[117.32,35.16],[117.35,35.36]]],[[[173.82,-35.32],[174.06,-35.17],[174.03,-34.92],[173.26,-34.86],[173.23,-34.62],[172.97,-34.51],[172.73,-34.66],[173.05,-35.26],[173.82,-35.32]]],[[[174.56,-35.12],[174.12,-35.66],[173.85,-35.56],[173.62,-35.71],[173.95,-36.3],[174.22,-36.4],[174.04,-37.04],[174.62,-37.48],[174.66,-37.72],[174.0,-38.66],[174.03,-38.9],[173.78,-39.05],[173.81,-39.3],[173.56,-39.45],[173.6,-39.69],[173.88,-39.79],[174.13,-39.64],[174.41,-39.73],[175.08,-40.65],[174.83,-40.8],[174.55,-40.71],[174.51,-40.47],[174.23,-40.37],[173.44,-40.58],[172.84,-40.14],[172.35,-40.68],[172.07,-40.58],[171.81,-40.72],[172.15,-41.31],[171.33,-41.51],[171.36,-41.75],[170.6,-42.68],[170.62,-42.93],[169.78,-43.11],[169.8,-43.36],[169.52,-43.5],[169.22,-43.4],[168.94,-43.54],[168.96,-43.78],[168.67,-43.92],[168.37,-43.82],[168.08,-43.96],[167.83,-44.59],[166.94,-44.76],[166.95,-45.0],[166.37,-45.52],[166.38,-45.77],[166.08,-45.9],[166.09,-46.15],[166.4,-46.25],[166.41,-46.5],[167.34,-46.58],[167.06,-47.2],[167.38,-47.3],[167.39,-47.54],[167.71,-47.65],[168.3,-47.13],[168.61,-47.23],[169.19,-46.71],[169.5,-46.8],[170.4,-46.62],[170.37,-46.38],[170.66,-46.23],[170.64,-45.99],[170.92,-45.85],[170.9,-45.6],[171.18,-45.46],[171.15,-45.22],[171.68,-44.68],[171.65,-44.44],[173.07,-44.18],[173.04,-43.94],[173.31,-43.79],[172.95,-43.22],[173.77,-43.01],[173.73,-42.77],[174.44,-41.83],[174.4,-41.59],[174.66,-41.44],[175.27,-41.86],[176.06,-41.64],[176.22,-41.01],[176.99,-40.79],[176.95,-40.55],[177.38,-40.0],[177.02,-39.43],[178.27,-39.14],[178.22,-38.9],[178.81,-37.96],[178.76,-37.72],[178.18,-37.31],[177.46,-37.53],[177.5,-37.77],[177.27,-37.92],[176.69,-37.5],[176.46,-37.65],[176.19,-37.56],[176.34,-36.92],[175.76,-36.49],[175.42,-35.91],[174.66,-35.86],[174.62,-35.62],[174.86,-35.47],[174.82,-35.22],[174.56,-35.12]],[[176.81,-38.23],[177.59,-38.25],[178.0,-37.7],[178.27,-37.79],[177.95,-38.82],[177.21,-39.04],[176.93,-38.95],[176.3,-39.89],[176.34,-40.13],[176.1,-40.28],[175.82,-40.19],[175.78,-39.95],[175.18,-39.53],[175.14,-39.28],[175.39,-39.13],[175.04,-38.55],[175.48,-38.01],[175.75,-38.1],[176.5,-37.89],[176.77,-37.98],[176.81,-38.23]]],[[[16.75,21.52],[16.48,21.48],[16.4,21.24],[16.67,20.62],[17.38,20.52],[17.56,20.33],[18.18,20.66],[18.36,20.47],[18.36,19.8],[18.54,19.61],[18.8,19.66],[18.72,20.75],[18.54,20.95],[18.99,21.47],[18.81,21.66],[18.09,21.76],[18.0,21.52],[18.18,21.33],[18.09,21.09],[17.82,21.05],[16.75,21.52]]],[[[39.51,14.37],[39.4,13.76],[39.76,13.59],[39.87,14.2],[39.75,14.39],[39.51,14.37]]],[[[12.33,35.77],[12.25,35.53],[12.46,35.35],[13.14,35.72],[13.23,35.96],[13.02,36.14],[12.72,36.08],[12.63,35.84],[12.33,35.77]]],[[[-16.39,28.01],[-16.15,28.14],[-15.9,28.02],[-15.9,27.76],[-15.66,27.64],[-14.92,27.77],[-14.19,27.65],[-13.18,28.89],[-13.17,29.14],[-13.41,29.27],[-13.4,29.52],[-13.65,29.65],[-13.9,29.53],[-13.9,29.28],[-14.92,28.02],[-15.16,28.15],[-15.16,28.4],[-15.9,28.52],[-15.9,28.77],[-16.14,28.9],[-16.39,28.77],[-16.64,28.89],[-17.14,28.38],[-17.9,29.25],[-18.39,28.73],[-18.38,28.47],[-18.13,28.35],[-18.13,28.1],[-18.37,27.97],[-18.11,27.34],[-17.86,27.22],[-17.62,27.36],[-17.88,27.98],[-17.63,28.11],[-17.13,27.62],[-16.39,27.76],[-16.39,28.01]]],[[[-16.18,17.89],[-15.74,17.9],[-15.73,18.14],[-15.95,18.25],[-16.18,18.12],[-16.18,17.89]]],[[[4.57,39.54],[4.47,40.17],[3.73,40.38],[3.44,40.3],[3.38,40.06],[2.58,40.03],[2.19,39.47],[2.58,38.94],[2.86,39.03],[3.08,38.88],[3.71,39.29],[3.77,39.52],[4.57,39.54]]],[[[-25.12,38.06],[-25.98,38.13],[-26.24,37.98],[-26.21,37.72],[-25.92,37.62],[-25.88,37.36],[-24.95,36.52],[-24.69,36.67],[-25.03,37.29],[-24.77,37.44],[-24.79,37.69],[-25.09,37.8],[-25.12,38.06]]],[[[-10.36,51.66],[-10.38,51.43],[-10.07,51.29],[-9.08,51.32],[-9.05,51.55],[-9.36,51.7],[-10.36,51.66]]],[[[106.56,52.69],[105.53,51.92],[105.18,51.87],[104.8,52.45],[104.91,52.68],[104.67,52.85],[103.08,53.05],[102.82,53.22],[102.46,53.16],[102.36,52.93],[102.62,52.76],[102.98,52.82],[103.24,52.64],[103.14,52.41],[103.99,52.12],[103.89,51.89],[104.28,51.31],[104.62,51.36],[104.73,51.59],[105.66,51.52],[106.22,52.01],[107.03,52.33],[107.15,52.55],[106.91,52.73],[106.56,52.69]]],[[[1.02,38.87],[1.41,38.35],[2.02,38.76],[2.07,39.0],[1.68,39.53],[1.4,39.44],[1.02,38.87]]],[[[128.03,39.82],[128.0,40.04],[127.6,40.01],[127.29,39.13],[127.69,39.15],[128.03,39.82]]],[[[-29.17,38.49],[-29.13,38.24],[-28.83,38.14],[-28.0,38.35],[-27.14,38.29],[-26.64,38.85],[-26.67,39.1],[-27.55,39.16],[-27.58,39.41],[-27.89,39.52],[-28.15,39.36],[-28.12,39.11],[-28.95,38.9],[-28.91,38.65],[-29.17,38.49]]],[[[15.14,55.16],[14.88,55.3],[14.49,55.24],[14.37,55.04],[15.03,54.96],[15.14,55.16]]],[[[8.32,58.07],[8.42,58.26],[8.13,58.38],[7.74,58.3],[7.64,58.11],[8.32,58.07]]],[[[126.26,34.94],[126.3,35.13],[125.85,35.14],[125.81,34.95],[126.01,34.85],[126.26,34.94]]],[[[128.55,38.77],[128.14,38.75],[128.61,38.12],[128.78,38.45],[128.55,38.77]]],[[[130.37,42.17],[130.15,42.26],[129.93,42.14],[129.95,41.92],[130.39,41.95],[130.37,42.17]]],[[[130.77,42.86],[130.79,42.63],[130.57,42.51],[130.59,42.29],[130.82,42.19],[131.03,42.32],[131.02,42.54],[131.69,42.69],[131.68,42.91],[131.9,43.03],[132.38,42.61],[134.0,42.78],[134.0,43.01],[133.76,43.11],[132.59,42.95],[132.11,43.38],[131.65,43.35],[131.43,43.23],[131.44,43.01],[130.77,42.86]]],[[[43.8,15.86],[43.67,15.25],[44.12,14.88],[44.09,13.7],[44.79,14.14],[45.35,13.97],[45.49,14.57],[44.71,15.11],[44.73,15.91],[43.81,16.26],[43.8,15.86]]],[[[83.52,53.56],[83.51,53.31],[83.87,53.17],[84.24,53.29],[84.25,53.54],[83.88,53.68],[83.52,53.56]]],[[[129.8,41.14],[130.01,41.26],[129.99,41.48],[129.76,41.58],[129.56,41.45],[129.8,41.14]]],[[[-16.39,33.34],[-16.39,33.09],[-16.65,32.96],[-17.44,33.08],[-17.7,32.95],[-17.7,32.69],[-17.43,32.57],[-17.17,32.7],[-16.65,32.19],[-15.87,33.09],[-15.87,33.34],[-16.13,33.47],[-16.39,33.34]]],[[[14.56,35.79],[14.65,36.03],[14.44,36.21],[14.13,36.15],[14.04,35.91],[14.25,35.73],[14.56,35.79]]],[[[129.21,40.55],[129.63,40.58],[129.61,40.8],[129.39,40.89],[129.19,40.77],[129.21,40.55]]],[[[38.76,15.13],[39.13,15.36],[39.0,15.56],[38.75,15.54],[38.64,15.32],[38.76,15.13]]],[[[121.36,32.29],[121.63,32.59],[121.43,32.68],[121.2,32.59],[121.16,32.39],[121.36,32.29]]],[[[18.72,22.1],[18.9,21.9],[19.17,21.95],[19.26,22.19],[19.08,22.38],[18.81,22.34],[18.72,22.1]]],[[[-176.54,-44.36],[-176.13,-43.85],[-176.2,-43.62],[-176.5,-43.53],[-176.91,-44.04],[-176.84,-44.27],[-176.54,-44.36]]],[[[128.83,40.09],[129.01,40.43],[128.79,40.53],[128.59,40.41],[128.83,40.09]]],[[[-30.99,39.07],[-30.73,39.22],[-30.78,39.48],[-31.09,39.57],[-31.35,39.41],[-31.3,39.16],[-30.99,39.07]]],[[[-15.96,17.08],[-16.18,17.19],[-16.4,17.07],[-16.4,16.83],[-15.96,16.85],[-15.96,17.08]]],[[[166.28,-50.94],[166.6,-50.8],[166.59,-50.57],[165.94,-50.6],[165.94,-50.83],[166.28,-50.94]]],[[[6.49,57.87],[7.16,57.84],[7.26,58.03],[6.96,58.14],[6.58,58.06],[6.49,57.87]]],[[[52.45,25.8],[52.2,25.85],[52.04,25.69],[52.14,25.48],[52.54,25.59],[52.45,25.8]]],[[[11.86,36.78],[12.07,36.61],[12.37,36.67],[12.46,36.91],[12.25,37.09],[11.94,37.02],[11.86,36.78]]]]}}]}