{"type":"FeatureCollection","features":[{"type":"Feature","properties":{},"geometry":{"type":"MultiPolygon","coordinates":[[[[175.69,-41.07],[175.19,-41.38],[175.57,-40.35],[174.66,-39.58],[174.44,-39.98],[175.08,-40.65],[174.62,-41.19],[174.01,-40.77],[173.22,-40.97],[172.35,-40.68],[173.02,-41.61],[174.08,-41.25],[173.18,-42.82],[173.51,-43.16],[174.66,-41.44],[175.27,-41.86],[176.06,-41.64],[176.42,-40.61],[175.69,-41.07]]],[[[-8.13,57.95],[-8.82,58.23],[-9.27,57.73],[-8.13,57.95]]],[[[-65.07,32.11],[-64.31,32.52],[-64.73,32.66],[-65.07,32.11]]],[[[-11.23,28.86],[-11.74,28.37],[-12.46,28.51],[-13.45,28.02],[-13.71,27.65],[-13.49,27.02],[-14.21,26.9],[-15.2,25.4],[-14.97,24.78],[-15.68,24.65],[-16.63,23.15],[-16.4,22.79],[-15.45,24.28],[-14.5,24.79],[-14.72,25.4],[-14.01,25.53],[-13.5,26.52],[-12.78,26.64],[-12.26,27.63],[-11.06,27.73],[-10.25,29.08],[-8.81,29.02],[-7.51,30.07],[-5.56,30.43],[-4.96,31.37],[-3.95,31.77],[-3.3,31.34],[-3.19,32.06],[-2.05,31.82],[-0.0,32.78],[2.8,33.47],[3.18,34.04],[3.93,34.04],[4.65,34.93],[5.93,33.95],[6.91,33.78],[7.26,34.09],[7.11,34.5],[6.47,35.0],[7.25,34.99],[8.1,34.32],[9.61,34.92],[10.01,33.67],[11.0,33.45],[11.34,32.86],[14.48,32.63],[14.37,33.06],[13.37,33.3],[12.7,32.93],[11.5,33.34],[11.45,34.01],[10.74,34.29],[11.7,34.74],[11.1,36.17],[11.56,36.72],[11.43,37.13],[9.14,37.7],[8.11,37.0],[6.37,37.42],[5.73,37.02],[4.0,37.4],[2.56,36.73],[1.36,37.01],[0.29,36.65],[-0.07,36.09],[-1.6,35.81],[-2.2,35.15],[-3.09,35.75],[-3.66,35.32],[-4.65,35.42],[-5.08,35.96],[-3.97,36.59],[-2.26,36.26],[-1.33,37.25],[-0.58,37.26],[-0.21,37.82],[-0.38,38.21],[0.25,38.85],[-0.09,39.63],[1.23,40.9],[2.02,40.94],[2.42,41.49],[3.59,41.85],[3.25,42.6],[3.67,43.16],[6.35,42.85],[8.77,44.1],[10.12,43.78],[9.23,42.94],[8.37,42.94],[8.52,42.55],[8.05,42.01],[8.97,41.37],[8.05,41.14],[7.6,40.59],[8.35,40.35],[7.67,39.09],[8.56,38.44],[9.31,39.06],[10.14,39.04],[9.86,39.85],[10.33,40.4],[9.67,41.76],[11.02,42.28],[12.47,41.52],[12.74,40.71],[14.67,40.44],[14.8,40.03],[15.55,39.73],[15.57,39.08],[14.32,38.84],[14.35,38.19],[13.52,38.24],[13.17,38.83],[11.98,37.92],[12.33,37.33],[14.19,37.05],[14.53,36.45],[15.35,36.39],[15.61,37.77],[16.45,37.7],[16.96,38.23],[16.85,38.65],[17.58,39.0],[17.58,39.65],[16.83,39.96],[17.25,40.25],[17.79,40.12],[18.11,39.52],[19.4,39.72],[19.5,39.3],[20.24,38.97],[20.34,38.54],[19.8,38.02],[20.53,37.69],[21.24,36.68],[22.07,36.57],[22.35,35.95],[23.18,35.83],[23.34,34.96],[24.04,34.6],[24.77,34.9],[25.77,34.57],[26.75,35.33],[27.55,35.18],[27.62,35.85],[28.42,35.69],[28.49,36.36],[30.29,35.83],[30.86,36.3],[30.81,36.73],[32.1,36.36],[32.32,35.72],[33.07,35.97],[33.11,35.54],[31.35,34.57],[29.21,34.43],[27.8,33.43],[29.42,32.68],[30.15,32.95],[31.74,32.17],[32.46,32.44],[33.55,31.83],[34.27,32.08],[34.44,31.87],[33.88,31.41],[32.71,31.35],[31.61,31.94],[30.42,31.86],[29.46,31.12],[28.51,31.49],[27.8,31.2],[26.18,31.93],[25.46,31.63],[25.21,32.27],[24.72,32.44],[23.51,32.3],[23.24,32.93],[21.75,33.41],[19.83,32.23],[20.11,30.91],[20.5,31.2],[20.32,32.08],[21.13,32.65],[22.12,32.34],[22.83,32.66],[23.1,32.02],[24.08,31.69],[24.79,32.0],[25.05,31.36],[26.24,31.49],[28.15,30.78],[28.21,30.34],[27.03,30.23],[27.15,29.34],[27.97,29.87],[29.14,29.98],[31.2,28.59],[31.9,28.86],[31.98,27.98],[32.58,27.58],[33.28,27.84],[33.37,28.51],[33.65,28.53],[33.84,27.88],[34.97,27.94],[35.58,27.09],[36.27,27.34],[37.12,26.94],[37.28,26.29],[37.96,26.53],[38.92,25.91],[39.59,26.15],[39.74,25.08],[40.53,25.53],[40.53,26.38],[41.19,26.18],[43.32,27.47],[44.37,27.45],[44.87,27.03],[45.52,27.22],[46.38,26.58],[47.02,26.77],[47.86,26.12],[48.49,26.3],[50.65,24.79],[51.25,24.96],[51.31,24.35],[51.96,23.92],[53.83,24.19],[54.41,23.88],[55.62,24.17],[55.87,24.69],[57.18,23.62],[58.58,23.47],[59.22,22.93],[59.32,23.29],[58.35,24.1],[57.52,23.92],[56.94,24.25],[56.37,25.73],[56.96,25.99],[58.64,25.2],[60.69,25.27],[61.34,24.71],[66.27,25.34],[66.43,24.68],[67.42,24.37],[67.33,23.8],[68.01,23.78],[68.88,22.9],[69.04,23.26],[68.46,23.85],[69.71,24.47],[69.99,25.41],[70.66,25.61],[70.79,26.2],[72.18,26.37],[72.55,27.1],[74.09,28.08],[74.83,28.04],[76.42,29.0],[76.12,29.57],[76.79,30.45],[76.48,31.03],[76.72,31.17],[77.28,30.49],[78.79,30.11],[79.07,29.54],[80.06,29.13],[81.27,29.3],[82.0,28.52],[82.71,28.66],[81.99,28.98],[81.75,29.56],[78.77,30.59],[78.21,31.51],[77.44,31.58],[74.76,34.93],[73.42,34.93],[73.63,35.33],[74.7,35.42],[74.89,36.07],[73.74,36.47],[73.49,36.32],[73.85,35.72],[72.52,35.47],[71.57,36.25],[70.92,35.29],[69.57,35.25],[69.71,35.9],[71.24,36.59],[71.86,37.8],[71.12,38.74],[71.59,39.31],[72.73,39.43],[72.34,40.03],[73.26,39.73],[73.49,40.14],[74.07,40.19],[73.87,39.53],[74.74,39.48],[76.7,37.08],[77.8,37.15],[80.59,36.03],[81.66,36.07],[82.19,36.58],[83.53,36.48],[84.9,37.35],[85.97,37.34],[86.56,38.07],[87.36,37.93],[89.64,39.09],[92.88,39.13],[93.49,39.58],[94.78,39.34],[95.4,39.77],[96.67,39.52],[97.29,39.93],[97.68,39.4],[98.97,39.36],[99.97,38.38],[101.21,38.32],[101.54,37.79],[102.47,37.64],[100.99,36.8],[99.92,37.31],[99.99,36.7],[100.66,36.49],[99.8,36.01],[100.14,35.5],[101.19,35.83],[101.95,35.25],[102.54,35.63],[102.33,34.96],[102.74,34.28],[101.89,33.4],[102.8,32.87],[103.62,33.54],[104.04,33.05],[102.72,32.22],[103.1,31.29],[102.01,30.29],[102.21,29.92],[103.85,31.54],[103.68,32.11],[105.34,33.64],[105.73,32.94],[103.77,30.88],[104.47,30.68],[106.22,31.23],[107.62,31.02],[107.93,31.53],[107.55,32.25],[106.39,32.52],[106.67,32.81],[107.36,32.6],[107.89,32.95],[108.3,32.46],[110.15,32.15],[110.67,32.49],[111.58,32.33],[112.32,31.1],[112.01,30.61],[111.32,30.63],[111.95,30.18],[111.55,29.03],[112.37,28.43],[113.72,29.84],[114.39,29.81],[114.93,30.36],[115.29,29.84],[116.15,29.65],[115.62,29.11],[115.49,28.25],[116.6,28.34],[117.16,29.1],[116.41,29.92],[118.12,30.92],[120.02,30.76],[120.1,30.0],[121.93,29.57],[121.78,28.74],[121.25,28.12],[120.6,28.03],[120.72,27.5],[119.47,26.23],[119.58,25.64],[118.57,24.53],[117.94,24.55],[117.14,23.46],[116.5,23.48],[116.21,22.96],[115.38,23.12],[114.2,22.53],[113.35,22.68],[113.48,22.06],[114.11,21.83],[114.63,22.45],[116.37,22.57],[116.66,23.1],[117.29,23.08],[118.09,24.18],[119.62,24.62],[120.14,25.26],[120.02,25.81],[120.93,26.21],[120.81,26.75],[122.1,28.1],[121.98,28.63],[122.64,28.72],[122.51,29.25],[123.18,29.33],[124.03,30.45],[124.71,30.53],[127.52,33.44],[127.39,33.94],[128.09,34.0],[128.42,34.48],[128.87,34.45],[129.2,33.85],[128.29,32.81],[128.66,32.39],[129.56,32.33],[129.68,31.82],[129.11,31.24],[130.09,30.44],[129.35,30.18],[129.47,29.65],[128.65,28.96],[128.81,28.63],[129.79,28.98],[129.67,29.53],[131.24,30.46],[131.12,30.99],[131.7,31.56],[130.59,31.75],[130.26,32.39],[130.59,32.87],[129.81,33.52],[130.81,33.85],[131.63,33.39],[131.54,31.89],[132.12,32.45],[133.29,32.45],[133.47,33.24],[134.39,33.16],[135.0,33.92],[135.63,33.1],[137.59,34.48],[138.92,34.39],[139.33,33.66],[139.78,33.63],[139.38,34.6],[140.78,34.96],[140.59,35.57],[141.29,35.64],[140.9,36.62],[141.43,37.3],[141.01,38.04],[141.74,38.11],[142.3,38.79],[142.11,39.41],[142.4,39.75],[141.51,40.99],[141.82,41.57],[141.37,42.3],[142.16,42.39],[143.14,41.87],[144.59,42.87],[145.95,42.9],[146.31,43.49],[147.16,43.55],[146.99,44.17],[147.68,44.85],[150.8,45.8],[150.66,46.43],[151.04,46.76],[150.46,46.82],[149.64,45.91],[147.82,45.57],[147.42,44.99],[146.22,44.58],[145.42,44.75],[144.8,44.3],[143.71,44.36],[142.69,44.87],[142.26,45.83],[142.86,46.28],[143.64,45.91],[144.0,46.49],[142.83,48.28],[143.8,49.08],[144.55,48.24],[145.24,48.92],[143.72,50.79],[144.02,51.34],[143.34,51.76],[143.98,52.43],[143.61,52.98],[143.94,53.31],[143.22,53.75],[143.54,54.32],[142.43,54.64],[142.11,54.29],[142.51,53.74],[141.47,53.6],[139.85,54.89],[138.46,54.59],[138.7,55.18],[137.07,55.77],[138.15,55.95],[138.71,56.92],[139.85,57.09],[140.14,57.69],[141.32,57.85],[142.42,58.95],[141.96,59.29],[141.22,58.56],[140.02,58.39],[139.39,57.42],[138.24,57.24],[137.7,56.27],[136.6,56.09],[136.39,55.49],[134.93,55.37],[134.36,54.86],[133.17,55.09],[133.65,54.8],[133.42,54.43],[132.55,54.8],[131.63,54.35],[130.54,55.15],[127.66,55.58],[125.98,55.2],[124.33,55.39],[123.94,54.85],[122.87,54.76],[122.77,54.38],[121.87,54.08],[120.27,54.22],[120.34,54.6],[123.65,55.27],[122.5,55.78],[121.82,55.64],[121.48,55.09],[120.48,55.36],[120.41,54.98],[119.52,54.66],[119.63,54.08],[118.38,53.78],[118.12,53.24],[116.59,53.7],[114.04,52.5],[113.47,52.7],[114.23,53.05],[114.03,53.24],[112.49,53.27],[110.68,52.52],[108.29,52.27],[108.19,52.67],[110.69,53.84],[109.3,54.02],[110.03,54.4],[109.86,55.53],[109.22,55.71],[109.34,54.96],[108.25,54.53],[108.23,53.91],[107.27,53.4],[106.68,53.53],[107.63,54.06],[107.64,54.68],[108.7,55.14],[108.16,56.84],[109.38,57.26],[109.5,57.84],[111.28,57.86],[111.44,58.45],[112.11,58.65],[111.87,58.85],[112.77,59.24],[112.52,59.44],[109.82,58.64],[107.92,58.99],[107.82,58.4],[106.54,58.94],[106.48,58.35],[104.71,58.27],[104.15,59.22],[104.93,59.67],[103.39,59.98],[102.91,60.55],[101.04,60.41],[99.9,60.72],[96.25,60.03],[95.33,60.98],[93.23,61.08],[91.32,62.08],[89.94,61.83],[89.24,62.83],[87.5,63.4],[86.1,63.35],[85.12,62.68],[80.53,62.77],[79.54,63.47],[77.58,63.92],[70.8,63.88],[68.7,64.21],[67.32,65.03],[65.12,65.3],[64.41,64.76],[65.08,64.47],[64.79,64.08],[63.32,64.04],[63.45,64.65],[62.91,64.71],[60.63,64.3],[60.55,63.68],[59.27,63.38],[60.1,62.89],[59.73,62.71],[59.47,61.68],[58.62,61.54],[58.86,62.57],[59.22,62.75],[57.7,63.5],[58.26,64.07],[58.09,64.29],[55.93,64.43],[54.69,64.08],[53.42,64.34],[52.95,63.75],[51.69,63.99],[50.53,63.61],[48.46,63.64],[46.97,64.04],[46.74,64.24],[47.03,64.44],[46.03,64.83],[46.32,65.03],[46.08,65.22],[45.54,65.21],[45.33,65.8],[44.53,65.97],[44.9,66.95],[47.11,66.6],[49.34,67.58],[49.09,67.77],[49.44,67.96],[52.37,68.51],[54.66,68.06],[55.06,68.24],[54.01,68.66],[54.41,68.84],[54.18,69.04],[48.25,67.96],[46.79,68.14],[46.59,68.7],[45.7,68.88],[43.28,68.81],[42.97,68.61],[43.86,68.45],[44.11,67.89],[42.37,67.06],[41.24,67.39],[41.51,67.98],[41.21,68.15],[38.88,68.4],[38.51,68.94],[36.12,69.14],[35.87,68.94],[36.2,68.78],[37.67,68.7],[38.05,68.16],[40.36,67.92],[40.66,67.75],[40.44,66.78],[41.27,66.63],[41.55,66.45],[41.28,66.24],[39.64,66.54],[38.33,66.27],[32.52,67.11],[32.33,66.9],[33.48,66.63],[33.28,66.42],[34.1,66.31],[34.5,65.77],[33.62,65.29],[33.91,65.13],[33.83,64.54],[32.7,64.23],[32.64,63.63],[30.97,63.05],[30.54,63.58],[29.07,63.78],[28.06,63.44],[27.59,63.96],[26.07,63.33],[25.58,63.84],[26.24,64.34],[25.46,65.78],[22.36,66.02],[20.35,64.83],[20.52,64.27],[19.61,63.68],[16.76,63.41],[17.65,62.83],[16.63,62.78],[16.75,62.27],[15.15,61.78],[15.18,61.3],[14.02,61.32],[12.91,60.84],[10.01,61.05],[10.09,60.57],[8.34,59.43],[8.43,58.95],[6.86,58.64],[6.05,59.87],[6.62,60.27],[6.43,60.62],[5.48,60.92],[6.35,61.86],[6.16,62.21],[8.67,63.16],[11.1,63.27],[11.02,63.72],[12.18,64.18],[11.53,64.8],[13.46,66.59],[12.84,66.83],[11.42,65.18],[10.28,65.03],[10.29,64.37],[9.24,64.02],[8.13,64.17],[8.2,63.66],[4.76,62.49],[4.97,62.14],[4.11,61.2],[5.02,59.98],[4.46,59.58],[5.05,58.51],[6.31,58.23],[6.78,57.76],[9.0,58.03],[9.6,58.48],[9.41,58.79],[10.8,58.69],[11.05,57.87],[7.84,57.1],[8.02,56.79],[7.46,56.31],[7.83,55.67],[4.67,55.23],[2.74,54.42],[1.78,54.49],[0.9,53.76],[0.28,53.87],[0.13,54.45],[-0.79,54.72],[-1.43,56.03],[-2.4,56.29],[-1.55,56.81],[-1.74,57.38],[-1.3,57.64],[-3.0,58.0],[-2.5,58.46],[-2.76,58.81],[-0.58,59.85],[-0.76,60.4],[-0.3,60.64],[-0.88,61.14],[-2.67,60.37],[-1.68,59.92],[-2.2,59.47],[-4.48,59.36],[-3.53,58.71],[-4.97,58.89],[-7.67,58.44],[-7.36,58.09],[-7.78,57.81],[-7.52,57.25],[-8.34,56.67],[-7.3,56.46],[-6.76,55.52],[-8.5,55.59],[-9.29,54.99],[-9.02,54.41],[-10.75,54.44],[-10.44,54.08],[-10.84,53.54],[-10.21,53.03],[-10.97,52.17],[-10.38,51.43],[-8.77,51.18],[-8.03,51.81],[-5.65,52.35],[-5.87,52.95],[-5.48,53.25],[-6.01,53.99],[-4.95,54.2],[-4.7,53.83],[-5.09,53.54],[-5.01,52.28],[-5.77,51.68],[-4.85,51.45],[-4.64,50.84],[-5.6,50.85],[-6.74,49.69],[-3.56,50.0],[-2.81,50.59],[-1.34,50.25],[-2.31,50.05],[-3.47,48.93],[-5.39,48.47],[-4.91,47.7],[-3.74,47.55],[-1.91,46.45],[-1.3,45.28],[-1.65,44.97],[-1.65,43.64],[-1.94,43.57],[-8.1,44.05],[-9.63,43.32],[-8.88,42.14],[-9.22,41.55],[-8.72,41.01],[-9.34,40.31],[-9.13,39.67],[-9.96,39.61],[-9.01,38.04],[-9.33,37.43],[-8.85,36.9],[-7.02,36.88],[-6.15,35.56],[-7.35,33.91],[-8.9,33.51],[-10.03,32.07],[-9.94,29.94],[-11.23,28.86]],[[129.03,37.92],[127.83,39.7],[128.65,39.75],[129.45,40.24],[129.61,40.8],[130.25,40.94],[129.99,41.48],[130.59,42.29],[132.6,42.73],[133.08,42.3],[133.53,42.77],[134.24,42.68],[135.19,43.16],[135.68,44.08],[136.42,44.21],[136.94,45.14],[137.71,45.27],[140.93,49.1],[140.65,49.65],[141.22,50.09],[140.75,51.26],[141.35,51.71],[142.06,51.3],[141.48,50.64],[141.85,50.11],[141.55,50.0],[141.85,49.67],[141.42,48.41],[141.94,47.94],[141.62,47.59],[141.84,47.01],[140.94,46.2],[141.71,45.84],[140.87,45.5],[141.34,44.79],[141.04,44.44],[141.25,43.85],[139.9,43.05],[139.33,42.12],[140.06,41.75],[139.29,41.42],[140.03,41.28],[139.76,40.94],[139.98,40.58],[141.25,40.88],[140.95,40.3],[141.9,39.78],[141.6,39.2],[140.1,38.8],[139.89,39.16],[140.64,39.48],[140.2,40.21],[139.71,40.23],[139.45,39.89],[139.65,39.29],[137.93,37.83],[138.14,37.24],[137.68,37.26],[137.02,38.32],[136.32,37.53],[136.54,36.95],[135.86,35.93],[133.92,35.87],[133.26,36.66],[132.85,36.22],[133.08,35.66],[131.67,34.89],[130.81,34.92],[130.94,34.43],[130.39,34.07],[129.41,34.81],[129.82,35.65],[129.7,37.18],[129.03,37.92]],[[80.36,42.59],[81.85,42.49],[83.04,43.01],[83.34,42.62],[82.15,42.11],[81.26,42.22],[80.69,41.7],[79.21,41.78],[76.96,40.4],[75.5,40.43],[74.98,39.88],[74.34,40.34],[74.58,40.74],[75.47,40.68],[75.99,41.23],[76.58,41.27],[76.22,41.89],[76.5,42.03],[78.0,41.99],[78.56,42.52],[80.36,42.59]],[[133.76,51.54],[132.23,52.04],[132.35,52.61],[133.3,52.83],[132.76,53.33],[133.74,53.55],[133.89,54.13],[135.29,54.26],[135.04,53.89],[135.75,52.71],[135.21,52.23],[135.7,51.71],[134.54,51.17],[135.65,50.73],[135.15,50.25],[133.56,50.21],[133.7,50.77],[133.27,51.05],[133.76,51.54]],[[100.01,46.6],[99.85,47.0],[99.28,47.09],[98.56,46.7],[97.4,46.86],[96.82,48.06],[95.94,48.3],[96.01,48.54],[96.95,48.55],[97.41,47.98],[99.74,48.52],[100.08,47.71],[102.31,46.46],[101.91,46.16],[100.01,46.6]],[[18.65,40.69],[16.58,41.43],[16.34,42.25],[17.11,42.59],[18.76,42.21],[19.3,40.79],[18.65,40.69]],[[133.53,34.53],[132.22,33.94],[131.1,34.13],[132.89,35.32],[135.86,35.48],[135.43,34.81],[134.36,34.96],[133.53,34.53]],[[91.04,60.92],[91.88,60.85],[92.15,60.22],[91.33,60.29],[91.04,60.92]],[[95.24,53.14],[95.0,53.54],[95.44,53.87],[93.48,54.58],[93.54,54.82],[95.65,54.59],[96.49,54.98],[96.72,54.57],[97.7,54.32],[98.54,54.69],[102.17,52.47],[102.33,52.07],[101.79,51.54],[102.04,51.37],[103.44,51.6],[104.28,51.31],[103.39,50.74],[101.6,51.08],[100.65,50.24],[97.22,49.51],[95.9,50.56],[96.95,50.8],[97.43,50.23],[98.2,50.63],[97.8,51.43],[96.52,51.61],[97.59,51.84],[97.46,52.48],[97.9,52.79],[95.24,53.14]],[[61.78,27.0],[62.82,26.73],[63.14,27.26],[62.36,27.47],[62.42,28.07],[61.48,28.73],[61.03,30.1],[61.72,29.5],[62.46,29.52],[62.4,28.91],[63.34,29.08],[64.0,28.48],[64.94,28.64],[65.53,28.26],[64.78,27.43],[63.86,27.27],[64.25,26.75],[65.62,26.98],[66.65,26.67],[66.95,27.42],[67.42,27.49],[67.17,26.52],[68.08,25.61],[67.57,24.74],[66.72,25.41],[66.81,26.0],[66.25,26.38],[66.21,25.56],[64.42,25.27],[63.85,25.63],[62.33,25.24],[61.43,25.88],[60.37,25.56],[59.02,26.09],[58.41,25.84],[57.39,26.08],[57.49,27.05],[56.8,27.6],[54.82,27.24],[54.46,28.1],[55.06,28.37],[56.46,27.88],[57.33,28.08],[57.61,28.63],[58.67,28.38],[58.53,29.44],[59.52,29.42],[59.28,30.1],[59.91,29.74],[60.22,28.84],[59.99,28.07],[61.05,27.81],[60.89,26.83],[61.78,27.0]],[[92.84,59.68],[92.53,60.07],[93.47,60.46],[95.45,60.12],[92.84,59.68]],[[51.32,27.73],[52.34,27.54],[54.52,25.75],[55.19,25.8],[55.2,25.22],[54.37,25.02],[54.14,24.5],[52.0,24.32],[51.58,24.74],[51.75,26.31],[50.11,26.84],[50.08,27.87],[49.45,27.7],[48.74,28.15],[48.3,29.0],[48.87,29.79],[49.51,29.96],[51.32,27.73]],[[10.51,56.91],[11.68,57.11],[10.69,56.58],[10.51,56.91]],[[139.56,50.56],[139.96,50.04],[139.15,49.26],[139.5,48.74],[138.9,48.04],[138.1,48.36],[137.28,48.0],[137.7,48.86],[138.58,49.02],[138.17,49.52],[138.96,50.31],[138.54,50.82],[138.8,51.16],[139.45,51.2],[139.83,50.89],[139.56,50.56]],[[106.56,56.41],[107.23,56.24],[107.28,55.26],[105.54,55.28],[106.53,55.81],[106.56,56.41]],[[36.96,65.01],[37.74,64.87],[37.03,64.62],[36.75,64.8],[36.96,65.01]],[[35.72,66.07],[36.46,66.32],[38.38,65.88],[39.95,65.98],[38.48,65.11],[36.61,65.56],[35.39,65.27],[35.1,65.44],[35.3,65.65],[36.02,65.9],[35.72,66.07]],[[38.57,64.34],[39.33,64.19],[38.61,63.95],[38.34,64.13],[38.57,64.34]],[[142.26,43.34],[142.84,43.8],[142.64,44.4],[142.92,44.51],[143.37,43.77],[144.15,43.62],[143.31,43.3],[142.92,42.24],[141.93,42.76],[142.26,43.34]],[[24.71,38.86],[24.63,39.29],[24.96,39.32],[25.68,38.96],[24.71,38.86]],[[45.6,68.12],[45.87,67.93],[45.55,67.73],[44.7,67.9],[45.05,68.48],[45.65,68.5],[45.93,68.31],[45.6,68.12]],[[88.33,48.46],[87.37,48.63],[86.5,50.06],[88.18,50.11],[89.13,49.68],[88.88,50.32],[89.26,50.68],[88.68,51.47],[89.43,51.93],[89.76,51.78],[89.36,51.43],[89.61,50.78],[91.25,50.53],[90.2,50.24],[89.82,49.89],[90.06,49.24],[89.03,48.93],[91.26,48.64],[91.51,48.24],[91.1,47.65],[92.85,46.99],[93.04,46.35],[91.51,46.35],[90.98,46.9],[90.36,46.94],[90.14,47.59],[88.33,48.46]],[[42.91,66.31],[43.18,66.13],[42.89,65.14],[41.58,64.89],[39.74,65.39],[42.91,66.31]],[[84.26,43.76],[83.66,44.02],[84.57,44.14],[85.16,43.62],[86.06,43.73],[87.21,43.19],[87.45,42.55],[85.7,42.6],[85.09,42.11],[84.52,42.62],[84.84,43.25],[84.26,43.76]],[[98.44,49.34],[99.64,49.16],[98.63,48.94],[98.44,49.34]],[[137.8,47.56],[138.04,46.99],[136.47,46.95],[137.01,47.65],[137.8,47.56]],[[13.61,44.3],[14.5,44.26],[14.86,43.69],[15.19,43.75],[15.44,42.95],[16.0,42.83],[16.12,42.43],[14.81,42.19],[14.43,43.4],[13.64,43.67],[13.61,44.3]],[[35.54,35.61],[35.46,34.53],[34.25,34.49],[34.19,35.36],[35.08,35.82],[33.55,35.77],[34.88,36.46],[35.35,36.26],[35.54,35.61]],[[-3.65,54.03],[-3.4,53.65],[-3.8,53.37],[-4.35,53.9],[-3.65,54.03]],[[91.39,49.39],[91.13,49.79],[91.77,49.74],[91.39,49.39]],[[139.84,38.46],[140.57,38.54],[140.78,38.17],[140.27,37.72],[139.84,38.46]],[[24.87,38.0],[24.79,38.43],[25.11,38.47],[26.34,37.93],[25.9,37.67],[24.87,38.0]],[[113.81,31.89],[112.93,32.07],[113.47,32.6],[113.85,32.1],[117.11,31.48],[117.27,31.13],[116.22,30.08],[115.56,30.11],[115.06,31.2],[114.36,31.02],[113.81,31.89]],[[24.56,39.71],[24.48,40.14],[25.0,39.97],[24.56,39.71]],[[20.3,63.63],[20.54,63.29],[19.85,63.34],[20.3,63.63]],[[124.64,54.38],[124.76,54.75],[125.3,54.49],[124.64,54.38]],[[23.95,36.8],[24.97,36.48],[25.24,35.84],[26.18,35.94],[25.32,35.41],[23.8,35.9],[23.52,36.53],[23.95,36.8]],[[111.33,49.97],[110.32,49.25],[109.81,49.39],[109.84,50.0],[110.69,49.9],[111.58,50.39],[111.77,50.21],[111.33,49.97]],[[112.83,31.44],[113.31,31.56],[113.44,30.99],[112.56,31.17],[112.83,31.44]],[[136.29,35.23],[136.5,34.19],[135.64,33.78],[135.43,34.13],[136.29,35.23]],[[128.96,35.88],[129.41,35.86],[128.83,35.32],[128.96,35.88]],[[93.86,45.89],[93.31,46.2],[93.63,46.29],[93.86,45.89]],[[131.76,51.54],[131.31,51.82],[131.95,51.9],[131.76,51.54]],[[47.18,66.99],[45.51,67.35],[47.32,67.76],[47.57,67.57],[47.18,66.99]],[[76.37,32.23],[76.63,32.13],[76.41,31.75],[76.13,32.09],[76.37,32.23]],[[77.03,42.84],[77.29,43.24],[77.61,43.12],[77.03,42.84]],[[97.33,45.49],[97.51,45.09],[96.95,45.17],[97.33,45.49]],[[131.82,53.91],[131.62,53.55],[131.13,53.83],[131.82,53.91]],[[134.38,33.6],[132.51,33.13],[132.68,33.91],[133.55,33.86],[133.95,34.29],[134.58,34.16],[134.38,33.6]],[[122.04,51.42],[122.54,51.19],[121.95,51.06],[122.04,51.42]],[[24.83,63.13],[24.63,63.49],[25.35,63.41],[24.83,63.13]],[[106.79,33.66],[106.6,34.0],[107.07,33.94],[107.23,33.38],[106.79,33.66]],[[21.57,65.08],[22.32,65.03],[21.81,64.73],[21.57,65.08]],[[-9.46,29.92],[-9.23,29.78],[-9.5,29.42],[-9.71,29.8],[-9.46,29.92]],[[29.73,41.62],[30.26,41.43],[29.79,41.2],[28.54,41.76],[29.01,42.0],[29.73,41.62]]],[[[117.83,-34.98],[117.4,-35.13],[117.81,-35.34],[120.01,-34.38],[119.64,-34.22],[117.83,-34.98]]],[[[-98.69,24.69],[-99.42,24.78],[-99.71,25.4],[-98.27,25.48],[-97.74,24.75],[-97.94,24.1],[-97.46,24.12],[-97.52,25.14],[-96.85,26.06],[-97.39,27.05],[-96.95,27.83],[-94.8,28.77],[-94.34,29.53],[-92.89,29.54],[-93.14,29.91],[-94.6,29.9],[-95.12,30.65],[-96.11,30.63],[-96.65,31.37],[-96.43,32.0],[-96.7,32.37],[-95.73,33.13],[-97.57,33.97],[-97.1,34.72],[-97.4,35.33],[-97.16,35.7],[-95.35,35.84],[-94.37,37.53],[-93.34,37.98],[-92.04,37.83],[-91.53,38.28],[-90.5,38.24],[-89.99,37.74],[-89.48,38.18],[-88.47,38.12],[-87.99,37.38],[-86.76,37.17],[-86.51,37.27],[-86.69,38.56],[-86.17,38.5],[-85.76,37.79],[-85.44,38.08],[-85.64,38.44],[-83.66,38.98],[-82.09,38.76],[-81.03,39.63],[-80.27,39.39],[-80.11,39.02],[-80.53,38.52],[-80.2,37.79],[-81.57,36.68],[-82.34,36.68],[-83.01,35.89],[-83.71,35.85],[-83.77,34.92],[-82.6,35.15],[-81.68,36.26],[-80.91,36.24],[-78.83,37.9],[-77.6,37.56],[-76.73,37.73],[-76.68,37.16],[-75.98,36.9],[-75.61,35.82],[-76.04,35.36],[-75.57,35.26],[-75.13,35.72],[-75.69,36.96],[-75.23,37.43],[-75.36,37.8],[-74.68,38.11],[-74.44,39.34],[-72.0,40.93],[-69.78,41.24],[-70.01,43.03],[-67.22,44.58],[-66.68,44.42],[-66.49,43.21],[-65.63,43.09],[-64.2,43.81],[-64.09,44.42],[-63.22,44.28],[-62.07,44.95],[-60.69,45.01],[-60.53,45.63],[-59.49,46.07],[-59.66,46.69],[-60.2,46.88],[-58.94,47.53],[-56.42,47.55],[-56.26,47.34],[-57.0,46.93],[-56.32,46.52],[-54.89,46.91],[-53.75,46.28],[-52.86,46.46],[-52.73,47.27],[-51.96,47.64],[-53.48,49.36],[-53.42,49.77],[-54.91,49.81],[-56.18,50.47],[-54.81,50.65],[-55.54,51.09],[-54.71,51.5],[-54.83,52.14],[-55.4,52.37],[-55.07,53.43],[-56.89,54.11],[-57.05,54.76],[-59.42,55.42],[-59.42,55.86],[-60.32,56.29],[-60.33,56.73],[-61.51,57.37],[-61.68,56.26],[-60.99,56.06],[-60.75,55.4],[-58.35,54.77],[-58.36,54.34],[-57.53,53.9],[-57.56,53.47],[-56.31,53.45],[-56.67,51.53],[-58.85,51.75],[-59.06,51.11],[-60.24,50.66],[-65.96,50.61],[-69.72,48.76],[-69.76,48.11],[-70.63,47.79],[-70.52,47.38],[-71.14,46.87],[-72.7,47.09],[-73.29,46.58],[-74.7,46.36],[-75.25,47.36],[-77.39,46.99],[-76.85,47.53],[-77.46,48.52],[-76.89,49.07],[-77.17,49.24],[-78.01,48.87],[-80.61,49.26],[-81.12,49.83],[-80.12,50.72],[-79.44,50.62],[-79.24,50.21],[-78.39,50.59],[-78.49,51.25],[-78.0,51.57],[-79.13,53.42],[-78.51,53.99],[-79.57,54.27],[-78.95,54.84],[-77.77,54.8],[-77.12,55.37],[-80.46,55.03],[-79.76,53.77],[-80.76,53.12],[-81.31,53.7],[-82.05,53.79],[-82.22,54.45],[-81.73,54.79],[-82.33,55.37],[-85.06,55.5],[-85.72,56.06],[-86.93,56.02],[-87.25,56.43],[-88.05,56.47],[-87.39,55.66],[-82.48,54.87],[-83.05,54.28],[-82.28,53.04],[-84.99,51.02],[-86.1,50.74],[-85.57,49.95],[-83.68,49.26],[-84.81,48.75],[-84.16,48.68],[-83.63,48.13],[-81.99,48.05],[-81.77,47.65],[-80.86,47.4],[-81.7,46.77],[-84.49,47.23],[-84.67,47.87],[-84.27,48.2],[-85.61,48.08],[-85.81,48.72],[-85.41,49.06],[-85.72,49.21],[-87.12,48.83],[-88.09,49.03],[-88.34,49.67],[-87.95,50.01],[-88.27,50.16],[-89.67,49.75],[-89.12,48.73],[-90.11,48.67],[-91.38,49.22],[-92.0,50.23],[-94.01,50.77],[-95.8,52.89],[-96.88,53.01],[-98.06,54.11],[-99.86,53.93],[-101.44,54.6],[-102.88,54.52],[-103.73,54.96],[-104.25,54.18],[-105.27,53.97],[-106.81,54.33],[-106.67,54.96],[-109.06,56.33],[-109.37,56.17],[-108.47,54.9],[-109.86,54.73],[-110.46,55.28],[-109.89,56.48],[-110.94,57.1],[-109.82,58.9],[-111.16,59.11],[-111.08,59.75],[-112.27,60.36],[-114.0,59.71],[-113.26,59.19],[-114.02,59.07],[-114.47,58.49],[-116.22,58.7],[-116.98,59.2],[-116.86,59.61],[-117.31,59.66],[-121.11,58.74],[-123.63,59.72],[-122.71,60.08],[-122.62,60.89],[-123.29,61.13],[-123.36,60.32],[-124.95,59.78],[-123.66,59.31],[-122.91,58.05],[-121.83,58.18],[-120.63,57.68],[-120.31,58.27],[-118.51,58.52],[-118.44,57.89],[-117.28,57.35],[-118.21,57.03],[-118.4,56.23],[-120.02,56.39],[-120.11,57.02],[-121.11,57.31],[-121.4,56.72],[-122.65,56.42],[-122.08,56.17],[-121.95,55.56],[-120.45,55.02],[-120.35,54.41],[-118.39,53.58],[-118.55,52.79],[-121.01,53.88],[-121.11,54.49],[-123.15,55.26],[-123.3,55.87],[-124.27,56.13],[-124.47,55.95],[-123.9,55.71],[-123.74,55.11],[-124.9,54.8],[-125.11,53.84],[-124.01,53.76],[-123.86,53.16],[-122.97,52.89],[-123.03,52.12],[-124.09,52.22],[-122.56,51.5],[-122.63,50.74],[-121.99,50.29],[-123.0,50.4],[-124.2,49.96],[-125.51,50.46],[-125.59,49.72],[-124.03,49.01],[-124.19,48.65],[-126.65,50.0],[-127.35,49.5],[-124.91,48.16],[-125.06,47.79],[-124.08,46.13],[-124.47,45.59],[-124.0,45.13],[-125.1,42.66],[-124.41,41.53],[-124.91,40.57],[-124.17,40.04],[-124.32,39.64],[-123.65,38.46],[-123.94,37.66],[-121.5,35.87],[-121.58,35.23],[-120.95,34.87],[-121.03,34.22],[-120.34,33.61],[-119.55,33.64],[-119.65,32.99],[-119.15,33.09],[-118.83,33.92],[-118.49,33.61],[-118.8,32.78],[-118.14,33.29],[-117.52,32.9],[-117.62,32.24],[-116.67,31.52],[-116.77,30.86],[-115.45,29.55],[-114.95,29.63],[-115.33,30.21],[-115.11,30.38],[-114.45,29.71],[-113.95,29.79],[-114.61,30.46],[-114.59,31.62],[-112.95,29.95],[-109.39,28.76],[-108.45,27.71],[-108.61,27.04],[-107.84,27.0],[-108.0,26.33],[-104.23,21.94],[-104.4,21.28],[-103.67,21.22],[-103.76,19.8],[-102.82,19.89],[-101.58,19.11],[-100.43,19.34],[-99.93,18.87],[-99.25,19.05],[-97.59,18.29],[-96.92,18.46],[-97.22,19.83],[-97.92,19.91],[-98.44,20.88],[-99.15,20.96],[-98.96,21.61],[-99.67,21.69],[-98.84,23.28],[-99.39,24.27],[-98.69,24.69]],[[-65.71,48.91],[-64.79,49.18],[-64.53,48.56],[-65.22,48.09],[-66.18,48.23],[-65.99,46.98],[-66.5,46.72],[-66.59,46.09],[-67.51,46.21],[-67.66,47.04],[-68.24,47.2],[-68.08,46.37],[-69.06,45.84],[-69.1,45.21],[-71.18,44.96],[-71.39,46.41],[-69.56,47.27],[-69.52,47.92],[-67.98,48.72],[-65.71,48.91]],[[-123.14,47.57],[-123.62,47.24],[-124.5,47.92],[-123.38,48.18],[-122.98,47.94],[-123.14,47.57]],[[-80.61,52.45],[-80.39,52.04],[-81.09,52.13],[-80.61,52.45]],[[-61.61,46.41],[-62.35,46.79],[-63.78,46.71],[-64.02,47.33],[-64.59,47.5],[-63.9,47.97],[-64.03,49.23],[-61.9,48.7],[-61.17,49.15],[-62.33,49.53],[-62.36,49.95],[-60.23,49.81],[-58.49,50.47],[-58.28,51.11],[-57.28,51.32],[-57.1,51.11],[-58.5,50.05],[-58.53,49.21],[-59.66,48.77],[-59.66,47.51],[-61.1,47.05],[-61.09,46.64],[-61.61,46.41]],[[-102.66,53.54],[-102.23,53.19],[-102.92,53.15],[-102.66,53.54]],[[-56.8,49.84],[-56.83,49.42],[-56.12,49.0],[-56.19,48.16],[-56.94,47.75],[-58.39,47.74],[-58.54,48.79],[-57.78,49.21],[-57.94,49.84],[-56.8,49.84]],[[-111.31,56.3],[-111.49,55.9],[-112.02,56.2],[-111.31,56.3]],[[-66.0,49.53],[-67.15,49.44],[-65.9,50.18],[-64.68,49.83],[-65.39,49.36],[-66.0,49.53]],[[-118.13,52.14],[-117.73,53.09],[-116.72,52.54],[-117.05,51.98],[-118.13,52.14]],[[-98.37,27.01],[-98.58,26.61],[-99.56,26.56],[-100.11,27.29],[-99.38,27.46],[-98.74,28.9],[-97.26,28.96],[-97.47,28.32],[-98.2,28.16],[-97.91,27.54],[-98.37,27.01]],[[-114.06,57.15],[-114.49,56.57],[-115.04,56.86],[-114.9,57.26],[-113.91,57.56],[-113.75,57.96],[-112.29,58.18],[-111.73,57.88],[-112.21,57.31],[-114.06,57.15]],[[-79.81,52.61],[-80.03,53.03],[-79.32,52.93],[-79.81,52.61]],[[-116.7,57.07],[-116.02,57.2],[-116.74,57.7],[-116.47,57.88],[-115.19,57.73],[-115.73,56.74],[-116.82,56.67],[-116.7,57.07]],[[-65.91,45.11],[-65.85,44.7],[-66.4,44.86],[-65.91,45.11]],[[-120.54,53.23],[-119.5,52.72],[-120.6,52.84],[-120.54,53.23]]],[[[47.98,69.47],[47.54,68.91],[48.69,68.53],[50.28,68.72],[50.78,69.29],[49.62,69.67],[47.98,69.47]],[[49.4,68.91],[48.52,69.1],[49.51,69.29],[49.77,69.1],[49.4,68.91]]],[[[-60.5,43.61],[-59.5,44.04],[-60.0,44.23],[-60.51,44.01],[-60.5,43.61]]],[[[157.43,55.91],[159.51,57.11],[159.39,57.72],[159.95,58.02],[159.72,58.41],[160.29,58.7],[159.5,58.8],[158.83,58.26],[157.59,58.27],[156.53,57.65],[156.7,57.04],[155.51,57.03],[155.78,56.65],[155.29,56.34],[155.55,55.97],[155.0,55.43],[155.58,54.92],[155.05,54.39],[156.4,52.39],[155.85,51.85],[156.23,51.09],[155.23,51.08],[155.42,50.7],[154.89,50.15],[156.16,50.01],[158.46,51.54],[158.28,51.93],[158.86,52.46],[158.68,52.84],[160.22,53.12],[159.99,54.1],[162.1,54.64],[161.88,55.62],[163.54,55.85],[162.87,57.39],[163.59,57.9],[161.87,58.51],[162.06,58.11],[161.49,57.83],[161.56,57.21],[158.99,55.98],[159.11,55.38],[158.12,54.79],[158.52,54.05],[159.48,53.81],[158.88,53.29],[158.5,53.22],[158.03,53.75],[156.87,53.53],[156.67,53.9],[157.24,54.42],[156.69,54.94],[157.26,55.46],[157.02,55.83],[157.43,55.91]],[[161.32,56.76],[162.61,56.95],[161.51,56.38],[161.32,56.76]],[[159.7,54.26],[159.02,54.34],[160.02,54.92],[159.93,55.52],[160.44,55.81],[160.24,56.19],[161.7,56.0],[161.05,55.49],[161.41,54.74],[160.32,54.77],[159.7,54.26]],[[157.91,52.7],[158.1,52.31],[157.44,52.39],[157.91,52.7]]],[[[30.95,69.59],[31.57,69.85],[31.05,69.99],[29.38,69.99],[30.95,69.59]]],[[[-61.86,47.86],[-62.4,47.63],[-62.18,47.01],[-61.11,47.47],[-61.32,48.09],[-61.86,47.86]]],[[[-26.64,38.85],[-27.89,39.52],[-28.95,38.9],[-29.13,38.24],[-27.14,38.29],[-26.64,38.85]]],[[[-65.2,18.37],[-66.62,17.87],[-64.61,18.24],[-64.47,18.58],[-65.2,18.37]]],[[[128.08,27.16],[127.68,27.41],[127.8,26.85],[126.39,26.51],[126.99,26.13],[127.11,25.57],[127.56,25.54],[129.26,27.4],[129.14,27.95],[129.83,28.01],[130.16,28.52],[129.26,28.59],[128.4,27.68],[128.53,27.13],[128.08,27.16]]],[[[-110.0,23.22],[-110.44,22.9],[-109.7,22.87],[-109.3,23.44],[-109.94,24.4],[-111.4,24.2],[-110.79,23.5],[-110.13,23.98],[-109.82,23.63],[-110.0,23.22]]],[[[14.56,35.79],[14.44,36.21],[14.13,36.15],[14.04,35.91],[14.56,35.79]]],[[[-141.35,62.76],[-141.6,63.1],[-142.17,62.8],[-141.35,62.76]]],[[[-62.55,58.67],[-63.26,58.43],[-62.51,58.23],[-62.29,58.45],[-62.55,58.67]]],[[[-47.06,60.98],[-47.23,60.56],[-44.99,60.55],[-45.75,61.07],[-47.06,60.98]]],[[[-19.39,63.41],[-18.23,63.24],[-16.48,63.6],[-15.84,64.14],[-14.59,64.16],[-12.72,65.27],[-13.27,65.78],[-14.11,65.86],[-14.59,66.59],[-18.74,66.51],[-19.81,66.09],[-21.61,66.16],[-22.42,66.65],[-23.85,66.57],[-24.89,65.87],[-24.08,65.16],[-24.6,64.58],[-22.46,64.43],[-22.95,64.09],[-22.6,63.73],[-19.39,63.41]],[[-15.88,64.95],[-15.63,64.58],[-16.64,64.19],[-20.63,64.84],[-18.69,65.46],[-15.88,64.95]]],[[[18.42,-34.42],[19.32,-34.78],[19.72,-34.58],[18.82,-34.22],[18.61,-33.64],[18.21,-33.84],[18.42,-34.42]]],[[[153.38,48.49],[152.63,48.08],[152.76,47.45],[151.83,47.42],[151.37,46.85],[152.22,46.65],[153.36,47.39],[153.24,48.01],[153.65,48.34],[153.38,48.49]]],[[[154.73,49.68],[154.11,49.75],[154.22,49.13],[153.19,48.87],[154.42,48.74],[155.36,49.61],[154.73,49.68]]],[[[102.34,31.04],[102.17,31.62],[102.45,31.92],[101.76,32.32],[101.96,31.97],[101.58,30.78],[102.34,31.04]]],[[[-79.44,56.61],[-80.42,56.2],[-80.27,55.53],[-79.51,55.44],[-78.42,56.08],[-78.65,56.51],[-79.44,56.61]]],[[[-31.71,39.75],[-31.3,39.16],[-30.73,39.22],[-31.14,39.82],[-31.71,39.75]]],[[[120.44,21.91],[121.69,21.84],[121.12,22.22],[121.8,22.52],[121.53,23.44],[122.4,24.85],[121.93,25.85],[121.4,25.22],[120.75,25.13],[119.93,23.95],[119.05,23.62],[119.35,22.86],[120.17,22.83],[120.44,21.91]]],[[[-176.37,-43.99],[-176.13,-43.85],[-176.5,-43.53],[-176.84,-44.27],[-176.37,-43.99]]],[[[-16.86,21.8],[-16.16,22.43],[-17.09,22.4],[-17.31,21.06],[-16.63,21.45],[-16.86,21.8]]],[[[93.56,38.47],[93.36,38.85],[92.31,38.93],[91.18,38.51],[91.91,38.1],[92.52,36.96],[93.3,37.03],[93.72,36.51],[97.91,36.24],[97.44,37.37],[95.36,37.1],[95.0,37.86],[93.56,38.47]]],[[[115.78,-31.51],[115.16,-32.47],[115.62,-33.21],[114.78,-33.47],[114.58,-33.98],[116.54,-35.42],[116.99,-34.92],[115.01,-33.85],[116.01,-33.42],[116.16,-31.72],[115.78,-31.51]]],[[[27.74,-26.03],[28.29,-25.96],[27.67,-25.6],[26.01,-25.78],[26.69,-26.57],[27.74,-26.03]]],[[[-138.73,63.58],[-140.3,63.9],[-139.94,63.0],[-137.5,62.82],[-137.34,62.44],[-136.32,62.1],[-136.32,61.51],[-135.62,61.35],[-135.21,60.77],[-134.06,61.21],[-134.28,61.99],[-136.17,62.9],[-136.32,63.29],[-137.7,63.17],[-136.93,63.65],[-138.73,63.58]]],[[[142.78,59.55],[143.23,59.2],[145.33,59.34],[146.16,58.86],[147.86,59.31],[148.65,58.82],[150.02,59.61],[150.73,58.87],[152.76,58.64],[155.43,59.18],[154.84,59.95],[153.6,60.16],[153.14,60.07],[153.46,59.68],[152.94,59.35],[152.22,59.88],[147.93,60.03],[146.18,59.57],[142.78,59.55]]],[[[-35.1,66.72],[-34.5,66.39],[-33.63,66.92],[-34.23,67.26],[-35.1,66.72]]],[[[-48.04,61.07],[-47.88,61.5],[-48.55,61.78],[-49.39,61.62],[-48.71,61.35],[-48.69,60.69],[-47.88,60.84],[-48.04,61.07]]],[[[124.7,24.39],[125.88,24.87],[124.81,25.05],[124.3,24.63],[123.25,24.8],[122.71,24.16],[124.19,23.97],[124.7,24.39]]],[[[72.85,66.77],[72.21,67.08],[72.62,67.44],[72.05,67.53],[71.24,66.81],[69.72,66.6],[72.05,66.05],[72.85,66.77]]],[[[172.47,-44.0],[173.27,-43.55],[172.38,-43.27],[172.17,-43.9],[172.47,-44.0]]],[[[-40.56,63.31],[-40.28,63.71],[-40.79,63.79],[-42.07,63.51],[-43.36,60.79],[-44.52,60.49],[-44.38,60.25],[-45.51,59.94],[-45.37,59.71],[-43.21,59.67],[-41.44,63.21],[-40.56,63.31]]],[[[-25.88,37.36],[-25.24,36.63],[-24.69,36.67],[-25.12,38.06],[-26.24,37.98],[-25.88,37.36]]],[[[-129.56,60.48],[-130.0,60.48],[-129.94,60.08],[-128.65,60.08],[-129.56,60.48]]],[[[171.36,-41.75],[170.37,-43.32],[171.19,-42.88],[171.68,-42.1],[171.36,-41.75]]],[[[-133.42,60.44],[-133.52,60.83],[-133.95,60.82],[-134.68,60.4],[-134.3,59.83],[-133.89,59.84],[-133.84,60.43],[-133.42,60.44]]],[[[1.91,39.38],[1.07,39.11],[1.41,38.35],[2.02,38.76],[1.91,39.38]]],[[[-62.26,58.01],[-62.23,57.57],[-61.53,57.81],[-62.26,58.01]]],[[[-13.69,28.4],[-13.17,29.14],[-13.65,29.65],[-14.92,28.02],[-16.14,28.9],[-17.14,28.38],[-17.9,29.25],[-18.39,28.73],[-18.13,28.35],[-18.37,27.72],[-17.86,27.22],[-17.63,28.11],[-17.13,27.62],[-16.15,28.14],[-15.66,27.64],[-14.19,27.65],[-13.69,28.4]]],[[[-116.61,60.43],[-115.22,60.29],[-114.76,60.88],[-113.97,61.01],[-114.76,61.53],[-116.34,61.26],[-117.47,61.58],[-117.59,61.16],[-116.48,60.85],[-116.61,60.43]]],[[[-17.17,32.7],[-16.65,32.19],[-15.87,33.34],[-16.65,32.96],[-17.44,33.08],[-17.7,32.69],[-17.17,32.7]]],[[[-30.26,68.35],[-31.32,68.33],[-30.74,67.98],[-30.26,68.35]]],[[[-25.73,17.19],[-25.45,16.63],[-24.53,16.23],[-23.87,16.4],[-24.14,16.97],[-24.84,17.27],[-25.73,17.19]]],[[[-80.64,29.23],[-81.08,29.03],[-80.52,28.16],[-80.29,28.49],[-80.64,29.23]]],[[[18.73,30.24],[18.64,30.68],[18.34,30.63],[18.25,30.38],[18.73,30.24]]],[[[161.65,60.39],[159.72,59.26],[160.53,59.16],[162.34,60.05],[162.14,60.45],[161.65,60.39]]],[[[-76.76,56.11],[-76.19,56.42],[-76.97,56.54],[-76.76,56.11]]],[[[-59.44,53.68],[-58.8,53.9],[-59.43,54.11],[-60.28,53.67],[-59.44,53.68]]],[[[-107.18,24.09],[-107.81,25.06],[-108.3,25.0],[-107.67,24.03],[-107.18,24.09]]],[[[-22.5,15.8],[-22.57,16.73],[-23.04,17.17],[-23.19,16.1],[-22.5,15.8]]],[[[99.33,51.08],[99.76,51.39],[99.14,51.49],[99.33,51.08]]],[[[4.41,39.93],[3.73,40.38],[2.58,40.03],[2.19,39.47],[3.08,38.88],[3.77,39.52],[4.57,39.54],[4.41,39.93]]],[[[121.93,20.68],[122.09,20.32],[122.35,20.65],[122.01,21.14],[121.93,20.68]]],[[[159.22,61.79],[160.11,61.69],[160.35,61.29],[160.99,61.59],[160.37,62.17],[158.96,62.19],[159.22,61.79]]],[[[56.71,68.37],[58.18,68.68],[56.29,68.77],[55.88,68.6],[56.71,68.37]]],[[[-132.07,60.07],[-133.32,60.05],[-131.91,59.29],[-132.07,60.07]]],[[[-70.98,48.4],[-70.85,48.63],[-71.72,48.96],[-71.84,49.38],[-72.85,48.81],[-72.46,48.21],[-70.98,48.4]]],[[[139.29,32.97],[139.95,32.79],[140.19,33.13],[139.53,33.3],[139.29,32.97]]],[[[-39.92,65.01],[-40.99,65.15],[-41.55,64.34],[-40.91,64.03],[-39.92,65.01]]],[[[177.38,-40.0],[177.06,-39.67],[176.66,-40.46],[177.38,-40.0]]],[[[155.39,60.28],[155.95,60.6],[155.08,60.67],[155.39,60.28]]],[[[-88.43,56.62],[-88.77,57.02],[-89.19,56.91],[-89.23,56.66],[-88.43,56.62]]],[[[-37.18,65.48],[-36.83,65.88],[-37.8,65.81],[-37.18,65.48]]],[[[123.67,26.0],[123.24,26.02],[123.56,25.34],[124.1,25.98],[123.67,26.0]]],[[[34.97,69.05],[35.2,69.26],[34.82,69.6],[32.22,70.11],[33.01,69.24],[34.97,69.05]]],[[[-119.2,61.51],[-119.95,61.35],[-119.29,61.09],[-119.2,61.51]]],[[[-90.36,57.34],[-93.2,57.79],[-92.41,57.01],[-90.8,56.97],[-90.36,57.34]]],[[[-112.3,29.27],[-112.53,29.11],[-112.21,28.77],[-112.03,29.18],[-112.3,29.27]]],[[[-35.48,66.33],[-36.47,66.27],[-35.86,65.94],[-35.48,66.33]]],[[[15.12,67.63],[15.43,67.92],[14.48,67.9],[13.9,67.33],[14.52,67.07],[15.12,67.63]]],[[[15.18,32.31],[15.2,31.64],[15.7,31.51],[15.68,32.18],[15.18,32.31]]],[[[165.78,55.12],[166.2,54.57],[166.75,54.83],[166.34,55.39],[165.78,55.12]]],[[[11.94,37.02],[11.86,36.78],[12.37,36.67],[12.25,37.09],[11.94,37.02]]],[[[157.94,62.04],[157.32,61.72],[158.21,61.64],[157.94,62.04]]],[[[-121.37,61.44],[-120.43,61.38],[-121.3,61.86],[-122.05,61.69],[-121.37,61.44]]],[[[-7.06,61.5],[-6.33,61.22],[-6.6,61.76],[-5.67,62.26],[-6.37,62.74],[-7.26,62.43],[-7.76,61.97],[-7.06,61.5]]],[[[171.15,-45.22],[171.9,-44.05],[171.32,-44.1],[170.56,-45.27],[170.9,-45.6],[171.15,-45.22]]],[[[111.0,54.59],[110.42,54.4],[111.04,54.22],[111.0,54.59]]],[[[-61.6,16.35],[-61.53,15.94],[-60.98,16.19],[-61.25,16.65],[-61.6,16.35]]],[[[162.92,60.97],[163.12,60.57],[163.77,60.85],[162.92,60.97]]],[[[74.34,67.17],[73.27,67.13],[73.91,66.81],[74.34,67.17]]],[[[162.87,59.48],[163.06,59.08],[163.67,59.37],[162.87,59.48]]],[[[12.46,35.35],[13.23,35.96],[12.72,36.08],[12.33,35.77],[12.46,35.35]]]]}}]}