{"type":"FeatureCollection","features":[{"type":"Feature","properties":{},"geometry":{"type":"MultiPolygon","coordinates":[[[[4.28,39.46],[4.63,39.78],[4.47,40.17],[3.73,40.38],[2.58,40.03],[2.19,39.47],[3.08,38.88],[3.77,39.52],[4.28,39.46]]],[[[158.84,61.95],[160.11,61.69],[159.36,61.15],[159.97,60.59],[160.46,60.65],[160.35,61.29],[160.99,61.59],[160.37,62.17],[158.84,61.95]]],[[[88.5,49.97],[88.47,49.72],[89.13,49.68],[88.85,50.07],[88.5,49.97]]],[[[-2.4,60.02],[-1.68,59.92],[-2.2,59.47],[-4.48,59.36],[-3.53,58.71],[-4.97,58.89],[-7.67,58.44],[-7.36,58.09],[-7.78,57.81],[-7.52,57.25],[-8.34,56.67],[-7.3,56.46],[-6.76,55.52],[-8.5,55.59],[-9.29,54.99],[-9.02,54.41],[-10.75,54.44],[-10.44,54.08],[-10.84,53.54],[-10.21,53.03],[-10.97,52.17],[-10.38,51.43],[-8.77,51.18],[-8.03,51.81],[-5.65,52.35],[-5.87,52.95],[-5.48,53.25],[-6.01,53.99],[-4.95,54.2],[-4.7,53.83],[-5.09,53.54],[-5.01,52.28],[-5.77,51.68],[-4.85,51.45],[-4.64,50.84],[-5.6,50.85],[-6.7,49.92],[-6.45,49.54],[-5.76,49.93],[-4.86,49.7],[-3.56,50.0],[-2.81,50.59],[-1.34,50.25],[-0.63,50.6],[1.18,50.52],[0.74,50.02],[-0.16,50.06],[-0.02,49.45],[-0.91,49.49],[-1.98,50.12],[-3.47,48.93],[-5.35,48.7],[-4.91,47.7],[-3.74,47.55],[-1.91,46.45],[-1.3,45.28],[-1.65,44.97],[-1.65,43.64],[-3.82,43.95],[-4.46,43.54],[-8.1,44.05],[-9.63,43.32],[-8.88,42.14],[-9.22,41.55],[-8.72,41.01],[-9.34,40.31],[-9.13,39.67],[-9.96,39.61],[-9.01,38.04],[-9.33,37.43],[-8.85,36.9],[-6.77,36.74],[-6.15,35.56],[-6.74,34.86],[-6.53,34.47],[-5.38,35.62],[-4.95,35.08],[-4.19,35.12],[-4.88,35.57],[-5.04,36.2],[-3.97,36.59],[-2.26,36.26],[-1.33,37.25],[-0.58,37.26],[-0.21,37.82],[-0.38,38.21],[0.25,38.85],[-0.09,39.63],[1.23,40.9],[2.02,40.94],[2.42,41.49],[3.59,41.85],[3.25,42.6],[3.67,43.16],[6.35,42.85],[8.77,44.1],[10.12,43.78],[9.23,42.94],[8.37,42.94],[8.52,42.55],[8.05,42.01],[8.97,41.37],[8.05,41.14],[7.6,40.59],[8.35,40.35],[7.67,39.09],[8.56,38.44],[9.31,39.06],[10.14,39.04],[9.86,39.85],[10.33,40.4],[9.67,41.76],[11.02,42.28],[12.47,41.52],[12.74,40.71],[14.67,40.44],[14.8,40.03],[15.55,39.73],[15.57,39.08],[14.32,38.84],[14.35,38.19],[13.52,38.24],[13.17,38.83],[11.98,37.92],[12.33,37.33],[14.19,37.05],[14.53,36.45],[15.35,36.39],[15.61,37.77],[16.45,37.7],[16.96,38.23],[16.85,38.65],[17.58,39.0],[17.58,39.65],[16.83,39.96],[17.25,40.25],[17.79,40.12],[18.11,39.52],[19.4,39.72],[19.5,39.3],[20.24,38.97],[20.34,38.54],[19.8,38.02],[20.33,37.88],[20.63,37.26],[21.37,37.59],[21.57,37.39],[21.04,36.88],[22.58,36.42],[24.04,34.6],[24.77,34.9],[25.77,34.57],[26.75,35.33],[27.55,35.18],[27.62,35.85],[28.49,36.36],[30.29,35.83],[31.12,36.75],[32.1,36.36],[32.32,35.72],[33.07,35.97],[33.11,35.54],[31.79,34.82],[33.21,34.23],[35.08,35.82],[34.6,36.02],[33.72,35.56],[33.68,35.99],[34.88,36.46],[35.52,36.04],[35.62,34.31],[34.64,33.19],[34.83,32.54],[34.41,32.31],[34.3,31.65],[34.92,31.23],[36.5,31.5],[37.38,31.09],[40.06,32.63],[40.05,33.48],[39.47,33.92],[39.6,34.56],[41.2,34.32],[42.07,35.15],[43.33,34.05],[43.49,34.68],[44.34,35.06],[44.37,35.9],[45.2,35.43],[45.91,35.59],[45.98,34.13],[47.71,35.22],[49.24,34.83],[49.46,35.41],[49.81,34.75],[50.49,34.45],[50.72,35.04],[51.93,35.27],[52.18,35.86],[52.66,36.0],[53.06,35.73],[52.4,35.41],[52.8,35.14],[56.09,35.63],[56.38,36.22],[56.88,36.35],[57.47,35.59],[57.78,36.18],[58.67,36.0],[58.19,36.53],[58.91,36.82],[59.73,36.88],[59.6,36.46],[59.99,36.16],[60.33,36.75],[59.85,37.29],[60.07,37.47],[64.11,38.12],[64.27,38.54],[63.57,38.94],[63.65,39.6],[63.25,39.92],[62.38,39.89],[61.89,40.45],[61.02,40.41],[60.51,40.96],[59.64,40.91],[59.12,41.45],[58.24,41.39],[57.27,42.22],[56.39,42.14],[56.5,42.57],[57.06,42.71],[58.06,42.54],[56.17,43.96],[55.27,43.86],[54.69,44.39],[53.33,44.56],[53.24,44.13],[52.69,43.97],[52.1,44.48],[52.43,46.2],[53.9,47.14],[54.1,48.0],[57.15,48.74],[58.01,48.4],[57.87,47.97],[58.35,47.67],[59.53,48.85],[62.76,49.46],[63.61,49.07],[64.93,49.28],[65.84,48.63],[65.72,47.95],[66.6,47.29],[67.6,47.29],[68.11,47.88],[69.55,47.53],[69.96,47.18],[69.79,46.51],[71.0,45.47],[71.97,45.43],[73.12,44.37],[72.87,43.96],[71.54,44.35],[71.03,43.78],[69.81,43.64],[67.8,44.17],[67.66,43.5],[68.6,43.49],[69.38,42.81],[69.23,42.14],[68.37,41.9],[69.14,41.22],[68.99,40.55],[68.16,40.31],[66.5,40.98],[64.79,40.71],[64.54,40.54],[64.93,40.21],[64.84,39.55],[64.04,39.28],[64.89,38.39],[65.75,38.4],[66.49,37.74],[67.28,37.99],[70.3,37.12],[70.75,37.68],[70.35,38.27],[71.17,38.49],[70.76,39.09],[67.96,38.73],[67.59,39.07],[67.84,39.23],[69.27,39.29],[69.73,39.87],[70.97,39.5],[71.45,40.07],[74.07,40.19],[74.3,40.59],[73.96,40.95],[76.3,41.12],[76.55,41.52],[76.22,41.89],[76.5,42.03],[78.0,41.99],[79.44,42.94],[80.06,42.45],[81.26,42.48],[81.85,43.0],[82.74,42.88],[83.95,43.39],[83.66,44.02],[83.97,44.15],[85.18,44.13],[85.75,43.61],[86.66,43.71],[87.8,43.17],[87.15,42.44],[85.7,42.6],[85.09,42.11],[83.33,42.12],[82.74,42.62],[82.15,42.11],[81.26,42.22],[80.69,41.7],[79.21,41.78],[78.38,40.85],[77.5,40.94],[76.96,40.4],[76.08,40.47],[75.56,39.92],[74.41,39.83],[75.11,38.87],[75.97,38.8],[76.29,38.45],[76.08,37.8],[76.92,37.73],[77.25,37.12],[79.45,37.24],[81.38,36.43],[83.0,36.47],[83.54,36.97],[84.34,36.85],[88.24,38.77],[89.09,39.11],[89.89,38.95],[92.22,40.05],[91.61,41.45],[90.5,41.53],[90.26,41.92],[91.13,41.99],[90.93,42.62],[91.24,42.73],[92.29,42.15],[92.97,42.84],[88.97,43.12],[87.85,43.67],[88.18,44.04],[90.23,43.8],[90.92,44.51],[90.4,45.05],[89.2,45.12],[89.68,46.48],[89.15,47.27],[89.51,47.63],[88.94,48.17],[87.66,48.24],[87.39,48.89],[86.42,49.05],[86.8,49.67],[86.5,50.06],[89.23,50.43],[88.97,51.08],[89.33,51.18],[89.93,50.63],[91.25,50.53],[90.82,49.94],[89.78,49.64],[91.26,48.64],[93.01,49.37],[93.64,49.31],[94.16,48.75],[95.73,48.7],[95.52,49.1],[94.27,49.24],[94.67,49.58],[97.15,49.27],[97.02,49.92],[96.11,50.16],[95.9,50.56],[96.95,50.8],[97.43,50.23],[98.2,50.63],[97.8,51.43],[96.52,51.61],[97.59,51.84],[97.46,52.48],[97.9,52.79],[96.28,53.14],[95.89,54.18],[94.88,54.43],[95.33,54.75],[100.27,53.67],[100.46,53.27],[102.17,52.47],[102.33,52.07],[101.79,51.54],[102.04,51.37],[103.44,51.6],[104.28,51.31],[104.32,50.68],[101.51,50.84],[100.73,50.48],[100.82,49.84],[99.28,49.96],[99.2,49.73],[100.06,49.47],[100.15,48.83],[101.71,48.06],[101.22,47.52],[101.78,47.42],[102.6,48.02],[104.26,47.7],[104.39,47.3],[103.66,46.95],[103.79,46.55],[104.93,47.19],[105.26,46.62],[107.12,46.33],[107.42,45.76],[108.71,45.57],[109.54,44.5],[108.75,43.97],[108.83,43.58],[110.36,44.04],[110.6,43.49],[111.34,43.42],[112.0,42.75],[111.62,41.52],[110.88,41.0],[112.1,41.03],[112.76,40.02],[113.38,40.31],[113.57,39.79],[113.15,38.97],[114.07,38.59],[114.28,37.35],[116.93,36.75],[117.89,35.82],[119.0,35.84],[119.78,34.13],[119.25,33.66],[119.0,32.28],[119.35,31.78],[119.05,31.33],[119.72,31.47],[120.32,30.05],[121.93,29.57],[121.78,28.74],[121.25,28.12],[120.6,28.03],[120.72,27.5],[119.47,26.23],[119.76,25.49],[119.87,26.13],[121.98,28.63],[122.64,28.72],[122.36,29.56],[123.17,30.47],[122.26,31.39],[126.1,32.0],[126.42,32.49],[127.11,32.57],[126.99,33.07],[128.42,34.48],[128.87,34.45],[129.2,33.85],[128.29,32.81],[128.66,32.39],[129.56,32.33],[129.68,31.82],[129.11,31.24],[129.92,30.77],[129.96,29.82],[131.24,30.46],[131.12,30.99],[132.12,32.45],[133.29,32.45],[133.47,33.24],[134.39,33.16],[135.0,33.92],[135.63,33.1],[137.59,34.48],[138.92,34.39],[139.33,33.66],[139.78,33.63],[139.38,34.6],[140.78,34.96],[140.59,35.57],[141.29,35.64],[140.9,36.62],[141.43,37.3],[141.01,38.04],[141.74,38.11],[142.3,38.79],[142.11,39.41],[142.4,39.75],[141.51,40.99],[141.82,41.57],[141.37,42.3],[142.16,42.39],[143.14,41.87],[144.59,42.87],[145.95,42.9],[146.31,43.49],[147.16,43.55],[146.99,44.17],[147.68,44.85],[150.8,45.8],[151.24,46.38],[150.46,46.82],[149.64,45.91],[147.82,45.57],[147.42,44.99],[146.22,44.58],[145.42,44.75],[144.8,44.3],[142.69,44.87],[142.26,45.83],[142.86,46.28],[143.64,45.91],[144.0,46.49],[142.83,48.28],[143.8,49.08],[144.55,48.24],[145.24,48.92],[143.72,50.79],[144.02,51.34],[143.34,51.76],[143.98,52.43],[143.61,52.98],[143.94,53.31],[143.22,53.75],[143.54,54.32],[142.43,54.64],[142.11,54.29],[142.51,53.74],[141.47,53.6],[139.85,54.89],[138.46,54.59],[138.7,55.18],[137.07,55.77],[138.15,55.95],[138.71,56.92],[139.85,57.09],[140.87,58.19],[140.41,58.53],[139.39,57.42],[138.24,57.24],[137.7,56.27],[136.6,56.09],[135.33,55.29],[133.17,55.09],[133.65,54.8],[133.42,54.43],[132.55,54.8],[131.14,54.64],[130.54,55.15],[127.66,55.58],[124.74,55.35],[122.5,55.78],[121.82,55.64],[121.48,55.09],[120.48,55.36],[120.41,54.98],[119.52,54.66],[119.63,54.08],[118.38,53.78],[118.12,53.24],[117.16,53.48],[117.01,54.05],[116.61,54.07],[116.38,53.52],[114.81,53.21],[114.8,52.84],[114.04,52.5],[113.47,52.7],[114.23,53.05],[114.03,53.24],[112.49,53.27],[110.68,52.52],[109.23,52.79],[108.29,52.27],[108.19,52.67],[110.52,53.66],[110.65,54.22],[111.22,54.4],[109.8,54.59],[109.69,55.34],[110.46,55.73],[110.22,55.91],[109.22,55.71],[109.17,54.77],[108.01,54.72],[108.7,55.14],[108.24,56.46],[109.57,57.45],[109.5,57.84],[110.14,58.05],[109.82,58.64],[108.54,58.22],[106.75,58.16],[105.76,58.52],[104.71,58.27],[104.3,59.43],[102.0,59.88],[101.5,60.45],[99.11,60.0],[97.21,60.39],[96.25,60.03],[94.51,61.07],[93.23,61.08],[91.32,62.08],[89.57,62.21],[89.24,62.83],[87.91,63.02],[87.09,63.77],[84.69,63.05],[83.32,63.9],[79.48,64.17],[76.92,64.95],[75.46,64.8],[73.35,65.19],[72.13,65.82],[70.65,65.63],[66.75,66.15],[63.74,65.86],[61.81,64.81],[59.93,64.56],[60.09,64.35],[59.49,63.77],[58.96,63.82],[59.01,64.43],[58.3,64.69],[58.68,64.87],[58.51,65.08],[56.48,65.61],[55.55,65.46],[55.01,64.88],[54.27,65.11],[54.63,65.3],[54.43,65.51],[52.96,65.36],[52.62,65.17],[52.69,64.57],[50.64,64.02],[48.39,64.64],[47.03,64.44],[46.92,65.43],[47.22,65.63],[44.79,65.78],[44.6,66.75],[44.9,66.95],[47.11,66.6],[49.34,67.58],[49.09,67.77],[49.44,67.96],[51.38,68.33],[54.66,68.06],[55.06,68.24],[54.01,68.66],[54.41,68.84],[54.18,69.04],[48.25,67.96],[46.79,68.14],[46.59,68.7],[45.7,68.88],[43.28,68.81],[42.97,68.61],[43.86,68.45],[44.11,67.89],[42.37,67.06],[41.24,67.39],[41.51,67.98],[41.21,68.15],[37.99,68.53],[37.74,68.33],[38.05,68.16],[40.66,67.75],[40.44,66.78],[41.27,66.63],[41.55,66.45],[41.28,66.24],[39.64,66.54],[38.33,66.27],[32.52,67.11],[32.46,66.53],[34.4,66.14],[33.01,65.62],[32.95,65.03],[31.69,65.09],[31.94,64.34],[31.31,64.07],[27.55,64.54],[27.2,65.27],[24.92,66.27],[21.59,66.07],[21.08,65.77],[21.25,65.21],[20.35,64.83],[20.52,64.27],[19.42,64.24],[18.91,63.72],[17.44,63.38],[16.49,63.74],[16.72,63.2],[14.23,62.14],[14.28,61.67],[10.01,61.05],[9.48,60.8],[9.57,60.32],[7.05,59.02],[6.41,59.16],[6.97,59.56],[6.05,59.87],[6.62,60.27],[6.43,60.62],[5.48,60.92],[6.06,61.31],[5.67,62.0],[9.18,63.34],[11.1,63.27],[11.02,63.72],[11.6,63.95],[9.93,63.86],[10.62,64.26],[10.29,64.37],[8.84,64.01],[4.76,62.49],[4.97,62.14],[4.11,61.2],[5.02,59.98],[4.46,59.58],[5.05,58.51],[6.31,58.23],[6.78,57.76],[9.0,58.03],[9.81,58.86],[10.8,58.69],[11.16,58.06],[7.84,57.1],[8.02,56.79],[7.46,56.31],[7.93,55.87],[7.37,55.39],[8.29,55.23],[7.83,54.95],[7.92,54.41],[7.02,53.84],[4.98,53.55],[4.15,53.01],[4.25,52.42],[1.96,51.06],[1.51,51.61],[2.17,52.73],[1.98,53.11],[0.49,53.49],[0.13,54.45],[-0.79,54.72],[-1.43,56.03],[-2.4,56.29],[-1.55,56.81],[-1.74,57.38],[-1.3,57.64],[-3.0,58.0],[-2.5,58.46],[-2.76,58.81],[-0.58,59.85],[-0.76,60.4],[-0.3,60.64],[-1.28,61.1],[-2.67,60.37],[-2.4,60.02]],[[79.63,45.13],[80.56,45.28],[80.89,44.9],[80.29,44.37],[79.63,45.13]],[[37.84,43.0],[39.77,43.35],[41.21,42.68],[41.36,41.65],[40.27,41.08],[38.07,41.14],[36.43,41.99],[35.64,41.78],[35.43,42.4],[34.15,41.98],[33.46,42.38],[35.55,43.02],[37.84,43.0]],[[94.65,60.21],[92.47,59.83],[93.03,60.38],[94.65,60.21]],[[122.75,38.16],[122.26,38.93],[122.86,39.06],[123.3,38.69],[123.86,39.79],[124.93,39.16],[124.47,37.99],[122.75,38.16]],[[135.08,52.66],[134.56,52.17],[133.67,52.75],[134.9,54.34],[135.36,54.03],[134.81,53.53],[135.25,53.23],[135.08,52.66]],[[45.01,68.1],[44.73,68.29],[45.05,68.48],[45.93,68.31],[45.55,67.73],[44.7,67.9],[45.01,68.1]],[[13.83,55.32],[15.29,54.82],[14.67,54.36],[13.87,54.78],[12.08,54.67],[13.83,55.32]],[[38.48,65.11],[36.61,65.56],[35.1,65.44],[36.02,65.9],[35.72,66.07],[35.94,66.28],[38.38,65.88],[39.67,66.16],[39.95,65.98],[38.48,65.11]],[[17.32,57.39],[16.9,57.86],[17.58,58.28],[17.43,58.61],[19.1,58.78],[19.11,59.29],[20.68,59.76],[22.37,59.4],[21.19,58.47],[21.7,57.66],[20.56,56.7],[20.95,56.2],[19.73,55.55],[18.01,55.72],[16.33,54.78],[15.68,54.87],[15.65,55.41],[14.84,55.83],[15.9,55.8],[16.94,56.3],[16.93,56.82],[17.46,57.06],[18.68,56.68],[18.68,57.2],[19.23,57.43],[18.95,57.58],[19.65,57.99],[18.82,58.42],[18.27,58.19],[18.27,57.68],[17.32,57.39]],[[20.09,62.99],[20.63,62.51],[20.12,62.0],[20.79,60.95],[19.27,60.45],[17.38,61.07],[18.1,61.46],[17.66,61.89],[18.62,62.66],[19.92,63.55],[20.62,63.5],[20.09,62.99]],[[122.3,55.01],[123.65,55.27],[124.21,55.01],[122.21,54.63],[121.87,54.08],[120.74,54.57],[122.3,55.01]],[[129.93,36.85],[129.88,37.51],[129.26,37.6],[127.83,39.7],[128.65,39.75],[129.45,40.24],[129.61,40.8],[130.25,40.94],[129.99,41.48],[130.59,42.29],[131.26,42.22],[131.69,42.69],[132.6,42.73],[133.08,42.3],[133.53,42.77],[134.24,42.68],[135.19,43.16],[135.68,44.08],[136.42,44.21],[136.94,45.14],[137.71,45.27],[140.93,49.1],[140.65,49.65],[141.22,50.09],[140.75,51.26],[141.69,51.61],[142.08,51.08],[141.48,50.64],[141.85,49.67],[141.42,48.41],[141.94,47.94],[141.62,47.59],[141.84,47.01],[140.91,45.97],[141.69,45.6],[140.87,45.5],[141.34,44.79],[141.04,44.44],[141.25,43.85],[140.18,43.4],[139.35,42.36],[140.08,41.99],[139.3,41.66],[140.03,41.28],[139.76,40.94],[139.96,40.34],[139.45,39.89],[139.65,39.29],[139.13,38.6],[138.42,38.51],[137.93,37.83],[138.14,37.24],[137.68,37.26],[137.02,38.32],[136.32,37.53],[136.54,36.95],[135.86,35.93],[133.92,35.87],[133.26,36.66],[132.85,36.22],[133.08,35.66],[131.67,34.89],[130.81,34.92],[130.94,34.43],[130.39,34.07],[129.41,34.81],[129.93,36.85]],[[24.11,35.94],[23.8,35.9],[23.52,36.53],[23.95,36.8],[25.67,36.11],[26.42,36.4],[27.12,36.02],[26.56,35.53],[25.32,35.41],[24.11,35.94]],[[41.58,64.89],[39.74,65.39],[40.76,65.83],[42.9,65.92],[43.15,65.35],[41.58,64.89]],[[47.18,66.99],[45.51,67.35],[47.32,67.76],[47.57,67.57],[47.18,66.99]],[[120.88,39.78],[120.55,40.26],[121.97,40.75],[122.01,40.3],[120.88,39.78]],[[73.91,45.34],[73.49,45.96],[74.77,46.05],[74.5,45.64],[74.91,45.03],[73.91,45.34]],[[25.53,39.81],[25.86,39.84],[25.93,39.41],[25.41,39.58],[25.53,39.81]],[[91.13,49.79],[91.47,49.89],[91.73,49.49],[91.08,49.54],[91.13,49.79]],[[124.64,54.38],[124.76,54.75],[125.3,54.49],[124.64,54.38]],[[16.22,42.66],[14.81,42.19],[14.43,43.4],[12.95,44.17],[12.77,45.18],[14.73,44.09],[14.63,43.86],[15.42,43.58],[15.44,42.95],[16.22,42.66]],[[110.17,50.04],[111.77,50.21],[110.01,49.21],[109.28,49.52],[110.17,50.04]],[[32.51,41.94],[31.1,41.26],[29.79,41.2],[28.74,41.56],[27.88,42.77],[29.25,43.89],[29.78,43.71],[30.04,43.1],[30.9,42.93],[31.15,42.31],[32.95,42.58],[33.13,42.38],[32.51,41.94]],[[108.19,48.55],[107.65,48.06],[107.13,48.19],[107.66,48.68],[108.19,48.55]],[[24.63,39.29],[25.68,38.96],[24.71,38.86],[24.63,39.29]],[[76.68,43.2],[77.9,43.27],[78.23,42.9],[76.74,42.69],[76.39,43.06],[76.68,43.2]],[[18.21,42.34],[18.98,42.03],[19.19,40.55],[17.78,40.77],[17.45,41.36],[16.36,41.61],[16.34,42.25],[16.78,42.54],[18.21,42.34]],[[109.46,54.21],[110.08,54.03],[109.52,53.84],[109.46,54.21]],[[43.19,66.51],[42.92,66.7],[43.21,66.9],[44.04,66.73],[43.19,66.51]],[[-3.4,53.65],[-3.8,53.37],[-4.3,54.11],[-3.4,53.65]],[[11.18,56.85],[10.4,56.71],[11.01,57.17],[11.68,57.11],[11.18,56.85]],[[21.47,63.88],[22.05,64.39],[21.57,65.08],[23.26,65.4],[24.34,65.2],[21.7,63.53],[21.0,63.58],[21.47,63.88]],[[25.31,38.27],[26.34,37.93],[25.9,37.67],[24.87,38.0],[24.79,38.43],[25.31,38.27]],[[24.8,40.17],[24.88,39.75],[24.35,39.91],[24.8,40.17]],[[134.74,50.54],[134.53,50.2],[134.11,50.48],[134.74,50.54]],[[92.31,50.82],[92.05,51.22],[92.71,51.16],[92.31,50.82]],[[23.62,57.63],[23.51,57.97],[24.19,57.84],[23.62,57.63]],[[12.41,56.53],[11.74,56.59],[12.24,56.85],[12.41,56.53]],[[44.63,67.14],[43.79,67.3],[44.66,67.52],[44.93,67.34],[44.63,67.14]],[[106.66,56.03],[107.32,55.86],[106.79,55.63],[106.66,56.03]]],[[[165.58,60.2],[167.01,59.71],[166.91,60.75],[166.59,60.93],[164.77,60.33],[164.43,61.14],[163.58,61.26],[159.26,59.19],[159.5,58.8],[158.83,58.26],[157.59,58.27],[156.53,57.65],[156.7,57.04],[155.51,57.03],[155.78,56.65],[155.29,56.34],[155.55,55.97],[155.0,55.43],[155.58,54.92],[155.05,54.39],[156.4,52.39],[155.85,51.85],[156.32,51.32],[155.23,51.08],[155.42,50.7],[154.89,50.15],[156.16,50.01],[158.93,51.84],[158.68,52.84],[160.22,53.12],[160.05,53.5],[160.67,54.01],[160.49,54.39],[162.26,54.26],[162.22,54.86],[162.75,55.14],[161.76,55.4],[161.88,55.62],[163.54,55.85],[163.51,56.45],[164.08,56.73],[163.05,57.0],[163.76,57.51],[163.59,57.9],[162.51,58.17],[162.32,58.57],[163.53,59.14],[163.85,58.97],[163.24,58.68],[163.42,58.29],[165.09,58.9],[164.94,59.3],[163.35,59.54],[164.78,59.7],[165.58,60.2]],[[160.14,55.96],[160.97,56.09],[161.24,55.12],[160.53,55.21],[160.14,55.96]],[[157.98,55.39],[157.52,56.14],[159.08,57.04],[159.83,56.95],[159.93,56.34],[157.98,55.39]],[[161.17,57.99],[160.72,57.92],[160.81,57.31],[160.05,57.4],[159.95,58.02],[160.51,58.31],[160.29,58.7],[161.34,59.07],[161.25,59.69],[162.68,59.88],[162.73,59.25],[161.08,58.61],[161.17,57.99]],[[157.89,55.16],[158.12,54.79],[157.41,54.87],[157.89,55.16]]],[[[47.54,68.91],[49.3,68.53],[49.66,68.72],[49.4,68.91],[48.52,69.1],[48.88,69.29],[50.78,69.29],[48.98,69.67],[47.98,69.47],[47.54,68.91]]],[[[-158.2,60.63],[-156.58,60.74],[-155.44,62.02],[-156.33,62.41],[-158.06,62.31],[-156.92,63.62],[-158.82,63.96],[-159.58,63.22],[-161.23,62.63],[-162.33,63.22],[-161.09,63.68],[-162.49,63.67],[-163.23,63.13],[-164.31,63.48],[-165.18,62.33],[-166.04,62.22],[-166.67,61.67],[-165.52,61.12],[-165.68,60.52],[-163.65,59.65],[-162.51,59.89],[-161.6,59.55],[-160.35,61.0],[-158.79,61.58],[-157.51,61.56],[-158.2,60.63]]],[[[63.33,42.43],[64.08,42.03],[64.91,42.3],[63.5,42.85],[63.33,42.43]]],[[[9.33,35.75],[9.78,36.3],[9.64,36.71],[10.96,36.58],[11.43,37.13],[10.53,36.92],[10.18,37.51],[9.66,37.6],[8.11,37.0],[6.37,37.42],[5.38,36.7],[3.17,37.15],[2.56,36.73],[1.36,37.01],[0.29,36.65],[-0.07,36.09],[0.72,36.36],[1.58,35.76],[3.04,35.55],[3.64,35.96],[5.61,35.65],[5.98,35.09],[6.97,34.91],[7.6,35.3],[8.6,35.12],[9.33,35.75]]],[[[-24.69,36.67],[-25.12,38.06],[-26.24,37.98],[-25.24,36.63],[-24.69,36.67]]],[[[180.0,52.34],[177.25,52.31],[177.13,51.69],[179.52,51.33],[180.0,52.34]]],[[[155.3,60.04],[157.01,61.0],[156.42,61.8],[155.92,61.71],[156.13,61.08],[154.45,60.1],[152.61,59.73],[147.52,60.4],[145.33,59.58],[142.32,59.9],[142.8,59.31],[145.33,59.34],[146.16,58.86],[147.02,59.33],[149.11,59.16],[150.02,59.61],[150.73,58.87],[152.76,58.64],[153.71,59.07],[155.35,58.95],[154.76,59.72],[155.3,60.04]]],[[[-15.41,28.02],[-15.16,28.4],[-15.65,28.4],[-15.9,27.76],[-15.41,28.02]]],[[[121.13,24.9],[121.74,24.76],[121.64,24.1],[122.13,24.53],[121.66,25.54],[121.13,24.9]]],[[[69.82,66.38],[72.05,66.05],[72.93,66.55],[73.97,66.59],[74.84,67.3],[74.21,67.61],[73.35,66.91],[72.29,66.86],[73.56,67.93],[72.9,68.24],[71.96,67.75],[71.24,66.81],[68.68,66.53],[69.82,66.38]]],[[[-179.14,51.53],[-179.32,51.33],[-178.73,51.13],[-177.42,51.72],[-176.45,51.49],[-175.12,52.05],[-172.84,51.94],[-174.54,52.63],[-175.32,52.26],[-176.28,52.49],[-177.62,51.92],[-178.6,52.14],[-179.17,51.94],[-179.14,51.53]]],[[[-7.39,61.84],[-7.1,61.3],[-6.33,61.22],[-6.6,61.76],[-5.67,62.26],[-7.26,62.43],[-7.72,62.17],[-7.39,61.84]]],[[[128.24,26.82],[127.68,26.2],[128.4,26.47],[128.24,26.82]]],[[[33.5,69.1],[35.2,69.26],[33.24,69.83],[32.59,69.58],[33.5,69.1]]],[[[116.04,-33.08],[116.13,-32.05],[115.75,-31.85],[115.5,-33.02],[116.04,-33.08]]],[[[65.06,41.8],[63.58,41.68],[63.25,40.84],[63.98,40.44],[64.31,41.28],[65.13,41.55],[65.06,41.8]]],[[[172.06,53.08],[172.4,52.49],[173.68,52.16],[174.24,52.4],[173.92,52.99],[172.62,53.32],[172.06,53.08]]],[[[115.22,54.32],[115.23,54.7],[114.62,54.53],[115.22,54.32]]],[[[163.9,61.72],[164.76,61.6],[164.75,62.24],[165.45,62.52],[162.98,62.48],[162.82,62.25],[164.06,61.96],[163.9,61.72]]],[[[-160.55,65.12],[-161.52,65.04],[-160.93,64.74],[-160.55,65.12]]],[[[-165.39,59.88],[-166.49,60.41],[-167.63,60.13],[-166.96,59.66],[-165.39,59.88]]],[[[140.76,58.9],[141.65,58.45],[142.4,59.19],[141.12,59.27],[140.76,58.9]]],[[[171.94,61.09],[170.51,60.6],[168.92,60.91],[168.22,60.65],[169.81,60.35],[170.1,60.16],[169.91,59.94],[170.67,59.79],[170.8,60.41],[173.7,61.37],[172.91,61.55],[171.94,61.09]]],[[[129.71,28.56],[129.26,28.59],[128.93,28.08],[129.38,28.04],[129.71,28.56]]],[[[-29.13,38.24],[-27.14,38.29],[-26.67,39.1],[-27.89,39.52],[-28.95,38.9],[-29.13,38.24]]],[[[30.95,69.59],[31.57,69.85],[30.48,69.92],[30.95,69.59]]],[[[-18.13,28.35],[-16.39,28.01],[-15.9,28.77],[-17.14,28.38],[-17.9,29.25],[-18.39,28.73],[-18.13,28.35]]],[[[116.45,54.65],[116.04,54.67],[116.02,54.29],[117.26,54.61],[116.45,54.65]]],[[[12.21,66.45],[11.51,65.62],[12.11,65.38],[13.46,66.59],[12.84,66.83],[12.21,66.45]]],[[[154.49,48.98],[155.36,49.61],[154.46,49.83],[154.11,49.75],[154.22,49.13],[153.19,48.87],[154.07,48.66],[154.49,48.98]]],[[[-16.65,32.96],[-17.44,33.08],[-17.7,32.69],[-16.65,32.19],[-15.87,33.34],[-16.65,32.96]]],[[[-5.63,31.79],[-5.34,32.14],[-5.57,32.28],[-5.82,32.18],[-5.63,31.79]]],[[[115.2,-33.34],[114.62,-33.63],[114.7,-34.17],[115.59,-33.56],[115.2,-33.34]]],[[[174.18,61.8],[174.96,61.62],[175.99,62.05],[175.2,62.24],[174.18,61.8]]],[[[-18.87,63.73],[-19.39,63.41],[-18.59,63.37],[-18.87,63.73]]],[[[-172.89,60.78],[-173.05,60.39],[-172.26,60.54],[-172.89,60.78]]],[[[-9.27,57.73],[-8.54,57.67],[-8.09,58.16],[-8.82,58.23],[-9.27,57.73]]],[[[166.61,54.62],[167.56,54.31],[168.67,54.82],[166.34,55.39],[165.78,55.12],[166.2,54.57],[166.61,54.62]]],[[[1.19,38.49],[2.02,38.76],[1.68,39.53],[1.07,39.11],[1.19,38.49]]],[[[37.67,68.7],[37.93,68.9],[37.61,69.07],[35.87,68.94],[37.67,68.7]]],[[[152.56,47.84],[152.76,47.45],[151.83,47.42],[151.37,46.85],[152.22,46.65],[153.36,47.39],[153.24,48.01],[153.65,48.34],[153.04,48.4],[152.56,47.84]]],[[[10.87,64.8],[11.2,64.49],[11.88,65.11],[10.61,65.14],[10.28,65.03],[10.87,64.8]]],[[[-172.35,64.47],[-171.98,64.65],[-172.16,64.88],[-173.09,64.73],[-172.35,64.47]]],[[[59.24,68.82],[58.8,68.65],[58.99,68.44],[61.13,68.7],[59.24,68.82]]],[[[-166.7,53.39],[-166.64,53.77],[-167.23,53.64],[-166.7,53.39]]],[[[-30.78,39.48],[-31.71,39.75],[-30.99,39.07],[-30.78,39.48]]],[[[-171.66,63.58],[-172.02,63.4],[-171.85,63.18],[-169.78,63.02],[-168.53,63.32],[-171.66,63.58]]],[[[-13.67,28.9],[-14.16,29.15],[-14.42,28.53],[-13.67,28.9]]],[[[157.94,62.04],[157.32,61.72],[158.21,61.64],[157.94,62.04]]],[[[176.52,62.47],[178.88,62.28],[179.98,62.68],[177.6,62.9],[176.52,62.47]]],[[[99.14,51.49],[99.06,51.25],[99.68,51.15],[99.49,51.56],[99.14,51.49]]],[[[139.95,32.79],[139.98,33.26],[139.31,33.2],[139.95,32.79]]],[[[56.92,68.75],[56.29,68.77],[55.88,68.6],[56.09,68.39],[58.18,68.68],[56.92,68.75]]]]}}]}