{"type":"FeatureCollection","features":[{"type":"Feature","properties":{},"geometry":{"type":"MultiPolygon","coordinates":[[[[180.0,69.38],[175.54,69.93],[180.0,68.4],[180.0,69.38]]],[[[-180.0,68.4],[-179.04,68.16],[-180.0,67.97],[-180.0,64.57],[-178.7,65.38],[-176.36,65.31],[-176.26,64.67],[-173.44,63.91],[-172.17,64.25],[-171.95,65.29],[-169.62,65.75],[-168.33,65.42],[-168.45,64.79],[-162.23,64.28],[-161.58,63.75],[-163.08,63.96],[-163.23,63.13],[-165.6,63.22],[-166.67,61.67],[-165.43,60.9],[-168.08,60.18],[-166.52,59.61],[-165.14,60.25],[-164.87,59.61],[-162.09,59.83],[-162.86,58.52],[-157.8,58.06],[-158.74,57.03],[-168.98,53.23],[-172.81,52.74],[-173.03,52.15],[-174.54,52.63],[-178.6,52.14],[-179.35,51.74],[-179.12,51.13],[-169.06,52.45],[-163.51,54.52],[-159.03,54.74],[-159.53,55.6],[-157.85,55.87],[-155.91,57.47],[-154.46,56.95],[-155.49,56.57],[-154.78,56.01],[-151.63,57.49],[-151.51,58.94],[-145.55,60.34],[-144.66,59.59],[-141.54,59.89],[-138.39,58.87],[-133.02,54.5],[-133.64,54.13],[-132.65,52.65],[-130.69,51.69],[-131.55,54.12],[-131.06,54.29],[-128.01,51.2],[-129.44,50.73],[-124.91,48.16],[-124.0,45.13],[-125.1,42.66],[-124.41,41.53],[-124.91,40.57],[-124.1,39.81],[-123.86,36.57],[-119.55,33.64],[-119.65,32.99],[-118.02,32.81],[-116.67,31.52],[-116.27,29.79],[-114.2,28.46],[-115.95,28.29],[-112.78,26.34],[-112.14,24.22],[-109.88,22.45],[-109.0,23.09],[-109.46,24.46],[-110.51,24.84],[-111.12,26.97],[-112.52,27.68],[-110.76,27.8],[-109.05,25.03],[-105.76,22.56],[-105.35,19.25],[-105.48,20.26],[-104.78,20.47],[-103.71,19.29],[-103.29,19.85],[-100.43,19.34],[-99.67,18.51],[-99.25,19.05],[-97.8,17.9],[-98.89,17.19],[-96.82,16.47],[-95.96,17.28],[-96.88,17.71],[-96.97,19.46],[-95.12,18.57],[-97.59,22.21],[-96.95,27.83],[-94.34,29.53],[-89.33,28.64],[-88.15,30.19],[-85.85,30.09],[-85.21,29.21],[-84.06,29.97],[-81.57,25.41],[-82.46,24.52],[-81.04,24.32],[-79.66,26.33],[-81.21,30.1],[-81.08,31.73],[-77.36,34.53],[-75.09,35.16],[-75.24,36.08],[-73.47,37.16],[-72.51,39.26],[-68.9,41.74],[-68.48,43.01],[-66.75,43.8],[-65.63,43.09],[-64.09,44.42],[-60.69,45.01],[-59.49,46.07],[-60.2,46.88],[-58.94,47.53],[-56.42,47.55],[-56.83,46.72],[-53.41,46.27],[-51.96,47.64],[-53.42,49.77],[-56.18,50.47],[-54.81,50.65],[-55.54,51.09],[-54.66,51.92],[-55.4,52.37],[-55.25,53.65],[-59.42,55.42],[-60.1,56.95],[-64.31,60.83],[-67.52,58.89],[-69.56,59.87],[-67.12,60.48],[-69.25,61.47],[-70.5,61.15],[-74.11,63.1],[-76.47,62.61],[-75.53,64.09],[-73.59,63.83],[-71.89,62.62],[-64.37,61.28],[-64.51,62.16],[-63.47,62.64],[-64.65,63.05],[-63.59,63.52],[-63.71,64.41],[-64.96,64.81],[-62.3,65.1],[-60.23,66.65],[-65.34,68.12],[-66.95,68.94],[-65.66,69.42],[-67.23,69.81],[-67.08,70.47],[-70.22,71.43],[-71.03,70.73],[-67.96,69.78],[-67.92,68.69],[-62.14,66.64],[-64.18,65.5],[-67.86,66.48],[-67.84,65.37],[-64.48,63.72],[-66.1,63.22],[-68.84,63.75],[-66.79,62.51],[-67.55,62.25],[-71.14,62.91],[-71.49,63.78],[-74.03,64.7],[-73.28,65.67],[-73.74,66.54],[-72.27,66.88],[-70.83,65.86],[-69.93,66.81],[-72.49,67.31],[-73.19,68.6],[-75.23,68.44],[-74.14,68.98],[-76.13,69.71],[-78.97,70.35],[-86.94,70.27],[-88.09,70.8],[-87.23,71.4],[-89.85,71.96],[-90.57,71.84],[-89.36,71.08],[-90.14,70.47],[-86.42,69.87],[-85.45,69.08],[-86.9,68.37],[-95.48,72.69],[-94.78,73.31],[-97.74,73.25],[-96.15,72.31],[-98.83,71.74],[-101.15,72.52],[-100.06,73.54],[-101.74,73.96],[-102.44,73.81],[-101.44,73.24],[-103.41,72.77],[-99.34,71.1],[-96.73,71.43],[-97.19,70.05],[-103.37,69.79],[-103.81,69.38],[-101.98,69.36],[-102.44,68.96],[-106.94,69.53],[-111.14,68.61],[-116.51,69.86],[-112.26,70.02],[-111.69,70.85],[-116.81,70.73],[-115.7,71.53],[-118.87,71.87],[-115.52,73.23],[-114.73,73.19],[-114.73,72.55],[-109.05,72.62],[-109.25,71.98],[-107.61,71.61],[-106.62,72.19],[-107.7,72.73],[-106.82,73.55],[-105.38,73.64],[-106.33,72.84],[-105.42,72.53],[-103.92,73.73],[-107.17,74.02],[-108.66,73.03],[-112.36,73.07],[-116.36,73.89],[-120.96,72.34],[-121.17,71.5],[-122.98,71.32],[-125.4,72.37],[-123.88,72.79],[-123.68,74.44],[-125.41,74.41],[-125.01,72.99],[-126.51,72.57],[-126.13,71.95],[-123.04,70.91],[-119.03,71.45],[-118.89,70.81],[-117.25,70.53],[-118.51,69.95],[-116.87,69.02],[-121.54,69.83],[-116.19,68.34],[-117.97,67.79],[-110.46,67.66],[-108.37,66.98],[-108.54,66.33],[-107.15,65.7],[-111.9,64.27],[-116.22,65.33],[-116.87,66.66],[-118.38,66.54],[-118.48,67.18],[-123.53,66.74],[-123.72,67.79],[-128.29,69.25],[-126.43,69.67],[-126.1,69.05],[-123.6,69.04],[-122.2,69.85],[-124.16,69.88],[-124.44,70.5],[-126.11,69.88],[-127.46,70.7],[-128.38,70.07],[-131.07,70.4],[-133.81,69.6],[-135.1,70.08],[-137.65,69.22],[-142.14,70.33],[-157.66,71.51],[-166.66,68.96],[-166.85,68.32],[-162.56,66.51],[-164.96,67.02],[-168.06,65.82],[-179.14,69.25],[-180.0,69.38],[-180.0,68.4]]],[[[180.0,63.14],[179.01,63.52],[179.11,64.36],[180.0,64.57],[180.0,67.97],[177.54,66.91],[173.98,67.52],[171.97,65.95],[169.41,66.26],[167.71,65.72],[167.79,64.65],[164.53,64.6],[162.39,63.07],[156.52,62.04],[154.14,60.49],[147.11,60.77],[141.46,59.88],[141.96,59.29],[140.72,59.14],[139.39,57.42],[135.33,55.29],[133.17,55.09],[133.42,54.43],[125.02,55.52],[122.52,54.21],[119.63,54.08],[117.52,53.09],[116.59,53.7],[111.5,51.79],[111.98,52.36],[111.19,52.74],[108.07,52.45],[110.69,53.84],[109.3,54.02],[110.03,54.4],[109.63,55.72],[108.71,54.17],[106.2,53.27],[108.63,55.51],[108.34,57.04],[110.14,58.05],[111.28,57.86],[112.77,59.24],[110.02,58.84],[107.83,59.39],[107.82,58.4],[106.54,58.94],[104.71,58.27],[104.28,58.83],[105.56,59.9],[102.75,60.95],[98.09,60.51],[96.4,61.57],[93.37,61.54],[94.82,61.99],[91.5,62.78],[91.74,63.69],[88.67,64.72],[89.41,65.96],[88.54,66.72],[89.13,67.04],[87.6,67.47],[89.45,68.45],[87.71,68.18],[86.65,68.69],[87.3,69.27],[86.75,69.64],[83.77,69.83],[84.36,71.14],[83.71,71.51],[84.36,71.87],[79.46,72.71],[84.35,74.06],[79.16,73.68],[77.44,72.56],[76.24,73.62],[72.92,73.13],[70.15,73.84],[68.43,71.9],[66.69,71.64],[65.96,70.49],[66.82,69.6],[65.32,69.34],[57.92,70.43],[55.56,71.87],[57.11,72.61],[56.78,73.22],[62.64,75.42],[60.24,75.32],[55.59,73.45],[55.96,72.84],[54.43,72.49],[55.55,71.1],[52.29,71.74],[53.67,72.5],[53.21,73.09],[58.91,75.57],[54.7,75.46],[54.75,74.26],[51.06,72.33],[51.34,71.18],[59.76,69.56],[48.25,67.96],[43.28,68.81],[44.11,67.89],[42.93,67.08],[36.48,69.55],[35.2,69.26],[27.85,71.37],[18.76,70.54],[18.02,69.76],[11.93,68.08],[11.56,67.33],[13.38,67.4],[11.83,66.97],[10.9,65.85],[11.64,65.45],[4.76,62.49],[4.11,61.2],[5.05,58.51],[6.78,57.76],[9.0,58.03],[9.81,58.86],[10.87,58.19],[5.44,55.51],[-1.19,55.67],[-2.4,56.29],[-1.3,57.64],[-3.0,58.0],[-2.76,58.81],[-0.58,59.85],[-0.3,60.64],[-1.28,61.1],[-2.67,60.37],[-1.68,59.92],[-2.2,59.47],[-4.48,59.36],[-3.53,58.71],[-7.67,58.44],[-7.52,57.25],[-8.34,56.67],[-6.76,55.52],[-8.5,55.59],[-9.29,54.99],[-9.02,54.41],[-10.75,54.44],[-10.21,53.03],[-10.97,52.17],[-8.77,51.18],[-5.65,52.35],[-6.01,53.99],[-4.95,54.2],[-5.01,52.28],[-5.77,51.68],[-4.64,50.84],[-6.74,49.69],[-2.91,50.14],[-3.47,48.93],[-5.39,48.47],[-1.91,46.45],[-1.3,45.28],[-1.94,43.57],[-8.1,44.05],[-9.63,43.32],[-8.72,41.01],[-10.04,38.61],[-9.1,37.04],[-6.77,36.74],[-6.18,35.32],[-7.35,33.91],[-8.9,33.51],[-10.03,32.07],[-9.94,29.94],[-11.49,28.49],[-13.45,28.02],[-15.21,24.41],[-14.23,26.15],[-9.78,28.81],[-9.98,29.44],[-9.29,29.04],[-6.56,30.01],[-4.96,31.37],[-3.3,31.34],[-3.19,32.06],[-0.84,32.05],[4.41,33.96],[5.88,32.82],[9.51,33.77],[12.82,32.51],[14.98,32.5],[11.5,33.34],[10.74,34.29],[11.7,34.74],[11.43,37.13],[9.14,37.7],[8.11,37.0],[1.36,37.01],[-2.2,35.15],[-4.88,35.57],[-5.04,36.2],[-2.26,36.26],[-0.58,37.26],[0.25,38.85],[-0.09,39.63],[3.59,41.85],[3.67,43.16],[6.35,42.85],[8.77,44.1],[10.12,43.78],[8.37,42.94],[8.05,42.01],[8.97,41.37],[7.6,40.59],[8.35,40.35],[7.67,39.09],[8.56,38.44],[10.14,39.04],[9.67,41.76],[11.02,42.28],[12.74,40.71],[15.55,39.73],[14.35,38.19],[13.17,38.83],[11.98,37.92],[14.53,36.45],[15.35,36.39],[15.61,37.77],[16.45,37.7],[17.58,39.0],[16.83,39.96],[17.25,40.25],[18.11,39.52],[19.4,39.72],[20.24,38.97],[19.8,38.02],[24.04,34.6],[27.55,35.18],[28.49,36.36],[30.29,35.83],[31.12,36.75],[32.32,35.72],[33.07,35.97],[31.79,34.82],[33.21,34.23],[35.08,35.82],[33.68,35.99],[34.88,36.46],[35.62,34.31],[34.3,31.65],[28.09,31.23],[32.2,30.43],[33.43,27.63],[35.54,27.96],[34.58,29.68],[33.84,27.88],[32.78,30.47],[37.16,29.34],[43.62,29.16],[51.25,24.96],[51.59,23.74],[55.87,24.69],[58.58,23.47],[59.53,22.66],[59.55,21.35],[59.95,22.75],[58.35,24.1],[56.94,24.25],[56.37,25.73],[56.96,25.99],[61.34,24.71],[66.52,25.26],[70.67,20.53],[71.68,20.98],[70.59,20.95],[69.88,22.38],[71.57,23.02],[71.88,21.11],[72.91,21.54],[71.94,24.97],[74.74,26.75],[75.79,25.7],[78.07,26.34],[79.97,25.34],[83.11,25.45],[84.28,26.29],[84.32,27.22],[83.64,27.32],[84.12,28.01],[86.39,26.89],[92.04,26.81],[93.98,27.2],[94.79,28.21],[96.23,28.13],[97.29,26.53],[97.14,27.6],[98.1,27.53],[98.11,25.03],[103.47,24.15],[105.46,25.1],[105.11,26.1],[106.83,26.69],[106.01,27.74],[107.39,29.26],[111.47,30.05],[111.28,28.74],[112.37,28.43],[112.89,27.31],[113.45,29.56],[114.66,30.09],[116.15,29.65],[115.46,29.48],[114.96,27.69],[115.91,28.16],[116.27,27.64],[117.44,28.15],[116.84,29.83],[118.53,30.82],[120.82,29.28],[121.35,29.89],[121.09,28.44],[119.57,26.87],[119.58,25.64],[117.53,24.64],[117.39,23.75],[114.89,22.75],[112.58,23.53],[112.46,22.6],[113.52,22.3],[112.79,21.83],[113.85,21.52],[119.62,24.62],[121.98,28.63],[124.04,29.31],[128.74,33.87],[128.29,32.81],[129.56,32.33],[129.11,31.24],[130.09,30.44],[128.81,28.63],[133.47,33.24],[135.0,33.92],[135.63,33.1],[137.59,34.48],[139.78,33.63],[139.38,34.6],[141.29,35.64],[141.01,38.04],[142.3,38.79],[141.37,42.3],[143.14,41.87],[145.95,42.9],[147.68,44.85],[151.18,46.14],[150.78,46.91],[144.8,44.3],[142.69,44.87],[142.26,45.83],[144.0,46.49],[142.83,48.28],[143.8,49.08],[144.55,48.24],[145.24,48.92],[143.34,51.76],[143.94,53.31],[142.79,54.76],[142.17,53.62],[139.85,54.89],[138.46,54.59],[138.7,55.18],[137.07,55.77],[138.71,56.92],[143.65,59.33],[155.35,58.95],[155.97,59.5],[154.84,59.95],[157.71,61.56],[159.1,61.55],[160.2,60.19],[161.65,60.39],[157.5,58.04],[156.27,58.03],[156.45,57.42],[155.51,57.03],[155.05,54.39],[156.4,52.39],[155.85,51.85],[156.32,51.32],[155.23,51.08],[154.89,50.15],[155.8,49.93],[158.93,51.84],[160.49,54.39],[162.79,54.54],[161.88,55.62],[163.54,55.85],[164.08,56.73],[163.05,57.0],[163.76,57.51],[162.65,58.4],[168.53,60.46],[170.67,59.79],[170.8,60.41],[177.58,62.48],[179.64,62.07],[180.0,63.14]]],[[[-24.51,65.28],[-24.6,64.58],[-22.46,64.43],[-23.0,63.86],[-21.33,63.82],[-20.32,62.98],[-14.59,64.16],[-12.72,65.27],[-14.59,66.59],[-18.15,66.83],[-19.81,66.09],[-23.85,66.57],[-24.89,65.87],[-24.51,65.28]],[[-17.45,64.24],[-18.85,65.0],[-15.52,64.81],[-17.45,64.24]]],[[[-115.03,76.58],[-124.03,76.25],[-112.77,74.16],[-110.96,74.71],[-116.81,75.38],[-116.89,76.01],[-109.0,76.1],[-115.03,76.58]]],[[[-54.3,67.83],[-54.76,67.19],[-53.59,66.71],[-54.14,65.64],[-49.35,60.96],[-42.76,59.61],[-43.12,60.32],[-41.96,60.61],[-42.67,61.15],[-41.24,61.84],[-41.7,62.8],[-40.45,63.07],[-39.59,64.28],[-40.34,64.84],[-33.05,66.58],[-31.28,68.09],[-23.37,69.16],[-20.82,70.49],[-21.18,71.1],[-20.48,71.42],[-21.89,72.55],[-16.53,75.13],[-19.09,75.74],[-17.47,76.96],[-18.76,77.5],[-17.47,78.03],[-18.07,78.41],[-24.63,78.29],[-22.05,77.87],[-24.8,77.59],[-23.32,76.85],[-25.15,75.96],[-19.89,75.66],[-21.2,74.42],[-23.32,74.37],[-21.48,73.72],[-24.84,73.7],[-24.3,73.1],[-25.66,72.65],[-23.84,72.25],[-22.39,70.91],[-26.39,71.59],[-25.85,70.99],[-27.62,69.93],[-23.21,69.86],[-26.59,68.73],[-31.87,68.44],[-35.03,66.48],[-40.99,65.15],[-43.71,60.61],[-48.38,61.54],[-48.4,62.2],[-51.15,63.73],[-50.74,65.02],[-53.19,65.82],[-52.6,66.88],[-53.65,67.8],[-49.92,68.91],[-51.1,69.42],[-50.32,70.45],[-51.43,71.38],[-56.03,71.57],[-54.59,71.09],[-55.29,69.61],[-53.99,69.12],[-54.3,67.83]],[[-20.44,77.57],[-19.81,77.19],[-21.47,77.26],[-20.44,77.57]],[[-52.63,70.15],[-53.96,70.64],[-51.76,70.54],[-52.63,70.15]]],[[[123.29,-34.42],[124.42,-34.07],[124.26,-32.87],[123.6,-33.77],[120.23,-33.97],[121.92,-34.78],[123.29,-34.42]]],[[[-73.84,3.62],[-74.11,4.21],[-72.41,5.85],[-72.81,7.58],[-73.07,6.17],[-74.09,6.0],[-73.82,5.42],[-74.61,4.9],[-74.68,3.57],[-73.84,3.62]]],[[[-78.79,-3.2],[-77.22,1.07],[-75.45,2.79],[-75.33,5.69],[-76.84,1.59],[-78.7,0.59],[-79.49,-2.87],[-79.4,-3.88],[-78.79,-3.2]]],[[[2.53,39.8],[2.35,39.09],[3.08,38.88],[4.63,39.78],[3.73,40.38],[2.53,39.8]]],[[[154.49,48.98],[155.36,49.61],[154.46,49.83],[153.19,48.87],[154.49,48.98]]],[[[115.67,-31.33],[115.16,-32.47],[115.62,-33.21],[114.58,-33.98],[116.54,-35.42],[116.99,-34.92],[115.4,-34.06],[116.01,-33.42],[115.67,-31.33]]],[[[119.97,24.17],[119.17,23.02],[120.17,22.83],[120.63,21.79],[121.69,21.84],[121.12,22.22],[121.8,22.52],[122.12,25.74],[119.97,24.17]]],[[[-58.58,-33.75],[-60.84,-31.93],[-61.12,-32.83],[-57.2,-36.37],[-56.56,-36.28],[-57.54,-34.7],[-55.32,-34.88],[-58.58,-33.75]]],[[[166.61,54.62],[168.67,54.82],[166.21,55.77],[165.64,55.51],[166.61,54.62]]],[[[27.67,-25.6],[26.91,-26.12],[28.25,-26.61],[29.06,-25.44],[27.67,-25.6]]],[[[19.15,-34.59],[22.28,-34.47],[22.06,-33.9],[19.62,-33.8],[18.15,-32.08],[17.82,-34.04],[19.15,-34.59]]],[[[-44.71,-22.88],[-45.64,-24.05],[-44.58,-23.57],[-44.71,-22.88]]],[[[-60.24,-62.51],[-61.0,-62.76],[-59.61,-62.89],[-57.19,-61.89],[-60.24,-62.51]]],[[[-14.16,29.15],[-14.92,28.02],[-16.14,28.9],[-17.14,28.38],[-17.9,29.25],[-18.37,27.72],[-17.86,27.22],[-17.63,28.11],[-14.19,27.65],[-13.17,29.14],[-13.65,29.65],[-14.16,29.15]]],[[[-70.71,-34.33],[-71.82,-31.6],[-72.09,-34.76],[-74.12,-37.16],[-73.83,-41.64],[-74.5,-41.9],[-74.13,-42.8],[-75.04,-43.84],[-74.56,-44.36],[-75.4,-45.02],[-75.14,-46.33],[-75.89,-46.61],[-74.44,-47.3],[-75.74,-47.7],[-76.14,-48.9],[-75.31,-50.1],[-75.41,-51.99],[-73.66,-51.61],[-75.28,-49.47],[-72.39,-44.98],[-72.33,-42.15],[-71.31,-42.16],[-72.16,-41.39],[-70.71,-34.33]]],[[[-60.34,-51.82],[-60.82,-51.13],[-61.2,-52.44],[-59.08,-52.46],[-57.37,-51.55],[-58.78,-51.14],[-59.81,-51.6],[-58.48,-51.66],[-59.15,-52.09],[-60.34,-51.82]]],[[[123.56,24.12],[125.88,24.87],[123.25,24.8],[122.71,24.16],[123.56,24.12]]],[[[-77.93,25.61],[-78.44,24.5],[-77.24,24.86],[-77.77,25.25],[-77.32,25.89],[-76.3,24.66],[-75.88,25.07],[-77.56,27.3],[-79.19,26.99],[-79.49,25.97],[-79.15,25.25],[-78.86,26.27],[-77.86,26.29],[-77.93,25.61]]],[[[-86.5,73.37],[-87.3,73.27],[-86.12,72.49],[-87.06,71.9],[-85.87,71.36],[-84.69,72.44],[-85.24,72.83],[-80.85,73.76],[-86.19,74.1],[-87.02,74.0],[-86.5,73.37]]],[[[153.33,-30.31],[154.09,-28.06],[152.67,-25.26],[153.04,-26.31],[152.36,-27.78],[153.51,-28.78],[152.9,-31.69],[149.32,-34.18],[149.84,-37.61],[148.38,-37.83],[150.4,-37.67],[151.57,-33.64],[153.42,-31.74],[153.33,-30.31]]],[[[147.37,-40.02],[147.46,-40.94],[143.69,-39.61],[144.62,-40.53],[144.18,-41.1],[145.15,-43.17],[146.2,-43.83],[148.48,-43.23],[148.77,-40.33],[147.37,-40.02]]],[[[-61.77,16.2],[-61.2,15.05],[-61.01,16.39],[-61.77,16.2]]],[[[29.2,-32.31],[29.91,-31.42],[28.45,-32.2],[29.2,-32.31]]],[[[180.0,52.34],[177.25,52.31],[177.13,51.69],[179.52,51.33],[180.0,52.34]]],[[[18.81,78.74],[16.04,77.36],[14.84,77.67],[16.79,78.71],[12.25,78.26],[15.44,77.02],[15.08,76.47],[17.64,76.41],[18.27,76.74],[17.18,77.06],[19.25,78.07],[23.09,78.08],[20.38,77.75],[22.46,77.09],[25.05,77.84],[20.62,79.2],[21.43,79.76],[19.17,79.75],[18.32,79.4],[19.76,78.86],[18.81,78.74]]],[[[-83.62,9.97],[-84.29,10.27],[-83.57,9.29],[-83.62,9.97]]],[[[145.88,-37.62],[143.71,-37.28],[143.7,-38.45],[140.47,-37.86],[139.06,-34.33],[137.57,-34.01],[136.48,-34.93],[136.95,-33.49],[135.87,-34.4],[134.99,-33.93],[134.66,-34.88],[137.08,-36.37],[139.13,-35.9],[139.87,-38.0],[141.33,-38.8],[142.55,-38.51],[143.51,-39.19],[144.55,-38.45],[146.65,-39.28],[148.08,-37.92],[146.54,-37.19],[145.88,-37.62]]],[[[178.58,-38.12],[178.94,-37.33],[176.69,-37.5],[175.92,-35.86],[172.44,-34.3],[174.62,-37.48],[173.6,-39.69],[175.08,-40.65],[172.84,-40.14],[171.81,-40.72],[172.15,-41.31],[170.62,-42.93],[167.22,-44.37],[166.09,-46.15],[167.71,-47.65],[171.26,-46.18],[170.9,-45.6],[171.65,-44.44],[173.07,-44.18],[172.95,-43.22],[174.4,-41.59],[176.06,-41.64],[178.58,-38.12]]],[[[-16.39,32.32],[-16.13,33.47],[-17.7,32.95],[-16.39,32.32]]],[[[118.23,-35.19],[119.91,-34.59],[119.85,-33.81],[117.55,-34.96],[118.23,-35.19]]],[[[-18.53,79.81],[-22.26,79.39],[-19.55,78.95],[-20.11,79.55],[-18.53,79.81]]],[[[126.79,26.26],[128.0,25.5],[129.14,27.95],[130.16,28.52],[129.26,28.59],[128.53,27.13],[127.68,27.41],[126.79,26.26]]],[[[-66.39,-54.75],[-68.49,-55.53],[-70.89,-55.14],[-67.91,-56.11],[-66.4,-55.13],[-63.53,-55.03],[-68.11,-53.47],[-66.39,-54.75]]],[[[17.37,30.91],[18.24,31.06],[17.07,31.54],[17.37,30.91]]],[[[1.07,39.11],[1.41,38.35],[2.07,39.0],[1.68,39.53],[1.07,39.11]]],[[[-25.88,37.36],[-24.69,36.67],[-25.12,38.06],[-26.24,37.98],[-25.88,37.36]]],[[[-170.97,63.32],[-169.13,62.75],[-168.53,63.32],[-170.55,64.13],[-172.72,63.65],[-170.97,63.32]]],[[[-67.0,17.88],[-64.1,18.69],[-66.94,18.74],[-67.0,17.88]]],[[[-73.32,-53.53],[-73.55,-52.46],[-74.6,-52.32],[-74.76,-53.35],[-73.32,-53.53]]],[[[52.63,28.46],[53.46,29.29],[52.4,29.49],[52.63,28.46]]],[[[119.89,28.76],[120.21,29.43],[118.92,29.33],[119.89,28.76]]],[[[72.97,20.43],[72.74,21.2],[72.37,20.05],[72.97,18.34],[72.97,20.43]]],[[[-175.83,-43.94],[-177.27,-43.72],[-176.17,-44.68],[-175.83,-43.94]]],[[[75.52,11.37],[76.12,11.24],[75.53,12.09],[75.52,11.37]]],[[[-77.25,72.52],[-74.95,71.81],[-73.91,72.1],[-74.8,72.7],[-81.53,72.8],[-80.44,72.23],[-77.25,72.52]]],[[[153.38,48.49],[151.37,46.85],[153.36,47.39],[153.38,48.49]]],[[[59.26,31.57],[59.65,31.9],[59.01,32.26],[59.26,31.57]]],[[[69.18,-49.83],[70.21,-49.6],[68.44,-49.37],[69.18,-49.83]]],[[[-90.05,20.63],[-90.27,21.24],[-90.71,20.25],[-90.05,20.63]]],[[[167.96,69.47],[170.77,68.5],[169.93,67.81],[172.9,68.14],[171.36,68.96],[171.04,70.27],[168.06,70.14],[166.79,69.63],[167.96,69.47]]],[[[21.43,32.69],[25.46,31.63],[21.75,33.41],[19.83,32.23],[20.11,30.91],[20.32,32.08],[21.43,32.69]]],[[[155.52,64.37],[153.52,64.49],[152.23,63.56],[155.52,64.37]]],[[[27.61,-33.28],[22.51,-34.07],[24.75,-34.51],[27.61,-33.28]]],[[[-76.19,5.88],[-75.15,6.06],[-76.14,7.41],[-76.19,5.88]]],[[[-54.11,-34.28],[-55.04,-35.16],[-53.99,-34.85],[-54.11,-34.28]]],[[[-70.39,-53.44],[-71.44,-53.33],[-69.18,-52.74],[-68.28,-53.28],[-68.02,-52.36],[-72.28,-52.41],[-72.13,-53.88],[-70.2,-54.59],[-69.27,-53.47],[-70.39,-53.44]]],[[[-57.06,72.66],[-55.95,71.99],[-55.22,73.46],[-56.94,73.5],[-57.06,72.66]]],[[[-72.36,-54.68],[-71.23,-54.76],[-72.73,-54.02],[-72.36,-54.68]]],[[[-57.05,-37.1],[-56.93,-37.63],[-56.49,-36.65],[-57.05,-37.1]]],[[[122.35,20.65],[121.78,21.03],[121.63,20.12],[122.35,20.65]]],[[[-35.39,-54.44],[-38.61,-54.27],[-36.14,-55.12],[-35.39,-54.44]]],[[[160.6,65.07],[161.6,64.96],[160.91,65.55],[160.6,65.07]]],[[[-62.23,47.84],[-62.18,47.01],[-61.11,47.47],[-61.32,48.09],[-62.23,47.84]]],[[[152.85,62.29],[154.96,62.9],[154.17,63.45],[152.1,63.07],[151.48,62.48],[152.85,62.29]]],[[[-28.0,38.35],[-26.67,39.1],[-27.89,39.52],[-29.17,38.49],[-28.0,38.35]]],[[[-104.16,71.49],[-103.68,71.89],[-104.53,72.21],[-105.88,72.12],[-105.0,71.81],[-105.32,71.16],[-102.91,70.19],[-99.16,70.37],[-100.65,71.05],[-102.44,70.59],[-104.16,71.49]]],[[[141.39,24.17],[141.89,24.32],[141.22,25.58],[141.39,24.17]]],[[[-43.26,-23.15],[-42.65,-22.71],[-44.01,-22.9],[-43.26,-23.15]]],[[[-58.06,75.41],[-59.01,75.84],[-59.52,75.23],[-58.06,75.41]]],[[[28.3,-28.72],[27.87,-29.6],[29.24,-30.06],[29.67,-29.18],[28.97,-28.43],[28.3,-28.72]]],[[[94.9,26.68],[95.05,25.6],[95.59,26.28],[94.9,26.68]]],[[[180.0,71.66],[177.81,70.81],[180.0,70.79],[180.0,71.66]]],[[[-180.0,70.79],[-177.63,70.73],[-177.03,71.37],[-179.27,71.87],[-180.0,71.66],[-180.0,70.79]]],[[[145.0,13.11],[145.23,14.33],[144.41,13.61],[145.0,13.11]]],[[[29.05,78.66],[30.19,78.97],[28.09,79.02],[29.05,78.66]]],[[[31.25,-29.19],[30.55,-30.11],[31.01,-30.26],[32.57,-28.59],[31.25,-29.19]]],[[[61.57,27.67],[62.17,27.31],[62.42,28.07],[61.57,27.67]]],[[[-171.64,60.29],[-173.85,60.84],[-173.2,59.99],[-171.64,60.29]]],[[[-97.61,76.28],[-98.45,76.14],[-97.49,75.8],[-98.19,75.18],[-93.26,74.05],[-92.45,74.42],[-93.23,74.78],[-96.58,75.46],[-91.49,75.51],[-97.61,76.28]]],[[[-160.08,22.21],[-160.98,21.41],[-158.9,21.9],[-160.08,22.21]]],[[[-97.85,73.74],[-94.82,74.04],[-98.01,74.46],[-98.76,74.32],[-97.85,73.74]]],[[[-103.43,18.94],[-103.33,17.92],[-102.41,18.02],[-103.43,18.94]]],[[[-154.65,19.96],[-157.72,21.59],[-157.78,22.25],[-158.68,21.45],[-156.37,20.36],[-156.06,18.56],[-154.93,18.88],[-154.65,19.96]]],[[[-5.99,62.6],[-7.76,61.97],[-6.33,61.22],[-5.99,62.6]]],[[[172.8,52.52],[174.24,52.4],[172.62,53.32],[172.06,53.08],[172.8,52.52]]],[[[-80.91,58.23],[-79.87,58.64],[-79.7,60.07],[-81.17,59.83],[-80.91,58.23]]],[[[121.64,54.88],[123.65,55.27],[122.5,55.78],[120.24,55.19],[120.34,54.6],[121.64,54.88]]],[[[-89.46,73.67],[-94.04,72.7],[-88.87,73.05],[-87.93,73.65],[-89.46,73.67]]],[[[-15.93,23.29],[-15.69,24.4],[-16.4,23.53],[-15.93,23.29]]],[[[64.55,29.18],[64.36,29.87],[63.41,29.7],[64.55,29.18]]],[[[-77.43,73.17],[-76.36,73.47],[-77.84,73.57],[-77.43,73.17]]],[[[-90.91,15.01],[-91.55,15.82],[-91.97,15.31],[-91.54,14.61],[-90.91,15.01]]],[[[49.62,69.67],[47.54,68.91],[50.28,68.72],[50.78,69.29],[49.62,69.67]]],[[[-132.95,62.03],[-130.88,61.87],[-131.22,62.47],[-132.95,62.03]]],[[[87.4,74.02],[84.34,74.8],[85.85,73.8],[87.4,74.02]]],[[[130.96,25.58],[131.74,26.06],[130.84,26.15],[130.96,25.58]]],[[[-118.07,28.68],[-118.24,29.42],[-118.61,28.83],[-118.07,28.68]]],[[[-169.81,16.32],[-169.17,16.92],[-169.76,17.16],[-169.81,16.32]]],[[[-90.99,73.69],[-90.14,74.05],[-91.7,74.06],[-90.99,73.69]]],[[[162.63,66.41],[163.43,66.71],[162.37,66.83],[162.63,66.41]]],[[[151.48,-30.52],[152.27,-30.47],[152.4,-29.45],[151.48,-30.52]]],[[[-106.11,21.49],[-106.68,22.2],[-107.09,21.63],[-106.11,21.49]]],[[[101.53,30.34],[100.55,30.21],[100.98,29.71],[101.53,30.34]]],[[[-79.89,74.95],[-80.99,74.63],[-79.4,74.55],[-79.89,74.95]]],[[[143.39,56.84],[143.03,56.49],[143.8,56.5],[143.39,56.84]]],[[[160.62,69.37],[161.51,69.68],[160.28,69.79],[160.62,69.37]]],[[[69.3,76.28],[69.74,76.69],[68.03,76.59],[69.3,76.28]]],[[[-13.75,57.61],[-13.35,57.91],[-14.1,57.95],[-13.75,57.61]]]]}}]}