{"type":"FeatureCollection","features":[{"type":"Feature","properties":{},"geometry":{"type":"MultiPolygon","coordinates":[[[[125.65,35.24],[125.81,34.95],[125.13,34.87],[124.97,34.11],[126.06,33.98],[126.1,33.1],[127.23,33.16],[126.95,33.95],[127.84,33.92],[128.87,34.45],[129.15,33.66],[128.29,32.81],[128.66,32.39],[129.56,32.33],[129.68,31.82],[129.11,31.24],[130.09,30.44],[129.35,30.18],[129.47,29.65],[128.61,28.75],[129.79,28.98],[129.67,29.53],[130.25,30.12],[131.24,30.46],[131.54,31.89],[132.12,32.45],[133.29,32.45],[133.47,33.24],[134.39,33.16],[135.0,33.92],[135.63,33.1],[137.59,34.48],[138.92,34.39],[139.33,33.66],[139.78,33.63],[139.38,34.6],[140.78,34.96],[140.59,35.57],[141.29,35.64],[140.9,36.62],[141.43,37.3],[141.01,38.04],[141.74,38.11],[142.3,38.79],[142.11,39.41],[142.4,39.75],[141.51,40.99],[141.82,41.57],[141.37,42.3],[142.16,42.39],[143.14,41.87],[144.59,42.87],[145.95,42.9],[146.31,43.49],[147.16,43.55],[146.99,44.17],[147.68,44.85],[150.8,45.8],[150.66,46.43],[151.04,46.76],[150.78,46.91],[149.64,45.91],[147.82,45.57],[147.42,44.99],[146.22,44.58],[145.42,44.75],[144.8,44.3],[143.71,44.36],[142.69,44.87],[142.26,45.83],[142.86,46.28],[143.64,45.91],[144.0,46.49],[142.83,48.28],[143.8,49.08],[144.55,48.24],[145.24,48.92],[143.72,50.79],[144.02,51.34],[143.34,51.76],[143.98,52.43],[143.61,52.98],[143.94,53.31],[143.22,53.75],[143.54,54.32],[142.43,54.64],[142.11,54.29],[142.51,53.74],[141.47,53.6],[139.85,54.89],[138.46,54.59],[138.7,55.18],[137.07,55.77],[138.15,55.95],[138.71,56.92],[139.85,57.09],[140.87,58.19],[140.41,58.53],[139.39,57.42],[138.24,57.24],[137.7,56.27],[136.6,56.09],[136.39,55.49],[135.08,54.93],[133.97,54.94],[133.42,54.43],[131.33,54.2],[129.83,55.06],[127.74,54.77],[126.81,55.1],[126.24,54.18],[123.42,54.51],[119.57,53.7],[119.29,53.16],[118.34,53.41],[118.04,52.5],[115.95,52.8],[115.72,51.89],[114.79,52.11],[113.68,51.78],[113.5,51.61],[114.05,51.41],[114.24,50.87],[113.04,50.34],[114.24,50.16],[114.29,49.07],[113.72,48.63],[114.37,48.3],[114.9,47.38],[115.8,47.08],[114.84,46.41],[116.28,46.17],[115.79,44.98],[114.72,44.48],[113.42,44.89],[113.24,46.42],[112.6,46.73],[111.07,45.94],[109.63,46.33],[109.11,45.84],[107.42,45.76],[106.92,45.26],[105.72,45.04],[106.92,44.03],[106.44,43.53],[105.65,43.57],[105.67,42.96],[104.51,42.71],[103.31,43.06],[102.26,42.39],[100.73,42.64],[100.88,42.25],[100.44,41.71],[100.8,41.16],[100.37,40.62],[100.66,39.85],[102.32,39.46],[101.42,39.01],[102.1,38.78],[102.15,38.17],[102.93,37.57],[103.84,37.42],[103.88,36.82],[102.76,36.3],[102.99,35.56],[104.29,34.95],[104.49,34.61],[104.18,34.11],[104.61,33.63],[104.33,33.34],[104.5,32.78],[103.68,32.11],[103.85,31.54],[102.21,29.92],[102.31,28.65],[101.78,28.25],[101.96,27.64],[101.13,26.67],[100.46,27.09],[100.12,26.06],[98.92,26.04],[98.49,26.55],[98.78,27.12],[98.37,27.86],[97.67,28.03],[97.14,27.6],[96.73,28.33],[95.12,29.24],[94.58,28.57],[93.1,28.17],[92.82,27.6],[91.83,27.17],[91.39,27.65],[90.88,27.2],[89.96,27.69],[89.7,27.34],[90.14,26.86],[92.52,26.79],[93.03,27.24],[93.98,27.2],[94.27,27.77],[95.27,28.19],[96.46,28.0],[96.17,27.43],[95.44,27.36],[94.35,25.76],[93.36,25.33],[93.78,24.58],[93.23,23.64],[94.18,23.59],[93.99,24.21],[95.59,26.28],[96.58,26.69],[97.02,26.19],[96.72,25.61],[97.7,25.78],[97.54,24.1],[96.5,22.96],[96.41,21.98],[97.15,22.3],[97.31,21.42],[98.04,21.73],[97.63,19.65],[98.31,19.47],[98.16,17.71],[98.62,17.67],[98.78,19.43],[99.68,19.1],[99.58,20.49],[100.09,20.94],[100.97,20.36],[100.41,19.41],[101.29,18.82],[101.8,19.27],[102.72,19.18],[103.13,18.63],[104.09,19.03],[104.49,18.48],[104.76,18.82],[104.38,19.62],[105.11,19.91],[104.7,20.45],[105.0,21.03],[104.41,21.97],[104.7,22.54],[105.4,22.58],[106.26,21.98],[108.03,23.31],[108.42,22.77],[108.93,23.18],[109.82,23.04],[108.57,23.95],[107.85,23.7],[107.96,24.64],[109.83,24.83],[110.21,24.29],[109.91,23.74],[111.07,23.91],[111.44,23.37],[111.18,23.06],[110.3,23.21],[110.0,22.65],[110.88,22.51],[111.26,21.97],[112.89,22.53],[112.79,21.83],[111.7,21.9],[111.87,21.51],[112.73,21.36],[113.22,21.75],[114.08,21.6],[114.63,22.45],[116.37,22.57],[116.66,23.1],[117.29,23.08],[118.09,24.18],[119.62,24.62],[120.14,25.26],[120.02,25.81],[120.93,26.21],[120.81,26.75],[122.1,28.1],[121.98,28.63],[122.64,28.72],[122.36,29.56],[123.17,30.47],[122.07,31.5],[122.37,31.99],[121.01,32.68],[121.31,33.17],[120.41,34.06],[120.71,34.48],[120.25,35.5],[121.15,35.65],[121.04,36.17],[121.67,36.08],[121.55,36.6],[122.64,36.64],[123.07,37.63],[121.37,37.79],[121.07,38.44],[122.5,39.02],[123.3,38.69],[123.86,39.79],[124.69,39.45],[124.96,38.95],[124.63,37.73],[126.1,37.66],[125.56,36.91],[125.93,36.54],[125.65,35.24]],[[139.8,41.64],[139.3,41.66],[140.03,41.28],[139.76,40.94],[139.96,40.34],[139.45,39.89],[139.65,39.29],[139.13,38.6],[138.42,38.51],[137.93,37.83],[138.14,37.24],[137.68,37.26],[137.02,38.32],[136.32,37.53],[136.54,36.95],[135.86,35.93],[133.92,35.87],[133.26,36.66],[132.85,36.22],[133.08,35.66],[131.67,34.89],[130.81,34.92],[130.64,34.16],[129.57,34.51],[129.7,37.18],[127.83,39.7],[128.65,39.75],[129.45,40.24],[129.61,40.8],[130.25,40.94],[129.99,41.48],[130.59,42.29],[131.26,42.22],[131.69,42.69],[132.6,42.73],[133.08,42.3],[133.53,42.77],[134.24,42.68],[135.19,43.16],[135.68,44.08],[136.42,44.21],[136.94,45.14],[137.71,45.27],[140.93,49.1],[140.65,49.65],[141.22,50.09],[140.75,51.26],[141.04,51.59],[142.06,51.3],[141.48,50.64],[141.85,50.11],[141.55,50.0],[141.85,49.67],[141.42,48.41],[141.94,47.94],[141.62,47.59],[141.84,47.01],[140.91,45.97],[141.69,45.6],[140.87,45.5],[141.34,44.79],[141.04,44.44],[141.25,43.85],[140.18,43.4],[139.35,42.36],[140.08,41.99],[139.8,41.64]],[[117.4,45.9],[116.72,45.65],[116.56,46.2],[116.97,46.43],[117.4,45.9]],[[118.21,52.3],[118.75,52.08],[118.16,51.93],[118.21,52.3]],[[123.1,51.87],[122.32,51.03],[121.81,51.26],[122.12,51.79],[123.1,51.87]],[[118.67,44.66],[118.63,44.34],[118.24,44.49],[118.67,44.66]],[[116.79,44.16],[117.98,44.1],[117.22,43.28],[116.79,44.16]],[[120.63,47.12],[119.98,47.19],[120.28,48.02],[120.75,47.8],[120.63,47.12]],[[134.8,50.33],[134.11,50.48],[134.61,50.96],[134.96,50.89],[134.8,50.33]],[[134.99,51.87],[134.83,51.31],[134.19,51.25],[134.33,51.81],[132.88,52.11],[132.35,52.61],[133.97,52.89],[132.76,53.33],[133.74,53.55],[133.89,54.13],[135.29,54.26],[135.04,53.89],[135.56,53.37],[135.01,52.88],[135.51,52.36],[134.99,51.87]],[[119.71,39.64],[121.26,40.69],[122.08,40.59],[121.23,40.0],[120.88,38.59],[120.39,38.35],[120.51,37.85],[119.86,37.93],[119.71,37.21],[119.29,37.32],[119.6,37.72],[119.25,38.19],[117.96,38.52],[119.36,39.07],[119.71,39.64]],[[98.38,20.21],[98.18,20.6],[98.69,21.06],[98.89,20.67],[98.38,20.21]],[[129.39,53.72],[129.57,54.09],[130.25,54.18],[130.75,53.9],[129.39,53.72]],[[117.48,50.71],[116.25,51.32],[117.01,51.64],[117.92,51.4],[118.04,50.85],[117.48,50.71]],[[131.62,53.55],[131.13,53.83],[131.82,53.91],[131.62,53.55]]],[[[41.21,41.04],[41.83,41.43],[41.83,41.83],[42.76,42.2],[39.93,43.55],[39.92,44.36],[40.73,44.12],[40.73,44.52],[39.74,44.97],[37.93,44.83],[37.25,45.25],[38.4,45.82],[38.37,46.61],[39.19,46.79],[39.14,47.62],[37.17,46.84],[36.3,47.06],[34.79,46.47],[34.86,45.67],[34.21,45.27],[33.15,45.66],[33.79,46.07],[33.6,46.27],[32.76,46.06],[32.02,46.45],[31.97,46.85],[30.57,46.81],[30.48,46.2],[29.64,45.96],[29.55,45.35],[28.72,45.1],[28.64,44.48],[27.68,45.04],[27.61,44.42],[28.16,44.25],[28.43,43.64],[27.35,42.94],[27.55,41.69],[26.68,41.84],[26.22,41.59],[26.16,40.94],[25.1,41.27],[23.78,41.14],[23.2,40.65],[22.34,40.76],[22.58,38.84],[23.63,38.52],[23.71,38.1],[21.3,38.67],[20.58,39.67],[19.83,40.0],[19.52,41.25],[20.08,41.76],[19.31,42.08],[19.2,42.49],[17.77,42.7],[16.06,44.32],[14.93,44.55],[15.37,44.83],[16.74,44.44],[17.52,44.77],[20.9,43.99],[21.22,43.4],[21.56,43.44],[21.37,44.25],[21.95,44.74],[21.63,45.32],[22.23,45.8],[21.43,46.12],[22.03,46.6],[21.7,47.17],[23.29,48.14],[22.51,49.06],[21.68,49.37],[21.81,49.58],[25.14,48.89],[24.6,49.64],[27.1,50.19],[27.91,49.85],[29.38,49.91],[29.65,49.34],[30.8,48.99],[33.32,49.03],[34.97,50.56],[34.21,50.94],[34.74,51.13],[35.67,53.03],[37.59,53.77],[37.72,54.39],[41.12,55.77],[40.9,56.39],[39.91,56.14],[39.08,56.52],[39.86,56.96],[39.62,57.57],[39.21,57.55],[39.05,56.93],[37.17,57.43],[35.58,57.31],[34.87,56.85],[34.94,56.45],[35.77,56.11],[35.95,54.9],[35.43,54.65],[35.34,54.03],[32.5,52.81],[32.38,52.25],[28.21,51.21],[27.77,53.43],[26.91,53.76],[27.61,54.15],[29.18,54.21],[29.27,54.75],[30.8,54.82],[30.82,55.43],[31.3,55.69],[27.85,55.77],[25.25,56.35],[24.91,56.85],[24.24,56.99],[24.96,57.38],[24.66,58.38],[23.6,58.98],[24.57,59.51],[25.47,59.27],[26.95,59.51],[27.37,58.98],[29.65,58.7],[30.03,58.15],[31.03,58.07],[31.14,57.68],[32.01,57.38],[32.97,58.29],[32.78,59.07],[33.82,59.98],[33.37,60.94],[31.58,61.14],[31.19,61.69],[28.97,61.2],[28.55,61.74],[27.86,61.84],[26.93,61.5],[26.48,62.02],[21.9,62.18],[21.76,62.75],[22.84,62.76],[23.42,63.27],[23.21,63.62],[24.76,64.49],[22.27,64.04],[21.31,63.45],[21.08,63.8],[22.05,64.39],[21.57,65.08],[23.03,65.75],[24.89,65.49],[24.34,65.2],[24.55,64.85],[25.74,64.85],[25.13,65.92],[22.36,66.02],[20.84,65.13],[21.24,64.22],[19.67,63.89],[17.06,62.15],[17.21,61.85],[16.49,61.46],[17.1,60.72],[16.53,60.49],[16.55,60.01],[14.89,59.3],[15.88,59.09],[15.21,58.67],[16.34,58.14],[16.64,57.48],[16.1,57.24],[16.13,56.72],[15.08,56.23],[13.08,56.46],[12.24,58.07],[13.81,58.82],[13.48,59.44],[11.67,58.32],[10.95,59.56],[10.25,59.61],[10.32,59.12],[9.23,59.09],[7.26,58.03],[6.14,58.59],[5.58,59.66],[6.15,60.06],[4.62,60.69],[5.21,59.63],[4.66,59.22],[5.59,58.92],[5.68,58.37],[6.49,57.87],[7.84,57.8],[9.81,58.86],[10.8,58.69],[11.16,58.06],[7.84,57.1],[8.02,56.79],[7.46,56.31],[7.93,55.87],[7.37,55.39],[8.29,55.23],[7.83,54.95],[7.92,54.41],[7.02,53.84],[4.98,53.55],[4.15,53.01],[4.25,52.42],[2.28,51.11],[1.51,51.61],[2.17,52.73],[1.98,53.11],[0.49,53.49],[0.13,54.45],[-0.79,54.72],[-1.43,56.03],[-2.4,56.29],[-1.55,56.81],[-1.74,57.38],[-1.3,57.64],[-3.0,58.0],[-2.5,58.46],[-2.76,58.81],[-1.94,59.12],[-2.2,59.47],[-3.31,59.52],[-3.75,59.26],[-3.53,58.71],[-5.35,58.83],[-5.11,58.27],[-5.97,57.73],[-6.68,57.81],[-6.22,58.29],[-6.56,58.43],[-7.36,58.09],[-7.82,57.6],[-6.47,57.03],[-6.93,56.53],[-6.35,55.81],[-7.81,55.52],[-9.02,54.41],[-10.44,54.08],[-9.54,52.98],[-10.67,51.8],[-9.42,51.24],[-6.03,52.05],[-5.48,53.25],[-6.01,53.99],[-4.95,54.2],[-4.7,53.83],[-5.09,53.54],[-5.01,52.28],[-5.77,51.68],[-4.85,51.45],[-4.64,50.84],[-5.6,50.85],[-6.7,49.92],[-6.45,49.54],[-5.76,49.93],[-4.86,49.7],[-3.56,50.0],[-2.81,50.59],[-1.34,50.25],[-0.63,50.6],[1.18,50.52],[0.74,50.02],[-0.16,50.06],[-0.02,49.45],[-0.91,49.49],[-1.98,50.12],[-3.47,48.93],[-5.35,48.7],[-4.91,47.7],[-3.74,47.55],[-1.91,46.45],[-1.3,45.28],[-1.65,44.97],[-1.65,43.64],[-3.82,43.95],[-4.46,43.54],[-8.1,44.05],[-9.63,43.32],[-8.88,42.14],[-9.22,41.55],[-8.72,41.01],[-9.34,40.31],[-9.13,39.67],[-9.96,39.61],[-9.01,38.04],[-9.33,37.43],[-8.85,36.9],[-6.77,36.74],[-6.15,35.56],[-6.74,34.86],[-6.53,34.47],[-5.38,35.62],[-4.95,35.08],[-3.7,35.07],[-3.89,35.46],[-4.88,35.57],[-5.04,36.2],[-3.97,36.59],[-2.26,36.26],[-1.33,37.25],[-0.58,37.26],[-0.21,37.82],[-0.38,38.21],[0.25,38.85],[-0.09,39.63],[1.23,40.9],[2.02,40.94],[2.42,41.49],[3.59,41.85],[3.25,42.6],[3.67,43.16],[6.35,42.85],[8.77,44.1],[10.12,43.78],[9.23,42.94],[8.37,42.94],[8.52,42.55],[8.05,42.01],[8.97,41.37],[8.05,41.14],[8.35,40.35],[7.9,39.8],[8.19,39.0],[8.94,38.75],[10.0,39.45],[9.72,40.25],[9.09,39.23],[8.42,39.72],[9.12,40.98],[10.11,40.56],[9.61,42.38],[11.56,42.18],[11.7,41.78],[12.47,41.52],[12.74,40.71],[14.67,40.44],[14.8,40.03],[15.55,39.73],[15.69,38.66],[12.9,38.12],[14.16,37.71],[14.88,38.07],[15.21,37.47],[15.52,37.53],[17.27,38.94],[16.32,38.78],[15.97,40.03],[14.55,40.85],[14.65,41.09],[15.39,41.44],[15.73,40.85],[17.02,41.08],[17.14,40.66],[16.29,40.08],[16.62,39.49],[17.25,40.25],[18.43,39.57],[18.97,40.09],[18.86,40.51],[17.78,40.77],[17.45,41.36],[16.58,41.43],[15.57,42.54],[14.81,42.19],[14.46,42.77],[13.91,42.88],[13.74,43.9],[12.95,44.17],[12.67,44.95],[13.1,45.25],[14.86,43.69],[15.98,43.47],[15.54,43.18],[15.67,42.78],[18.98,42.03],[19.5,39.3],[20.24,38.97],[20.33,37.88],[21.37,37.59],[21.55,36.73],[22.78,36.22],[23.21,36.5],[23.04,37.36],[22.09,37.24],[21.91,38.1],[23.99,37.47],[24.75,37.77],[24.82,37.34],[23.95,36.8],[24.9,36.91],[25.17,36.28],[26.04,36.8],[25.19,38.04],[24.15,38.36],[24.71,38.86],[24.63,39.29],[23.46,39.38],[24.35,39.91],[24.39,40.56],[24.85,40.82],[25.38,40.66],[25.46,40.23],[24.88,39.75],[25.08,39.55],[26.06,39.64],[25.48,39.15],[26.2,38.79],[25.63,38.3],[26.34,37.93],[26.29,37.27],[27.93,35.87],[28.49,36.36],[28.37,37.22],[27.36,37.58],[27.1,38.21],[26.59,38.39],[27.16,38.87],[27.03,39.72],[26.31,40.09],[26.44,40.32],[28.79,40.07],[30.31,41.01],[31.15,40.84],[33.17,41.96],[34.01,41.77],[33.97,42.18],[33.13,42.38],[31.1,41.26],[29.79,41.2],[28.74,41.56],[28.48,42.18],[27.95,42.35],[28.02,42.99],[28.97,43.46],[28.85,44.29],[29.67,44.53],[29.75,45.15],[30.64,44.99],[30.59,45.39],[30.04,45.57],[31.18,46.22],[32.07,46.04],[32.16,45.24],[32.7,45.05],[32.93,44.44],[33.98,44.04],[36.42,45.06],[37.78,44.63],[37.96,44.02],[38.78,44.2],[38.96,43.58],[41.36,42.47],[41.21,41.46],[40.27,41.08],[39.49,41.31],[39.5,40.9],[40.28,40.67],[41.21,41.04]],[[0.87,42.75],[1.91,42.62],[1.56,42.29],[-0.21,42.69],[0.12,43.0],[0.87,42.75]],[[-0.64,39.47],[-0.91,39.39],[-0.78,38.76],[-2.36,37.14],[-3.43,36.77],[-3.85,37.32],[-5.17,37.09],[-4.83,37.67],[-5.07,37.82],[-6.17,37.43],[-6.93,37.62],[-7.51,37.17],[-7.98,37.71],[-7.64,38.31],[-7.87,38.7],[-7.25,39.4],[-5.13,39.19],[-3.18,39.83],[-2.16,41.04],[-1.03,41.36],[0.06,40.34],[-0.64,39.47]],[[12.2,46.72],[12.05,47.1],[12.63,47.01],[12.2,46.72]],[[12.93,42.68],[13.58,42.81],[13.62,42.18],[14.17,42.07],[14.3,41.67],[13.43,41.71],[12.93,42.68]],[[18.55,60.55],[17.23,61.38],[19.92,63.55],[20.62,63.5],[20.09,62.99],[21.08,62.81],[20.56,62.3],[21.22,61.25],[19.7,60.49],[18.55,60.55]],[[35.67,46.27],[36.32,46.66],[37.69,46.63],[37.88,46.03],[35.38,45.47],[35.17,46.07],[35.67,46.27]],[[-4.35,53.9],[-3.65,54.03],[-3.45,53.44],[-4.35,53.9]],[[23.93,58.0],[24.29,57.51],[23.72,57.3],[23.36,57.79],[23.93,58.0]],[[17.5,54.93],[14.94,54.22],[13.87,54.78],[12.35,54.53],[12.19,54.87],[14.22,55.38],[14.64,54.9],[15.68,54.87],[15.65,55.41],[14.84,55.83],[15.9,55.8],[16.94,56.3],[16.93,56.82],[17.46,57.06],[16.9,57.86],[17.58,58.28],[17.43,58.61],[19.53,59.33],[19.54,59.82],[22.37,59.4],[21.19,58.47],[21.7,57.66],[20.56,56.7],[21.07,55.86],[20.53,55.63],[20.51,55.09],[19.46,55.16],[19.59,54.82],[19.06,54.58],[18.67,55.08],[17.5,54.93]],[[22.14,58.21],[22.03,58.54],[22.72,58.42],[22.14,58.21]],[[-3.33,56.75],[-4.7,56.93],[-4.28,57.2],[-3.33,56.75]],[[12.41,56.53],[11.74,56.59],[12.24,56.85],[12.41,56.53]],[[7.19,44.55],[6.8,44.24],[5.92,45.05],[8.23,46.67],[8.39,46.3],[6.87,45.3],[7.19,44.55]],[[9.95,46.45],[9.38,46.53],[9.88,47.05],[11.47,47.19],[10.52,46.37],[9.95,46.45]],[[23.27,56.75],[22.05,56.65],[21.67,57.14],[22.79,57.58],[23.27,56.75]],[[28.14,41.09],[27.62,41.27],[27.75,41.49],[28.08,41.51],[28.14,41.09]],[[11.4,57.24],[11.57,56.92],[10.4,56.71],[11.4,57.24]],[[20.71,49.46],[21.31,49.33],[20.82,49.07],[20.71,49.46]],[[1.91,45.8],[1.74,46.19],[2.82,46.05],[3.11,45.1],[3.83,44.68],[2.74,44.78],[2.63,45.37],[2.09,45.41],[1.91,45.8]],[[27.15,41.02],[27.22,40.6],[26.69,40.77],[27.15,41.02]]],[[[108.94,53.99],[107.87,53.88],[107.86,53.26],[105.53,51.92],[104.94,52.05],[104.67,52.85],[102.82,53.22],[102.36,52.93],[103.99,52.12],[104.28,51.31],[105.66,51.52],[106.22,52.01],[107.14,51.93],[107.15,52.55],[108.44,53.11],[108.46,53.73],[108.94,53.99]]],[[[35.27,64.67],[34.79,64.63],[34.88,64.25],[36.33,64.37],[35.27,64.67]]],[[[160.05,53.5],[159.88,53.88],[158.5,53.22],[156.87,53.53],[156.67,53.9],[157.24,54.42],[156.69,54.94],[157.52,56.14],[157.28,56.51],[157.8,56.82],[157.56,57.2],[156.79,57.27],[155.29,56.34],[155.55,55.97],[155.0,55.43],[155.83,54.56],[155.3,54.03],[156.59,52.01],[156.13,51.7],[156.23,51.09],[155.23,51.08],[155.42,50.7],[154.89,50.15],[156.16,50.01],[158.46,51.54],[158.28,51.93],[158.86,52.46],[158.68,52.84],[160.22,53.12],[160.05,53.5]],[[158.1,52.31],[157.44,52.39],[157.91,52.7],[158.1,52.31]]],[[[98.62,-1.14],[99.25,-1.56],[98.87,-0.79],[98.62,-1.14]]],[[[145.76,59.7],[143.2,59.68],[142.78,59.55],[143.23,59.2],[149.11,59.16],[151.77,59.78],[145.76,59.7]]],[[[101.11,7.05],[100.85,6.68],[101.74,6.61],[101.11,7.05]]],[[[-50.08,-30.77],[-49.31,-28.91],[-48.65,-28.75],[-48.0,-27.37],[-48.62,-26.55],[-47.98,-25.13],[-45.93,-23.74],[-45.39,-24.14],[-44.58,-23.57],[-44.3,-22.59],[-47.26,-22.85],[-47.62,-23.36],[-48.32,-23.32],[-49.13,-23.87],[-48.8,-24.41],[-49.45,-24.59],[-49.57,-25.18],[-48.83,-25.44],[-49.52,-26.63],[-48.61,-27.76],[-49.43,-28.27],[-50.2,-30.15],[-51.1,-30.21],[-50.98,-30.83],[-51.63,-30.98],[-51.22,-31.87],[-50.73,-30.92],[-50.08,-30.77]]],[[[34.63,35.59],[32.8,35.52],[32.36,35.29],[32.27,34.62],[33.21,34.23],[34.09,34.7],[34.19,35.36],[34.63,35.59]],[[33.18,34.67],[32.7,34.86],[32.84,35.09],[33.14,35.1],[33.18,34.67]]],[[[106.06,3.56],[105.58,3.09],[105.76,2.7],[106.66,3.13],[106.06,3.56]]],[[[-31.3,39.16],[-30.78,39.48],[-31.45,39.91],[-31.71,39.75],[-31.3,39.16]]],[[[-82.78,29.4],[-83.21,29.44],[-82.82,28.7],[-83.12,27.41],[-82.49,27.25],[-81.95,25.91],[-81.34,25.75],[-80.81,24.66],[-79.91,25.77],[-79.83,26.7],[-80.19,27.19],[-79.94,27.76],[-81.4,30.47],[-81.14,31.03],[-81.81,30.74],[-81.64,30.14],[-82.12,29.47],[-82.78,29.4]]],[[[-120.75,34.15],[-120.06,33.54],[-118.55,33.85],[-118.8,32.78],[-117.86,33.22],[-117.52,32.9],[-117.62,32.24],[-116.33,31.2],[-116.16,31.61],[-116.84,32.26],[-116.45,32.84],[-116.84,33.41],[-115.99,33.18],[-115.82,33.59],[-116.96,33.89],[-117.65,34.53],[-120.38,34.74],[-120.8,35.28],[-120.64,35.69],[-121.64,36.34],[-121.56,36.98],[-121.92,37.27],[-121.4,37.39],[-120.33,36.5],[-119.98,36.2],[-120.07,35.56],[-119.43,35.19],[-118.89,36.17],[-119.59,36.78],[-119.5,37.42],[-120.87,38.36],[-120.78,38.99],[-122.18,39.9],[-122.1,40.52],[-122.77,40.01],[-122.12,38.82],[-122.85,38.53],[-123.51,38.86],[-123.66,40.16],[-124.7,40.75],[-124.84,40.35],[-124.17,40.04],[-124.02,38.74],[-123.36,38.41],[-123.43,37.78],[-122.64,37.85],[-122.71,37.21],[-122.06,36.87],[-122.14,36.23],[-121.15,35.58],[-121.23,34.93],[-120.6,34.56],[-120.75,34.15]]],[[[-57.71,-36.0],[-57.27,-36.0],[-56.99,-35.26],[-57.93,-34.89],[-58.08,-34.13],[-59.33,-34.29],[-59.44,-34.83],[-57.86,-35.26],[-57.71,-36.0]]],[[[-95.3,29.01],[-93.86,29.79],[-94.6,29.9],[-95.12,30.65],[-95.86,30.51],[-96.38,31.0],[-97.38,30.97],[-96.22,32.88],[-96.78,33.61],[-97.77,33.09],[-97.43,31.73],[-97.88,30.96],[-98.63,30.8],[-99.28,29.38],[-98.03,29.31],[-97.56,29.83],[-96.57,29.86],[-95.56,29.39],[-95.77,28.75],[-95.3,29.01]]],[[[-122.17,47.45],[-121.76,47.97],[-122.24,48.42],[-121.91,49.14],[-123.22,49.3],[-124.2,49.96],[-124.7,49.83],[-124.77,49.27],[-123.54,48.58],[-124.11,48.45],[-124.92,48.91],[-125.16,48.75],[-124.75,48.52],[-124.82,47.96],[-123.7,48.21],[-122.9,47.73],[-123.46,46.83],[-122.98,46.38],[-123.45,45.26],[-124.23,44.96],[-124.88,42.83],[-124.35,42.96],[-123.61,44.88],[-123.22,44.62],[-123.68,43.48],[-123.14,43.6],[-122.35,45.5],[-122.82,45.96],[-122.17,47.45]]],[[[-62.2,17.67],[-61.87,16.81],[-61.58,17.52],[-62.2,17.67]]],[[[87.36,27.59],[84.59,28.26],[85.24,27.23],[89.2,26.88],[89.46,27.23],[88.54,27.7],[88.04,27.24],[87.36,27.59]]],[[[48.3,29.0],[48.47,29.61],[49.51,29.96],[49.55,30.37],[48.76,30.01],[48.13,30.25],[47.57,29.45],[48.35,27.96],[49.66,27.28],[49.7,27.68],[48.74,28.15],[48.3,29.0]]],[[[101.93,6.21],[102.55,5.77],[102.18,6.57],[101.93,6.21]]],[[[107.94,51.61],[108.39,51.87],[107.83,52.01],[107.94,51.61]]],[[[38.07,41.14],[36.43,41.99],[35.64,41.78],[35.43,42.4],[34.48,41.98],[36.16,41.16],[36.95,41.36],[38.4,40.72],[39.02,41.12],[38.86,41.33],[38.07,41.14]]],[[[-61.26,15.47],[-61.01,16.39],[-61.84,16.61],[-61.65,15.37],[-61.2,15.05],[-61.26,15.47]]],[[[-41.38,-22.04],[-42.03,-22.26],[-41.9,-22.95],[-41.08,-22.35],[-40.5,-20.58],[-40.95,-20.65],[-41.38,-22.04]]],[[[22.91,-33.85],[22.51,-34.07],[22.68,-34.25],[22.97,-34.24],[22.91,-33.85]]],[[[101.19,-1.82],[100.57,-1.41],[100.73,-2.04],[101.19,-1.82]]],[[[-86.82,43.02],[-87.97,43.12],[-87.85,41.84],[-86.74,41.73],[-85.71,42.67],[-85.94,43.05],[-86.82,43.02]]],[[[-28.0,38.35],[-26.87,38.44],[-26.67,39.1],[-27.89,39.52],[-29.17,38.49],[-28.83,38.14],[-28.0,38.35]]],[[[119.2,23.24],[119.35,22.86],[120.17,22.83],[120.63,21.79],[121.69,21.84],[121.12,22.22],[121.8,22.52],[121.53,23.44],[122.43,25.07],[122.12,25.74],[120.75,25.13],[119.93,23.95],[119.3,23.9],[119.2,23.24]]],[[[152.38,58.79],[152.05,59.16],[151.56,58.83],[152.38,58.79]]],[[[55.61,25.9],[56.37,25.73],[56.54,26.47],[55.61,25.9]]],[[[-57.77,-34.6],[-56.83,-34.98],[-55.32,-34.88],[-57.18,-34.32],[-57.77,-34.6]]],[[[95.84,5.79],[95.18,5.97],[94.93,5.6],[95.34,5.06],[95.84,5.79]]],[[[-82.3,41.2],[-81.87,40.67],[-80.65,40.96],[-80.77,41.56],[-78.83,43.04],[-77.53,43.3],[-77.61,43.92],[-78.6,44.58],[-80.11,44.7],[-80.0,44.08],[-80.79,43.47],[-81.69,43.48],[-81.13,42.33],[-82.06,42.11],[-81.87,41.73],[-82.3,41.2]]],[[[95.6,2.48],[96.67,2.02],[96.09,3.21],[95.6,2.48]]],[[[18.13,58.0],[18.41,57.86],[17.73,57.44],[18.28,56.63],[18.68,56.68],[18.68,57.2],[19.23,57.43],[18.95,57.58],[19.65,57.99],[18.13,58.0]]],[[[139.53,33.3],[139.29,32.97],[140.18,32.89],[139.53,33.3]]],[[[32.55,36.6],[30.76,37.16],[30.32,36.92],[30.24,36.26],[30.73,36.07],[30.81,36.73],[31.12,36.75],[33.24,35.76],[35.02,36.68],[34.54,36.89],[33.2,36.19],[32.55,36.6]]],[[[-64.95,17.94],[-64.89,17.55],[-64.35,17.8],[-64.95,17.94]]],[[[101.23,3.45],[100.95,2.84],[101.57,2.41],[100.47,2.37],[100.09,3.16],[98.81,3.77],[98.64,4.42],[97.99,4.6],[97.61,5.4],[96.04,5.39],[96.4,4.34],[95.77,4.77],[95.71,4.0],[97.0,3.4],[97.38,2.6],[97.11,1.99],[97.8,2.32],[98.18,1.53],[99.02,0.96],[99.08,1.71],[99.57,2.18],[101.12,-0.2],[101.94,-0.76],[102.8,-0.82],[102.71,-1.81],[105.02,-2.34],[104.42,-1.93],[104.52,-0.95],[105.0,-0.49],[104.64,0.28],[104.92,0.89],[104.19,2.2],[104.46,2.81],[103.83,2.99],[103.46,3.78],[103.74,4.39],[102.36,3.74],[102.27,2.73],[101.83,2.77],[101.46,3.56],[101.55,4.57],[102.06,5.3],[101.67,5.84],[101.18,5.37],[101.09,4.35],[100.42,4.28],[100.58,3.63],[101.23,3.45]],[[97.89,3.33],[98.58,3.66],[98.5,2.65],[97.61,2.71],[97.89,3.33]],[[104.42,0.18],[104.32,-0.81],[103.46,-0.75],[103.96,-0.04],[103.81,0.6],[104.42,0.18]],[[102.63,1.94],[103.43,1.13],[102.56,1.19],[102.63,1.94]],[[99.15,2.47],[98.75,3.01],[99.0,3.37],[99.4,2.83],[99.15,2.47]]],[[[162.31,57.11],[162.61,56.95],[161.93,56.44],[161.51,56.38],[161.01,56.92],[160.04,56.57],[158.99,55.98],[159.11,55.38],[158.12,54.79],[160.02,54.92],[159.93,55.52],[160.44,55.81],[160.24,56.19],[161.39,56.16],[161.88,55.62],[162.41,55.9],[162.24,56.28],[163.38,56.23],[163.18,57.23],[162.31,57.11]]],[[[25.27,-34.08],[26.07,-33.62],[25.6,-33.46],[24.8,-33.92],[24.87,-34.31],[25.27,-34.08]]],[[[131.54,26.2],[130.96,25.58],[131.7,25.84],[131.54,26.2]]],[[[98.05,8.07],[99.09,7.09],[99.58,7.56],[98.75,8.4],[98.05,8.07]]],[[[-14.18,28.15],[-13.69,28.15],[-13.18,28.89],[-13.65,29.65],[-14.67,28.4],[-14.18,28.15]]],[[[100.0,-0.49],[99.83,0.14],[99.39,0.18],[99.56,-0.46],[100.0,-0.49]]],[[[145.28,-37.79],[144.43,-37.79],[143.64,-38.69],[145.65,-38.62],[145.28,-37.79]]],[[[153.8,48.81],[154.42,48.74],[155.36,49.61],[154.11,49.75],[154.22,49.13],[153.26,49.11],[153.46,48.72],[153.8,48.81]]],[[[98.56,11.52],[98.39,12.18],[97.93,12.22],[98.11,11.56],[98.56,11.52]]],[[[100.72,5.15],[100.55,5.81],[100.11,5.84],[100.46,4.79],[100.9,4.75],[100.72,5.15]]],[[[-79.87,33.1],[-80.34,32.69],[-80.16,32.32],[-79.69,32.73],[-79.87,33.1]]],[[[-124.2,42.53],[-124.87,42.01],[-124.49,41.75],[-124.56,41.14],[-123.88,40.83],[-123.66,41.0],[-124.34,42.14],[-124.2,42.53]]],[[[107.91,-3.01],[107.47,-3.22],[108.08,-3.38],[108.33,-3.04],[107.91,-3.01]]],[[[-98.84,19.84],[-99.35,20.57],[-100.25,19.99],[-102.11,19.83],[-101.58,19.11],[-100.69,19.7],[-99.93,18.87],[-98.79,19.09],[-98.84,19.84]]],[[[50.97,28.96],[50.66,29.6],[50.24,29.47],[50.96,27.99],[51.99,27.8],[53.49,26.54],[54.5,26.33],[55.51,26.7],[53.56,26.91],[52.05,28.18],[51.37,28.11],[50.97,28.96]]],[[[116.0,4.7],[115.36,4.4],[115.42,3.31],[116.03,3.37],[116.0,4.7]]],[[[-72.74,41.84],[-73.59,41.3],[-74.24,41.8],[-74.22,41.19],[-75.47,40.98],[-76.66,40.15],[-76.6,39.55],[-77.81,39.31],[-77.74,38.72],[-76.2,38.43],[-76.25,39.01],[-75.56,39.34],[-75.31,38.59],[-74.8,38.48],[-74.84,39.07],[-73.74,39.66],[-73.76,40.26],[-73.35,40.52],[-72.52,40.45],[-71.57,41.2],[-69.78,41.24],[-69.75,41.84],[-70.48,42.15],[-70.68,42.95],[-69.77,43.47],[-69.86,43.87],[-71.55,43.04],[-71.89,41.76],[-72.53,42.28],[-72.86,42.23],[-72.74,41.84]]],[[[34.76,31.44],[35.63,31.48],[35.74,32.14],[36.17,32.37],[35.99,33.02],[35.53,33.22],[35.64,33.88],[36.08,34.11],[35.89,34.75],[34.78,33.42],[34.83,32.54],[33.88,31.41],[34.76,31.44]]],[[[121.14,16.86],[121.4,17.19],[121.05,17.69],[120.69,16.65],[121.14,16.86]]],[[[128.97,27.09],[129.14,27.95],[130.12,28.31],[129.51,28.68],[128.4,27.68],[128.53,27.13],[127.68,27.41],[127.8,26.85],[126.35,26.29],[127.23,26.23],[127.6,25.76],[128.97,27.09]]],[[[159.81,54.48],[159.99,54.1],[161.58,54.36],[162.22,54.86],[162.05,55.24],[161.35,55.34],[161.41,54.74],[159.81,54.48]]],[[[176.77,-37.98],[177.08,-38.31],[177.77,-37.86],[176.19,-37.56],[175.73,-36.25],[174.76,-36.6],[174.92,-35.96],[174.03,-34.92],[172.73,-34.66],[173.05,-35.26],[174.12,-35.66],[173.95,-36.3],[174.52,-36.74],[174.35,-37.38],[174.97,-38.06],[176.77,-37.98]]],[[[8.91,36.98],[9.8,37.19],[10.15,36.61],[10.53,36.92],[10.18,37.51],[9.66,37.6],[8.91,36.98]]],[[[-43.1,-22.77],[-43.8,-22.76],[-43.96,-23.13],[-42.81,-23.08],[-42.65,-22.71],[-43.1,-22.77]]],[[[1.09,36.92],[0.29,36.65],[-0.02,36.33],[0.14,35.94],[2.56,36.73],[1.09,36.92]]],[[[-24.77,37.44],[-25.41,38.17],[-26.24,37.98],[-24.95,36.52],[-24.77,37.44]]],[[[42.94,56.02],[43.56,56.24],[42.95,56.44],[41.52,55.78],[42.73,55.39],[42.94,56.02]]],[[[-77.56,34.68],[-79.44,33.05],[-79.01,32.99],[-77.43,34.33],[-77.56,34.68]]],[[[98.71,-0.15],[98.75,0.35],[98.25,-0.37],[98.71,-0.15]]],[[[-124.16,46.34],[-124.47,45.59],[-124.08,45.34],[-123.53,46.26],[-124.01,46.71],[-123.86,47.08],[-124.41,46.95],[-124.56,46.58],[-124.16,46.34]]],[[[-62.31,17.12],[-62.58,17.57],[-62.95,17.47],[-62.69,17.01],[-62.31,17.12]]],[[[-65.7,17.92],[-64.24,18.34],[-64.1,18.69],[-65.2,18.37],[-66.94,18.74],[-67.38,17.89],[-65.7,17.92]]],[[[125.84,24.65],[125.68,25.0],[124.81,25.05],[124.3,24.63],[123.25,24.8],[122.71,24.16],[124.19,23.97],[124.97,24.71],[125.84,24.65]]],[[[-15.9,28.52],[-16.64,28.89],[-17.14,28.38],[-17.9,29.25],[-18.39,28.73],[-17.13,27.62],[-16.39,27.76],[-15.9,28.52]]],[[[-155.46,20.05],[-156.0,20.1],[-155.52,19.61],[-156.0,19.0],[-154.71,19.52],[-155.46,20.05]]],[[[36.22,37.13],[35.33,36.69],[35.96,36.27],[35.52,36.04],[35.54,35.61],[36.43,36.06],[36.22,37.13]]],[[[99.47,6.28],[100.15,6.35],[99.77,7.16],[99.28,6.68],[99.47,6.28]]],[[[153.09,-27.98],[153.27,-28.63],[153.77,-28.68],[153.36,-27.87],[153.68,-27.26],[152.69,-27.17],[153.09,-27.98]]],[[[-15.9,28.02],[-15.66,27.64],[-15.16,28.4],[-15.9,28.02]]],[[[-111.34,32.5],[-110.41,31.72],[-109.66,31.95],[-110.02,32.54],[-110.82,32.57],[-111.86,33.83],[-112.9,33.68],[-112.52,33.1],[-111.72,33.08],[-111.34,32.5]]],[[[-61.44,9.95],[-60.91,10.42],[-61.51,10.39],[-61.44,9.95]]],[[[28.8,-32.56],[29.2,-32.31],[29.13,-31.92],[28.34,-32.41],[28.8,-32.56]]],[[[-77.76,27.2],[-78.56,27.28],[-79.04,26.4],[-78.46,26.23],[-77.63,26.61],[-77.7,25.93],[-77.32,25.89],[-76.83,26.76],[-77.76,27.2]]],[[[3.38,40.06],[2.58,40.03],[2.24,39.71],[2.35,39.09],[3.08,38.88],[3.77,39.52],[4.57,39.54],[4.25,40.32],[3.38,40.06]]],[[[8.25,36.59],[8.62,36.9],[8.4,37.07],[7.09,37.17],[7.24,36.77],[8.25,36.59]]],[[[172.98,-43.46],[172.65,-43.12],[172.17,-43.9],[173.04,-43.94],[173.31,-43.79],[172.98,-43.46]]],[[[177.76,-39.21],[178.27,-39.14],[178.81,-37.96],[178.18,-37.31],[178.0,-37.7],[178.31,-38.03],[177.95,-38.82],[176.93,-38.95],[176.5,-39.5],[177.14,-40.15],[177.38,-40.0],[177.02,-39.43],[177.76,-39.21]]],[[[98.69,10.35],[98.26,10.64],[97.98,10.02],[98.69,10.35]]],[[[121.97,33.27],[121.7,32.98],[122.13,32.98],[121.97,33.27]]],[[[-81.27,32.1],[-81.08,31.73],[-80.59,32.37],[-81.27,32.1]]],[[[15.23,36.81],[15.11,37.23],[14.07,37.47],[13.03,37.7],[12.64,37.4],[14.19,37.05],[14.53,36.45],[15.23,36.81]]],[[[109.15,0.56],[108.98,0.94],[109.7,1.74],[109.54,2.13],[108.56,0.97],[109.04,-0.42],[109.48,-0.21],[109.15,0.56]]],[[[24.34,34.63],[26.2,34.83],[27.18,35.59],[26.68,35.76],[25.82,35.24],[23.8,35.9],[23.26,35.39],[24.34,34.63]]],[[[-158.31,21.2],[-157.5,21.13],[-156.64,20.39],[-155.78,20.74],[-156.64,21.49],[-157.34,21.33],[-157.83,21.81],[-158.31,21.2]]],[[[-105.26,40.22],[-104.96,40.12],[-105.15,39.5],[-104.04,39.58],[-104.74,40.5],[-105.26,40.22]]],[[[123.4,25.68],[123.56,25.34],[124.1,25.98],[123.47,26.12],[123.4,25.68]]],[[[-112.4,41.65],[-113.21,41.42],[-112.13,40.48],[-111.88,40.64],[-112.29,41.18],[-112.09,41.57],[-112.4,41.65]]],[[[105.64,-2.5],[105.79,-3.12],[106.24,-2.9],[105.77,-1.28],[105.3,-1.74],[105.64,-2.5]]],[[[175.05,-40.41],[174.66,-41.44],[175.27,-41.86],[175.52,-41.71],[175.16,-41.13],[175.61,-40.59],[175.05,-40.41]]],[[[154.45,60.1],[153.99,60.01],[154.23,59.39],[152.88,59.12],[154.09,58.92],[155.06,59.33],[154.45,60.1]]],[[[3.82,36.68],[4.32,36.61],[4.16,37.01],[2.89,37.06],[3.05,36.67],[3.82,36.68]]],[[[97.93,1.17],[97.74,1.56],[97.07,1.48],[97.64,0.31],[98.12,0.77],[97.93,1.17]]],[[[-159.75,21.54],[-159.33,21.72],[-159.39,22.38],[-160.24,22.01],[-159.75,21.54]]],[[[176.26,-41.25],[176.46,-40.85],[176.14,-40.53],[175.73,-41.31],[176.26,-41.25]]],[[[-76.04,35.36],[-76.4,35.1],[-75.92,35.0],[-76.04,35.36]]],[[[-1.22,60.16],[-0.76,60.4],[-1.48,60.51],[-2.01,60.07],[-1.22,60.16]]],[[[151.1,-35.02],[150.6,-34.71],[149.89,-35.67],[150.43,-35.73],[151.1,-35.02]]],[[[97.86,14.15],[98.04,13.5],[98.49,13.46],[98.32,14.12],[97.86,14.15]]],[[[-53.01,-33.07],[-53.38,-33.48],[-53.09,-33.76],[-52.73,-33.35],[-53.01,-33.07]]],[[[-63.01,17.86],[-62.64,17.97],[-63.1,18.46],[-63.01,17.86]]],[[[24.4,-34.14],[23.77,-33.79],[23.37,-34.02],[24.0,-34.37],[24.4,-34.14]]],[[[22.86,44.63],[22.39,44.37],[22.7,43.78],[24.36,43.32],[25.3,43.83],[23.98,44.33],[23.17,44.04],[22.86,44.63]]],[[[-176.37,-43.99],[-176.2,-43.62],[-176.73,-43.67],[-176.37,-43.99]]],[[[-76.75,34.84],[-77.09,34.59],[-76.62,34.49],[-76.75,34.84]]],[[[91.73,25.75],[91.25,25.77],[91.47,25.4],[92.66,25.48],[92.45,25.84],[91.73,25.75]]],[[[108.54,12.31],[108.45,11.56],[108.97,12.26],[108.54,12.31]]],[[[106.92,51.48],[106.35,50.99],[106.69,50.41],[107.48,51.35],[106.92,51.48]]],[[[-113.55,40.41],[-113.79,40.25],[-113.44,39.94],[-113.05,40.72],[-113.55,40.41]]],[[[93.46,7.12],[93.66,6.72],[94.16,7.46],[93.46,7.12]]],[[[-119.2,46.81],[-120.29,45.59],[-119.41,45.64],[-118.41,46.28],[-119.2,46.81]]],[[[18.33,-33.65],[17.98,-34.23],[19.32,-34.78],[20.05,-34.95],[20.57,-34.55],[19.72,-34.58],[19.62,-33.8],[18.28,-33.26],[18.08,-32.67],[17.73,-33.27],[18.33,-33.65]]],[[[29.3,36.2],[29.93,36.24],[29.25,36.63],[28.81,36.38],[29.3,36.2]]],[[[-78.06,0.76],[-78.68,0.34],[-77.76,-0.09],[-77.58,0.3],[-78.06,0.76]]],[[[172.61,-40.53],[172.38,-40.92],[172.7,-41.27],[173.57,-41.55],[172.61,-40.53]]],[[[97.38,19.54],[96.7,19.72],[96.43,19.36],[97.12,19.18],[97.38,19.54]]],[[[-51.75,-31.5],[-52.04,-31.2],[-52.4,-31.63],[-51.83,-32.21],[-51.75,-31.5]]],[[[1.41,38.35],[2.07,39.0],[1.68,39.53],[1.07,39.11],[1.41,38.35]]],[[[152.55,46.73],[153.36,47.39],[153.24,48.01],[153.65,48.34],[153.04,48.4],[152.63,48.08],[152.76,47.45],[151.43,47.09],[151.63,46.71],[152.55,46.73]]],[[[174.76,-38.46],[174.55,-38.85],[174.83,-38.95],[175.07,-38.8],[174.76,-38.46]]],[[[141.59,58.93],[141.19,58.79],[141.65,58.45],[142.4,59.19],[141.59,58.93]]],[[[21.42,-34.51],[21.71,-34.5],[21.66,-34.11],[20.85,-34.54],[21.42,-34.51]]],[[[-81.45,24.35],[-81.41,24.82],[-82.03,24.73],[-81.45,24.35]]],[[[174.09,-39.39],[174.44,-39.98],[174.97,-39.92],[174.31,-39.0],[173.78,-39.05],[174.09,-39.39]]],[[[-18.13,28.1],[-18.37,27.97],[-18.12,27.6],[-17.88,27.98],[-18.13,28.1]]],[[[29.95,-30.8],[30.3,-31.17],[30.8,-30.7],[29.95,-30.8]]],[[[103.39,44.77],[104.03,44.27],[104.81,44.86],[103.39,44.77]]],[[[-54.27,-34.57],[-54.87,-34.87],[-54.19,-34.95],[-53.86,-34.37],[-54.27,-34.57]]],[[[-78.86,-0.05],[-79.25,-0.58],[-79.0,-0.94],[-78.61,-0.4],[-78.86,-0.05]]],[[[-72.69,46.45],[-73.16,46.17],[-72.57,46.04],[-72.69,46.45]]],[[[-15.87,33.09],[-16.13,33.47],[-17.7,32.69],[-16.65,32.19],[-15.87,33.09]]],[[[150.51,-33.53],[150.92,-34.35],[151.89,-33.28],[150.51,-33.53]]],[[[122.01,21.14],[121.83,19.99],[122.35,20.65],[122.01,21.14]]],[[[50.35,26.83],[49.63,26.87],[50.08,26.44],[50.35,26.83]]],[[[174.18,-41.98],[174.4,-41.59],[173.86,-41.65],[173.44,-42.67],[173.99,-42.62],[174.18,-41.98]]],[[[100.66,7.08],[100.5,7.74],[100.05,7.78],[100.22,7.12],[100.66,7.08]]],[[[166.06,54.96],[166.61,55.22],[165.92,55.34],[166.06,54.96]]],[[[152.98,-26.82],[153.24,-26.71],[153.04,-26.31],[152.75,-26.67],[152.98,-26.82]]],[[[-64.73,32.66],[-65.07,32.11],[-64.31,32.52],[-64.73,32.66]]]]}}]}