{"type":"FeatureCollection","features":[{"type":"Feature","properties":{},"geometry":{"type":"MultiPolygon","coordinates":[[[[180.0,-11.99],[177.98,-12.28],[176.6,-11.91],[170.29,-12.06],[169.86,-11.62],[166.86,-11.62],[166.64,-10.87],[166.25,-11.49],[165.44,-11.45],[165.04,-11.86],[161.32,-11.66],[160.92,-11.21],[159.88,-11.25],[159.48,-10.79],[157.61,-10.77],[156.33,-9.85],[154.55,-9.76],[154.24,-9.24],[151.87,-8.69],[151.01,-7.73],[150.37,-7.76],[150.05,-7.22],[148.99,-7.19],[148.24,-6.58],[148.38,-5.86],[148.7,-6.4],[150.37,-6.65],[151.28,-6.29],[151.42,-5.57],[150.23,-6.26],[148.98,-6.07],[148.84,-5.68],[151.01,-5.51],[152.1,-4.19],[152.42,-4.74],[151.87,-5.4],[152.01,-5.79],[153.99,-4.12],[153.32,-3.27],[152.65,-3.53],[152.96,-2.96],[152.65,-2.41],[151.33,-2.69],[149.48,-1.11],[149.34,-1.85],[149.94,-2.08],[149.62,-2.66],[150.45,-2.8],[150.78,-3.35],[152.01,-3.55],[150.64,-5.21],[150.32,-4.66],[149.54,-5.41],[149.67,-4.68],[149.07,-4.46],[148.7,-5.28],[147.25,-4.93],[146.31,-5.28],[146.44,-4.55],[145.59,-4.41],[144.82,-3.78],[144.53,-2.96],[143.67,-2.82],[142.67,-3.42],[144.39,-3.71],[145.74,-4.81],[146.03,-5.62],[146.69,-5.59],[147.02,-6.15],[147.86,-6.28],[146.88,-6.87],[146.98,-7.51],[148.15,-8.18],[148.39,-9.19],[149.08,-8.92],[149.36,-9.68],[150.47,-10.55],[149.83,-10.59],[149.5,-10.06],[147.61,-9.93],[145.85,-7.71],[144.58,-7.52],[143.63,-7.87],[143.73,-8.51],[142.93,-9.25],[140.78,-8.91],[139.85,-7.89],[138.18,-8.49],[137.88,-7.69],[138.55,-7.68],[138.88,-7.11],[138.27,-5.49],[137.48,-4.85],[136.37,-4.79],[136.02,-4.22],[134.04,-4.0],[133.69,-3.43],[133.17,-3.85],[132.71,-2.62],[133.58,-2.77],[133.86,-2.43],[132.12,-2.13],[131.77,-1.55],[130.9,-1.4],[131.22,-0.81],[132.17,-0.46],[133.91,-0.77],[134.26,-1.34],[134.1,-2.34],[135.47,-3.48],[137.85,-1.44],[138.64,-2.1],[139.32,-2.08],[139.66,-2.66],[140.63,-2.31],[140.04,-1.82],[139.43,-0.16],[139.76,0.43],[139.12,0.67],[138.71,2.18],[138.07,2.42],[137.76,3.26],[137.93,4.28],[139.33,5.74],[139.64,7.51],[138.71,10.01],[138.06,10.25],[137.95,10.92],[137.06,11.07],[136.7,11.64],[136.01,11.63],[135.65,12.2],[134.52,12.25],[133.56,13.29],[132.87,13.26],[132.51,13.82],[131.82,13.79],[131.46,14.35],[130.78,14.32],[129.38,15.38],[125.94,16.03],[125.59,16.56],[123.22,16.67],[122.72,17.56],[122.08,16.17],[121.44,16.11],[121.3,15.16],[121.8,14.26],[123.28,14.23],[124.17,13.02],[123.51,12.97],[123.17,13.5],[122.11,13.5],[121.76,14.02],[121.28,13.58],[121.58,12.82],[121.07,12.14],[120.57,13.05],[120.87,13.63],[119.76,16.02],[120.43,16.32],[120.78,18.66],[120.11,18.35],[119.9,16.96],[119.31,17.12],[117.79,16.47],[116.18,16.77],[114.85,17.85],[114.56,18.87],[112.61,20.42],[110.87,20.7],[110.96,21.41],[110.46,21.01],[110.37,20.29],[109.73,20.51],[109.64,21.62],[108.52,21.67],[109.14,21.21],[109.49,20.42],[109.23,20.1],[107.69,20.44],[108.25,21.34],[107.8,21.4],[107.5,20.83],[106.81,20.8],[105.48,19.11],[105.64,18.47],[106.3,18.26],[106.64,17.22],[108.53,16.09],[109.4,14.09],[109.11,13.5],[109.49,12.95],[109.37,11.95],[108.6,10.91],[107.24,10.55],[106.7,9.59],[105.08,8.87],[104.97,10.03],[103.06,11.12],[102.08,12.63],[100.96,12.86],[100.58,13.67],[99.88,13.6],[99.98,12.17],[98.88,9.94],[99.27,9.14],[99.93,8.95],[100.85,6.68],[101.74,6.61],[102.58,6.02],[102.74,5.37],[103.38,5.18],[103.21,3.42],[104.14,1.7],[103.45,1.38],[101.39,2.8],[100.27,5.19],[100.55,5.81],[99.98,7.01],[99.33,7.2],[99.16,7.85],[98.3,8.44],[98.77,11.37],[98.11,11.56],[98.19,12.58],[98.91,12.91],[97.71,15.07],[97.99,15.68],[97.39,16.88],[96.21,16.59],[95.69,15.86],[94.31,15.95],[94.1,16.34],[94.6,16.82],[94.68,17.83],[94.27,18.62],[93.38,19.17],[92.88,18.7],[85.54,18.94],[84.89,19.32],[84.4,18.34],[82.81,17.48],[82.34,16.49],[81.47,16.5],[81.01,15.76],[80.37,15.64],[79.92,14.9],[79.89,13.91],[80.31,13.41],[80.28,12.42],[79.64,12.31],[79.82,10.94],[78.96,9.48],[78.33,9.37],[77.91,8.4],[77.29,8.3],[75.91,10.64],[76.12,11.24],[75.32,11.73],[74.73,12.82],[74.94,13.42],[73.36,16.01],[73.56,16.6],[72.77,18.45],[72.77,20.07],[71.98,20.48],[72.11,21.03],[71.52,20.64],[68.55,20.26],[65.49,21.2],[65.15,21.69],[61.59,22.5],[59.1,23.92],[57.36,24.34],[56.45,25.52],[56.2,25.0],[56.86,24.46],[56.86,23.89],[58.26,23.74],[59.92,22.19],[59.34,21.96],[58.56,20.5],[57.85,20.68],[57.58,19.14],[56.81,18.98],[56.51,18.19],[55.53,18.09],[54.94,17.08],[53.51,17.09],[50.67,14.97],[49.17,14.92],[48.68,14.14],[48.15,14.31],[47.0,13.49],[45.79,13.61],[44.63,12.77],[43.72,12.7],[43.28,13.45],[43.41,14.05],[42.95,14.42],[43.11,16.63],[42.64,17.42],[42.04,17.59],[40.81,20.02],[39.8,20.39],[39.27,21.21],[39.38,22.71],[38.43,24.17],[37.2,24.77],[37.31,25.42],[34.95,28.38],[35.02,29.48],[34.58,29.68],[34.64,28.8],[33.81,28.32],[32.73,29.36],[32.78,30.47],[34.36,30.77],[34.73,31.88],[35.29,32.34],[34.67,32.76],[34.64,33.19],[33.45,33.15],[31.4,34.14],[30.66,33.87],[30.0,34.27],[27.43,33.84],[26.76,34.22],[23.69,33.89],[21.58,34.28],[19.45,33.97],[18.94,33.44],[18.14,33.53],[17.64,32.99],[17.84,32.8],[17.35,32.27],[17.65,31.64],[17.26,31.35],[15.79,31.75],[15.36,32.8],[13.37,33.3],[12.99,33.0],[14.98,32.5],[15.4,31.45],[18.15,30.82],[18.93,30.05],[20.4,30.96],[19.92,31.79],[21.84,32.97],[24.08,31.69],[24.79,32.0],[24.86,31.56],[25.53,31.19],[26.24,31.49],[27.38,30.93],[28.09,31.23],[29.21,30.65],[29.93,30.94],[30.15,30.29],[30.86,30.56],[31.07,29.91],[32.2,30.43],[32.31,29.11],[33.4,28.07],[33.31,27.4],[33.91,27.0],[33.81,26.33],[35.32,24.23],[35.25,23.14],[36.07,22.75],[37.06,21.3],[37.02,18.96],[38.19,18.4],[39.1,17.0],[38.99,15.96],[39.49,15.18],[40.22,15.24],[40.23,13.63],[40.95,14.08],[40.59,14.66],[41.18,14.5],[41.3,13.91],[43.27,12.67],[43.25,11.89],[42.57,11.84],[43.24,11.51],[43.34,10.94],[43.9,10.8],[44.32,10.08],[45.99,10.78],[46.84,10.47],[46.98,11.03],[49.73,11.22],[50.5,11.81],[51.09,11.48],[50.72,9.3],[49.79,8.32],[49.63,7.2],[48.68,6.16],[48.69,5.59],[47.92,5.12],[47.93,4.54],[46.86,3.82],[46.87,3.23],[45.41,2.04],[44.81,2.16],[43.6,1.18],[43.6,0.56],[39.99,-2.71],[39.74,-4.05],[39.17,-4.35],[38.66,-6.41],[39.63,-6.91],[39.04,-8.56],[39.62,-8.9],[39.69,-10.0],[40.51,-10.3],[40.76,-10.93],[40.34,-11.45],[40.67,-12.5],[40.25,-13.02],[40.74,-14.94],[40.4,-15.89],[39.03,-17.04],[37.22,-17.37],[36.85,-18.33],[34.79,-19.79],[35.46,-24.29],[34.73,-24.85],[34.01,-24.75],[33.53,-25.25],[32.81,-25.15],[32.41,-26.07],[32.73,-27.09],[32.25,-27.58],[32.4,-28.4],[30.97,-29.23],[30.62,-30.52],[29.95,-30.8],[29.91,-31.42],[28.45,-32.2],[28.41,-32.8],[26.82,-33.75],[26.07,-33.62],[25.55,-34.06],[25.73,-34.24],[26.88,-34.14],[28.98,-32.74],[30.12,-32.61],[30.77,-32.93],[31.44,-32.64],[32.09,-32.96],[32.76,-32.67],[33.41,-32.97],[34.93,-32.54],[35.57,-32.84],[36.23,-32.53],[36.88,-32.82],[37.99,-32.62],[39.66,-31.7],[43.17,-30.94],[43.61,-30.44],[49.97,-29.09],[50.38,-28.58],[51.07,-28.65],[51.8,-27.84],[52.5,-27.91],[53.23,-27.08],[53.93,-27.14],[55.95,-25.06],[56.66,-25.1],[57.3,-24.47],[57.24,-23.81],[57.81,-23.42],[57.74,-22.76],[58.38,-22.12],[57.79,-20.71],[58.03,-19.73],[56.85,-19.87],[55.45,-18.29],[54.61,-18.1],[54.07,-18.48],[53.06,-18.12],[52.85,-17.32],[53.41,-16.07],[52.83,-14.33],[53.19,-13.8],[52.62,-12.09],[52.97,-11.56],[51.32,-8.01],[52.22,-6.98],[52.8,-7.07],[52.77,-6.45],[53.34,-6.55],[53.31,-5.93],[53.89,-5.99],[53.43,-5.5],[54.24,-4.69],[54.47,-3.83],[53.79,-2.79],[54.37,-2.08],[54.02,-0.55],[55.95,0.28],[56.85,0.06],[58.33,0.61],[59.63,0.34],[60.1,0.71],[60.39,0.25],[64.88,-0.2],[65.19,-0.67],[66.21,-0.69],[67.62,-1.97],[73.77,-2.73],[74.23,-2.34],[76.48,-2.72],[76.93,-2.33],[84.0,-3.08],[84.44,-2.63],[85.9,-2.88],[86.35,-2.43],[92.36,-2.9],[92.76,-3.42],[93.85,-3.38],[94.25,-3.9],[94.91,-3.83],[96.98,-5.19],[97.7,-6.92],[98.34,-7.08],[98.68,-8.04],[99.92,-8.59],[100.64,-10.01],[100.37,-10.56],[100.93,-11.38],[100.6,-12.59],[101.13,-13.59],[99.71,-15.24],[99.87,-15.77],[99.16,-16.68],[99.84,-18.15],[99.7,-18.72],[100.33,-19.51],[100.19,-20.09],[100.83,-20.86],[100.69,-21.44],[101.34,-22.21],[101.56,-24.5],[102.94,-26.44],[103.53,-26.49],[104.02,-27.35],[104.6,-27.39],[106.53,-29.03],[107.15,-29.02],[107.14,-29.52],[108.06,-30.0],[108.06,-30.51],[111.0,-31.63],[112.26,-31.29],[112.88,-31.53],[113.09,-31.05],[115.11,-30.44],[115.21,-29.47],[114.13,-28.08],[114.35,-27.32],[113.58,-26.77],[114.46,-26.41],[114.18,-25.23],[113.51,-24.47],[113.52,-23.78],[114.06,-23.18],[113.87,-22.0],[114.56,-22.4],[116.53,-20.77],[118.94,-20.44],[119.21,-20.0],[121.32,-19.51],[121.45,-18.71],[122.16,-18.14],[122.15,-16.96],[123.16,-15.88],[124.19,-16.0],[124.33,-15.14],[125.37,-14.01],[127.36,-13.62],[128.27,-14.61],[129.11,-14.78],[129.22,-14.11],[129.99,-13.45],[129.88,-12.84],[130.66,-12.16],[130.08,-11.69],[130.39,-11.15],[131.47,-11.24],[131.35,-11.93],[131.97,-12.17],[132.25,-11.86],[131.94,-11.08],[132.88,-10.77],[133.81,-11.78],[135.53,-12.08],[136.61,-11.05],[136.63,-12.14],[137.26,-12.37],[136.38,-13.53],[137.0,-13.75],[137.11,-14.36],[136.25,-14.22],[135.69,-14.82],[136.47,-15.41],[137.13,-15.41],[138.63,-16.79],[139.19,-16.19],[139.85,-16.17],[140.2,-16.68],[139.86,-17.2],[140.45,-17.41],[140.62,-16.74],[141.42,-16.05],[141.59,-15.15],[141.25,-14.64],[141.69,-12.34],[142.62,-10.91],[143.94,-14.31],[144.64,-14.06],[144.93,-14.79],[145.54,-14.99],[145.22,-15.52],[145.66,-16.63],[146.44,-17.2],[146.11,-17.75],[146.42,-18.51],[147.06,-18.71],[147.38,-19.47],[149.35,-20.07],[149.65,-21.08],[150.33,-21.28],[151.2,-23.48],[152.18,-23.33],[152.06,-24.32],[152.96,-24.91],[153.72,-24.6],[153.24,-26.71],[153.68,-27.26],[153.36,-27.87],[153.8,-28.42],[153.48,-29.04],[153.69,-29.44],[153.12,-29.9],[153.21,-31.33],[152.62,-31.8],[152.8,-32.46],[151.57,-33.64],[151.75,-34.31],[151.13,-34.76],[151.31,-35.43],[150.35,-36.24],[150.52,-36.91],[152.18,-37.07],[152.67,-37.63],[153.52,-37.57],[154.02,-38.13],[154.88,-38.06],[156.21,-39.04],[158.48,-39.4],[159.87,-40.33],[162.17,-40.61],[168.35,-43.57],[170.1,-43.46],[171.19,-42.88],[171.65,-41.85],[172.47,-41.66],[172.15,-41.31],[172.38,-40.92],[173.31,-41.7],[174.08,-41.25],[173.21,-43.07],[172.38,-43.27],[172.74,-43.85],[171.32,-44.1],[171.1,-44.73],[171.4,-44.83],[171.93,-44.29],[177.61,-44.12],[178.59,-43.49],[180.0,-43.35],[180.0,-11.99]]],[[[-180.0,-43.35],[-176.39,-42.93],[-175.99,-42.4],[-174.09,-42.3],[-173.7,-41.76],[-171.79,-41.61],[-171.42,-41.06],[-170.57,-41.05],[-169.0,-39.9],[-168.94,-39.25],[-168.19,-38.98],[-167.28,-36.08],[-167.75,-35.53],[-167.29,-34.51],[-167.75,-33.96],[-167.14,-31.84],[-166.45,-31.53],[-166.41,-30.86],[-165.73,-30.55],[-165.7,-29.87],[-165.02,-29.56],[-164.99,-28.88],[-164.32,-28.56],[-164.2,-27.45],[-163.25,-27.17],[-162.96,-26.54],[-162.21,-26.45],[-161.46,-25.67],[-161.19,-23.69],[-160.46,-22.91],[-159.56,-22.6],[-158.46,-22.77],[-157.99,-23.29],[-155.6,-23.4],[-155.11,-23.91],[-150.65,-24.42],[-150.05,-24.03],[-149.38,-24.32],[-148.35,-23.74],[-147.68,-24.02],[-146.25,-23.25],[-145.59,-23.52],[-141.51,-21.6],[-141.37,-20.97],[-139.95,-20.4],[-139.82,-19.78],[-139.06,-19.4],[-138.44,-19.63],[-138.81,-18.99],[-138.07,-18.61],[-137.96,-18.0],[-137.35,-17.82],[-136.9,-16.22],[-135.85,-15.68],[-135.99,-15.08],[-137.29,-14.0],[-137.42,-13.01],[-139.05,-11.71],[-139.51,-10.89],[-140.09,-11.03],[-142.99,-9.38],[-145.35,-9.12],[-145.86,-9.46],[-147.54,-9.27],[-148.05,-9.6],[-148.64,-9.33],[-149.16,-9.67],[-150.48,-9.31],[-152.14,-9.7],[-153.85,-9.47],[-157.54,-10.58],[-158.12,-10.29],[-163.03,-12.0],[-163.28,-12.59],[-164.77,-12.96],[-165.04,-13.55],[-166.02,-13.37],[-167.02,-13.81],[-167.58,-13.5],[-169.3,-13.79],[-174.69,-12.43],[-175.26,-12.72],[-176.41,-12.25],[-176.98,-12.53],[-178.1,-12.06],[-178.65,-12.33],[-180.0,-11.99],[-180.0,-43.35]]],[[[-18.52,23.58],[-18.74,23.2],[-17.78,21.77],[-18.23,21.03],[-18.92,20.87],[-19.35,20.13],[-19.32,19.17],[-18.64,19.09],[-18.21,19.82],[-16.85,20.35],[-16.85,19.64],[-16.4,18.94],[-15.95,18.95],[-16.4,19.65],[-16.17,20.26],[-17.09,21.67],[-15.45,24.28],[-14.5,24.79],[-14.72,25.4],[-13.98,26.52],[-13.26,26.65],[-13.48,27.27],[-13.22,27.64],[-11.01,28.48],[-10.73,29.09],[-9.73,29.55],[-9.92,30.19],[-9.65,30.55],[-10.08,31.32],[-8.4,33.48],[-9.19,33.15],[-9.65,33.68],[-11.18,33.75],[-11.97,33.4],[-13.02,32.93],[-13.3,32.3],[-14.85,31.81],[-16.14,29.91],[-15.89,29.53],[-16.14,28.9],[-17.14,28.38],[-17.65,29.13],[-18.15,29.12],[-18.37,27.72],[-17.86,27.22],[-17.63,28.11],[-16.88,27.0],[-18.77,24.19],[-18.52,23.58]]],[[[-83.64,12.78],[-83.4,12.46],[-84.03,12.31],[-83.77,11.77],[-84.14,11.07],[-82.94,9.44],[-82.29,9.37],[-82.45,8.78],[-80.53,8.79],[-79.12,9.68],[-79.78,9.98],[-80.16,9.5],[-83.71,11.1],[-83.37,12.02],[-82.74,12.17],[-83.24,13.02],[-83.64,12.78]]],[[[-117.7,33.63],[-118.49,33.61],[-119.24,34.47],[-120.03,34.43],[-122.14,36.23],[-122.29,35.82],[-121.23,34.93],[-122.39,31.62],[-123.82,31.28],[-124.16,30.69],[-125.82,30.4],[-126.14,29.8],[-126.85,29.74],[-128.16,28.49],[-128.85,26.89],[-130.59,25.12],[-130.71,24.08],[-131.28,23.78],[-131.56,22.58],[-130.95,21.36],[-130.31,21.41],[-129.32,20.3],[-128.67,20.34],[-128.29,19.8],[-127.64,19.84],[-126.96,19.0],[-126.31,19.03],[-125.63,18.17],[-124.97,18.19],[-123.09,16.07],[-121.4,15.52],[-121.05,14.96],[-120.38,14.96],[-119.73,14.07],[-119.06,14.07],[-118.42,13.18],[-116.74,12.59],[-114.47,9.98],[-114.57,9.35],[-113.78,8.62],[-113.61,7.69],[-113.9,6.93],[-114.51,6.73],[-116.17,2.37],[-115.86,1.85],[-116.95,-0.67],[-116.64,-2.1],[-114.38,-3.49],[-112.41,-3.47],[-111.43,-4.13],[-110.54,-3.98],[-109.28,-4.72],[-108.73,-4.58],[-108.36,-5.03],[-107.8,-4.89],[-104.52,-7.02],[-103.93,-6.88],[-101.9,-8.03],[-101.68,-8.64],[-100.85,-9.1],[-100.22,-8.96],[-94.76,-11.92],[-94.1,-11.77],[-93.63,-12.51],[-92.27,-12.96],[-92.01,-13.59],[-91.11,-13.55],[-87.35,-15.41],[-87.07,-16.03],[-85.4,-16.82],[-85.12,-17.44],[-81.77,-18.46],[-80.45,-20.24],[-80.35,-21.23],[-80.75,-22.0],[-80.24,-22.45],[-80.14,-23.42],[-80.77,-24.33],[-80.48,-24.91],[-82.75,-28.76],[-82.45,-29.31],[-83.94,-31.56],[-83.77,-33.11],[-82.84,-34.08],[-79.92,-35.27],[-79.27,-35.07],[-76.35,-36.16],[-75.73,-35.93],[-73.93,-36.42],[-72.85,-36.12],[-71.33,-33.37],[-71.72,-30.59],[-71.14,-29.71],[-71.72,-28.9],[-71.05,-28.68],[-71.35,-28.16],[-70.59,-26.88],[-70.98,-25.66],[-70.59,-25.13],[-70.8,-23.5],[-70.24,-22.57],[-70.53,-22.01],[-70.18,-21.23],[-72.04,-18.92],[-72.72,-18.88],[-74.84,-16.13],[-74.69,-15.48],[-75.37,-15.43],[-76.42,-14.02],[-76.08,-12.96],[-78.14,-10.33],[-77.98,-9.67],[-79.5,-7.74],[-79.34,-7.08],[-80.08,-6.25],[-80.24,-4.46],[-80.91,-4.39],[-80.28,-3.95],[-79.35,-1.97],[-79.62,-1.36],[-80.29,-1.29],[-80.38,-0.29],[-79.73,-0.11],[-79.82,0.88],[-78.75,1.08],[-78.38,1.85],[-78.65,2.45],[-77.59,2.65],[-77.05,3.78],[-77.36,6.87],[-79.3,9.33],[-80.71,8.43],[-80.2,7.53],[-80.83,7.37],[-81.56,8.38],[-83.06,8.39],[-83.81,9.61],[-85.54,9.95],[-85.8,10.5],[-85.43,11.2],[-86.31,11.59],[-87.03,12.75],[-87.65,12.82],[-87.63,13.52],[-89.05,13.33],[-90.49,14.07],[-91.12,13.92],[-94.16,16.4],[-95.92,16.29],[-96.34,15.76],[-97.25,16.19],[-97.91,16.01],[-98.4,16.72],[-99.31,16.65],[-103.14,18.33],[-103.43,18.94],[-104.89,19.3],[-105.44,20.01],[-104.87,21.23],[-105.73,22.31],[-105.56,22.97],[-106.3,23.02],[-108.11,25.41],[-108.87,25.45],[-109.33,26.82],[-110.09,26.85],[-111.71,28.84],[-112.48,28.85],[-112.35,29.52],[-112.95,29.95],[-112.82,30.61],[-114.09,31.71],[-114.82,31.46],[-114.78,30.05],[-114.13,29.38],[-113.35,29.37],[-113.48,28.7],[-112.89,28.28],[-113.01,27.61],[-111.93,27.25],[-112.06,26.58],[-111.48,26.14],[-111.62,25.47],[-110.73,24.68],[-110.91,24.27],[-111.97,24.64],[-111.97,26.07],[-112.6,26.76],[-114.49,27.37],[-114.03,28.88],[-115.12,29.21],[-115.78,29.88],[-115.67,30.54],[-116.28,30.95],[-116.16,31.61],[-117.46,32.66],[-117.35,33.31],[-117.7,33.63]],[[-110.0,23.22],[-110.57,23.66],[-110.39,24.08],[-109.82,23.63],[-110.0,23.22]]],[[[-16.82,12.75],[-17.02,12.41],[-16.4,11.68],[-16.19,12.02],[-16.82,12.75]]],[[[159.97,-5.15],[159.22,-5.04],[158.93,-5.59],[159.84,-5.84],[159.97,-5.15]]],[[[166.46,11.41],[166.15,11.17],[166.7,10.87],[167.64,11.01],[168.05,11.45],[167.5,11.75],[166.46,11.41]]],[[[145.53,18.26],[145.64,17.62],[146.08,17.54],[145.98,18.17],[145.53,18.26]]],[[[167.54,9.68],[166.53,9.34],[167.3,9.09],[167.52,8.57],[168.15,9.03],[167.54,9.68]]],[[[-96.79,20.36],[-96.26,18.88],[-94.65,18.1],[-92.89,18.19],[-92.45,18.71],[-91.58,18.74],[-91.8,19.1],[-92.68,19.07],[-93.34,18.67],[-93.13,19.3],[-94.06,20.75],[-94.75,20.84],[-96.24,23.29],[-96.95,23.39],[-97.46,24.12],[-97.91,23.59],[-97.63,22.97],[-98.06,22.18],[-97.3,21.34],[-97.25,20.33],[-96.79,20.36]]],[[[147.7,-2.47],[148.41,-2.2],[147.56,-2.06],[147.23,-1.49],[146.28,-1.85],[146.1,-2.84],[146.81,-2.57],[147.42,-2.8],[147.7,-2.47]]],[[[-15.96,17.78],[-15.95,18.48],[-16.4,18.47],[-16.18,17.89],[-16.62,17.17],[-16.18,17.19],[-15.96,17.78]]],[[[71.45,-5.76],[70.93,-6.39],[71.28,-6.91],[71.77,-6.5],[71.45,-5.76]]],[[[161.77,-9.97],[161.99,-9.46],[161.39,-9.11],[160.94,-10.56],[161.75,-11.04],[162.78,-10.99],[162.38,-10.12],[161.77,-9.97]]],[[[24.87,-34.31],[25.15,-34.28],[25.09,-33.9],[23.83,-34.18],[24.46,-34.53],[24.87,-34.31]]],[[[-171.02,-3.12],[-171.36,-3.26],[-170.72,-3.75],[-171.02,-3.12]]],[[[155.31,-6.87],[155.35,-7.72],[156.65,-7.18],[156.39,-8.57],[157.76,-7.56],[158.94,-8.53],[159.77,-8.17],[159.16,-7.39],[157.43,-7.28],[157.0,-6.39],[156.01,-6.37],[155.71,-5.84],[155.35,-6.64],[155.05,-6.11],[155.36,-5.55],[154.66,-4.96],[154.39,-5.28],[154.91,-6.82],[155.31,-6.87]]],[[[174.77,-0.85],[174.61,-0.42],[173.99,-0.51],[175.09,-1.68],[174.77,-0.85]]],[[[140.04,9.78],[140.77,10.04],[139.69,10.36],[139.55,9.61],[140.04,9.78]]],[[[166.21,-10.01],[166.02,-10.31],[165.41,-9.97],[165.43,-10.81],[165.84,-11.25],[166.61,-10.23],[166.21,-10.01]]],[[[173.1,1.21],[173.61,2.22],[172.75,2.11],[172.85,0.71],[173.28,0.77],[173.1,1.21]]],[[[180.0,-9.03],[179.68,-9.73],[180.0,-9.67],[180.0,-9.03]]],[[[-77.54,8.73],[-76.87,8.42],[-77.39,9.32],[-77.81,9.29],[-77.54,8.73]]],[[[170.53,9.0],[171.06,8.71],[170.65,8.29],[171.4,8.03],[171.23,9.1],[170.53,9.0]]],[[[11.24,34.18],[10.87,33.87],[11.21,33.28],[11.58,33.59],[11.24,34.18]]],[[[50.53,27.43],[49.73,28.09],[48.6,27.95],[49.66,27.28],[50.08,26.44],[49.91,25.83],[50.65,24.79],[51.02,24.97],[50.99,25.98],[51.37,26.16],[51.21,24.56],[51.59,23.74],[54.48,24.24],[55.61,25.32],[55.34,26.54],[54.5,26.33],[53.9,26.65],[54.02,25.86],[52.63,26.9],[51.97,26.84],[51.16,27.57],[50.53,27.43]]],[[[165.76,10.16],[166.07,9.83],[166.46,10.27],[165.91,10.56],[165.76,10.16]]],[[[-17.7,32.69],[-16.65,32.19],[-15.87,33.34],[-16.65,32.96],[-17.44,33.08],[-17.7,32.69]]],[[[-157.05,1.41],[-157.0,1.83],[-157.6,2.13],[-157.65,1.7],[-157.05,1.41]]],[[[167.82,8.25],[168.48,7.27],[169.09,7.17],[169.1,7.71],[168.51,8.35],[167.82,8.25]]],[[[122.36,19.36],[122.05,20.09],[122.35,20.65],[122.01,21.14],[121.52,20.71],[121.79,19.76],[121.15,19.69],[120.85,19.12],[121.16,18.4],[121.99,18.33],[122.34,17.83],[122.6,18.16],[122.26,18.67],[122.36,19.36]]],[[[63.58,-20.02],[63.88,-19.68],[62.97,-19.53],[63.58,-20.02]]],[[[-136.13,-18.69],[-136.5,-18.07],[-136.49,-18.88],[-136.13,-18.69]]],[[[72.46,-7.77],[72.72,-7.45],[72.36,-6.93],[72.1,-7.25],[72.46,-7.77]]],[[[167.51,-44.24],[167.23,-44.62],[167.54,-44.73],[167.83,-44.59],[167.51,-44.24]]],[[[88.39,21.11],[89.11,21.47],[87.96,21.61],[87.71,21.25],[88.39,21.11]]],[[[120.02,23.17],[119.17,23.02],[119.76,22.84],[120.02,23.17]]],[[[-24.82,14.59],[-23.29,14.59],[-22.91,15.31],[-23.82,15.71],[-24.22,15.21],[-25.09,15.14],[-24.82,14.59]]],[[[151.6,7.94],[151.28,7.37],[152.02,6.71],[153.07,6.62],[151.6,7.94]]],[[[115.3,-31.13],[115.33,-30.8],[114.93,-30.92],[115.3,-31.13]]],[[[-16.82,12.97],[-16.4,13.66],[-17.47,15.07],[-17.68,14.72],[-16.82,13.64],[-16.82,12.97]]],[[[55.92,-4.28],[55.87,-3.71],[55.12,-3.6],[55.6,-4.01],[54.95,-4.24],[54.99,-4.81],[55.75,-4.93],[55.92,-4.28]]],[[[112.3,21.43],[114.08,21.6],[114.63,22.45],[113.94,22.22],[113.35,22.68],[113.48,22.06],[112.13,21.82],[112.3,21.43]]],[[[145.85,15.22],[146.14,15.53],[145.7,15.62],[145.37,15.06],[145.72,14.49],[145.85,15.22]]],[[[153.89,5.31],[152.98,6.13],[153.07,5.48],[153.89,5.31]]],[[[-81.72,12.57],[-82.16,12.76],[-81.68,12.13],[-81.72,12.57]]],[[[-157.67,-9.13],[-157.61,-8.74],[-158.4,-9.03],[-157.67,-9.13]]],[[[158.01,-8.3],[157.89,-7.93],[157.03,-8.29],[157.28,-9.03],[159.39,-9.17],[159.32,-9.81],[160.14,-9.87],[160.54,-10.32],[160.96,-9.92],[160.79,-8.76],[161.4,-8.69],[160.64,-7.58],[159.43,-8.94],[158.68,-8.85],[158.39,-8.35],[157.92,-8.76],[158.01,-8.3]]],[[[173.18,2.97],[173.09,3.61],[172.57,3.38],[172.66,2.74],[173.18,2.97]]],[[[-156.27,20.13],[-156.48,19.49],[-156.06,18.56],[-154.93,18.88],[-154.76,20.19],[-155.94,20.54],[-154.64,21.07],[-153.98,21.87],[-154.47,22.37],[-156.37,22.56],[-157.24,23.29],[-159.61,22.83],[-159.82,22.19],[-160.93,21.84],[-161.55,21.01],[-161.48,20.36],[-160.8,20.53],[-160.32,20.05],[-157.66,19.82],[-156.64,20.39],[-156.27,20.13]],[[-156.05,19.67],[-155.46,20.05],[-155.08,19.79],[-155.3,19.15],[-156.05,19.67]]],[[[142.7,-2.01],[143.22,-1.59],[143.07,-1.17],[142.55,-1.6],[142.7,-2.01]]],[[[-74.13,-16.43],[-73.68,-16.38],[-74.21,-15.68],[-74.13,-16.43]]],[[[-140.46,-8.69],[-140.43,-9.65],[-139.39,-9.18],[-139.39,-8.6],[-140.46,-8.69]]],[[[-171.58,-8.82],[-171.97,-8.94],[-172.02,-9.53],[-171.63,-9.41],[-171.58,-8.82]]],[[[140.82,-2.47],[140.97,-2.88],[142.08,-2.94],[141.93,-2.53],[140.82,-2.47]]],[[[-139.39,-9.56],[-139.39,-10.32],[-138.82,-10.18],[-138.82,-9.42],[-139.39,-9.56]]],[[[123.2,25.8],[123.56,25.34],[124.1,25.98],[123.47,26.12],[123.2,25.8]]],[[[171.83,7.55],[170.91,7.43],[170.88,6.89],[172.25,7.08],[171.83,7.55]]],[[[158.42,7.32],[157.76,7.1],[158.45,6.45],[158.71,6.76],[158.42,7.32]]],[[[169.0,4.56],[168.57,5.01],[168.56,4.5],[169.0,4.56]]],[[[-154.71,-3.94],[-155.44,-3.84],[-155.01,-4.31],[-154.71,-3.94]]],[[[169.42,5.99],[170.09,6.08],[169.58,6.36],[169.42,5.99]]],[[[69.19,21.41],[69.89,21.18],[69.57,21.68],[69.19,21.41]]],[[[-138.81,-21.08],[-138.43,-21.31],[-138.44,-20.47],[-138.81,-21.08]]],[[[-176.84,-44.27],[-176.17,-44.68],[-175.76,-44.17],[-176.5,-43.53],[-177.27,-43.72],[-176.84,-44.27]]],[[[163.05,5.03],[163.14,5.49],[162.58,5.5],[163.05,5.03]]],[[[115.6,-32.0],[115.78,-31.51],[115.41,-31.31],[115.19,-32.13],[115.57,-32.34],[115.6,-32.0]]],[[[143.89,7.14],[144.62,7.39],[143.74,7.55],[143.89,7.14]]],[[[176.03,-5.34],[175.9,-5.67],[176.29,-5.94],[176.42,-5.61],[176.03,-5.34]]],[[[-138.81,-21.92],[-138.81,-21.5],[-139.19,-21.7],[-139.07,-22.34],[-138.43,-22.57],[-138.81,-21.92]]],[[[-16.83,16.35],[-16.61,16.02],[-16.18,16.73],[-16.83,16.35]]],[[[-159.05,3.83],[-159.0,4.25],[-159.8,3.92],[-159.1,3.4],[-159.05,3.83]]],[[[-90.93,20.12],[-91.36,19.37],[-91.14,19.0],[-90.49,19.88],[-90.93,20.12]]],[[[72.55,-5.55],[72.39,-5.18],[71.32,-5.16],[71.48,-5.53],[72.55,-5.55]]],[[[170.24,9.33],[170.41,9.72],[169.8,9.82],[169.84,8.9],[170.22,8.77],[170.24,9.33]]],[[[-6.53,34.47],[-7.03,34.51],[-7.35,33.91],[-6.85,33.88],[-6.53,34.47]]],[[[-88.4,15.84],[-88.2,15.49],[-87.37,15.99],[-86.97,15.54],[-86.55,16.26],[-87.98,16.33],[-87.76,16.93],[-88.17,17.4],[-88.39,16.32],[-89.02,16.17],[-88.4,15.84]]],[[[124.19,23.97],[124.97,24.71],[124.81,25.05],[124.3,24.63],[123.25,24.8],[122.75,24.38],[122.91,24.04],[124.19,23.97]]],[[[161.29,9.78],[160.79,10.27],[160.87,9.65],[161.29,9.78]]],[[[173.24,0.3],[173.91,0.08],[174.29,0.44],[173.83,0.68],[173.24,0.3]]],[[[146.36,7.06],[146.49,7.81],[145.63,7.98],[145.73,7.31],[146.36,7.06]]],[[[175.62,-2.12],[175.88,-1.65],[175.44,-1.75],[175.62,-2.12]]],[[[145.09,13.6],[145.43,14.17],[144.99,14.26],[144.36,13.36],[145.0,13.11],[145.09,13.6]]],[[[-161.06,-9.84],[-161.3,-10.42],[-160.97,-10.67],[-160.73,-10.1],[-161.06,-9.84]]],[[[171.76,6.48],[171.36,6.08],[172.45,5.71],[172.35,6.39],[171.76,6.48]]],[[[-140.35,-21.87],[-140.6,-21.43],[-141.13,-21.83],[-140.35,-21.87]]],[[[166.99,-9.63],[167.01,-10.04],[167.6,-9.97],[166.99,-9.63]]],[[[170.44,10.28],[169.91,10.58],[169.59,10.35],[170.12,10.05],[170.44,10.28]]],[[[144.8,-1.47],[145.28,-1.29],[144.51,-0.64],[143.65,-1.66],[144.8,-1.47]]],[[[165.61,9.2],[165.22,9.33],[165.3,8.97],[166.3,8.76],[166.22,9.11],[165.61,9.2]]],[[[93.19,19.81],[92.52,20.22],[92.93,19.45],[93.19,19.81]]],[[[-140.93,-8.06],[-140.23,-8.13],[-140.85,-7.68],[-140.93,-8.06]]],[[[-25.73,17.19],[-25.45,16.63],[-24.53,16.23],[-23.87,16.4],[-24.14,16.97],[-24.84,17.27],[-25.73,17.19]]],[[[17.98,-34.23],[18.82,-34.22],[18.12,-33.07],[17.73,-33.27],[17.98,-34.23]]],[[[-97.26,24.77],[-97.04,25.16],[-97.52,25.14],[-97.72,24.49],[-97.26,24.77]]],[[[35.63,31.48],[35.34,31.47],[35.37,31.03],[35.79,31.26],[35.63,31.48]]],[[[165.75,11.29],[165.75,11.87],[165.35,12.0],[165.36,11.42],[165.75,11.29]]],[[[152.25,9.07],[151.74,8.67],[151.88,8.26],[152.39,8.66],[152.25,9.07]]],[[[176.15,-2.22],[175.85,-2.85],[176.17,-2.74],[176.15,-2.22]]],[[[168.71,9.85],[169.41,9.95],[168.88,10.25],[168.71,9.85]]],[[[-15.79,11.18],[-16.4,11.47],[-16.4,10.82],[-14.98,10.58],[-15.18,11.1],[-15.79,11.18]]],[[[155.83,7.78],[155.03,7.96],[155.11,7.31],[155.52,7.23],[155.83,7.78]]],[[[149.16,7.8],[148.88,7.47],[149.73,7.3],[149.16,7.8]]],[[[-22.57,16.73],[-23.26,17.03],[-23.19,16.1],[-22.71,15.67],[-22.31,16.16],[-22.57,16.73]]],[[[-169.57,16.3],[-169.06,16.7],[-169.76,17.16],[-169.92,16.53],[-169.57,16.3]]],[[[-136.05,-21.58],[-136.56,-21.15],[-136.93,-21.35],[-136.41,-22.2],[-136.05,-21.58]]],[[[-78.7,9.7],[-78.87,9.35],[-78.03,9.4],[-78.7,9.7]]],[[[-161.75,5.68],[-162.41,6.62],[-162.49,5.77],[-161.75,5.68]]],[[[120.63,21.79],[121.47,21.74],[121.73,22.07],[120.7,22.24],[120.63,21.79]]],[[[162.44,11.9],[162.04,12.03],[162.23,11.29],[162.44,11.9]]],[[[96.4,-12.34],[97.02,-12.49],[97.26,-12.17],[96.87,-11.7],[96.4,-12.34]]],[[[154.67,-2.74],[154.4,-3.07],[154.71,-3.61],[154.97,-3.29],[154.67,-2.74]]],[[[175.96,-1.49],[176.76,-1.46],[176.22,-1.02],[175.96,-1.49]]],[[[-171.1,-11.34],[-170.7,-11.22],[-171.28,-10.69],[-171.1,-11.34]]],[[[-72.53,-16.61],[-72.71,-17.01],[-72.21,-17.44],[-72.03,-17.05],[-72.53,-16.61]]],[[[-134.14,-23.46],[-135.03,-22.84],[-135.39,-23.04],[-134.5,-23.67],[-134.14,-23.46]]],[[[168.85,14.5],[169.34,14.57],[168.78,14.89],[168.44,14.64],[168.85,14.5]]],[[[145.99,15.94],[146.28,16.25],[145.94,16.82],[145.36,16.19],[145.99,15.94]]],[[[30.65,29.66],[30.53,29.42],[30.99,29.24],[30.95,29.68],[30.65,29.66]]]]}}]}