{"type":"FeatureCollection","features":[{"type":"Feature","properties":{},"geometry":{"type":"MultiPolygon","coordinates":[[[[114.13,-26.22],[113.51,-25.55],[112.96,-26.08],[113.66,-26.17],[113.72,-26.63],[114.33,-26.55],[114.13,-26.22]]],[[[-90.71,20.49],[-91.58,18.99],[-92.68,19.07],[-93.11,18.55],[-94.44,18.49],[-94.91,18.96],[-95.81,18.91],[-97.29,21.09],[-97.09,21.73],[-97.59,22.21],[-97.69,23.98],[-96.81,25.3],[-97.09,25.92],[-96.87,26.31],[-97.39,27.05],[-96.95,27.83],[-94.8,28.77],[-94.34,29.53],[-92.4,29.54],[-90.73,28.66],[-89.79,29.14],[-89.33,28.64],[-88.15,30.19],[-85.85,30.09],[-85.21,29.21],[-84.06,29.97],[-82.84,28.46],[-83.31,27.78],[-83.97,27.7],[-84.45,26.76],[-85.11,26.67],[-86.04,25.26],[-85.84,24.65],[-84.16,24.11],[-82.65,24.88],[-82.26,24.39],[-81.04,24.32],[-80.2,24.74],[-79.66,26.33],[-80.02,26.83],[-79.87,28.45],[-79.4,29.1],[-79.77,29.61],[-81.03,29.73],[-81.08,31.73],[-80.18,32.09],[-79.91,32.64],[-79.26,32.68],[-78.37,33.76],[-77.64,33.73],[-77.36,34.53],[-76.15,34.4],[-76.2,34.95],[-75.09,35.16],[-75.48,36.8],[-73.68,37.89],[-73.7,38.48],[-71.8,39.56],[-71.79,40.16],[-68.0,42.25],[-67.15,44.17],[-66.61,44.02],[-66.49,43.21],[-65.63,43.09],[-64.2,43.81],[-64.09,44.42],[-63.22,44.28],[-62.07,44.95],[-61.2,44.79],[-60.53,45.22],[-60.53,45.63],[-59.49,46.07],[-59.66,46.69],[-60.2,46.88],[-58.94,47.53],[-56.42,47.55],[-56.26,47.34],[-57.0,46.93],[-56.32,46.52],[-55.24,46.92],[-53.75,46.28],[-52.66,46.65],[-52.73,47.27],[-51.96,47.64],[-53.48,49.36],[-53.42,49.77],[-54.91,49.81],[-56.18,50.47],[-54.81,50.65],[-55.54,51.09],[-55.27,51.72],[-54.66,51.92],[-55.4,52.37],[-55.35,52.79],[-55.98,52.59],[-55.8,52.37],[-56.42,52.17],[-56.67,51.53],[-58.26,51.54],[-59.46,51.1],[-59.66,50.46],[-62.59,50.58],[-64.73,50.26],[-65.96,50.61],[-69.86,48.53],[-71.47,48.77],[-71.84,49.38],[-72.22,49.33],[-72.72,49.04],[-72.71,48.39],[-73.57,48.05],[-76.72,48.65],[-77.35,49.66],[-78.19,49.28],[-81.12,49.83],[-81.26,50.48],[-80.8,50.81],[-79.06,50.69],[-79.17,51.35],[-78.69,51.67],[-78.89,52.09],[-78.4,52.41],[-79.13,53.42],[-80.26,53.44],[-81.24,52.79],[-81.72,53.62],[-82.46,53.7],[-81.8,52.21],[-80.3,52.28],[-80.78,51.96],[-80.64,51.3],[-81.71,51.31],[-83.06,50.32],[-84.67,50.87],[-86.73,49.17],[-87.71,49.37],[-87.95,50.01],[-88.94,50.2],[-89.67,49.75],[-89.38,49.36],[-89.75,49.01],[-93.33,50.76],[-94.69,50.78],[-95.05,51.4],[-96.09,51.53],[-96.47,52.14],[-97.86,52.12],[-98.61,52.6],[-99.64,52.45],[-100.41,52.91],[-101.97,51.98],[-103.86,52.72],[-104.11,52.33],[-105.08,52.14],[-105.89,52.56],[-105.74,53.19],[-106.11,53.28],[-106.63,52.74],[-107.96,52.6],[-108.07,51.98],[-108.72,51.91],[-109.18,51.37],[-110.43,51.21],[-110.76,50.44],[-111.41,51.2],[-112.77,50.64],[-112.73,51.26],[-113.2,51.55],[-112.63,53.11],[-111.72,53.37],[-111.56,53.76],[-113.21,54.26],[-114.89,53.49],[-113.78,52.69],[-114.64,52.42],[-114.89,51.64],[-114.29,51.13],[-114.65,50.59],[-114.08,50.08],[-114.31,49.92],[-113.85,49.63],[-113.87,49.03],[-112.52,48.76],[-112.66,48.38],[-112.13,47.87],[-112.35,47.51],[-111.96,47.23],[-108.87,47.1],[-109.05,46.53],[-110.13,45.97],[-108.67,44.75],[-108.89,44.39],[-108.49,43.85],[-107.33,43.95],[-108.76,45.2],[-108.54,45.56],[-107.27,45.21],[-106.56,44.58],[-106.98,43.63],[-105.74,43.26],[-105.93,42.66],[-105.25,42.01],[-105.97,41.12],[-105.49,39.84],[-106.15,38.7],[-107.03,38.99],[-106.64,39.99],[-107.71,39.65],[-107.53,40.27],[-106.72,40.47],[-107.62,40.75],[-107.44,41.36],[-107.74,41.45],[-109.55,40.43],[-110.67,40.3],[-110.27,39.75],[-111.08,39.53],[-111.43,38.51],[-111.97,38.44],[-111.18,40.0],[-111.58,40.55],[-111.38,40.94],[-112.09,41.57],[-111.68,42.33],[-112.81,42.18],[-113.18,42.49],[-112.35,42.72],[-111.79,44.07],[-112.94,43.93],[-113.34,43.17],[-114.59,43.46],[-115.41,43.22],[-116.1,43.58],[-115.97,44.18],[-116.67,44.53],[-118.05,44.18],[-118.23,43.79],[-117.78,43.29],[-118.14,42.52],[-117.03,42.72],[-117.47,43.23],[-117.22,43.39],[-115.73,42.23],[-114.61,42.4],[-113.32,41.88],[-114.44,41.72],[-115.07,40.78],[-114.34,40.17],[-114.53,39.78],[-114.12,39.23],[-115.74,38.97],[-116.7,38.32],[-117.89,38.6],[-117.78,39.23],[-118.14,39.52],[-117.19,40.18],[-118.1,40.38],[-117.81,41.39],[-118.49,41.75],[-118.9,41.19],[-119.74,41.14],[-120.49,41.71],[-120.39,42.32],[-121.08,42.65],[-120.75,43.42],[-121.2,43.91],[-120.42,44.19],[-120.87,44.67],[-119.9,45.32],[-118.46,45.48],[-117.84,46.38],[-115.91,46.02],[-115.77,46.6],[-116.95,47.42],[-116.56,48.15],[-117.74,47.96],[-119.45,48.42],[-120.29,48.16],[-120.46,47.79],[-119.99,47.33],[-120.81,47.06],[-121.08,46.11],[-121.88,45.83],[-121.41,45.36],[-121.97,44.44],[-121.59,44.18],[-121.68,43.58],[-122.22,43.46],[-122.13,44.06],[-122.52,44.32],[-122.29,44.49],[-122.75,44.96],[-122.35,45.5],[-123.14,46.01],[-123.45,45.26],[-124.23,44.96],[-125.1,42.66],[-124.41,41.53],[-124.84,40.35],[-124.17,40.04],[-124.02,38.74],[-123.36,38.41],[-123.43,37.78],[-122.64,37.85],[-122.71,37.21],[-122.06,36.87],[-122.14,36.23],[-121.5,35.87],[-121.58,35.23],[-120.95,34.87],[-121.03,34.22],[-120.34,33.61],[-119.55,33.64],[-119.71,33.23],[-119.37,32.92],[-119.05,33.75],[-118.55,33.85],[-118.8,32.78],[-118.14,33.29],[-117.52,32.9],[-117.62,32.24],[-116.67,31.52],[-116.77,30.86],[-116.16,30.45],[-116.33,30.04],[-115.95,29.46],[-115.45,29.55],[-115.83,30.13],[-115.67,30.54],[-115.16,30.63],[-112.89,28.28],[-113.01,27.61],[-111.48,26.14],[-111.66,25.72],[-111.04,25.03],[-111.22,24.61],[-112.1,25.4],[-111.97,26.07],[-112.6,26.76],[-114.49,27.37],[-113.65,28.29],[-114.68,29.55],[-115.12,29.21],[-114.15,28.21],[-114.86,27.96],[-115.46,28.38],[-115.62,27.96],[-114.34,26.62],[-112.78,26.34],[-112.46,26.0],[-112.45,24.57],[-111.4,24.2],[-110.14,22.55],[-109.04,23.34],[-109.6,23.79],[-109.46,24.46],[-110.51,24.84],[-110.37,25.51],[-111.26,26.3],[-111.12,26.97],[-111.89,26.99],[-112.52,27.68],[-112.39,28.35],[-111.89,28.42],[-111.53,27.83],[-110.76,27.8],[-110.94,27.39],[-110.59,26.79],[-109.52,26.41],[-109.84,25.32],[-108.3,25.0],[-108.45,24.33],[-107.7,24.29],[-105.38,21.44],[-105.82,21.13],[-106.68,22.2],[-107.09,21.63],[-106.04,20.98],[-106.2,20.31],[-105.08,18.89],[-103.63,18.53],[-103.33,17.92],[-99.5,16.26],[-98.84,16.44],[-96.98,15.34],[-94.37,16.02],[-91.32,13.55],[-90.28,13.73],[-89.87,13.28],[-88.24,13.14],[-86.04,10.82],[-86.21,10.24],[-85.49,9.26],[-84.88,9.65],[-83.99,9.26],[-83.92,8.33],[-82.6,7.96],[-81.87,6.95],[-80.15,7.06],[-79.77,7.55],[-79.83,8.25],[-78.52,7.86],[-77.53,6.51],[-77.89,5.77],[-77.48,3.75],[-78.9,2.8],[-79.43,1.41],[-80.07,1.24],[-81.19,-1.1],[-80.92,-1.71],[-81.29,-2.5],[-80.62,-2.58],[-80.35,-3.19],[-81.0,-3.37],[-81.57,-4.57],[-81.42,-6.35],[-80.91,-7.09],[-80.27,-6.65],[-79.78,-7.12],[-79.95,-7.78],[-78.42,-9.71],[-78.59,-10.37],[-76.53,-13.0],[-76.87,-14.06],[-76.35,-14.77],[-75.66,-14.83],[-74.87,-15.88],[-74.24,-15.43],[-74.13,-16.43],[-72.74,-16.76],[-72.45,-17.35],[-71.77,-17.39],[-71.21,-18.31],[-70.54,-18.33],[-70.59,-19.7],[-69.89,-19.96],[-70.1,-18.27],[-72.53,-16.61],[-72.35,-16.21],[-71.65,-16.49],[-71.94,-15.9],[-72.82,-16.02],[-73.77,-15.63],[-74.06,-15.03],[-74.74,-14.98],[-74.58,-14.33],[-75.53,-13.92],[-75.37,-13.26],[-76.05,-13.21],[-75.89,-12.55],[-77.95,-9.93],[-77.86,-8.5],[-78.38,-7.77],[-77.93,-7.74],[-77.65,-8.35],[-76.71,-8.78],[-76.87,-9.44],[-76.2,-9.5],[-76.36,-10.16],[-75.68,-10.22],[-75.58,-11.24],[-74.64,-11.65],[-74.53,-12.66],[-73.85,-12.72],[-73.75,-13.72],[-73.07,-13.77],[-73.15,-13.02],[-72.45,-13.32],[-72.07,-12.76],[-71.55,-13.46],[-69.5,-14.07],[-68.73,-15.09],[-68.87,-15.73],[-68.21,-15.76],[-67.66,-16.67],[-66.65,-16.14],[-67.2,-15.24],[-67.85,-15.21],[-68.91,-13.62],[-69.76,-13.73],[-71.38,-13.06],[-72.16,-12.01],[-73.21,-12.51],[-73.32,-11.51],[-73.94,-11.96],[-74.43,-11.5],[-74.1,-10.44],[-74.98,-10.54],[-75.47,-10.07],[-75.31,-9.42],[-76.14,-7.83],[-75.98,-7.17],[-76.84,-7.51],[-76.31,-6.05],[-76.83,-5.33],[-77.5,-5.26],[-77.73,-2.73],[-76.8,-1.02],[-77.08,-0.41],[-76.36,1.13],[-74.36,2.5],[-73.51,2.56],[-73.79,3.14],[-73.11,4.63],[-72.5,4.78],[-72.35,5.38],[-71.58,5.89],[-71.77,7.51],[-70.6,8.02],[-70.47,8.6],[-69.17,9.43],[-68.71,8.99],[-67.98,9.46],[-66.04,9.51],[-65.6,9.08],[-64.84,9.14],[-64.38,8.57],[-63.7,9.19],[-62.26,8.72],[-62.9,7.65],[-62.13,7.82],[-61.68,7.46],[-61.46,8.67],[-59.33,7.97],[-58.29,6.52],[-57.42,6.22],[-57.27,6.61],[-58.15,6.91],[-58.28,7.84],[-58.9,7.83],[-59.43,8.66],[-60.04,8.64],[-61.02,9.82],[-60.76,10.8],[-60.19,11.04],[-60.47,11.55],[-62.16,10.81],[-62.6,11.15],[-63.74,10.87],[-63.83,11.52],[-64.74,11.18],[-64.65,10.53],[-65.78,10.38],[-66.22,10.81],[-67.94,10.67],[-68.03,11.32],[-68.65,11.64],[-67.31,11.76],[-66.86,11.34],[-65.8,11.99],[-67.72,11.97],[-69.18,12.7],[-69.52,12.27],[-70.16,12.58],[-70.79,11.26],[-71.41,11.36],[-70.85,11.7],[-71.16,12.67],[-71.97,12.65],[-72.29,11.99],[-74.09,11.6],[-74.45,11.14],[-75.08,11.23],[-75.86,10.75],[-76.2,10.06],[-75.93,9.5],[-76.55,9.36],[-76.9,8.65],[-77.39,9.32],[-78.27,9.73],[-78.89,9.58],[-79.36,10.01],[-79.98,9.86],[-80.34,9.15],[-81.19,9.1],[-82.75,9.8],[-83.71,11.1],[-83.37,12.02],[-82.74,12.17],[-83.48,13.33],[-83.11,14.01],[-82.49,14.16],[-83.41,15.4],[-83.19,15.98],[-83.79,15.62],[-85.13,16.41],[-85.55,15.93],[-85.72,16.75],[-86.53,16.73],[-86.95,16.24],[-87.98,16.33],[-87.33,17.66],[-87.95,18.01],[-87.1,18.5],[-87.27,19.82],[-86.42,20.31],[-86.59,21.63],[-89.83,21.74],[-90.71,21.23],[-90.71,20.49]],[[-57.68,51.33],[-57.1,51.11],[-58.5,50.05],[-58.34,49.42],[-59.66,48.77],[-59.48,47.73],[-61.1,47.05],[-61.26,46.43],[-62.35,46.79],[-63.78,46.71],[-64.02,47.33],[-64.59,47.5],[-63.9,47.97],[-64.03,49.23],[-61.9,48.7],[-61.17,49.15],[-62.33,49.53],[-62.36,49.95],[-60.23,49.81],[-58.49,50.47],[-58.28,51.11],[-57.68,51.33]],[[-111.34,29.67],[-110.79,29.48],[-112.03,29.18],[-113.95,29.79],[-114.61,30.46],[-114.49,31.13],[-114.82,31.46],[-114.31,31.54],[-112.67,29.86],[-112.64,31.03],[-112.97,31.36],[-112.46,31.44],[-111.81,30.76],[-111.94,30.1],[-111.34,29.67]],[[-57.43,48.79],[-56.69,48.79],[-57.82,48.37],[-57.8,48.79],[-57.43,48.79]],[[-71.85,47.42],[-71.85,48.07],[-71.35,48.35],[-70.13,48.07],[-71.25,47.29],[-71.85,47.42]],[[-57.78,49.21],[-57.74,50.05],[-56.63,49.63],[-57.78,49.21]],[[-57.13,50.69],[-56.56,50.47],[-57.15,50.26],[-57.13,50.69]],[[-110.01,47.79],[-109.1,48.61],[-109.61,49.14],[-108.15,49.43],[-109.09,50.28],[-107.23,50.48],[-107.35,49.87],[-106.52,49.23],[-107.73,49.11],[-108.77,48.53],[-108.35,48.22],[-108.53,47.84],[-110.01,47.79]],[[-107.46,38.21],[-106.58,37.93],[-108.22,37.77],[-107.46,38.21]],[[-115.44,31.87],[-115.15,31.79],[-115.33,31.37],[-115.66,31.7],[-115.44,31.87]],[[-65.12,48.74],[-66.18,48.23],[-67.0,48.59],[-66.31,49.07],[-64.79,49.18],[-64.58,48.98],[-65.12,48.74]],[[-68.89,11.95],[-69.05,11.63],[-69.65,11.72],[-69.5,12.05],[-68.89,11.95]],[[-80.03,53.03],[-79.32,52.93],[-79.81,52.61],[-80.03,53.03]],[[-66.06,49.95],[-65.51,50.21],[-64.68,49.83],[-65.39,49.36],[-66.92,49.24],[-66.99,49.66],[-66.06,49.95]],[[-100.98,52.15],[-100.57,51.8],[-101.25,51.77],[-100.98,52.15]],[[-71.57,9.35],[-71.65,10.02],[-71.17,9.36],[-71.57,9.35]],[[-109.71,50.21],[-110.15,50.52],[-109.53,50.6],[-109.71,50.21]],[[-56.14,50.89],[-56.71,51.11],[-56.1,51.31],[-56.14,50.89]],[[-65.85,44.7],[-66.4,44.86],[-65.91,45.11],[-65.85,44.7]]],[[[136.68,-14.29],[137.11,-14.36],[137.28,-13.44],[136.38,-13.53],[136.5,-12.84],[135.67,-13.77],[136.68,-14.29]]],[[[-56.9,-34.61],[-58.74,-34.03],[-59.48,-34.64],[-59.18,-35.05],[-57.86,-35.26],[-57.71,-36.0],[-56.76,-36.37],[-57.89,-38.23],[-57.61,-38.5],[-56.29,-36.56],[-56.6,-36.1],[-57.27,-36.0],[-56.68,-35.73],[-57.54,-34.7],[-56.12,-35.26],[-55.75,-34.88],[-54.8,-35.25],[-53.99,-34.85],[-54.27,-34.57],[-55.08,-34.97],[-55.59,-34.59],[-56.9,-34.61]]],[[[114.6,-30.39],[115.41,-31.31],[115.16,-32.47],[115.65,-32.87],[114.58,-33.98],[115.76,-34.63],[116.25,-35.39],[117.12,-35.11],[117.81,-35.34],[119.91,-34.59],[119.99,-33.99],[121.74,-34.2],[121.92,-34.78],[122.89,-34.27],[123.7,-34.57],[124.42,-34.07],[124.41,-33.05],[125.07,-33.16],[125.88,-32.42],[125.47,-32.28],[124.77,-32.8],[123.81,-32.33],[123.21,-32.61],[122.67,-32.29],[120.97,-32.51],[120.09,-32.02],[119.52,-32.29],[118.67,-31.8],[118.1,-32.06],[116.84,-31.28],[116.19,-31.38],[116.1,-30.88],[115.37,-30.47],[115.57,-29.67],[114.82,-28.47],[114.4,-28.9],[114.86,-29.27],[114.6,-30.39]]],[[[-76.14,19.7],[-74.25,19.87],[-73.93,20.44],[-74.57,20.93],[-75.11,20.86],[-75.41,21.32],[-75.96,21.25],[-76.27,21.72],[-76.83,21.65],[-78.21,22.87],[-79.57,22.84],[-79.69,23.66],[-80.13,23.22],[-80.88,23.73],[-81.32,23.28],[-82.74,23.46],[-83.18,23.01],[-83.79,23.14],[-85.1,21.98],[-84.91,21.62],[-83.46,21.71],[-83.08,21.23],[-81.87,21.2],[-80.43,21.96],[-78.83,20.39],[-77.71,20.34],[-77.78,19.67],[-76.14,19.7]]],[[[148.33,-22.04],[149.0,-22.24],[149.49,-23.67],[148.77,-23.71],[148.9,-24.36],[148.25,-23.9],[147.4,-24.67],[147.53,-23.94],[147.15,-23.39],[146.54,-24.06],[145.82,-24.08],[146.65,-26.09],[146.29,-26.68],[147.25,-26.81],[148.14,-27.44],[148.28,-28.1],[149.0,-28.31],[149.14,-28.97],[150.57,-29.65],[149.91,-30.61],[150.3,-31.43],[149.47,-31.73],[150.18,-32.2],[148.92,-33.35],[149.08,-34.02],[147.39,-35.75],[145.32,-36.37],[144.78,-36.28],[144.37,-35.7],[143.55,-35.69],[141.63,-33.67],[140.62,-33.48],[140.33,-32.64],[140.74,-32.08],[140.04,-31.81],[139.2,-32.03],[138.93,-31.2],[139.34,-30.64],[139.0,-30.05],[138.39,-30.44],[138.65,-31.27],[138.02,-32.56],[136.9,-32.83],[135.94,-32.61],[135.23,-33.21],[133.88,-31.97],[132.96,-31.74],[132.61,-32.03],[134.4,-33.39],[133.96,-33.93],[134.15,-34.1],[134.99,-33.93],[135.02,-34.58],[134.66,-34.88],[135.63,-35.12],[136.58,-36.25],[137.88,-36.42],[138.62,-35.8],[139.35,-36.08],[140.1,-38.18],[140.94,-38.21],[141.33,-38.8],[141.87,-38.9],[142.55,-38.51],[142.96,-39.1],[143.51,-39.19],[144.25,-38.53],[145.1,-38.54],[146.29,-39.62],[147.42,-39.77],[147.57,-40.43],[146.89,-40.86],[145.75,-40.7],[145.3,-40.12],[144.43,-40.11],[144.0,-39.53],[143.63,-39.85],[144.06,-40.44],[144.62,-40.53],[144.18,-41.1],[145.15,-43.17],[146.8,-43.91],[148.48,-43.23],[148.26,-42.82],[148.83,-41.49],[148.35,-40.92],[148.77,-40.33],[148.34,-39.5],[147.52,-39.27],[147.37,-38.6],[148.08,-37.92],[149.75,-38.12],[150.4,-37.67],[150.35,-36.24],[151.31,-35.43],[151.1,-35.02],[151.75,-34.31],[151.57,-33.64],[153.42,-31.74],[153.33,-30.31],[153.9,-29.84],[153.69,-29.44],[154.09,-28.06],[153.65,-27.51],[153.97,-26.9],[153.24,-26.71],[153.72,-24.6],[153.02,-24.41],[152.66,-23.38],[151.77,-22.79],[151.02,-23.09],[151.34,-22.5],[149.97,-20.51],[147.02,-18.94],[146.28,-16.83],[145.51,-16.26],[145.82,-14.67],[144.5,-13.69],[143.8,-13.94],[144.12,-13.4],[143.34,-11.74],[143.06,-12.06],[143.69,-13.34],[143.37,-13.88],[143.81,-14.99],[142.72,-14.96],[141.96,-14.39],[141.66,-13.64],[141.99,-13.1],[141.65,-12.57],[142.25,-11.7],[141.82,-11.64],[141.22,-12.51],[141.57,-14.1],[141.14,-16.35],[140.62,-16.74],[140.4,-17.64],[141.11,-17.4],[141.46,-15.83],[142.12,-15.8],[142.4,-16.54],[143.71,-17.55],[143.37,-18.09],[143.7,-18.62],[143.36,-19.17],[143.64,-19.94],[145.32,-20.66],[145.86,-20.25],[146.76,-20.37],[147.08,-21.14],[147.74,-21.35],[147.87,-21.98],[148.33,-22.04]],[[137.06,-34.8],[136.36,-34.51],[137.08,-33.9],[137.42,-34.5],[137.06,-34.8]],[[147.98,-37.0],[146.18,-37.53],[147.24,-36.51],[148.57,-36.81],[147.98,-37.0]],[[147.88,-41.76],[148.04,-42.42],[146.59,-43.5],[145.53,-42.84],[144.75,-41.19],[145.12,-40.86],[146.15,-41.53],[146.84,-41.11],[147.99,-41.26],[148.2,-41.67],[147.88,-41.76]]],[[[-11.75,28.12],[-10.26,28.83],[-9.46,29.92],[-9.89,30.68],[-10.48,29.21],[-11.21,29.11],[-11.74,28.37],[-12.46,28.51],[-13.45,28.02],[-13.71,27.65],[-13.49,27.02],[-14.21,26.9],[-15.2,25.4],[-14.97,24.78],[-15.68,24.65],[-17.32,22.03],[-17.08,21.43],[-17.54,20.69],[-16.85,20.59],[-16.62,20.0],[-16.17,20.26],[-16.85,21.08],[-16.86,22.05],[-16.16,22.19],[-16.4,22.79],[-15.45,24.28],[-14.5,24.79],[-14.72,25.4],[-13.98,26.52],[-13.26,26.65],[-12.48,28.01],[-11.75,28.12]]],[[[-136.13,-18.69],[-136.5,-18.07],[-136.49,-18.88],[-136.13,-18.69]]],[[[55.66,-21.78],[55.92,-20.81],[55.06,-20.62],[55.23,-21.68],[55.66,-21.78]]],[[[-142.78,-17.08],[-142.89,-16.44],[-142.12,-16.09],[-142.11,-15.68],[-143.12,-16.01],[-143.52,-16.6],[-144.01,-16.14],[-145.01,-16.05],[-145.47,-15.18],[-145.86,-15.35],[-145.38,-15.81],[-145.77,-15.98],[-146.59,-14.86],[-148.51,-14.87],[-147.67,-15.59],[-147.01,-15.44],[-146.57,-16.33],[-145.55,-16.43],[-145.46,-17.07],[-145.88,-17.66],[-145.23,-17.51],[-145.06,-16.89],[-144.32,-17.37],[-143.91,-16.78],[-143.17,-17.26],[-142.78,-17.08]]],[[[-8.1,44.05],[-8.73,43.61],[-8.48,43.22],[-7.86,43.66],[-6.16,43.49],[-6.39,43.88],[-8.1,44.05]]],[[[-71.64,21.0],[-70.92,21.36],[-71.77,22.32],[-73.63,21.4],[-73.87,20.88],[-72.98,20.73],[-72.94,21.34],[-72.2,21.71],[-71.72,21.55],[-71.64,21.0]]],[[[-180.0,-17.17],[-179.48,-17.74],[-179.58,-18.35],[-178.95,-18.32],[-179.19,-19.32],[-178.55,-19.29],[-178.42,-19.98],[-178.1,-19.42],[-178.54,-17.15],[-179.42,-16.9],[-180.0,-15.69],[-180.0,-17.17]]],[[[180.0,-15.69],[179.63,-16.22],[178.64,-16.35],[178.18,-17.27],[177.59,-17.3],[177.69,-16.7],[176.93,-16.89],[176.91,-18.15],[177.4,-18.72],[178.0,-18.7],[177.89,-19.3],[178.51,-19.28],[178.97,-18.35],[179.76,-18.16],[179.86,-17.55],[178.96,-17.08],[179.53,-16.82],[180.0,-17.17],[180.0,-15.69]]],[[[-52.68,4.55],[-51.29,4.06],[-51.17,3.32],[-50.83,3.89],[-52.64,5.68],[-54.24,6.24],[-54.85,6.0],[-55.33,6.39],[-56.75,5.99],[-56.49,5.67],[-55.26,5.92],[-54.74,5.28],[-53.9,5.44],[-53.6,4.88],[-52.68,4.55]]],[[[174.03,-38.9],[173.6,-39.69],[174.41,-39.73],[175.08,-40.65],[173.44,-40.58],[172.84,-40.14],[171.81,-40.72],[172.15,-41.31],[171.33,-41.51],[170.62,-42.93],[167.22,-44.37],[166.09,-46.15],[167.34,-46.58],[167.06,-47.2],[167.39,-47.54],[169.19,-46.71],[170.4,-46.62],[171.65,-44.44],[173.07,-44.18],[173.31,-43.79],[172.95,-43.22],[173.77,-43.01],[174.4,-41.59],[175.81,-41.8],[176.22,-41.01],[176.99,-40.79],[177.34,-39.76],[178.08,-39.54],[178.98,-37.57],[178.67,-37.25],[176.69,-37.5],[176.07,-36.83],[176.26,-36.44],[175.92,-35.86],[175.16,-35.81],[174.52,-34.88],[173.76,-34.82],[173.44,-34.23],[172.44,-34.3],[173.02,-35.01],[172.84,-35.65],[174.62,-37.48],[174.03,-38.9]],[[170.3,-45.65],[170.04,-46.04],[168.8,-45.64],[168.23,-46.16],[166.7,-46.12],[167.54,-44.73],[169.28,-44.13],[171.19,-42.88],[172.08,-43.17],[170.16,-44.19],[170.51,-44.78],[169.66,-45.21],[170.56,-45.27],[170.3,-45.65]],[[172.53,-42.15],[173.02,-41.61],[173.67,-42.28],[172.85,-42.49],[172.53,-42.15]]],[[[-71.18,17.53],[-70.69,18.22],[-69.14,18.21],[-68.7,17.81],[-68.22,18.48],[-68.94,19.55],[-69.71,19.56],[-70.76,20.24],[-72.27,19.87],[-73.11,20.25],[-73.83,19.68],[-72.96,19.1],[-75.08,18.39],[-73.8,17.81],[-72.6,17.83],[-72.26,18.22],[-71.81,17.83],[-71.95,17.33],[-71.34,17.23],[-71.18,17.53]]],[[[-78.37,25.18],[-78.62,24.63],[-78.14,23.56],[-77.38,23.5],[-77.24,24.86],[-76.78,23.79],[-75.72,23.25],[-76.17,22.61],[-75.88,21.92],[-75.47,22.33],[-75.58,22.9],[-74.67,22.93],[-74.78,23.5],[-74.33,24.12],[-75.08,23.98],[-75.34,24.9],[-76.93,25.86],[-76.83,26.76],[-77.56,27.3],[-79.19,26.99],[-79.04,26.4],[-79.51,25.74],[-79.15,25.25],[-78.86,26.27],[-77.68,26.16],[-77.93,25.61],[-78.53,25.54],[-78.37,25.18]]],[[[158.2,7.25],[158.06,6.54],[158.59,7.16],[158.2,7.25]]],[[[-64.67,18.63],[-67.31,18.75],[-67.64,18.38],[-67.18,17.79],[-65.84,17.58],[-65.53,18.07],[-64.08,18.49],[-64.33,18.93],[-64.67,18.63]]],[[[-141.3,-18.02],[-141.31,-18.44],[-140.68,-18.68],[-140.66,-17.43],[-141.3,-18.02]]],[[[-26.67,39.1],[-27.89,39.52],[-28.95,38.9],[-29.13,38.24],[-27.14,38.29],[-26.67,39.1]]],[[[-62.15,16.1],[-61.44,15.31],[-61.55,14.74],[-61.1,14.42],[-60.97,13.56],[-61.54,13.32],[-61.97,12.21],[-61.73,11.93],[-61.17,12.18],[-60.54,14.67],[-61.02,15.2],[-61.01,16.39],[-61.84,16.61],[-61.31,17.06],[-61.44,17.87],[-62.2,17.67],[-62.1,17.06],[-62.78,17.62],[-62.9,18.41],[-63.65,18.2],[-63.53,17.41],[-62.72,17.22],[-62.01,16.45],[-62.15,16.1]]],[[[-71.91,-30.95],[-71.7,-32.46],[-72.11,-32.95],[-71.8,-33.44],[-72.4,-34.28],[-72.12,-34.55],[-71.33,-33.37],[-71.64,-32.88],[-71.24,-32.38],[-71.45,-30.88],[-71.91,-30.95]]],[[[-159.49,-21.49],[-159.4,-21.06],[-160.3,-21.36],[-159.49,-21.49]]],[[[-160.71,21.39],[-158.9,21.9],[-159.66,22.4],[-160.93,21.84],[-160.71,21.39]]],[[[-66.65,6.7],[-66.77,6.12],[-67.35,5.98],[-67.08,5.42],[-67.63,5.04],[-66.93,4.27],[-66.47,5.33],[-65.69,5.37],[-65.43,4.81],[-65.99,4.66],[-65.73,4.1],[-66.03,3.38],[-65.43,3.3],[-65.1,3.78],[-64.27,3.37],[-64.38,2.78],[-63.94,2.37],[-64.22,4.44],[-63.84,4.52],[-63.37,3.91],[-63.22,4.29],[-63.7,4.9],[-64.89,5.17],[-65.1,6.75],[-65.87,6.73],[-66.32,7.16],[-66.65,6.7]]],[[[-3.65,54.03],[-2.6,54.21],[-4.2,54.55],[-4.6,54.27],[-3.65,54.03]]],[[[-46.68,-23.48],[-47.58,-23.59],[-47.74,-23.95],[-46.59,-23.94],[-46.68,-23.48]]],[[[-157.93,20.95],[-157.13,20.87],[-157.07,20.21],[-156.37,20.36],[-156.48,19.49],[-156.06,18.56],[-154.77,19.09],[-154.76,20.19],[-155.83,20.31],[-155.89,20.97],[-156.64,21.49],[-157.72,21.59],[-157.78,22.25],[-158.68,21.45],[-157.93,20.95]]],[[[2.07,36.8],[1.36,37.01],[0.29,36.65],[-0.07,36.09],[-1.6,35.81],[-2.2,35.15],[-3.09,35.75],[-3.66,35.32],[-4.65,35.42],[-5.04,36.2],[-3.97,36.59],[-1.99,36.35],[-1.33,37.25],[-0.26,37.58],[-0.38,38.21],[0.25,38.85],[-0.09,39.63],[1.23,40.9],[2.02,40.94],[2.42,41.49],[3.59,41.85],[3.25,42.6],[3.67,43.16],[6.66,42.93],[7.12,43.48],[7.98,43.48],[8.77,44.1],[8.62,44.48],[6.19,43.23],[3.87,43.85],[2.78,42.89],[2.89,42.28],[1.85,41.31],[1.05,41.27],[-0.59,39.71],[-0.29,38.69],[-1.37,38.35],[-1.19,37.96],[-1.55,37.4],[-3.43,36.77],[-3.85,37.32],[-4.94,36.94],[-5.38,37.48],[-7.98,37.71],[-8.43,38.5],[-7.93,40.58],[-8.64,41.75],[-9.2,41.8],[-8.74,40.77],[-9.34,40.31],[-9.13,39.67],[-9.98,39.36],[-9.01,38.04],[-9.33,37.43],[-8.85,36.9],[-7.02,36.88],[-6.15,35.56],[-7.35,33.91],[-8.9,33.51],[-10.03,32.07],[-9.81,31.68],[-10.1,31.07],[-9.61,31.05],[-8.75,32.38],[-8.0,32.46],[-7.12,33.77],[-5.57,34.14],[-5.18,35.22],[-2.03,34.76],[-1.42,35.42],[0.1,35.7],[0.46,36.27],[1.53,36.62],[2.72,36.34],[4.16,37.01],[5.88,36.62],[6.52,37.01],[8.04,36.75],[7.89,37.16],[6.37,37.42],[5.73,37.02],[4.0,37.4],[2.07,36.8]]],[[[-142.08,-18.81],[-141.69,-18.62],[-142.17,-17.75],[-143.19,-17.67],[-143.2,-18.09],[-142.56,-17.93],[-142.08,-18.81]]],[[[-145.42,-14.35],[-145.08,-15.01],[-144.92,-14.4],[-145.42,-14.35]]],[[[-80.25,19.41],[-79.67,19.51],[-79.43,20.07],[-80.41,19.76],[-80.25,19.41]]],[[[-76.84,17.85],[-76.22,17.77],[-76.05,18.07],[-76.5,18.46],[-77.08,18.15],[-77.14,18.74],[-78.24,18.78],[-78.65,18.34],[-77.2,17.44],[-76.84,17.85]]],[[[8.97,41.37],[8.05,41.14],[7.6,40.59],[8.35,40.35],[7.67,39.09],[8.56,38.44],[10.08,39.68],[9.72,40.25],[9.09,39.23],[8.42,39.72],[9.12,40.98],[10.11,40.56],[10.05,41.2],[9.28,41.45],[9.76,41.99],[8.59,41.93],[9.86,43.08],[9.31,43.17],[8.13,42.24],[8.21,41.61],[8.97,41.37]]],[[[27.33,-33.31],[25.6,-33.46],[24.69,-34.12],[23.77,-33.79],[22.51,-34.07],[24.75,-34.51],[26.53,-33.78],[27.28,-33.91],[28.19,-33.22],[27.33,-33.31]]],[[[144.56,13.2],[145.24,13.19],[145.23,14.33],[144.41,13.61],[144.56,13.2]]],[[[-178.7,-20.77],[-178.78,-20.31],[-179.07,-21.1],[-178.7,-20.77]]],[[[-171.9,-14.09],[-171.55,-13.75],[-172.94,-13.45],[-172.31,-14.22],[-171.9,-14.09]]],[[[166.83,-22.6],[167.75,-22.84],[167.26,-21.88],[166.57,-21.75],[165.41,-20.42],[163.6,-19.65],[163.6,-20.61],[164.29,-20.75],[164.75,-21.72],[166.13,-22.23],[166.86,-23.33],[166.83,-22.6]]],[[[-139.07,-21.92],[-138.81,-22.35],[-138.81,-21.5],[-139.07,-21.92]]],[[[-15.95,18.95],[-16.17,19.54],[-16.62,19.52],[-16.4,18.94],[-15.95,18.95]]],[[[-119.28,50.91],[-119.56,50.37],[-119.08,50.11],[-118.8,50.65],[-119.28,50.91]]],[[[138.78,-17.15],[139.98,-17.57],[140.05,-16.31],[139.43,-16.11],[138.87,-16.71],[138.21,-16.72],[138.78,-17.15]]],[[[-175.83,-43.94],[-176.5,-43.53],[-177.27,-43.72],[-176.17,-44.68],[-175.83,-43.94]]],[[[169.33,-19.28],[169.36,-19.75],[170.44,-19.63],[169.05,-18.24],[168.66,-18.93],[169.33,-19.28]]],[[[-121.73,49.5],[-123.22,49.3],[-124.69,50.2],[-125.68,49.92],[-123.54,48.58],[-124.11,48.45],[-125.33,49.14],[-125.72,48.62],[-124.91,48.16],[-125.06,47.79],[-124.66,47.56],[-124.81,47.19],[-124.08,46.13],[-124.39,45.38],[-123.84,45.51],[-123.53,46.26],[-124.5,47.92],[-123.38,48.18],[-122.9,47.73],[-123.22,47.0],[-122.34,47.08],[-121.76,47.97],[-122.24,48.42],[-121.73,49.5]]],[[[-111.15,18.39],[-110.48,18.62],[-110.89,19.72],[-111.44,18.74],[-111.15,18.39]]],[[[113.97,-27.43],[114.35,-27.32],[114.01,-27.13],[113.97,-27.43]]],[[[-90.11,0.49],[-90.57,0.96],[-91.84,0.36],[-91.75,-1.37],[-90.88,-1.31],[-90.42,-1.78],[-90.01,-1.25],[-89.33,-1.57],[-88.95,-0.54],[-90.05,-0.5],[-90.3,0.11],[-89.66,0.28],[-90.11,0.49]]],[[[-136.04,-22.0],[-136.18,-21.37],[-136.81,-21.15],[-136.41,-22.2],[-136.04,-22.0]]],[[[20.57,-34.55],[19.27,-34.4],[19.01,-33.43],[17.82,-34.04],[19.77,-34.96],[20.57,-34.55]]],[[[-73.36,23.36],[-74.5,22.81],[-74.62,21.93],[-73.48,22.49],[-73.19,22.02],[-72.66,22.08],[-72.57,22.73],[-73.61,22.83],[-73.36,23.36]]],[[[168.12,-21.16],[167.65,-20.69],[166.99,-20.8],[167.71,-21.88],[168.37,-21.76],[168.12,-21.16]]],[[[-9.63,43.32],[-9.15,42.29],[-8.59,42.24],[-9.05,43.27],[-9.63,43.32]]],[[[57.85,-20.47],[58.16,-20.15],[57.84,-19.57],[56.91,-20.52],[57.54,-20.79],[57.85,-20.47]]],[[[-71.26,-28.83],[-70.89,-28.09],[-71.35,-28.16],[-71.72,-28.9],[-71.44,-29.2],[-71.26,-28.83]]],[[[-5.35,52.2],[-4.85,51.45],[-2.66,51.27],[-2.89,51.64],[-4.47,51.75],[-5.35,52.2]]],[[[71.71,-5.44],[72.32,-5.63],[72.58,-5.32],[71.97,-5.12],[71.71,-5.44]]],[[[168.16,-17.54],[168.18,-18.0],[168.82,-17.89],[168.73,-16.29],[168.28,-15.83],[168.46,-15.28],[168.02,-14.82],[167.63,-15.26],[166.34,-14.55],[166.59,-15.79],[167.23,-15.92],[167.04,-16.49],[167.89,-16.5],[168.34,-16.97],[168.16,-17.54]],[[167.85,-15.6],[167.88,-16.28],[167.44,-15.81],[167.85,-15.6]]],[[[2.58,40.03],[2.19,39.47],[3.08,38.88],[4.63,39.78],[3.73,40.38],[2.58,40.03]]],[[[-66.14,-16.8],[-65.47,-17.05],[-66.23,-16.08],[-66.14,-16.8]]],[[[168.65,7.65],[168.34,7.42],[169.09,7.17],[168.96,7.87],[168.65,7.65]]],[[[168.07,8.83],[167.54,9.68],[166.61,9.54],[167.52,8.57],[168.07,8.83]]],[[[28.84,-31.95],[28.34,-32.41],[28.8,-32.56],[30.37,-31.57],[30.41,-30.95],[31.18,-30.44],[31.63,-28.93],[30.97,-29.23],[30.62,-30.52],[29.95,-30.8],[29.91,-31.42],[28.84,-31.95]]],[[[-173.77,-19.04],[-173.7,-18.4],[-174.52,-17.77],[-174.36,-18.46],[-174.9,-18.97],[-173.77,-19.04]]],[[[72.94,0.44],[73.29,-0.04],[73.7,0.61],[73.13,0.77],[72.94,0.44]]],[[[-150.23,-17.88],[-149.18,-17.99],[-149.47,-16.88],[-150.23,-17.88]]],[[[21.71,-34.5],[22.28,-34.47],[21.66,-34.11],[20.85,-34.54],[21.71,-34.5]]],[[[-118.12,28.93],[-117.97,29.35],[-118.46,29.25],[-118.55,28.59],[-118.12,28.93]]],[[[-73.16,-36.62],[-74.03,-37.38],[-73.34,-37.36],[-73.16,-36.62]]],[[[-25.03,37.29],[-24.79,37.69],[-25.12,38.06],[-26.24,37.98],[-25.24,36.63],[-24.69,36.67],[-25.03,37.29]]],[[[-23.95,14.66],[-23.09,14.72],[-23.15,15.64],[-25.09,15.14],[-24.82,14.59],[-23.95,14.66]]],[[[136.62,-15.79],[136.77,-16.15],[137.43,-16.14],[137.13,-15.41],[136.04,-15.34],[136.62,-15.79]]],[[[-4.62,52.57],[-3.75,52.11],[-4.19,53.08],[-3.21,53.06],[-2.76,53.56],[-4.44,53.46],[-4.83,53.17],[-4.62,52.57]]],[[[-145.81,-14.52],[-146.03,-14.08],[-146.56,-14.45],[-145.81,-14.52]]],[[[141.37,-31.67],[141.02,-32.0],[141.52,-32.09],[141.92,-31.52],[141.37,-31.67]]],[[[-25.01,16.66],[-24.53,16.23],[-23.87,16.4],[-24.14,16.97],[-25.08,17.36],[-25.73,17.19],[-25.45,16.63],[-25.01,16.66]]],[[[-174.32,-19.56],[-174.61,-19.26],[-175.22,-19.55],[-175.75,-21.16],[-175.4,-21.7],[-174.54,-21.48],[-175.19,-20.65],[-174.28,-20.67],[-174.02,-19.85],[-174.32,-19.56]]],[[[150.76,-16.63],[150.32,-16.58],[150.02,-17.14],[150.46,-17.19],[150.76,-16.63]]],[[[-150.92,-16.94],[-151.76,-16.19],[-152.59,-16.52],[-151.81,-16.62],[-151.34,-17.1],[-150.92,-16.94]]],[[[-65.31,11.14],[-65.83,10.81],[-65.25,10.71],[-65.31,11.14]]],[[[10.44,43.85],[10.29,44.24],[9.33,44.02],[10.12,43.78],[10.32,42.76],[10.87,42.67],[10.44,43.85]]],[[[171.88,7.2],[171.83,7.55],[170.82,7.24],[171.7,6.83],[171.88,7.2]]],[[[34.44,31.87],[35.29,32.34],[35.1,32.99],[34.67,32.76],[34.44,31.87]]],[[[-22.55,16.5],[-22.81,17.06],[-23.26,17.03],[-22.94,15.77],[-22.31,16.16],[-22.55,16.5]]],[[[171.4,8.03],[171.38,8.93],[171.0,9.07],[171.03,8.16],[171.4,8.03]]],[[[136.78,-12.53],[137.26,-12.37],[136.76,-11.44],[136.89,-10.74],[136.33,-11.37],[136.78,-12.53]]],[[[170.15,9.13],[170.56,9.56],[169.8,9.82],[169.84,8.9],[170.22,8.77],[170.15,9.13]]],[[[-18.37,27.97],[-17.86,27.22],[-17.63,28.11],[-17.13,27.62],[-16.15,28.14],[-15.66,27.64],[-14.19,27.65],[-13.17,29.14],[-13.9,29.53],[-14.92,28.02],[-16.14,28.9],[-17.14,28.38],[-17.9,29.25],[-18.39,28.73],[-18.13,28.35],[-18.37,27.97]]],[[[-170.03,-19.26],[-169.53,-19.37],[-169.48,-18.72],[-170.34,-18.97],[-170.03,-19.26]]],[[[-61.13,47.89],[-62.23,47.84],[-62.37,47.21],[-61.29,47.26],[-61.13,47.89]]],[[[-63.09,6.21],[-62.28,4.61],[-61.44,4.31],[-61.12,4.85],[-60.12,4.94],[-59.79,5.49],[-60.07,6.03],[-60.68,6.02],[-60.78,6.71],[-61.1,6.17],[-61.88,6.0],[-62.8,6.97],[-64.02,5.88],[-63.41,5.67],[-63.09,6.21]]],[[[168.05,11.45],[167.26,11.72],[166.15,11.17],[167.64,11.01],[168.05,11.45]]],[[[172.53,5.89],[171.76,6.48],[171.86,5.8],[172.53,5.89]]],[[[-17.44,33.08],[-17.7,32.69],[-16.65,32.19],[-15.87,33.34],[-16.65,32.96],[-17.44,33.08]]],[[[165.83,11.5],[165.35,12.0],[165.36,11.42],[165.83,11.5]]],[[[72.56,-7.07],[72.1,-7.25],[72.46,-7.77],[72.56,-7.07]]],[[[1.02,38.87],[1.41,38.35],[2.07,39.0],[1.68,39.53],[1.02,38.87]]],[[[165.68,9.96],[166.07,9.83],[166.46,10.27],[165.68,10.52],[165.68,9.96]]],[[[-59.74,13.42],[-59.85,12.83],[-59.07,13.01],[-59.35,13.51],[-59.74,13.42]]],[[[166.07,8.72],[166.22,9.11],[165.61,9.2],[166.07,8.72]]],[[[-1.49,55.82],[-1.91,55.56],[-1.02,55.09],[-1.49,55.82]]],[[[-134.65,-23.05],[-135.39,-23.04],[-134.5,-23.67],[-134.14,-23.46],[-134.65,-23.05]]],[[[168.71,9.85],[169.41,9.95],[168.88,10.25],[168.71,9.85]]],[[[-59.67,44.24],[-60.67,43.8],[-59.67,43.84],[-59.67,44.24]]],[[[12.33,37.33],[13.24,37.52],[12.51,37.81],[12.99,38.35],[12.77,38.53],[12.07,38.16],[12.33,37.33]]],[[[-64.95,17.94],[-64.89,17.55],[-64.35,17.8],[-64.95,17.94]]],[[[168.78,14.89],[168.44,14.64],[169.25,14.36],[168.78,14.89]]],[[[-159.62,-18.59],[-160.14,-19.17],[-159.44,-19.06],[-159.62,-18.59]]],[[[-158.91,-19.14],[-158.99,-19.57],[-158.27,-20.12],[-157.02,-20.09],[-157.48,-19.58],[-158.19,-19.69],[-158.91,-19.14]]],[[[-64.66,11.97],[-64.6,11.54],[-64.06,11.79],[-64.66,11.97]]],[[[162.23,11.29],[162.53,11.54],[162.27,12.07],[161.97,11.82],[162.23,11.29]]],[[[-87.16,5.49],[-86.71,5.28],[-86.97,5.86],[-87.4,5.83],[-87.16,5.49]]],[[[70.96,-6.16],[71.09,-6.77],[71.51,-6.82],[71.38,-6.22],[70.96,-6.16]]],[[[-83.89,17.36],[-83.68,17.71],[-84.07,17.71],[-84.3,17.12],[-83.89,17.36]]],[[[-169.06,16.7],[-169.76,17.16],[-169.92,16.53],[-169.57,16.3],[-169.06,16.7]]],[[[-116.1,40.37],[-115.43,41.08],[-117.44,41.1],[-116.65,40.28],[-116.1,40.37]]],[[[-119.67,49.03],[-119.85,48.68],[-119.27,48.78],[-119.67,49.03]]],[[[-81.72,12.57],[-82.16,12.76],[-81.68,12.13],[-81.72,12.57]]],[[[-64.81,32.13],[-64.46,32.68],[-65.11,32.44],[-64.81,32.13]]],[[[152.61,-21.76],[152.34,-22.1],[152.75,-22.64],[153.02,-22.29],[152.61,-21.76]]],[[[-92.09,1.21],[-91.66,1.24],[-92.13,1.94],[-92.09,1.21]]],[[[55.65,-4.57],[55.53,-5.01],[56.03,-4.63],[55.81,-3.93],[55.65,-4.57]]],[[[169.73,10.18],[170.44,10.28],[169.91,10.58],[169.73,10.18]]],[[[180.0,-18.47],[179.7,-19.0],[179.96,-19.29],[180.0,-18.47]]],[[[-180.0,-19.26],[-179.45,-19.03],[-179.98,-18.45],[-180.0,-19.26]]],[[[-2.09,56.13],[-3.02,56.59],[-2.51,55.87],[-2.09,56.13]]],[[[9.27,45.47],[9.93,45.62],[9.12,45.85],[8.71,45.55],[9.27,45.47]]],[[[168.04,-28.75],[167.81,-29.13],[168.06,-29.25],[168.3,-29.12],[168.04,-28.75]]],[[[-30.78,39.48],[-31.71,39.75],[-30.99,39.07],[-30.78,39.48]]],[[[120.09,23.61],[120.5,23.6],[120.8,24.14],[120.38,24.15],[120.09,23.61]]],[[[10.31,37.1],[10.18,37.51],[9.29,37.29],[10.31,37.1]]]]}}]}