{"type":"FeatureCollection","features":[{"type":"Feature","properties":{},"geometry":{"type":"MultiPolygon","coordinates":[[[[-180.0,64.57],[-179.69,64.77],[-179.95,64.98],[-179.62,65.19],[-179.03,65.18],[-178.7,65.38],[-178.11,65.37],[-177.87,65.15],[-176.36,65.31],[-176.13,65.09],[-176.49,64.89],[-176.26,64.67],[-175.7,64.65],[-175.49,64.43],[-173.44,63.91],[-172.17,64.25],[-172.35,64.47],[-171.98,64.65],[-172.16,64.88],[-171.77,65.06],[-171.95,65.29],[-169.62,65.75],[-168.33,65.42],[-168.19,65.19],[-168.59,65.02],[-168.45,64.79],[-166.96,64.86],[-166.83,64.63],[-165.65,64.29],[-164.29,64.55],[-163.77,64.49],[-163.68,64.26],[-162.23,64.28],[-162.15,64.05],[-161.65,63.98],[-161.58,63.75],[-162.0,63.6],[-162.49,63.67],[-162.57,63.89],[-163.49,63.8],[-163.4,63.58],[-162.9,63.51],[-162.82,63.29],[-163.23,63.13],[-164.31,63.48],[-165.6,63.22],[-165.5,63.0],[-165.88,62.83],[-165.77,62.61],[-166.15,62.44],[-166.04,62.22],[-166.42,62.06],[-166.31,61.84],[-166.67,61.67],[-166.56,61.45],[-165.52,61.12],[-165.43,60.9],[-167.86,60.56],[-168.2,60.4],[-168.08,60.18],[-166.52,59.61],[-165.39,59.88],[-165.49,60.09],[-165.14,60.25],[-164.69,60.2],[-164.61,59.98],[-164.96,59.82],[-164.87,59.61],[-162.09,59.83],[-162.02,59.61],[-162.38,59.46],[-162.31,59.25],[-162.93,58.73],[-162.86,58.52],[-162.11,58.61],[-161.24,58.27],[-160.15,58.49],[-159.31,58.14],[-158.22,58.35],[-157.83,58.27],[-157.8,58.06],[-158.47,57.58],[-158.44,57.38],[-158.78,57.24],[-158.74,57.03],[-160.16,56.89],[-160.49,56.75],[-160.44,56.55],[-161.04,56.06],[-162.1,56.03],[-162.41,55.89],[-162.35,55.69],[-163.33,55.45],[-163.27,55.25],[-163.57,55.1],[-165.12,54.93],[-165.41,54.39],[-168.72,53.79],[-168.93,53.62],[-168.77,53.41],[-168.98,53.23],[-168.81,53.02],[-166.12,53.51],[-165.84,54.06],[-164.96,53.76],[-164.68,54.3],[-164.09,54.41],[-163.51,54.52],[-163.15,54.47],[-163.01,54.26],[-162.07,54.3],[-161.76,54.83],[-160.43,54.99],[-160.08,54.93],[-160.04,54.73],[-159.03,54.74],[-158.72,54.87],[-158.75,55.07],[-159.49,55.4],[-159.53,55.6],[-157.85,55.87],[-157.58,56.41],[-156.55,56.6],[-156.24,57.14],[-155.56,57.6],[-154.46,56.95],[-154.46,56.74],[-155.13,56.29],[-155.12,56.09],[-154.78,56.01],[-154.1,56.46],[-153.41,56.5],[-153.06,57.02],[-152.0,57.17],[-151.99,57.38],[-151.63,57.49],[-151.61,57.7],[-151.96,57.79],[-151.95,57.99],[-151.58,58.11],[-151.56,58.32],[-151.92,58.41],[-151.9,58.62],[-151.52,58.73],[-151.51,58.94],[-150.38,59.08],[-150.35,59.29],[-149.96,59.4],[-149.2,59.41],[-149.17,59.62],[-148.77,59.73],[-147.65,59.63],[-147.25,59.73],[-147.2,59.94],[-146.03,60.03],[-145.97,60.24],[-145.55,60.34],[-145.21,60.23],[-145.27,60.02],[-144.66,59.59],[-143.77,59.98],[-141.54,59.89],[-141.01,59.45],[-139.88,59.49],[-139.58,59.37],[-139.68,59.17],[-139.41,59.0],[-138.39,58.87],[-137.97,58.32],[-136.96,58.18],[-136.71,58.0],[-136.83,57.81],[-135.96,57.46],[-136.09,57.27],[-135.85,57.09],[-135.97,56.89],[-135.37,56.72],[-135.03,56.17],[-134.17,56.37],[-133.94,56.18],[-134.07,55.99],[-133.85,55.81],[-133.98,55.62],[-133.4,55.44],[-133.1,54.88],[-132.18,54.68],[-132.11,55.25],[-131.17,55.05],[-130.96,54.86],[-131.11,54.67],[-130.35,54.28],[-130.45,53.72],[-129.9,53.51],[-129.67,52.95],[-128.26,52.51],[-128.05,51.94],[-127.2,51.7],[-127.01,51.13],[-124.69,50.2],[-123.71,49.73],[-123.63,49.53],[-122.73,49.62],[-122.64,49.42],[-123.46,49.14],[-123.38,48.94],[-121.91,49.14],[-121.83,48.94],[-122.08,48.78],[-122.0,48.58],[-121.67,48.54],[-121.59,48.34],[-121.84,48.18],[-121.36,47.73],[-121.94,46.83],[-121.86,46.62],[-121.55,46.58],[-121.64,45.99],[-120.76,46.06],[-120.68,45.85],[-120.37,45.8],[-120.12,45.96],[-120.59,46.43],[-119.77,46.7],[-120.24,47.17],[-119.99,47.33],[-119.09,47.39],[-119.2,46.81],[-118.3,46.86],[-118.23,46.65],[-118.48,46.49],[-118.41,46.28],[-118.84,45.75],[-118.77,45.54],[-120.46,45.21],[-120.71,45.05],[-120.8,44.46],[-120.1,44.13],[-119.65,43.64],[-118.78,43.69],[-117.96,42.91],[-117.09,42.94],[-117.03,42.72],[-116.35,42.36],[-116.29,42.14],[-116.71,41.59],[-116.65,41.36],[-115.98,40.99],[-115.43,41.08],[-115.56,40.46],[-115.25,40.39],[-114.82,40.94],[-114.27,41.02],[-113.96,40.95],[-114.1,40.33],[-113.24,40.33],[-112.83,39.78],[-111.98,39.78],[-111.58,39.22],[-111.83,39.07],[-111.78,38.83],[-112.57,38.6],[-112.52,38.36],[-112.95,37.81],[-112.9,37.57],[-111.53,37.63],[-111.28,37.79],[-111.13,38.42],[-111.43,38.51],[-111.48,38.75],[-110.83,39.68],[-110.52,39.6],[-110.13,39.03],[-109.28,39.01],[-109.44,38.38],[-108.6,38.35],[-108.56,38.11],[-108.81,37.96],[-108.43,37.38],[-108.14,37.29],[-107.89,37.43],[-107.26,37.0],[-107.01,37.15],[-106.72,37.05],[-106.36,36.46],[-105.53,36.41],[-105.5,36.17],[-105.75,36.02],[-105.71,35.77],[-105.43,35.67],[-104.74,36.6],[-104.77,36.84],[-104.52,36.98],[-105.2,37.92],[-104.72,38.44],[-104.76,38.68],[-103.95,38.86],[-104.31,39.44],[-104.04,39.58],[-104.08,39.82],[-104.7,40.26],[-104.74,40.5],[-103.91,40.67],[-103.95,40.9],[-104.91,41.67],[-104.95,41.91],[-105.25,42.01],[-105.06,42.61],[-105.93,42.66],[-105.74,43.26],[-106.63,43.31],[-106.44,43.9],[-106.75,44.0],[-106.79,44.22],[-106.52,44.36],[-106.56,44.58],[-106.87,44.68],[-106.91,44.9],[-107.59,45.3],[-107.86,45.17],[-108.17,45.25],[-108.22,45.48],[-109.13,45.51],[-108.95,46.09],[-108.45,46.58],[-108.5,46.8],[-108.82,46.88],[-108.87,47.1],[-108.62,47.24],[-108.7,47.47],[-109.02,47.55],[-109.11,47.78],[-108.86,47.92],[-108.12,47.53],[-104.91,47.93],[-104.2,47.51],[-102.11,47.74],[-101.42,47.3],[-99.92,47.47],[-99.59,47.36],[-99.56,47.13],[-98.64,47.03],[-98.61,46.79],[-98.29,46.68],[-96.78,46.8],[-96.47,46.68],[-96.13,46.09],[-95.53,46.08],[-94.91,45.6],[-94.32,46.06],[-91.88,45.98],[-91.3,45.47],[-90.38,45.54],[-89.82,45.03],[-88.91,45.09],[-88.88,45.32],[-88.57,45.42],[-87.96,45.37],[-87.43,44.85],[-82.35,44.41],[-82.09,44.26],[-82.15,44.02],[-81.31,43.79],[-81.76,43.25],[-80.36,42.93],[-79.65,43.29],[-79.57,43.52],[-78.67,43.5],[-78.59,43.73],[-78.27,43.79],[-77.69,43.69],[-77.61,43.92],[-77.28,43.98],[-77.03,43.82],[-76.7,43.88],[-76.61,44.11],[-76.28,44.17],[-76.04,44.0],[-75.98,43.38],[-75.19,43.1],[-75.28,42.87],[-76.17,42.92],[-76.26,42.7],[-76.02,42.53],[-75.97,41.92],[-75.2,41.64],[-75.7,41.14],[-75.47,40.98],[-74.75,41.31],[-74.41,40.75],[-73.27,41.35],[-73.17,41.57],[-72.1,41.32],[-71.36,41.63],[-70.83,41.5],[-70.81,42.11],[-70.48,42.15],[-70.37,42.37],[-70.68,42.95],[-70.56,43.17],[-69.77,43.47],[-69.65,43.69],[-68.77,43.59],[-67.22,44.58],[-66.88,44.61],[-66.68,44.42],[-66.82,44.2],[-66.61,44.02],[-66.69,43.4],[-65.97,43.06],[-64.2,43.81],[-64.09,44.42],[-63.22,44.28],[-62.07,44.95],[-61.2,44.79],[-60.53,45.22],[-60.7,45.42],[-60.53,45.63],[-59.67,45.86],[-59.49,46.07],[-59.66,46.69],[-60.02,46.68],[-60.2,46.88],[-58.94,47.53],[-58.58,47.53],[-58.4,47.33],[-58.04,47.33],[-57.86,47.54],[-57.5,47.55],[-57.33,47.34],[-56.42,47.55],[-56.26,47.34],[-56.45,47.13],[-56.81,47.13],[-57.0,46.93],[-56.83,46.72],[-55.97,46.52],[-55.24,46.92],[-54.89,46.91],[-54.73,46.71],[-53.41,46.27],[-52.66,46.65],[-52.73,47.27],[-51.96,47.64],[-52.6,48.08],[-52.38,48.28],[-52.53,48.49],[-52.88,48.5],[-53.03,48.72],[-52.82,48.92],[-52.96,49.13],[-53.33,49.14],[-53.48,49.36],[-53.27,49.56],[-53.42,49.77],[-54.32,50.01],[-54.54,49.81],[-54.91,49.81],[-56.18,50.47],[-55.97,50.68],[-55.03,50.45],[-54.81,50.65],[-55.54,51.09],[-54.71,51.5],[-54.88,51.71],[-54.66,51.92],[-55.4,52.37],[-55.18,52.57],[-55.35,52.79],[-55.12,53.0],[-55.3,53.22],[-55.07,53.43],[-55.25,53.65],[-56.89,54.11],[-57.08,54.33],[-56.85,54.54],[-57.05,54.76],[-58.77,55.21],[-58.98,55.42],[-59.42,55.42],[-59.64,55.64],[-59.42,55.86],[-59.64,56.07],[-60.09,56.07],[-60.32,56.29],[-60.1,56.51],[-60.33,56.73],[-60.1,56.95],[-61.04,57.38],[-60.81,57.6],[-61.06,57.82],[-61.53,57.81],[-61.78,58.02],[-61.55,58.25],[-61.81,58.46],[-62.29,58.45],[-62.55,58.67],[-62.32,58.89],[-62.59,59.11],[-63.08,59.1],[-63.35,59.31],[-63.13,59.54],[-63.4,59.75],[-63.9,59.74],[-64.19,59.95],[-63.96,60.18],[-64.25,60.39],[-64.02,60.62],[-64.31,60.83],[-65.57,60.56],[-65.79,60.33],[-65.49,60.12],[-66.42,59.63],[-66.13,59.42],[-66.33,59.18],[-67.52,58.89],[-68.62,59.27],[-68.43,59.5],[-68.74,59.71],[-69.24,59.67],[-69.56,59.87],[-69.37,60.11],[-69.69,60.31],[-69.51,60.55],[-68.99,60.59],[-68.67,60.39],[-68.86,60.15],[-68.55,59.94],[-68.04,59.98],[-67.12,60.48],[-67.43,60.69],[-70.5,61.15],[-70.84,61.35],[-71.37,61.31],[-71.55,61.06],[-71.21,60.87],[-71.39,60.62],[-72.76,60.72],[-72.93,60.48],[-73.44,60.43],[-73.79,60.62],[-76.94,60.93],[-77.32,61.11],[-77.18,61.36],[-77.56,61.54],[-77.43,61.79],[-77.82,61.97],[-77.68,62.22],[-77.15,62.29],[-74.93,61.86],[-73.7,62.22],[-73.33,62.03],[-72.79,62.09],[-72.43,61.89],[-72.6,61.65],[-72.25,61.45],[-71.72,61.5],[-71.54,61.74],[-71.89,61.94],[-71.71,62.18],[-72.98,62.52],[-73.53,62.47],[-73.9,62.66],[-73.73,62.91],[-74.11,63.1],[-74.67,63.04],[-74.83,62.79],[-74.45,62.6],[-74.61,62.36],[-75.15,62.3],[-77.41,62.72],[-78.62,62.33],[-79.02,62.51],[-80.5,62.52],[-80.61,62.27],[-80.2,62.1],[-80.31,61.85],[-79.91,61.68],[-78.74,62.08],[-78.35,61.9],[-78.48,61.65],[-78.08,61.47],[-78.21,61.22],[-78.73,61.15],[-78.85,60.9],[-78.47,60.72],[-78.59,60.47],[-78.21,60.29],[-78.33,60.04],[-77.96,59.86],[-78.09,59.61],[-79.18,59.22],[-79.29,58.97],[-78.92,58.79],[-79.04,58.54],[-78.68,58.36],[-78.79,58.11],[-77.62,57.83],[-77.74,57.58],[-77.4,57.4],[-77.52,57.15],[-77.18,56.97],[-77.3,56.72],[-77.75,56.65],[-78.09,56.83],[-77.98,57.08],[-78.32,57.26],[-78.2,57.51],[-79.37,57.79],[-79.26,58.04],[-79.62,58.21],[-80.08,58.13],[-80.18,57.88],[-79.83,57.71],[-79.93,57.46],[-80.38,57.38],[-80.48,57.13],[-80.13,56.96],[-80.23,56.71],[-80.67,56.63],[-80.77,56.37],[-80.42,56.2],[-80.52,55.95],[-80.18,55.78],[-80.27,55.53],[-79.17,55.26],[-79.28,55.01],[-80.46,55.03],[-80.55,54.78],[-80.22,54.61],[-80.31,54.36],[-79.99,54.19],[-80.08,53.94],[-80.49,53.86],[-81.06,54.45],[-81.48,54.37],[-81.81,54.54],[-81.73,54.79],[-82.06,54.96],[-81.98,55.21],[-82.33,55.37],[-85.06,55.5],[-85.72,56.06],[-86.14,55.97],[-87.3,56.17],[-87.25,56.43],[-87.63,56.58],[-87.58,56.83],[-87.96,56.98],[-89.19,56.91],[-89.94,57.46],[-90.36,57.34],[-92.39,57.52],[-92.38,57.78],[-91.96,57.9],[-91.94,58.15],[-92.76,58.68],[-92.75,58.93],[-94.02,59.07],[-94.02,59.32],[-94.45,59.45],[-94.45,59.71],[-94.02,59.83],[-94.02,60.09],[-94.46,60.22],[-94.46,60.47],[-94.02,60.6],[-94.02,60.85],[-93.11,61.36],[-93.1,61.62],[-92.63,61.74],[-92.62,62.0],[-92.15,62.12],[-92.13,62.37],[-90.69,62.48],[-90.67,62.73],[-90.17,62.85],[-90.14,63.11],[-90.61,63.24],[-91.11,63.13],[-91.13,62.87],[-92.59,62.76],[-92.6,62.51],[-93.08,62.38],[-93.08,62.13],[-94.02,61.62],[-96.32,61.73],[-96.34,61.98],[-97.32,62.47],[-97.35,62.72],[-97.84,62.84],[-97.87,63.09],[-98.37,63.2],[-98.82,63.06],[-98.78,62.81],[-99.23,62.66],[-99.72,62.77],[-99.77,63.02],[-100.27,63.13],[-100.33,63.38],[-99.87,63.53],[-99.92,63.78],[-100.44,63.88],[-100.49,64.13],[-101.6,64.58],[-101.67,64.83],[-102.21,64.93],[-102.28,65.18],[-102.83,65.27],[-102.91,65.52],[-104.47,65.54],[-104.57,65.79],[-105.13,65.87],[-105.24,66.12],[-105.8,66.2],[-105.92,66.44],[-105.45,66.61],[-105.56,66.85],[-106.86,67.25],[-106.99,67.5],[-107.59,67.57],[-107.73,67.81],[-106.15,68.07],[-106.28,68.32],[-105.78,68.48],[-105.16,68.41],[-105.04,68.16],[-104.43,68.08],[-104.32,67.83],[-103.72,67.75],[-103.21,67.91],[-103.31,68.15],[-103.92,68.24],[-104.02,68.49],[-104.65,68.57],[-104.76,68.81],[-104.24,68.98],[-104.35,69.22],[-104.99,69.3],[-105.51,69.14],[-106.94,69.53],[-107.45,69.36],[-107.31,69.12],[-108.93,68.84],[-110.38,69.2],[-110.56,69.44],[-112.34,69.37],[-112.53,69.6],[-114.07,69.93],[-114.29,70.16],[-113.82,70.35],[-113.14,70.3],[-112.93,70.07],[-112.26,70.02],[-111.78,70.2],[-111.98,70.43],[-111.49,70.62],[-111.69,70.85],[-112.39,70.9],[-112.88,70.72],[-114.5,71.03],[-114.97,70.85],[-116.81,70.73],[-117.07,70.95],[-115.45,71.3],[-115.7,71.53],[-116.42,71.56],[-116.68,71.79],[-117.41,71.82],[-117.86,71.62],[-119.6,71.89],[-119.9,72.11],[-119.46,72.3],[-117.69,72.04],[-117.22,72.23],[-117.5,72.45],[-117.02,72.65],[-117.3,72.87],[-116.81,73.06],[-114.73,73.19],[-114.19,73.38],[-114.45,73.6],[-115.26,73.64],[-115.54,73.86],[-116.36,73.89],[-116.88,73.7],[-116.59,73.48],[-117.1,73.29],[-119.16,73.14],[-119.62,72.94],[-119.31,72.72],[-119.77,72.52],[-120.52,72.54],[-121.94,72.98],[-123.84,73.2],[-124.2,73.41],[-123.79,73.62],[-122.99,73.61],[-122.55,73.82],[-124.12,74.24],[-124.97,74.22],[-125.39,74.01],[-124.96,73.82],[-125.37,73.61],[-124.98,73.41],[-125.38,73.2],[-125.01,72.99],[-125.39,72.79],[-125.03,72.58],[-126.5,72.16],[-125.06,71.75],[-124.35,71.75],[-124.01,71.54],[-124.38,71.33],[-123.04,70.91],[-119.03,71.45],[-118.74,71.23],[-119.17,71.03],[-118.89,70.81],[-118.2,70.79],[-117.0,70.31],[-117.42,70.11],[-117.18,69.89],[-117.59,69.7],[-117.35,69.47],[-116.7,69.44],[-116.46,69.21],[-116.87,69.02],[-119.31,69.56],[-119.57,69.78],[-120.23,69.8],[-120.5,70.02],[-121.17,70.04],[-121.54,69.83],[-123.16,70.07],[-123.51,69.87],[-124.16,69.88],[-124.47,70.09],[-124.13,70.29],[-124.44,70.5],[-125.11,70.51],[-125.45,70.3],[-125.13,70.09],[-125.46,69.88],[-126.11,69.88],[-127.43,70.29],[-127.11,70.5],[-127.46,70.7],[-128.12,70.69],[-128.43,70.48],[-128.08,70.28],[-128.38,70.07],[-129.02,70.06],[-130.39,70.44],[-131.07,70.4],[-131.34,70.18],[-132.92,69.87],[-133.16,69.65],[-135.97,69.8],[-136.18,69.58],[-137.65,69.22],[-138.1,69.37],[-137.92,69.6],[-138.38,69.75],[-141.28,69.81],[-141.78,69.96],[-141.63,70.19],[-142.14,70.33],[-147.58,70.39],[-148.15,70.52],[-148.08,70.76],[-148.67,70.89],[-151.82,70.78],[-152.44,70.9],[-152.42,71.14],[-154.35,71.23],[-154.35,71.47],[-155.02,71.58],[-157.66,71.51],[-158.28,71.37],[-158.22,71.12],[-160.11,70.92],[-160.03,70.68],[-160.62,70.53],[-162.54,70.54],[-163.11,70.37],[-162.99,70.13],[-163.54,69.97],[-163.42,69.73],[-163.96,69.57],[-163.83,69.33],[-164.36,69.17],[-166.16,69.13],[-166.66,68.96],[-166.51,68.73],[-167.0,68.55],[-166.85,68.32],[-166.22,68.26],[-166.08,68.02],[-164.73,67.65],[-164.61,67.42],[-164.02,67.35],[-163.91,67.12],[-162.66,66.74],[-162.56,66.51],[-163.59,66.42],[-163.69,66.65],[-164.27,66.72],[-164.38,66.95],[-164.96,67.02],[-165.42,66.85],[-165.3,66.62],[-165.75,66.45],[-167.35,66.4],[-167.78,66.23],[-167.64,66.0],[-168.06,65.82],[-169.37,66.16],[-169.53,66.39],[-170.12,66.43],[-170.29,66.66],[-170.89,66.71],[-171.08,66.94],[-171.69,66.98],[-171.88,67.21],[-172.5,67.25],[-172.71,67.48],[-174.38,67.35],[-174.61,67.58],[-175.25,67.61],[-175.49,67.84],[-175.08,68.03],[-175.32,68.26],[-175.98,68.29],[-176.24,68.51],[-176.91,68.54],[-177.18,68.76],[-177.86,68.78],[-178.15,69.01],[-180.0,69.38],[-180.0,64.57]],[[-107.39,68.22],[-108.01,68.29],[-108.15,68.53],[-107.66,68.71],[-107.03,68.63],[-106.9,68.39],[-107.39,68.22]]],[[[180.0,63.14],[179.01,63.52],[179.31,63.73],[179.06,63.94],[179.36,64.15],[179.11,64.36],[179.42,64.57],[180.0,64.57],[180.0,69.38],[179.85,69.48],[177.01,69.94],[176.65,70.15],[174.81,69.92],[174.43,70.13],[173.68,70.12],[173.35,69.89],[172.61,69.88],[171.04,70.27],[169.25,69.98],[168.8,70.18],[168.06,70.14],[167.78,69.91],[167.05,69.87],[166.79,69.63],[164.88,69.73],[164.64,69.49],[165.12,69.3],[166.99,69.2],[167.43,69.0],[167.18,68.76],[167.61,68.57],[168.3,68.61],[168.72,68.41],[168.46,68.18],[169.93,67.81],[169.67,67.58],[168.11,67.28],[167.87,67.04],[168.26,66.85],[168.02,66.62],[168.41,66.42],[168.17,66.19],[167.56,66.15],[167.16,66.34],[167.39,66.58],[166.99,66.77],[165.32,66.87],[165.11,66.63],[166.55,66.3],[166.33,66.06],[166.72,65.87],[166.5,65.64],[166.89,65.45],[166.68,65.22],[166.09,65.17],[165.88,64.94],[163.78,64.31],[163.6,64.07],[163.98,63.89],[163.81,63.66],[163.26,63.6],[162.39,63.07],[160.93,63.12],[160.79,62.88],[160.26,62.81],[160.12,62.57],[158.96,62.19],[158.84,61.95],[160.11,61.69],[159.36,61.15],[159.73,60.99],[159.6,60.75],[159.97,60.59],[161.3,60.55],[161.44,60.79],[161.08,60.96],[161.22,61.19],[161.72,61.25],[161.86,61.49],[162.37,61.55],[163.58,61.26],[163.42,61.03],[162.92,60.97],[162.77,60.74],[162.28,60.68],[162.14,60.45],[161.65,60.39],[161.52,60.15],[161.04,60.09],[160.91,59.86],[159.26,59.19],[159.15,58.96],[159.5,58.8],[158.83,58.26],[157.59,58.27],[157.5,58.04],[156.53,57.65],[156.45,57.42],[156.79,57.27],[156.7,57.04],[155.29,56.34],[155.21,56.11],[155.81,55.6],[155.26,55.06],[155.58,54.92],[155.51,54.7],[155.83,54.56],[155.76,54.33],[156.07,54.19],[156.0,53.97],[156.29,53.82],[156.2,53.6],[156.49,53.45],[156.39,53.22],[156.68,53.08],[156.12,52.54],[156.4,52.39],[156.31,52.16],[156.78,51.63],[157.8,51.63],[158.38,52.16],[157.44,52.39],[157.53,52.62],[158.58,52.61],[159.17,53.14],[160.22,53.12],[160.33,53.34],[159.88,53.88],[159.99,54.1],[160.38,54.17],[160.49,54.39],[161.58,54.36],[161.7,54.58],[162.1,54.64],[162.22,54.86],[161.94,55.02],[162.05,55.24],[161.76,55.4],[162.41,55.9],[163.54,55.85],[163.67,56.07],[163.38,56.23],[163.51,56.45],[163.22,56.62],[163.35,56.84],[163.05,57.0],[163.76,57.51],[163.45,57.67],[163.59,57.9],[162.51,58.17],[162.65,58.4],[163.1,58.46],[163.42,58.29],[163.87,58.35],[164.02,58.57],[165.09,58.9],[165.25,59.12],[164.15,59.42],[163.67,59.37],[163.35,59.54],[163.49,59.76],[163.97,59.82],[164.3,59.65],[165.42,59.98],[165.73,59.8],[167.01,59.71],[167.18,59.94],[166.87,60.12],[167.05,60.34],[167.54,60.38],[167.85,60.2],[169.02,60.5],[169.32,60.31],[169.13,60.09],[169.42,59.91],[170.67,59.79],[170.88,60.0],[170.59,60.19],[170.8,60.41],[177.58,62.48],[179.64,62.07],[179.92,62.27],[179.69,62.48],[179.98,62.68],[179.75,62.89],[180.0,63.14]],[[160.66,56.25],[160.97,56.09],[160.86,55.87],[160.14,55.96],[160.24,56.19],[160.66,56.25]]],[[[-169.18,63.59],[-170.01,64.08],[-170.55,64.13],[-172.72,63.65],[-171.85,63.18],[-170.45,63.28],[-170.3,63.06],[-170.66,62.88],[-170.5,62.66],[-170.0,62.62],[-168.76,62.92],[-168.9,63.15],[-168.53,63.32],[-168.66,63.54],[-169.18,63.59]]],[[[72.23,52.58],[72.18,52.83],[72.51,52.99],[72.46,53.24],[72.8,53.39],[73.19,53.29],[75.02,53.53],[75.83,53.06],[78.39,53.28],[79.16,52.79],[80.24,52.94],[80.61,52.82],[80.62,52.56],[79.93,52.05],[79.94,51.79],[80.67,51.29],[80.68,51.04],[80.34,50.91],[80.35,50.65],[80.7,50.53],[81.04,50.66],[81.74,50.15],[82.77,50.28],[83.44,49.76],[84.46,49.87],[85.11,49.35],[85.45,49.47],[85.46,49.72],[85.14,49.85],[85.15,50.11],[85.49,50.23],[85.51,50.48],[86.54,50.57],[86.56,50.82],[86.22,50.96],[85.87,50.85],[85.54,50.98],[85.55,51.24],[85.91,51.35],[85.92,51.6],[86.28,51.72],[86.62,51.58],[87.36,52.05],[87.69,51.9],[88.05,52.01],[88.08,52.26],[87.43,52.8],[87.46,53.05],[88.23,53.51],[88.26,53.76],[87.59,54.29],[87.62,54.54],[88.0,54.64],[88.03,54.89],[87.34,55.43],[87.37,55.67],[88.51,55.73],[88.55,55.98],[87.85,56.51],[87.88,56.76],[86.73,56.94],[86.76,57.19],[86.38,57.33],[85.55,56.87],[84.79,57.39],[84.81,57.63],[84.41,57.77],[84.42,58.01],[83.21,58.16],[83.22,58.41],[82.81,58.54],[82.4,58.42],[81.99,58.55],[81.98,58.79],[80.73,58.92],[80.32,58.8],[79.9,58.92],[79.88,59.16],[78.61,59.27],[78.58,59.51],[78.14,59.63],[76.88,59.48],[75.95,59.94],[75.91,60.18],[74.58,60.25],[74.53,60.49],[74.07,60.59],[74.01,60.83],[74.43,60.97],[74.38,61.21],[73.01,61.26],[72.95,61.5],[72.47,61.59],[71.57,61.54],[71.5,61.78],[71.01,61.87],[70.11,61.8],[70.03,62.04],[69.53,62.12],[68.63,62.05],[68.54,62.28],[68.04,62.36],[67.13,62.27],[67.03,62.51],[65.62,62.49],[65.5,62.72],[65.9,62.88],[65.79,63.11],[66.19,63.27],[66.08,63.5],[66.49,63.66],[66.38,63.89],[66.8,64.04],[66.68,64.27],[66.15,64.34],[66.03,64.57],[66.46,64.72],[66.34,64.95],[65.8,65.01],[65.67,65.24],[66.1,65.4],[65.98,65.62],[66.42,65.78],[66.3,66.0],[63.74,65.86],[63.31,65.7],[63.45,65.48],[64.44,65.59],[64.99,65.52],[65.12,65.3],[61.26,64.86],[60.87,64.69],[61.02,64.47],[60.63,64.3],[60.78,64.08],[59.49,63.77],[60.32,63.29],[59.95,63.11],[60.1,62.89],[59.73,62.71],[59.88,62.49],[59.52,62.31],[60.32,61.81],[59.97,61.63],[60.11,61.41],[59.76,61.23],[59.9,61.0],[59.56,60.82],[59.7,60.59],[59.36,60.41],[59.5,60.18],[59.16,60.0],[59.31,59.77],[58.98,59.59],[58.5,59.63],[58.36,59.86],[58.69,60.05],[58.54,60.27],[58.87,60.46],[58.73,60.68],[59.07,60.87],[58.27,61.36],[58.62,61.54],[58.47,61.77],[58.81,61.95],[58.66,62.17],[59.01,62.35],[58.19,62.84],[58.55,63.02],[58.38,63.24],[57.86,63.28],[57.7,63.5],[58.96,63.82],[58.79,64.04],[59.17,64.21],[58.3,64.69],[58.68,64.87],[58.51,65.08],[58.89,65.26],[58.72,65.47],[60.08,65.78],[59.91,66.0],[60.32,66.17],[61.31,66.29],[61.15,66.51],[61.57,66.67],[61.41,66.89],[60.82,66.93],[60.4,66.77],[60.57,66.55],[60.16,66.38],[59.58,66.42],[59.41,66.64],[58.06,66.92],[57.87,67.13],[58.28,67.31],[58.1,67.51],[58.51,67.69],[58.32,67.89],[58.75,68.07],[60.85,68.33],[60.68,68.53],[61.13,68.7],[60.95,68.91],[61.41,69.07],[61.23,69.28],[60.14,69.16],[60.32,68.95],[59.87,68.78],[58.42,69.06],[54.85,68.44],[54.23,68.46],[54.01,68.66],[55.45,69.0],[55.23,69.2],[54.59,69.22],[49.55,68.34],[48.25,67.96],[46.79,68.14],[46.53,68.32],[46.86,68.52],[46.59,68.7],[45.98,68.69],[45.7,68.88],[45.09,68.86],[44.77,68.66],[43.28,68.81],[42.97,68.61],[43.26,68.43],[43.86,68.45],[44.14,68.27],[43.83,68.07],[44.11,67.89],[43.81,67.69],[43.23,67.67],[42.94,67.47],[43.22,67.28],[42.93,67.08],[42.37,67.06],[41.24,67.39],[41.52,67.6],[41.23,67.77],[41.51,67.98],[41.21,68.15],[38.88,68.4],[38.57,68.57],[38.83,68.77],[38.51,68.94],[37.02,69.03],[36.7,69.19],[36.95,69.39],[36.48,69.55],[35.2,69.26],[34.33,69.74],[33.24,69.83],[33.32,70.03],[31.7,70.25],[31.76,70.45],[31.23,70.58],[31.29,70.79],[30.74,70.92],[28.97,70.91],[27.85,71.37],[26.65,71.01],[25.46,71.46],[24.27,71.49],[23.68,71.4],[23.71,71.2],[21.98,71.12],[22.03,70.93],[21.0,70.54],[18.76,70.54],[18.84,70.35],[17.93,69.95],[18.02,69.76],[16.96,69.74],[16.48,69.64],[16.58,69.45],[15.55,69.43],[15.09,69.32],[15.2,69.14],[13.75,69.0],[13.88,68.81],[13.45,68.7],[13.58,68.52],[13.16,68.41],[13.29,68.23],[11.93,68.08],[12.07,67.9],[11.67,67.79],[11.81,67.61],[11.42,67.5],[11.56,67.33],[12.46,67.37],[12.33,67.54],[12.73,67.65],[13.26,67.58],[13.38,67.4],[12.98,67.29],[13.11,67.12],[11.83,66.97],[11.96,66.8],[11.59,66.69],[11.72,66.52],[11.35,66.41],[11.48,66.24],[10.9,65.85],[11.64,65.45],[10.48,65.3],[10.61,65.14],[10.28,65.03],[10.41,64.87],[9.6,64.53],[9.88,64.36],[9.77,64.2],[8.66,64.35],[8.54,64.18],[8.13,64.17],[8.02,64.0],[8.32,63.83],[8.2,63.66],[7.8,63.65],[6.16,62.91],[5.76,62.89],[5.66,62.71],[5.26,62.69],[5.16,62.51],[4.76,62.49],[4.67,62.31],[4.97,62.14],[4.87,61.96],[4.48,61.94],[4.39,61.75],[4.69,61.59],[4.11,61.2],[4.41,61.04],[4.32,60.85],[4.62,60.69],[4.53,60.5],[5.02,59.98],[4.93,59.79],[4.55,59.77],[4.46,59.58],[4.75,59.41],[4.66,59.22],[5.59,58.92],[5.5,58.73],[5.95,58.2],[7.93,57.99],[9.41,58.79],[10.51,58.81],[10.8,58.69],[10.69,58.5],[11.16,58.06],[11.05,57.87],[11.51,57.43],[11.4,57.24],[12.36,57.05],[12.24,56.85],[12.52,56.72],[12.41,56.53],[12.69,56.39],[12.58,56.2],[13.01,55.73],[12.9,55.53],[13.83,55.32],[14.22,55.38],[14.34,55.58],[14.06,55.72],[14.18,55.91],[15.9,55.8],[16.54,56.25],[16.94,56.3],[17.07,56.49],[16.8,56.63],[16.93,56.82],[17.46,57.06],[17.87,57.11],[18.28,56.63],[18.68,56.68],[18.81,56.87],[18.54,57.01],[19.23,57.43],[18.95,57.58],[19.09,57.76],[19.65,57.99],[19.37,58.13],[19.51,58.32],[18.82,58.42],[18.27,58.19],[18.13,58.0],[18.41,57.86],[18.27,57.68],[17.32,57.39],[16.9,57.86],[17.58,58.28],[17.3,58.42],[17.43,58.61],[18.54,58.56],[19.25,58.97],[18.97,59.11],[19.11,59.29],[20.25,59.72],[22.37,59.4],[21.79,59.19],[21.64,59.01],[21.91,58.86],[21.19,58.47],[21.46,58.32],[21.31,58.14],[21.7,57.66],[21.14,57.44],[20.99,57.26],[21.26,57.11],[20.56,56.7],[20.83,56.55],[20.69,56.36],[21.07,55.86],[20.93,55.67],[20.53,55.63],[20.39,55.44],[20.65,55.29],[20.51,55.09],[19.46,55.16],[19.33,54.97],[19.59,54.82],[19.45,54.62],[19.06,54.58],[18.67,55.08],[18.02,55.18],[17.63,55.13],[16.98,54.69],[15.95,54.73],[13.84,53.49],[14.1,53.34],[13.99,53.14],[14.25,52.99],[14.14,52.79],[14.55,52.28],[14.43,52.08],[14.07,52.02],[13.96,51.81],[14.21,51.66],[14.1,51.45],[16.57,51.06],[16.82,50.91],[16.71,50.69],[17.57,50.43],[17.45,50.22],[17.69,50.06],[18.91,49.83],[19.76,50.13],[20.6,49.84],[21.47,50.13],[22.31,49.82],[23.17,50.1],[24.01,49.78],[24.37,49.81],[24.51,50.02],[25.11,49.87],[25.99,50.12],[26.8,49.79],[27.69,50.03],[28.49,49.68],[29.38,49.91],[29.65,49.34],[30.02,49.35],[30.69,49.76],[32.19,49.41],[32.87,49.8],[33.8,49.61],[33.96,49.8],[35.87,50.38],[36.99,51.06],[37.88,50.89],[38.03,51.1],[38.38,51.12],[38.57,50.92],[38.93,50.93],[39.09,51.14],[39.44,51.15],[39.63,50.95],[39.99,50.96],[41.22,51.61],[42.14,51.41],[42.88,51.83],[43.8,51.62],[43.99,51.83],[44.37,51.83],[45.09,51.39],[45.47,51.38],[46.25,51.79],[47.18,51.55],[47.39,51.75],[47.78,51.74],[47.94,51.52],[48.32,51.5],[48.54,51.71],[48.92,51.69],[49.08,51.46],[49.47,51.44],[49.69,51.65],[50.08,51.63],[50.23,51.4],[50.62,51.37],[51.47,51.75],[52.4,51.46],[53.28,51.83],[53.67,51.79],[53.81,51.56],[54.85,51.68],[54.98,51.45],[55.37,51.41],[56.29,51.75],[57.2,51.42],[57.33,51.19],[57.06,50.99],[57.19,50.76],[58.08,50.42],[58.5,51.04],[58.38,51.28],[58.65,51.46],[59.55,51.11],[59.82,51.3],[60.22,51.24],[60.33,51.0],[60.72,50.94],[61.17,51.55],[62.25,51.61],[62.73,52.21],[63.83,52.26],[64.34,52.86],[65.45,52.88],[65.54,52.64],[65.23,52.46],[65.32,52.22],[66.43,52.23],[66.98,51.66],[69.49,51.82],[69.81,51.98],[70.2,51.89],[70.26,51.63],[71.09,51.2],[71.68,51.76],[72.06,51.67],[72.39,51.82],[72.34,52.08],[72.67,52.23],[72.62,52.48],[72.23,52.58]],[[40.72,66.6],[41.27,66.63],[41.55,66.45],[41.28,66.24],[40.74,66.22],[40.46,66.4],[40.72,66.6]],[[24.03,57.66],[24.29,57.51],[23.72,57.3],[23.36,57.79],[23.93,58.0],[24.19,57.84],[24.03,57.66]],[[36.61,65.56],[35.39,65.27],[35.1,65.44],[36.02,65.9],[35.72,66.07],[35.94,66.28],[37.28,66.19],[38.38,65.88],[38.9,65.92],[39.14,66.13],[39.67,66.16],[39.95,65.98],[39.71,65.77],[39.18,65.74],[38.94,65.53],[39.22,65.36],[38.99,65.15],[36.61,65.56]],[[63.59,64.43],[64.54,64.53],[65.08,64.47],[65.2,64.24],[63.32,64.04],[63.18,64.26],[63.59,64.43]],[[46.4,67.56],[46.73,67.75],[47.32,67.76],[47.57,67.57],[47.25,67.38],[47.5,67.19],[47.18,66.99],[46.6,66.98],[45.51,67.35],[45.82,67.55],[46.4,67.56]],[[44.04,66.73],[43.75,66.53],[43.19,66.51],[42.92,66.7],[43.21,66.9],[43.77,66.92],[44.04,66.73]]],[[[-38.33,65.89],[-38.76,65.73],[-39.3,65.81],[-39.73,65.65],[-39.62,65.41],[-40.04,65.25],[-39.92,65.01],[-39.4,64.93],[-38.98,65.09],[-39.09,65.33],[-38.66,65.49],[-38.13,65.41],[-37.7,65.57],[-37.8,65.81],[-38.33,65.89]]],[[[-180.0,70.79],[-179.47,71.0],[-178.71,70.98],[-178.39,70.75],[-177.63,70.73],[-177.18,70.94],[-177.49,71.17],[-177.03,71.37],[-178.46,71.85],[-179.27,71.87],[-180.0,71.66],[-180.0,70.79]]],[[[180.0,71.66],[178.26,71.46],[177.85,71.24],[178.22,71.02],[177.81,70.81],[178.17,70.59],[180.0,70.79],[180.0,71.66]]],[[[9.72,78.62],[10.85,78.55],[11.15,78.33],[10.36,78.19],[10.66,77.98],[13.57,77.97],[13.81,77.75],[13.03,77.62],[13.27,77.4],[15.44,77.02],[15.63,76.81],[14.88,76.68],[15.08,76.47],[15.99,76.38],[18.41,76.53],[18.27,76.74],[17.34,76.84],[17.18,77.06],[17.98,77.18],[17.83,77.39],[18.66,77.51],[18.52,77.73],[20.38,77.75],[20.49,77.53],[22.46,77.09],[24.16,77.52],[24.12,77.74],[25.05,77.84],[25.02,78.06],[22.97,78.52],[22.9,78.75],[21.83,78.86],[21.74,79.09],[25.97,79.06],[25.98,78.83],[24.95,78.73],[24.98,78.51],[25.98,78.38],[28.05,78.8],[30.11,78.75],[30.19,78.97],[27.04,79.16],[27.06,79.38],[28.17,79.48],[28.22,79.7],[27.1,79.84],[27.12,80.07],[28.32,80.16],[28.37,80.39],[27.17,80.53],[23.51,80.44],[20.8,80.9],[19.62,80.78],[19.78,80.55],[16.25,80.39],[16.49,80.17],[15.46,80.04],[11.89,80.06],[8.74,79.83],[9.13,79.62],[10.38,79.55],[10.72,79.34],[9.86,79.19],[10.2,78.98],[9.38,78.83],[9.72,78.62]]],[[[-62.9,65.09],[-63.23,65.3],[-63.84,65.29],[-64.11,65.06],[-63.77,64.85],[-63.18,64.86],[-62.9,65.09]]],[[[-63.65,63.96],[-63.97,64.18],[-64.55,64.16],[-64.8,63.93],[-64.48,63.72],[-64.73,63.49],[-66.89,62.96],[-67.23,63.16],[-67.0,63.4],[-67.34,63.6],[-68.84,63.75],[-69.05,63.51],[-68.7,63.31],[-68.13,63.34],[-67.79,63.13],[-68.01,62.9],[-66.79,62.51],[-67.01,62.28],[-70.23,62.75],[-70.59,62.95],[-71.14,62.91],[-71.34,62.67],[-70.98,62.47],[-69.53,62.35],[-69.19,62.15],[-68.64,62.19],[-68.31,61.98],[-67.77,62.01],[-67.44,61.81],[-66.9,61.84],[-66.58,61.63],[-64.37,61.28],[-64.14,61.51],[-64.44,61.72],[-64.2,61.95],[-64.51,62.16],[-64.27,62.39],[-64.58,62.61],[-64.34,62.84],[-64.65,63.05],[-63.59,63.52],[-63.9,63.74],[-63.65,63.96]],[[-66.23,62.54],[-66.01,62.77],[-65.45,62.8],[-65.13,62.59],[-65.37,62.35],[-65.91,62.33],[-66.23,62.54]]],[[[49.62,69.67],[47.98,69.47],[47.62,69.28],[47.9,69.1],[47.54,68.91],[48.69,68.53],[50.28,68.72],[50.65,68.91],[50.4,69.1],[50.78,69.29],[49.62,69.67]]],[[[-49.06,61.82],[-49.24,62.05],[-49.76,62.09],[-50.08,61.89],[-49.9,61.66],[-49.39,61.62],[-49.21,61.39],[-49.53,61.19],[-49.35,60.96],[-48.86,60.92],[-48.04,60.41],[-46.75,60.51],[-46.6,60.28],[-45.51,59.94],[-45.37,59.71],[-44.91,59.65],[-44.58,59.84],[-43.54,59.49],[-43.21,59.67],[-43.33,59.91],[-42.99,60.08],[-43.12,60.32],[-42.77,60.5],[-42.89,60.73],[-42.55,60.91],[-42.67,61.15],[-42.32,61.32],[-42.44,61.56],[-42.08,61.73],[-42.2,61.97],[-41.83,62.15],[-41.95,62.38],[-41.58,62.56],[-41.7,62.8],[-41.33,62.97],[-41.44,63.21],[-41.95,63.27],[-42.33,63.1],[-42.2,62.86],[-42.57,62.69],[-42.45,62.45],[-42.81,62.27],[-42.68,62.04],[-43.04,61.86],[-42.92,61.62],[-43.27,61.45],[-43.14,61.21],[-43.49,61.03],[-43.36,60.79],[-44.52,60.49],[-46.24,61.12],[-47.39,60.79],[-47.88,60.84],[-48.04,61.07],[-47.71,61.26],[-47.88,61.5],[-49.06,61.82]]],[[[62.9,69.94],[62.49,69.77],[62.74,69.56],[63.8,69.67],[63.56,69.89],[62.9,69.94]]],[[[105.77,51.74],[106.11,51.79],[106.22,52.01],[105.99,52.19],[105.64,52.14],[105.53,51.92],[105.77,51.74]]],[[[-40.22,64.6],[-40.62,64.43],[-40.51,64.19],[-40.91,64.03],[-40.79,63.79],[-41.18,63.62],[-41.06,63.38],[-40.56,63.31],[-40.17,63.47],[-40.28,63.71],[-39.89,63.88],[-39.99,64.12],[-39.59,64.28],[-39.7,64.52],[-40.22,64.6]]],[[[9.87,57.67],[10.33,57.23],[10.72,57.3],[10.83,57.49],[10.36,57.93],[9.97,57.86],[9.87,57.67]]],[[[59.66,70.54],[58.98,70.58],[58.6,70.4],[58.9,70.19],[58.53,70.02],[58.83,69.81],[60.41,69.53],[61.83,69.82],[59.66,70.54]]],[[[-21.77,63.72],[-20.94,63.69],[-21.0,63.46],[-20.63,63.34],[-19.39,63.41],[-18.23,63.24],[-17.8,63.33],[-17.71,63.56],[-16.48,63.6],[-15.84,64.14],[-14.59,64.16],[-13.9,64.68],[-13.44,64.76],[-13.32,64.98],[-13.66,65.12],[-13.53,65.34],[-13.06,65.42],[-12.93,65.64],[-14.11,65.86],[-13.98,66.08],[-14.34,66.22],[-14.22,66.45],[-14.59,66.59],[-16.35,66.72],[-17.45,66.32],[-18.74,66.51],[-19.81,66.09],[-21.61,66.16],[-22.42,66.65],[-23.36,66.67],[-23.85,66.57],[-23.89,66.33],[-24.89,65.87],[-24.92,65.64],[-24.08,65.16],[-24.11,64.92],[-24.57,64.81],[-24.6,64.58],[-22.86,64.55],[-22.46,64.43],[-22.51,64.2],[-22.95,64.09],[-23.0,63.86],[-21.77,63.72]],[[-23.1,65.61],[-24.01,65.63],[-23.97,65.86],[-23.49,65.97],[-23.06,65.85],[-23.1,65.61]],[[-16.64,64.19],[-17.81,64.37],[-17.72,64.6],[-18.09,64.73],[-18.01,64.96],[-16.34,64.86],[-16.44,64.64],[-16.08,64.5],[-16.19,64.27],[-16.64,64.19]]],[[[92.87,53.52],[92.93,53.77],[92.61,53.92],[92.66,54.17],[91.62,54.39],[90.82,53.95],[90.36,53.37],[92.77,53.03],[93.14,53.12],[93.19,53.37],[92.87,53.52]]],[[[-76.57,63.29],[-76.01,63.35],[-75.86,63.6],[-77.24,63.9],[-77.09,64.15],[-77.51,64.33],[-77.36,64.57],[-77.79,64.75],[-77.64,65.0],[-77.05,65.07],[-76.9,65.32],[-77.33,65.5],[-77.93,65.43],[-78.08,65.18],[-78.66,65.11],[-78.8,64.86],[-78.37,64.68],[-78.51,64.43],[-78.08,64.26],[-78.22,64.01],[-77.8,63.83],[-77.94,63.58],[-78.5,63.51],[-78.63,63.26],[-78.22,63.08],[-76.97,63.47],[-76.57,63.29]]],[[[157.94,62.04],[157.43,61.96],[157.32,61.72],[157.71,61.56],[158.21,61.64],[158.33,61.88],[157.94,62.04]]],[[[-86.11,63.46],[-85.66,63.31],[-85.73,63.05],[-85.28,62.9],[-84.15,63.34],[-84.06,63.6],[-86.51,63.87],[-86.44,64.12],[-85.9,64.23],[-85.83,64.48],[-86.3,64.63],[-86.85,64.53],[-86.91,64.28],[-87.45,64.17],[-87.51,63.92],[-87.04,63.77],[-87.1,63.51],[-86.64,63.36],[-86.11,63.46]]],[[[-76.1,64.03],[-75.53,64.09],[-75.37,64.34],[-75.78,64.52],[-76.36,64.46],[-76.52,64.21],[-76.1,64.03]]],[[[-95.72,67.32],[-95.16,67.46],[-95.17,67.71],[-95.75,67.83],[-96.31,67.69],[-96.29,67.44],[-95.72,67.32]]],[[[-34.43,66.15],[-34.5,66.39],[-35.03,66.48],[-35.48,66.33],[-35.41,66.09],[-34.89,66.0],[-34.43,66.15]]],[[[77.31,49.67],[78.33,49.84],[77.93,50.47],[76.17,50.52],[75.74,51.14],[74.96,51.61],[73.91,51.42],[73.11,51.88],[72.78,51.72],[72.83,51.47],[71.79,51.26],[71.85,51.01],[71.53,50.85],[72.01,50.24],[73.07,50.2],[73.12,49.95],[73.9,49.49],[74.22,49.64],[75.26,49.57],[75.3,49.32],[76.04,48.84],[77.72,49.05],[77.31,49.67]]],[[[104.2,52.57],[103.85,52.52],[103.74,52.29],[103.99,52.12],[104.35,52.17],[104.45,52.4],[104.2,52.57]]],[[[152.94,59.35],[151.71,59.54],[151.77,59.78],[151.37,59.92],[150.51,59.96],[150.06,59.85],[150.02,59.61],[151.27,59.44],[151.22,59.2],[151.94,58.69],[152.88,59.12],[154.09,58.92],[155.06,59.33],[155.14,59.57],[154.45,60.1],[153.14,60.07],[153.07,59.83],[153.46,59.68],[153.39,59.45],[152.94,59.35]]],[[[-22.76,69.5],[-22.7,69.73],[-22.13,69.83],[-22.07,70.07],[-22.58,70.2],[-23.16,70.1],[-23.21,69.86],[-23.78,69.76],[-23.83,69.52],[-22.76,69.5]]],[[[58.08,73.77],[58.54,73.96],[58.15,74.17],[57.3,74.2],[56.86,74.01],[57.25,73.8],[56.82,73.61],[56.0,73.64],[55.59,73.84],[56.02,74.03],[55.6,74.24],[56.04,74.43],[56.9,74.41],[57.36,74.6],[56.94,74.81],[57.42,75.0],[56.99,75.22],[56.08,75.24],[55.62,75.05],[56.06,74.83],[55.61,74.64],[54.73,74.66],[54.31,74.47],[54.75,74.26],[53.1,73.88],[53.54,73.68],[53.16,73.49],[53.58,73.29],[52.07,72.91],[52.49,72.71],[52.15,72.52],[52.56,72.32],[52.22,72.13],[51.48,72.14],[51.16,71.94],[51.57,71.75],[51.25,71.56],[51.65,71.36],[52.36,71.36],[52.74,71.16],[52.42,70.97],[52.8,70.78],[53.48,70.77],[54.87,70.35],[56.56,70.49],[56.88,70.28],[57.56,70.25],[57.92,70.43],[57.6,70.64],[57.98,70.82],[57.66,71.02],[55.91,71.28],[55.55,71.49],[55.92,71.67],[55.56,71.87],[55.93,72.06],[55.57,72.27],[55.95,72.45],[55.57,72.66],[57.16,73.01],[56.78,73.22],[57.2,73.4],[58.01,73.38],[58.45,73.56],[58.08,73.77]],[[54.78,73.46],[55.59,73.45],[55.98,73.24],[55.58,73.05],[54.79,73.07],[54.38,73.27],[54.78,73.46]]],[[[-61.69,48.08],[-62.4,47.63],[-62.18,47.01],[-61.29,47.26],[-61.11,47.47],[-61.32,48.09],[-61.69,48.08]]],[[[-146.5,59.72],[-146.9,59.62],[-146.95,59.42],[-146.21,59.41],[-146.15,59.62],[-146.5,59.72]]],[[[61.16,75.28],[60.24,75.32],[59.72,75.13],[60.11,74.91],[61.0,74.88],[61.53,75.06],[61.16,75.28]]],[[[172.96,52.73],[173.36,52.76],[173.6,52.57],[173.44,52.35],[173.68,52.16],[174.07,52.18],[174.24,52.4],[174.0,52.59],[174.16,52.8],[173.92,52.99],[172.87,53.13],[172.71,52.92],[172.96,52.73]]],[[[-156.12,55.71],[-155.45,55.76],[-155.46,55.96],[-155.81,56.04],[-156.14,55.91],[-156.12,55.71]]],[[[47.31,80.37],[47.85,80.58],[49.28,80.6],[52.31,80.2],[53.69,80.2],[54.37,80.4],[53.62,80.62],[49.88,80.82],[49.0,81.02],[45.5,80.75],[45.01,80.53],[45.93,80.34],[47.31,80.37]]],[[[-72.44,63.25],[-72.07,63.06],[-71.51,63.11],[-71.32,63.35],[-71.69,63.54],[-72.25,63.5],[-72.44,63.25]]],[[[-101.49,67.88],[-102.09,67.97],[-102.61,67.82],[-102.52,67.57],[-101.93,67.48],[-99.17,67.73],[-99.22,67.98],[-99.82,68.08],[-101.49,67.88]]],[[[-83.6,64.87],[-83.14,64.7],[-82.57,64.79],[-82.47,65.05],[-82.94,65.21],[-83.51,65.12],[-83.6,64.87]]],[[[-103.78,43.73],[-103.74,43.5],[-103.17,43.53],[-103.54,44.08],[-103.26,44.21],[-103.29,44.44],[-104.19,44.51],[-104.22,44.73],[-104.53,44.83],[-105.39,44.67],[-104.66,43.79],[-103.78,43.73]]],[[[66.2,70.87],[66.42,70.65],[67.1,70.58],[67.57,70.74],[67.36,70.97],[66.67,71.03],[66.2,70.87]]],[[[-8.05,71.15],[-8.44,71.32],[-9.06,71.27],[-9.28,71.05],[-8.88,70.89],[-8.27,70.94],[-8.05,71.15]]],[[[-173.05,60.39],[-173.36,60.2],[-173.2,59.99],[-171.64,60.29],[-171.78,60.5],[-172.89,60.78],[-173.05,60.99],[-173.53,61.02],[-173.85,60.84],[-173.05,60.39]]],[[[-170.72,52.79],[-171.09,52.82],[-171.3,52.64],[-171.12,52.43],[-170.75,52.4],[-169.39,52.88],[-169.56,53.09],[-169.93,53.12],[-170.72,52.79]]],[[[165.92,54.74],[166.61,54.62],[166.75,54.83],[166.47,55.0],[166.61,55.22],[165.92,55.34],[165.78,55.12],[166.06,54.96],[165.92,54.74]]],[[[25.16,76.52],[26.86,76.48],[26.87,76.7],[26.01,76.83],[23.42,76.75],[23.47,76.54],[25.16,76.52]]],[[[74.34,48.87],[74.7,48.76],[75.01,48.91],[74.98,49.17],[74.62,49.28],[74.3,49.13],[74.34,48.87]]],[[[-82.5,62.44],[-82.07,62.27],[-81.55,62.36],[-81.45,62.61],[-81.87,62.78],[-81.77,63.03],[-83.17,63.28],[-83.7,63.18],[-83.79,62.93],[-84.32,62.84],[-84.4,62.58],[-83.97,62.42],[-84.05,62.17],[-83.62,62.01],[-83.11,62.1],[-83.02,62.35],[-83.45,62.51],[-83.36,62.77],[-82.83,62.86],[-82.4,62.69],[-82.5,62.44]]],[[[30.62,-70.54],[31.2,-70.41],[31.14,-70.17],[29.94,-70.18],[29.98,-70.42],[30.62,-70.54]]],[[[-88.75,65.37],[-88.2,65.48],[-88.15,65.74],[-88.65,65.88],[-89.21,65.77],[-89.26,65.51],[-88.75,65.37]]],[[[-64.96,64.81],[-65.56,64.8],[-65.81,64.56],[-65.47,64.35],[-64.88,64.37],[-64.63,64.6],[-64.96,64.81]]],[[[-77.63,42.23],[-77.94,42.16],[-78.02,41.94],[-77.47,41.84],[-77.39,42.07],[-77.63,42.23]]],[[[167.84,54.75],[167.99,54.96],[167.72,55.13],[167.3,55.09],[167.16,54.88],[167.43,54.7],[167.29,54.49],[167.56,54.31],[167.97,54.36],[168.11,54.57],[167.84,54.75]]],[[[-85.86,66.16],[-86.44,66.05],[-86.51,65.8],[-87.08,65.7],[-87.14,65.44],[-86.65,65.29],[-86.72,65.04],[-86.23,64.89],[-85.68,64.99],[-85.6,65.24],[-86.09,65.4],[-86.01,65.65],[-85.44,65.75],[-85.36,66.0],[-85.86,66.16]]],[[[-21.26,70.86],[-21.18,71.1],[-21.72,71.24],[-22.33,71.14],[-22.39,70.91],[-21.26,70.86]]],[[[-132.87,53.76],[-131.98,53.56],[-131.84,53.75],[-132.6,54.13],[-132.95,54.13],[-133.08,53.94],[-132.87,53.76]]],[[[-29.21,68.37],[-29.75,68.48],[-30.26,68.35],[-30.24,68.11],[-29.71,68.0],[-29.2,68.13],[-29.21,68.37]]],[[[71.41,66.36],[71.5,66.14],[72.52,66.19],[72.45,66.41],[71.89,66.5],[71.41,66.36]]],[[[34.42,-69.4],[34.52,-69.63],[35.67,-69.59],[35.56,-69.36],[34.23,-68.93],[33.71,-69.07],[33.8,-69.3],[34.42,-69.4]]],[[[-174.17,51.81],[-173.41,52.18],[-174.16,52.61],[-175.12,52.45],[-175.32,52.26],[-175.12,52.05],[-174.17,51.81]]],[[[-81.88,63.96],[-82.43,63.87],[-82.53,63.62],[-81.12,63.37],[-79.9,63.78],[-79.77,64.03],[-81.21,64.29],[-81.1,64.55],[-81.55,64.71],[-82.12,64.63],[-82.22,64.38],[-81.77,64.21],[-81.88,63.96]]],[[[-170.2,57.4],[-170.49,57.23],[-170.37,57.02],[-169.66,57.16],[-169.78,57.36],[-170.2,57.4]]],[[[155.56,60.76],[155.08,60.67],[155.0,60.43],[155.39,60.28],[156.43,60.69],[156.53,60.92],[156.13,61.08],[155.65,60.99],[155.56,60.76]]],[[[-49.8,62.75],[-50.33,62.79],[-50.66,62.59],[-50.47,62.36],[-49.95,62.32],[-49.61,62.52],[-49.8,62.75]]],[[[-79.65,38.72],[-79.95,38.65],[-80.01,38.44],[-79.5,38.35],[-79.43,38.57],[-79.65,38.72]]],[[[-73.2,63.64],[-72.64,63.69],[-72.45,63.93],[-72.84,64.13],[-73.41,64.07],[-73.59,63.83],[-73.2,63.64]]],[[[-80.44,58.31],[-80.34,58.56],[-80.71,58.73],[-81.18,58.65],[-81.28,58.4],[-80.91,58.23],[-80.44,58.31]]],[[[-169.32,56.54],[-169.43,56.75],[-169.84,56.78],[-170.13,56.62],[-170.01,56.41],[-169.32,56.54]]],[[[14.49,55.24],[14.37,55.04],[15.29,54.82],[15.68,54.87],[15.8,55.07],[14.49,55.24]]],[[[58.4,75.38],[58.91,75.57],[58.49,75.79],[57.54,75.81],[57.04,75.62],[57.48,75.41],[58.4,75.38]]],[[[-80.13,59.06],[-80.03,59.31],[-79.55,59.39],[-79.43,59.64],[-79.81,59.82],[-79.7,60.07],[-80.08,60.24],[-80.58,60.16],[-80.68,59.91],[-81.17,59.83],[-81.27,59.58],[-80.89,59.41],[-80.99,59.15],[-80.61,58.98],[-80.13,59.06]]],[[[-1.22,60.16],[-0.83,60.2],[-0.76,60.4],[-1.48,60.51],[-1.55,60.31],[-1.22,60.16]]],[[[-31.32,68.33],[-31.87,68.44],[-32.37,68.3],[-32.33,68.06],[-31.78,67.95],[-31.28,68.09],[-31.32,68.33]]],[[[31.78,79.96],[33.01,80.04],[33.18,80.27],[30.79,80.34],[30.68,80.11],[31.78,79.96]]],[[[-122.38,74.65],[-122.85,74.44],[-122.47,74.23],[-121.64,74.22],[-121.17,74.43],[-121.53,74.64],[-122.38,74.65]]],[[[-24.9,69.54],[-25.46,69.43],[-25.49,69.2],[-26.03,69.08],[-26.05,68.85],[-25.54,68.72],[-24.42,69.18],[-24.38,69.42],[-24.9,69.54]]],[[[177.87,52.12],[177.64,52.32],[177.25,52.31],[177.08,52.1],[177.3,51.9],[177.7,51.91],[177.87,52.12]]],[[[156.23,61.32],[156.72,61.4],[156.82,61.64],[156.42,61.8],[155.92,61.71],[155.83,61.47],[156.23,61.32]]],[[[18.89,74.3],[20.31,74.3],[20.22,74.51],[19.45,74.61],[19.35,74.82],[18.55,74.92],[17.87,74.81],[18.0,74.6],[18.78,74.5],[18.89,74.3]]],[[[-102.44,68.96],[-103.07,69.05],[-103.6,68.89],[-103.5,68.65],[-102.88,68.56],[-102.35,68.72],[-102.44,68.96]]],[[[-109.31,37.65],[-109.36,37.9],[-109.65,37.99],[-109.9,37.83],[-109.85,37.59],[-109.56,37.5],[-109.31,37.65]]],[[[104.49,51.77],[104.73,51.59],[105.07,51.64],[105.18,51.87],[104.94,52.05],[104.59,51.99],[104.49,51.77]]],[[[-59.67,44.24],[-60.0,44.23],[-60.67,43.8],[-60.5,43.61],[-59.67,43.84],[-59.5,44.04],[-59.67,44.24]]],[[[-177.44,52.12],[-177.62,51.92],[-178.01,51.93],[-178.19,51.73],[-177.99,51.52],[-177.6,51.52],[-177.42,51.72],[-176.45,51.49],[-175.7,51.87],[-175.89,52.08],[-176.85,51.91],[-177.05,52.11],[-177.44,52.12]]],[[[-122.13,44.06],[-122.06,43.84],[-121.75,43.79],[-121.51,43.96],[-121.59,44.18],[-122.13,44.06]]],[[[-85.03,65.34],[-84.55,65.18],[-83.98,65.28],[-83.89,65.53],[-84.37,65.69],[-84.95,65.59],[-85.03,65.34]]],[[[67.91,69.69],[67.46,69.53],[67.66,69.31],[68.74,69.39],[68.56,69.62],[67.91,69.69]]],[[[82.77,49.51],[82.43,49.39],[82.43,49.13],[82.76,49.0],[83.1,49.13],[83.1,49.38],[82.77,49.51]]],[[[-114.99,72.78],[-114.73,72.55],[-113.97,72.51],[-113.44,72.7],[-113.69,72.92],[-114.47,72.96],[-114.99,72.78]]],[[[165.94,-50.83],[166.28,-50.94],[166.6,-50.8],[166.59,-50.57],[165.94,-50.6],[165.94,-50.83]]],[[[-26.6,68.49],[-26.59,68.73],[-27.11,68.85],[-27.64,68.73],[-27.64,68.49],[-26.6,68.49]]],[[[-156.82,55.86],[-156.49,55.99],[-156.51,56.19],[-157.2,56.13],[-157.17,55.93],[-156.82,55.86]]],[[[-7.26,62.43],[-7.3,62.23],[-6.93,62.1],[-6.51,62.15],[-6.46,62.35],[-7.26,62.43]]],[[[-33.63,66.92],[-33.1,66.82],[-32.63,66.96],[-32.68,67.2],[-33.21,67.3],[-33.69,67.16],[-33.63,66.92]]],[[[-36.83,65.88],[-36.74,65.64],[-36.22,65.55],[-35.78,65.7],[-35.86,65.94],[-36.38,66.03],[-36.83,65.88]]],[[[70.76,66.67],[69.72,66.6],[69.82,66.38],[70.38,66.3],[70.85,66.44],[70.76,66.67]]]]}}]}