{"type":"FeatureCollection","features":[{"type":"Feature","properties":{},"geometry":{"type":"MultiPolygon","coordinates":[[[[-180.0,64.57],[-179.69,64.77],[-179.95,64.98],[-180.0,64.57]]],[[[-180.0,65.4],[-179.62,65.19],[-179.03,65.18],[-178.7,65.38],[-177.29,65.13],[-176.0,65.51],[-176.22,65.73],[-176.82,65.75],[-177.17,65.55],[-177.76,65.57],[-178.86,66.02],[-179.47,66.03],[-180.0,65.83],[-180.0,65.4]]],[[[-180.0,66.68],[-179.3,66.88],[-179.58,67.1],[-180.0,67.11],[-180.0,66.68]]],[[[180.0,67.11],[178.85,67.34],[178.51,67.12],[176.9,66.91],[176.59,67.12],[176.91,67.34],[176.6,67.55],[174.95,67.75],[174.6,67.96],[174.92,68.18],[174.57,68.39],[174.9,68.62],[174.54,68.83],[174.87,69.05],[176.63,69.28],[176.99,69.5],[177.71,69.5],[178.05,69.28],[178.75,69.28],[180.0,68.89],[180.0,69.38],[179.85,69.48],[177.01,69.94],[176.65,70.15],[174.81,69.92],[173.28,70.33],[171.36,70.5],[169.99,70.01],[168.06,70.14],[167.78,69.91],[167.05,69.87],[166.79,69.63],[163.67,69.86],[163.16,70.05],[161.51,69.68],[160.99,69.86],[161.19,70.11],[160.66,70.29],[160.85,70.53],[162.87,70.48],[163.1,70.72],[162.57,70.91],[155.88,71.41],[155.13,71.33],[155.0,71.07],[152.91,71.04],[152.27,71.19],[152.37,71.45],[151.72,71.6],[150.97,71.5],[150.31,71.64],[150.38,71.9],[151.13,72.01],[151.22,72.26],[150.52,72.41],[148.29,72.33],[147.57,72.47],[147.61,72.72],[146.87,72.86],[146.1,72.74],[143.84,72.86],[143.81,73.12],[144.58,73.25],[144.57,73.51],[143.77,73.63],[143.74,73.89],[142.92,74.01],[142.88,74.27],[142.03,74.39],[141.98,74.65],[144.5,74.8],[144.49,75.06],[145.36,75.19],[146.22,75.06],[146.21,74.8],[147.04,74.66],[147.91,74.78],[150.41,74.61],[152.31,75.08],[152.43,75.34],[151.61,75.49],[148.91,75.42],[148.04,75.56],[148.09,75.81],[147.2,75.95],[144.45,75.83],[143.52,75.95],[143.49,76.21],[140.64,76.3],[140.56,76.56],[139.55,76.67],[138.65,76.52],[138.77,76.26],[137.9,76.11],[136.91,76.2],[134.25,75.97],[134.45,75.71],[135.42,75.63],[135.59,75.37],[136.54,75.28],[136.69,75.02],[137.61,74.93],[137.74,74.67],[139.6,74.21],[139.69,73.95],[138.94,73.8],[139.04,73.55],[140.75,73.07],[140.81,72.82],[138.61,72.63],[138.71,72.37],[138.03,72.22],[138.13,71.96],[137.47,71.81],[136.71,71.9],[134.67,71.67],[132.95,72.09],[132.33,71.92],[130.15,71.89],[129.94,72.14],[130.54,72.32],[130.33,72.57],[130.94,72.74],[130.73,72.99],[128.79,73.38],[128.54,73.62],[127.65,73.68],[127.38,73.93],[126.48,73.98],[126.18,74.23],[125.26,74.28],[124.65,74.08],[122.45,74.4],[121.88,74.2],[122.24,73.96],[121.68,73.76],[122.03,73.52],[121.49,73.32],[120.61,73.35],[120.24,73.58],[119.35,73.61],[118.96,73.84],[116.71,74.1],[116.27,74.33],[116.77,74.54],[116.32,74.77],[115.36,74.78],[114.87,74.56],[115.33,74.33],[114.86,74.12],[115.31,73.89],[114.85,73.67],[113.95,73.68],[113.49,73.9],[113.93,74.12],[113.46,74.34],[113.92,74.56],[113.43,74.78],[115.39,75.22],[114.9,75.44],[115.41,75.66],[114.91,75.88],[115.45,76.1],[113.3,76.55],[113.83,76.77],[113.26,76.99],[112.14,76.98],[111.53,77.2],[108.8,76.93],[108.14,77.14],[108.6,77.37],[107.92,77.58],[104.88,77.71],[104.12,77.9],[104.53,78.14],[107.69,78.01],[108.17,78.25],[105.41,78.62],[105.87,78.85],[105.05,79.05],[105.53,79.29],[104.67,79.49],[103.32,79.44],[100.1,79.76],[100.49,80.0],[99.48,80.18],[99.87,80.43],[98.81,80.6],[99.2,80.85],[98.07,81.02],[98.46,81.27],[91.54,81.59],[90.01,81.49],[89.85,81.24],[88.4,81.13],[88.29,80.88],[92.18,80.69],[91.98,80.44],[89.17,79.99],[89.06,79.74],[90.18,79.59],[90.04,79.34],[91.11,79.19],[90.96,78.94],[91.97,78.79],[95.34,78.8],[98.4,78.53],[98.1,78.29],[98.97,78.11],[98.67,77.87],[101.44,77.56],[101.11,77.32],[100.01,77.26],[99.71,77.02],[100.47,76.84],[100.18,76.59],[99.14,76.53],[98.37,76.71],[98.64,76.95],[97.84,77.13],[98.11,77.38],[97.28,77.55],[96.19,77.48],[95.96,77.23],[94.9,77.15],[94.7,76.9],[93.68,76.82],[93.51,76.57],[91.42,76.15],[91.3,75.9],[86.93,75.89],[86.88,75.64],[86.02,75.53],[85.99,75.28],[85.16,75.17],[85.15,74.92],[84.34,74.8],[83.53,74.93],[83.52,75.18],[82.68,75.3],[82.65,75.55],[83.49,75.67],[83.47,75.92],[84.33,76.04],[84.33,76.29],[83.43,76.41],[80.79,76.28],[80.85,76.03],[80.03,75.9],[80.11,75.66],[81.88,75.18],[81.92,74.93],[82.74,74.81],[82.77,74.56],[82.0,74.44],[82.04,74.2],[81.3,74.07],[81.35,73.83],[79.16,73.68],[79.24,73.44],[78.56,73.31],[78.65,73.07],[77.99,72.93],[77.24,73.04],[77.13,73.28],[77.8,73.41],[77.7,73.66],[76.91,73.76],[76.24,73.62],[75.45,73.72],[74.8,73.57],[74.94,73.33],[72.92,73.13],[71.17,73.53],[70.97,73.77],[70.15,73.84],[69.56,73.69],[69.77,73.45],[69.2,73.29],[69.41,73.06],[68.85,72.9],[69.07,72.67],[68.53,72.51],[68.74,72.28],[68.22,72.12],[68.43,71.9],[66.69,71.64],[66.92,71.42],[66.44,71.25],[66.67,71.03],[66.2,70.87],[66.42,70.65],[65.96,70.49],[66.18,70.26],[65.74,70.1],[65.96,69.88],[66.61,69.82],[66.82,69.6],[66.38,69.44],[64.68,69.4],[63.56,69.89],[61.83,69.82],[59.66,70.54],[57.92,70.43],[57.6,70.64],[57.98,70.82],[56.62,71.26],[56.99,71.44],[56.65,71.65],[55.92,71.67],[55.56,71.87],[55.93,72.06],[55.57,72.27],[57.11,72.61],[56.74,72.82],[57.16,73.01],[56.78,73.22],[58.45,73.56],[58.08,73.77],[58.54,73.96],[59.37,73.93],[59.85,74.11],[59.48,74.33],[59.98,74.51],[60.84,74.47],[61.36,74.66],[61.0,74.88],[61.53,75.06],[63.9,75.15],[64.48,75.32],[64.15,75.55],[64.75,75.73],[68.88,75.88],[69.56,76.05],[69.3,76.28],[70.01,76.45],[69.74,76.69],[70.48,76.85],[70.22,77.09],[69.19,77.16],[68.45,76.99],[66.03,77.35],[65.33,77.17],[65.68,76.94],[65.0,76.77],[59.14,76.38],[58.59,76.19],[59.02,75.98],[58.49,75.79],[56.1,75.64],[54.25,75.27],[54.72,75.06],[54.28,74.87],[54.73,74.66],[54.31,74.47],[54.75,74.26],[54.33,74.07],[53.49,74.08],[53.1,73.88],[53.54,73.68],[51.99,73.3],[52.42,73.1],[50.96,72.72],[51.39,72.52],[51.06,72.33],[51.48,72.14],[50.12,71.75],[51.25,71.56],[51.65,71.36],[51.34,71.18],[51.73,70.98],[53.48,70.77],[54.87,70.35],[56.56,70.49],[56.88,70.28],[59.48,69.77],[59.76,69.56],[58.66,69.43],[58.22,69.26],[58.42,69.06],[56.92,68.75],[55.45,69.0],[55.23,69.2],[54.18,69.04],[52.68,69.26],[52.29,69.08],[52.53,68.89],[52.14,68.7],[50.52,68.53],[48.25,67.96],[46.79,68.14],[46.53,68.32],[46.86,68.52],[46.59,68.7],[45.09,68.86],[44.81,69.04],[45.14,69.24],[44.85,69.42],[44.23,69.4],[43.93,69.58],[44.26,69.77],[43.83,69.95],[44.03,70.14],[43.59,70.31],[43.8,70.51],[43.35,70.68],[44.44,71.1],[43.98,71.27],[44.2,71.47],[43.73,71.64],[43.96,71.84],[44.66,71.87],[44.9,72.06],[44.42,72.24],[44.66,72.44],[42.91,72.77],[43.14,72.97],[42.61,73.15],[40.55,73.25],[40.35,73.05],[39.61,73.01],[39.43,72.8],[38.14,72.92],[36.55,72.62],[35.97,72.77],[35.27,72.72],[35.15,72.51],[33.18,72.54],[33.09,72.34],[32.42,72.28],[29.88,72.42],[28.68,72.89],[27.36,72.94],[26.05,72.98],[24.77,72.6],[22.2,72.64],[22.26,72.43],[21.65,72.34],[21.71,72.13],[19.89,72.04],[19.97,71.84],[19.41,71.73],[19.49,71.53],[18.31,71.53],[17.77,71.42],[17.87,71.22],[16.19,71.1],[16.31,70.9],[15.81,70.8],[15.92,70.6],[14.34,70.46],[14.47,70.27],[14.0,70.16],[14.13,69.97],[13.35,69.56],[13.49,69.37],[12.04,69.22],[12.18,69.04],[11.76,68.92],[12.61,68.49],[12.19,68.37],[12.33,68.19],[11.93,68.08],[12.07,67.9],[11.42,67.5],[12.21,67.08],[11.83,66.97],[11.96,66.8],[11.59,66.69],[11.72,66.52],[11.35,66.41],[11.48,66.24],[10.9,65.85],[11.64,65.45],[10.48,65.3],[10.61,65.14],[10.28,65.03],[10.41,64.87],[9.6,64.53],[9.88,64.36],[9.77,64.2],[8.66,64.35],[8.54,64.18],[8.13,64.17],[8.02,64.0],[8.32,63.83],[8.2,63.66],[7.8,63.65],[6.16,62.91],[5.76,62.89],[5.66,62.71],[5.26,62.69],[5.16,62.51],[4.76,62.49],[4.67,62.31],[4.97,62.14],[4.87,61.96],[4.48,61.94],[4.39,61.75],[4.69,61.59],[4.11,61.2],[4.41,61.04],[4.32,60.85],[4.62,60.69],[4.53,60.5],[5.02,59.98],[4.46,59.58],[4.94,59.06],[4.85,58.86],[5.13,58.7],[5.05,58.51],[6.31,58.23],[6.58,58.06],[6.49,57.87],[6.78,57.76],[7.84,57.8],[7.93,57.99],[8.32,58.07],[9.0,58.03],[9.6,58.48],[9.31,58.6],[9.41,58.79],[9.81,58.86],[10.8,58.69],[10.69,58.5],[10.98,58.38],[10.87,58.19],[11.33,57.75],[11.84,58.01],[11.38,58.44],[11.49,58.63],[12.59,58.64],[12.71,58.82],[12.42,58.95],[12.54,59.14],[14.64,58.93],[15.18,59.17],[16.3,59.15],[16.85,59.38],[17.84,59.16],[16.74,58.69],[16.6,58.51],[17.03,58.05],[17.58,58.28],[17.3,58.42],[17.43,58.61],[18.54,58.56],[19.25,58.97],[18.97,59.11],[19.11,59.29],[20.25,59.72],[22.09,59.54],[22.37,59.4],[21.79,59.19],[21.64,59.01],[21.91,58.86],[21.19,58.47],[21.46,58.32],[21.31,58.14],[21.58,57.99],[21.43,57.81],[22.79,57.58],[23.16,57.09],[24.24,56.99],[24.39,57.17],[23.46,57.45],[23.62,57.63],[23.36,57.79],[23.93,58.0],[24.19,57.84],[24.03,57.66],[24.71,57.53],[24.96,57.38],[24.81,57.19],[25.72,56.9],[25.57,56.72],[26.47,56.41],[26.31,56.23],[26.65,55.72],[25.93,55.33],[26.18,55.16],[26.02,54.98],[25.63,54.95],[25.47,54.77],[25.72,54.6],[25.56,54.41],[27.69,53.79],[29.34,54.39],[29.96,54.23],[30.51,54.42],[31.48,54.29],[32.09,54.76],[33.03,54.65],[33.16,54.87],[33.53,54.9],[33.75,54.72],[34.11,54.75],[34.26,54.97],[34.62,55.0],[35.43,54.65],[34.76,54.19],[35.55,53.84],[35.4,53.63],[35.67,53.03],[36.54,53.29],[36.7,53.51],[37.64,53.36],[39.43,54.26],[40.4,54.09],[40.58,54.3],[40.97,54.32],[41.75,53.92],[42.71,54.14],[42.91,53.93],[42.71,53.72],[42.9,53.51],[43.29,53.52],[43.48,53.73],[44.45,53.52],[44.65,53.72],[45.05,53.72],[46.37,53.06],[46.76,53.06],[46.93,52.84],[47.32,52.83],[47.54,53.03],[47.37,53.25],[47.59,53.46],[47.99,53.44],[48.21,53.65],[49.18,53.4],[49.42,53.6],[49.82,53.58],[49.98,53.36],[50.38,53.34],[50.62,53.54],[51.02,53.52],[51.18,53.29],[51.58,53.26],[51.83,53.46],[52.24,53.44],[52.39,53.21],[52.79,53.18],[53.04,53.38],[53.45,53.35],[54.14,52.85],[55.21,52.97],[55.89,52.46],[56.95,52.57],[57.08,52.33],[56.82,52.14],[56.95,51.9],[57.34,51.85],[58.96,52.32],[60.73,52.53],[61.02,52.71],[60.91,52.95],[61.2,53.13],[64.45,53.52],[64.77,53.7],[65.68,53.3],[66.72,53.57],[67.13,53.49],[67.21,53.24],[66.89,53.07],[66.97,52.82],[67.37,52.74],[67.92,52.16],[69.74,52.23],[70.07,52.39],[70.91,51.95],[71.95,52.17],[71.9,52.43],[71.05,52.87],[70.99,53.12],[71.61,53.68],[72.01,53.59],[73.83,53.85],[74.67,53.39],[77.24,53.63],[78.03,53.15],[79.12,53.3],[79.5,53.18],[79.51,52.93],[80.61,52.82],[80.62,52.56],[80.27,52.43],[80.28,52.18],[81.01,51.68],[81.02,51.42],[81.37,51.3],[81.38,51.04],[81.03,50.91],[80.68,51.04],[80.34,50.91],[80.35,50.65],[80.7,50.53],[81.04,50.66],[81.39,50.53],[81.4,50.28],[82.43,50.15],[82.43,49.9],[82.09,49.77],[82.43,49.13],[82.76,49.0],[83.1,49.13],[83.44,49.76],[84.46,49.87],[84.79,49.74],[84.78,49.48],[84.44,49.36],[84.09,48.73],[84.42,48.6],[86.72,48.66],[87.32,48.13],[87.66,48.24],[88.61,48.06],[88.94,48.17],[88.97,48.42],[89.95,48.49],[90.36,49.09],[90.06,49.24],[90.09,49.49],[91.73,49.49],[92.17,50.08],[91.86,50.23],[91.91,50.48],[92.66,50.91],[92.97,50.76],[95.9,50.56],[96.39,50.0],[96.74,50.08],[97.64,49.83],[97.98,49.91],[98.05,50.15],[97.16,50.4],[97.02,51.04],[98.0,51.03],[98.47,50.46],[99.25,50.84],[99.14,51.49],[99.49,51.56],[99.95,50.98],[100.73,51.35],[101.0,51.18],[101.95,51.14],[101.88,51.77],[102.68,52.13],[102.94,51.95],[103.29,52.01],[103.54,51.83],[103.44,51.6],[104.28,51.31],[104.62,51.36],[104.73,51.59],[105.66,51.52],[106.22,52.01],[107.71,51.79],[107.83,52.01],[107.03,52.33],[107.15,52.55],[108.07,52.45],[108.66,52.93],[109.48,53.22],[109.52,53.84],[111.12,53.47],[113.03,54.19],[114.62,53.78],[115.42,54.13],[115.81,54.11],[116.59,53.7],[115.39,53.38],[115.19,53.2],[115.38,53.01],[115.19,52.83],[115.37,52.64],[116.33,52.78],[116.9,52.56],[117.69,52.89],[118.63,52.64],[119.23,52.79],[119.4,52.59],[119.78,52.56],[121.23,53.0],[122.15,52.72],[122.77,52.85],[122.91,52.64],[123.3,52.6],[123.64,53.13],[123.5,53.34],[123.75,53.51],[125.05,53.74],[125.44,53.69],[125.57,53.48],[126.62,53.54],[126.74,53.33],[127.13,53.28],[128.06,53.53],[128.94,53.2],[129.88,53.45],[130.27,53.38],[130.85,52.89],[131.89,52.9],[131.97,52.68],[131.69,52.54],[131.78,52.32],[131.5,52.18],[131.58,51.96],[131.31,51.82],[131.4,51.61],[131.76,51.54],[132.23,52.04],[133.47,51.4],[133.55,51.19],[133.27,51.05],[133.34,50.84],[133.7,50.77],[133.56,50.21],[134.53,50.2],[134.59,49.99],[134.11,49.52],[134.18,49.31],[134.51,49.24],[134.58,49.03],[134.31,48.9],[134.76,48.42],[134.5,48.29],[134.56,48.09],[134.3,47.96],[134.37,47.76],[133.92,47.3],[133.98,47.1],[133.73,46.98],[133.79,46.78],[133.55,46.65],[133.43,46.14],[132.28,44.62],[131.44,43.01],[130.77,42.86],[130.79,42.63],[130.57,42.51],[130.59,42.29],[130.82,42.19],[131.03,42.32],[131.02,42.54],[131.69,42.69],[131.68,42.91],[131.9,43.03],[132.38,42.61],[134.24,42.68],[134.71,43.14],[135.19,43.16],[135.68,44.08],[136.42,44.21],[136.94,45.14],[137.71,45.27],[137.72,45.5],[138.82,46.66],[138.84,46.89],[139.11,47.01],[139.12,47.24],[140.3,48.4],[140.32,48.63],[140.61,48.75],[140.63,48.98],[140.93,49.1],[140.95,49.32],[140.68,49.44],[140.65,49.65],[141.22,50.09],[140.84,50.61],[141.14,50.73],[141.12,50.95],[140.78,51.04],[140.75,51.26],[141.35,51.71],[142.06,51.3],[142.08,51.08],[141.48,50.64],[141.85,50.11],[141.55,50.0],[141.57,49.79],[141.85,49.67],[141.82,49.44],[141.52,49.33],[141.5,49.1],[141.77,48.98],[141.42,48.41],[141.94,47.94],[141.91,47.71],[141.62,47.59],[141.84,47.01],[140.94,46.2],[140.91,45.97],[141.71,45.84],[141.69,45.6],[140.87,45.5],[140.85,45.27],[141.34,44.79],[141.32,44.55],[141.04,44.44],[141.25,43.85],[140.98,43.74],[140.96,43.5],[140.18,43.4],[140.16,43.17],[139.35,42.36],[139.33,42.12],[140.08,41.99],[140.06,41.75],[140.3,41.63],[140.56,41.74],[141.03,41.25],[141.29,41.36],[141.31,41.59],[140.84,42.09],[140.86,42.32],[142.16,42.39],[142.62,41.89],[142.89,42.0],[143.14,41.87],[144.34,43.01],[145.95,42.9],[146.31,43.49],[147.16,43.55],[146.99,44.17],[147.64,44.61],[147.68,44.85],[148.55,44.9],[148.96,45.48],[149.27,45.57],[149.53,45.43],[150.22,45.86],[150.48,45.71],[150.8,45.8],[151.24,46.38],[150.98,46.52],[151.04,46.76],[150.78,46.91],[150.46,46.82],[149.64,45.91],[149.33,45.81],[149.07,45.96],[148.75,45.86],[148.7,45.62],[147.82,45.57],[147.42,44.99],[147.12,44.89],[146.86,45.03],[146.22,44.58],[145.42,44.75],[144.8,44.3],[144.54,44.44],[143.71,44.36],[143.46,44.49],[143.49,44.72],[142.69,44.87],[142.72,45.11],[142.23,45.59],[142.26,45.83],[142.86,46.28],[143.35,45.8],[143.64,45.91],[144.0,46.49],[143.51,46.97],[143.54,47.21],[143.27,47.33],[143.3,47.57],[143.03,47.69],[143.06,47.92],[142.8,48.04],[142.83,48.28],[143.8,49.08],[144.07,48.95],[144.04,48.72],[144.55,48.24],[145.2,48.69],[145.24,48.92],[144.73,49.4],[144.77,49.64],[144.49,49.76],[144.53,49.99],[144.25,50.11],[144.29,50.34],[144.01,50.46],[144.04,50.69],[143.72,50.79],[144.02,51.34],[143.34,51.76],[143.33,51.98],[143.98,52.43],[143.61,52.98],[143.95,53.09],[143.94,53.31],[143.22,53.75],[143.2,53.98],[143.89,54.44],[146.05,54.44],[146.05,54.67],[146.8,55.12],[146.81,55.35],[146.08,55.81],[146.09,56.04],[145.71,56.16],[145.71,56.39],[144.56,56.51],[144.56,56.74],[144.17,56.85],[144.16,57.09],[142.98,57.19],[142.96,57.42],[142.55,57.53],[142.53,57.76],[141.68,58.22],[141.65,58.45],[142.04,58.58],[142.02,58.82],[143.25,58.96],[143.23,59.2],[143.65,59.33],[144.49,59.33],[145.33,59.34],[146.16,58.86],[147.02,59.33],[147.82,58.84],[149.91,58.9],[152.76,58.64],[153.71,59.07],[154.9,58.86],[155.89,59.27],[155.97,59.5],[154.76,59.72],[154.84,59.95],[155.86,60.36],[155.95,60.6],[156.43,60.69],[156.53,60.92],[157.01,61.0],[157.11,61.24],[157.61,61.32],[157.71,61.56],[158.21,61.64],[159.48,61.39],[159.36,61.15],[159.73,60.99],[159.6,60.75],[159.97,60.59],[159.85,60.35],[160.2,60.19],[160.69,60.26],[160.82,60.49],[161.3,60.55],[161.65,60.39],[161.52,60.15],[161.04,60.09],[160.91,59.86],[160.43,59.79],[160.31,59.56],[159.84,59.49],[159.72,59.26],[159.26,59.19],[159.15,58.96],[157.59,58.27],[157.5,58.04],[156.27,58.03],[156.18,57.8],[156.53,57.65],[156.45,57.42],[155.51,57.03],[155.44,56.8],[155.78,56.65],[155.7,56.42],[155.29,56.34],[155.21,56.11],[155.55,55.97],[155.0,55.43],[155.58,54.92],[155.05,54.39],[155.37,54.25],[155.3,54.03],[155.61,53.89],[155.52,53.66],[155.82,53.52],[155.73,53.29],[156.01,53.15],[155.92,52.92],[156.21,52.77],[156.12,52.54],[156.4,52.39],[155.85,51.85],[156.32,51.32],[156.23,51.09],[155.23,51.08],[155.14,50.85],[155.42,50.7],[155.34,50.47],[154.98,50.38],[154.89,50.15],[155.17,50.0],[155.09,49.77],[154.11,49.75],[154.03,49.52],[154.3,49.37],[154.22,49.13],[153.26,49.11],[153.19,48.87],[154.07,48.66],[155.28,49.38],[155.36,49.61],[155.71,49.69],[155.8,49.93],[156.16,50.01],[156.24,50.24],[156.61,50.32],[156.7,50.55],[157.06,50.63],[157.15,50.86],[157.52,50.94],[157.61,51.17],[158.93,51.84],[159.03,52.07],[158.75,52.23],[158.86,52.46],[160.22,53.12],[160.33,53.34],[160.05,53.5],[160.67,54.01],[160.38,54.17],[160.49,54.39],[161.86,54.2],[162.79,54.54],[162.91,54.76],[162.63,54.92],[162.75,55.14],[161.76,55.4],[161.88,55.62],[162.83,55.96],[163.54,55.85],[163.67,56.07],[163.38,56.23],[163.51,56.45],[163.94,56.51],[164.08,56.73],[163.05,57.0],[163.76,57.51],[163.45,57.67],[163.59,57.9],[163.28,58.07],[162.83,58.01],[162.51,58.17],[162.65,58.4],[163.87,58.35],[164.63,58.85],[165.09,58.9],[165.25,59.12],[164.94,59.3],[165.09,59.52],[166.36,59.44],[166.53,59.67],[168.34,60.24],[168.53,60.46],[169.02,60.5],[169.32,60.31],[169.13,60.09],[169.42,59.91],[170.67,59.79],[170.88,60.0],[170.59,60.19],[170.8,60.41],[173.46,61.16],[173.7,61.37],[174.21,61.39],[174.45,61.6],[174.96,61.62],[175.21,61.83],[176.51,62.06],[176.78,62.27],[178.11,62.49],[179.12,62.07],[179.64,62.07],[179.92,62.27],[179.69,62.48],[179.98,62.68],[179.75,62.89],[180.0,63.14],[179.01,63.52],[179.31,63.73],[179.06,63.94],[179.36,64.15],[179.11,64.36],[179.42,64.57],[180.0,64.57],[180.0,64.98],[179.47,64.99],[179.21,65.2],[179.53,65.41],[180.0,65.4],[180.0,65.83],[179.59,65.83],[179.32,66.05],[179.65,66.26],[179.38,66.47],[180.0,66.68],[180.0,67.11]],[[73.55,72.19],[73.4,72.42],[74.0,72.57],[74.74,72.48],[74.87,72.24],[73.55,72.19]]],[[[-180.0,68.89],[-177.31,68.33],[-176.13,67.86],[-175.49,67.84],[-175.08,68.03],[-175.32,68.26],[-177.86,68.78],[-178.15,69.01],[-178.84,69.02],[-179.14,69.25],[-180.0,69.38],[-180.0,68.89]]],[[[173.52,52.97],[172.62,53.32],[172.22,53.29],[172.06,53.08],[172.31,52.89],[172.15,52.68],[172.4,52.49],[172.8,52.52],[173.68,52.16],[174.07,52.18],[174.24,52.4],[174.0,52.59],[174.16,52.8],[173.92,52.99],[173.52,52.97]]],[[[5.68,45.2],[5.37,45.11],[5.47,44.51],[6.25,44.3],[6.18,44.07],[6.41,43.93],[7.27,43.94],[7.51,43.79],[7.82,43.87],[7.9,44.1],[7.51,44.63],[7.59,44.86],[7.35,45.01],[7.43,45.24],[8.15,45.62],[8.23,45.85],[11.39,45.53],[11.91,46.05],[12.82,46.02],[12.92,46.25],[13.25,46.31],[13.83,46.22],[13.93,46.44],[14.27,46.5],[14.85,46.4],[15.41,46.9],[15.17,47.07],[15.27,47.29],[16.08,47.62],[16.19,47.84],[15.36,48.11],[14.55,47.77],[13.72,48.03],[12.93,47.68],[12.1,47.92],[11.32,47.56],[10.49,47.8],[10.15,47.72],[10.06,47.5],[9.15,47.5],[9.06,47.28],[8.32,46.9],[7.17,47.03],[6.69,46.5],[5.81,46.48],[5.73,46.25],[6.14,45.74],[5.68,45.2]]],[[[32.34,-70.16],[29.94,-70.18],[29.98,-70.42],[30.62,-70.54],[31.85,-70.52],[32.42,-70.39],[32.34,-70.16]]],[[[117.52,-66.85],[115.88,-67.05],[115.59,-66.82],[115.95,-66.61],[115.67,-66.38],[115.04,-66.36],[114.77,-66.14],[112.4,-65.6],[111.03,-65.98],[110.41,-65.94],[110.01,-66.14],[110.24,-66.38],[109.84,-66.58],[108.16,-66.69],[107.94,-66.45],[107.31,-66.4],[107.11,-66.16],[105.44,-66.24],[105.26,-66.0],[103.87,-65.63],[103.7,-65.38],[104.13,-65.2],[103.96,-64.95],[103.38,-64.89],[101.92,-65.18],[100.3,-65.21],[99.85,-65.38],[99.98,-65.63],[99.52,-65.8],[99.65,-66.05],[99.17,-66.22],[98.57,-66.14],[98.09,-66.3],[96.79,-65.88],[96.31,-66.04],[96.41,-66.29],[95.91,-66.45],[89.29,-66.69],[85.43,-66.58],[84.3,-67.07],[83.75,-66.93],[83.19,-67.05],[83.16,-67.3],[82.58,-67.41],[82.55,-67.66],[83.1,-67.8],[83.69,-67.69],[83.71,-67.44],[84.28,-67.32],[85.97,-67.47],[87.09,-66.96],[87.65,-67.09],[93.27,-66.96],[97.11,-66.63],[97.72,-66.72],[98.21,-66.55],[99.57,-66.97],[100.05,-66.8],[100.67,-66.88],[101.15,-66.7],[101.0,-66.45],[101.47,-66.28],[102.08,-66.35],[103.6,-66.06],[105.01,-66.43],[105.19,-66.67],[106.89,-66.59],[107.09,-66.83],[107.73,-66.88],[107.95,-67.12],[108.59,-67.17],[109.01,-66.97],[110.71,-66.85],[111.11,-66.65],[110.87,-66.41],[111.26,-66.21],[112.9,-66.07],[113.15,-66.3],[114.68,-66.57],[114.95,-66.8],[113.55,-67.2],[114.76,-67.68],[117.47,-67.29],[117.82,-67.08],[117.52,-66.85]],[[102.07,-65.43],[102.67,-65.5],[102.82,-65.75],[102.38,-65.93],[101.77,-65.85],[101.62,-65.61],[102.07,-65.43]]],[[[-14.1,57.95],[-14.11,57.73],[-13.37,57.69],[-13.35,57.91],[-13.72,58.04],[-14.1,57.95]]],[[[41.37,-68.7],[42.85,-68.47],[42.67,-68.25],[41.04,-68.25],[40.6,-68.4],[40.76,-68.63],[39.23,-68.84],[39.38,-69.07],[38.91,-69.21],[39.06,-69.44],[39.69,-69.52],[40.17,-69.37],[40.01,-69.15],[41.54,-68.92],[41.37,-68.7]]],[[[30.68,80.11],[34.08,79.89],[35.32,79.96],[35.55,80.19],[34.47,80.34],[34.68,80.57],[33.55,80.73],[32.21,80.65],[32.06,80.42],[30.79,80.34],[30.68,80.11]]],[[[180.0,71.66],[178.26,71.46],[177.85,71.24],[178.22,71.02],[177.81,70.81],[178.17,70.59],[180.0,70.79],[180.0,71.66]]],[[[-180.0,70.79],[-179.57,70.56],[-177.63,70.73],[-177.18,70.94],[-177.49,71.17],[-177.03,71.37],[-178.46,71.85],[-179.27,71.87],[-180.0,71.66],[-180.0,70.79]],[[-179.81,71.22],[-179.37,71.43],[-178.59,71.41],[-178.26,71.19],[-178.71,70.98],[-179.47,71.0],[-179.81,71.22]]],[[[-2.92,59.57],[-3.75,59.26],[-4.48,59.36],[-4.53,59.15],[-3.48,58.91],[-3.53,58.71],[-4.97,58.89],[-5.79,58.56],[-6.51,58.64],[-6.56,58.43],[-6.94,58.37],[-7.67,58.44],[-7.71,58.23],[-7.36,58.09],[-7.4,57.88],[-7.78,57.81],[-7.82,57.6],[-7.48,57.46],[-7.52,57.25],[-7.89,57.17],[-8.34,56.67],[-7.3,56.46],[-7.33,56.25],[-6.72,55.74],[-6.76,55.52],[-8.5,55.59],[-8.54,55.37],[-9.29,54.99],[-9.32,54.77],[-8.99,54.63],[-9.02,54.41],[-10.75,54.44],[-10.77,54.21],[-10.44,54.08],[-10.84,53.54],[-10.21,53.03],[-10.24,52.81],[-10.95,52.4],[-10.97,52.17],[-10.65,52.03],[-10.38,51.43],[-8.77,51.18],[-8.07,51.58],[-8.03,51.81],[-7.39,51.74],[-6.67,52.13],[-6.03,52.05],[-5.61,52.58],[-5.91,52.73],[-5.87,52.95],[-5.52,53.02],[-5.48,53.25],[-6.05,53.77],[-6.01,53.99],[-5.26,54.35],[-4.7,53.83],[-4.74,53.61],[-5.09,53.54],[-5.13,53.32],[-4.83,53.17],[-4.88,52.94],[-5.22,52.87],[-5.01,52.28],[-5.35,52.2],[-5.77,51.68],[-5.14,51.6],[-4.6,51.07],[-3.89,51.44],[-3.84,51.66],[-2.89,51.64],[-3.07,52.24],[-2.73,52.31],[-2.68,52.53],[-2.97,52.69],[-2.92,52.91],[-2.57,52.97],[-2.52,53.19],[-2.81,53.35],[-2.76,53.56],[-2.12,53.47],[-2.18,53.25],[-1.89,53.09],[-1.55,53.15],[-1.49,53.37],[-2.01,53.9],[-1.55,54.39],[-2.08,54.92],[-2.02,55.13],[-1.02,55.09],[-0.96,55.3],[-1.25,55.46],[-1.19,55.67],[-2.15,55.92],[-2.09,56.13],[-2.4,56.29],[-1.92,56.76],[-1.55,56.81],[-1.49,57.02],[-1.8,57.18],[-1.74,57.38],[-1.37,57.43],[-1.3,57.64],[-3.0,58.0],[-2.5,58.46],[-2.82,58.61],[-2.76,58.81],[-1.49,59.37],[-1.42,59.57],[-1.03,59.61],[-0.97,59.81],[-0.58,59.85],[-0.51,60.05],[-0.83,60.2],[-0.76,60.4],[-0.37,60.44],[-0.3,60.64],[-0.62,60.79],[-0.55,60.99],[-1.28,61.1],[-1.35,60.9],[-2.67,60.37],[-2.74,60.17],[-1.68,59.92],[-1.75,59.72],[-2.59,59.42],[-2.92,59.57]],[[-3.65,54.03],[-3.0,53.94],[-3.05,53.72],[-3.8,53.37],[-4.35,53.9],[-4.3,54.11],[-3.65,54.03]]],[[[69.03,-68.37],[68.86,-68.61],[69.32,-68.79],[69.15,-69.02],[68.5,-69.08],[68.32,-69.32],[68.79,-69.5],[68.6,-69.73],[67.07,-70.07],[66.86,-70.3],[68.51,-70.62],[68.31,-70.85],[68.82,-71.03],[69.52,-70.98],[69.71,-70.74],[69.2,-70.56],[69.39,-70.33],[68.9,-70.15],[69.08,-69.91],[69.75,-69.85],[69.92,-69.62],[70.58,-69.56],[70.75,-69.32],[70.26,-69.14],[70.43,-68.9],[69.96,-68.73],[70.12,-68.49],[69.66,-68.31],[69.82,-68.07],[70.44,-68.01],[70.59,-67.77],[69.1,-67.48],[67.71,-67.83],[64.27,-67.23],[62.86,-67.54],[61.52,-67.18],[60.93,-67.21],[60.7,-67.44],[63.02,-67.95],[64.45,-67.65],[64.85,-67.84],[68.59,-68.19],[69.03,-68.37]]],[[[20.53,55.63],[20.39,55.44],[20.65,55.29],[20.51,55.09],[21.16,54.98],[21.3,55.17],[21.05,55.32],[21.19,55.52],[20.53,55.63]]],[[[56.72,81.86],[55.86,81.66],[54.22,81.67],[53.45,81.46],[54.28,81.24],[53.54,81.04],[52.02,81.04],[51.16,81.24],[51.86,81.46],[50.95,81.66],[49.32,81.65],[48.68,81.43],[49.61,81.23],[49.0,81.02],[47.5,81.0],[46.95,80.78],[43.07,80.91],[42.64,80.68],[43.61,80.5],[45.01,80.53],[45.93,80.34],[45.45,80.12],[46.32,79.93],[47.65,79.95],[50.54,79.57],[55.77,79.98],[56.43,79.76],[59.66,79.49],[60.41,79.69],[59.84,79.91],[62.85,80.26],[62.31,80.49],[63.2,80.68],[67.08,80.76],[68.1,80.94],[67.65,81.17],[66.11,81.23],[65.59,81.47],[66.67,81.65],[66.14,81.88],[64.46,81.94],[63.4,81.75],[59.34,82.04],[58.4,81.84],[56.72,81.86]]],[[[-180.0,51.94],[-179.77,52.14],[-179.99,52.35],[-180.0,51.94]]],[[[180.0,52.34],[179.62,52.34],[179.44,52.14],[180.0,51.94],[180.0,52.34]]],[[[14.59,57.73],[15.12,57.98],[14.43,58.05],[14.3,57.86],[14.59,57.73]]],[[[122.59,-66.4],[121.36,-66.85],[119.77,-66.65],[119.45,-66.87],[118.8,-66.86],[118.47,-67.08],[118.78,-67.3],[118.44,-67.52],[118.75,-67.74],[119.42,-67.74],[119.75,-67.52],[122.33,-67.06],[122.63,-66.83],[124.25,-67.01],[124.53,-66.78],[126.05,-66.51],[126.41,-66.71],[126.14,-66.94],[126.51,-67.14],[129.17,-67.44],[129.41,-67.2],[130.03,-67.16],[130.26,-66.93],[129.87,-66.74],[130.91,-66.22],[130.52,-66.03],[129.93,-66.07],[128.87,-66.58],[129.25,-66.78],[129.02,-67.01],[128.4,-67.05],[128.02,-66.85],[127.4,-66.88],[127.03,-66.68],[127.28,-66.45],[125.95,-66.07],[124.46,-66.35],[124.18,-66.57],[122.59,-66.4]]],[[[17.64,76.41],[18.41,76.53],[18.27,76.74],[17.34,76.84],[17.18,77.06],[17.98,77.18],[17.83,77.39],[18.66,77.51],[18.52,77.73],[19.38,77.85],[20.38,77.75],[20.49,77.53],[22.46,77.09],[25.11,77.17],[25.09,77.39],[24.16,77.52],[24.12,77.74],[25.05,77.84],[25.02,78.06],[22.97,78.52],[22.9,78.75],[21.83,78.86],[21.74,79.09],[25.97,79.06],[25.98,78.83],[24.95,78.73],[24.98,78.51],[25.98,78.38],[28.05,78.8],[30.11,78.75],[30.19,78.97],[31.29,79.06],[31.41,79.28],[30.37,79.43],[28.09,79.02],[27.04,79.16],[27.06,79.38],[29.38,79.8],[29.46,80.02],[28.32,80.16],[28.37,80.39],[24.7,80.55],[24.67,80.78],[23.36,80.9],[19.62,80.78],[19.78,80.55],[17.34,80.53],[16.25,80.39],[16.49,80.17],[15.46,80.04],[11.89,80.06],[8.74,79.83],[9.13,79.62],[10.38,79.55],[10.72,79.34],[9.86,79.19],[10.2,78.98],[9.38,78.83],[9.72,78.62],[10.85,78.55],[11.15,78.33],[10.36,78.19],[10.66,77.98],[13.57,77.97],[13.81,77.75],[13.03,77.62],[13.27,77.4],[15.44,77.02],[15.63,76.81],[14.88,76.68],[15.08,76.47],[17.64,76.41]],[[14.03,79.32],[14.29,79.11],[13.4,78.97],[12.23,79.05],[11.93,79.26],[14.03,79.32]]],[[[153.09,76.61],[152.07,76.51],[151.95,76.26],[152.81,76.1],[153.81,76.2],[153.97,76.46],[153.09,76.61]]],[[[177.64,52.32],[177.25,52.31],[177.08,52.1],[177.3,51.9],[177.13,51.69],[177.36,51.5],[178.31,51.72],[179.13,51.32],[179.52,51.33],[179.69,51.53],[177.64,52.32]]],[[[75.31,-69.95],[75.86,-70.11],[76.52,-70.03],[76.63,-69.79],[77.28,-69.7],[77.38,-69.45],[78.02,-69.36],[78.11,-69.12],[78.74,-69.02],[78.82,-68.78],[80.12,-68.33],[80.18,-68.08],[80.78,-67.98],[81.32,-68.13],[81.92,-68.02],[81.96,-67.77],[81.42,-67.63],[79.7,-67.69],[79.64,-67.94],[78.35,-68.38],[78.27,-68.62],[77.65,-68.72],[77.56,-68.96],[76.93,-69.05],[76.83,-69.3],[76.19,-69.38],[76.08,-69.63],[73.06,-69.53],[72.92,-69.77],[72.25,-69.84],[72.1,-70.08],[71.43,-70.14],[71.26,-70.38],[71.79,-70.56],[71.62,-70.79],[70.93,-70.86],[70.75,-71.09],[71.29,-71.27],[72.0,-71.2],[72.16,-70.97],[73.7,-70.59],[73.84,-70.35],[73.3,-70.18],[73.44,-69.94],[75.31,-69.95]]],[[[37.94,-69.5],[36.3,-69.69],[36.42,-69.92],[37.58,-69.87],[39.03,-70.27],[39.53,-70.12],[39.37,-69.89],[37.94,-69.5]]],[[[91.85,-65.74],[92.42,-65.84],[92.92,-65.7],[92.86,-65.44],[92.3,-65.34],[91.8,-65.48],[91.85,-65.74]]],[[[-15.94,63.91],[-15.84,64.14],[-15.38,64.22],[-14.59,64.16],[-14.48,64.38],[-12.85,65.05],[-12.72,65.27],[-13.06,65.42],[-12.93,65.64],[-13.27,65.78],[-14.11,65.86],[-13.98,66.08],[-14.34,66.22],[-14.22,66.45],[-14.59,66.59],[-16.35,66.72],[-17.45,66.32],[-17.85,66.46],[-17.75,66.69],[-18.15,66.83],[-18.66,66.74],[-18.74,66.51],[-19.81,66.09],[-21.13,66.26],[-21.06,66.49],[-21.49,66.62],[-23.36,66.67],[-23.85,66.57],[-23.89,66.33],[-24.89,65.87],[-24.92,65.64],[-24.08,65.16],[-24.11,64.92],[-24.57,64.81],[-24.6,64.58],[-22.46,64.43],[-22.51,64.2],[-22.95,64.09],[-23.0,63.86],[-21.33,63.82],[-20.94,63.69],[-21.0,63.46],[-20.32,62.98],[-19.39,63.41],[-18.23,63.24],[-17.8,63.33],[-17.71,63.56],[-16.92,63.51],[-15.94,63.91]],[[-16.64,64.19],[-17.81,64.37],[-17.72,64.6],[-18.09,64.73],[-18.93,64.77],[-18.85,65.0],[-18.39,65.1],[-16.7,65.0],[-16.34,64.86],[-16.44,64.64],[-16.08,64.5],[-16.19,64.27],[-16.64,64.19]]],[[[48.6,-68.15],[49.18,-68.17],[49.51,-67.97],[49.27,-67.76],[49.6,-67.56],[49.35,-67.35],[49.67,-67.15],[51.05,-67.38],[51.36,-67.18],[51.1,-66.97],[51.4,-66.77],[51.15,-66.56],[52.28,-66.16],[52.83,-66.16],[53.11,-65.95],[52.85,-65.75],[52.31,-65.75],[52.03,-65.95],[51.49,-65.95],[48.66,-66.72],[48.11,-66.7],[47.79,-66.9],[48.01,-67.11],[48.56,-67.13],[48.79,-67.34],[48.47,-67.53],[46.37,-67.05],[46.03,-67.24],[46.24,-67.45],[45.86,-67.61],[42.91,-67.88],[43.09,-68.1],[43.69,-68.17],[47.57,-67.71],[47.8,-67.92],[47.45,-68.11],[47.68,-68.33],[48.26,-68.35],[48.6,-68.15]]],[[[74.65,79.9],[74.89,79.66],[76.14,79.56],[76.33,79.32],[77.53,79.22],[78.58,79.36],[78.44,79.61],[77.2,79.71],[77.02,79.96],[75.73,80.06],[74.65,79.9]]],[[[92.6,78.13],[93.53,77.97],[94.65,78.06],[94.87,78.31],[93.93,78.47],[92.78,78.38],[92.6,78.13]]],[[[73.21,-53.21],[73.13,-53.45],[73.43,-53.61],[73.81,-53.52],[74.34,-52.95],[74.04,-52.8],[72.99,-52.82],[72.91,-53.06],[73.21,-53.21]]],[[[-36.8,-53.98],[-37.87,-54.06],[-37.89,-54.29],[-36.83,-54.43],[-36.84,-54.65],[-36.49,-54.77],[-36.12,-54.66],[-36.11,-54.44],[-36.8,-53.98]]],[[[82.11,47.47],[82.11,47.22],[82.44,47.09],[83.4,47.21],[83.41,47.47],[83.08,47.6],[82.11,47.47]]],[[[54.47,-66.15],[54.74,-65.94],[54.47,-65.74],[53.93,-65.74],[53.65,-65.95],[53.92,-66.16],[54.47,-66.15]]],[[[-8.92,57.6],[-8.13,57.95],[-8.09,58.16],[-8.82,58.23],[-8.86,58.02],[-9.24,57.95],[-9.27,57.73],[-8.92,57.6]]],[[[34.42,-69.4],[34.52,-69.63],[35.67,-69.59],[35.56,-69.36],[34.23,-68.93],[33.71,-69.07],[33.8,-69.3],[34.42,-69.4]]],[[[1.33,42.43],[2.37,42.34],[2.43,42.57],[2.2,42.71],[1.38,42.66],[0.12,43.0],[-0.69,43.01],[-0.74,42.78],[-0.5,42.62],[1.33,42.43]]],[[[-174.93,64.41],[-174.73,64.19],[-174.18,64.16],[-173.82,64.35],[-174.01,64.57],[-175.35,64.85],[-175.56,65.07],[-176.13,65.09],[-176.49,64.89],[-176.26,64.67],[-174.93,64.41]]],[[[37.76,-46.92],[38.06,-46.87],[38.16,-46.7],[37.97,-46.58],[37.15,-47.02],[37.35,-47.14],[37.76,-46.92]]],[[[81.63,80.77],[82.93,80.91],[82.88,81.16],[81.47,81.27],[77.43,81.1],[77.63,80.85],[80.48,80.39],[81.71,80.52],[81.63,80.77]]],[[[18.82,58.42],[18.13,58.0],[19.09,57.76],[19.65,57.99],[19.37,58.13],[19.51,58.32],[18.82,58.42]]],[[[13.21,57.88],[13.1,57.69],[13.38,57.56],[13.9,57.81],[13.21,57.88]]],[[[-7.43,61.64],[-6.74,61.16],[-6.33,61.22],[-6.28,61.42],[-6.65,61.56],[-6.6,61.76],[-5.72,62.07],[-5.67,62.26],[-6.04,62.4],[-5.99,62.6],[-6.79,62.68],[-6.84,62.49],[-7.72,62.17],[-7.76,61.97],[-7.39,61.84],[-7.43,61.64]]],[[[23.42,76.75],[23.47,76.54],[26.01,76.39],[26.86,76.48],[26.87,76.7],[23.42,76.75]]],[[[108.39,51.87],[108.73,51.91],[108.86,52.13],[108.64,52.31],[108.29,52.27],[108.17,52.05],[108.39,51.87]]],[[[56.43,-66.32],[56.13,-66.12],[55.58,-66.13],[55.31,-66.35],[56.47,-66.74],[55.35,-67.18],[55.65,-67.38],[57.09,-67.14],[59.26,-67.71],[59.86,-67.68],[60.1,-67.46],[59.76,-67.26],[57.35,-66.93],[57.04,-66.73],[57.29,-66.51],[56.99,-66.31],[56.43,-66.32]]],[[[136.97,74.51],[136.07,74.61],[135.32,74.45],[135.48,74.19],[134.76,74.03],[134.92,73.77],[135.78,73.68],[136.5,73.85],[136.36,74.1],[137.1,74.26],[136.97,74.51]]],[[[-11.9,63.24],[-12.34,63.17],[-12.46,62.95],[-11.73,62.89],[-11.6,63.1],[-11.9,63.24]]],[[[-24.38,69.42],[-25.46,69.43],[-25.49,69.2],[-24.97,69.07],[-24.42,69.18],[-24.38,69.42]]],[[[167.03,55.26],[166.34,55.39],[166.48,55.6],[166.21,55.77],[165.79,55.72],[165.64,55.51],[165.92,55.34],[165.78,55.12],[166.06,54.96],[165.92,54.74],[166.2,54.57],[167.97,54.36],[168.67,54.82],[167.03,55.26]]],[[[150.08,76.3],[150.17,76.56],[149.25,76.7],[149.32,76.96],[148.36,77.1],[147.35,76.98],[147.31,76.73],[148.25,76.59],[148.2,76.33],[149.1,76.19],[150.08,76.3]]],[[[153.43,47.62],[153.17,47.78],[153.24,48.01],[153.58,48.1],[153.65,48.34],[153.38,48.49],[153.04,48.4],[152.97,48.16],[152.63,48.08],[152.56,47.84],[151.43,47.09],[151.37,46.85],[152.22,46.65],[152.55,46.73],[153.43,47.62]]],[[[89.16,77.34],[88.23,77.49],[87.22,77.38],[87.17,77.13],[89.96,76.95],[92.12,77.39],[92.27,77.64],[91.36,77.79],[90.29,77.69],[90.18,77.44],[89.16,77.34]]],[[[147.17,-67.92],[147.23,-67.68],[146.74,-67.54],[146.19,-67.64],[146.13,-67.88],[146.62,-68.02],[146.57,-68.26],[147.07,-68.4],[147.63,-68.3],[147.67,-68.06],[147.17,-67.92]]],[[[140.24,-66.78],[141.7,-67.02],[142.26,-66.93],[142.36,-66.69],[141.91,-66.53],[138.36,-66.36],[135.97,-65.97],[134.65,-66.33],[132.29,-65.89],[131.7,-65.94],[131.5,-66.18],[131.89,-66.37],[132.48,-66.32],[134.89,-66.75],[136.22,-66.39],[137.65,-66.67],[140.24,-66.78]]],[[[19.59,54.82],[19.98,54.86],[20.12,55.05],[19.46,55.16],[19.33,54.97],[19.59,54.82]]],[[[68.62,-71.26],[66.97,-71.59],[66.74,-71.82],[67.25,-72.01],[67.03,-72.24],[66.27,-72.28],[66.03,-72.51],[66.56,-72.7],[66.31,-72.92],[65.53,-72.96],[65.27,-73.19],[67.16,-73.52],[67.96,-73.48],[68.19,-73.25],[68.99,-73.2],[69.2,-72.97],[68.64,-72.79],[68.85,-72.56],[69.62,-72.5],[69.82,-72.27],[71.49,-71.92],[71.66,-71.68],[71.11,-71.51],[69.47,-71.86],[69.27,-72.09],[68.52,-72.14],[67.99,-71.96],[68.21,-71.73],[68.94,-71.68],[69.14,-71.44],[68.62,-71.26]]],[[[80.55,45.53],[80.56,45.28],[80.26,45.14],[79.31,45.25],[79.0,45.11],[79.02,44.85],[79.67,44.36],[80.59,44.51],[80.88,45.16],[81.82,45.3],[81.81,45.55],[80.87,45.67],[80.55,45.53]]],[[[19.62,48.73],[20.22,49.2],[19.63,49.33],[19.5,49.11],[19.14,49.07],[19.02,48.85],[19.62,48.73]]],[[[84.31,77.78],[83.31,77.91],[82.32,77.78],[82.37,77.53],[81.42,77.4],[81.48,77.15],[82.45,77.03],[83.37,77.16],[83.35,77.41],[84.32,77.53],[84.31,77.78]]],[[[42.31,43.25],[43.08,43.01],[43.23,42.8],[43.55,42.78],[43.71,42.99],[42.62,43.65],[42.31,43.66],[42.15,43.46],[42.31,43.25]]],[[[17.87,74.81],[18.0,74.6],[18.78,74.5],[18.89,74.3],[20.31,74.3],[20.22,74.51],[19.45,74.61],[19.35,74.82],[17.87,74.81]]],[[[69.02,-49.45],[68.78,-49.3],[68.87,-49.07],[70.64,-49.29],[70.99,-49.21],[71.07,-48.98],[68.72,-48.7],[68.19,-49.22],[68.58,-49.75],[68.49,-49.98],[68.74,-50.13],[69.53,-49.76],[70.13,-49.83],[70.21,-49.6],[69.02,-49.45]]],[[[47.9,69.1],[47.54,68.91],[47.81,68.72],[49.3,68.53],[50.65,68.91],[50.4,69.1],[50.78,69.29],[49.62,69.67],[48.07,69.85],[47.71,69.66],[47.98,69.47],[47.62,69.28],[47.9,69.1]]],[[[-5.1,50.09],[-5.39,50.24],[-5.35,50.47],[-5.97,50.54],[-6.01,50.31],[-5.47,49.78],[-5.14,49.86],[-5.1,50.09]]],[[[76.24,50.01],[76.27,49.76],[76.63,49.64],[77.64,49.82],[77.62,50.07],[76.57,50.16],[76.54,50.41],[76.17,50.52],[74.46,50.3],[74.5,50.04],[74.86,49.94],[75.19,50.08],[76.24,50.01]]],[[[85.64,47.04],[85.97,47.16],[85.98,47.42],[85.67,47.55],[85.34,47.43],[84.99,46.81],[85.3,46.67],[85.63,46.79],[85.64,47.04]]],[[[-12.13,-37.47],[-11.92,-37.27],[-12.04,-37.03],[-12.35,-36.99],[-12.56,-37.19],[-12.45,-37.43],[-12.13,-37.47]]],[[[143.36,-66.76],[143.27,-67.0],[143.74,-67.15],[143.65,-67.39],[144.12,-67.54],[144.04,-67.78],[144.52,-67.93],[145.09,-67.84],[145.16,-67.59],[144.68,-67.45],[144.76,-67.21],[144.29,-67.06],[144.36,-66.82],[143.9,-66.67],[143.36,-66.76]]],[[[51.96,-46.36],[51.65,-46.39],[51.56,-46.59],[52.09,-46.73],[52.18,-46.53],[51.96,-46.36]]],[[[7.83,48.0],[7.74,47.78],[7.99,47.64],[8.32,47.72],[8.41,47.94],[7.83,48.0]]],[[[-43.71,60.61],[-43.58,60.38],[-43.12,60.32],[-42.77,60.5],[-42.89,60.73],[-43.36,60.79],[-43.71,60.61]]],[[[99.86,50.75],[99.52,50.68],[99.44,50.44],[99.7,50.27],[100.04,50.34],[100.13,50.58],[99.86,50.75]]],[[[-175.89,52.08],[-176.85,51.91],[-177.05,52.11],[-177.44,52.12],[-178.19,51.73],[-177.99,51.52],[-177.6,51.52],[-177.42,51.72],[-176.45,51.49],[-175.7,51.87],[-175.89,52.08]]],[[[73.67,50.76],[73.2,51.37],[72.83,51.47],[72.5,51.32],[72.98,50.71],[73.35,50.61],[73.67,50.76]]],[[[-7.05,71.03],[-7.43,71.2],[-7.2,71.41],[-7.59,71.58],[-8.22,71.53],[-8.44,71.32],[-9.89,71.0],[-10.09,70.78],[-9.69,70.62],[-9.09,70.67],[-8.88,70.89],[-7.28,70.82],[-7.05,71.03]]],[[[137.66,36.56],[137.43,36.45],[137.42,36.22],[137.64,36.1],[137.87,36.2],[137.88,36.43],[137.66,36.56]]],[[[158.94,-54.87],[159.31,-54.76],[159.33,-54.54],[158.61,-54.53],[158.59,-54.75],[158.94,-54.87]]],[[[77.99,74.76],[78.09,74.52],[78.91,74.41],[79.64,74.55],[79.56,74.79],[78.73,74.9],[77.99,74.76]]],[[[-178.76,51.53],[-178.58,51.73],[-178.78,51.94],[-179.17,51.94],[-179.35,51.74],[-179.14,51.53],[-178.76,51.53]]],[[[141.66,39.91],[141.4,39.8],[141.38,39.57],[141.62,39.43],[141.88,39.54],[141.9,39.78],[141.66,39.91]]],[[[75.69,48.95],[76.04,48.84],[76.36,48.99],[76.33,49.24],[75.98,49.36],[75.66,49.21],[75.69,48.95]]],[[[-172.5,67.25],[-172.71,67.48],[-173.34,67.51],[-173.75,67.32],[-173.53,67.09],[-172.92,67.06],[-172.5,67.25]]],[[[-5.65,59.18],[-6.38,59.26],[-6.43,59.06],[-6.08,58.91],[-5.69,58.97],[-5.65,59.18]]],[[[129.95,41.92],[130.39,41.95],[130.37,42.17],[130.15,42.26],[129.93,42.14],[129.95,41.92]]],[[[-10.2,-40.2],[-10.07,-40.43],[-9.74,-40.47],[-9.53,-40.27],[-9.66,-40.03],[-9.99,-40.0],[-10.2,-40.2]]],[[[141.19,40.17],[140.95,40.3],[140.69,40.19],[140.67,39.96],[141.17,39.93],[141.19,40.17]]]]}}]}