{"type":"FeatureCollection","features":[{"type":"Feature","properties":{},"geometry":{"type":"MultiPolygon","coordinates":[[[[-110.52,18.87],[-110.77,18.96],[-110.81,19.21],[-110.6,19.37],[-110.64,19.63],[-110.89,19.72],[-111.27,19.15],[-111.4,18.49],[-110.69,18.46],[-110.48,18.62],[-110.52,18.87]]],[[[-80.14,9.28],[-81.19,9.1],[-81.66,9.53],[-81.86,9.4],[-82.1,9.73],[-82.75,9.8],[-83.01,10.35],[-83.71,11.1],[-83.73,11.32],[-83.35,11.8],[-83.6,12.34],[-83.22,12.8],[-83.46,13.12],[-83.29,13.67],[-83.53,13.98],[-82.97,14.77],[-83.22,15.29],[-83.8,15.39],[-83.98,15.73],[-84.37,15.72],[-84.55,16.07],[-85.55,15.93],[-86.13,16.74],[-86.74,16.61],[-86.75,16.37],[-86.14,16.27],[-86.36,15.91],[-86.96,16.01],[-86.95,16.24],[-87.16,16.36],[-87.58,15.87],[-88.19,15.97],[-87.33,17.42],[-87.33,17.66],[-87.53,17.78],[-87.95,17.77],[-87.95,18.01],[-87.73,18.37],[-87.1,18.5],[-87.29,19.1],[-87.07,19.46],[-87.28,19.58],[-87.27,19.82],[-87.05,20.19],[-86.42,20.31],[-86.61,20.91],[-86.39,21.27],[-86.6,21.39],[-86.59,21.63],[-89.83,21.74],[-90.27,21.24],[-90.49,21.36],[-90.71,21.23],[-90.49,20.62],[-90.93,20.12],[-91.36,19.12],[-92.46,18.95],[-92.68,19.07],[-93.11,18.55],[-93.78,18.65],[-94.44,18.49],[-94.91,18.96],[-95.58,18.8],[-95.81,18.91],[-96.55,20.24],[-97.29,21.09],[-97.09,21.73],[-97.84,22.58],[-97.86,22.83],[-97.42,23.36],[-97.69,23.98],[-97.46,24.12],[-97.48,24.38],[-97.72,24.49],[-97.74,24.75],[-97.07,25.67],[-97.35,26.29],[-97.6,26.41],[-97.39,27.05],[-98.13,27.15],[-98.58,26.61],[-98.84,26.73],[-99.07,26.59],[-99.05,26.33],[-99.29,26.19],[-99.54,26.3],[-99.83,26.93],[-100.09,27.04],[-99.89,27.69],[-100.15,27.8],[-100.17,28.06],[-99.94,28.2],[-99.96,28.45],[-100.22,28.57],[-100.24,28.82],[-99.5,28.99],[-98.74,28.9],[-98.5,29.04],[-98.52,29.29],[-98.28,29.43],[-98.03,29.31],[-97.56,29.83],[-97.3,29.72],[-96.07,29.88],[-95.3,29.01],[-94.83,29.52],[-94.84,29.77],[-95.09,29.9],[-95.1,30.15],[-95.84,30.26],[-95.86,30.51],[-96.11,30.63],[-97.35,30.47],[-97.61,30.59],[-97.4,31.22],[-97.15,31.36],[-97.17,31.61],[-97.43,31.73],[-97.67,31.59],[-97.88,30.96],[-98.63,30.8],[-98.61,30.55],[-98.85,30.41],[-99.62,30.51],[-99.86,30.37],[-100.41,30.85],[-101.67,30.65],[-102.23,31.12],[-102.99,30.94],[-103.86,31.76],[-103.89,32.02],[-103.64,32.16],[-103.37,32.05],[-102.61,32.24],[-102.94,32.85],[-102.25,33.77],[-102.58,34.38],[-102.11,34.91],[-102.14,35.15],[-102.42,35.26],[-102.67,35.12],[-102.95,35.23],[-102.75,35.86],[-102.5,36.0],[-102.84,36.6],[-102.59,36.74],[-102.61,36.98],[-102.9,37.09],[-102.93,37.33],[-102.67,37.47],[-102.7,37.72],[-103.53,37.79],[-103.79,37.65],[-104.4,38.1],[-104.43,38.34],[-103.62,38.52],[-103.66,38.76],[-102.85,38.92],[-102.88,39.16],[-103.82,39.95],[-103.85,40.19],[-104.14,40.29],[-104.18,40.53],[-103.91,40.67],[-103.95,40.9],[-103.12,41.07],[-103.81,41.98],[-101.84,42.19],[-102.2,42.76],[-102.5,42.86],[-103.64,42.81],[-103.68,43.04],[-102.92,43.88],[-102.96,44.11],[-103.6,44.54],[-103.64,44.76],[-104.53,44.83],[-104.57,45.06],[-104.05,45.54],[-104.08,45.76],[-104.68,45.73],[-104.64,45.51],[-105.15,45.02],[-105.82,45.43],[-106.33,44.94],[-107.0,45.35],[-107.27,45.21],[-107.59,45.3],[-107.63,45.53],[-108.54,45.56],[-108.58,45.78],[-108.08,46.28],[-108.13,46.5],[-108.82,46.88],[-108.87,47.1],[-108.62,47.24],[-108.7,47.47],[-109.6,47.49],[-109.68,47.71],[-108.86,47.92],[-108.94,48.15],[-109.69,48.54],[-109.94,48.39],[-110.01,47.79],[-110.58,47.72],[-111.09,48.25],[-110.7,48.77],[-110.79,49.0],[-111.13,49.07],[-111.22,49.3],[-112.15,49.29],[-112.69,49.81],[-113.04,49.88],[-113.15,50.1],[-112.9,50.26],[-113.47,50.78],[-113.23,50.94],[-113.34,51.16],[-113.7,51.23],[-113.81,51.45],[-113.43,52.0],[-113.06,51.94],[-112.81,52.1],[-112.92,52.33],[-113.78,52.69],[-113.89,52.91],[-114.89,52.87],[-115.52,53.38],[-116.51,53.32],[-116.65,53.55],[-116.41,53.72],[-116.54,53.94],[-117.45,54.27],[-117.59,54.49],[-117.98,54.54],[-118.21,54.37],[-119.13,54.68],[-119.36,54.5],[-119.75,54.54],[-121.0,55.28],[-121.39,55.31],[-121.61,55.13],[-121.44,54.92],[-119.44,54.11],[-119.29,53.89],[-119.51,53.71],[-118.84,53.23],[-119.06,53.06],[-120.48,53.62],[-120.63,53.84],[-120.42,54.01],[-120.57,54.23],[-122.59,55.02],[-122.77,55.23],[-124.32,54.95],[-124.52,54.77],[-124.36,54.17],[-125.11,53.84],[-124.56,53.61],[-124.39,53.4],[-124.58,53.22],[-123.88,52.78],[-124.61,52.46],[-125.13,52.69],[-126.01,52.56],[-126.19,52.76],[-126.01,52.94],[-125.66,52.92],[-125.48,53.1],[-125.66,53.3],[-127.07,53.01],[-128.15,53.45],[-128.36,54.02],[-129.75,53.7],[-129.99,54.27],[-130.35,54.28],[-130.45,53.72],[-129.9,53.51],[-129.71,53.32],[-129.86,53.14],[-129.32,52.93],[-129.13,52.74],[-129.29,52.56],[-128.76,52.35],[-128.57,52.15],[-128.73,51.98],[-128.03,51.57],[-128.16,51.02],[-128.49,51.04],[-129.12,50.71],[-127.21,49.86],[-127.26,49.31],[-124.91,48.16],[-124.82,47.96],[-125.06,47.79],[-124.57,47.35],[-124.81,47.19],[-124.72,46.99],[-124.41,46.95],[-124.33,46.75],[-124.56,46.58],[-124.08,46.13],[-124.47,45.59],[-124.0,45.13],[-124.23,44.96],[-124.15,44.75],[-124.38,44.58],[-124.3,44.37],[-124.52,44.2],[-124.44,43.99],[-124.67,43.82],[-124.59,43.61],[-125.1,42.66],[-125.02,42.45],[-124.72,42.4],[-124.64,42.19],[-124.87,42.01],[-124.41,41.53],[-124.91,40.57],[-124.47,40.08],[-124.17,40.04],[-124.1,39.81],[-124.32,39.64],[-123.87,39.14],[-124.09,38.97],[-124.02,38.74],[-123.36,38.41],[-123.43,37.78],[-122.64,37.85],[-122.71,37.21],[-122.06,36.87],[-122.14,36.23],[-121.5,35.87],[-121.58,35.23],[-120.95,34.87],[-121.03,34.22],[-120.75,34.15],[-120.34,33.61],[-119.55,33.64],[-119.49,33.4],[-119.71,33.23],[-119.65,32.99],[-119.37,32.92],[-118.99,33.51],[-119.05,33.75],[-118.83,33.92],[-118.55,33.85],[-118.8,32.78],[-118.52,32.71],[-118.14,33.29],[-117.86,33.22],[-117.8,32.98],[-117.52,32.9],[-117.62,32.24],[-116.33,31.2],[-116.44,30.53],[-115.83,30.13],[-115.45,29.55],[-114.68,29.55],[-114.63,29.3],[-113.7,28.54],[-113.83,27.87],[-114.05,27.7],[-114.32,27.79],[-114.54,27.62],[-114.49,27.37],[-113.9,26.95],[-113.68,27.11],[-113.41,27.03],[-113.36,26.77],[-113.09,26.68],[-112.87,26.85],[-112.6,26.76],[-112.55,26.51],[-111.97,26.07],[-111.93,25.82],[-112.5,24.82],[-112.14,24.22],[-111.4,24.2],[-111.35,23.94],[-111.09,23.85],[-111.05,23.6],[-109.88,22.45],[-109.48,23.03],[-109.22,22.93],[-109.0,23.09],[-109.04,23.34],[-109.6,23.79],[-109.46,24.46],[-110.21,24.49],[-110.56,25.1],[-111.13,25.54],[-110.99,26.21],[-112.2,27.34],[-112.25,27.59],[-112.52,27.68],[-112.57,27.93],[-112.84,28.02],[-112.71,28.69],[-113.63,29.46],[-113.68,29.71],[-113.95,29.79],[-114.18,29.63],[-114.78,30.05],[-114.66,30.71],[-115.27,31.12],[-115.15,31.79],[-114.93,31.95],[-114.31,31.54],[-114.09,31.71],[-113.81,31.62],[-113.76,31.37],[-112.82,30.61],[-112.95,29.95],[-112.35,29.52],[-112.48,28.85],[-111.89,28.42],[-111.66,28.59],[-111.39,28.49],[-111.53,27.83],[-110.76,27.8],[-110.72,27.55],[-109.52,26.41],[-109.66,25.74],[-109.4,25.64],[-109.36,25.39],[-108.6,25.35],[-108.56,25.1],[-108.3,25.0],[-108.26,24.74],[-108.0,24.64],[-107.96,24.39],[-107.7,24.29],[-107.67,24.03],[-107.41,23.93],[-107.37,23.68],[-107.11,23.58],[-107.08,23.32],[-106.82,23.22],[-106.78,22.97],[-106.53,22.87],[-106.49,22.61],[-105.38,21.44],[-105.35,21.18],[-105.57,21.03],[-105.82,21.13],[-106.14,21.74],[-106.68,22.2],[-107.09,21.63],[-107.06,21.38],[-106.8,21.28],[-106.58,21.43],[-106.04,20.98],[-106.2,20.31],[-105.66,19.86],[-105.08,18.89],[-104.83,18.79],[-104.61,18.94],[-104.36,18.84],[-104.33,18.59],[-103.63,18.53],[-103.33,17.92],[-102.62,17.87],[-102.6,17.61],[-102.36,17.51],[-102.14,17.66],[-101.64,17.2],[-101.42,17.35],[-101.18,17.24],[-101.16,16.99],[-100.92,16.89],[-100.7,17.03],[-100.47,16.93],[-100.45,16.68],[-99.76,16.61],[-99.74,16.36],[-99.5,16.26],[-98.84,16.44],[-98.61,16.33],[-98.59,16.08],[-98.36,15.98],[-98.14,16.12],[-97.91,16.01],[-97.9,15.77],[-97.22,15.7],[-97.21,15.45],[-96.98,15.34],[-96.33,15.52],[-95.66,15.44],[-95.24,15.96],[-95.02,15.86],[-94.37,16.02],[-94.14,15.91],[-94.14,15.67],[-93.48,15.59],[-93.03,14.64],[-92.39,14.56],[-92.17,13.97],[-91.75,14.0],[-91.32,13.55],[-90.28,13.73],[-89.87,13.28],[-89.25,13.43],[-88.85,12.99],[-88.04,13.03],[-87.85,12.46],[-87.21,12.4],[-86.04,10.82],[-86.21,10.24],[-85.75,9.82],[-85.49,9.26],[-85.27,9.16],[-84.88,9.65],[-84.42,9.23],[-83.99,9.26],[-84.16,8.66],[-83.94,8.56],[-83.92,8.33],[-83.49,8.36],[-83.03,7.93],[-82.6,7.96],[-82.09,7.05],[-80.15,7.06],[-79.77,7.55],[-80.04,8.12],[-79.41,8.28],[-78.94,7.84],[-78.52,7.86],[-77.53,6.51],[-77.69,5.91],[-77.89,5.77],[-77.62,5.19],[-77.82,5.06],[-77.8,4.82],[-77.57,4.71],[-77.55,4.48],[-77.75,4.34],[-77.73,4.1],[-77.5,3.99],[-77.48,3.75],[-77.68,3.62],[-77.66,3.38],[-78.29,3.21],[-78.27,2.97],[-78.47,2.83],[-78.7,2.94],[-78.9,2.8],[-79.43,1.41],[-80.07,1.24],[-80.98,-0.96],[-81.19,-1.1],[-80.92,-1.71],[-81.31,-2.25],[-81.29,-2.5],[-80.62,-2.58],[-80.35,-3.19],[-81.0,-3.37],[-81.36,-4.42],[-81.57,-4.57],[-81.29,-5.19],[-81.5,-5.33],[-81.48,-5.59],[-81.25,-5.7],[-81.23,-5.95],[-81.44,-6.1],[-81.42,-6.35],[-80.93,-6.83],[-80.27,-6.65],[-79.78,-7.12],[-79.95,-7.78],[-78.42,-9.71],[-78.59,-10.37],[-77.05,-12.28],[-77.02,-12.54],[-76.79,-12.64],[-76.76,-12.9],[-76.53,-13.0],[-76.87,-14.06],[-76.64,-14.17],[-76.08,-15.13],[-75.4,-15.18],[-75.11,-15.78],[-74.42,-15.83],[-74.13,-16.43],[-73.89,-16.53],[-73.68,-16.38],[-73.18,-16.82],[-72.97,-16.67],[-72.74,-16.76],[-72.45,-17.35],[-71.77,-17.39],[-71.21,-18.31],[-70.54,-18.33],[-70.68,-18.97],[-70.45,-19.06],[-70.42,-19.31],[-70.62,-19.46],[-70.59,-19.7],[-70.36,-19.79],[-70.33,-20.03],[-70.54,-20.18],[-70.51,-20.42],[-70.27,-20.51],[-70.42,-21.14],[-70.18,-21.23],[-70.15,-21.47],[-70.71,-22.4],[-70.41,-22.96],[-71.07,-23.18],[-70.77,-23.73],[-70.98,-23.88],[-70.95,-24.12],[-70.71,-24.2],[-70.68,-24.43],[-70.89,-24.58],[-70.86,-24.82],[-70.62,-24.9],[-70.59,-25.13],[-71.16,-26.04],[-70.86,-26.58],[-71.44,-27.48],[-71.14,-28.01],[-71.9,-29.27],[-71.6,-29.79],[-72.19,-30.66],[-71.88,-31.17],[-72.1,-31.31],[-72.07,-31.53],[-71.82,-31.6],[-71.79,-31.82],[-72.01,-31.96],[-71.98,-32.17],[-71.73,-32.24],[-71.7,-32.46],[-72.11,-32.95],[-71.8,-33.44],[-72.4,-34.28],[-72.09,-34.76],[-73.08,-36.26],[-73.08,-36.84],[-73.68,-37.08],[-73.69,-37.66],[-73.86,-37.82],[-73.43,-38.32],[-73.7,-38.85],[-73.26,-39.35],[-73.53,-39.89],[-73.99,-39.98],[-74.1,-40.97],[-74.29,-41.13],[-73.83,-41.64],[-74.02,-41.8],[-73.93,-42.02],[-74.6,-42.28],[-74.13,-42.8],[-74.44,-43.35],[-74.35,-43.57],[-73.56,-43.53],[-73.27,-42.98],[-72.98,-43.03],[-72.89,-43.26],[-73.18,-43.81],[-74.66,-44.13],[-74.68,-44.75],[-74.88,-44.92],[-74.79,-45.14],[-75.0,-45.31],[-74.91,-45.54],[-75.24,-46.1],[-75.14,-46.33],[-75.89,-46.61],[-75.8,-46.84],[-75.48,-46.9],[-75.27,-46.73],[-74.95,-46.79],[-74.44,-47.3],[-75.2,-47.59],[-75.1,-47.81],[-75.32,-47.98],[-75.64,-47.93],[-75.87,-48.1],[-75.77,-48.33],[-76.0,-48.5],[-75.48,-49.01],[-75.85,-49.59],[-75.31,-50.1],[-75.68,-50.68],[-75.14,-51.19],[-75.51,-51.77],[-74.49,-52.55],[-74.87,-53.13],[-74.76,-53.35],[-74.4,-53.4],[-74.29,-53.63],[-73.92,-53.67],[-73.81,-53.89],[-73.45,-53.94],[-73.33,-54.16],[-72.97,-54.2],[-71.86,-54.94],[-69.72,-55.53],[-69.54,-55.73],[-68.49,-55.53],[-67.68,-55.91],[-67.26,-55.91],[-67.05,-55.71],[-67.24,-55.52],[-67.03,-55.33],[-65.99,-55.12],[-65.18,-54.71],[-67.56,-54.02],[-67.74,-53.83],[-67.54,-53.64],[-68.28,-53.28],[-68.08,-53.1],[-68.25,-52.92],[-68.02,-52.36],[-68.57,-52.19],[-68.7,-51.98],[-68.5,-51.79],[-69.09,-51.33],[-68.88,-51.15],[-68.94,-50.54],[-67.72,-50.07],[-67.85,-49.85],[-67.17,-49.52],[-67.29,-49.31],[-67.06,-48.74],[-66.28,-48.63],[-65.63,-48.3],[-65.76,-48.09],[-65.59,-47.91],[-65.65,-46.94],[-66.4,-47.05],[-66.81,-46.8],[-67.23,-46.56],[-67.29,-45.96],[-66.84,-45.82],[-66.63,-45.27],[-66.18,-45.13],[-65.5,-45.41],[-65.34,-45.23],[-65.47,-45.03],[-64.88,-44.72],[-64.91,-43.39],[-63.15,-42.68],[-63.53,-42.45],[-63.63,-41.88],[-64.68,-42.11],[-64.8,-41.91],[-64.6,-41.01],[-63.61,-41.52],[-62.09,-41.0],[-61.94,-39.41],[-60.87,-39.04],[-60.29,-39.29],[-59.5,-38.88],[-57.42,-38.42],[-56.49,-36.65],[-56.29,-36.56],[-56.6,-36.1],[-57.27,-36.0],[-57.31,-35.82],[-56.68,-35.73],[-57.54,-34.7],[-57.34,-34.61],[-57.06,-34.89],[-56.39,-34.98],[-56.12,-35.26],[-55.75,-34.88],[-55.32,-34.88],[-55.59,-34.59],[-56.67,-34.7],[-57.18,-34.32],[-57.81,-34.42],[-58.58,-33.75],[-58.14,-32.68],[-57.95,-32.59],[-58.25,-32.09],[-57.9,-31.7],[-58.2,-31.2],[-57.85,-30.79],[-57.89,-30.59],[-57.26,-30.48],[-57.3,-30.27],[-57.1,-30.17],[-56.44,-30.25],[-56.08,-29.83],[-55.21,-29.8],[-54.69,-30.2],[-54.05,-30.06],[-53.53,-30.46],[-52.0,-30.27],[-51.47,-30.65],[-51.1,-30.21],[-50.82,-30.51],[-50.36,-30.48],[-50.08,-29.61],[-50.78,-29.56],[-50.82,-29.35],[-51.51,-29.29],[-51.55,-29.08],[-50.45,-28.89],[-49.63,-29.58],[-49.26,-29.12],[-49.31,-28.91],[-48.65,-28.75],[-48.21,-27.5],[-48.0,-27.37],[-48.62,-26.55],[-48.26,-26.06],[-48.14,-25.49],[-47.48,-25.3],[-47.36,-24.72],[-46.71,-24.53],[-46.75,-24.3],[-46.55,-24.16],[-44.94,-24.08],[-44.58,-23.57],[-44.12,-23.5],[-44.17,-23.28],[-43.96,-23.13],[-42.6,-22.94],[-42.06,-23.33],[-41.85,-23.18],[-41.74,-22.57],[-41.08,-22.35],[-40.65,-20.97],[-40.0,-20.74],[-40.05,-20.51],[-39.37,-19.17],[-39.42,-18.94],[-39.67,-18.86],[-39.56,-18.22],[-38.91,-17.99],[-39.25,-17.43],[-38.58,-16.06],[-38.62,-15.82],[-38.87,-15.73],[-38.92,-15.49],[-38.72,-15.33],[-39.05,-14.76],[-38.7,-14.19],[-38.74,-13.94],[-39.44,-13.93],[-39.48,-13.69],[-38.84,-13.45],[-38.88,-13.2],[-39.57,-13.19],[-39.62,-12.95],[-39.86,-12.86],[-40.51,-13.1],[-40.75,-13.02],[-40.8,-12.77],[-40.29,-11.78],[-40.62,-11.19],[-40.27,-10.61],[-40.16,-9.95],[-40.85,-9.94],[-40.89,-9.69],[-41.14,-9.6],[-41.34,-9.76],[-42.03,-9.75],[-42.23,-9.91],[-42.18,-10.17],[-41.94,-10.25],[-41.89,-10.5],[-42.09,-10.67],[-42.34,-10.58],[-42.38,-10.33],[-42.63,-10.24],[-42.67,-9.99],[-42.47,-9.82],[-42.51,-9.57],[-42.76,-9.48],[-42.8,-9.23],[-42.6,-9.07],[-42.93,-8.47],[-43.62,-8.46],[-43.98,-9.04],[-44.22,-8.95],[-44.27,-8.69],[-44.07,-8.53],[-43.95,-7.86],[-44.2,-7.77],[-44.84,-8.01],[-45.37,-7.57],[-45.57,-7.74],[-46.25,-7.72],[-46.14,-7.05],[-45.5,-6.81],[-45.25,-6.9],[-45.05,-6.74],[-45.1,-6.49],[-45.34,-6.4],[-46.42,-6.7],[-46.95,-6.27],[-47.14,-6.43],[-46.82,-7.03],[-47.02,-7.19],[-46.98,-7.44],[-46.74,-7.54],[-46.69,-7.79],[-46.89,-7.95],[-47.13,-7.86],[-47.49,-8.43],[-48.17,-8.41],[-47.58,-6.5],[-47.82,-6.41],[-48.18,-6.99],[-49.29,-7.03],[-49.34,-6.78],[-49.57,-6.69],[-49.46,-6.02],[-49.7,-5.93],[-49.74,-5.68],[-50.41,-5.66],[-50.29,-4.99],[-50.53,-4.9],[-50.57,-4.65],[-52.99,-1.84],[-53.03,-1.59],[-52.84,-1.43],[-52.6,-1.51],[-52.41,-1.35],[-52.72,-0.77],[-52.1,-0.53],[-52.14,-0.28],[-51.64,0.7],[-52.22,1.61],[-51.6,1.85],[-51.64,2.1],[-51.44,2.26],[-51.21,2.17],[-51.02,2.34],[-50.24,1.58],[-50.2,1.34],[-49.96,1.25],[-49.76,1.41],[-49.81,1.66],[-50.86,2.75],[-50.9,2.99],[-50.71,3.15],[-50.75,3.4],[-50.98,3.48],[-50.87,4.14],[-51.1,4.22],[-51.41,4.79],[-52.07,4.79],[-52.64,5.68],[-52.87,5.76],[-53.06,5.6],[-53.29,5.68],[-53.33,5.92],[-53.56,6.0],[-53.75,5.84],[-54.24,6.24],[-55.26,5.92],[-55.75,6.31],[-56.57,6.15],[-56.72,5.75],[-56.49,5.67],[-56.46,5.44],[-55.82,5.44],[-55.98,5.04],[-56.2,5.12],[-56.39,4.96],[-56.87,5.35],[-57.68,5.19],[-59.23,7.28],[-59.63,7.2],[-60.09,7.57],[-59.94,7.96],[-59.33,7.97],[-58.29,6.52],[-57.89,6.6],[-57.93,6.84],[-58.15,6.91],[-59.18,8.36],[-59.58,8.27],[-60.04,8.64],[-60.44,8.55],[-60.68,8.85],[-60.57,9.46],[-60.96,9.37],[-61.41,9.73],[-61.26,10.1],[-60.88,10.2],[-60.76,10.8],[-61.15,10.7],[-61.6,11.05],[-63.68,10.44],[-63.88,10.5],[-63.77,11.09],[-63.97,11.15],[-64.42,10.25],[-65.54,10.06],[-66.22,10.81],[-68.15,10.78],[-68.42,11.31],[-69.02,11.41],[-69.26,11.73],[-69.65,11.72],[-70.13,12.36],[-70.47,11.92],[-70.21,11.39],[-71.01,11.37],[-71.36,10.92],[-71.81,11.34],[-71.84,11.56],[-71.43,11.57],[-71.09,12.02],[-71.56,12.66],[-71.91,12.22],[-72.32,12.2],[-72.48,11.87],[-72.89,11.86],[-73.05,11.53],[-74.09,11.6],[-74.45,11.14],[-75.08,11.23],[-75.44,10.77],[-75.86,10.75],[-76.01,10.18],[-75.76,9.85],[-75.96,9.73],[-75.93,9.5],[-76.55,9.36],[-76.7,8.78],[-76.9,8.65],[-77.39,9.32],[-77.81,9.29],[-78.27,9.73],[-78.89,9.58],[-79.36,10.01],[-79.98,9.86],[-80.14,9.28]],[[-64.73,-20.9],[-64.24,-21.28],[-64.4,-21.67],[-65.05,-21.67],[-65.08,-21.44],[-65.31,-21.37],[-64.82,-20.2],[-65.11,-19.65],[-65.34,-19.57],[-65.69,-20.12],[-66.12,-20.2],[-65.82,-20.74],[-66.02,-20.9],[-65.99,-21.13],[-65.76,-21.21],[-65.73,-21.44],[-65.89,-21.83],[-65.4,-22.21],[-64.79,-21.98],[-64.56,-22.05],[-64.53,-22.28],[-64.88,-22.82],[-65.31,-22.9],[-65.93,-24.66],[-66.56,-24.9],[-66.53,-25.13],[-66.73,-25.28],[-66.7,-25.51],[-66.46,-25.58],[-65.6,-25.41],[-65.74,-26.01],[-65.5,-26.08],[-65.47,-26.3],[-65.9,-26.39],[-66.2,-25.87],[-66.43,-25.8],[-66.63,-25.96],[-66.6,-26.18],[-66.37,-26.25],[-66.33,-26.47],[-66.97,-26.71],[-66.94,-26.93],[-67.14,-27.09],[-67.38,-27.02],[-67.24,-26.42],[-67.68,-26.5],[-68.34,-28.22],[-68.99,-28.45],[-68.69,-28.96],[-69.35,-29.19],[-69.86,-30.51],[-70.31,-30.58],[-70.35,-30.37],[-69.77,-29.49],[-70.07,-28.98],[-69.51,-28.08],[-69.81,-27.56],[-69.07,-26.28],[-69.1,-26.06],[-69.34,-25.98],[-69.37,-25.75],[-69.16,-25.6],[-69.46,-25.06],[-68.81,-24.84],[-68.67,-24.22],[-68.23,-24.15],[-67.85,-23.61],[-67.88,-23.38],[-68.12,-23.3],[-67.98,-22.68],[-69.01,-21.65],[-69.04,-21.41],[-68.83,-21.26],[-69.13,-20.7],[-68.92,-20.55],[-68.95,-20.31],[-69.19,-20.22],[-69.22,-19.98],[-69.02,-19.83],[-69.05,-19.59],[-69.28,-19.5],[-69.14,-18.87],[-69.63,-18.45],[-69.49,-17.81],[-69.29,-17.66],[-68.79,-18.08],[-68.94,-18.71],[-68.7,-18.8],[-68.67,-19.04],[-68.87,-19.2],[-68.84,-19.44],[-68.35,-19.85],[-68.49,-20.48],[-68.26,-20.56],[-67.96,-21.12],[-67.53,-21.04],[-67.04,-21.44],[-66.67,-20.9],[-66.97,-20.34],[-66.6,-19.8],[-66.64,-19.56],[-66.86,-19.48],[-66.9,-19.24],[-66.7,-19.09],[-66.99,-18.53],[-66.63,-17.98],[-66.4,-18.06],[-66.37,-18.3],[-66.57,-18.46],[-66.53,-18.69],[-66.11,-18.62],[-65.63,-19.02],[-65.02,-18.79],[-64.28,-19.5],[-64.73,-20.9]],[[-120.54,53.23],[-120.17,53.19],[-119.5,52.72],[-119.72,52.54],[-120.6,52.84],[-120.75,53.06],[-120.54,53.23]],[[-119.4,36.07],[-119.11,36.0],[-119.05,35.77],[-119.27,35.6],[-119.91,35.96],[-119.98,36.2],[-119.59,36.78],[-119.3,36.71],[-119.4,36.07]],[[-58.52,-31.8],[-58.48,-32.0],[-58.91,-32.0],[-58.79,-31.5],[-58.59,-31.4],[-58.32,-31.7],[-58.52,-31.8]],[[-78.05,-8.9],[-77.84,-8.76],[-77.86,-8.5],[-78.35,-8.03],[-78.38,-7.77],[-78.17,-7.63],[-77.67,-8.1],[-77.65,-8.35],[-76.97,-8.42],[-76.69,-9.04],[-76.9,-9.18],[-76.87,-9.44],[-76.2,-9.5],[-76.36,-10.16],[-75.68,-10.22],[-75.84,-10.88],[-75.34,-11.34],[-75.32,-11.6],[-74.64,-11.65],[-74.79,-12.31],[-74.56,-12.41],[-74.53,-12.66],[-74.74,-12.81],[-74.71,-13.07],[-74.48,-13.17],[-73.93,-14.12],[-73.25,-14.17],[-72.6,-13.97],[-72.37,-14.07],[-71.82,-15.01],[-71.58,-15.1],[-71.38,-14.95],[-70.89,-15.39],[-70.68,-15.24],[-70.45,-15.33],[-70.6,-15.98],[-70.36,-16.07],[-69.55,-17.32],[-69.75,-17.48],[-70.25,-17.05],[-70.45,-17.21],[-70.68,-17.11],[-70.54,-16.47],[-71.21,-16.44],[-71.5,-15.85],[-71.73,-15.75],[-71.94,-15.9],[-72.44,-15.46],[-72.64,-15.62],[-72.88,-15.52],[-72.91,-15.27],[-73.14,-15.17],[-73.35,-15.32],[-73.58,-15.23],[-73.61,-14.98],[-73.85,-14.88],[-74.06,-15.03],[-74.29,-14.93],[-75.63,-12.91],[-75.87,-12.81],[-75.89,-12.55],[-76.13,-12.45],[-76.15,-12.19],[-76.39,-12.09],[-76.42,-11.84],[-76.65,-11.73],[-76.68,-11.48],[-76.91,-11.37],[-76.94,-11.12],[-77.17,-11.01],[-77.2,-10.76],[-77.43,-10.65],[-77.46,-10.39],[-77.69,-10.29],[-77.72,-10.03],[-77.95,-9.93],[-77.98,-9.67],[-77.76,-9.52],[-78.05,-8.9]],[[-124.63,51.7],[-123.96,51.26],[-123.09,51.36],[-122.94,51.16],[-123.12,50.98],[-123.98,50.88],[-124.65,51.32],[-125.5,51.2],[-125.67,51.78],[-126.7,52.23],[-126.53,52.41],[-125.66,52.16],[-125.49,52.34],[-125.14,52.31],[-124.97,52.1],[-125.15,51.93],[-124.63,51.7]],[[-62.51,10.49],[-61.75,10.68],[-61.51,10.39],[-61.65,10.01],[-62.21,9.77],[-62.65,10.12],[-62.51,10.49]],[[-60.76,8.01],[-60.97,8.08],[-60.83,8.47],[-60.58,8.17],[-60.76,8.01]],[[-70.8,-14.25],[-71.03,-14.15],[-71.06,-13.9],[-70.86,-13.75],[-70.63,-13.85],[-70.6,-14.09],[-70.8,-14.25]],[[-70.39,-53.44],[-70.61,-53.62],[-70.96,-53.59],[-71.09,-53.37],[-70.87,-53.19],[-70.52,-53.22],[-70.39,-53.44]],[[-71.28,10.25],[-71.41,9.69],[-71.17,9.36],[-71.36,9.24],[-71.84,9.9],[-71.68,10.24],[-71.28,10.25]],[[-65.63,-17.44],[-65.4,-17.53],[-65.37,-17.77],[-65.56,-17.92],[-65.79,-17.84],[-65.63,-17.44]],[[-78.45,-7.01],[-78.68,-6.9],[-78.7,-6.64],[-78.49,-6.5],[-78.26,-6.61],[-78.24,-6.86],[-78.45,-7.01]],[[-70.87,8.58],[-71.09,8.69],[-70.93,9.03],[-70.69,8.7],[-70.87,8.58]],[[-58.99,-32.68],[-58.57,-32.68],[-58.53,-32.88],[-58.73,-32.97],[-58.99,-32.68]]],[[[-35.12,-5.13],[-35.36,-5.05],[-35.55,-5.21],[-35.51,-5.46],[-35.27,-5.55],[-35.07,-5.38],[-35.12,-5.13]]],[[[-131.85,52.82],[-131.71,53.01],[-131.91,53.19],[-132.25,53.2],[-132.39,53.02],[-131.85,52.82]]],[[[-65.86,-23.6],[-65.9,-23.37],[-66.13,-23.3],[-66.49,-23.83],[-66.46,-24.06],[-66.03,-23.98],[-66.06,-23.75],[-65.86,-23.6]]],[[[-92.5,21.18],[-92.49,20.93],[-92.27,20.82],[-92.04,20.95],[-92.05,21.2],[-92.27,21.31],[-92.5,21.18]]],[[[-88.3,42.8],[-88.33,42.57],[-88.06,42.43],[-87.19,42.47],[-87.16,42.7],[-87.43,42.84],[-88.3,42.8]]],[[[-73.27,41.35],[-74.41,40.75],[-75.69,39.72],[-75.17,39.61],[-73.88,40.64],[-72.74,41.23],[-72.63,41.45],[-72.85,41.62],[-73.17,41.57],[-73.27,41.35]]],[[[-91.09,-1.45],[-90.88,-1.31],[-90.65,-1.42],[-90.64,-1.67],[-90.42,-1.78],[-90.01,-1.25],[-89.54,-1.72],[-88.94,-0.79],[-88.95,-0.54],[-89.18,-0.43],[-89.39,-0.57],[-90.05,-0.5],[-90.3,0.11],[-90.09,0.25],[-89.87,0.14],[-89.66,0.28],[-89.67,0.53],[-89.9,0.63],[-90.11,0.49],[-90.57,0.96],[-91.21,0.78],[-90.96,0.18],[-91.17,0.04],[-91.39,0.15],[-91.4,0.4],[-91.63,0.5],[-91.84,0.36],[-91.59,-0.24],[-91.99,-0.76],[-91.98,-1.01],[-91.33,-1.09],[-91.31,-1.34],[-91.09,-1.45]]],[[[-68.89,11.95],[-68.71,12.07],[-68.95,12.38],[-69.1,12.06],[-68.89,11.95]]],[[[-86.92,5.15],[-86.71,5.28],[-86.73,5.52],[-87.19,5.96],[-87.4,5.83],[-87.38,5.59],[-86.92,5.15]]],[[[-65.98,18.55],[-66.51,18.35],[-67.08,18.46],[-67.23,18.17],[-66.28,18.05],[-65.76,18.31],[-65.98,18.55]]],[[[-57.49,6.69],[-57.64,6.29],[-57.16,5.9],[-57.01,6.3],[-57.49,6.69]]],[[[-41.38,-4.29],[-41.05,-4.89],[-41.4,-5.47],[-41.07,-6.07],[-41.27,-6.23],[-41.23,-6.49],[-40.7,-6.92],[-40.81,-7.59],[-40.27,-8.02],[-39.63,-7.77],[-39.39,-7.86],[-39.05,-8.45],[-38.37,-8.46],[-38.48,-9.13],[-38.23,-9.22],[-38.19,-9.47],[-37.5,-9.47],[-37.46,-9.72],[-36.92,-10.14],[-37.03,-10.81],[-37.23,-10.97],[-37.18,-11.22],[-36.94,-11.3],[-36.74,-11.14],[-36.79,-10.89],[-36.15,-10.64],[-36.04,-9.98],[-35.41,-9.73],[-35.45,-9.48],[-34.66,-7.64],[-34.99,-7.06],[-34.8,-6.89],[-34.84,-6.64],[-35.08,-6.56],[-34.98,-5.89],[-36.09,-5.96],[-36.43,-5.37],[-35.8,-5.13],[-35.84,-4.87],[-36.08,-4.79],[-36.71,-5.03],[-36.67,-5.29],[-36.87,-5.45],[-37.11,-5.36],[-37.0,-4.69],[-37.68,-4.68],[-38.87,-3.07],[-39.56,-3.06],[-39.6,-2.8],[-39.84,-2.71],[-40.48,-2.96],[-41.01,-2.52],[-42.09,-2.84],[-42.04,-3.09],[-41.8,-3.18],[-41.6,-3.02],[-41.36,-3.11],[-41.47,-3.78],[-41.23,-3.87],[-41.18,-4.12],[-41.38,-4.29]],[[-39.37,-6.68],[-39.61,-6.6],[-39.66,-6.34],[-39.46,-6.18],[-39.22,-6.26],[-39.17,-6.52],[-39.37,-6.68]],[[-40.37,-4.9],[-40.32,-5.15],[-40.52,-5.32],[-40.76,-5.23],[-40.81,-4.97],[-40.61,-4.81],[-40.37,-4.9]]],[[[-91.59,20.47],[-91.82,20.58],[-92.04,20.45],[-92.03,20.21],[-91.81,20.09],[-91.59,20.22],[-91.59,20.47]]],[[[-59.88,-51.23],[-61.39,-50.99],[-61.55,-51.18],[-61.34,-51.35],[-60.77,-51.49],[-61.46,-51.91],[-61.2,-52.44],[-60.28,-52.19],[-59.08,-52.46],[-57.37,-51.55],[-58.78,-51.14],[-59.29,-51.37],[-59.88,-51.23]]],[[[-42.53,-2.92],[-42.33,-2.75],[-42.37,-2.5],[-42.62,-2.41],[-42.81,-2.57],[-42.77,-2.83],[-42.53,-2.92]]],[[[-44.94,-2.02],[-44.13,-2.8],[-43.06,-2.48],[-43.1,-2.23],[-43.34,-2.14],[-43.54,-2.31],[-44.22,-2.29],[-44.26,-2.04],[-44.79,-1.61],[-44.99,-1.77],[-44.94,-2.02]]],[[[-71.39,19.1],[-70.95,18.71],[-70.38,18.8],[-70.4,19.0],[-71.0,19.1],[-71.23,19.39],[-71.39,19.1]]],[[[-83.1,27.64],[-83.12,27.41],[-82.49,27.25],[-82.51,27.01],[-82.72,26.91],[-82.55,26.3],[-81.93,26.15],[-81.57,25.41],[-81.82,24.84],[-82.45,24.75],[-82.46,24.52],[-81.04,24.32],[-80.58,25.0],[-79.97,25.08],[-80.12,25.67],[-79.66,26.33],[-80.0,27.06],[-79.76,27.39],[-81.01,29.96],[-81.64,30.14],[-81.62,30.37],[-81.83,30.51],[-82.05,30.41],[-82.07,30.18],[-83.02,29.07],[-83.03,28.83],[-82.82,28.7],[-82.84,28.46],[-83.3,28.01],[-83.31,27.78],[-83.1,27.64]]],[[[-83.71,35.85],[-83.98,35.29],[-83.55,34.78],[-83.31,34.88],[-83.29,35.11],[-82.6,35.15],[-82.33,35.7],[-81.4,36.32],[-81.35,36.53],[-81.84,36.61],[-82.79,35.75],[-83.71,35.85]]],[[[-49.09,-0.01],[-49.41,0.58],[-49.64,0.66],[-50.27,0.43],[-50.23,0.18],[-50.0,0.09],[-49.8,0.25],[-49.56,0.16],[-49.25,-0.43],[-48.58,-0.44],[-48.53,-0.69],[-48.3,-0.78],[-48.1,-0.62],[-48.42,-0.03],[-49.09,-0.01]]],[[[-37.52,-10.64],[-37.32,-10.47],[-37.36,-10.22],[-37.9,-9.8],[-38.1,-9.97],[-38.05,-10.22],[-37.52,-10.64]]],[[[-46.43,-1.24],[-46.23,-1.07],[-45.99,-1.16],[-45.95,-1.41],[-45.71,-1.5],[-45.51,-1.34],[-45.55,-1.09],[-46.07,-0.66],[-46.71,-0.9],[-46.67,-1.15],[-46.43,-1.24]]],[[[-64.17,-54.49],[-64.77,-54.7],[-64.56,-54.88],[-64.15,-54.87],[-63.96,-54.67],[-64.17,-54.49]]],[[[-109.01,50.05],[-110.47,49.76],[-110.38,49.53],[-109.44,49.52],[-109.36,49.29],[-109.01,49.21],[-108.58,49.74],[-108.66,49.97],[-109.01,50.05]]],[[[-54.31,-34.38],[-54.27,-34.57],[-54.47,-34.67],[-54.91,-34.68],[-55.04,-35.16],[-54.8,-35.25],[-54.43,-34.86],[-53.99,-34.85],[-53.86,-34.37],[-54.31,-34.38]]],[[[-114.96,18.59],[-114.91,18.34],[-114.66,18.25],[-114.45,18.41],[-114.5,18.66],[-114.75,18.75],[-114.96,18.59]]],[[[-84.88,22.1],[-85.1,21.98],[-85.11,21.74],[-84.91,21.62],[-84.68,21.97],[-84.88,22.1]]],[[[-97.72,32.34],[-97.7,32.09],[-97.44,31.98],[-97.2,32.11],[-97.21,32.36],[-97.47,32.48],[-97.72,32.34]]],[[[-78.16,27.24],[-78.35,27.38],[-78.79,26.96],[-79.19,26.99],[-79.04,26.4],[-78.46,26.23],[-78.02,26.65],[-77.24,26.57],[-77.4,26.93],[-77.79,26.97],[-77.76,27.2],[-78.16,27.24]]],[[[-38.69,-10.46],[-38.34,-9.88],[-38.38,-9.63],[-38.63,-9.55],[-38.98,-10.13],[-38.94,-10.38],[-38.69,-10.46]]],[[[-91.91,1.84],[-92.13,1.94],[-92.34,1.8],[-92.33,1.56],[-91.87,1.1],[-91.66,1.24],[-91.91,1.84]]],[[[-37.62,-11.3],[-38.13,-12.29],[-38.08,-12.54],[-38.73,-12.79],[-38.68,-13.04],[-38.44,-13.12],[-37.79,-12.87],[-37.84,-12.63],[-37.33,-11.64],[-37.38,-11.39],[-37.62,-11.3]]],[[[-118.46,29.25],[-118.4,29.01],[-118.12,28.93],[-117.91,29.1],[-117.97,29.35],[-118.24,29.42],[-118.46,29.25]]],[[[-83.06,24.9],[-83.28,24.79],[-83.29,24.56],[-83.09,24.43],[-82.86,24.77],[-83.06,24.9]]],[[[-78.05,24.47],[-77.82,24.79],[-78.0,24.92],[-78.21,24.83],[-78.05,24.47]]],[[[-155.57,19.17],[-155.3,19.15],[-155.08,19.79],[-155.19,20.02],[-155.83,20.31],[-156.05,19.67],[-155.57,19.17]]],[[[-65.8,-22.53],[-65.99,-22.68],[-65.96,-22.91],[-65.73,-22.99],[-65.53,-22.83],[-65.57,-22.6],[-65.8,-22.53]]],[[[-65.22,32.26],[-65.07,32.11],[-64.69,32.31],[-65.11,32.44],[-65.22,32.26]]],[[[-47.15,-0.97],[-46.95,-0.81],[-46.99,-0.55],[-47.23,-0.47],[-47.43,-0.63],[-47.39,-0.88],[-47.15,-0.97]]],[[[-79.08,-33.5],[-79.05,-33.71],[-78.57,-33.67],[-78.59,-33.45],[-78.85,-33.37],[-79.08,-33.5]]],[[[-67.93,-24.68],[-67.7,-24.76],[-67.49,-24.6],[-67.52,-24.38],[-67.96,-24.45],[-67.93,-24.68]]],[[[-79.65,38.72],[-79.95,38.65],[-80.01,38.44],[-79.5,38.35],[-79.43,38.57],[-79.65,38.72]]],[[[-79.28,26.07],[-79.49,25.97],[-79.32,25.61],[-79.09,25.94],[-79.28,26.07]]],[[[-84.05,22.08],[-84.04,22.32],[-84.24,22.44],[-84.46,22.33],[-84.47,22.09],[-84.05,22.08]]],[[[-81.81,3.7],[-81.6,3.84],[-81.62,4.08],[-81.85,4.19],[-82.06,4.05],[-82.04,3.81],[-81.81,3.7]]]]}}]}