{"type":"FeatureCollection","features":[{"type":"Feature","properties":{},"geometry":{"type":"MultiPolygon","coordinates":[[[[-7.89,57.17],[-8.34,56.67],[-7.3,56.46],[-6.76,55.52],[-8.5,55.59],[-9.29,54.99],[-9.02,54.41],[-10.75,54.44],[-10.44,54.08],[-10.84,53.54],[-10.21,53.03],[-10.97,52.17],[-10.38,51.43],[-8.77,51.18],[-8.03,51.81],[-6.03,52.05],[-5.48,53.25],[-6.01,53.99],[-5.26,54.35],[-4.7,53.83],[-5.09,53.54],[-5.01,52.28],[-5.77,51.68],[-4.85,51.45],[-4.64,50.84],[-5.6,50.85],[-6.74,49.69],[-3.56,50.0],[-2.81,50.59],[-0.42,50.22],[0.04,49.67],[-0.91,49.49],[-1.98,50.12],[-3.47,48.93],[-5.35,48.7],[-4.91,47.7],[-3.74,47.55],[-1.91,46.45],[-1.3,45.28],[-1.65,44.97],[-1.65,43.64],[-3.82,43.95],[-4.46,43.54],[-8.1,44.05],[-9.63,43.32],[-8.88,42.14],[-9.22,41.55],[-8.72,41.01],[-9.34,40.31],[-9.13,39.67],[-9.96,39.61],[-9.01,38.04],[-9.33,37.43],[-8.85,36.9],[-6.77,36.74],[-6.15,35.56],[-6.44,35.21],[-6.24,34.82],[-5.64,35.52],[-4.88,35.57],[-5.04,36.2],[-3.97,36.59],[-2.26,36.26],[-1.33,37.25],[-0.58,37.26],[-0.21,37.82],[-0.38,38.21],[0.25,38.85],[-0.09,39.63],[1.23,40.9],[2.02,40.94],[2.42,41.49],[3.59,41.85],[3.25,42.6],[3.67,43.16],[6.35,42.85],[8.77,44.1],[10.12,43.78],[9.23,42.94],[8.37,42.94],[8.52,42.55],[8.05,42.01],[8.97,41.37],[7.67,40.83],[8.35,40.35],[7.9,39.8],[8.19,39.0],[8.94,38.75],[10.14,39.04],[9.86,39.85],[10.33,40.4],[9.76,41.99],[11.56,42.18],[11.7,41.78],[12.47,41.52],[12.74,40.71],[14.67,40.44],[14.8,40.03],[15.55,39.73],[15.57,39.08],[14.32,38.84],[14.35,38.19],[13.52,38.24],[13.17,38.83],[11.98,37.92],[12.33,37.33],[14.19,37.05],[14.53,36.45],[15.35,36.39],[15.61,37.77],[16.45,37.7],[16.96,38.23],[16.85,38.65],[17.58,39.0],[17.58,39.65],[16.83,39.96],[17.25,40.25],[17.79,40.12],[18.11,39.52],[19.4,39.72],[19.5,39.3],[20.24,38.97],[20.34,38.54],[19.8,38.02],[20.53,37.69],[21.24,36.68],[22.07,36.57],[22.35,35.95],[23.18,35.83],[23.34,34.96],[24.04,34.6],[24.77,34.9],[25.77,34.57],[26.75,35.33],[27.55,35.18],[27.62,35.85],[28.42,35.69],[28.49,36.36],[30.29,35.83],[31.12,36.75],[32.1,36.36],[32.32,35.72],[33.07,35.97],[33.11,35.54],[31.79,34.82],[33.21,34.23],[35.08,35.82],[34.6,36.02],[33.72,35.56],[33.68,35.99],[34.57,36.45],[35.35,36.26],[35.62,34.31],[34.64,33.19],[34.83,32.54],[34.27,32.08],[34.04,31.19],[35.76,31.7],[35.58,32.35],[36.15,32.8],[35.53,33.22],[35.51,33.66],[36.08,34.11],[35.85,35.62],[36.43,36.06],[36.22,37.13],[35.33,36.69],[34.54,36.89],[33.2,36.19],[30.76,37.16],[29.93,36.24],[28.43,36.79],[27.62,38.04],[28.64,38.77],[27.94,39.15],[28.07,39.37],[29.44,40.11],[30.28,39.94],[30.36,40.59],[33.17,41.96],[34.48,41.98],[36.65,40.95],[37.44,41.15],[38.4,40.72],[39.33,41.11],[40.28,40.67],[41.36,41.24],[43.51,41.13],[43.67,41.74],[43.98,41.72],[44.11,41.09],[46.67,40.29],[46.74,39.24],[48.8,38.62],[48.71,37.79],[49.66,37.05],[50.43,37.16],[52.55,36.23],[55.48,37.03],[55.78,37.63],[56.99,37.41],[56.9,38.31],[58.13,38.08],[59.03,37.24],[59.85,37.29],[60.24,36.99],[60.2,36.33],[61.4,36.07],[62.14,36.34],[63.71,35.74],[64.09,36.32],[64.75,35.92],[66.87,36.26],[67.29,36.84],[68.83,36.16],[69.81,36.8],[69.8,38.2],[69.44,38.54],[67.46,38.4],[66.49,37.74],[66.12,38.07],[66.54,38.65],[67.09,38.74],[67.65,39.98],[68.91,39.63],[72.34,40.03],[72.83,40.59],[73.41,40.65],[72.34,41.71],[70.15,40.69],[69.72,41.29],[70.64,42.69],[71.93,42.31],[72.44,42.88],[73.04,42.94],[73.73,42.48],[75.53,42.62],[76.08,43.17],[80.03,43.22],[80.62,43.74],[81.84,43.25],[83.05,43.26],[83.35,43.64],[81.21,44.52],[78.73,44.46],[79.0,45.11],[80.26,45.14],[80.87,45.67],[81.81,45.55],[81.51,44.91],[82.14,44.4],[86.39,44.1],[86.95,43.58],[88.18,44.04],[90.23,43.8],[90.92,44.51],[90.4,45.05],[89.2,45.12],[88.97,45.77],[89.32,46.13],[88.25,47.7],[87.01,48.27],[85.38,48.2],[84.75,48.72],[84.09,48.73],[84.79,49.74],[84.14,50.26],[83.45,50.27],[83.81,50.9],[83.47,51.28],[84.89,51.76],[86.62,51.58],[88.05,52.01],[87.46,53.05],[88.26,53.76],[86.59,55.46],[87.01,55.81],[88.51,55.73],[88.22,56.37],[88.65,56.71],[88.32,57.1],[87.16,57.29],[86.83,57.92],[85.64,58.09],[86.1,58.68],[84.46,58.74],[82.81,59.27],[82.39,59.88],[75.17,61.72],[71.5,61.78],[68.95,62.43],[67.63,62.2],[64.99,62.78],[63.7,62.51],[63.19,61.71],[62.06,62.06],[62.16,62.68],[61.65,62.74],[60.4,62.44],[61.19,61.94],[59.97,61.63],[58.98,59.59],[57.73,60.13],[58.09,60.95],[54.12,61.85],[53.98,61.44],[52.87,61.08],[50.24,61.38],[48.43,60.79],[47.27,61.01],[44.15,59.97],[43.02,60.15],[42.12,59.71],[40.35,59.64],[36.97,60.45],[34.57,59.45],[34.32,60.63],[36.04,60.78],[36.86,61.25],[35.75,62.35],[34.67,62.06],[34.84,61.28],[34.23,61.02],[32.85,61.28],[32.47,61.84],[27.54,62.58],[25.39,62.04],[24.02,62.19],[23.53,62.69],[24.12,63.2],[23.71,63.91],[24.65,64.27],[24.55,64.85],[25.86,65.06],[25.13,65.92],[22.8,66.1],[20.84,65.13],[21.32,64.44],[20.77,63.93],[18.11,63.34],[16.9,62.44],[16.91,61.98],[15.73,62.0],[15.89,61.71],[15.18,61.3],[16.08,60.93],[14.19,61.02],[14.4,60.23],[11.64,60.66],[9.35,59.95],[9.44,59.47],[7.94,58.68],[6.86,58.64],[5.96,58.95],[6.51,59.35],[5.17,61.8],[4.48,61.94],[4.69,61.59],[4.11,61.2],[5.02,59.98],[4.46,59.58],[4.94,59.06],[3.05,57.95],[2.03,58.04],[0.64,57.11],[-0.39,57.17],[-1.73,56.19],[-2.4,56.29],[-1.55,56.81],[-1.74,57.38],[-1.3,57.64],[-3.0,58.0],[-2.5,58.46],[-2.76,58.81],[-0.58,59.85],[-0.76,60.4],[-0.3,60.64],[-0.88,61.14],[-2.67,60.37],[-1.68,59.92],[-2.2,59.47],[-4.48,59.36],[-3.53,58.71],[-4.97,58.89],[-7.67,58.44],[-7.36,58.09],[-7.78,57.81],[-7.52,57.25],[-7.89,57.17]],[[13.43,41.71],[13.3,42.12],[13.62,42.18],[14.39,41.9],[13.43,41.71]],[[86.62,47.39],[86.89,46.75],[85.63,46.79],[84.97,46.3],[82.11,47.22],[82.43,47.6],[86.62,47.39]],[[83.69,45.55],[83.37,45.17],[82.75,45.94],[83.7,46.06],[84.01,45.93],[83.69,45.55]],[[-5.48,38.61],[-4.96,38.55],[-4.3,39.47],[-3.5,39.5],[-2.53,40.48],[-2.69,41.11],[-1.65,40.97],[-1.03,41.36],[0.06,40.34],[-0.91,39.39],[-0.29,38.69],[-1.37,38.35],[-1.24,37.72],[-2.31,37.38],[-2.93,36.71],[-4.87,37.43],[-4.05,37.71],[-4.25,38.1],[-6.1,37.92],[-5.48,38.61]],[[14.33,43.17],[13.74,43.9],[12.95,44.17],[12.9,44.79],[13.8,44.76],[15.42,43.58],[15.44,42.95],[16.0,42.83],[16.12,42.43],[14.81,42.19],[14.33,43.17]],[[43.55,42.78],[42.3,42.83],[41.21,43.49],[42.62,43.65],[44.17,42.76],[45.43,42.69],[45.4,42.27],[44.16,42.34],[43.55,42.78]],[[29.07,41.58],[28.54,41.76],[29.01,42.0],[30.26,41.43],[29.79,41.2],[29.07,41.58]],[[-4.62,42.58],[-5.78,42.22],[-6.43,41.55],[-7.47,42.15],[-7.12,42.73],[-7.35,43.12],[-6.16,43.49],[-5.68,42.95],[-4.5,43.3],[-4.03,42.76],[-4.62,42.58]],[[8.8,40.03],[8.73,40.66],[9.65,40.89],[9.47,39.54],[8.79,39.15],[8.42,39.72],[8.8,40.03]],[[23.72,36.34],[23.64,36.77],[23.95,36.8],[24.97,36.48],[25.24,35.84],[26.18,35.94],[25.32,35.41],[23.8,35.9],[23.72,36.34]],[[9.8,46.83],[10.22,47.13],[11.04,46.89],[10.19,46.3],[9.8,46.83]],[[-0.4,43.09],[2.43,42.57],[2.08,42.24],[0.3,42.61],[-0.32,42.22],[-0.74,42.78],[-0.4,43.09]],[[16.29,40.08],[16.41,39.67],[17.16,39.36],[16.32,38.78],[15.97,40.03],[15.21,40.33],[16.17,40.5],[16.29,40.08]],[[6.79,45.07],[6.31,45.37],[7.02,45.76],[7.26,45.61],[6.79,45.07]],[[24.48,40.14],[24.8,40.17],[24.88,39.75],[24.35,39.91],[24.48,40.14]],[[33.18,34.67],[32.7,34.86],[32.84,35.09],[33.14,35.1],[33.18,34.67]],[[9.06,42.47],[9.61,42.38],[8.82,41.77],[8.67,42.16],[9.06,42.47]],[[22.26,38.8],[22.58,38.84],[22.67,38.41],[21.62,38.72],[22.26,38.8]],[[7.66,45.92],[7.5,46.29],[7.91,46.6],[8.48,46.53],[7.66,45.92]],[[19.19,41.2],[19.19,40.55],[17.78,40.77],[17.45,41.36],[16.58,41.43],[16.24,42.02],[17.11,42.59],[18.76,42.21],[19.19,41.2]],[[-4.31,41.07],[-3.78,41.01],[-3.13,41.66],[-2.93,41.27],[-3.58,40.61],[-5.56,39.98],[-6.56,40.58],[-6.24,40.92],[-4.92,40.65],[-4.31,41.07]],[[25.31,38.27],[26.34,37.93],[25.9,37.67],[24.87,38.0],[24.79,38.43],[25.31,38.27]],[[22.75,37.98],[22.84,37.55],[21.89,37.43],[21.91,38.1],[22.75,37.98]],[[21.34,39.99],[21.64,39.37],[21.2,39.1],[20.9,39.71],[21.34,39.99]],[[13.95,37.89],[14.88,38.07],[15.21,37.47],[14.81,37.17],[12.51,37.81],[12.9,38.12],[13.95,37.89]],[[-2.61,48.69],[-2.83,49.08],[-2.24,48.99],[-2.61,48.69]],[[-8.08,41.71],[-8.32,42.1],[-8.03,42.2],[-7.76,42.05],[-8.08,41.71]],[[46.52,42.4],[47.75,41.88],[47.67,41.04],[47.22,41.29],[47.26,41.71],[46.03,42.23],[46.06,42.65],[46.52,42.4]],[[25.68,38.96],[25.23,38.7],[24.51,39.06],[24.96,39.32],[25.68,38.96]],[[24.15,41.82],[24.48,41.85],[24.56,41.43],[24.02,41.59],[24.15,41.82]],[[-3.33,42.05],[-3.0,42.38],[-2.22,42.15],[-2.55,41.83],[-3.33,42.05]],[[12.53,46.79],[11.95,46.88],[12.39,47.17],[12.53,46.79]]],[[[-145.23,-17.51],[-145.06,-16.89],[-144.32,-17.37],[-143.91,-16.78],[-142.92,-17.28],[-142.89,-16.44],[-144.28,-16.54],[-145.13,-15.83],[-146.14,-15.74],[-146.23,-15.1],[-146.87,-15.25],[-147.35,-14.78],[-148.36,-14.67],[-148.4,-15.09],[-147.67,-15.59],[-147.01,-15.44],[-146.57,-16.33],[-145.55,-16.43],[-145.46,-17.07],[-146.0,-17.44],[-145.23,-17.51]]],[[[137.85,35.51],[136.53,36.26],[137.89,36.9],[137.02,38.32],[136.32,37.53],[136.54,36.95],[135.64,35.83],[133.92,35.87],[133.26,36.66],[132.85,36.22],[133.08,35.66],[131.67,34.89],[130.81,34.92],[130.94,34.43],[130.39,34.07],[129.41,34.81],[129.82,35.65],[129.55,36.63],[129.08,35.4],[128.46,35.72],[127.6,34.89],[126.91,34.82],[126.86,35.68],[127.68,36.31],[127.88,37.43],[127.28,37.51],[127.18,38.37],[126.58,38.43],[125.87,39.34],[126.0,39.89],[124.83,39.78],[124.38,40.16],[122.32,39.82],[122.35,40.55],[123.03,41.06],[121.88,41.66],[119.72,39.99],[118.29,40.51],[116.19,40.4],[116.1,39.84],[113.97,38.38],[114.49,37.21],[114.25,35.86],[112.42,34.7],[113.8,34.63],[113.4,33.57],[114.22,32.98],[116.4,32.5],[118.69,32.99],[118.85,32.64],[118.1,32.09],[117.96,31.28],[118.98,30.92],[119.72,31.47],[120.36,30.25],[120.92,29.89],[121.42,30.29],[121.89,29.36],[122.32,29.35],[123.01,30.78],[122.07,31.5],[122.37,31.99],[121.01,32.68],[121.31,33.17],[120.11,34.75],[120.25,35.5],[121.15,35.65],[121.04,36.17],[121.67,36.08],[121.55,36.6],[122.41,36.55],[122.92,36.91],[123.07,37.63],[121.37,37.79],[121.07,38.44],[122.5,39.02],[123.3,38.69],[123.86,39.79],[124.93,39.16],[124.63,37.73],[126.1,37.66],[125.56,36.91],[125.93,36.54],[125.6,36.08],[125.97,35.7],[125.81,34.95],[125.13,34.87],[124.97,34.11],[126.06,33.98],[125.9,33.21],[126.99,33.07],[127.27,33.35],[126.95,33.95],[127.84,33.92],[128.87,34.45],[129.15,33.66],[128.29,32.81],[128.66,32.39],[130.01,32.3],[129.39,31.53],[130.34,31.67],[130.21,31.06],[130.91,31.11],[131.25,31.6],[130.59,31.75],[130.26,32.39],[130.43,33.18],[129.77,33.32],[130.81,33.85],[131.63,33.39],[131.67,32.49],[132.21,32.85],[133.13,32.77],[133.72,33.32],[134.39,33.16],[135.0,33.92],[135.42,33.45],[136.06,33.53],[136.28,34.09],[135.43,33.9],[135.85,34.56],[136.71,34.07],[137.15,34.5],[138.92,34.39],[139.33,33.66],[139.78,33.63],[139.38,34.6],[140.78,34.96],[140.59,35.57],[141.29,35.64],[140.9,36.62],[141.43,37.3],[141.01,38.04],[141.74,38.11],[142.3,38.79],[142.11,39.41],[142.4,39.75],[141.51,40.99],[141.82,41.57],[141.37,42.3],[142.16,42.39],[143.14,41.87],[144.59,42.87],[145.95,42.9],[146.31,43.49],[147.16,43.55],[146.99,44.17],[147.68,44.85],[150.8,45.8],[150.66,46.43],[151.04,46.76],[150.46,46.82],[149.64,45.91],[147.82,45.57],[147.42,44.99],[146.22,44.58],[145.42,44.75],[144.8,44.3],[143.71,44.36],[142.95,44.74],[143.14,44.14],[144.22,44.09],[144.69,43.59],[144.34,43.01],[143.53,42.93],[142.92,42.24],[141.93,42.76],[141.48,43.49],[142.08,44.18],[141.87,44.78],[142.69,44.87],[142.26,45.83],[142.86,46.28],[143.35,45.8],[143.97,46.25],[142.8,48.04],[143.49,48.96],[142.98,49.44],[142.67,49.32],[142.88,48.74],[142.07,49.1],[141.45,48.64],[141.94,47.94],[141.62,47.59],[141.84,47.01],[140.94,46.2],[141.71,45.84],[140.87,45.5],[141.34,44.79],[141.04,44.44],[141.25,43.85],[140.18,43.4],[139.35,42.36],[140.08,41.99],[139.3,41.66],[140.03,41.28],[139.74,40.7],[141.25,40.88],[141.88,39.54],[140.1,38.8],[139.89,39.16],[140.64,39.48],[140.2,40.21],[139.71,40.23],[139.45,39.89],[139.65,39.29],[139.13,38.6],[138.42,38.51],[137.92,37.6],[138.82,37.09],[139.84,38.46],[140.57,38.54],[140.78,38.17],[139.74,36.81],[139.04,36.73],[138.99,35.79],[138.3,35.71],[138.5,35.12],[137.85,35.51]],[[120.39,38.35],[120.51,37.85],[119.25,38.19],[119.01,38.85],[119.48,39.61],[121.97,40.75],[122.01,40.3],[121.23,40.0],[120.88,38.59],[120.39,38.35]],[[132.93,33.99],[134.58,34.16],[134.38,33.6],[133.3,33.56],[132.71,33.01],[132.93,33.99]],[[119.42,35.73],[118.17,34.95],[117.51,35.01],[117.16,35.5],[117.46,35.93],[116.86,36.37],[117.4,36.83],[118.07,36.76],[119.42,35.73]],[[134.57,35.52],[135.21,35.16],[135.86,35.48],[135.43,34.81],[133.94,34.97],[132.22,33.94],[131.1,34.13],[132.89,35.32],[133.93,35.19],[134.57,35.52]],[[142.95,46.99],[142.39,47.0],[142.18,47.59],[142.74,47.58],[142.95,46.99]],[[141.15,42.67],[140.41,43.04],[141.19,43.14],[141.44,43.01],[141.15,42.67]]],[[[-68.77,43.59],[-66.88,44.61],[-66.69,43.4],[-65.63,43.09],[-64.2,43.81],[-64.09,44.42],[-63.22,44.28],[-62.07,44.95],[-61.2,44.79],[-60.53,45.22],[-60.53,45.63],[-59.49,46.07],[-59.66,46.69],[-60.2,46.88],[-58.94,47.53],[-56.42,47.55],[-56.26,47.34],[-57.0,46.93],[-56.32,46.52],[-54.89,46.91],[-53.75,46.28],[-52.86,46.46],[-52.73,47.27],[-51.96,47.64],[-53.48,49.36],[-53.42,49.77],[-56.01,50.25],[-55.97,50.68],[-55.37,50.88],[-55.49,51.52],[-56.1,51.31],[-55.93,51.1],[-56.53,50.89],[-56.77,50.26],[-57.33,50.48],[-57.31,50.9],[-57.7,50.9],[-57.92,50.26],[-56.08,49.41],[-55.13,49.61],[-54.06,49.17],[-54.12,48.75],[-53.46,48.32],[-54.02,48.13],[-54.28,47.52],[-55.71,47.54],[-56.39,47.96],[-58.39,47.74],[-58.54,48.79],[-57.78,49.21],[-57.76,49.63],[-58.32,49.84],[-58.53,49.21],[-59.66,48.77],[-59.66,47.51],[-61.1,47.05],[-61.26,46.43],[-62.35,46.79],[-63.23,46.54],[-64.59,47.5],[-63.9,47.97],[-64.2,49.01],[-63.65,49.25],[-61.9,48.7],[-61.17,49.15],[-62.92,49.71],[-62.95,50.14],[-61.38,49.78],[-60.62,50.22],[-61.79,50.19],[-62.59,50.58],[-64.73,50.26],[-65.96,50.61],[-69.72,48.76],[-69.76,48.11],[-70.76,47.56],[-70.65,47.15],[-70.06,47.0],[-69.43,47.5],[-69.52,47.92],[-67.98,48.72],[-67.0,48.59],[-66.31,49.07],[-64.79,49.18],[-64.69,48.34],[-66.33,48.01],[-64.96,47.48],[-65.63,47.01],[-65.58,46.59],[-64.81,46.23],[-64.91,45.6],[-65.76,45.33],[-66.02,45.93],[-66.38,45.9],[-66.46,45.27],[-67.36,45.39],[-68.33,44.88],[-68.62,45.47],[-68.97,45.43],[-69.02,44.8],[-69.92,44.91],[-71.43,43.88],[-71.99,44.01],[-71.42,44.51],[-72.21,44.82],[-71.64,45.32],[-72.22,46.73],[-73.97,45.83],[-78.01,46.22],[-77.93,45.58],[-78.69,45.21],[-79.13,45.78],[-79.74,45.87],[-79.23,46.42],[-79.5,46.58],[-80.73,46.76],[-81.49,46.37],[-84.59,46.75],[-85.31,47.93],[-86.51,48.54],[-88.81,48.59],[-89.2,48.0],[-91.16,47.62],[-91.83,46.93],[-91.54,46.56],[-90.3,46.49],[-89.64,46.94],[-87.47,46.66],[-87.25,46.03],[-88.19,45.99],[-88.91,45.09],[-90.42,45.07],[-91.6,45.61],[-92.17,46.35],[-93.09,46.26],[-93.71,45.57],[-94.62,45.95],[-94.01,44.99],[-94.88,43.96],[-94.01,43.83],[-93.43,44.27],[-91.44,43.13],[-92.03,42.7],[-93.16,42.76],[-92.89,42.4],[-93.18,42.07],[-94.57,42.46],[-94.84,42.13],[-94.26,41.42],[-94.52,41.08],[-95.63,41.56],[-95.39,42.14],[-95.68,42.49],[-97.1,42.85],[-96.48,41.92],[-98.49,39.32],[-97.89,38.61],[-98.13,38.24],[-97.82,37.64],[-98.79,36.41],[-98.48,35.8],[-98.97,35.29],[-98.66,34.68],[-99.14,34.17],[-98.83,33.56],[-98.05,33.46],[-98.74,32.31],[-98.44,31.69],[-99.19,31.54],[-98.89,30.92],[-100.59,29.95],[-100.28,29.33],[-99.28,29.38],[-98.74,28.9],[-98.01,29.06],[-97.48,28.57],[-98.2,28.16],[-97.91,27.54],[-98.57,26.36],[-99.27,25.94],[-98.53,25.85],[-97.74,24.75],[-97.69,23.98],[-97.25,24.52],[-97.52,25.14],[-96.85,26.06],[-97.39,27.05],[-96.95,27.83],[-94.8,28.77],[-94.34,29.53],[-91.45,29.53],[-90.97,29.03],[-89.09,29.0],[-89.09,29.74],[-88.61,30.21],[-85.85,30.09],[-85.21,29.21],[-84.06,29.97],[-83.46,28.86],[-82.82,28.7],[-83.31,27.78],[-82.55,26.3],[-81.93,26.15],[-81.57,25.41],[-82.46,24.52],[-80.83,24.43],[-80.58,25.0],[-79.97,25.08],[-80.12,25.67],[-79.66,26.33],[-80.02,26.83],[-79.76,27.39],[-81.21,30.1],[-81.08,31.73],[-80.18,32.09],[-79.91,32.64],[-79.26,32.68],[-78.37,33.76],[-77.64,33.73],[-77.36,34.53],[-76.15,34.4],[-76.2,34.95],[-75.09,35.16],[-75.48,36.8],[-72.1,38.93],[-72.1,39.52],[-70.55,40.34],[-70.53,40.94],[-69.66,41.45],[-69.95,42.02],[-69.39,42.5],[-69.68,43.07],[-68.77,43.59]],[[-88.3,34.19],[-86.91,32.91],[-84.59,32.75],[-84.09,33.42],[-83.15,33.81],[-82.04,33.58],[-80.86,34.26],[-79.99,34.15],[-78.59,35.41],[-77.63,35.23],[-79.87,33.1],[-80.53,33.06],[-82.0,31.11],[-82.07,30.18],[-82.97,29.78],[-84.26,30.35],[-85.18,29.93],[-85.61,30.43],[-95.36,30.52],[-96.39,31.25],[-95.22,33.13],[-97.05,33.98],[-96.83,34.6],[-97.12,34.97],[-96.4,36.08],[-95.35,35.84],[-95.63,36.45],[-96.44,36.81],[-95.66,36.93],[-95.95,37.54],[-95.46,38.26],[-93.88,38.23],[-93.37,38.7],[-91.27,38.15],[-91.53,37.81],[-91.27,37.44],[-89.99,37.74],[-90.5,37.05],[-90.25,36.68],[-90.5,36.1],[-91.26,36.01],[-91.75,35.06],[-92.5,34.95],[-92.74,34.35],[-92.0,34.7],[-90.5,34.65],[-89.03,34.11],[-88.54,34.57],[-88.3,34.19]],[[-81.73,37.03],[-82.19,37.32],[-81.4,37.31],[-81.51,37.89],[-81.17,38.17],[-80.14,38.01],[-81.0,37.81],[-80.83,37.45],[-81.23,36.95],[-81.73,37.03]],[[-66.38,49.5],[-66.92,49.24],[-66.99,49.66],[-65.9,50.18],[-64.68,49.83],[-65.39,49.36],[-66.38,49.5]],[[-74.99,43.55],[-75.03,44.17],[-74.6,44.46],[-73.45,44.22],[-74.43,43.43],[-74.99,43.55]],[[-64.77,44.37],[-65.31,44.54],[-65.16,44.75],[-64.32,45.02],[-64.13,44.83],[-64.77,44.37]],[[-65.85,44.7],[-66.4,44.86],[-65.91,45.11],[-65.85,44.7]],[[-63.86,45.67],[-63.35,45.91],[-62.09,45.36],[-62.6,45.13],[-63.86,45.67]]],[[[115.27,-32.66],[115.62,-33.21],[114.62,-33.63],[114.7,-34.17],[115.76,-34.63],[116.25,-35.39],[116.97,-35.27],[116.99,-34.92],[115.01,-33.85],[116.01,-33.42],[116.04,-31.54],[115.19,-32.13],[115.27,-32.66]]],[[[3.77,39.52],[4.63,39.78],[3.73,40.38],[2.58,40.03],[2.19,39.47],[3.08,38.88],[3.77,39.52]]],[[[37.69,65.26],[35.1,65.44],[36.02,65.9],[35.72,66.07],[35.94,66.28],[38.38,65.88],[39.14,66.13],[38.86,66.3],[32.52,67.11],[32.33,66.9],[34.4,66.14],[34.59,64.42],[36.12,64.16],[36.47,63.6],[38.61,63.95],[38.3,64.52],[37.03,64.62],[36.75,64.8],[36.96,65.01],[39.8,64.61],[40.8,65.05],[39.74,65.39],[39.98,65.6],[42.37,66.29],[44.56,66.36],[44.9,66.95],[46.29,66.78],[46.6,66.98],[45.51,67.35],[45.82,67.55],[47.32,67.76],[47.57,67.57],[47.18,66.99],[48.0,66.8],[48.41,67.38],[48.16,67.58],[49.44,67.96],[52.37,68.51],[54.05,68.08],[55.06,68.24],[54.01,68.66],[54.41,68.84],[54.18,69.04],[53.55,69.05],[47.65,67.96],[46.53,68.32],[46.86,68.52],[46.59,68.7],[45.09,68.86],[44.77,68.66],[45.93,68.31],[45.55,67.73],[44.14,68.27],[43.83,68.07],[44.11,67.89],[42.94,67.47],[43.22,67.28],[42.93,67.08],[40.7,66.98],[40.44,66.78],[41.55,66.45],[39.92,66.37],[39.67,66.16],[39.95,65.98],[38.94,65.53],[39.22,65.36],[38.99,65.15],[37.69,65.26]],[[44.66,67.52],[44.93,67.34],[44.63,67.14],[43.79,67.3],[44.66,67.52]],[[43.75,66.53],[42.92,66.7],[43.77,66.92],[44.04,66.73],[43.75,66.53]]],[[[-120.15,37.78],[-120.87,38.36],[-120.99,39.68],[-122.03,40.3],[-121.94,40.92],[-122.47,40.8],[-122.77,40.01],[-122.4,39.73],[-122.55,39.33],[-123.36,39.26],[-123.29,39.89],[-124.03,40.43],[-123.66,41.0],[-124.58,42.79],[-123.14,43.6],[-122.35,45.5],[-122.98,46.38],[-123.45,45.26],[-124.23,44.96],[-125.1,42.66],[-124.41,41.53],[-124.91,40.57],[-124.17,40.04],[-124.02,38.74],[-123.36,38.41],[-123.43,37.78],[-122.64,37.85],[-122.71,37.21],[-122.06,36.87],[-122.14,36.23],[-121.5,35.87],[-121.58,35.23],[-120.95,34.87],[-121.03,34.22],[-120.34,33.61],[-119.55,33.64],[-119.65,32.99],[-118.55,33.85],[-118.8,32.78],[-117.86,33.22],[-117.52,32.9],[-117.62,32.24],[-116.61,31.28],[-116.11,31.37],[-116.78,32.01],[-116.67,32.67],[-117.01,33.0],[-116.62,33.58],[-117.02,34.14],[-117.82,34.12],[-118.51,34.74],[-119.53,34.54],[-121.64,36.34],[-121.49,36.75],[-120.69,36.8],[-119.98,36.2],[-120.07,35.56],[-119.21,35.36],[-118.95,36.41],[-119.59,36.78],[-119.5,37.42],[-120.15,37.78]]],[[[-168.39,53.37],[-171.87,52.48],[-171.32,52.24],[-169.39,52.88],[-168.48,52.6],[-168.23,53.16],[-166.12,53.51],[-165.84,54.06],[-165.26,54.18],[-165.78,54.44],[-166.96,54.19],[-167.23,53.64],[-168.39,53.37]]],[[[167.39,-47.54],[168.01,-47.51],[168.58,-46.75],[170.4,-46.62],[171.65,-44.44],[173.07,-44.18],[173.31,-43.79],[172.95,-43.22],[173.77,-43.01],[174.4,-41.59],[175.27,-41.86],[176.06,-41.64],[176.22,-41.01],[176.99,-40.79],[177.34,-39.76],[178.08,-39.54],[178.94,-37.33],[176.69,-37.5],[175.76,-36.49],[175.92,-35.86],[174.66,-35.86],[174.82,-35.22],[172.73,-34.66],[173.05,-35.26],[173.82,-35.32],[173.14,-36.0],[174.62,-37.48],[173.6,-39.69],[174.41,-39.73],[175.08,-40.65],[173.44,-40.58],[172.84,-40.14],[171.81,-40.72],[173.89,-41.89],[173.44,-42.67],[170.74,-44.15],[171.1,-44.73],[170.33,-45.89],[169.17,-46.46],[168.52,-46.02],[167.01,-46.23],[166.69,-45.87],[167.55,-44.97],[166.94,-44.76],[166.09,-46.15],[167.34,-46.58],[167.06,-47.2],[167.39,-47.54]],[[175.4,-40.98],[175.78,-39.95],[174.66,-39.58],[175.07,-38.8],[174.73,-38.21],[176.5,-37.89],[177.08,-38.31],[178.27,-37.79],[177.95,-38.82],[176.7,-39.1],[176.66,-40.46],[175.4,-40.98]]],[[[12.07,67.9],[11.56,67.33],[12.73,67.65],[13.38,67.4],[11.83,66.97],[10.9,65.85],[11.64,65.45],[10.48,65.3],[10.41,64.87],[9.6,64.53],[9.77,64.2],[8.13,64.17],[8.2,63.66],[4.67,62.31],[7.05,62.42],[7.66,62.79],[7.47,63.13],[8.56,62.99],[8.5,63.5],[10.9,63.55],[9.93,63.86],[10.62,64.26],[10.41,64.53],[11.53,64.6],[13.62,67.04],[14.92,67.17],[16.19,68.31],[15.54,68.58],[14.25,68.26],[14.44,68.74],[16.88,68.88],[17.63,69.46],[16.96,69.74],[13.75,69.0],[13.29,68.23],[12.07,67.9]]],[[[-105.3,40.46],[-105.49,39.84],[-104.5,38.82],[-103.95,38.86],[-103.75,39.48],[-104.41,40.16],[-103.95,40.9],[-105.37,40.93],[-105.63,40.79],[-105.3,40.46]]],[[[171.41,-42.24],[172.47,-41.66],[172.15,-41.31],[171.33,-41.51],[170.62,-42.93],[168.08,-43.96],[167.83,-44.59],[170.95,-43.27],[171.41,-42.24]]],[[[145.65,-38.62],[145.52,-37.95],[144.73,-37.7],[143.64,-38.69],[145.65,-38.62]]],[[[140.3,48.4],[140.63,48.98],[140.07,48.97],[137.47,45.61],[136.69,45.48],[136.18,44.55],[135.43,44.42],[134.95,43.49],[134.0,43.01],[132.59,42.95],[131.65,43.35],[130.77,42.86],[130.59,42.29],[132.6,42.73],[133.08,42.3],[133.53,42.77],[134.24,42.68],[135.19,43.16],[135.68,44.08],[136.42,44.21],[136.94,45.14],[137.71,45.27],[140.3,48.4]]],[[[92.12,41.17],[91.91,41.56],[90.79,41.63],[89.84,40.82],[89.34,41.34],[87.35,41.3],[87.09,41.68],[87.99,42.03],[86.83,42.07],[86.29,42.59],[85.94,41.71],[85.39,42.23],[82.45,42.24],[81.86,41.72],[80.98,41.84],[80.41,41.31],[79.23,41.27],[79.56,40.65],[78.43,40.09],[76.41,40.11],[75.89,39.56],[77.19,37.87],[78.34,37.43],[79.15,37.6],[79.73,37.12],[84.08,37.22],[86.85,38.44],[87.94,38.41],[88.55,39.13],[89.35,38.98],[91.68,40.08],[92.76,40.01],[93.13,40.59],[92.88,40.74],[91.46,40.47],[92.12,41.17]]],[[[117.43,23.98],[115.99,22.89],[115.38,23.12],[114.2,22.53],[112.92,22.76],[113.52,22.3],[112.79,21.83],[113.42,21.6],[114.34,21.91],[114.63,22.45],[116.37,22.57],[116.66,23.1],[117.29,23.08],[118.09,24.18],[119.62,24.62],[120.14,25.26],[120.02,25.81],[121.03,26.85],[120.91,27.39],[122.25,28.94],[120.6,28.03],[120.72,27.5],[119.47,26.23],[119.58,25.64],[118.57,24.53],[117.94,24.55],[117.43,23.98]]],[[[-16.15,28.14],[-15.66,27.64],[-14.92,28.02],[-16.14,28.9],[-17.14,28.38],[-17.9,29.25],[-18.39,28.73],[-18.13,28.35],[-18.37,27.72],[-17.86,27.22],[-17.63,28.11],[-17.13,27.62],[-16.15,28.14]]],[[[-144.18,59.89],[-142.94,60.16],[-144.03,60.3],[-144.45,60.21],[-144.18,59.89]]],[[[55.41,-21.85],[56.04,-21.23],[55.3,-20.55],[54.99,-20.86],[55.41,-21.85]]],[[[-163.02,60.17],[-163.81,60.08],[-164.88,60.63],[-164.7,61.23],[-165.73,61.56],[-165.56,62.16],[-166.42,62.06],[-166.67,61.67],[-165.52,61.12],[-165.68,60.52],[-164.08,59.71],[-162.51,59.89],[-162.09,59.83],[-162.31,59.25],[-161.54,59.33],[-161.3,59.91],[-161.79,60.19],[-163.02,60.17]]],[[[-77.01,26.89],[-78.35,27.38],[-79.19,26.99],[-79.34,25.38],[-78.95,25.35],[-79.09,25.94],[-78.65,26.36],[-77.68,26.16],[-77.75,25.48],[-76.93,25.86],[-76.68,26.4],[-77.01,26.89]]],[[[180.0,52.34],[179.44,52.14],[180.0,51.94],[180.0,52.34]]],[[[-56.94,-34.42],[-57.61,-34.32],[-57.77,-34.6],[-56.83,-34.98],[-55.32,-34.88],[-56.94,-34.42]]],[[[-157.51,58.62],[-158.16,57.93],[-157.75,57.65],[-156.73,58.47],[-157.17,58.97],[-158.69,58.84],[-159.53,59.2],[-162.18,58.82],[-161.7,58.55],[-159.84,58.85],[-159.0,58.49],[-157.51,58.62]]],[[[-113.57,41.72],[-114.15,40.56],[-113.74,40.02],[-113.19,40.1],[-112.8,40.88],[-112.13,40.48],[-111.68,41.02],[-112.45,41.88],[-113.57,41.72]]],[[[-125.72,48.62],[-124.91,48.16],[-125.06,47.79],[-124.08,46.13],[-124.47,45.59],[-124.08,45.34],[-123.53,46.26],[-124.5,47.92],[-123.38,48.18],[-122.9,47.73],[-123.22,47.0],[-122.34,47.08],[-121.76,47.97],[-122.24,48.42],[-121.66,49.3],[-122.07,49.54],[-123.22,49.3],[-125.51,50.46],[-125.59,49.72],[-123.63,48.78],[-124.11,48.45],[-125.01,49.11],[-125.89,49.01],[-125.83,49.56],[-127.47,50.24],[-127.53,49.88],[-126.8,49.64],[-126.85,49.09],[-125.72,48.62]]],[[[-5.99,59.32],[-6.43,59.06],[-5.69,58.97],[-5.99,59.32]]],[[[51.13,29.12],[50.39,29.64],[50.34,30.24],[49.55,30.37],[48.76,30.01],[48.13,30.25],[47.57,29.45],[48.3,29.0],[48.47,29.61],[49.51,29.96],[50.71,29.0],[51.13,29.12]]],[[[-120.02,46.54],[-120.59,46.43],[-120.12,45.96],[-121.48,45.57],[-120.15,45.16],[-119.02,45.38],[-117.84,46.38],[-116.68,46.57],[-117.46,47.12],[-117.08,47.84],[-117.48,48.11],[-117.93,47.59],[-119.23,47.8],[-120.24,47.17],[-119.84,46.91],[-120.02,46.54]]],[[[-152.43,-16.33],[-152.49,-16.75],[-150.92,-16.94],[-151.76,-16.19],[-152.43,-16.33]]],[[[-14.35,65.41],[-12.93,65.64],[-14.11,65.86],[-14.59,66.59],[-16.35,66.72],[-18.43,66.14],[-17.16,65.96],[-15.21,66.29],[-14.35,65.41]]],[[[-158.65,-19.18],[-158.99,-19.57],[-158.0,-20.16],[-157.92,-19.73],[-158.65,-19.18]]],[[[88.31,42.39],[88.53,41.75],[89.93,41.56],[90.9,42.38],[92.03,42.3],[92.5,41.76],[93.74,42.4],[93.28,42.94],[92.41,42.89],[91.92,43.43],[91.27,42.98],[88.1,43.28],[87.78,42.92],[88.31,42.39]]],[[[73.72,30.9],[75.07,30.19],[76.05,30.27],[76.51,30.79],[75.64,31.81],[75.83,32.43],[75.05,32.49],[74.73,33.07],[73.63,33.46],[72.07,31.7],[72.89,31.42],[73.22,30.85],[73.72,30.9]]],[[[18.42,-34.42],[19.77,-34.96],[20.57,-34.55],[19.27,-34.4],[18.61,-33.64],[17.82,-34.04],[18.42,-34.42]]],[[[63.4,25.55],[62.84,25.1],[64.16,25.34],[63.4,25.55]]],[[[-140.92,-17.83],[-141.43,-18.22],[-140.68,-18.68],[-140.54,-17.65],[-140.91,-17.42],[-140.92,-17.83]]],[[[121.31,22.09],[121.16,22.44],[121.8,22.52],[121.53,23.44],[122.43,25.07],[121.93,25.85],[121.4,25.22],[120.75,25.13],[119.93,23.95],[119.05,23.62],[119.35,22.86],[120.17,22.83],[120.44,21.91],[121.47,21.74],[121.73,22.07],[121.31,22.09]],[[121.37,23.78],[121.23,22.89],[120.74,22.46],[120.8,24.14],[121.48,24.44],[121.37,23.78]]],[[[23.83,-34.18],[24.75,-34.51],[26.53,-33.78],[27.28,-33.91],[28.19,-33.22],[25.6,-33.46],[24.69,-34.12],[22.63,-33.86],[23.14,-34.42],[23.83,-34.18]]],[[[-61.15,16.03],[-61.25,16.65],[-62.01,16.45],[-61.74,15.99],[-61.15,16.03]]],[[[-162.23,55.28],[-161.81,55.03],[-160.98,55.86],[-160.21,55.53],[-159.21,55.74],[-160.3,55.93],[-160.07,56.48],[-160.44,56.55],[-161.04,56.06],[-162.41,55.89],[-161.98,55.63],[-162.23,55.28]]],[[[106.11,51.79],[106.68,52.28],[105.64,52.14],[105.53,51.92],[106.11,51.79]]],[[[153.3,-28.38],[153.56,-28.27],[153.36,-27.87],[153.06,-28.23],[153.3,-28.38]]],[[[117.55,-34.96],[117.81,-35.34],[119.91,-34.59],[119.99,-33.99],[119.61,-33.84],[119.5,-34.39],[117.55,-34.96]]],[[[95.36,43.36],[95.72,43.69],[95.47,43.85],[95.16,43.76],[95.36,43.36]]],[[[129.45,40.24],[129.39,40.89],[128.42,40.07],[127.6,40.01],[127.27,39.34],[127.91,39.06],[129.53,36.84],[129.7,37.18],[127.83,39.7],[129.45,40.24]]],[[[-58.47,-34.32],[-58.36,-34.88],[-57.93,-34.89],[-58.08,-34.13],[-58.47,-34.32]]],[[[73.27,67.13],[73.91,66.81],[74.84,67.3],[74.21,67.61],[73.27,67.13]]],[[[-153.36,59.83],[-152.98,59.52],[-151.41,60.0],[-150.53,60.87],[-149.28,61.21],[-151.71,61.17],[-153.36,59.83]]],[[[-20.63,63.34],[-18.23,63.24],[-16.48,63.6],[-15.84,64.14],[-18.51,63.6],[-20.13,63.67],[-20.82,64.15],[-21.66,64.18],[-22.36,64.89],[-22.82,64.79],[-22.46,64.43],[-23.0,63.86],[-21.33,63.82],[-20.63,63.34]]],[[[57.1,-20.69],[58.1,-20.39],[57.84,-19.57],[56.98,-20.28],[57.1,-20.69]]],[[[-99.44,25.03],[-99.97,25.51],[-99.77,26.16],[-100.54,26.5],[-100.73,25.84],[-99.91,24.75],[-99.44,25.03]]],[[[178.48,51.93],[177.64,52.32],[177.08,52.1],[177.36,51.5],[178.31,51.72],[179.52,51.33],[179.48,51.73],[178.48,51.93]]],[[[-20.77,65.9],[-21.25,65.8],[-20.9,65.43],[-18.92,66.05],[-20.22,66.23],[-20.77,65.9]]],[[[29.75,-24.49],[29.82,-24.91],[30.99,-25.19],[30.92,-24.77],[29.75,-24.49]]],[[[-6.84,62.49],[-7.76,61.97],[-7.1,61.3],[-6.33,61.22],[-6.6,61.76],[-5.67,62.26],[-6.37,62.74],[-6.84,62.49]]],[[[-162.33,63.22],[-162.0,63.6],[-162.9,63.51],[-162.33,63.22]]],[[[-156.26,21.23],[-157.72,21.59],[-157.78,22.25],[-158.68,21.45],[-158.2,20.97],[-157.13,20.87],[-157.07,20.21],[-156.37,20.36],[-156.48,19.49],[-155.79,18.53],[-154.77,19.09],[-154.65,19.96],[-155.13,20.46],[-155.83,20.31],[-156.26,21.23]]],[[[76.89,8.31],[77.09,7.94],[77.9,7.91],[78.53,9.0],[78.12,9.01],[77.7,8.29],[76.9,8.8],[76.89,8.31]]],[[[70.38,66.3],[72.05,66.05],[72.93,66.55],[72.21,67.08],[72.62,67.44],[72.05,67.53],[71.24,66.81],[69.72,66.6],[70.38,66.3]]],[[[123.7,-33.56],[120.23,-33.97],[120.75,-34.31],[121.74,-34.2],[121.92,-34.78],[122.89,-34.27],[123.44,-34.6],[124.52,-33.85],[124.26,-32.87],[123.7,-33.56]]],[[[-145.67,-14.33],[-146.03,-14.08],[-146.56,-14.45],[-146.2,-14.69],[-145.67,-14.33]]],[[[32.47,-28.81],[32.12,-28.44],[30.97,-29.23],[30.55,-30.11],[31.39,-30.0],[31.42,-29.38],[32.47,-28.81]]],[[[-138.81,-21.92],[-139.07,-21.49],[-139.19,-22.12],[-138.81,-22.35],[-138.81,-21.92]]],[[[-8.51,57.88],[-8.09,58.16],[-8.82,58.23],[-9.27,57.73],[-8.51,57.88]]],[[[1.21,36.3],[2.56,36.73],[1.36,37.01],[-0.02,36.33],[0.14,35.94],[1.21,36.3]]],[[[129.93,42.14],[129.56,41.45],[130.04,40.82],[130.37,42.17],[129.93,42.14]]],[[[-15.28,64.44],[-15.38,64.22],[-14.59,64.16],[-13.32,64.98],[-14.13,65.05],[-15.28,64.44]]],[[[-117.67,43.89],[-117.22,43.39],[-116.35,43.42],[-116.47,42.81],[-115.23,42.54],[-114.42,42.78],[-115.35,42.99],[-116.92,44.37],[-117.67,43.89]]],[[[-177.03,-43.58],[-177.2,-43.95],[-176.84,-44.27],[-175.93,-44.54],[-175.83,-43.94],[-177.03,-43.58]]],[[[-178.21,52.13],[-179.35,51.74],[-179.12,51.13],[-178.73,51.13],[-178.58,51.73],[-176.45,51.49],[-175.12,52.05],[-173.04,51.75],[-172.27,52.11],[-172.25,52.51],[-172.81,52.74],[-173.03,52.15],[-174.54,52.63],[-175.89,52.08],[-178.21,52.13]]],[[[-164.75,54.88],[-165.34,54.77],[-164.68,54.3],[-163.15,54.47],[-162.6,55.34],[-163.33,55.45],[-163.65,54.73],[-164.75,54.88]]],[[[28.34,-32.41],[28.8,-32.56],[30.09,-31.6],[29.63,-31.46],[28.34,-32.41]]],[[[-60.67,43.8],[-60.17,43.62],[-59.5,44.04],[-60.0,44.23],[-60.67,43.8]]],[[[-25.12,38.06],[-26.24,37.98],[-24.95,36.52],[-24.69,36.67],[-25.03,37.29],[-24.79,37.69],[-25.12,38.06]]],[[[58.18,68.68],[57.35,68.92],[55.88,68.6],[56.71,68.37],[58.18,68.68]]],[[[-139.98,60.01],[-139.77,59.69],[-139.25,59.97],[-139.98,60.01]]],[[[-64.67,18.63],[-67.0,17.88],[-64.61,18.24],[-64.67,18.63]]],[[[72.39,32.96],[72.9,33.02],[73.07,33.65],[72.44,34.33],[71.39,34.22],[72.23,33.94],[71.52,33.49],[71.88,32.91],[72.39,32.96]]],[[[-159.33,21.72],[-159.01,22.13],[-159.66,22.4],[-161.09,21.63],[-160.71,21.39],[-160.13,21.78],[-159.33,21.72]]],[[[-142.43,-17.73],[-142.93,-17.69],[-142.45,-18.57],[-141.83,-18.82],[-142.43,-17.73]]],[[[-146.14,60.98],[-147.72,61.0],[-148.65,60.36],[-147.96,59.94],[-145.55,60.34],[-146.14,60.98]]],[[[-54.31,-34.38],[-54.87,-34.87],[-53.99,-34.85],[-53.86,-34.37],[-54.31,-34.38]]],[[[-155.91,57.47],[-155.57,57.81],[-156.29,57.76],[-155.91,57.47]]],[[[30.95,69.59],[32.15,69.91],[33.5,69.1],[34.82,69.6],[31.7,70.25],[31.29,70.79],[29.57,70.99],[28.94,70.71],[30.63,70.52],[29.35,69.79],[30.95,69.59]]],[[[105.07,51.64],[104.94,52.05],[104.49,51.77],[105.07,51.64]]],[[[-15.87,33.34],[-16.65,32.96],[-17.44,33.08],[-17.7,32.69],[-16.65,32.19],[-15.87,33.34]]],[[[-149.55,-17.73],[-149.03,-17.79],[-149.73,-16.86],[-150.34,-17.65],[-149.55,-17.73]]],[[[90.82,53.95],[91.38,53.16],[93.14,53.12],[91.9,53.99],[90.82,53.95]]],[[[144.27,48.36],[144.85,48.35],[145.24,48.92],[144.66,48.94],[144.27,48.36]]],[[[-153.75,58.86],[-153.37,59.19],[-153.75,59.49],[-154.52,59.45],[-153.75,58.86]]],[[[-56.67,51.53],[-57.28,51.32],[-56.71,51.11],[-56.67,51.53]]],[[[-28.91,38.65],[-29.17,38.49],[-28.83,38.14],[-27.14,38.29],[-26.67,39.1],[-27.89,39.52],[-28.91,38.65]]],[[[79.72,6.49],[80.33,6.09],[80.14,6.72],[79.72,6.49]]],[[[139.79,-36.43],[139.49,-35.59],[138.19,-35.45],[138.33,-35.86],[139.13,-35.9],[139.79,-36.43]]],[[[-14.67,28.15],[-13.69,28.15],[-13.18,28.89],[-13.4,29.52],[-13.9,29.53],[-14.67,28.15]]],[[[77.36,42.47],[78.27,42.38],[78.54,42.78],[77.63,42.87],[77.36,42.47]]],[[[44.07,39.86],[44.97,39.8],[44.39,40.25],[44.09,40.27],[44.07,39.86]]],[[[43.28,68.81],[42.97,68.61],[43.26,68.43],[44.17,68.65],[43.28,68.81]]],[[[128.36,36.59],[128.34,36.19],[128.59,36.27],[128.36,36.59]]],[[[-57.23,-35.17],[-57.7,-34.98],[-57.31,-35.82],[-56.95,-35.45],[-57.23,-35.17]]],[[[-160.17,55.33],[-160.43,54.99],[-159.77,55.07],[-160.17,55.33]]],[[[151.83,47.42],[151.37,46.85],[152.55,46.73],[153.36,47.39],[153.24,48.01],[153.65,48.34],[152.63,48.08],[152.76,47.45],[151.83,47.42]]],[[[-61.68,15.58],[-61.41,15.1],[-61.02,15.2],[-61.3,15.67],[-61.68,15.58]]],[[[92.87,11.8],[93.12,12.17],[92.67,12.2],[92.4,11.57],[92.87,11.8]]],[[[173.6,52.57],[173.44,52.35],[174.07,52.18],[173.92,52.99],[172.71,52.92],[173.6,52.57]]],[[[36.78,68.82],[37.67,68.7],[38.05,68.16],[40.36,67.92],[40.68,67.37],[41.52,67.6],[41.21,68.15],[38.88,68.4],[38.51,68.94],[37.02,69.03],[36.48,69.55],[35.89,69.5],[35.87,68.94],[36.78,68.82]]],[[[-159.67,-21.02],[-160.2,-21.6],[-159.49,-21.49],[-159.67,-21.02]]],[[[67.27,25.03],[66.67,25.63],[65.76,25.49],[67.42,24.37],[67.27,25.03]]],[[[-142.49,-15.85],[-142.87,-16.03],[-142.5,-16.27],[-141.99,-15.89],[-142.49,-15.85]]],[[[60.37,25.56],[60.01,25.25],[60.88,25.43],[60.37,25.56]]],[[[-80.64,51.3],[-79.95,51.21],[-78.4,52.41],[-79.81,52.61],[-79.69,51.94],[-80.78,51.96],[-80.64,51.3]]],[[[-64.69,32.31],[-64.31,32.52],[-64.73,32.66],[-65.22,32.26],[-64.69,32.31]]],[[[-59.08,50.25],[-59.07,50.68],[-59.46,50.67],[-60.24,50.23],[-59.08,50.25]]],[[[148.38,-37.83],[149.19,-38.05],[149.54,-37.7],[148.73,-37.48],[148.38,-37.83]]],[[[150.43,-35.73],[150.77,-35.37],[150.56,-34.96],[149.89,-35.67],[150.43,-35.73]]],[[[-12.35,-36.99],[-12.45,-37.43],[-12.13,-37.47],[-11.92,-37.27],[-12.35,-36.99]]],[[[21.88,-34.68],[22.28,-34.47],[21.66,-34.11],[20.85,-34.54],[21.88,-34.68]]],[[[-134.88,-23.46],[-134.52,-23.26],[-135.27,-22.84],[-134.88,-23.46]]],[[[-57.88,51.11],[-57.86,51.54],[-58.26,51.54],[-59.06,51.11],[-57.88,51.11]]],[[[72.95,6.27],[73.14,5.68],[73.52,5.66],[73.33,6.26],[72.95,6.27]]],[[[150.44,-37.41],[149.67,-36.94],[149.84,-37.61],[150.44,-37.41]]],[[[-163.62,60.67],[-163.33,61.04],[-164.15,60.95],[-163.62,60.67]]],[[[50.28,68.72],[50.78,69.29],[49.62,69.67],[47.98,69.47],[47.54,68.91],[48.69,68.53],[50.28,68.72]],[[49.4,68.91],[48.52,69.1],[49.51,69.29],[49.77,69.1],[49.4,68.91]]],[[[-31.3,39.16],[-30.78,39.48],[-31.45,39.91],[-31.71,39.75],[-31.3,39.16]]],[[[-158.27,56.35],[-157.97,56.69],[-158.67,56.62],[-158.27,56.35]]],[[[1.24,38.73],[1.41,38.35],[2.02,38.76],[1.91,39.38],[1.4,39.44],[1.07,39.11],[1.24,38.73]]],[[[30.69,-30.92],[30.62,-30.52],[29.84,-31.02],[30.69,-30.92]]],[[[-151.83,59.67],[-152.23,59.34],[-151.47,59.36],[-151.83,59.67]]],[[[14.13,36.15],[14.04,35.91],[14.56,35.79],[14.44,36.21],[14.13,36.15]]],[[[94.6,43.81],[94.96,44.15],[94.7,44.3],[94.39,44.21],[94.6,43.81]]],[[[-81.8,52.21],[-81.09,52.13],[-80.52,52.7],[-81.96,52.88],[-81.8,52.21]]],[[[-61.82,47.03],[-61.11,47.47],[-61.32,48.09],[-62.4,47.63],[-62.37,47.21],[-61.82,47.03]]],[[[147.37,-38.6],[148.08,-37.92],[147.17,-38.19],[147.37,-38.6]]],[[[60.32,68.95],[58.8,68.65],[60.68,68.53],[61.13,68.7],[60.95,68.91],[60.32,68.95]]],[[[-166.18,59.77],[-165.49,60.09],[-167.63,60.13],[-166.96,59.66],[-166.18,59.77]]]]}}]}