{"type":"FeatureCollection","features":[{"type":"Feature","properties":{},"geometry":{"type":"MultiPolygon","coordinates":[[[[-58.05,-64.5],[-58.4,-64.31],[-58.18,-64.08],[-58.52,-63.89],[-58.3,-63.66],[-57.74,-63.63],[-57.4,-63.82],[-57.61,-64.04],[-57.26,-64.23],[-57.47,-64.46],[-57.11,-64.66],[-56.54,-64.61],[-56.33,-64.38],[-56.69,-64.19],[-56.48,-63.96],[-56.84,-63.77],[-56.63,-63.54],[-56.08,-63.5],[-55.72,-63.69],[-55.17,-63.64],[-54.98,-63.41],[-55.34,-63.22],[-55.88,-63.27],[-56.23,-63.08],[-56.78,-63.13],[-56.98,-63.36],[-57.53,-63.4],[-57.87,-63.21],[-58.42,-63.24],[-58.63,-63.47],[-59.19,-63.5],[-59.41,-63.73],[-59.97,-63.76],[-60.3,-63.56],[-60.85,-63.59],[-61.09,-63.81],[-61.65,-63.84],[-61.9,-64.06],[-62.47,-64.08],[-62.73,-64.3],[-63.3,-64.32],[-63.6,-64.11],[-64.17,-64.13],[-64.45,-64.35],[-64.15,-64.55],[-64.43,-64.77],[-64.12,-64.97],[-64.41,-65.19],[-64.1,-65.4],[-63.5,-65.38],[-63.22,-65.16],[-62.63,-65.15],[-62.31,-65.35],[-62.58,-65.57],[-62.25,-65.78],[-62.52,-66.0],[-63.14,-66.02],[-63.42,-66.24],[-64.04,-66.25],[-64.34,-66.47],[-64.02,-66.68],[-64.32,-66.9],[-64.96,-66.91],[-65.27,-67.13],[-64.94,-67.34],[-65.26,-67.56],[-65.92,-67.56],[-66.25,-67.78],[-65.93,-68.0],[-65.26,-67.99],[-64.92,-68.2],[-65.25,-68.42],[-64.91,-68.64],[-65.25,-68.86],[-64.89,-69.07],[-64.19,-69.06],[-63.82,-69.27],[-63.11,-69.26],[-62.72,-69.47],[-63.06,-69.69],[-62.66,-69.91],[-63.0,-70.13],[-62.6,-70.34],[-62.94,-70.57],[-62.53,-70.78],[-62.88,-71.01],[-62.46,-71.22],[-61.67,-71.2],[-61.23,-71.41],[-61.58,-71.64],[-62.38,-71.66],[-62.75,-71.88],[-62.31,-72.1],[-61.48,-72.08],[-61.02,-72.29],[-61.38,-72.52],[-60.9,-72.73],[-61.28,-72.96],[-60.78,-73.17],[-61.16,-73.4],[-62.05,-73.42],[-62.45,-73.65],[-61.95,-73.86],[-62.37,-74.09],[-61.85,-74.3],[-62.28,-74.53],[-63.23,-74.54],[-63.68,-74.77],[-63.16,-74.99],[-63.62,-75.21],[-64.61,-75.22],[-65.1,-75.44],[-64.59,-75.66],[-65.09,-75.88],[-66.13,-75.89],[-66.66,-76.1],[-67.72,-76.1],[-68.28,-76.31],[-69.35,-76.3],[-69.95,-76.51],[-71.02,-76.49],[-71.66,-76.7],[-72.74,-76.67],[-73.16,-76.44],[-74.21,-76.4],[-74.89,-76.6],[-75.95,-76.56],[-76.31,-76.32],[-77.34,-76.27],[-78.05,-76.46],[-77.72,-76.7],[-78.46,-76.89],[-78.13,-77.13],[-77.03,-77.18],[-76.66,-77.42],[-75.53,-77.47],[-75.12,-77.71],[-73.96,-77.75],[-73.51,-77.98],[-74.26,-78.18],[-75.47,-78.14],[-75.88,-77.9],[-77.05,-77.86],[-77.42,-77.62],[-78.56,-77.56],[-79.36,-77.75],[-80.49,-77.69],[-81.33,-77.87],[-81.03,-78.11],[-79.86,-78.17],[-79.52,-78.42],[-78.31,-78.47],[-77.92,-78.72],[-78.8,-78.9],[-80.05,-78.84],[-80.39,-78.6],[-81.6,-78.53],[-81.9,-78.29],[-83.07,-78.22],[-83.97,-78.39],[-83.72,-78.63],[-84.66,-78.8],[-84.42,-79.05],[-83.17,-79.13],[-82.88,-79.37],[-81.58,-79.45],[-81.25,-79.69],[-79.9,-79.76],[-78.94,-79.57],[-77.59,-79.63],[-77.15,-79.87],[-78.1,-80.06],[-77.66,-80.3],[-76.2,-80.35],[-75.69,-80.59],[-76.69,-80.78],[-76.17,-81.02],[-74.59,-81.07],[-73.99,-81.3],[-72.34,-81.34],[-71.37,-81.14],[-69.74,-81.16],[-69.01,-81.39],[-67.33,-81.4],[-66.51,-81.63],[-67.42,-81.84],[-66.56,-82.07],[-67.52,-82.28],[-66.61,-82.5],[-64.68,-82.51],[-63.66,-82.73],[-64.63,-82.95],[-63.54,-83.16],[-64.57,-83.38],[-63.4,-83.6],[-61.15,-83.59],[-59.83,-83.8],[-57.51,-83.77],[-56.66,-83.54],[-58.03,-83.34],[-57.22,-83.11],[-55.14,-83.07],[-54.45,-82.83],[-55.74,-82.64],[-55.08,-82.4],[-53.19,-82.35],[-52.62,-82.11],[-50.83,-82.06],[-49.51,-82.24],[-47.71,-82.17],[-46.3,-82.34],[-46.68,-82.58],[-45.17,-82.75],[-43.29,-82.66],[-43.01,-82.41],[-41.24,-82.31],[-41.04,-82.06],[-42.5,-81.91],[-42.27,-81.66],[-40.66,-81.56],[-40.49,-81.3],[-38.97,-81.2],[-37.56,-81.34],[-36.07,-81.22],[-36.03,-80.96],[-37.4,-80.83],[-38.85,-80.94],[-40.18,-80.8],[-41.65,-80.9],[-41.85,-81.15],[-43.4,-81.25],[-43.65,-81.5],[-45.28,-81.59],[-45.6,-81.84],[-47.31,-81.92],[-48.63,-81.74],[-50.34,-81.81],[-51.58,-81.63],[-51.1,-81.38],[-49.46,-81.32],[-49.05,-81.07],[-47.48,-81.0],[-47.14,-80.75],[-45.64,-80.67],[-44.42,-80.84],[-42.93,-80.74],[-42.71,-80.49],[-43.92,-80.33],[-45.36,-80.42],[-46.51,-80.25],[-47.96,-80.33],[-48.3,-80.58],[-49.81,-80.65],[-50.22,-80.89],[-51.79,-80.95],[-52.88,-80.77],[-52.41,-80.52],[-53.45,-80.33],[-52.98,-80.09],[-51.54,-80.04],[-51.14,-79.79],[-49.75,-79.73],[-49.39,-79.48],[-50.38,-79.3],[-50.03,-79.05],[-48.73,-78.98],[-48.43,-78.73],[-49.37,-78.55],[-49.06,-78.31],[-47.85,-78.23],[-47.58,-77.98],[-46.41,-77.9],[-45.47,-78.07],[-45.7,-78.32],[-44.73,-78.49],[-44.95,-78.74],[-43.92,-78.91],[-44.14,-79.16],[-43.06,-79.32],[-41.79,-79.22],[-41.63,-78.97],[-42.69,-78.81],[-42.52,-78.56],[-43.53,-78.4],[-43.34,-78.15],[-44.31,-77.98],[-44.12,-77.73],[-45.04,-77.57],[-46.17,-77.65],[-47.06,-77.48],[-48.2,-77.56],[-49.06,-77.38],[-50.19,-77.45],[-50.5,-77.7],[-49.64,-77.88],[-49.95,-78.13],[-51.16,-78.19],[-51.51,-78.44],[-50.62,-78.62],[-50.97,-78.87],[-52.26,-78.93],[-53.15,-78.74],[-52.76,-78.49],[-53.61,-78.3],[-53.22,-78.06],[-54.04,-77.87],[-53.66,-77.62],[-54.44,-77.43],[-54.06,-77.19],[-54.81,-76.99],[-54.44,-76.75],[-55.16,-76.56],[-56.24,-76.6],[-56.93,-76.4],[-56.54,-76.16],[-57.2,-75.96],[-56.81,-75.72],[-57.45,-75.52],[-57.07,-75.28],[-57.68,-75.08],[-58.67,-75.11],[-59.25,-74.91],[-58.86,-74.67],[-59.43,-74.46],[-59.05,-74.23],[-59.6,-74.02],[-59.23,-73.79],[-59.76,-73.58],[-59.39,-73.35],[-59.91,-73.14],[-59.55,-72.91],[-60.05,-72.7],[-59.7,-72.47],[-60.19,-72.26],[-59.84,-72.03],[-60.32,-71.82],[-59.98,-71.59],[-60.44,-71.39],[-60.11,-71.15],[-60.56,-70.95],[-60.23,-70.72],[-60.67,-70.51],[-61.43,-70.53],[-61.85,-70.32],[-61.52,-70.1],[-60.78,-70.07],[-60.46,-69.84],[-60.88,-69.64],[-60.57,-69.41],[-60.98,-69.2],[-61.69,-69.22],[-62.08,-69.02],[-62.78,-69.03],[-63.16,-68.82],[-62.84,-68.6],[-62.15,-68.58],[-61.85,-68.36],[-62.22,-68.15],[-62.89,-68.17],[-63.21,-68.39],[-63.89,-68.4],[-64.24,-68.19],[-63.92,-67.97],[-64.27,-67.76],[-63.95,-67.54],[-64.29,-67.33],[-63.99,-67.11],[-63.34,-67.1],[-63.05,-66.87],[-62.41,-66.86],[-62.12,-66.63],[-61.49,-66.61],[-61.22,-66.38],[-60.6,-66.36],[-60.33,-66.13],[-60.69,-65.93],[-61.3,-65.96],[-61.64,-65.76],[-61.38,-65.53],[-61.71,-65.33],[-61.45,-65.11],[-60.86,-65.08],[-60.52,-65.28],[-59.92,-65.25],[-59.57,-65.45],[-58.98,-65.42],[-58.74,-65.19],[-59.09,-64.99],[-59.68,-65.03],[-60.02,-64.83],[-59.78,-64.6],[-59.2,-64.57],[-58.86,-64.77],[-58.27,-64.73],[-58.05,-64.5]],[[-59.88,-64.18],[-60.12,-64.41],[-60.69,-64.43],[-61.02,-64.24],[-60.77,-64.01],[-60.21,-63.98],[-59.88,-64.18]],[[-53.99,-79.22],[-52.66,-79.17],[-51.72,-79.36],[-52.12,-79.6],[-53.51,-79.66],[-54.44,-79.46],[-53.99,-79.22]]],[[[-180.0,89.82],[-89.48,89.72],[-92.33,89.48],[-111.01,89.32],[-106.9,89.08],[-116.33,88.9],[-112.56,88.67],[-118.68,88.47],[-115.52,88.24],[-107.99,88.19],[-106.51,87.95],[-111.18,87.78],[-109.63,87.54],[-113.36,87.36],[-111.86,87.12],[-114.93,86.94],[-113.52,86.71],[-116.13,86.51],[-114.8,86.28],[-117.07,86.09],[-115.82,85.86],[-117.82,85.66],[-116.65,85.44],[-118.44,85.24],[-117.34,85.02],[-118.95,84.81],[-117.92,84.59],[-119.39,84.39],[-118.42,84.17],[-119.77,83.97],[-118.84,83.75],[-120.09,83.54],[-119.22,83.32],[-120.38,83.12],[-119.55,82.9],[-120.63,82.7],[-119.84,82.48],[-120.85,82.27],[-120.1,82.06],[-121.05,81.85],[-120.33,81.64],[-121.24,81.43],[-122.83,81.43],[-123.65,81.22],[-122.91,81.01],[-123.7,80.8],[-123.0,80.59],[-123.74,80.38],[-123.07,80.18],[-123.78,79.96],[-123.14,79.76],[-123.82,79.55],[-123.2,79.34],[-123.85,79.13],[-125.1,79.12],[-125.71,78.9],[-125.09,78.7],[-125.67,78.49],[-125.07,78.29],[-125.64,78.07],[-125.06,77.88],[-125.6,77.66],[-126.7,77.64],[-127.21,77.43],[-126.64,77.23],[-127.13,77.01],[-126.57,76.82],[-127.05,76.61],[-126.51,76.41],[-126.98,76.2],[-126.46,76.0],[-126.91,75.79],[-126.41,75.6],[-126.84,75.38],[-126.36,75.19],[-126.78,74.98],[-126.31,74.79],[-126.73,74.58],[-127.6,74.55],[-127.99,74.34],[-127.52,74.15],[-127.9,73.94],[-127.45,73.75],[-127.82,73.54],[-127.38,73.35],[-127.74,73.14],[-127.31,72.96],[-127.67,72.75],[-127.25,72.56],[-127.6,72.35],[-128.35,72.32],[-128.69,72.11],[-128.27,71.93],[-128.59,71.72],[-128.22,71.52],[-128.54,71.31],[-128.17,71.11],[-128.48,70.89],[-129.15,70.88],[-129.45,70.67],[-130.11,70.65],[-130.39,70.44],[-131.07,70.4],[-131.34,70.18],[-132.0,70.13],[-132.26,69.92],[-132.92,69.87],[-133.34,70.03],[-134.0,69.98],[-134.43,70.14],[-135.1,70.08],[-135.32,69.86],[-135.97,69.8],[-136.18,69.58],[-136.82,69.51],[-137.02,69.29],[-137.65,69.22],[-138.1,69.37],[-137.92,69.6],[-138.38,69.75],[-139.03,69.67],[-139.5,69.82],[-140.15,69.75],[-140.31,69.52],[-139.83,69.37],[-139.2,69.45],[-138.74,69.3],[-138.91,69.07],[-138.46,68.92],[-137.83,69.0],[-137.4,68.84],[-136.77,68.91],[-136.58,69.13],[-135.95,69.2],[-135.74,69.42],[-135.1,69.48],[-134.68,69.32],[-134.04,69.38],[-133.63,69.22],[-132.99,69.27],[-132.75,69.49],[-132.1,69.54],[-131.85,69.75],[-131.2,69.8],[-130.84,69.6],[-130.22,69.62],[-129.94,69.83],[-129.31,69.85],[-128.96,69.65],[-128.33,69.66],[-128.04,69.87],[-128.38,70.07],[-128.08,70.28],[-127.43,70.29],[-127.09,70.09],[-127.4,69.88],[-127.06,69.67],[-126.43,69.67],[-126.1,69.47],[-125.47,69.47],[-125.15,69.67],[-124.5,69.67],[-124.2,69.46],[-123.56,69.45],[-123.21,69.66],[-122.56,69.65],[-122.2,69.85],[-121.54,69.83],[-121.26,69.62],[-120.61,69.6],[-120.34,69.38],[-119.69,69.36],[-119.43,69.14],[-118.79,69.11],[-118.54,68.89],[-117.91,68.86],[-117.67,68.63],[-117.04,68.6],[-116.64,68.79],[-116.01,68.76],[-115.59,68.95],[-114.95,68.9],[-114.74,68.67],[-115.16,68.49],[-114.95,68.26],[-115.36,68.07],[-115.15,67.84],[-114.54,67.79],[-114.34,67.56],[-113.74,67.51],[-113.32,67.7],[-112.72,67.65],[-112.54,67.41],[-111.94,67.36],[-111.51,67.54],[-110.9,67.48],[-110.46,67.66],[-109.86,67.6],[-109.7,67.36],[-109.11,67.29],[-108.96,67.05],[-108.37,66.98],[-108.23,66.74],[-107.65,66.67],[-107.52,66.43],[-106.95,66.35],[-106.49,66.52],[-105.92,66.44],[-105.8,66.2],[-105.24,66.12],[-105.13,65.87],[-104.57,65.79],[-104.47,65.54],[-104.93,65.38],[-104.83,65.13],[-104.28,65.05],[-104.19,64.8],[-103.66,64.71],[-103.57,64.46],[-104.01,64.3],[-103.92,64.05],[-103.4,63.96],[-102.96,64.12],[-102.44,64.03],[-101.99,64.18],[-101.47,64.08],[-101.4,63.83],[-100.89,63.73],[-100.83,63.48],[-100.33,63.38],[-99.87,63.53],[-99.37,63.42],[-98.91,63.56],[-98.41,63.45],[-98.37,63.2],[-98.82,63.06],[-98.78,62.81],[-99.23,62.66],[-99.19,62.41],[-98.7,62.3],[-98.26,62.44],[-97.77,62.33],[-97.74,62.08],[-97.27,61.96],[-97.24,61.71],[-96.77,61.59],[-96.32,61.73],[-95.86,61.61],[-95.84,61.35],[-95.38,61.23],[-95.37,60.98],[-95.81,60.84],[-95.8,60.59],[-95.35,60.47],[-95.34,60.21],[-94.9,60.09],[-94.89,59.83],[-95.32,59.7],[-95.31,59.45],[-94.88,59.32],[-94.87,59.07],[-95.29,58.94],[-95.28,58.68],[-94.86,58.56],[-94.44,58.69],[-94.02,58.56],[-93.6,58.68],[-93.18,58.55],[-93.19,58.3],[-93.6,58.18],[-93.61,57.92],[-93.2,57.79],[-93.2,57.54],[-92.8,57.4],[-92.81,57.15],[-92.41,57.01],[-92.0,57.13],[-91.61,57.0],[-91.19,57.11],[-90.8,56.97],[-90.39,57.09],[-90.0,56.95],[-89.58,57.06],[-89.19,56.91],[-89.23,56.66],[-88.84,56.51],[-88.43,56.62],[-88.05,56.47],[-88.09,56.22],[-87.72,56.07],[-87.76,55.82],[-87.39,55.66],[-86.98,55.77],[-86.61,55.61],[-86.2,55.71],[-85.84,55.56],[-85.89,55.31],[-85.54,55.15],[-85.12,55.25],[-84.77,55.09],[-84.36,55.18],[-84.01,55.02],[-83.59,55.11],[-83.24,54.95],[-82.83,55.03],[-82.48,54.87],[-82.56,54.62],[-82.98,54.53],[-83.05,54.28],[-82.71,54.12],[-82.79,53.87],[-82.46,53.7],[-82.53,53.45],[-82.21,53.29],[-82.28,53.04],[-81.96,52.88],[-82.04,52.63],[-81.72,52.46],[-81.32,52.54],[-81.24,52.79],[-80.84,52.87],[-80.76,53.12],[-81.07,53.29],[-81.48,53.21],[-81.8,53.37],[-81.72,53.62],[-82.05,53.79],[-81.97,54.04],[-82.3,54.2],[-82.22,54.45],[-81.81,54.54],[-81.73,54.79],[-82.06,54.96],[-81.98,55.21],[-82.33,55.37],[-82.75,55.29],[-83.1,55.45],[-83.52,55.36],[-83.87,55.52],[-84.29,55.43],[-84.64,55.59],[-85.06,55.5],[-85.42,55.66],[-85.36,55.91],[-84.94,56.0],[-84.58,55.84],[-84.15,55.94],[-83.8,55.78],[-83.37,55.87],[-83.02,55.7],[-82.59,55.79],[-82.24,55.62],[-81.82,55.71],[-81.73,55.96],[-81.3,56.04],[-80.95,55.87],[-80.52,55.95],[-80.18,55.78],[-80.27,55.53],[-79.94,55.36],[-79.51,55.44],[-79.17,55.26],[-79.28,55.01],[-79.7,54.94],[-80.03,55.11],[-80.46,55.03],[-80.55,54.78],[-80.22,54.61],[-80.31,54.36],[-79.99,54.19],[-80.08,53.94],[-79.76,53.77],[-79.85,53.52],[-80.26,53.44],[-80.35,53.2],[-80.03,53.03],[-79.63,53.1],[-79.32,52.93],[-79.41,52.68],[-79.1,52.51],[-78.7,52.58],[-78.6,52.83],[-78.91,53.0],[-78.81,53.25],[-79.13,53.42],[-79.03,53.67],[-79.34,53.84],[-79.25,54.09],[-79.57,54.27],[-79.47,54.51],[-79.05,54.59],[-78.95,54.84],[-78.52,54.91],[-78.2,54.73],[-77.77,54.8],[-77.66,55.05],[-77.23,55.12],[-77.12,55.37],[-77.44,55.55],[-77.32,55.79],[-76.88,55.86],[-76.76,56.11],[-76.32,56.17],[-76.19,56.42],[-76.52,56.6],[-76.39,56.85],[-76.73,57.03],[-76.6,57.28],[-76.94,57.46],[-76.82,57.71],[-76.35,57.78],[-76.22,58.03],[-76.56,58.21],[-77.03,58.14],[-77.38,58.32],[-77.85,58.26],[-78.21,58.43],[-78.09,58.68],[-77.61,58.75],[-77.49,59.0],[-77.0,59.07],[-76.87,59.32],[-77.23,59.5],[-77.1,59.75],[-76.61,59.82],[-76.47,60.07],[-75.97,60.13],[-75.83,60.38],[-76.19,60.57],[-76.05,60.81],[-76.42,61.0],[-76.94,60.93],[-77.32,61.11],[-77.18,61.36],[-76.66,61.43],[-76.52,61.68],[-76.9,61.86],[-76.76,62.11],[-76.23,62.17],[-75.84,61.99],[-75.31,62.05],[-74.93,61.86],[-74.4,61.92],[-74.24,62.17],[-73.7,62.22],[-73.33,62.03],[-72.79,62.09],[-72.43,61.89],[-72.6,61.65],[-72.25,61.45],[-71.72,61.5],[-71.37,61.31],[-71.55,61.06],[-71.21,60.87],[-70.69,60.91],[-70.35,60.71],[-70.54,60.47],[-70.21,60.27],[-70.39,60.03],[-70.07,59.83],[-70.25,59.59],[-69.93,59.39],[-70.11,59.15],[-69.79,58.95],[-69.3,58.99],[-68.99,58.79],[-68.5,58.82],[-68.2,58.62],[-68.39,58.38],[-68.09,58.18],[-67.61,58.21],[-67.32,58.01],[-66.84,58.04],[-66.65,58.27],[-66.16,58.3],[-65.96,58.54],[-66.25,58.74],[-66.04,58.98],[-65.55,59.0],[-65.34,59.23],[-65.63,59.44],[-65.42,59.68],[-64.91,59.7],[-64.69,59.93],[-64.19,59.95],[-63.9,59.74],[-64.13,59.51],[-63.85,59.29],[-64.07,59.06],[-63.79,58.85],[-63.3,58.87],[-63.04,58.65],[-63.26,58.43],[-62.99,58.21],[-62.51,58.23],[-62.26,58.01],[-62.48,57.79],[-62.23,57.57],[-61.75,57.58],[-61.51,57.37],[-61.73,57.14],[-61.49,56.93],[-61.7,56.7],[-61.46,56.49],[-61.68,56.26],[-61.44,56.05],[-60.99,56.06],[-60.77,56.28],[-61.01,56.5],[-60.79,56.72],[-61.02,56.94],[-60.8,57.16],[-61.04,57.38],[-60.81,57.6],[-61.06,57.82],[-61.53,57.81],[-61.78,58.02],[-61.55,58.25],[-61.81,58.46],[-62.29,58.45],[-62.55,58.67],[-62.32,58.89],[-62.59,59.11],[-63.08,59.1],[-63.35,59.31],[-63.13,59.54],[-62.62,59.55],[-62.39,59.78],[-61.89,59.79],[-61.65,60.01],[-61.14,60.02],[-60.9,60.25],[-61.16,60.46],[-60.91,60.69],[-60.4,60.69],[-60.14,60.91],[-60.41,61.13],[-60.15,61.36],[-59.62,61.36],[-59.36,61.58],[-58.83,61.57],[-58.56,61.79],[-58.81,62.02],[-58.54,62.23],[-58.8,62.46],[-58.52,62.68],[-57.97,62.67],[-57.68,62.88],[-57.95,63.11],[-57.65,63.32],[-57.1,63.31],[-56.8,63.53],[-57.06,63.75],[-56.75,63.97],[-57.01,64.19],[-56.7,64.41],[-56.13,64.39],[-55.81,64.6],[-56.07,64.83],[-55.74,65.04],[-56.01,65.27],[-55.68,65.47],[-55.95,65.7],[-55.61,65.91],[-55.88,66.14],[-55.54,66.35],[-55.82,66.57],[-55.47,66.78],[-55.75,67.01],[-55.4,67.22],[-54.76,67.19],[-54.49,66.97],[-54.84,66.76],[-54.57,66.53],[-53.95,66.51],[-53.7,66.28],[-54.05,66.07],[-53.8,65.84],[-54.14,65.64],[-53.89,65.41],[-53.3,65.38],[-53.06,65.15],[-53.4,64.95],[-53.16,64.72],[-52.59,64.69],[-52.36,64.46],[-52.7,64.25],[-52.47,64.02],[-51.91,63.99],[-51.7,63.76],[-52.03,63.56],[-51.82,63.33],[-51.27,63.29],[-51.07,63.06],[-51.4,62.86],[-51.19,62.63],[-50.66,62.59],[-50.47,62.36],[-50.79,62.16],[-50.6,61.93],[-50.08,61.89],[-49.9,61.66],[-49.39,61.62],[-49.21,61.39],[-48.71,61.35],[-48.38,61.54],[-48.55,61.78],[-49.06,61.82],[-49.24,62.05],[-49.76,62.09],[-49.95,62.32],[-49.61,62.52],[-49.8,62.75],[-50.33,62.79],[-50.53,63.03],[-50.19,63.22],[-50.39,63.46],[-50.94,63.49],[-51.15,63.73],[-50.8,63.92],[-51.01,64.16],[-50.67,64.35],[-50.88,64.59],[-51.45,64.62],[-51.67,64.86],[-52.24,64.89],[-52.48,65.12],[-52.12,65.32],[-52.36,65.55],[-52.95,65.58],[-53.19,65.82],[-52.84,66.02],[-53.09,66.25],[-52.72,66.45],[-52.97,66.68],[-52.6,66.88],[-52.86,67.11],[-53.49,67.14],[-53.75,67.37],[-53.38,67.57],[-52.74,67.54],[-52.35,67.74],[-51.71,67.71],[-51.31,67.9],[-51.57,68.14],[-51.16,68.33],[-51.42,68.56],[-51.01,68.76],[-50.34,68.72],[-49.92,68.91],[-50.16,69.14],[-50.84,69.18],[-51.1,69.42],[-50.67,69.61],[-50.94,69.84],[-50.5,70.03],[-50.76,70.26],[-50.32,70.45],[-50.58,70.69],[-51.31,70.73],[-51.6,70.96],[-51.14,71.15],[-51.43,71.38],[-52.19,71.42],[-52.49,71.65],[-52.03,71.84],[-52.34,72.07],[-53.13,72.11],[-53.59,71.91],[-54.37,71.94],[-54.71,72.17],[-54.26,72.36],[-54.6,72.59],[-54.13,72.79],[-54.49,73.01],[-55.32,73.04],[-55.69,73.26],[-55.22,73.46],[-55.6,73.68],[-55.11,73.88],[-55.5,74.1],[-55.0,74.3],[-55.39,74.52],[-56.31,74.54],[-56.73,74.76],[-56.22,74.96],[-56.65,75.18],[-57.6,75.2],[-58.06,75.41],[-57.54,75.61],[-58.01,75.83],[-59.01,75.84],[-59.5,76.06],[-58.99,76.26],[-59.5,76.47],[-60.54,76.48],[-61.04,76.27],[-62.07,76.28],[-62.63,76.48],[-63.68,76.48],[-64.14,76.27],[-65.17,76.26],[-65.77,76.45],[-66.82,76.44],[-67.23,76.22],[-68.26,76.2],[-68.9,76.39],[-68.5,76.61],[-67.45,76.63],[-67.02,76.85],[-67.67,77.04],[-67.24,77.26],[-66.13,77.27],[-65.66,77.49],[-66.32,77.68],[-67.46,77.66],[-68.16,77.85],[-69.31,77.83],[-70.05,78.01],[-71.21,77.98],[-71.98,78.16],[-71.58,78.38],[-70.38,78.41],[-69.94,78.63],[-68.72,78.66],[-68.24,78.87],[-66.99,78.89],[-66.47,79.1],[-65.19,79.12],[-64.64,79.32],[-63.33,79.33],[-62.74,79.53],[-63.46,79.73],[-62.85,79.93],[-63.6,80.13],[-62.96,80.33],[-63.75,80.52],[-63.09,80.72],[-61.61,80.72],[-60.85,80.52],[-59.4,80.51],[-58.65,80.7],[-59.38,80.9],[-58.61,81.09],[-59.37,81.3],[-58.56,81.48],[-59.35,81.69],[-58.51,81.87],[-56.84,81.85],[-56.1,81.65],[-54.48,81.62],[-53.55,81.79],[-51.93,81.75],[-51.31,81.54],[-52.26,81.37],[-51.66,81.15],[-50.16,81.1],[-49.2,81.27],[-49.75,81.49],[-48.74,81.65],[-47.19,81.59],[-46.7,81.37],[-45.2,81.3],[-44.15,81.46],[-44.58,81.68],[-43.46,81.83],[-43.72,82.04],[-42.35,82.18],[-42.59,82.4],[-41.13,82.53],[-39.48,82.44],[-37.96,82.57],[-38.07,82.79],[-36.45,82.91],[-36.51,83.13],[-38.3,83.23],[-38.43,83.45],[-36.64,83.57],[-34.78,83.47],[-32.93,83.57],[-31.14,83.45],[-29.23,83.55],[-27.52,83.41],[-27.77,83.19],[-26.18,83.06],[-26.45,82.84],[-24.98,82.7],[-23.2,82.77],[-21.8,82.62],[-22.19,82.4],[-23.89,82.34],[-25.27,82.48],[-26.95,82.4],[-28.41,82.54],[-30.06,82.45],[-30.2,82.23],[-31.76,82.13],[-31.84,81.91],[-33.32,81.81],[-33.36,81.59],[-32.0,81.48],[-30.56,81.57],[-30.45,81.79],[-28.94,81.88],[-27.6,81.75],[-27.79,81.54],[-29.25,81.45],[-29.39,81.23],[-28.14,81.11],[-26.73,81.19],[-26.52,81.4],[-25.04,81.48],[-24.78,81.69],[-23.23,81.76],[-22.01,81.61],[-22.34,81.4],[-23.83,81.33],[-24.11,81.12],[-22.96,80.98],[-21.53,81.04],[-21.19,81.25],[-19.7,81.3],[-18.6,81.15],[-17.11,81.19],[-16.65,81.4],[-15.11,81.43],[-14.09,81.26],[-14.6,81.06],[-16.09,81.03],[-16.54,80.82],[-17.97,80.78],[-18.37,80.58],[-17.39,80.42],[-17.78,80.21],[-19.11,80.17],[-20.1,80.32],[-21.43,80.27],[-21.73,80.06],[-20.75,79.91],[-21.05,79.71],[-22.14,79.62],[-23.12,79.77],[-24.2,79.68],[-24.28,79.45],[-23.31,79.31],[-22.26,79.39],[-21.33,79.25],[-21.46,79.02],[-22.49,78.93],[-22.59,78.7],[-23.58,78.62],[-23.67,78.38],[-24.63,78.29],[-24.69,78.06],[-23.82,77.92],[-23.9,77.69],[-24.8,77.59],[-24.86,77.36],[-24.04,77.22],[-24.1,76.99],[-23.32,76.85],[-23.39,76.62],[-24.23,76.52],[-24.29,76.29],[-25.11,76.19],[-25.15,75.96],[-24.41,75.82],[-23.61,75.92],[-22.88,75.78],[-22.08,75.87],[-21.99,76.1],[-21.17,76.19],[-20.46,76.04],[-20.57,75.81],[-19.89,75.66],[-20.01,75.43],[-20.8,75.35],[-20.9,75.11],[-20.25,74.97],[-20.36,74.74],[-19.72,74.59],[-19.84,74.36],[-20.57,74.27],[-21.2,74.42],[-21.94,74.33],[-22.02,74.09],[-21.39,73.95],[-21.48,73.72],[-22.18,73.62],[-22.81,73.76],[-23.51,73.67],[-24.15,73.8],[-24.84,73.7],[-24.89,73.47],[-24.25,73.33],[-24.3,73.1],[-24.97,72.99],[-25.01,72.76],[-25.66,72.65],[-25.69,72.41],[-25.08,72.28],[-24.44,72.39],[-23.84,72.25],[-23.89,72.02],[-23.32,71.88],[-23.37,71.65],[-22.81,71.51],[-22.87,71.28],[-22.33,71.14],[-22.39,70.91],[-21.86,70.77],[-21.26,70.86],[-21.18,71.1],[-21.72,71.24],[-21.64,71.47],[-22.19,71.61],[-22.12,71.84],[-22.68,71.98],[-22.62,72.22],[-21.97,72.31],[-21.89,72.55],[-21.23,72.64],[-21.15,72.87],[-20.47,72.96],[-20.38,73.2],[-19.69,73.28],[-19.58,73.52],[-20.17,73.66],[-20.06,73.89],[-19.35,73.98],[-19.23,74.21],[-18.49,74.29],[-18.36,74.52],[-17.61,74.6],[-17.46,74.83],[-16.7,74.9],[-16.53,75.13],[-17.15,75.28],[-16.98,75.51],[-17.62,75.67],[-18.43,75.59],[-19.09,75.74],[-18.95,75.97],[-18.13,76.05],[-17.97,76.28],[-18.66,76.43],[-18.5,76.66],[-17.64,76.73],[-17.47,76.96],[-18.18,77.12],[-18.01,77.35],[-17.1,77.42],[-16.91,77.64],[-15.98,77.71],[-15.76,77.94],[-16.51,78.1],[-17.47,78.03],[-18.25,78.18],[-18.07,78.41],[-17.07,78.48],[-16.86,78.71],[-17.68,78.86],[-17.47,79.09],[-16.28,79.13],[-15.89,79.33],[-16.74,79.49],[-16.36,79.69],[-17.24,79.85],[-16.85,80.05],[-15.53,80.09],[-15.09,80.29],[-13.72,80.32],[-13.23,80.52],[-14.14,80.69],[-13.64,80.89],[-12.17,80.91],[-11.6,81.11],[-12.55,81.29],[-11.97,81.49],[-10.39,81.51],[-9.73,81.7],[-10.71,81.89],[-12.37,81.87],[-13.44,82.04],[-15.12,82.01],[-15.66,81.81],[-17.27,81.77],[-18.43,81.93],[-17.96,82.14],[-19.19,82.3],[-18.71,82.51],[-20.02,82.67],[-19.55,82.89],[-20.95,83.05],[-22.83,82.98],[-24.32,83.13],[-23.96,83.35],[-25.58,83.5],[-25.24,83.72],[-26.98,83.86],[-29.03,83.77],[-30.87,83.9],[-32.86,83.8],[-34.79,83.91],[-36.71,83.8],[-38.71,83.9],[-40.55,83.77],[-40.34,83.55],[-42.04,83.41],[-43.99,83.49],[-45.6,83.35],[-47.57,83.41],[-48.03,83.63],[-46.41,83.78],[-46.86,84.0],[-49.07,84.06],[-49.65,84.28],[-47.88,84.44],[-48.45,84.66],[-46.5,84.82],[-47.05,85.04],[-49.75,85.1],[-50.5,85.32],[-48.33,85.49],[-49.07,85.71],[-46.64,85.87],[-47.36,86.09],[-50.82,86.15],[-51.86,86.37],[-49.08,86.54],[-50.12,86.77],[-46.88,86.93],[-47.89,87.16],[-44.05,87.32],[-44.95,87.55],[-50.5,87.61],[-52.22,87.84],[-47.39,88.01],[-49.09,88.24],[-42.74,88.39],[-44.14,88.63],[-54.3,88.69],[-58.52,88.91],[-49.12,89.09],[-54.18,89.32],[-35.92,89.48],[-36.98,89.72],[180.0,89.82],[180.0,90.0],[-180.0,90.0],[-180.0,89.82]],[[-44.57,82.69],[-46.34,82.76],[-46.72,82.98],[-45.23,83.13],[-43.37,83.05],[-43.09,82.83],[-44.57,82.69]]],[[[-67.37,-69.29],[-67.0,-69.08],[-67.33,-68.86],[-66.97,-68.65],[-67.29,-68.43],[-66.94,-68.21],[-67.26,-68.0],[-66.91,-67.78],[-67.23,-67.57],[-66.89,-67.35],[-66.24,-67.35],[-65.91,-67.13],[-66.23,-66.92],[-65.91,-66.7],[-65.28,-66.7],[-64.97,-66.48],[-65.28,-66.27],[-64.98,-66.05],[-64.36,-66.04],[-64.07,-65.82],[-64.39,-65.62],[-64.99,-65.63],[-65.29,-65.42],[-65.0,-65.2],[-65.3,-64.99],[-65.88,-65.0],[-66.18,-65.22],[-65.89,-65.43],[-66.19,-65.64],[-66.79,-65.64],[-67.11,-65.86],[-66.82,-66.07],[-67.14,-66.28],[-67.75,-66.28],[-68.08,-66.49],[-68.7,-66.49],[-69.05,-66.7],[-68.76,-66.91],[-69.11,-67.12],[-69.75,-67.11],[-70.11,-67.32],[-69.83,-67.54],[-70.2,-67.75],[-69.91,-67.97],[-69.25,-67.98],[-68.89,-67.77],[-68.23,-67.78],[-67.92,-67.99],[-68.28,-68.21],[-67.97,-68.43],[-68.34,-68.64],[-68.02,-68.86],[-68.4,-69.07],[-69.1,-69.06],[-69.4,-68.84],[-70.09,-68.83],[-70.39,-68.61],[-71.06,-68.59],[-71.46,-68.8],[-72.15,-68.78],[-72.56,-68.98],[-72.28,-69.2],[-72.7,-69.41],[-73.4,-69.38],[-73.84,-69.58],[-74.54,-69.55],[-74.99,-69.75],[-75.69,-69.71],[-76.16,-69.91],[-75.91,-70.14],[-76.39,-70.33],[-76.14,-70.56],[-76.63,-70.76],[-77.37,-70.71],[-77.87,-70.9],[-77.64,-71.14],[-76.88,-71.18],[-76.63,-71.42],[-75.87,-71.46],[-75.6,-71.69],[-76.11,-71.89],[-75.84,-72.12],[-75.04,-72.16],[-74.75,-72.39],[-73.93,-72.42],[-73.62,-72.66],[-74.15,-72.86],[-74.98,-72.82],[-75.28,-72.59],[-76.09,-72.55],[-76.64,-72.74],[-76.36,-72.98],[-76.92,-73.17],[-77.76,-73.12],[-78.02,-72.89],[-78.84,-72.84],[-79.42,-73.02],[-80.24,-72.97],[-80.46,-72.73],[-81.27,-72.67],[-81.86,-72.84],[-81.66,-73.08],[-82.28,-73.26],[-82.08,-73.5],[-82.71,-73.68],[-83.55,-73.61],[-83.73,-73.37],[-84.54,-73.29],[-84.7,-73.05],[-85.5,-72.97],[-86.14,-73.14],[-86.93,-73.05],[-87.59,-73.21],[-87.47,-73.46],[-86.67,-73.54],[-86.0,-73.38],[-85.19,-73.46],[-85.03,-73.7],[-84.2,-73.78],[-84.02,-74.02],[-83.17,-74.09],[-82.51,-73.92],[-81.65,-73.99],[-81.02,-73.81],[-81.24,-73.57],[-80.62,-73.39],[-79.78,-73.45],[-79.54,-73.69],[-78.68,-73.74],[-78.08,-73.55],[-77.22,-73.6],[-76.93,-73.84],[-76.05,-73.88],[-75.48,-73.69],[-74.6,-73.72],[-74.28,-73.96],[-73.38,-73.99],[-72.83,-73.79],[-73.17,-73.56],[-72.64,-73.35],[-71.77,-73.38],[-71.41,-73.61],[-70.52,-73.63],[-70.02,-73.42],[-69.14,-73.43],[-68.66,-73.22],[-67.79,-73.23],[-67.33,-73.01],[-67.73,-72.79],[-68.58,-72.78],[-68.96,-72.56],[-68.51,-72.34],[-67.68,-72.35],[-67.28,-72.57],[-66.44,-72.58],[-66.02,-72.36],[-66.42,-72.14],[-66.01,-71.92],[-66.4,-71.7],[-67.2,-71.69],[-67.58,-71.47],[-67.16,-71.26],[-67.53,-71.04],[-67.13,-70.82],[-67.49,-70.6],[-67.09,-70.38],[-67.45,-70.16],[-68.18,-70.16],[-68.52,-69.94],[-68.13,-69.72],[-67.41,-69.73],[-67.03,-69.51],[-67.37,-69.29]],[[-68.37,-71.47],[-68.8,-71.68],[-68.44,-71.9],[-68.88,-72.12],[-69.7,-72.11],[-70.05,-71.88],[-70.85,-71.86],[-71.18,-71.63],[-71.97,-71.61],[-72.45,-71.82],[-73.24,-71.79],[-73.73,-71.99],[-74.53,-71.96],[-74.82,-71.73],[-74.32,-71.53],[-73.54,-71.56],[-73.06,-71.36],[-72.29,-71.38],[-71.83,-71.18],[-71.05,-71.2],[-70.61,-70.99],[-69.84,-71.01],[-69.42,-70.8],[-68.65,-70.81],[-68.3,-71.03],[-68.73,-71.24],[-68.37,-71.47]],[[-73.57,-69.81],[-72.86,-69.84],[-72.57,-70.06],[-73.02,-70.27],[-73.75,-70.24],[-74.02,-70.01],[-73.57,-69.81]],[[-71.99,-70.52],[-71.68,-70.75],[-72.13,-70.95],[-72.89,-70.93],[-73.18,-70.7],[-72.73,-70.5],[-71.99,-70.52]],[[-69.25,-69.93],[-69.66,-70.14],[-70.39,-70.12],[-70.7,-69.9],[-71.42,-69.88],[-71.71,-69.66],[-71.3,-69.45],[-71.59,-69.23],[-71.18,-69.02],[-70.49,-69.04],[-70.19,-69.26],[-70.59,-69.47],[-70.29,-69.69],[-69.57,-69.71],[-69.25,-69.93]]],[[[-92.13,-72.65],[-92.08,-72.89],[-92.77,-73.03],[-92.73,-73.28],[-91.98,-73.38],[-91.27,-73.24],[-90.51,-73.34],[-89.82,-73.19],[-89.9,-72.94],[-90.66,-72.85],[-90.73,-72.6],[-91.46,-72.5],[-92.13,-72.65]]],[[[161.46,-70.62],[162.06,-70.7],[162.55,-70.56],[162.43,-70.33],[161.84,-70.24],[161.36,-70.39],[161.46,-70.62]]],[[[-32.33,68.06],[-31.78,67.95],[-31.28,68.09],[-30.74,67.98],[-30.24,68.11],[-30.26,68.35],[-30.8,68.46],[-31.32,68.33],[-31.87,68.44],[-32.37,68.3],[-32.33,68.06]]],[[[-23.48,71.18],[-24.04,71.31],[-24.65,71.2],[-25.22,71.33],[-25.82,71.22],[-25.85,70.99],[-25.28,70.86],[-24.69,70.97],[-24.13,70.84],[-24.18,70.6],[-23.64,70.47],[-23.05,70.57],[-22.99,70.81],[-23.53,70.94],[-23.48,71.18]]],[[[-59.69,-68.72],[-60.09,-68.51],[-60.78,-68.54],[-61.07,-68.77],[-60.68,-68.97],[-59.98,-68.95],[-59.69,-68.72]]],[[[25.05,77.84],[25.02,78.06],[24.04,78.18],[24.0,78.41],[22.97,78.52],[22.9,78.75],[21.83,78.86],[21.74,79.09],[22.76,79.2],[23.85,79.08],[24.9,79.18],[24.87,79.41],[23.75,79.53],[22.68,79.42],[21.53,79.54],[21.43,79.76],[20.23,79.87],[20.09,80.1],[21.2,80.22],[22.43,80.1],[23.57,80.21],[24.78,80.09],[25.95,80.2],[25.94,80.43],[24.7,80.55],[23.51,80.44],[22.24,80.56],[22.14,80.79],[20.8,80.9],[19.62,80.78],[19.78,80.55],[18.65,80.43],[17.34,80.53],[16.25,80.39],[16.49,80.17],[15.46,80.04],[14.17,80.12],[13.18,79.98],[11.89,80.06],[10.94,79.92],[9.64,79.98],[8.74,79.83],[9.13,79.62],[10.38,79.55],[10.72,79.34],[9.86,79.19],[10.2,78.98],[9.38,78.83],[9.72,78.62],[10.85,78.55],[11.15,78.33],[12.25,78.26],[12.52,78.04],[13.57,77.97],[13.81,77.75],[13.03,77.62],[13.27,77.4],[14.26,77.32],[14.48,77.11],[15.44,77.02],[15.63,76.81],[14.88,76.68],[15.08,76.47],[15.99,76.38],[16.73,76.5],[17.64,76.41],[18.41,76.53],[18.27,76.74],[17.34,76.84],[17.18,77.06],[17.98,77.18],[17.83,77.39],[18.66,77.51],[18.52,77.73],[19.38,77.85],[19.25,78.07],[20.15,78.19],[21.17,78.08],[22.09,78.19],[23.09,78.08],[23.15,77.86],[22.25,77.75],[21.26,77.86],[20.38,77.75],[20.49,77.53],[21.45,77.42],[21.53,77.2],[22.46,77.09],[23.32,77.19],[23.27,77.41],[24.16,77.52],[24.12,77.74],[25.05,77.84]],[[12.8,78.61],[11.67,78.69],[11.37,78.9],[12.23,79.05],[11.93,79.26],[12.83,79.41],[14.03,79.32],[14.29,79.11],[15.45,79.02],[16.38,79.15],[16.17,79.37],[17.14,79.5],[18.32,79.4],[18.49,79.18],[19.63,79.08],[19.76,78.86],[18.81,78.74],[18.96,78.51],[18.05,78.39],[18.21,78.17],[17.34,78.05],[17.51,77.83],[16.67,77.71],[16.85,77.49],[16.04,77.36],[15.05,77.45],[14.84,77.67],[15.65,77.8],[15.45,78.01],[16.3,78.14],[16.1,78.36],[16.98,78.49],[16.79,78.71],[15.68,78.8],[14.78,78.67],[13.66,78.75],[12.8,78.61]]],[[[162.07,-75.21],[162.85,-75.28],[163.47,-75.13],[163.3,-74.9],[162.54,-74.83],[161.92,-74.98],[162.07,-75.21]]],[[[-59.39,-62.67],[-58.85,-62.64],[-58.64,-62.41],[-58.11,-62.38],[-57.91,-62.15],[-58.23,-61.96],[-58.75,-62.0],[-58.96,-62.22],[-59.49,-62.25],[-59.71,-62.48],[-60.24,-62.51],[-60.55,-62.31],[-61.07,-62.34],[-61.31,-62.56],[-61.84,-62.58],[-62.08,-62.8],[-62.62,-62.82],[-62.87,-63.04],[-62.57,-63.24],[-62.82,-63.46],[-62.52,-63.66],[-61.97,-63.64],[-61.72,-63.42],[-62.02,-63.22],[-61.78,-63.0],[-61.24,-62.98],[-61.0,-62.76],[-60.46,-62.73],[-60.15,-62.92],[-59.61,-62.89],[-59.39,-62.67]]],[[[145.16,-67.59],[144.68,-67.45],[144.12,-67.54],[144.04,-67.78],[144.52,-67.93],[145.09,-67.84],[145.16,-67.59]]],[[[-40.34,64.84],[-39.92,65.01],[-40.04,65.25],[-40.57,65.32],[-40.99,65.15],[-40.86,64.91],[-40.34,64.84]]],[[[144.29,-67.06],[144.36,-66.82],[143.9,-66.67],[143.36,-66.76],[143.27,-67.0],[143.74,-67.15],[144.29,-67.06]]],[[[-43.26,-79.57],[-44.59,-79.67],[-44.83,-79.92],[-43.69,-80.08],[-42.32,-79.98],[-42.13,-79.73],[-43.26,-79.57]]],[[[147.63,-68.3],[147.67,-68.06],[147.17,-67.92],[146.62,-68.02],[146.57,-68.26],[147.07,-68.4],[147.63,-68.3]]],[[[135.64,-66.45],[136.22,-66.39],[136.64,-66.56],[137.22,-66.5],[137.65,-66.67],[138.22,-66.6],[138.66,-66.77],[139.23,-66.69],[139.67,-66.86],[140.24,-66.78],[140.68,-66.94],[141.25,-66.86],[141.7,-67.02],[142.26,-66.93],[142.36,-66.69],[141.91,-66.53],[141.35,-66.62],[140.91,-66.46],[140.35,-66.54],[139.92,-66.37],[139.36,-66.45],[138.92,-66.28],[138.36,-66.36],[137.93,-66.19],[137.37,-66.26],[136.95,-66.08],[136.38,-66.15],[135.97,-65.97],[135.4,-66.04],[135.23,-66.28],[135.64,-66.45]]],[[[160.0,-69.75],[160.48,-69.61],[160.39,-69.37],[159.83,-69.28],[159.35,-69.42],[159.43,-69.65],[160.0,-69.75]]],[[[-38.76,65.73],[-39.3,65.81],[-39.73,65.65],[-39.62,65.41],[-39.09,65.33],[-38.66,65.49],[-38.13,65.41],[-37.7,65.57],[-37.8,65.81],[-38.33,65.89],[-38.76,65.73]]],[[[163.36,-75.97],[162.54,-75.9],[161.87,-76.05],[162.03,-76.28],[162.87,-76.35],[163.54,-76.19],[163.36,-75.97]]],[[[-25.9,70.51],[-26.46,70.64],[-27.04,70.52],[-27.05,70.28],[-26.49,70.16],[-25.92,70.27],[-25.37,70.15],[-24.8,70.26],[-24.76,70.49],[-25.31,70.62],[-25.9,70.51]]],[[[-28.78,70.89],[-28.77,70.65],[-28.19,70.53],[-27.61,70.65],[-27.61,70.88],[-28.2,71.01],[-28.78,70.89]]],[[[163.74,-82.18],[164.88,-82.01],[164.34,-81.81],[162.73,-81.77],[161.57,-81.93],[162.04,-82.14],[163.74,-82.18]]],[[[164.52,-77.32],[163.61,-77.26],[162.9,-77.42],[163.09,-77.64],[164.02,-77.71],[164.74,-77.55],[164.52,-77.32]]],[[[158.17,-68.99],[157.68,-69.13],[157.74,-69.36],[158.3,-69.46],[158.79,-69.32],[158.72,-69.09],[158.17,-68.99]]],[[[165.49,-82.81],[166.14,-83.01],[168.08,-83.04],[169.26,-82.86],[168.53,-82.65],[166.69,-82.63],[165.49,-82.81]]],[[[-142.8,70.24],[-142.93,70.01],[-142.42,69.87],[-141.78,69.96],[-141.63,70.19],[-142.14,70.33],[-142.8,70.24]]],[[[-88.68,-72.39],[-89.33,-72.55],[-89.24,-72.79],[-88.48,-72.88],[-87.82,-72.73],[-87.93,-72.48],[-88.68,-72.39]]],[[[161.67,-79.25],[160.62,-79.17],[159.72,-79.33],[159.89,-79.55],[161.13,-79.6],[162.02,-79.45],[161.67,-79.25]]],[[[155.58,-69.18],[156.08,-69.05],[156.04,-68.81],[155.5,-68.71],[155.47,-68.47],[154.94,-68.36],[154.44,-68.48],[154.46,-68.72],[155.0,-68.83],[155.03,-69.07],[155.58,-69.18]]],[[[-29.6,83.1],[-31.26,83.23],[-33.05,83.13],[-33.1,82.91],[-31.48,82.79],[-29.76,82.88],[-29.6,83.1]]],[[[-81.06,54.45],[-81.48,54.37],[-81.56,54.12],[-81.23,53.95],[-80.82,54.03],[-80.73,54.28],[-81.06,54.45]]]]}}]}