{"type":"FeatureCollection","features":[{"type":"Feature","properties":{},"geometry":{"type":"MultiPolygon","coordinates":[[[[26.99,35.79],[26.68,35.76],[26.56,35.53],[26.25,35.5],[26.13,35.27],[25.82,35.24],[25.63,35.44],[25.32,35.41],[25.12,35.61],[24.81,35.57],[24.62,35.77],[24.31,35.74],[24.11,35.94],[23.8,35.9],[23.68,35.67],[23.37,35.63],[23.26,35.39],[23.45,35.2],[23.76,35.23],[23.96,35.03],[23.84,34.8],[24.04,34.6],[24.34,34.63],[24.46,34.87],[24.77,34.9],[24.96,34.7],[25.27,34.74],[25.39,34.97],[25.7,35.0],[25.89,34.8],[26.2,34.83],[26.32,35.07],[26.63,35.09],[26.75,35.33],[27.06,35.36],[27.18,35.59],[26.99,35.79]]],[[[131.17,25.44],[131.41,25.53],[131.45,25.75],[131.7,25.84],[131.74,26.06],[131.54,26.2],[131.29,26.11],[131.09,26.24],[130.84,26.15],[130.8,25.93],[131.0,25.8],[130.96,25.58],[131.17,25.44]]],[[[140.18,32.89],[140.19,33.13],[139.98,33.26],[139.75,33.16],[139.53,33.3],[139.31,33.2],[139.29,32.97],[139.51,32.83],[139.73,32.93],[139.95,32.79],[140.18,32.89]]],[[[120.45,72.91],[121.31,72.88],[121.83,73.08],[121.49,73.32],[120.61,73.35],[120.09,73.14],[120.45,72.91]]],[[[-17.88,27.98],[-18.13,28.1],[-18.37,27.97],[-18.37,27.72],[-18.12,27.6],[-17.87,27.73],[-17.88,27.98]]],[[[128.12,26.16],[128.16,26.38],[128.4,26.47],[128.44,26.69],[128.69,26.78],[128.73,27.0],[128.97,27.09],[129.01,27.31],[129.26,27.4],[129.3,27.61],[129.1,27.74],[129.14,27.95],[129.38,28.04],[129.58,27.92],[129.83,28.01],[129.87,28.22],[130.12,28.31],[130.16,28.52],[129.96,28.65],[129.71,28.56],[129.51,28.68],[129.26,28.59],[129.22,28.38],[128.97,28.29],[128.93,28.08],[128.69,27.99],[128.65,27.77],[128.4,27.68],[128.36,27.47],[128.57,27.34],[128.53,27.13],[128.28,27.03],[128.08,27.16],[128.12,27.38],[127.92,27.5],[127.68,27.41],[127.64,27.19],[127.84,27.07],[127.8,26.85],[127.56,26.76],[127.35,26.88],[127.11,26.79],[127.07,26.57],[126.83,26.48],[126.63,26.6],[126.39,26.51],[126.35,26.29],[126.55,26.16],[126.79,26.26],[126.99,26.13],[126.95,25.91],[127.15,25.79],[127.11,25.57],[127.31,25.44],[127.56,25.54],[127.76,25.41],[128.0,25.5],[128.04,25.72],[127.84,25.85],[127.88,26.07],[128.12,26.16]]],[[[-179.17,51.94],[-179.35,51.74],[-179.14,51.53],[-179.32,51.33],[-179.12,51.13],[-178.73,51.13],[-178.55,51.33],[-178.76,51.53],[-178.58,51.73],[-178.78,51.94],[-179.17,51.94]]],[[[119.05,23.62],[119.02,23.39],[119.2,23.24],[119.17,23.02],[119.35,22.86],[119.57,22.96],[119.76,22.84],[119.98,22.95],[120.17,22.83],[120.14,22.6],[120.33,22.48],[120.29,22.26],[120.48,22.14],[120.44,21.91],[120.63,21.79],[120.86,21.89],[121.05,21.77],[121.28,21.87],[121.47,21.74],[121.69,21.84],[121.73,22.07],[121.54,22.19],[121.31,22.09],[121.12,22.22],[121.16,22.44],[121.38,22.54],[121.58,22.42],[121.8,22.52],[121.84,22.75],[121.65,22.87],[121.68,23.09],[121.49,23.22],[121.53,23.44],[121.76,23.54],[121.79,23.76],[122.02,23.86],[122.06,24.08],[121.86,24.2],[121.9,24.43],[122.13,24.53],[122.17,24.75],[122.4,24.85],[122.43,25.07],[122.24,25.18],[122.28,25.4],[122.08,25.52],[122.12,25.74],[121.93,25.85],[121.7,25.75],[121.66,25.54],[121.43,25.44],[121.4,25.22],[121.17,25.12],[120.98,25.23],[120.75,25.13],[120.71,24.91],[120.49,24.81],[120.45,24.59],[120.23,24.49],[120.19,24.27],[119.97,24.17],[119.93,23.95],[119.71,23.85],[119.52,23.96],[119.3,23.9],[119.27,23.68],[119.05,23.62]]],[[[111.79,25.9],[111.99,25.75],[112.23,25.82],[112.26,26.05],[112.06,26.2],[111.82,26.13],[111.79,25.9]]],[[[-162.04,65.12],[-162.48,64.96],[-162.4,64.73],[-161.88,64.66],[-161.8,64.43],[-161.3,64.36],[-161.22,64.13],[-160.73,64.05],[-160.29,64.2],[-160.36,64.43],[-160.86,64.51],[-160.93,64.74],[-160.49,64.89],[-160.55,65.12],[-161.07,65.2],[-161.52,65.04],[-162.04,65.12]]],[[[112.58,73.89],[113.49,73.9],[113.93,74.12],[113.46,74.34],[113.92,74.56],[113.43,74.78],[112.47,74.77],[112.02,74.55],[112.52,74.33],[112.09,74.11],[111.17,74.1],[110.66,74.31],[109.73,74.3],[109.34,74.07],[109.86,73.86],[109.48,73.63],[108.59,73.61],[108.06,73.81],[107.17,73.79],[106.83,73.56],[105.95,73.52],[105.63,73.29],[106.17,73.09],[107.02,73.12],[107.54,72.92],[108.39,72.94],[108.74,73.17],[109.6,73.19],[109.98,73.42],[110.86,73.43],[111.26,73.66],[112.15,73.67],[112.58,73.89]]],[[[82.68,75.3],[82.65,75.55],[81.79,75.67],[80.98,75.54],[81.04,75.3],[81.88,75.18],[82.68,75.3]]],[[[-174.95,66.74],[-174.72,66.51],[-175.11,66.32],[-174.89,66.09],[-174.29,66.07],[-173.91,66.26],[-173.31,66.22],[-172.91,66.41],[-173.11,66.64],[-172.71,66.83],[-172.1,66.79],[-171.91,66.56],[-171.31,66.52],[-171.12,66.3],[-170.53,66.25],[-170.36,66.02],[-169.78,65.98],[-169.37,66.16],[-169.53,66.39],[-170.12,66.43],[-170.29,66.66],[-170.89,66.71],[-171.08,66.94],[-171.69,66.98],[-171.88,67.21],[-172.5,67.25],[-172.92,67.06],[-173.53,67.09],[-173.75,67.32],[-174.38,67.35],[-174.61,67.58],[-175.25,67.61],[-175.49,67.84],[-176.13,67.86],[-176.39,68.09],[-177.05,68.11],[-177.31,68.33],[-177.98,68.35],[-178.37,68.15],[-178.1,67.93],[-177.44,67.91],[-177.18,67.68],[-176.53,67.66],[-176.28,67.44],[-175.65,67.41],[-175.41,67.19],[-175.8,66.99],[-175.56,66.77],[-174.95,66.74]]],[[[114.1,26.39],[113.9,26.54],[113.67,26.47],[113.63,26.25],[113.4,26.18],[113.37,25.96],[113.57,25.8],[113.8,25.87],[114.0,25.72],[114.23,25.79],[114.26,26.01],[114.07,26.17],[114.1,26.39]]],[[[15.05,77.45],[14.26,77.32],[14.48,77.11],[15.44,77.02],[15.63,76.81],[16.57,76.72],[17.34,76.84],[17.18,77.06],[17.98,77.18],[17.83,77.39],[18.66,77.51],[18.52,77.73],[19.38,77.85],[19.25,78.07],[20.15,78.19],[21.17,78.08],[22.09,78.19],[23.09,78.08],[23.15,77.86],[22.25,77.75],[21.26,77.86],[20.38,77.75],[20.49,77.53],[21.45,77.42],[21.53,77.2],[22.46,77.09],[23.32,77.19],[23.27,77.41],[24.16,77.52],[24.12,77.74],[25.05,77.84],[25.02,78.06],[24.04,78.18],[24.0,78.41],[22.97,78.52],[22.9,78.75],[21.83,78.86],[21.74,79.09],[20.62,79.2],[19.63,79.08],[19.76,78.86],[18.81,78.74],[18.96,78.51],[18.05,78.39],[18.21,78.17],[17.34,78.05],[17.51,77.83],[16.67,77.71],[16.85,77.49],[16.04,77.36],[15.05,77.45]]],[[[170.37,68.71],[170.66,68.94],[171.36,68.96],[171.66,69.19],[171.26,69.4],[171.56,69.63],[171.15,69.83],[171.46,70.06],[171.04,70.27],[170.29,70.24],[169.99,70.01],[170.42,69.81],[170.12,69.57],[170.54,69.37],[170.25,69.14],[169.54,69.11],[169.12,69.31],[169.4,69.54],[168.96,69.74],[168.24,69.71],[167.78,69.91],[167.05,69.87],[166.79,69.63],[167.25,69.43],[167.96,69.47],[168.4,69.27],[168.13,69.04],[168.57,68.84],[169.26,68.88],[169.68,68.68],[170.37,68.71]]],[[[61.52,76.09],[62.11,76.27],[61.72,76.5],[60.71,76.54],[60.13,76.35],[59.14,76.38],[58.59,76.19],[59.02,75.98],[59.99,75.94],[60.55,76.13],[61.52,76.09]]],[[[-176.45,51.49],[-176.27,51.69],[-175.88,51.68],[-175.7,51.87],[-175.89,52.08],[-176.28,52.09],[-176.46,51.9],[-176.85,51.91],[-177.05,52.11],[-177.44,52.12],[-177.62,51.92],[-178.01,51.93],[-178.19,51.73],[-177.99,51.52],[-177.6,51.52],[-177.42,51.72],[-177.03,51.71],[-176.84,51.5],[-176.45,51.49]]],[[[118.55,56.67],[118.79,56.85],[118.6,57.06],[118.16,57.08],[117.92,56.9],[118.11,56.69],[118.55,56.67]]],[[[168.41,55.0],[167.99,54.96],[167.72,55.13],[167.3,55.09],[167.03,55.26],[166.61,55.22],[166.34,55.39],[166.48,55.6],[166.21,55.77],[165.79,55.72],[165.64,55.51],[165.92,55.34],[165.78,55.12],[166.06,54.96],[165.92,54.74],[166.2,54.57],[166.61,54.62],[166.88,54.44],[167.29,54.49],[167.56,54.31],[167.97,54.36],[168.11,54.57],[168.53,54.61],[168.67,54.82],[168.41,55.0]]],[[[112.77,24.91],[112.74,24.68],[112.94,24.53],[113.17,24.6],[113.21,24.83],[113.01,24.98],[112.77,24.91]]],[[[115.05,-33.5],[114.78,-33.47],[114.62,-33.63],[114.74,-33.82],[114.58,-33.98],[114.7,-34.17],[114.97,-34.2],[115.13,-34.04],[115.01,-33.85],[115.16,-33.69],[115.44,-33.72],[115.59,-33.56],[115.47,-33.37],[115.2,-33.34],[115.05,-33.5]]],[[[1.19,38.49],[1.41,38.35],[1.68,38.44],[1.74,38.67],[2.02,38.76],[2.07,39.0],[1.85,39.15],[1.91,39.38],[1.68,39.53],[1.4,39.44],[1.35,39.2],[1.07,39.11],[1.02,38.87],[1.24,38.73],[1.19,38.49]]],[[[-161.21,67.21],[-161.79,67.29],[-162.27,67.13],[-162.85,67.21],[-162.95,67.44],[-163.54,67.51],[-163.65,67.75],[-164.25,67.82],[-164.37,68.05],[-164.98,68.12],[-165.11,68.36],[-165.74,68.43],[-166.22,68.26],[-166.08,68.02],[-165.47,67.96],[-165.34,67.72],[-164.73,67.65],[-164.61,67.42],[-164.02,67.35],[-163.91,67.12],[-163.33,67.05],[-163.23,66.81],[-162.66,66.74],[-162.56,66.51],[-162.01,66.43],[-161.92,66.2],[-162.38,66.04],[-162.29,65.81],[-161.75,65.73],[-161.3,65.89],[-161.37,66.12],[-160.9,66.28],[-160.36,66.19],[-159.88,66.34],[-159.95,66.58],[-160.5,66.66],[-160.57,66.89],[-161.13,66.97],[-161.21,67.21]]],[[[25.94,80.43],[24.7,80.55],[23.51,80.44],[23.57,80.21],[24.78,80.09],[25.95,80.2],[25.94,80.43]]],[[[-180.0,51.94],[-179.77,52.14],[-179.99,52.35],[-180.0,51.94]]],[[[180.0,52.34],[179.62,52.34],[179.44,52.14],[179.66,51.94],[180.0,51.94],[180.0,52.34]]],[[[178.26,52.13],[177.87,52.12],[177.64,52.32],[177.25,52.31],[177.08,52.1],[177.3,51.9],[177.13,51.69],[177.36,51.5],[177.75,51.5],[177.92,51.71],[178.31,51.72],[178.53,51.52],[178.92,51.53],[179.13,51.32],[179.52,51.33],[179.69,51.53],[179.48,51.73],[179.09,51.73],[178.87,51.93],[179.05,52.14],[178.83,52.34],[178.44,52.33],[178.26,52.13]]],[[[57.45,29.68],[57.36,29.91],[57.09,29.97],[56.91,29.8],[56.64,29.86],[56.46,29.69],[56.19,29.75],[56.01,29.58],[56.1,29.36],[56.37,29.3],[56.55,29.47],[56.82,29.41],[56.91,29.19],[57.17,29.13],[57.35,29.29],[57.27,29.52],[57.45,29.68]]],[[[117.63,28.0],[117.59,27.78],[117.79,27.63],[118.01,27.69],[118.04,27.9],[117.85,28.06],[117.63,28.0]]],[[[99.9,23.91],[100.13,23.77],[100.37,23.86],[100.4,24.1],[100.17,24.25],[99.93,24.15],[99.9,23.91]]],[[[119.12,27.97],[119.09,27.76],[119.27,27.61],[119.24,27.39],[119.02,27.34],[118.98,27.13],[118.76,27.07],[118.73,26.85],[118.91,26.7],[119.13,26.76],[119.17,26.97],[119.39,27.03],[119.42,27.24],[119.64,27.3],[119.68,27.51],[119.49,27.66],[119.53,27.87],[119.34,28.03],[119.12,27.97]]],[[[124.54,24.73],[124.3,24.63],[124.11,24.76],[123.87,24.66],[123.68,24.78],[123.44,24.68],[123.25,24.8],[123.02,24.71],[122.98,24.48],[122.75,24.38],[122.71,24.16],[122.91,24.04],[123.14,24.14],[123.33,24.02],[123.56,24.12],[123.76,23.99],[123.99,24.09],[124.19,23.97],[124.42,24.07],[124.46,24.29],[124.7,24.39],[124.73,24.61],[124.97,24.71],[125.17,24.58],[125.4,24.68],[125.6,24.55],[125.84,24.65],[125.88,24.87],[125.68,25.0],[125.44,24.9],[125.25,25.02],[125.01,24.93],[124.81,25.05],[124.58,24.95],[124.54,24.73]]],[[[129.29,26.4],[129.05,26.31],[129.01,26.09],[129.21,25.96],[129.46,26.05],[129.5,26.27],[129.29,26.4]]],[[[12.25,37.09],[11.94,37.02],[11.86,36.78],[12.07,36.61],[12.37,36.67],[12.46,36.91],[12.25,37.09]]],[[[65.68,76.94],[65.0,76.77],[65.35,76.54],[66.35,76.48],[67.03,76.65],[66.71,76.88],[65.68,76.94]]],[[[-27.7,38.24],[-27.44,38.4],[-27.14,38.29],[-26.87,38.44],[-26.91,38.7],[-26.64,38.85],[-26.67,39.1],[-26.98,39.21],[-27.24,39.06],[-27.55,39.16],[-27.81,39.01],[-28.12,39.11],[-28.38,38.95],[-28.68,39.05],[-28.95,38.9],[-28.91,38.65],[-28.6,38.55],[-28.57,38.29],[-28.26,38.19],[-28.0,38.35],[-27.7,38.24]]],[[[-16.13,32.96],[-15.87,33.09],[-15.87,33.34],[-16.13,33.47],[-16.39,33.34],[-16.39,33.09],[-16.65,32.96],[-16.92,33.09],[-17.18,32.96],[-17.44,33.08],[-17.7,32.95],[-17.7,32.69],[-17.43,32.57],[-17.17,32.7],[-16.91,32.58],[-16.91,32.32],[-16.65,32.19],[-16.39,32.32],[-16.39,32.58],[-16.13,32.71],[-16.13,32.96]]],[[[130.56,71.39],[129.78,71.46],[129.22,71.28],[129.43,71.03],[130.19,70.97],[130.38,70.72],[131.13,70.65],[131.69,70.82],[131.51,71.07],[130.75,71.14],[130.56,71.39]]],[[[2.58,38.94],[2.86,39.03],[3.08,38.88],[3.36,38.96],[3.42,39.2],[3.71,39.29],[3.77,39.52],[4.06,39.61],[4.28,39.46],[4.57,39.54],[4.63,39.78],[4.41,39.93],[4.47,40.17],[4.25,40.32],[3.96,40.23],[3.73,40.38],[3.44,40.3],[3.38,40.06],[3.09,39.97],[2.87,40.12],[2.58,40.03],[2.53,39.8],[2.24,39.71],[2.19,39.47],[2.41,39.32],[2.35,39.09],[2.58,38.94]]],[[[59.12,32.66],[59.4,32.6],[59.6,32.77],[59.89,32.7],[60.09,32.87],[60.37,32.81],[60.58,32.98],[60.49,33.21],[60.21,33.28],[60.13,33.51],[59.84,33.58],[59.75,33.81],[59.47,33.87],[59.38,34.11],[59.09,34.17],[59.0,34.41],[58.71,34.47],[58.62,34.7],[58.33,34.76],[58.13,34.59],[58.22,34.36],[58.02,34.18],[58.11,33.95],[58.4,33.89],[58.49,33.66],[58.78,33.59],[58.86,33.36],[58.66,33.19],[58.75,32.96],[59.03,32.9],[59.12,32.66]]],[[[142.0,27.03],[141.95,26.81],[142.15,26.67],[142.11,26.45],[142.31,26.3],[142.56,26.37],[142.61,26.59],[142.4,26.73],[142.45,26.95],[142.25,27.1],[142.0,27.03]]],[[[151.63,46.71],[151.96,46.8],[152.22,46.65],[152.55,46.73],[152.62,46.97],[152.95,47.06],[153.02,47.3],[153.36,47.39],[153.43,47.62],[153.17,47.78],[153.24,48.01],[153.58,48.1],[153.65,48.34],[153.38,48.49],[153.04,48.4],[152.97,48.16],[152.63,48.08],[152.56,47.84],[152.23,47.75],[152.16,47.51],[151.83,47.42],[151.76,47.18],[151.43,47.09],[151.37,46.85],[151.63,46.71]]],[[[136.94,71.4],[137.58,71.55],[138.33,71.45],[138.98,71.6],[139.72,71.5],[140.39,71.65],[140.32,71.9],[139.57,72.01],[138.89,71.86],[138.13,71.96],[137.47,71.81],[136.71,71.9],[136.07,71.74],[135.3,71.84],[134.67,71.67],[133.9,71.76],[133.74,72.01],[132.95,72.09],[132.33,71.92],[132.51,71.67],[133.28,71.59],[133.44,71.34],[134.2,71.25],[134.81,71.42],[135.57,71.33],[136.19,71.49],[136.94,71.4]]],[[[-25.03,37.29],[-25.33,37.4],[-25.35,37.66],[-25.09,37.8],[-25.12,38.06],[-25.41,38.17],[-25.68,38.02],[-25.98,38.13],[-26.24,37.98],[-26.21,37.72],[-25.92,37.62],[-25.88,37.36],[-25.59,37.25],[-25.56,37.0],[-25.27,36.89],[-25.24,36.63],[-24.95,36.52],[-24.69,36.67],[-24.71,36.92],[-25.0,37.03],[-25.03,37.29]]],[[[-7.1,61.3],[-6.74,61.16],[-6.33,61.22],[-6.28,61.42],[-6.65,61.56],[-6.6,61.76],[-6.19,61.82],[-6.14,62.01],[-5.72,62.07],[-5.67,62.26],[-6.04,62.4],[-5.99,62.6],[-6.37,62.74],[-6.79,62.68],[-6.84,62.49],[-7.26,62.43],[-7.3,62.23],[-7.72,62.17],[-7.76,61.97],[-7.39,61.84],[-7.43,61.64],[-7.06,61.5],[-7.1,61.3]]],[[[-10.09,54.16],[-10.44,54.08],[-10.47,53.85],[-10.14,53.71],[-10.16,53.49],[-10.51,53.4],[-10.54,53.17],[-10.21,53.03],[-9.86,53.12],[-9.54,52.98],[-9.57,52.75],[-9.25,52.61],[-8.91,52.69],[-8.88,52.92],[-9.2,53.06],[-9.17,53.29],[-9.49,53.43],[-9.46,53.66],[-9.79,53.8],[-9.76,54.02],[-9.4,54.1],[-9.08,53.96],[-8.73,54.04],[-8.69,54.27],[-8.34,54.35],[-8.31,54.57],[-8.63,54.71],[-8.99,54.63],[-9.02,54.41],[-9.38,54.33],[-9.71,54.47],[-10.06,54.38],[-10.09,54.16]]],[[[-5.65,59.18],[-5.99,59.32],[-6.38,59.26],[-6.43,59.06],[-6.08,58.91],[-5.69,58.97],[-5.65,59.18]]],[[[140.79,26.89],[141.04,26.96],[141.09,27.18],[140.88,27.32],[140.63,27.25],[140.59,27.04],[140.79,26.89]]],[[[88.17,29.32],[87.94,29.43],[87.69,29.32],[87.47,29.43],[87.23,29.32],[87.21,29.09],[87.44,28.98],[87.68,29.09],[87.91,28.98],[88.15,29.09],[88.38,28.97],[88.63,29.09],[88.86,28.97],[88.84,28.74],[89.07,28.62],[89.32,28.74],[89.55,28.62],[89.79,28.73],[89.81,28.96],[89.58,29.08],[89.59,29.31],[89.36,29.42],[89.38,29.65],[89.15,29.77],[88.9,29.66],[88.89,29.43],[88.64,29.32],[88.41,29.43],[88.17,29.32]]],[[[37.23,34.99],[37.39,34.78],[37.68,34.78],[37.84,34.56],[38.14,34.56],[38.28,34.78],[38.12,35.0],[37.83,34.99],[37.67,35.21],[37.37,35.21],[37.23,34.99]]],[[[180.0,69.38],[179.85,69.48],[179.14,69.49],[178.81,69.71],[178.09,69.72],[177.71,69.5],[178.05,69.28],[178.75,69.28],[179.08,69.06],[179.77,69.05],[180.0,69.17],[180.0,69.38]]],[[[-180.0,69.17],[-179.84,69.26],[-180.0,69.38],[-180.0,69.17]]],[[[-5.38,33.75],[-5.64,33.65],[-5.67,33.41],[-5.44,33.26],[-5.47,33.02],[-5.73,32.91],[-5.76,32.67],[-6.02,32.57],[-6.05,32.32],[-6.31,32.22],[-6.33,31.97],[-6.59,31.87],[-6.62,31.62],[-6.39,31.48],[-6.14,31.58],[-5.91,31.44],[-5.66,31.55],[-5.63,31.79],[-5.37,31.89],[-5.34,32.14],[-5.09,32.24],[-4.86,32.1],[-4.61,32.2],[-4.58,32.44],[-4.32,32.54],[-4.28,32.79],[-4.51,32.93],[-4.47,33.17],[-4.21,33.27],[-3.99,33.13],[-3.74,33.23],[-3.7,33.47],[-3.92,33.61],[-3.88,33.86],[-4.11,34.0],[-4.37,33.91],[-4.4,33.66],[-4.66,33.56],[-4.89,33.71],[-5.15,33.61],[-5.38,33.75]]],[[[162.19,66.59],[162.63,66.41],[163.24,66.47],[163.43,66.71],[164.06,66.76],[164.26,67.0],[163.83,67.19],[163.19,67.13],[162.74,67.31],[162.11,67.25],[161.92,67.01],[162.37,66.83],[162.19,66.59]]],[[[-164.34,60.35],[-164.43,60.57],[-164.88,60.63],[-165.23,60.47],[-165.14,60.25],[-164.69,60.2],[-164.34,60.35]]],[[[118.93,28.13],[118.97,28.34],[118.78,28.49],[118.56,28.44],[118.53,28.23],[118.71,28.07],[118.93,28.13]]],[[[-8.24,55.01],[-8.21,55.23],[-8.54,55.37],[-8.9,55.29],[-8.93,55.07],[-8.6,54.93],[-8.24,55.01]]],[[[-8.97,32.77],[-8.71,32.88],[-8.69,33.13],[-8.93,33.26],[-9.19,33.15],[-9.21,32.9],[-9.47,32.79],[-9.49,32.54],[-9.25,32.41],[-8.99,32.52],[-8.97,32.77]]],[[[-18.15,29.12],[-18.14,28.86],[-17.89,28.74],[-17.89,28.49],[-17.63,28.37],[-17.39,28.5],[-17.39,28.75],[-17.64,28.87],[-17.65,29.13],[-17.9,29.25],[-18.15,29.12]]],[[[123.4,25.68],[123.36,25.46],[123.56,25.34],[123.79,25.44],[123.83,25.66],[124.06,25.76],[124.1,25.98],[123.9,26.1],[123.67,26.0],[123.47,26.12],[123.24,26.02],[123.2,25.8],[123.4,25.68]]],[[[48.71,69.85],[48.07,69.85],[47.71,69.66],[47.98,69.47],[47.62,69.28],[47.9,69.1],[47.54,68.91],[47.81,68.72],[48.43,68.72],[48.69,68.53],[49.3,68.53],[49.66,68.72],[50.28,68.72],[50.65,68.91],[50.4,69.1],[50.78,69.29],[50.52,69.48],[49.89,69.48],[49.62,69.67],[48.98,69.67],[48.71,69.85]]],[[[-166.67,65.26],[-166.54,65.03],[-166.96,64.86],[-166.83,64.63],[-166.29,64.57],[-166.17,64.35],[-165.65,64.29],[-165.24,64.45],[-164.71,64.39],[-164.29,64.55],[-164.4,64.78],[-164.93,64.84],[-165.35,64.68],[-165.88,64.74],[-166.0,64.97],[-165.58,65.14],[-165.7,65.36],[-166.25,65.42],[-166.37,65.65],[-166.93,65.71],[-167.07,65.94],[-167.64,66.0],[-168.06,65.82],[-167.92,65.6],[-167.36,65.54],[-167.22,65.31],[-166.67,65.26]]],[[[-172.26,60.54],[-172.41,60.75],[-172.89,60.78],[-173.05,60.99],[-173.53,61.02],[-173.85,60.84],[-173.68,60.63],[-173.21,60.6],[-173.05,60.39],[-172.57,60.35],[-172.26,60.54]]],[[[-169.78,63.02],[-169.41,63.19],[-168.9,63.15],[-168.53,63.32],[-168.66,63.54],[-169.18,63.59],[-169.56,63.41],[-170.08,63.46],[-170.23,63.68],[-170.76,63.72],[-170.92,63.95],[-171.46,63.99],[-171.83,63.8],[-171.66,63.58],[-172.02,63.4],[-171.85,63.18],[-171.33,63.14],[-170.97,63.32],[-170.45,63.28],[-170.3,63.06],[-169.78,63.02]]],[[[-162.82,63.29],[-163.23,63.13],[-163.72,63.19],[-163.81,63.42],[-164.31,63.48],[-164.71,63.32],[-164.61,63.1],[-164.12,63.04],[-164.02,62.81],[-163.54,62.75],[-163.14,62.9],[-162.66,62.84],[-162.25,62.99],[-162.33,63.22],[-161.92,63.37],[-161.43,63.3],[-161.02,63.45],[-161.09,63.68],[-161.58,63.75],[-162.0,63.6],[-162.49,63.67],[-162.9,63.51],[-162.82,63.29]]],[[[172.8,52.52],[173.04,52.33],[173.44,52.35],[173.68,52.16],[174.07,52.18],[174.24,52.4],[174.0,52.59],[174.16,52.8],[173.92,52.99],[173.52,52.97],[173.27,53.16],[172.87,53.13],[172.62,53.32],[172.22,53.29],[172.06,53.08],[172.31,52.89],[172.15,52.68],[172.4,52.49],[172.8,52.52]]],[[[-165.43,60.9],[-164.97,60.85],[-164.61,61.01],[-164.7,61.23],[-165.16,61.28],[-165.26,61.5],[-165.73,61.56],[-165.83,61.78],[-165.46,61.94],[-165.56,62.16],[-166.04,62.22],[-166.42,62.06],[-166.31,61.84],[-166.67,61.67],[-166.56,61.45],[-166.09,61.4],[-165.99,61.18],[-165.52,61.12],[-165.43,60.9]]],[[[-16.15,28.39],[-16.39,28.51],[-16.64,28.38],[-16.89,28.51],[-17.14,28.38],[-17.14,28.12],[-16.89,28.0],[-16.64,28.13],[-16.39,28.01],[-16.15,28.14],[-16.15,28.39]]],[[[-14.48,64.38],[-14.02,64.46],[-13.9,64.68],[-13.44,64.76],[-13.32,64.98],[-13.66,65.12],[-14.13,65.05],[-14.24,64.82],[-14.71,64.75],[-14.82,64.52],[-15.28,64.44],[-15.38,64.22],[-15.04,64.08],[-14.59,64.16],[-14.48,64.38]]],[[[-14.71,65.56],[-14.35,65.41],[-13.88,65.49],[-13.75,65.71],[-14.11,65.86],[-14.59,65.78],[-14.71,65.56]]],[[[23.85,79.08],[24.9,79.18],[24.87,79.41],[23.75,79.53],[22.68,79.42],[22.76,79.2],[23.85,79.08]]],[[[-1.12,34.4],[-0.91,34.25],[-0.65,34.34],[-0.61,34.58],[-0.82,34.73],[-1.08,34.64],[-1.29,34.79],[-1.55,34.7],[-1.59,34.46],[-1.38,34.31],[-1.12,34.4]]],[[[-171.57,65.47],[-170.99,65.43],[-170.6,65.61],[-170.77,65.84],[-171.35,65.88],[-171.75,65.7],[-172.33,65.74],[-172.71,65.55],[-172.53,65.33],[-172.91,65.14],[-172.72,64.91],[-173.09,64.73],[-172.9,64.5],[-173.27,64.32],[-173.08,64.09],[-172.54,64.06],[-172.17,64.25],[-172.35,64.47],[-171.98,64.65],[-172.16,64.88],[-171.77,65.06],[-171.95,65.29],[-171.57,65.47]]],[[[-164.61,66.32],[-164.05,66.26],[-163.59,66.42],[-163.69,66.65],[-164.27,66.72],[-164.73,66.56],[-165.3,66.62],[-165.75,66.45],[-166.33,66.52],[-166.77,66.34],[-166.63,66.11],[-166.07,66.05],[-165.63,66.22],[-165.06,66.16],[-164.61,66.32]]],[[[160.99,69.86],[160.28,69.79],[160.1,69.55],[160.62,69.37],[161.32,69.43],[161.51,69.68],[160.99,69.86]]],[[[156.39,66.34],[156.87,66.18],[157.47,66.26],[157.6,66.5],[157.12,66.67],[156.51,66.59],[156.02,66.75],[155.42,66.66],[154.92,66.82],[154.32,66.73],[154.22,66.48],[154.72,66.32],[155.31,66.41],[155.8,66.25],[156.39,66.34]]],[[[80.99,30.58],[81.24,30.71],[81.23,30.95],[80.98,31.06],[80.74,30.93],[80.75,30.69],[80.99,30.58]]],[[[19.17,79.75],[19.33,79.53],[20.5,79.42],[21.53,79.54],[21.43,79.76],[20.23,79.87],[19.17,79.75]]],[[[-19.02,63.28],[-18.59,63.37],[-18.51,63.6],[-18.87,63.73],[-19.31,63.63],[-19.39,63.41],[-19.02,63.28]]],[[[117.22,25.4],[117.03,25.55],[116.8,25.49],[116.77,25.27],[116.96,25.11],[117.19,25.18],[117.22,25.4]]],[[[-177.34,28.52],[-177.62,28.51],[-177.75,28.28],[-177.61,28.08],[-177.33,28.09],[-177.19,28.31],[-177.34,28.52]]],[[[87.64,28.4],[87.87,28.29],[88.11,28.4],[88.13,28.63],[87.9,28.75],[87.65,28.63],[87.64,28.4]]],[[[84.44,31.4],[84.2,31.51],[83.95,31.39],[83.95,31.15],[84.19,31.04],[84.44,31.16],[84.44,31.4]]],[[[143.42,56.38],[143.8,56.5],[143.78,56.73],[143.39,56.84],[143.01,56.72],[143.03,56.49],[143.42,56.38]]],[[[128.62,32.19],[128.37,32.1],[128.33,31.9],[128.53,31.79],[128.78,31.87],[128.82,32.08],[128.62,32.19]]],[[[-164.07,60.73],[-163.62,60.67],[-163.25,60.82],[-163.33,61.04],[-163.78,61.1],[-164.15,60.95],[-164.07,60.73]]],[[[130.15,71.89],[129.94,72.14],[130.54,72.32],[130.33,72.57],[129.5,72.63],[128.9,72.45],[129.13,72.2],[128.55,72.02],[128.78,71.77],[129.57,71.71],[130.15,71.89]]],[[[131.2,24.41],[131.45,24.5],[131.49,24.73],[131.28,24.86],[131.04,24.77],[131.0,24.55],[131.2,24.41]]],[[[67.64,76.18],[66.67,76.25],[66.01,76.07],[65.04,76.13],[64.42,75.95],[63.46,76.0],[62.86,75.82],[63.22,75.6],[64.15,75.55],[64.75,75.73],[65.69,75.67],[66.33,75.84],[67.27,75.78],[67.93,75.95],[67.64,76.18]]],[[[18.55,74.92],[17.87,74.81],[18.0,74.6],[18.78,74.5],[18.89,74.3],[19.64,74.2],[20.31,74.3],[20.22,74.51],[19.45,74.61],[19.35,74.82],[18.55,74.92]]],[[[173.74,69.68],[174.46,69.7],[174.81,69.92],[174.43,70.13],[173.68,70.12],[173.35,69.89],[173.74,69.68]]],[[[111.96,25.52],[111.73,25.45],[111.69,25.22],[111.9,25.07],[112.13,25.14],[112.34,24.99],[112.57,25.06],[112.6,25.29],[112.4,25.44],[112.17,25.37],[111.96,25.52]]],[[[57.14,33.72],[56.95,33.55],[57.04,33.32],[57.33,33.26],[57.52,33.43],[57.43,33.66],[57.14,33.72]]],[[[25.16,76.52],[26.01,76.39],[26.86,76.48],[26.87,76.7],[26.01,76.83],[25.15,76.73],[25.16,76.52]]],[[[164.64,69.49],[165.12,69.3],[165.82,69.34],[166.07,69.58],[165.6,69.78],[164.88,69.73],[164.39,69.92],[163.67,69.86],[163.16,70.05],[162.44,69.99],[162.23,69.74],[162.73,69.56],[163.44,69.62],[163.93,69.43],[164.64,69.49]]],[[[30.19,78.97],[29.17,79.11],[28.09,79.02],[28.05,78.8],[29.05,78.66],[30.11,78.75],[30.19,78.97]]],[[[14.65,36.03],[14.44,36.21],[14.13,36.15],[14.04,35.91],[14.25,35.73],[14.56,35.79],[14.65,36.03]]],[[[113.3,25.51],[113.27,25.28],[113.47,25.13],[113.7,25.2],[113.74,25.42],[113.54,25.58],[113.3,25.51]]],[[[152.81,70.79],[152.91,71.04],[152.27,71.19],[151.54,71.09],[151.46,70.84],[152.09,70.68],[152.81,70.79]]],[[[0.64,34.78],[0.43,34.93],[0.17,34.84],[0.12,34.6],[0.33,34.45],[0.59,34.54],[0.64,34.78]]],[[[140.15,32.43],[139.93,32.56],[139.71,32.47],[139.69,32.23],[139.91,32.1],[140.13,32.19],[140.15,32.43]]],[[[-17.54,64.01],[-17.98,63.92],[-18.07,63.69],[-17.71,63.56],[-17.27,63.65],[-17.18,63.87],[-17.54,64.01]]],[[[117.55,73.65],[117.95,73.42],[118.84,73.4],[119.35,73.61],[118.96,73.84],[118.05,73.86],[117.55,73.65]]],[[[70.01,76.45],[69.74,76.69],[68.74,76.76],[68.03,76.59],[68.32,76.35],[69.3,76.28],[70.01,76.45]]],[[[121.78,21.03],[121.74,20.81],[121.93,20.68],[122.16,20.78],[122.2,21.01],[122.01,21.14],[121.78,21.03]]],[[[-30.78,39.48],[-31.09,39.57],[-31.35,39.41],[-31.3,39.16],[-30.99,39.07],[-30.73,39.22],[-30.78,39.48]]],[[[-16.38,63.83],[-15.94,63.91],[-15.84,64.14],[-16.19,64.27],[-16.64,64.19],[-16.73,63.96],[-16.38,63.83]]],[[[60.38,42.12],[60.47,41.87],[60.8,41.81],[61.04,41.99],[60.94,42.24],[60.61,42.3],[60.38,42.12]]],[[[87.65,75.25],[88.44,75.11],[89.3,75.21],[89.39,75.46],[88.58,75.6],[87.71,75.5],[87.65,75.25]]],[[[82.47,32.55],[82.72,32.44],[82.97,32.56],[82.97,32.8],[82.72,32.92],[82.47,32.79],[82.47,32.55]]],[[[-162.83,64.58],[-163.35,64.65],[-163.77,64.49],[-163.68,64.26],[-163.17,64.19],[-162.74,64.35],[-162.83,64.58]]],[[[111.25,25.29],[111.28,25.52],[111.08,25.68],[110.84,25.6],[110.81,25.37],[111.02,25.22],[111.25,25.29]]]]}}]}