{"type":"FeatureCollection","features":[{"type":"Feature","properties":{},"geometry":{"type":"MultiPolygon","coordinates":[[[[118.79,6.15],[118.6,6.3],[118.39,6.21],[118.21,6.36],[118.0,6.27],[117.82,6.41],[117.85,6.65],[117.67,6.8],[117.7,7.04],[117.52,7.19],[117.55,7.43],[117.37,7.57],[117.16,7.48],[116.98,7.62],[116.77,7.53],[116.74,7.29],[116.53,7.19],[116.5,6.95],[116.28,6.86],[116.25,6.62],[116.04,6.52],[116.01,6.28],[115.8,6.19],[115.76,5.94],[115.55,5.85],[115.52,5.61],[115.31,5.51],[115.27,5.27],[115.06,5.17],[114.88,5.31],[114.66,5.21],[114.63,4.97],[114.42,4.87],[114.23,5.01],[114.02,4.91],[113.99,4.67],[113.77,4.57],[113.74,4.33],[113.52,4.23],[113.49,3.99],[113.28,3.88],[113.25,3.64],[113.03,3.54],[113.0,3.3],[112.78,3.2],[112.59,3.34],[112.37,3.23],[112.35,2.99],[112.13,2.89],[111.94,3.03],[111.72,2.93],[111.53,3.07],[111.31,2.96],[111.28,2.72],[111.06,2.62],[111.03,2.37],[111.22,2.23],[111.19,1.99],[110.97,1.88],[110.94,1.64],[110.72,1.54],[110.53,1.68],[110.56,1.92],[110.37,2.06],[110.15,1.95],[110.12,1.71],[109.9,1.61],[109.7,1.74],[109.73,1.99],[109.54,2.13],[109.32,2.03],[109.29,1.78],[109.07,1.67],[109.04,1.43],[108.81,1.32],[108.79,1.08],[108.98,0.94],[108.95,0.69],[109.15,0.56],[109.12,0.31],[109.32,0.18],[109.29,-0.07],[109.07,-0.17],[109.04,-0.42],[109.23,-0.55],[109.2,-0.8],[109.4,-0.93],[109.37,-1.17],[109.56,-1.31],[109.78,-1.2],[109.97,-1.34],[109.95,-1.58],[110.14,-1.71],[110.11,-1.95],[110.3,-2.08],[110.27,-2.32],[110.46,-2.45],[110.43,-2.69],[110.62,-2.82],[110.84,-2.72],[111.03,-2.85],[111.25,-2.74],[111.43,-2.87],[111.65,-2.77],[111.83,-2.9],[111.81,-3.13],[111.99,-3.26],[112.21,-3.16],[112.39,-3.29],[112.61,-3.18],[112.79,-3.31],[113.0,-3.21],[113.19,-3.34],[113.4,-3.23],[113.58,-3.36],[113.79,-3.25],[113.97,-3.38],[114.18,-3.28],[114.36,-3.4],[114.57,-3.3],[114.75,-3.43],[114.72,-3.66],[114.51,-3.76],[114.48,-3.99],[114.66,-4.12],[114.87,-4.01],[115.05,-4.14],[115.26,-4.03],[115.29,-3.8],[115.49,-3.7],[115.67,-3.82],[115.87,-3.75],[116.05,-3.9],[116.25,-3.83],[116.28,-3.6],[116.49,-3.52],[116.52,-3.29],[116.34,-3.14],[116.38,-2.91],[116.58,-2.83],[116.61,-2.6],[116.44,-2.44],[116.47,-2.21],[116.67,-2.13],[116.71,-1.9],[116.53,-1.74],[116.56,-1.51],[116.77,-1.43],[116.8,-1.2],[117.01,-1.11],[117.04,-0.88],[117.25,-0.8],[117.42,-0.95],[117.63,-0.87],[117.66,-0.64],[117.49,-0.48],[117.52,-0.24],[117.73,-0.16],[117.76,0.07],[117.58,0.23],[117.61,0.47],[117.82,0.55],[117.86,0.79],[118.07,0.87],[118.25,0.72],[118.46,0.8],[118.64,0.65],[118.85,0.73],[118.88,0.97],[118.7,1.13],[118.74,1.37],[118.56,1.52],[118.34,1.43],[118.16,1.59],[118.2,1.83],[118.02,1.98],[118.05,2.22],[118.26,2.3],[118.29,2.54],[118.11,2.7],[117.9,2.61],[117.72,2.76],[117.76,3.0],[117.97,3.09],[118.0,3.33],[117.82,3.48],[117.85,3.72],[118.06,3.81],[118.1,4.05],[118.31,4.14],[118.49,3.98],[118.7,4.07],[118.74,4.31],[118.95,4.4],[118.98,4.65],[119.2,4.74],[119.38,4.58],[119.6,4.67],[119.63,4.92],[119.45,5.07],[119.48,5.31],[119.3,5.46],[119.08,5.37],[118.9,5.52],[118.93,5.76],[118.75,5.91],[118.79,6.15]]],[[[119.44,-3.76],[119.62,-3.92],[119.59,-4.16],[119.77,-4.31],[119.73,-4.55],[119.52,-4.62],[119.49,-4.86],[119.67,-5.02],[119.88,-4.94],[120.06,-5.1],[120.03,-5.33],[120.21,-5.49],[120.43,-5.41],[120.46,-5.18],[120.28,-5.02],[120.31,-4.79],[120.53,-4.71],[120.56,-4.47],[120.38,-4.32],[120.41,-4.08],[120.23,-3.92],[120.26,-3.69],[120.48,-3.61],[120.51,-3.37],[120.33,-3.21],[120.12,-3.29],[120.08,-3.53],[119.87,-3.61],[119.69,-3.45],[119.47,-3.53],[119.44,-3.76]]],[[[112.66,-7.46],[112.88,-7.36],[112.9,-7.13],[112.72,-7.01],[112.51,-7.12],[112.48,-7.34],[112.66,-7.46]]],[[[121.45,6.14],[121.27,6.29],[121.05,6.2],[121.01,5.95],[121.2,5.8],[121.42,5.89],[121.45,6.14]]],[[[120.54,1.18],[120.33,1.09],[120.29,0.85],[120.07,0.76],[120.04,0.52],[119.82,0.44],[119.79,0.2],[119.58,0.11],[119.54,-0.13],[119.72,-0.28],[119.69,-0.52],[119.87,-0.68],[119.84,-0.92],[120.02,-1.07],[120.24,-0.99],[120.27,-0.75],[120.09,-0.59],[120.12,-0.36],[119.94,-0.2],[119.97,0.04],[120.19,0.13],[120.22,0.37],[120.44,0.45],[120.62,0.29],[120.84,0.38],[121.03,0.22],[121.25,0.31],[121.28,0.55],[121.1,0.71],[121.13,0.95],[121.35,1.04],[121.53,0.88],[121.5,0.64],[121.69,0.48],[121.91,0.56],[121.94,0.81],[122.16,0.89],[122.35,0.74],[122.31,0.49],[122.5,0.34],[122.72,0.42],[122.76,0.67],[122.57,0.82],[122.61,1.07],[122.42,1.23],[122.2,1.14],[122.01,1.3],[121.79,1.21],[121.6,1.37],[121.38,1.28],[121.2,1.43],[120.98,1.35],[120.95,1.11],[120.73,1.02],[120.54,1.18]]],[[[120.54,5.52],[120.35,5.68],[120.13,5.58],[120.1,5.34],[119.88,5.25],[119.85,5.01],[120.03,4.86],[120.25,4.95],[120.28,5.19],[120.5,5.28],[120.69,5.13],[120.91,5.22],[120.94,5.46],[120.76,5.62],[120.54,5.52]]],[[[122.36,-0.64],[122.14,-0.72],[122.1,-0.96],[122.29,-1.12],[122.25,-1.36],[122.44,-1.52],[122.66,-1.44],[122.7,-1.2],[122.92,-1.11],[122.96,-0.87],[122.77,-0.71],[122.55,-0.8],[122.36,-0.64]]],[[[122.28,-5.43],[122.47,-5.59],[122.69,-5.51],[122.72,-5.27],[122.95,-5.19],[122.98,-4.96],[123.2,-4.88],[123.24,-4.64],[123.05,-4.48],[122.83,-4.56],[122.8,-4.8],[122.57,-4.88],[122.54,-5.11],[122.32,-5.19],[122.28,-5.43]]],[[[119.74,-1.63],[119.77,-1.4],[119.59,-1.24],[119.38,-1.32],[119.34,-1.56],[119.52,-1.71],[119.74,-1.63]]],[[[118.85,9.58],[118.89,9.82],[118.7,9.96],[118.49,9.87],[118.45,9.63],[118.24,9.53],[118.21,9.29],[117.99,9.2],[117.81,9.34],[117.6,9.24],[117.57,9.01],[117.35,8.91],[117.32,8.67],[117.11,8.58],[117.08,8.34],[116.87,8.25],[116.83,8.01],[117.01,7.86],[117.23,7.96],[117.26,8.19],[117.47,8.29],[117.5,8.53],[117.71,8.62],[117.75,8.86],[117.96,8.96],[118.14,8.81],[118.36,8.91],[118.39,9.15],[118.6,9.24],[118.64,9.48],[118.85,9.58]]],[[[124.26,0.78],[124.22,0.54],[124.41,0.38],[124.64,0.46],[124.68,0.71],[124.49,0.87],[124.26,0.78]]],[[[123.13,0.35],[123.32,0.19],[123.55,0.28],[123.58,0.52],[123.39,0.68],[123.43,0.93],[123.24,1.08],[123.02,1.0],[122.98,0.75],[123.17,0.59],[123.13,0.35]]],[[[121.37,-1.7],[121.34,-1.94],[121.12,-2.02],[121.09,-2.26],[120.87,-2.34],[120.83,-2.58],[121.02,-2.73],[120.98,-2.97],[121.17,-3.13],[121.38,-3.05],[121.42,-2.81],[121.23,-2.65],[121.27,-2.41],[121.49,-2.33],[121.52,-2.09],[121.74,-2.01],[121.78,-1.77],[121.59,-1.61],[121.37,-1.7]]],[[[118.93,-3.06],[118.9,-3.29],[119.08,-3.45],[119.29,-3.37],[119.32,-3.14],[119.14,-2.98],[119.18,-2.74],[119.39,-2.66],[119.42,-2.43],[119.64,-2.35],[119.67,-2.11],[119.49,-1.95],[119.28,-2.03],[119.24,-2.27],[119.03,-2.35],[119.0,-2.59],[118.79,-2.67],[118.75,-2.9],[118.93,-3.06]]],[[[120.88,-3.69],[121.06,-3.84],[121.28,-3.77],[121.32,-3.53],[121.13,-3.37],[120.91,-3.45],[120.88,-3.69]]],[[[118.34,7.32],[118.31,7.08],[118.49,6.93],[118.7,7.02],[118.74,7.27],[118.55,7.41],[118.34,7.32]]],[[[121.68,-3.84],[121.47,-3.92],[121.43,-4.16],[121.61,-4.32],[121.58,-4.56],[121.76,-4.71],[121.98,-4.64],[122.02,-4.4],[122.24,-4.32],[122.42,-4.48],[122.64,-4.4],[122.68,-4.16],[122.49,-4.0],[122.53,-3.76],[122.34,-3.6],[122.12,-3.68],[122.09,-3.92],[121.87,-4.0],[121.68,-3.84]]],[[[117.6,-8.34],[117.39,-8.41],[117.36,-8.63],[117.53,-8.79],[117.74,-8.72],[117.77,-8.5],[117.6,-8.34]]],[[[108.05,4.01],[108.02,3.76],[108.22,3.62],[108.45,3.72],[108.47,3.97],[108.28,4.11],[108.05,4.01]]],[[[120.43,-2.5],[120.22,-2.58],[120.18,-2.82],[120.37,-2.98],[120.58,-2.9],[120.62,-2.66],[120.43,-2.5]]],[[[120.79,-1.46],[120.82,-1.22],[120.64,-1.07],[120.42,-1.15],[120.39,-1.39],[120.57,-1.54],[120.79,-1.46]]],[[[123.26,-1.67],[123.48,-1.59],[123.52,-1.35],[123.33,-1.19],[123.11,-1.27],[123.07,-1.51],[123.26,-1.67]]],[[[119.82,-5.41],[119.63,-5.25],[119.42,-5.32],[119.39,-5.56],[119.57,-5.71],[119.78,-5.64],[119.82,-5.41]]],[[[107.72,-2.88],[107.91,-3.01],[108.13,-2.91],[108.16,-2.67],[107.96,-2.53],[107.74,-2.64],[107.72,-2.88]]],[[[122.6,-3.28],[122.64,-3.04],[122.45,-2.89],[122.23,-2.97],[122.19,-3.21],[122.38,-3.37],[122.6,-3.28]]]]}}]}