{"type":"FeatureCollection","features":[{"type":"Feature","properties":{},"geometry":{"type":"MultiPolygon","coordinates":[[[[180.0,64.98],[175.97,64.98],[178.24,64.15],[178.17,63.32],[179.21,62.9],[172.91,61.55],[170.59,60.19],[168.92,60.91],[163.31,60.17],[162.92,58.85],[161.37,57.6],[162.49,56.72],[160.58,56.86],[159.41,56.05],[161.7,56.0],[161.41,54.74],[159.81,54.48],[159.55,53.21],[158.5,53.22],[158.28,51.93],[156.97,51.25],[156.2,53.6],[156.77,54.13],[155.98,55.0],[157.7,56.59],[157.31,57.58],[164.26,60.91],[165.1,62.7],[163.67,62.78],[160.59,60.89],[160.99,61.59],[160.37,62.17],[157.43,61.96],[153.99,60.01],[154.23,59.39],[152.44,59.02],[151.37,59.92],[149.65,59.99],[141.56,59.16],[140.52,57.82],[135.08,54.93],[136.7,54.37],[136.5,53.78],[138.69,53.47],[139.59,54.31],[141.17,53.25],[140.2,50.59],[140.3,48.4],[134.95,43.49],[133.3,42.64],[132.11,43.38],[128.03,39.82],[132.71,40.03],[134.97,39.38],[136.57,38.56],[136.54,37.18],[137.48,38.31],[138.85,37.56],[140.51,41.03],[142.18,40.12],[141.49,38.01],[142.87,39.48],[148.86,39.56],[153.06,41.03],[166.63,42.69],[179.96,45.9],[180.0,64.98]],[[140.11,42.46],[141.07,41.72],[140.06,41.75],[140.11,42.46]]],[[[-180.0,65.83],[-180.0,45.95],[-165.0,49.42],[-156.55,49.4],[-149.58,47.66],[-141.06,42.99],[-137.15,41.98],[-136.06,40.76],[-137.89,37.01],[-136.8,35.64],[-136.55,33.26],[-135.22,32.36],[-135.17,30.35],[-130.62,26.63],[-128.4,22.43],[-123.82,18.95],[-107.53,14.41],[-101.5,10.52],[-100.2,7.91],[-102.85,4.37],[-103.05,1.4],[-101.63,-0.73],[-101.37,-3.49],[-100.1,-5.62],[-97.27,-8.86],[-94.18,-9.99],[-91.4,-12.42],[-88.16,-13.53],[-84.71,-16.65],[-80.12,-18.7],[-78.98,-20.85],[-78.59,-24.73],[-80.39,-30.52],[-86.08,-34.82],[-89.41,-40.15],[-86.8,-44.07],[-85.84,-48.75],[-88.62,-56.88],[-93.12,-58.4],[-96.29,-61.42],[-95.82,-62.0],[-100.13,-65.21],[-101.64,-65.32],[-105.22,-67.52],[-106.87,-67.57],[-106.51,-68.15],[-111.82,-70.07],[-111.74,-70.67],[-133.17,-74.06],[-139.41,-74.04],[-159.91,-69.96],[-166.06,-65.09],[-165.77,-64.56],[-168.85,-61.07],[-170.32,-60.5],[-170.05,-59.72],[-168.34,-59.5],[-168.98,-59.06],[-168.44,-58.13],[-163.98,-56.0],[-161.58,-49.57],[-162.05,-48.71],[-159.82,-47.4],[-159.49,-46.22],[-161.12,-43.71],[-161.13,-41.8],[-163.06,-39.54],[-176.13,-28.64],[-176.42,-23.18],[-180.0,-22.78],[-180.0,-90.0],[180.0,-90.0],[179.9,-22.53],[174.92,-23.39],[171.38,-25.82],[165.8,-27.4],[156.23,-26.69],[153.44,-24.96],[153.04,-26.31],[153.77,-28.68],[152.9,-31.69],[150.71,-33.94],[149.84,-37.61],[145.9,-38.79],[145.28,-37.79],[143.33,-38.77],[140.25,-37.69],[139.56,-35.35],[138.69,-35.55],[138.77,-34.4],[137.57,-34.01],[138.28,-33.39],[138.02,-32.56],[135.71,-34.88],[135.23,-33.21],[133.88,-31.97],[132.34,-32.08],[131.17,-31.25],[125.82,-32.02],[123.6,-33.77],[119.61,-33.84],[117.12,-35.11],[115.01,-33.85],[116.01,-33.42],[116.16,-31.72],[113.58,-26.77],[114.46,-26.41],[113.51,-24.47],[113.87,-22.0],[114.56,-22.4],[116.53,-20.77],[121.07,-19.76],[122.16,-18.14],[121.9,-17.22],[123.16,-15.88],[124.19,-16.0],[124.4,-14.71],[123.67,-15.33],[121.34,-14.35],[118.45,-14.74],[104.45,-21.67],[97.46,-20.16],[95.46,-20.66],[93.47,-23.57],[92.27,-28.23],[89.98,-30.5],[87.81,-31.4],[87.03,-33.5],[84.37,-36.45],[82.47,-37.28],[79.68,-41.18],[79.9,-41.77],[77.74,-43.22],[79.03,-44.52],[84.76,-46.67],[80.51,-48.92],[75.26,-53.39],[72.77,-57.54],[73.36,-58.11],[72.06,-61.28],[72.7,-61.85],[70.2,-64.91],[70.88,-65.5],[69.58,-66.77],[70.14,-67.6],[59.17,-67.29],[56.1,-65.71],[53.13,-65.54],[47.68,-67.3],[42.32,-67.81],[38.57,-69.58],[32.44,-68.62],[30.31,-69.12],[32.12,-69.45],[31.71,-70.05],[29.31,-70.07],[29.84,-69.71],[29.2,-69.35],[26.29,-69.68],[25.07,-70.14],[25.67,-70.75],[25.03,-70.86],[22.05,-69.92],[19.97,-70.68],[16.04,-69.57],[13.74,-70.25],[12.86,-69.67],[3.7,-70.25],[-0.86,-69.49],[-4.38,-67.33],[-4.05,-66.69],[-5.28,-66.24],[-4.94,-65.61],[-8.33,-62.75],[-10.99,-61.54],[-12.86,-59.31],[-17.21,-56.56],[-18.09,-53.59],[-19.61,-52.73],[-17.11,-47.84],[-25.4,-46.37],[-26.4,-46.12],[-26.29,-45.49],[-30.06,-44.66],[-30.95,-41.9],[-32.98,-41.23],[-32.82,-40.6],[-34.37,-39.14],[-32.07,-37.42],[-32.97,-35.05],[-32.54,-33.14],[-37.24,-31.44],[-40.98,-31.94],[-46.6,-30.79],[-50.24,-31.09],[-48.0,-27.37],[-48.58,-26.77],[-49.1,-28.79],[-50.36,-30.48],[-51.1,-30.21],[-52.24,-31.32],[-52.08,-32.12],[-53.66,-34.26],[-55.08,-34.97],[-58.31,-34.03],[-59.07,-34.52],[-56.76,-36.37],[-57.69,-38.15],[-62.28,-38.84],[-62.45,-40.77],[-65.51,-41.05],[-64.71,-42.48],[-65.75,-43.66],[-65.28,-44.48],[-67.03,-45.02],[-67.81,-46.48],[-66.1,-47.08],[-66.06,-48.06],[-67.85,-49.85],[-69.39,-50.29],[-68.77,-52.37],[-70.12,-52.24],[-70.43,-52.82],[-71.71,-52.27],[-72.62,-52.99],[-70.2,-54.59],[-69.27,-53.47],[-70.52,-53.22],[-68.81,-52.74],[-67.58,-54.39],[-66.39,-54.75],[-68.49,-55.53],[-71.3,-55.14],[-72.37,-54.06],[-73.33,-54.16],[-73.55,-52.46],[-74.95,-52.27],[-74.23,-51.74],[-74.54,-50.44],[-75.45,-50.5],[-74.75,-49.98],[-75.58,-48.79],[-74.03,-47.58],[-73.91,-46.56],[-74.83,-46.39],[-74.27,-44.42],[-73.58,-45.38],[-72.41,-43.15],[-72.62,-41.49],[-73.92,-41.41],[-72.9,-39.63],[-73.61,-38.48],[-71.33,-33.37],[-71.72,-30.59],[-70.14,-25.06],[-69.89,-19.96],[-70.1,-18.27],[-76.16,-14.37],[-76.08,-12.96],[-78.14,-10.33],[-80.4,-5.12],[-79.72,-2.76],[-80.75,-1.07],[-77.66,3.38],[-79.77,7.55],[-79.41,8.28],[-78.74,7.97],[-78.83,8.89],[-80.28,8.46],[-80.2,7.53],[-80.83,7.37],[-81.56,8.38],[-83.06,8.39],[-83.81,9.61],[-85.54,9.95],[-85.43,11.2],[-87.65,12.82],[-87.63,13.52],[-91.12,13.92],[-94.16,16.4],[-97.91,16.01],[-104.89,19.3],[-105.56,22.97],[-112.63,29.61],[-113.3,31.7],[-114.93,31.95],[-115.11,30.38],[-111.48,26.14],[-110.73,24.68],[-111.18,24.36],[-112.6,26.76],[-114.49,27.37],[-113.7,28.54],[-115.78,29.88],[-117.53,34.04],[-120.73,35.04],[-124.33,40.48],[-123.66,41.0],[-124.58,42.79],[-123.53,46.26],[-124.5,47.92],[-123.38,48.18],[-123.22,47.0],[-122.34,47.08],[-121.73,49.5],[-123.63,49.53],[-127.52,51.35],[-128.31,53.26],[-129.95,53.89],[-129.92,55.22],[-133.0,56.96],[-134.89,59.03],[-137.48,58.54],[-139.56,60.09],[-143.69,60.19],[-146.44,61.31],[-148.47,61.21],[-148.98,60.68],[-148.32,60.05],[-150.69,59.59],[-149.28,61.21],[-150.3,62.61],[-152.05,62.14],[-151.29,61.29],[-154.14,59.79],[-154.15,60.44],[-155.35,60.48],[-154.57,61.4],[-155.44,62.02],[-152.85,63.45],[-157.68,62.67],[-155.56,63.8],[-157.9,64.02],[-156.66,65.36],[-161.23,62.63],[-162.33,63.22],[-161.02,63.45],[-159.97,64.81],[-165.88,64.74],[-165.7,65.36],[-167.07,65.94],[-161.75,65.73],[-159.88,66.34],[-165.88,68.66],[-156.93,71.17],[-136.35,68.76],[-135.74,69.42],[-128.33,69.66],[-128.08,70.28],[-125.16,69.26],[-121.54,69.83],[-117.67,68.63],[-114.95,68.9],[-115.36,68.07],[-114.34,67.56],[-107.32,67.08],[-106.99,67.5],[-107.73,67.81],[-106.15,68.07],[-103.03,67.41],[-95.16,67.46],[-93.43,68.6],[-94.03,69.23],[-93.41,69.61],[-95.93,70.08],[-95.34,70.71],[-96.02,71.07],[-94.72,71.59],[-92.1,70.36],[-92.78,69.73],[-90.5,68.21],[-88.6,68.8],[-88.09,68.41],[-88.82,67.8],[-87.33,66.86],[-84.33,68.77],[-85.16,69.82],[-83.21,69.86],[-81.81,68.88],[-82.72,68.29],[-81.55,67.05],[-84.68,66.35],[-86.21,66.81],[-86.87,66.46],[-86.51,65.8],[-87.7,65.34],[-90.29,65.79],[-87.33,64.68],[-90.49,64.27],[-91.03,63.89],[-90.61,63.24],[-92.59,62.76],[-95.35,60.47],[-95.28,58.68],[-93.18,58.55],[-92.81,57.15],[-89.58,57.06],[-87.39,55.66],[-82.83,55.03],[-81.8,52.21],[-79.26,51.11],[-78.4,52.41],[-79.47,54.51],[-77.23,55.12],[-77.32,55.79],[-76.19,56.42],[-77.03,58.14],[-78.45,58.86],[-77.1,59.75],[-77.96,60.79],[-77.18,61.36],[-77.82,61.97],[-73.7,62.22],[-70.35,60.71],[-70.11,59.15],[-68.09,58.18],[-66.16,58.3],[-65.42,59.68],[-64.19,59.95],[-64.07,59.06],[-61.51,57.37],[-61.68,56.26],[-60.75,55.4],[-55.71,53.23],[-56.06,51.74],[-58.26,51.54],[-60.24,50.23],[-65.96,50.61],[-69.2,49.03],[-69.52,47.92],[-67.45,48.98],[-64.79,49.18],[-64.69,48.34],[-66.33,48.01],[-65.17,47.67],[-64.86,46.64],[-62.35,46.79],[-61.78,46.2],[-61.1,47.05],[-60.2,46.88],[-59.67,45.86],[-64.09,44.42],[-65.16,43.33],[-61.59,41.77],[-57.8,37.57],[-58.39,37.18],[-58.11,35.78],[-60.91,34.19],[-64.24,34.63],[-66.62,33.68],[-69.85,33.8],[-70.88,32.23],[-69.92,30.31],[-67.82,29.44],[-60.04,30.1],[-57.65,31.53],[-55.49,31.82],[-51.69,37.07],[-39.68,37.44],[-32.99,34.92],[-30.42,32.65],[-21.96,29.35],[-18.59,26.83],[-15.66,27.39],[-14.23,26.15],[-12.97,28.02],[-10.75,28.84],[-9.67,30.3],[-9.81,31.68],[-5.64,35.52],[-1.73,35.09],[7.09,38.05],[3.61,42.93],[6.35,42.85],[7.12,43.48],[4.17,43.94],[2.78,42.89],[3.06,41.91],[1.05,41.27],[-0.59,39.71],[-0.75,37.65],[-6.05,36.3],[-6.93,37.62],[-8.8,37.4],[-9.17,39.18],[-8.17,40.97],[-9.05,43.27],[-1.45,43.25],[-1.35,46.36],[-4.91,47.7],[-5.35,48.7],[-3.7,49.32],[-2.88,48.85],[-2.73,49.53],[-1.71,48.67],[-2.09,49.67],[0.93,50.68],[1.31,49.91],[1.57,50.79],[4.03,51.79],[5.6,53.51],[8.28,53.75],[8.76,55.5],[7.83,55.67],[8.4,56.15],[7.93,56.59],[9.97,57.86],[10.83,57.49],[10.4,56.71],[11.35,56.52],[10.75,56.06],[12.41,56.53],[12.19,57.37],[11.22,57.56],[11.84,58.01],[10.65,59.67],[7.26,58.03],[5.5,58.73],[6.05,59.14],[5.21,59.63],[6.15,60.06],[5.2,60.36],[4.87,61.96],[11.53,64.6],[13.62,67.04],[16.19,68.31],[15.43,68.76],[17.89,68.89],[17.15,69.36],[27.79,70.77],[30.63,70.52],[28.88,70.31],[29.87,69.66],[35.78,69.3],[41.53,67.22],[39.14,66.13],[32.52,67.11],[34.4,66.14],[34.59,64.42],[37.15,63.85],[38.57,64.34],[36.96,65.01],[39.8,64.61],[40.8,65.05],[39.98,65.6],[44.9,66.95],[48.0,66.8],[48.5,67.77],[52.37,68.51],[54.66,68.06],[58.42,69.06],[60.68,68.53],[61.41,69.07],[60.79,69.7],[64.45,69.62],[68.39,68.22],[69.27,68.72],[68.56,69.62],[66.61,69.82],[67.63,71.35],[69.69,71.98],[68.53,72.51],[71.73,72.83],[72.66,72.51],[71.32,71.59],[72.79,70.35],[71.93,69.83],[73.24,68.6],[71.24,66.81],[69.72,66.6],[72.05,66.05],[75.29,67.65],[74.55,68.19],[75.31,68.92],[77.11,68.62],[76.69,68.26],[77.35,67.93],[78.28,68.41],[76.85,69.32],[73.97,69.34],[75.17,70.45],[73.57,71.11],[73.84,71.72],[77.99,71.13],[78.5,71.49],[76.42,71.81],[78.89,72.34],[83.1,70.92],[83.71,71.51],[80.85,72.73],[82.12,73.71],[85.85,73.8],[86.69,74.4],[85.94,74.78],[86.8,75.14],[101.95,76.46],[101.87,77.13],[104.47,77.47],[105.5,76.84],[111.63,76.76],[113.87,75.89],[113.4,75.22],[105.95,73.52],[107.54,72.92],[111.26,73.66],[121.31,72.88],[123.48,73.69],[127.04,73.49],[129.27,72.88],[128.55,72.02],[131.13,70.65],[132.51,71.67],[139.72,71.5],[140.32,71.9],[139.48,72.27],[143.84,72.86],[148.29,72.33],[152.09,70.68],[159.0,70.82],[160.62,69.37],[166.79,69.63],[170.37,68.71],[171.66,69.19],[170.42,69.81],[172.2,70.09],[180.0,68.89],[180.0,90.0],[-180.0,90.0],[-180.0,68.89],[-175.49,67.84],[-174.72,66.51],[-172.92,67.06],[-170.36,66.02],[-172.71,65.55],[-173.27,64.32],[-176.22,65.73],[-178.61,65.8],[-178.77,66.44],[-180.0,65.83]]],[[[-36.02,-20.87],[-32.28,-18.91],[-32.32,-17.57],[-35.62,-15.88],[-38.87,-15.73],[-40.45,-20.81],[-39.22,-18.78],[-38.34,-19.73],[-39.1,-20.59],[-36.02,-20.87]]],[[[-78.16,27.24],[-79.19,26.99],[-79.15,25.25],[-78.86,26.27],[-77.47,26.25],[-78.0,26.88],[-77.37,27.16],[-78.16,27.24]]],[[[-158.9,21.9],[-159.66,22.4],[-161.09,21.63],[-158.9,21.9]]],[[[-8.07,-14.14],[-12.06,-13.97],[-16.88,-15.19],[-19.34,-16.78],[-19.48,-17.79],[-16.67,-19.15],[-8.48,-19.59],[-6.5,-20.68],[0.08,-21.76],[3.3,-24.7],[6.37,-26.29],[9.07,-30.33],[8.2,-32.69],[5.19,-34.22],[5.34,-35.31],[4.28,-36.39],[4.42,-37.92],[3.29,-39.88],[7.39,-43.88],[15.98,-46.25],[27.13,-46.58],[40.22,-45.01],[43.25,-43.85],[48.01,-39.24],[47.25,-37.9],[48.35,-35.09],[53.11,-33.02],[53.25,-28.62],[54.17,-27.97],[55.7,-24.23],[57.23,-22.91],[58.16,-20.15],[57.1,-19.79],[55.94,-17.25],[51.91,-17.59],[50.36,-14.18],[50.64,-15.4],[47.35,-24.55],[45.36,-25.68],[43.81,-24.78],[43.19,-21.92],[44.44,-19.69],[43.67,-18.54],[44.15,-16.46],[46.49,-15.51],[48.93,-12.58],[48.21,-11.44],[44.81,-10.39],[41.18,-7.76],[40.06,-3.78],[41.9,-1.15],[39.99,-2.71],[38.58,-5.98],[39.63,-6.91],[39.69,-10.0],[40.68,-10.5],[41.08,-14.65],[39.45,-17.19],[37.99,-17.23],[34.79,-19.79],[35.77,-22.93],[35.46,-24.29],[32.51,-25.84],[33.03,-26.4],[32.4,-28.4],[28.41,-32.8],[24.69,-34.12],[19.72,-34.58],[18.66,-34.03],[18.12,-33.07],[18.54,-31.87],[14.64,-26.9],[13.91,-22.96],[14.39,-22.52],[13.37,-21.07],[10.83,-20.73],[7.05,-17.9],[3.7,-13.08],[3.66,-11.86],[1.45,-11.07],[-1.83,-12.39],[-2.82,-14.0],[-4.76,-14.76],[-8.07,-14.14]]],[[[78.12,8.77],[77.09,8.43],[74.14,14.13],[75.72,11.25],[76.09,8.82],[77.09,7.94],[79.57,9.09],[79.74,7.48],[79.99,9.33],[80.63,9.43],[82.03,6.76],[80.05,11.56],[78.12,8.77]]],[[[118.06,23.95],[115.31,22.67],[113.35,22.68],[112.96,21.44],[110.73,21.33],[111.06,18.71],[114.63,19.34],[116.36,21.05],[120.29,22.26],[121.47,21.74],[119.98,22.95],[121.17,25.12],[122.01,25.08],[121.0,22.79],[121.58,22.42],[122.37,23.4],[128.0,25.5],[130.48,27.84],[136.59,29.26],[139.42,31.21],[140.72,31.08],[142.58,34.33],[141.5,35.26],[137.38,34.84],[136.91,33.48],[136.28,34.09],[136.05,32.85],[134.42,32.24],[131.96,32.77],[130.67,31.03],[129.69,32.93],[128.45,32.5],[130.23,34.38],[126.06,33.98],[125.09,34.68],[126.38,35.5],[125.93,36.54],[124.32,36.28],[120.6,33.91],[122.1,31.7],[121.0,30.3],[122.38,30.89],[122.59,29.66],[120.23,27.09],[119.73,25.27],[118.06,23.95]]],[[[108.7,21.28],[106.01,19.79],[106.09,18.41],[108.58,18.46],[108.43,19.1],[109.94,20.36],[108.7,21.28]]],[[[-59.43,54.11],[-60.28,53.67],[-59.02,53.68],[-59.43,54.11]]],[[[-25.71,16.96],[-23.87,16.4],[-25.08,17.36],[-25.71,16.96]]],[[[-169.73,-18.67],[-170.34,-18.97],[-169.71,-19.55],[-169.73,-18.67]]],[[[-180.0,-84.22],[-154.32,-85.36],[-165.78,-83.86],[-156.02,-83.58],[-150.99,-82.48],[-155.42,-81.24],[-146.26,-80.96],[-150.29,-80.71],[-148.35,-79.74],[-154.03,-79.06],[-155.05,-78.73],[-154.01,-78.16],[-157.68,-77.53],[-155.77,-77.07],[-150.13,-78.07],[-147.67,-77.2],[-145.59,-77.56],[-144.76,-77.4],[-145.89,-77.12],[-145.4,-76.53],[-148.1,-76.32],[-141.56,-75.94],[-135.64,-74.59],[-124.38,-75.05],[-114.01,-74.18],[-113.72,-74.58],[-114.89,-74.87],[-114.3,-75.04],[-99.89,-75.66],[-98.08,-74.93],[-100.44,-74.79],[-101.0,-74.17],[-99.31,-73.46],[-102.2,-73.41],[-102.87,-73.28],[-102.01,-72.93],[-86.0,-73.38],[-83.17,-74.09],[-80.62,-73.39],[-73.38,-73.99],[-69.14,-73.43],[-66.02,-72.36],[-67.58,-71.47],[-67.09,-70.38],[-68.52,-69.94],[-65.95,-69.29],[-67.33,-68.86],[-66.89,-67.35],[-65.92,-67.56],[-65.94,-68.86],[-62.72,-69.47],[-62.88,-71.01],[-61.23,-71.41],[-62.75,-71.88],[-61.02,-72.29],[-62.53,-73.2],[-61.85,-74.3],[-64.64,-74.78],[-65.1,-75.44],[-64.59,-75.66],[-66.66,-76.1],[-78.05,-76.46],[-78.13,-77.13],[-73.96,-77.75],[-73.51,-77.98],[-74.26,-78.18],[-78.56,-77.56],[-81.33,-77.87],[-78.31,-78.47],[-78.8,-78.9],[-83.07,-78.22],[-84.66,-78.8],[-81.25,-79.69],[-77.59,-79.63],[-78.1,-80.06],[-75.69,-80.59],[-76.69,-80.78],[-76.17,-81.02],[-67.33,-81.4],[-66.56,-82.07],[-67.52,-82.28],[-63.66,-82.73],[-64.57,-83.38],[-63.4,-83.6],[-57.51,-83.77],[-56.66,-83.54],[-58.03,-83.34],[-52.62,-82.11],[-43.29,-82.66],[-41.24,-82.31],[-42.5,-81.91],[-40.49,-81.3],[-22.73,-80.25],[-22.24,-79.58],[-27.12,-79.73],[-35.76,-78.66],[-31.64,-77.1],[-18.24,-75.65],[-17.04,-74.35],[-14.23,-74.51],[-13.95,-74.07],[-15.46,-73.54],[-10.95,-72.64],[-10.13,-71.55],[-0.88,-71.89],[2.82,-70.94],[10.22,-70.55],[11.07,-71.15],[14.83,-70.6],[26.94,-71.25],[32.42,-70.39],[33.36,-69.66],[32.66,-69.32],[33.11,-68.96],[35.26,-69.96],[39.03,-70.27],[40.01,-69.15],[43.09,-68.1],[47.57,-67.71],[48.26,-68.35],[49.51,-67.97],[49.67,-67.15],[51.36,-67.18],[50.6,-66.56],[55.29,-65.93],[56.47,-66.74],[55.65,-67.38],[69.03,-68.37],[68.6,-69.73],[66.86,-70.3],[68.82,-71.03],[66.97,-71.59],[67.03,-72.24],[66.03,-72.51],[66.56,-72.7],[65.27,-73.19],[67.16,-73.52],[71.49,-71.92],[71.29,-71.27],[73.7,-70.59],[73.44,-69.94],[76.52,-70.03],[80.18,-68.08],[92.03,-66.5],[99.57,-66.97],[103.6,-66.06],[108.59,-67.17],[112.27,-66.04],[114.95,-66.8],[113.82,-67.43],[116.46,-67.5],[126.05,-66.51],[127.52,-67.31],[130.03,-67.16],[130.09,-66.5],[131.5,-66.18],[143.27,-67.0],[144.04,-67.78],[145.71,-67.5],[148.61,-68.81],[154.46,-68.72],[159.35,-69.42],[161.36,-70.39],[161.07,-70.99],[166.47,-70.63],[170.32,-71.81],[170.33,-72.42],[164.53,-73.75],[161.43,-75.36],[163.05,-76.58],[162.53,-76.96],[163.61,-77.26],[163.09,-77.64],[164.24,-77.94],[163.71,-78.32],[164.93,-78.61],[160.45,-78.95],[158.95,-79.71],[160.89,-80.17],[157.54,-80.41],[162.73,-81.77],[161.29,-82.51],[166.05,-82.42],[166.69,-82.63],[165.49,-82.81],[168.84,-83.24],[167.58,-83.43],[168.38,-83.63],[180.0,-84.22],[180.0,90.0],[-180.0,90.0],[-180.0,-84.22]],[[-101.11,-72.34],[-101.66,-71.97],[-100.33,-71.99],[-101.11,-72.34]]],[[[167.05,-22.48],[167.02,-21.76],[166.13,-22.23],[167.05,-22.48]]],[[[73.51,0.74],[72.73,0.35],[73.29,-0.04],[72.96,-0.97],[73.58,-0.94],[73.51,0.74]]],[[[68.91,-48.25],[68.05,-48.84],[68.49,-49.98],[70.73,-49.9],[71.07,-48.98],[68.91,-48.25]]],[[[16.79,61.33],[19.68,59.51],[17.43,58.61],[16.94,56.3],[14.84,55.83],[15.68,54.87],[14.22,55.38],[12.19,54.87],[14.94,54.22],[21.05,55.32],[20.56,56.7],[21.7,57.66],[21.19,58.47],[21.79,59.19],[29.39,60.07],[28.32,60.71],[22.95,59.6],[19.12,60.28],[21.44,60.89],[21.08,62.81],[25.74,64.85],[25.13,65.92],[22.36,66.02],[20.84,65.13],[21.24,64.22],[19.67,63.89],[16.79,61.33]],[[18.01,56.78],[18.27,58.19],[19.65,57.99],[18.68,56.68],[18.01,56.78]]],[[[-64.9,15.04],[-63.63,15.49],[-64.61,18.24],[-64.1,18.69],[-65.7,19.22],[-67.49,18.66],[-67.38,17.89],[-66.42,17.77],[-66.14,15.8],[-64.9,15.04]]],[[[-63.09,17.11],[-61.1,14.42],[-61.97,12.21],[-61.34,12.02],[-60.54,14.67],[-61.01,16.39],[-61.84,16.61],[-61.44,17.87],[-62.1,17.06],[-63.48,18.35],[-63.09,17.11]]],[[[-41.85,-23.18],[-40.92,-21.97],[-42.35,-23.02],[-44.01,-22.9],[-41.85,-23.18]]],[[[80.97,6.43],[80.53,5.96],[79.52,7.12],[80.32,5.6],[81.58,6.03],[80.97,6.43]]],[[[-156.48,19.49],[-155.79,18.53],[-154.77,19.09],[-154.76,20.19],[-158.05,22.27],[-158.58,21.22],[-156.37,20.36],[-156.48,19.49]],[[-155.19,20.02],[-155.3,19.15],[-155.95,19.43],[-155.19,20.02]]],[[[-59.35,13.51],[-59.85,12.83],[-59.07,13.01],[-59.35,13.51]]],[[[-72.69,37.67],[-73.29,38.15],[-72.91,39.0],[-69.87,41.63],[-73.05,41.18],[-74.14,39.39],[-75.35,39.18],[-74.98,38.06],[-76.18,37.06],[-75.72,34.85],[-75.01,35.36],[-75.36,36.44],[-72.69,37.67]]],[[[54.99,-4.81],[56.03,-4.63],[55.71,-3.58],[55.12,-3.6],[55.6,-4.01],[54.99,-4.81]]],[[[-180.0,-19.26],[-179.45,-19.03],[-179.98,-18.45],[-180.0,-19.26]]],[[[-178.28,-18.5],[-178.81,-16.86],[-180.0,-17.17],[-178.65,-19.91],[-178.28,-18.5]]],[[[176.93,-16.89],[176.82,-17.48],[177.59,-17.3],[176.93,-16.89]]],[[[-97.25,24.52],[-96.82,25.55],[-97.78,25.51],[-98.06,22.18],[-96.02,18.52],[-94.65,18.1],[-91.58,18.74],[-94.22,18.62],[-96.37,21.14],[-95.77,23.32],[-97.25,24.52]]],[[[-12.56,-37.19],[-12.98,-37.58],[-12.23,-37.91],[-11.92,-37.27],[-12.56,-37.19]]],[[[72.57,4.17],[72.57,2.54],[73.7,1.77],[73.71,5.53],[76.46,6.62],[75.3,9.56],[71.08,5.64],[71.27,4.58],[72.95,4.86],[72.57,4.17]]],[[[-140.89,-16.18],[-139.79,-16.05],[-141.25,-15.54],[-140.89,-16.18]]],[[[168.12,-21.16],[167.24,-21.4],[168.16,-21.88],[168.12,-21.16]]],[[[-35.99,-5.29],[-34.84,-6.64],[-35.41,-4.79],[-38.3,-3.75],[-37.39,-5.02],[-35.99,-5.29]]],[[[145.69,16.75],[145.36,16.19],[146.24,16.02],[145.69,16.75]]],[[[-149.86,-18.13],[-149.03,-17.79],[-149.47,-16.88],[-151.12,-17.56],[-149.86,-18.13]]],[[[-79.72,9.3],[-79.14,9.91],[-79.98,9.86],[-79.72,9.3]]],[[[-140.19,-9.67],[-139.39,-8.6],[-140.46,-8.69],[-140.19,-9.67]]],[[[-174.37,-19.33],[-175.22,-19.55],[-175.4,-21.7],[-174.54,-21.48],[-175.19,-20.65],[-174.28,-20.67],[-174.37,-19.33]]],[[[166.7,10.87],[168.05,11.45],[166.54,11.61],[166.7,10.87]]],[[[-139.16,-9.58],[-139.39,-10.32],[-138.7,-10.0],[-139.16,-9.58]]],[[[-80.99,25.03],[-81.75,25.78],[-81.82,24.84],[-81.04,24.32],[-80.99,25.03]]],[[[-83.97,11.64],[-82.45,8.78],[-80.32,8.92],[-81.07,10.14],[-83.47,10.78],[-83.37,12.02],[-83.97,11.64]]],[[[-169.76,17.16],[-169.57,16.3],[-169.06,16.7],[-169.76,17.16]]],[[[178.61,-17.4],[178.54,-18.22],[176.88,-17.92],[178.11,-19.37],[179.9,-17.77],[179.75,-16.88],[178.61,-17.4]]],[[[53.95,-5.77],[53.14,-5.14],[53.31,-5.93],[53.95,-5.77]]],[[[-151.29,-16.68],[-152.59,-16.52],[-151.75,-17.27],[-150.66,-16.97],[-151.29,-16.68]]],[[[-47.16,-24.58],[-45.55,-24.5],[-44.17,-23.28],[-44.71,-22.88],[-47.16,-24.58]]],[[[122.16,20.78],[121.52,20.71],[121.98,19.63],[122.16,20.78]]],[[[145.24,13.19],[145.23,14.33],[144.36,13.36],[145.24,13.19]]],[[[47.54,-9.42],[47.16,-9.93],[47.94,-10.2],[47.54,-9.42]]],[[[-142.44,-18.15],[-141.69,-18.62],[-142.9,-16.86],[-142.11,-15.68],[-144.65,-16.3],[-144.35,-15.49],[-148.91,-15.04],[-148.47,-15.93],[-148.03,-15.34],[-145.91,-16.18],[-145.88,-17.66],[-143.66,-16.8],[-142.8,-17.49],[-143.58,-17.86],[-142.44,-18.15]]],[[[23.4,58.3],[22.79,57.58],[24.14,57.33],[23.4,58.3]]],[[[-143.29,-20.21],[-143.83,-20.6],[-143.06,-21.08],[-143.29,-20.21]]],[[[-61.6,11.05],[-60.91,10.42],[-60.19,11.04],[-60.68,11.61],[-61.6,11.05]]],[[[-154.2,64.42],[-153.73,64.78],[-154.68,64.75],[-154.2,64.42]]],[[[145.64,17.62],[146.23,17.13],[145.98,18.17],[145.64,17.62]]],[[[-154.99,-16.64],[-154.47,-16.71],[-154.45,-15.64],[-154.99,-16.64]]],[[[133.7,36.21],[133.05,36.55],[133.08,35.66],[134.35,35.63],[133.7,36.21]]],[[[-136.8,-21.56],[-136.16,-22.2],[-136.18,-21.37],[-136.8,-21.56]]],[[[70.96,-6.16],[71.51,-6.82],[71.64,-5.9],[70.96,-6.16]]],[[[42.76,-0.6],[43.6,0.56],[42.14,-0.48],[42.76,-0.6]]],[[[-139.44,-19.59],[-138.32,-19.43],[-139.18,-18.35],[-139.44,-19.59]]],[[[73.15,11.61],[72.57,11.96],[72.0,10.66],[73.15,11.61]]],[[[-22.71,15.67],[-22.32,16.4],[-23.04,17.17],[-22.71,15.67]]],[[[-47.82,-24.77],[-48.87,-26.46],[-47.48,-25.3],[-47.82,-24.77]]],[[[-16.86,22.53],[-16.86,21.8],[-15.93,23.54],[-16.86,22.53]]],[[[72.24,-52.99],[73.43,-53.61],[74.34,-52.95],[72.24,-52.99]]],[[[46.6,-8.96],[45.98,-9.51],[46.54,-9.84],[46.6,-8.96]]],[[[-140.54,-17.65],[-141.31,-18.44],[-140.68,-18.68],[-140.54,-17.65]]],[[[-22.91,15.31],[-23.82,15.71],[-25.07,14.91],[-23.29,14.59],[-22.91,15.31]]],[[[-173.7,-18.4],[-174.52,-17.77],[-174.9,-18.97],[-173.95,-19.21],[-173.7,-18.4]]],[[[145.42,15.3],[145.96,14.57],[146.14,15.53],[145.42,15.3]]],[[[-145.31,-14.57],[-144.2,-14.88],[-144.65,-14.01],[-145.31,-14.57]]],[[[-139.19,-22.12],[-138.3,-22.36],[-138.81,-21.5],[-139.19,-22.12]]]]}}]}