{"type":"FeatureCollection","features":[{"type":"Feature","properties":{},"geometry":{"type":"MultiPolygon","coordinates":[[[[168.53,14.85],[168.6,14.46],[169.25,14.36],[169.18,14.75],[168.53,14.85]]],[[[-171.07,56.89],[-169.66,57.16],[-170.75,57.64],[-171.07,56.89]]],[[[-23.95,60.28],[-23.53,60.63],[-24.28,60.63],[-23.95,60.28]]],[[[180.0,69.38],[176.65,70.15],[174.81,69.92],[172.11,70.52],[169.99,70.01],[168.06,70.14],[166.79,69.63],[163.16,70.05],[161.51,69.68],[160.66,70.29],[160.85,70.53],[162.87,70.48],[163.1,70.72],[162.57,70.91],[155.88,71.41],[152.91,71.04],[151.72,71.6],[149.41,70.76],[149.35,70.51],[149.99,70.36],[149.25,70.0],[147.39,70.93],[143.99,70.81],[143.35,70.41],[144.06,69.78],[141.71,68.47],[140.23,67.03],[142.56,66.58],[143.72,65.84],[145.34,65.98],[145.34,66.23],[143.69,66.35],[142.5,67.09],[143.03,67.48],[144.77,67.36],[145.34,66.73],[147.01,66.6],[148.0,65.58],[149.58,65.41],[148.42,64.69],[149.33,63.92],[148.78,63.56],[149.18,62.93],[147.73,62.84],[146.8,63.35],[145.82,62.86],[146.73,62.12],[146.25,61.51],[145.34,61.51],[144.44,61.02],[142.6,61.49],[141.76,60.98],[140.79,61.44],[140.03,60.68],[138.74,60.5],[138.21,60.84],[138.93,61.61],[137.54,61.66],[138.26,62.44],[137.1,63.12],[137.39,63.76],[134.48,63.57],[130.52,64.35],[128.59,64.14],[127.29,64.5],[127.57,65.57],[126.18,65.92],[126.19,66.58],[125.36,66.87],[125.78,67.06],[124.7,67.59],[125.34,68.2],[124.19,68.73],[124.86,69.35],[124.61,69.59],[123.44,69.44],[123.7,69.2],[123.25,69.01],[121.42,68.89],[121.0,68.69],[121.28,68.45],[119.8,68.08],[120.74,67.82],[121.01,67.59],[120.62,67.39],[118.01,67.49],[116.01,67.11],[115.66,66.47],[113.16,66.5],[111.14,65.42],[104.79,66.5],[104.2,67.11],[103.17,67.26],[104.23,67.76],[102.73,68.1],[102.94,68.33],[105.82,68.7],[104.28,69.06],[100.18,67.91],[100.0,67.68],[100.45,67.5],[99.5,66.99],[97.12,66.76],[96.34,67.34],[93.61,67.46],[91.96,69.04],[90.25,69.26],[91.03,69.82],[89.25,70.03],[89.31,70.27],[94.02,70.87],[97.09,70.51],[100.14,70.99],[96.3,71.33],[95.29,71.91],[93.21,71.92],[92.07,72.48],[87.15,72.55],[85.79,73.06],[84.35,73.08],[82.96,72.61],[80.85,72.73],[81.44,73.34],[83.62,73.46],[83.6,73.7],[87.35,73.77],[86.69,74.4],[85.92,74.54],[86.8,75.14],[85.99,75.28],[84.34,74.56],[82.0,74.44],[81.35,73.83],[79.16,73.68],[79.24,73.44],[77.99,72.93],[77.13,73.28],[77.8,73.41],[77.7,73.66],[76.91,73.76],[72.92,73.13],[70.97,73.77],[69.56,73.69],[69.77,73.45],[68.85,72.9],[69.07,72.67],[68.53,72.51],[68.74,72.28],[68.22,72.12],[68.43,71.9],[66.69,71.64],[66.92,71.42],[66.44,71.25],[66.67,71.03],[65.74,70.1],[66.61,69.82],[66.82,69.6],[66.38,69.44],[61.83,69.82],[59.66,70.54],[57.92,70.43],[57.66,71.02],[56.62,71.26],[56.99,71.44],[55.56,71.87],[55.95,72.45],[57.11,72.61],[56.78,73.22],[59.85,74.11],[59.48,74.33],[59.98,74.51],[61.36,74.66],[61.0,74.88],[61.53,75.06],[62.99,75.19],[62.64,75.42],[63.22,75.6],[69.56,76.05],[69.3,76.28],[70.01,76.45],[69.74,76.69],[70.48,76.85],[70.22,77.09],[68.45,76.99],[68.74,76.76],[67.64,76.18],[61.91,75.87],[61.34,75.69],[61.71,75.46],[60.24,75.32],[59.72,75.13],[60.11,74.91],[56.86,74.01],[57.25,73.8],[56.82,73.61],[55.59,73.84],[56.02,74.03],[55.6,74.24],[57.36,74.6],[56.94,74.81],[57.42,75.0],[56.99,75.22],[58.91,75.57],[57.54,75.81],[54.25,75.27],[54.72,75.06],[54.28,74.87],[54.75,74.26],[53.49,74.08],[53.1,73.88],[53.54,73.68],[51.99,73.3],[52.49,72.71],[51.39,72.52],[51.06,72.33],[51.48,72.14],[50.12,71.75],[51.25,71.56],[51.73,70.98],[54.87,70.35],[56.56,70.49],[59.48,69.77],[59.76,69.56],[56.92,68.75],[55.23,69.2],[52.68,69.26],[52.14,68.7],[49.55,68.34],[49.3,68.53],[49.66,68.72],[50.65,68.91],[50.52,69.48],[48.71,69.85],[47.07,69.65],[46.79,69.83],[47.03,70.02],[45.54,70.37],[45.57,70.94],[45.12,71.12],[38.06,71.94],[27.33,72.52],[26.05,72.98],[24.77,72.6],[17.23,72.42],[11.99,71.27],[12.16,71.07],[11.38,70.64],[9.09,71.22],[5.21,70.55],[5.27,70.05],[3.54,69.66],[3.24,69.47],[3.41,68.93],[2.32,68.53],[3.29,68.2],[2.96,67.65],[3.88,67.33],[3.55,66.79],[4.42,66.46],[3.43,66.08],[3.38,65.72],[4.21,65.41],[4.15,65.06],[3.22,64.67],[3.32,64.33],[2.38,64.11],[2.53,63.59],[1.61,63.35],[1.77,62.83],[0.86,62.58],[1.11,62.24],[0.63,62.02],[0.87,61.67],[0.4,61.45],[0.57,60.91],[-0.3,60.64],[-1.28,61.1],[-2.67,60.37],[-1.75,59.72],[-4.48,59.36],[-3.53,58.71],[-4.97,58.89],[-7.67,58.44],[-7.36,58.09],[-7.78,57.81],[-7.52,57.25],[-8.34,56.67],[-7.33,56.25],[-9.9,55.71],[-11.09,54.57],[-12.14,54.53],[-12.9,53.67],[-13.94,53.61],[-14.31,53.05],[-15.34,52.98],[-15.7,52.41],[-18.42,51.77],[-20.08,50.95],[-21.78,51.04],[-25.0,49.73],[-25.24,49.11],[-28.13,48.55],[-29.58,47.57],[-31.82,47.46],[-32.34,46.9],[-34.75,46.33],[-36.63,45.17],[-37.01,44.35],[-38.18,44.15],[-40.48,44.6],[-41.86,44.19],[-42.69,44.77],[-44.55,44.84],[-45.06,45.34],[-44.93,45.76],[-43.79,46.02],[-43.5,46.84],[-42.67,47.15],[-43.97,47.98],[-43.67,48.79],[-44.21,49.28],[-44.06,49.68],[-45.42,50.46],[-46.39,50.35],[-51.1,52.83],[-53.91,52.96],[-56.89,54.11],[-57.05,54.76],[-59.42,55.42],[-59.64,56.07],[-60.32,56.29],[-60.1,56.95],[-61.04,57.38],[-60.83,58.04],[-62.29,58.45],[-62.59,59.11],[-63.35,59.31],[-63.17,59.98],[-65.13,61.03],[-64.14,61.51],[-64.51,62.16],[-63.47,62.64],[-64.65,63.05],[-63.59,63.52],[-63.97,64.18],[-63.71,64.41],[-64.96,64.81],[-61.42,65.32],[-61.15,65.99],[-61.47,66.2],[-60.23,66.65],[-61.53,67.08],[-61.22,67.3],[-61.56,67.52],[-65.34,68.12],[-65.84,68.76],[-66.95,68.94],[-65.66,69.42],[-67.23,69.81],[-66.94,70.04],[-67.38,70.24],[-67.08,70.47],[-68.76,70.84],[-68.46,71.07],[-68.94,71.27],[-71.0,71.39],[-71.76,72.01],[-73.91,72.1],[-74.8,72.7],[-76.21,72.82],[-74.89,73.35],[-76.98,73.64],[-76.75,73.88],[-77.39,74.05],[-78.48,73.74],[-77.84,73.57],[-78.05,73.34],[-77.43,73.17],[-77.64,72.93],[-79.09,73.03],[-78.89,73.27],[-79.54,73.43],[-79.34,73.67],[-80.49,74.24],[-78.28,74.86],[-78.05,75.09],[-78.75,75.26],[-78.52,75.49],[-79.25,75.65],[-77.79,76.19],[-78.54,76.35],[-78.29,76.59],[-76.99,76.88],[-77.77,77.05],[-77.49,77.28],[-76.11,77.56],[-76.92,77.73],[-79.39,77.37],[-79.63,77.14],[-78.82,76.98],[-79.07,76.75],[-83.12,76.44],[-89.45,76.69],[-86.5,77.01],[-86.37,77.24],[-87.27,77.38],[-87.15,77.61],[-85.19,77.57],[-85.34,77.34],[-84.46,77.2],[-83.24,77.52],[-86.5,78.78],[-86.35,79.01],[-87.38,79.14],[-89.86,78.47],[-91.96,78.47],[-92.96,79.05],[-91.79,79.4],[-96.41,79.82],[-95.31,80.41],[-94.07,80.54],[-95.37,80.87],[-101.18,79.95],[-99.71,79.41],[-96.27,79.13],[-99.49,78.95],[-103.3,79.64],[-106.49,79.39],[-106.25,79.16],[-107.17,79.0],[-105.57,78.48],[-107.67,77.53],[-105.04,76.71],[-106.39,76.15],[-107.34,76.22],[-107.55,76.45],[-106.79,76.62],[-107.0,76.85],[-108.22,77.13],[-112.12,76.47],[-113.39,76.74],[-112.3,77.33],[-108.71,77.59],[-108.96,77.81],[-108.15,77.98],[-108.4,78.21],[-107.56,78.38],[-109.22,78.88],[-114.36,78.64],[-115.12,78.45],[-114.73,78.23],[-115.77,77.64],[-120.11,77.69],[-120.73,77.49],[-120.26,77.29],[-124.03,76.25],[-123.56,76.05],[-124.05,75.85],[-123.59,75.65],[-119.87,75.65],[-113.6,74.2],[-109.88,74.43],[-108.8,75.01],[-106.87,74.65],[-103.77,74.84],[-102.44,75.39],[-99.58,74.41],[-101.85,74.2],[-101.74,73.96],[-103.53,73.01],[-102.65,72.69],[-103.06,72.05],[-100.98,72.03],[-100.1,71.45],[-103.33,71.16],[-104.04,71.25],[-103.68,71.89],[-104.53,72.21],[-103.92,72.37],[-104.04,72.61],[-104.94,72.93],[-103.79,73.49],[-104.87,74.04],[-108.63,73.91],[-109.64,73.32],[-112.36,73.07],[-115.26,73.64],[-115.54,73.86],[-115.0,74.05],[-115.28,74.28],[-116.42,74.53],[-118.65,74.38],[-121.05,74.84],[-124.98,74.62],[-125.41,74.41],[-124.97,74.22],[-125.39,74.01],[-124.96,73.82],[-125.37,73.61],[-125.01,72.99],[-126.14,72.78],[-126.5,72.16],[-124.35,71.75],[-124.01,71.54],[-124.38,71.33],[-123.04,70.91],[-119.03,71.45],[-118.89,70.81],[-117.0,70.31],[-118.51,69.95],[-117.59,69.7],[-117.35,69.47],[-117.75,69.28],[-120.5,70.02],[-122.2,69.85],[-124.44,70.5],[-126.11,70.3],[-128.48,70.89],[-129.15,70.88],[-129.38,70.26],[-131.07,70.4],[-132.92,69.87],[-135.1,70.08],[-137.65,69.22],[-138.38,69.75],[-141.28,69.81],[-142.14,70.33],[-147.58,70.39],[-148.67,70.89],[-150.57,70.78],[-151.77,71.26],[-157.66,71.51],[-160.62,70.53],[-163.11,70.37],[-162.99,70.13],[-164.36,69.17],[-166.66,68.96],[-166.85,68.32],[-162.56,66.51],[-163.59,66.42],[-164.96,67.02],[-165.75,66.45],[-167.35,66.4],[-168.06,65.82],[-170.89,66.71],[-170.84,67.35],[-174.38,67.35],[-175.49,67.84],[-175.08,68.03],[-175.32,68.26],[-180.0,69.38],[-180.0,-90.0],[180.0,-90.0],[180.0,69.38]]],[[[105.95,73.52],[105.63,73.29],[107.54,72.92],[111.26,73.66],[113.51,73.46],[113.95,73.68],[113.49,73.9],[113.93,74.12],[113.46,74.34],[113.92,74.56],[113.43,74.78],[113.9,75.0],[112.41,75.22],[109.6,74.73],[109.2,74.51],[109.73,74.3],[109.34,74.07],[105.95,73.52]]],[[[143.77,73.63],[142.88,74.27],[140.38,74.36],[139.6,74.21],[139.69,73.95],[141.3,73.99],[142.19,73.62],[139.86,73.44],[140.81,72.82],[138.61,72.63],[138.13,71.96],[134.67,71.67],[132.95,72.09],[131.54,71.99],[130.56,71.39],[129.57,71.71],[130.94,72.74],[130.73,72.99],[127.38,73.93],[123.73,74.12],[122.24,73.96],[121.49,73.32],[117.63,74.09],[114.85,73.67],[117.55,73.65],[120.45,72.91],[123.87,72.77],[124.42,72.97],[124.12,73.21],[122.92,73.49],[123.48,73.69],[127.04,73.49],[129.5,72.63],[128.9,72.45],[129.13,72.2],[128.55,72.02],[128.78,71.77],[128.22,71.59],[128.44,71.34],[131.13,70.65],[133.01,70.92],[131.91,71.49],[132.51,71.67],[134.2,71.25],[140.39,71.65],[139.48,72.27],[141.65,72.45],[142.28,73.1],[144.58,73.25],[143.77,73.63]]],[[[-171.6,-14.37],[-171.25,-14.02],[-172.13,-13.2],[-172.94,-13.45],[-172.31,-14.22],[-171.6,-14.37]]],[[[134.66,66.75],[133.8,67.34],[134.3,67.5],[137.99,66.94],[135.85,67.98],[132.4,67.74],[131.25,66.74],[132.75,66.1],[133.56,66.67],[134.66,66.75]]],[[[-169.83,-14.32],[-169.35,-14.42],[-169.72,-13.92],[-170.13,-14.05],[-169.83,-14.32]]],[[[-23.38,74.14],[-22.02,74.09],[-21.39,73.95],[-21.48,73.72],[-24.84,73.7],[-24.3,73.1],[-25.69,72.41],[-23.84,72.25],[-22.87,71.28],[-24.57,71.68],[-26.39,71.59],[-25.85,70.99],[-27.62,69.93],[-25.92,70.27],[-23.69,70.23],[-23.21,69.86],[-25.46,69.43],[-26.59,68.73],[-31.87,68.44],[-33.21,67.3],[-34.7,67.11],[-35.03,66.48],[-36.02,66.43],[-36.83,65.88],[-37.99,66.29],[-38.76,65.73],[-40.7,65.56],[-41.95,63.27],[-43.21,62.99],[-43.44,62.58],[-42.68,62.04],[-43.14,61.21],[-44.31,60.91],[-45.56,61.49],[-47.22,61.22],[-48.38,61.54],[-48.4,62.2],[-49.61,62.52],[-49.66,63.18],[-50.39,63.46],[-49.9,64.08],[-49.0,64.23],[-50.74,65.02],[-50.23,65.64],[-50.45,65.88],[-52.36,65.55],[-53.19,65.82],[-52.72,66.45],[-49.74,66.93],[-49.8,67.59],[-50.67,67.86],[-49.92,68.91],[-50.16,69.14],[-49.73,69.33],[-50.94,69.84],[-50.32,70.45],[-51.6,70.96],[-51.14,71.15],[-51.43,71.38],[-52.49,71.65],[-52.03,71.84],[-52.34,72.07],[-54.37,71.94],[-54.71,72.17],[-54.26,72.36],[-54.6,72.59],[-55.78,72.84],[-55.22,73.46],[-55.6,73.68],[-55.11,73.88],[-56.8,74.34],[-56.22,74.96],[-58.06,75.41],[-57.54,75.61],[-58.01,75.83],[-61.04,76.27],[-68.26,76.2],[-69.16,76.8],[-70.92,76.95],[-69.03,77.42],[-65.66,77.49],[-71.98,78.16],[-65.19,79.12],[-64.64,79.32],[-65.39,79.52],[-73.58,78.51],[-74.42,78.69],[-72.39,79.17],[-73.26,79.35],[-72.84,79.56],[-69.19,80.06],[-71.48,80.21],[-77.08,79.19],[-76.17,79.02],[-76.51,78.8],[-75.63,78.63],[-75.97,78.41],[-73.15,78.12],[-73.52,77.89],[-72.36,77.32],[-73.79,77.05],[-74.12,76.82],[-73.4,76.64],[-70.61,76.54],[-69.66,75.95],[-66.44,75.61],[-62.55,76.07],[-59.51,75.64],[-59.03,75.43],[-59.52,75.23],[-57.65,74.78],[-58.14,74.58],[-57.71,74.36],[-58.22,73.74],[-56.54,73.28],[-57.0,73.08],[-56.62,72.86],[-57.12,72.23],[-55.95,71.99],[-55.6,71.77],[-56.03,71.57],[-54.59,71.09],[-55.02,70.89],[-54.7,70.66],[-55.11,70.46],[-54.8,70.24],[-55.29,69.61],[-53.99,69.12],[-54.39,68.92],[-54.1,68.69],[-54.49,68.49],[-54.2,68.26],[-54.58,68.06],[-54.3,67.83],[-54.76,67.19],[-53.59,66.71],[-54.14,65.64],[-53.06,65.15],[-53.4,64.95],[-52.59,64.69],[-52.47,64.02],[-51.91,63.99],[-51.7,63.76],[-52.03,63.56],[-51.27,63.29],[-51.07,63.06],[-51.4,62.86],[-50.47,62.36],[-50.79,62.16],[-50.6,61.93],[-49.39,61.62],[-49.35,60.96],[-43.54,59.49],[-42.42,59.79],[-43.12,60.32],[-41.96,60.61],[-42.67,61.15],[-41.49,61.43],[-41.24,61.84],[-41.95,62.38],[-41.7,62.8],[-40.45,63.07],[-39.59,64.28],[-40.34,64.84],[-38.98,65.09],[-38.66,65.49],[-36.22,65.55],[-35.41,66.09],[-34.43,66.15],[-34.5,66.39],[-33.05,66.58],[-31.78,67.95],[-25.56,68.48],[-24.97,69.07],[-23.37,69.16],[-20.82,70.49],[-21.18,71.1],[-20.48,71.42],[-21.89,72.55],[-19.69,73.28],[-20.06,73.89],[-16.53,75.13],[-17.62,75.67],[-19.09,75.74],[-17.97,76.28],[-18.66,76.43],[-18.5,76.66],[-17.47,76.96],[-18.18,77.12],[-18.01,77.35],[-16.91,77.64],[-18.25,78.18],[-16.86,78.71],[-18.87,79.6],[-15.09,80.29],[-16.01,80.45],[-15.57,80.66],[-17.97,80.78],[-18.37,80.58],[-17.39,80.42],[-17.78,80.21],[-22.14,79.62],[-22.26,79.39],[-20.58,78.87],[-20.72,78.64],[-24.63,78.29],[-23.82,77.92],[-24.86,77.36],[-23.32,76.85],[-25.15,75.96],[-22.88,75.78],[-21.17,76.19],[-19.89,75.66],[-20.8,75.35],[-20.36,74.74],[-23.38,74.14]],[[-19.81,77.19],[-21.47,77.26],[-20.44,77.57],[-19.67,77.42],[-19.81,77.19]],[[-52.86,67.11],[-53.75,67.37],[-52.74,67.54],[-51.6,67.05],[-52.86,67.11]],[[-52.79,70.8],[-51.48,70.3],[-53.65,70.41],[-53.96,70.64],[-53.53,70.83],[-52.79,70.8]]],[[[-180.0,18.46],[-173.38,18.73],[-172.53,19.34],[-171.57,19.32],[-170.04,18.65],[-169.42,18.84],[-166.06,16.97],[-164.65,17.09],[-164.18,16.62],[-162.39,16.49],[-161.83,16.88],[-160.42,16.54],[-159.44,17.12],[-158.81,16.84],[-156.11,18.12],[-155.47,17.83],[-154.18,18.35],[-153.96,19.0],[-151.96,19.65],[-151.73,20.28],[-151.02,20.42],[-150.89,21.28],[-149.77,22.24],[-149.6,24.19],[-147.94,25.69],[-147.72,26.94],[-149.35,28.22],[-150.92,28.21],[-152.65,29.03],[-154.62,29.22],[-156.08,28.93],[-157.58,29.25],[-158.19,28.87],[-158.86,29.12],[-159.47,28.74],[-164.64,28.93],[-165.22,28.54],[-166.81,28.55],[-168.3,29.43],[-170.97,29.48],[-171.5,29.91],[-179.38,29.73],[-180.0,29.25],[-180.0,18.46]]],[[[180.0,29.25],[176.74,29.24],[174.93,28.42],[174.19,28.56],[171.79,26.97],[171.86,26.53],[171.36,26.03],[171.94,22.19],[172.54,21.84],[172.65,21.0],[175.18,20.03],[175.82,20.31],[176.42,19.54],[177.46,19.65],[177.64,19.05],[178.27,19.32],[180.0,18.46],[180.0,29.25]]],[[[-136.54,-21.99],[-136.16,-22.2],[-136.05,-21.58],[-136.81,-21.15],[-136.54,-21.99]]],[[[-160.14,-19.17],[-159.44,-19.06],[-159.36,-18.63],[-160.06,-18.74],[-160.14,-19.17]]],[[[-154.47,-16.71],[-154.35,-15.87],[-154.71,-15.6],[-154.99,-16.64],[-154.47,-16.71]]],[[[-55.17,-63.64],[-54.98,-63.41],[-55.5,-62.81],[-56.98,-63.36],[-55.17,-63.64]]],[[[-163.2,-12.81],[-163.46,-13.4],[-163.13,-13.67],[-162.88,-13.08],[-163.2,-12.81]]],[[[-150.57,-10.1],[-149.83,-10.19],[-150.52,-9.7],[-150.57,-10.1]]],[[[-141.06,-18.45],[-140.56,-18.48],[-140.66,-17.43],[-141.43,-18.22],[-141.06,-18.45]]],[[[172.22,53.29],[172.4,52.49],[174.07,52.18],[174.8,52.63],[172.22,53.29]]],[[[146.4,65.47],[146.39,65.22],[147.44,65.21],[146.94,65.59],[146.4,65.47]]],[[[-176.0,-44.31],[-175.76,-44.17],[-176.2,-43.62],[-177.27,-43.72],[-176.48,-44.59],[-176.0,-44.31]]],[[[62.92,-19.77],[63.58,-20.02],[63.88,-19.68],[63.23,-19.44],[62.92,-19.77]]],[[[139.32,74.98],[137.34,75.44],[137.2,75.69],[138.04,75.85],[137.9,76.11],[136.91,76.2],[135.42,75.63],[137.74,74.67],[144.5,74.8],[143.61,75.18],[139.32,74.98]]],[[[77.7,-38.95],[77.99,-38.85],[77.76,-38.47],[77.44,-38.82],[77.7,-38.95]]],[[[-140.97,-13.93],[-141.58,-14.08],[-141.59,-14.49],[-140.98,-14.33],[-140.97,-13.93]]],[[[-79.59,-26.62],[-79.88,-26.06],[-80.36,-26.1],[-80.06,-26.67],[-79.59,-26.62]]],[[[-8.44,58.3],[-9.27,57.73],[-8.13,57.95],[-8.44,58.3]]],[[[-83.55,79.65],[-86.04,79.47],[-84.16,78.97],[-82.97,79.05],[-82.74,79.28],[-83.76,79.42],[-83.55,79.65]]],[[[147.91,74.78],[147.95,75.04],[146.25,75.57],[146.27,75.83],[144.45,75.83],[146.21,74.8],[147.91,74.78]]],[[[143.88,72.35],[145.35,71.58],[146.07,71.96],[145.35,72.35],[146.09,72.48],[149.57,71.53],[151.22,72.26],[148.29,72.33],[146.87,72.86],[143.84,72.86],[143.1,72.73],[143.88,72.35]]],[[[180.0,52.34],[177.25,52.31],[176.52,51.88],[179.52,51.33],[180.0,51.53],[180.0,52.34]]],[[[-180.0,51.53],[-179.74,51.74],[-179.99,52.35],[-180.0,51.53]]],[[[-72.54,-49.48],[-72.65,-49.88],[-72.1,-49.75],[-72.54,-49.48]]],[[[97.26,-12.17],[96.87,-11.7],[96.4,-12.34],[97.02,-12.49],[97.26,-12.17]]],[[[67.41,77.06],[66.03,77.35],[65.0,76.77],[58.59,76.19],[59.99,75.94],[66.35,76.48],[67.41,77.06]]],[[[25.98,78.38],[30.11,78.75],[31.41,79.28],[27.04,79.16],[29.46,80.02],[23.36,80.9],[19.62,80.78],[19.78,80.55],[17.34,80.53],[15.46,80.04],[8.74,79.83],[10.72,79.34],[9.38,78.83],[10.85,78.55],[11.15,78.33],[10.36,78.19],[10.66,77.98],[13.57,77.97],[13.81,77.75],[13.03,77.62],[13.27,77.4],[15.44,77.02],[15.63,76.81],[14.88,76.68],[15.99,76.38],[18.41,76.53],[17.18,77.06],[19.38,77.85],[22.46,77.09],[25.11,77.17],[24.12,77.74],[25.02,78.06],[21.74,79.09],[25.97,79.06],[24.95,78.73],[25.98,78.38]],[[19.76,78.86],[17.34,78.05],[16.1,78.36],[16.98,78.49],[16.79,78.71],[11.37,78.9],[12.83,79.41],[15.45,79.02],[17.14,79.5],[19.76,78.86]],[[24.78,80.09],[27.1,79.84],[24.81,79.87],[22.68,79.42],[20.09,80.1],[24.78,80.09]]],[[[-158.0,-8.88],[-158.4,-9.03],[-158.07,-9.28],[-157.52,-8.96],[-158.0,-8.88]]],[[[-139.39,-9.56],[-139.39,-10.32],[-138.82,-10.18],[-138.82,-9.42],[-139.39,-9.56]]],[[[-173.53,61.02],[-173.85,60.84],[-173.05,60.39],[-173.83,60.23],[-173.97,59.84],[-171.64,60.29],[-173.53,61.02]]],[[[-60.0,-52.73],[-58.93,-53.2],[-58.85,-52.63],[-57.94,-52.35],[-57.46,-51.19],[-61.39,-50.99],[-61.51,-51.54],[-62.04,-51.76],[-61.25,-52.08],[-61.2,-52.44],[-60.0,-52.73]]],[[[-136.49,-18.88],[-136.13,-18.69],[-136.26,-18.08],[-136.62,-18.27],[-136.49,-18.88]]],[[[-144.63,-15.88],[-144.35,-15.49],[-144.99,-15.64],[-145.72,-15.15],[-146.14,-15.74],[-146.59,-14.86],[-148.36,-14.67],[-148.91,-15.04],[-148.47,-15.93],[-148.03,-15.34],[-147.01,-15.44],[-146.57,-16.33],[-145.91,-16.18],[-145.46,-17.07],[-145.88,-17.66],[-145.23,-17.51],[-145.06,-16.89],[-144.46,-17.57],[-143.66,-16.8],[-142.8,-17.49],[-143.56,-17.44],[-143.58,-17.86],[-142.56,-17.93],[-142.08,-18.81],[-141.68,-18.2],[-142.9,-16.86],[-142.75,-16.25],[-142.14,-16.5],[-142.11,-15.68],[-143.64,-16.38],[-144.65,-16.3],[-144.63,-15.88]]],[[[101.54,76.89],[100.18,76.59],[101.95,76.46],[102.28,76.7],[101.54,76.89]]],[[[-170.66,62.88],[-169.13,62.75],[-168.53,63.32],[-170.01,64.08],[-172.72,63.65],[-171.85,63.18],[-170.45,63.28],[-170.66,62.88]]],[[[94.32,76.41],[94.14,76.16],[94.93,76.0],[97.63,75.98],[97.87,76.22],[97.1,76.4],[97.34,76.64],[98.64,76.95],[94.9,77.15],[93.68,76.82],[93.51,76.57],[94.32,76.41]]],[[[-171.63,-9.41],[-171.8,-8.77],[-172.02,-9.53],[-171.63,-9.41]]],[[[-169.79,16.74],[-169.57,16.3],[-169.06,16.7],[-169.52,17.15],[-169.79,16.74]]],[[[-154.61,-4.16],[-155.05,-3.69],[-155.44,-3.84],[-155.01,-4.31],[-154.61,-4.16]]],[[[-151.03,-16.71],[-152.02,-16.16],[-152.59,-16.52],[-151.81,-16.62],[-151.75,-17.27],[-150.66,-16.97],[-150.62,-16.54],[-151.03,-16.71]]],[[[55.77,79.98],[57.76,79.74],[62.01,80.07],[63.2,80.68],[65.61,80.81],[65.1,81.05],[66.11,81.23],[65.59,81.47],[63.4,81.75],[56.72,81.86],[54.22,81.67],[53.45,81.46],[54.28,81.24],[53.54,81.04],[49.61,81.23],[45.01,80.53],[45.93,80.34],[45.45,80.12],[48.46,79.76],[55.77,79.98]]],[[[19.45,74.61],[17.87,74.81],[19.64,74.2],[20.22,74.51],[19.45,74.61]]],[[[88.66,75.85],[87.71,75.5],[87.65,75.25],[88.44,75.11],[90.28,75.55],[91.97,75.5],[93.18,76.08],[88.66,75.85]]],[[[-18.59,63.37],[-16.48,63.6],[-15.84,64.14],[-14.59,64.16],[-12.85,65.05],[-12.93,65.64],[-14.11,65.86],[-14.59,66.59],[-16.35,66.72],[-17.45,66.32],[-18.15,66.83],[-19.81,66.09],[-21.49,66.62],[-23.36,66.67],[-25.38,65.52],[-24.08,65.16],[-24.6,64.58],[-22.46,64.43],[-23.0,63.86],[-21.33,63.82],[-20.32,62.98],[-18.59,63.37]],[[-17.26,64.69],[-16.08,64.5],[-17.45,64.24],[-17.72,64.6],[-17.26,64.69]]],[[[30.68,80.11],[34.08,79.89],[35.55,80.19],[32.06,80.42],[30.68,80.11]]],[[[141.62,76.19],[140.64,76.3],[139.75,76.15],[139.85,75.9],[143.52,75.95],[142.53,76.33],[141.62,76.19]]],[[[-145.81,-14.52],[-146.03,-14.08],[-146.56,-14.45],[-145.81,-14.52]]],[[[-92.77,80.89],[-86.82,80.06],[-83.1,80.11],[-81.22,80.64],[-90.15,80.89],[-88.52,81.45],[-89.8,81.57],[-89.64,81.8],[-87.88,82.14],[-89.27,82.26],[-92.58,81.58],[-96.72,81.43],[-92.77,80.89]]],[[[-138.68,-21.72],[-139.07,-21.49],[-139.19,-22.12],[-138.43,-22.57],[-138.68,-21.72]]],[[[-171.26,-3.47],[-170.6,-3.58],[-171.02,-3.12],[-171.26,-3.47]]],[[[90.95,77.04],[91.08,77.29],[90.18,77.44],[89.06,77.09],[90.95,77.04]]],[[[175.7,-1.96],[175.88,-1.65],[175.44,-1.75],[175.44,-2.09],[175.7,-1.96]]],[[[-140.34,-21.44],[-140.99,-21.62],[-141.0,-22.05],[-140.35,-21.87],[-140.34,-21.44]]],[[[-69.95,80.85],[-70.48,80.64],[-69.55,80.46],[-65.43,80.91],[-69.95,80.85]]],[[[176.41,-1.4],[176.76,-1.46],[176.4,-1.05],[175.87,-1.31],[176.41,-1.4]]],[[[-68.97,-45.34],[-69.44,-45.46],[-69.04,-45.72],[-68.4,-45.42],[-68.97,-45.34]]],[[[136.07,74.61],[134.76,74.03],[136.5,73.85],[136.36,74.1],[137.1,74.26],[136.97,74.51],[136.07,74.61]]],[[[158.94,-54.87],[159.33,-54.54],[158.61,-54.53],[158.94,-54.87]]],[[[52.57,-46.3],[52.05,-46.16],[51.56,-46.59],[52.09,-46.73],[52.57,-46.3]]],[[[-159.34,3.43],[-158.95,3.6],[-159.0,4.25],[-159.8,3.92],[-159.34,3.43]]],[[[-11.9,63.24],[-12.46,62.95],[-11.73,62.89],[-11.9,63.24]]],[[[175.87,-5.49],[176.11,-5.9],[176.45,-5.79],[176.21,-5.38],[175.87,-5.49]]],[[[-141.25,-15.95],[-139.79,-16.05],[-140.27,-15.61],[-141.25,-15.54],[-141.25,-15.95]]],[[[-150.97,-17.36],[-150.64,-18.05],[-149.59,-18.16],[-149.03,-17.79],[-149.47,-16.88],[-150.34,-17.65],[-150.97,-17.36]]],[[[180.0,-9.03],[179.68,-9.73],[180.0,-9.67],[180.0,-9.03]]],[[[-9.99,-40.0],[-10.07,-40.43],[-9.74,-40.47],[-9.53,-40.27],[-9.99,-40.0]]],[[[-134.5,-23.67],[-134.27,-23.26],[-135.27,-22.84],[-135.26,-23.25],[-134.5,-23.67]]],[[[-158.72,-19.61],[-158.27,-20.12],[-157.02,-20.09],[-158.65,-19.18],[-159.08,-19.33],[-158.72,-19.61]]],[[[153.02,47.3],[153.36,47.39],[153.24,48.01],[153.65,48.34],[153.04,48.4],[151.37,46.85],[152.55,46.73],[153.02,47.3]]],[[[-161.3,-10.42],[-160.97,-10.67],[-160.82,-9.88],[-161.3,-10.42]]],[[[-140.32,-19.33],[-141.07,-18.87],[-141.45,-19.06],[-140.57,-19.74],[-140.32,-19.33]]],[[[-36.14,-55.12],[-35.39,-54.67],[-35.74,-54.1],[-38.58,-54.04],[-36.14,-55.12]]],[[[70.38,-49.98],[70.73,-49.9],[70.56,-49.52],[71.07,-48.98],[69.3,-48.77],[68.58,-48.32],[68.63,-48.92],[68.19,-49.22],[68.49,-49.98],[70.38,-49.98]]],[[[-138.81,-18.99],[-138.81,-18.58],[-139.43,-18.34],[-139.06,-18.98],[-139.44,-19.59],[-138.44,-19.63],[-138.81,-18.99]]],[[[150.41,74.61],[151.4,74.98],[150.58,75.13],[150.67,75.38],[148.91,75.42],[148.85,75.16],[150.41,74.61]]],[[[-140.19,-9.67],[-139.5,-9.35],[-139.39,-8.6],[-140.46,-8.69],[-140.54,-9.44],[-140.19,-9.67]]],[[[110.95,66.7],[110.06,66.47],[111.02,66.27],[111.3,66.49],[110.95,66.7]]],[[[-145.04,-14.18],[-145.42,-14.35],[-145.33,-14.98],[-144.33,-15.07],[-144.65,-14.01],[-145.04,-14.18]]],[[[165.37,55.08],[168.23,54.18],[168.79,54.43],[168.41,55.0],[166.61,55.22],[166.21,55.77],[165.23,55.46],[165.37,55.08]]],[[[101.44,77.56],[101.11,77.32],[101.87,77.13],[103.34,77.42],[101.44,77.56]]],[[[109.98,66.9],[110.25,67.11],[109.89,67.32],[108.98,67.09],[109.98,66.9]]],[[[-12.35,-36.99],[-13.09,-37.34],[-12.98,-37.58],[-12.13,-37.47],[-11.92,-37.27],[-12.35,-36.99]]],[[[71.97,-5.12],[71.29,-5.39],[72.32,-5.63],[72.58,-5.32],[71.97,-5.12]]],[[[-180.0,70.79],[-177.63,70.73],[-177.03,71.37],[-179.27,71.87],[-180.0,71.66],[-180.0,70.79]]],[[[180.0,71.66],[178.26,71.46],[177.81,70.81],[180.0,70.79],[180.0,71.66]]],[[[77.3,-37.72],[78.07,-38.12],[77.61,-37.37],[77.3,-37.72]]],[[[-72.74,-52.15],[-72.17,-52.01],[-72.63,-51.75],[-72.74,-52.15]]],[[[-138.68,-21.3],[-138.31,-21.1],[-138.44,-20.47],[-138.81,-20.66],[-138.68,-21.3]]],[[[-169.84,56.78],[-170.01,56.41],[-169.32,56.54],[-169.84,56.78]]],[[[-157.05,1.41],[-157.0,1.83],[-157.6,2.13],[-157.65,1.7],[-157.05,1.41]]],[[[-140.31,-7.93],[-141.01,-7.86],[-140.62,-8.29],[-140.31,-7.93]]],[[[-5.72,62.07],[-6.37,62.74],[-7.76,61.97],[-6.74,61.16],[-6.28,61.42],[-6.6,61.76],[-5.72,62.07]]],[[[-161.75,5.68],[-162.41,6.62],[-162.49,5.77],[-161.75,5.68]]],[[[-45.19,-60.37],[-46.14,-60.53],[-45.47,-61.08],[-44.98,-61.0],[-45.19,-60.37]]],[[[116.08,67.97],[115.73,67.76],[116.05,67.54],[117.05,67.73],[116.08,67.97]]],[[[-169.6,-19.14],[-169.48,-18.72],[-170.34,-18.97],[-169.71,-19.55],[-169.6,-19.14]]],[[[-54.94,-61.48],[-54.43,-61.43],[-54.26,-61.2],[-54.6,-61.02],[-56.11,-61.16],[-54.94,-61.48]]],[[[18.29,-25.94],[17.82,-25.33],[17.75,-25.97],[18.29,-25.94]]],[[[173.99,-0.51],[175.09,-1.68],[174.61,-0.42],[173.99,-0.51]]],[[[-7.43,71.2],[-7.2,71.41],[-7.59,71.58],[-8.22,71.53],[-10.09,70.78],[-7.28,70.82],[-7.05,71.03],[-7.43,71.2]]],[[[-62.62,-62.82],[-62.87,-63.04],[-62.57,-63.24],[-61.0,-62.76],[-59.61,-62.89],[-57.19,-61.89],[-58.02,-61.74],[-59.71,-62.48],[-61.07,-62.34],[-62.62,-62.82]]],[[[72.1,-7.25],[72.69,-7.68],[72.56,-7.07],[72.1,-7.25]]],[[[-34.07,64.7],[-33.15,64.75],[-33.69,65.09],[-34.07,64.7]]],[[[3.48,-54.29],[2.87,-54.5],[3.47,-54.68],[3.48,-54.29]]],[[[169.09,-52.86],[169.39,-52.49],[168.72,-52.54],[169.09,-52.86]]],[[[117.11,68.17],[118.15,68.36],[117.16,68.6],[116.79,68.39],[117.11,68.17]]],[[[166.6,-50.8],[166.26,-50.47],[165.63,-51.2],[166.6,-50.8]]],[[[-66.97,79.9],[-65.0,80.12],[-67.24,80.29],[-67.8,80.09],[-66.97,79.9]]],[[[25.15,76.73],[23.47,76.54],[26.86,76.48],[25.15,76.73]]],[[[108.14,77.14],[107.02,77.11],[106.59,76.87],[107.26,76.67],[110.53,76.74],[108.14,77.14]]],[[[-159.31,-21.3],[-159.67,-21.02],[-160.3,-21.36],[-159.93,-21.65],[-159.31,-21.3]]],[[[83.49,75.67],[82.59,76.04],[80.98,75.54],[81.88,75.18],[83.49,75.67]]],[[[19.66,-28.38],[18.88,-28.83],[19.71,-28.79],[19.66,-28.38]]],[[[50.61,-46.09],[50.0,-46.14],[50.34,-46.68],[50.64,-46.66],[50.61,-46.09]]],[[[-143.3,-20.64],[-143.67,-19.97],[-143.71,-20.83],[-143.06,-21.08],[-143.3,-20.64]]],[[[73.89,-53.28],[74.34,-52.95],[72.99,-52.82],[73.13,-53.45],[73.89,-53.28]]],[[[176.46,52.28],[176.4,52.69],[175.83,52.47],[176.46,52.28]]],[[[-30.99,65.93],[-31.42,65.55],[-30.48,65.58],[-30.99,65.93]]],[[[-171.28,-10.69],[-171.39,-11.08],[-170.87,-11.39],[-170.76,-11.0],[-171.28,-10.69]]],[[[71.12,-6.54],[71.28,-6.91],[71.77,-6.5],[71.45,-5.76],[70.96,-6.16],[71.12,-6.54]]],[[[175.88,-2.34],[176.02,-2.88],[176.23,-2.4],[175.88,-2.34]]],[[[38.16,-46.7],[37.15,-47.02],[38.15,-47.17],[38.16,-46.7]]],[[[-155.81,56.04],[-156.12,55.71],[-155.45,55.76],[-155.81,56.04]]]]}}]}