{"type":"FeatureCollection","features":[{"type":"Feature","properties":{},"geometry":{"type":"MultiPolygon","coordinates":[[[[-151.28,-22.58],[-151.12,-22.37],[-151.23,-22.14],[-151.51,-22.11],[-151.67,-22.31],[-151.56,-22.55],[-151.28,-22.58]]],[[[-180.0,15.47],[-179.58,15.31],[-178.75,15.98],[-178.38,15.82],[-177.77,16.06],[-177.4,15.9],[-176.92,16.33],[-176.31,16.18],[-175.83,16.61],[-175.22,16.46],[-174.74,16.88],[-174.16,16.69],[-173.33,17.28],[-172.75,17.06],[-172.39,17.26],[-172.28,17.05],[-172.05,17.04],[-171.68,17.24],[-171.57,17.02],[-171.34,17.01],[-170.97,17.21],[-170.86,17.0],[-170.62,16.99],[-170.49,17.19],[-170.25,17.18],[-170.14,16.97],[-169.9,16.96],[-169.81,16.32],[-169.19,16.5],[-169.06,16.7],[-168.46,16.46],[-168.33,16.67],[-168.08,16.65],[-167.62,16.2],[-166.98,16.38],[-166.52,15.92],[-165.87,16.09],[-165.41,15.62],[-165.16,15.61],[-165.01,15.81],[-164.4,15.55],[-164.25,15.76],[-164.0,15.74],[-163.53,15.26],[-162.87,15.43],[-162.77,15.2],[-162.51,15.18],[-161.96,15.57],[-161.33,15.3],[-161.18,15.51],[-160.92,15.48],[-160.82,15.25],[-160.56,15.23],[-159.99,15.62],[-159.37,15.34],[-158.8,15.72],[-158.17,15.44],[-156.75,16.18],[-156.12,15.89],[-154.68,16.62],[-153.56,16.94],[-153.34,17.58],[-153.07,17.55],[-152.91,17.75],[-152.64,17.72],[-152.47,17.93],[-152.21,17.89],[-152.04,18.09],[-151.77,18.06],[-149.43,19.09],[-149.16,19.05],[-148.93,19.69],[-148.22,19.81],[-147.98,20.44],[-147.27,20.56],[-147.03,21.18],[-145.88,21.45],[-145.63,22.07],[-143.16,22.75],[-142.99,22.93],[-143.08,23.17],[-142.46,23.49],[-142.56,23.73],[-142.14,25.16],[-142.23,25.39],[-141.61,25.71],[-141.62,26.35],[-141.0,26.65],[-141.01,27.29],[-140.83,27.47],[-141.29,27.97],[-140.94,28.95],[-142.51,30.28],[-143.24,30.2],[-143.72,30.7],[-144.45,30.62],[-144.55,30.84],[-144.83,30.88],[-145.29,30.75],[-145.39,30.97],[-145.67,31.02],[-146.13,30.88],[-146.23,31.1],[-146.51,31.15],[-146.98,31.01],[-147.08,31.23],[-147.36,31.27],[-148.0,30.95],[-148.28,30.99],[-148.39,31.21],[-148.85,31.06],[-149.13,31.1],[-149.24,31.32],[-149.7,31.17],[-150.37,31.46],[-151.01,31.12],[-151.3,31.15],[-151.4,31.37],[-151.86,31.21],[-152.54,31.49],[-153.17,31.14],[-153.46,31.17],[-153.57,31.38],[-154.03,31.22],[-154.31,31.25],[-154.42,31.46],[-154.88,31.3],[-155.56,31.55],[-156.18,31.2],[-156.86,31.45],[-157.48,31.08],[-157.76,31.1],[-157.87,31.31],[-158.32,31.13],[-159.0,31.37],[-159.61,31.0],[-160.28,31.23],[-160.88,30.85],[-161.16,30.86],[-161.28,31.07],[-161.99,30.89],[-162.1,31.09],[-162.97,30.71],[-163.63,30.93],[-164.22,30.54],[-164.49,30.54],[-164.61,30.74],[-165.3,30.55],[-165.4,30.76],[-165.66,30.78],[-166.08,30.59],[-166.56,31.03],[-167.24,30.86],[-167.36,31.07],[-167.62,31.08],[-167.78,30.88],[-168.04,30.89],[-168.55,31.33],[-169.24,31.14],[-169.36,31.35],[-169.64,31.36],[-169.79,31.15],[-170.06,31.16],[-170.59,31.6],[-171.29,31.4],[-171.42,31.61],[-171.7,31.62],[-171.85,31.4],[-172.13,31.41],[-172.27,31.62],[-172.55,31.62],[-172.69,31.41],[-172.98,31.41],[-173.11,31.62],[-173.4,31.63],[-173.54,31.41],[-173.82,31.41],[-173.96,31.62],[-174.25,31.62],[-174.39,31.4],[-174.68,31.4],[-174.82,31.62],[-175.11,31.61],[-175.68,31.17],[-175.97,31.16],[-176.11,31.38],[-176.83,31.14],[-176.98,31.35],[-177.27,31.34],[-177.41,31.12],[-177.7,31.11],[-177.85,31.32],[-178.14,31.31],[-178.28,31.09],[-178.57,31.08],[-178.73,31.29],[-179.02,31.28],[-179.58,30.81],[-180.0,30.97],[-180.0,15.47]]],[[[180.0,30.97],[179.25,30.75],[179.09,30.96],[178.8,30.94],[178.67,30.71],[178.37,30.69],[178.21,30.9],[177.92,30.88],[177.37,30.4],[176.61,30.56],[176.07,30.07],[175.78,30.05],[175.61,30.25],[174.9,29.97],[174.72,30.17],[174.43,30.14],[173.9,29.64],[173.14,29.79],[172.62,29.28],[171.86,29.42],[171.74,29.18],[170.65,28.6],[170.55,28.36],[169.47,27.77],[169.37,27.54],[169.55,27.34],[169.45,27.1],[169.17,27.06],[169.06,26.83],[169.24,26.63],[168.76,26.12],[168.94,25.92],[168.84,25.69],[169.17,24.63],[169.07,24.4],[168.8,24.36],[168.7,24.13],[168.96,23.51],[168.49,23.01],[168.66,22.82],[168.57,22.59],[169.18,22.24],[168.72,21.75],[168.89,21.56],[168.87,20.91],[169.04,20.72],[169.74,20.61],[169.98,20.01],[173.61,18.81],[173.82,18.22],[175.7,17.62],[175.85,17.43],[175.74,17.21],[176.29,16.87],[176.18,16.66],[176.33,16.47],[177.76,16.03],[179.44,15.22],[180.0,15.47],[180.0,30.97]]],[[[-155.1,-4.09],[-154.76,-4.35],[-154.61,-4.16],[-155.29,-3.66],[-155.44,-3.84],[-155.1,-4.09]]],[[[-171.12,-9.71],[-170.95,-9.54],[-171.24,-9.28],[-171.35,-9.66],[-171.12,-9.71]]],[[[176.02,-2.88],[176.23,-2.4],[175.97,-2.18],[175.82,-2.67],[176.02,-2.88]]],[[[-180.0,-84.62],[-173.18,-84.92],[-170.55,-84.86],[-168.66,-85.02],[-169.41,-85.25],[-167.32,-85.4],[-164.49,-85.32],[-162.19,-85.46],[-162.66,-85.7],[-154.37,-85.84],[-154.41,-86.08],[-151.3,-86.19],[-148.36,-86.05],[-148.68,-85.81],[-146.1,-85.65],[-137.79,-85.61],[-136.86,-85.84],[-133.6,-85.88],[-131.59,-85.69],[-128.41,-85.7],[-126.71,-85.49],[-123.67,-85.49],[-122.26,-85.27],[-123.76,-85.06],[-122.46,-84.84],[-119.8,-84.82],[-118.73,-84.59],[-112.0,-84.69],[-111.28,-84.45],[-112.95,-84.27],[-112.24,-84.03],[-110.0,-83.97],[-109.43,-83.73],[-107.33,-83.66],[-106.89,-83.41],[-108.43,-83.24],[-107.97,-83.0],[-109.39,-82.83],[-108.94,-82.59],[-110.26,-82.42],[-109.8,-82.18],[-111.03,-82.0],[-110.57,-81.76],[-111.72,-81.59],[-111.27,-81.35],[-112.35,-81.17],[-111.9,-80.94],[-112.92,-80.76],[-114.39,-80.81],[-115.35,-80.63],[-114.85,-80.4],[-115.76,-80.21],[-117.15,-80.26],[-125.55,-79.57],[-126.18,-79.36],[-127.45,-79.37],[-128.02,-79.16],[-132.68,-78.71],[-133.11,-78.49],[-136.19,-78.63],[-136.55,-78.41],[-137.68,-78.37],[-138.0,-78.15],[-139.1,-78.11],[-139.39,-77.89],[-140.45,-77.85],[-140.71,-77.63],[-142.96,-77.3],[-143.16,-77.08],[-142.39,-76.92],[-142.6,-76.7],[-143.54,-76.65],[-143.72,-76.43],[-142.98,-76.27],[-137.23,-75.94],[-132.1,-75.26],[-131.2,-75.27],[-130.84,-75.48],[-128.48,-75.29],[-128.08,-75.49],[-127.15,-75.48],[-126.66,-75.28],[-124.38,-75.45],[-123.92,-75.24],[-123.01,-75.22],[-122.52,-75.41],[-116.54,-76.0],[-116.91,-76.23],[-116.29,-76.41],[-116.66,-76.64],[-116.02,-76.82],[-116.4,-77.05],[-115.73,-77.23],[-116.11,-77.46],[-115.42,-77.64],[-115.81,-77.87],[-115.09,-78.05],[-115.49,-78.28],[-112.77,-78.58],[-111.59,-78.51],[-110.75,-78.68],[-111.09,-78.92],[-110.21,-79.09],[-107.52,-78.7],[-104.47,-78.92],[-102.02,-78.48],[-98.91,-78.64],[-98.98,-78.89],[-97.92,-79.03],[-91.26,-78.99],[-90.21,-78.84],[-90.33,-78.59],[-89.33,-78.44],[-89.46,-78.19],[-88.5,-78.04],[-85.35,-78.06],[-85.13,-78.31],[-83.97,-78.39],[-83.72,-78.63],[-86.84,-78.88],[-86.64,-79.13],[-87.67,-79.29],[-87.49,-79.54],[-88.57,-79.69],[-88.4,-79.94],[-89.53,-80.09],[-89.38,-80.34],[-88.02,-80.44],[-87.82,-80.69],[-89.04,-80.84],[-88.86,-81.09],[-90.15,-81.24],[-89.99,-81.49],[-91.37,-81.64],[-91.24,-81.89],[-92.7,-82.03],[-92.61,-82.28],[-94.17,-82.41],[-94.12,-82.66],[-92.41,-82.78],[-92.29,-83.03],[-90.46,-83.14],[-90.26,-83.39],[-92.04,-83.53],[-91.9,-83.78],[-89.83,-83.89],[-89.59,-84.14],[-87.34,-84.24],[-86.97,-84.49],[-89.03,-84.64],[-88.71,-84.89],[-86.12,-84.99],[-85.63,-85.24],[-87.98,-85.39],[-87.54,-85.64],[-84.47,-85.73],[-73.7,-85.5],[-71.82,-85.3],[-73.0,-85.07],[-71.3,-84.87],[-68.51,-84.9],[-67.04,-84.69],[-64.33,-84.69],[-63.07,-84.47],[-56.91,-84.21],[-56.03,-83.97],[-57.51,-83.77],[-56.66,-83.54],[-58.03,-83.34],[-57.22,-83.11],[-52.46,-82.78],[-51.88,-82.54],[-49.99,-82.48],[-48.57,-82.66],[-49.05,-82.9],[-47.53,-83.08],[-41.94,-83.07],[-41.69,-82.82],[-43.29,-82.66],[-43.01,-82.41],[-41.24,-82.31],[-41.04,-82.06],[-39.36,-81.96],[-39.22,-81.7],[-37.64,-81.59],[-37.56,-81.34],[-31.66,-81.34],[-30.26,-81.19],[-30.38,-80.94],[-29.05,-80.79],[-29.2,-80.54],[-22.73,-80.25],[-23.03,-80.0],[-21.94,-79.83],[-22.24,-79.58],[-23.58,-79.5],[-24.66,-79.66],[-27.47,-79.22],[-27.63,-78.97],[-24.31,-78.74],[-24.54,-78.49],[-25.73,-78.4],[-25.92,-78.14],[-27.08,-78.05],[-28.08,-78.2],[-27.93,-78.46],[-28.98,-78.61],[-30.15,-78.5],[-31.23,-78.64],[-32.39,-78.52],[-32.44,-78.27],[-33.55,-78.15],[-33.57,-77.89],[-32.53,-77.75],[-32.57,-77.5],[-29.54,-77.33],[-29.64,-77.07],[-28.71,-76.92],[-28.82,-76.67],[-27.93,-76.51],[-25.0,-76.55],[-24.16,-76.38],[-24.35,-76.13],[-23.54,-75.96],[-22.53,-76.05],[-21.74,-75.87],[-17.23,-75.71],[-16.53,-75.52],[-16.83,-75.28],[-16.16,-75.09],[-15.18,-75.14],[-14.53,-74.95],[-14.86,-74.71],[-14.23,-74.51],[-13.29,-74.55],[-12.69,-74.36],[-13.03,-74.12],[-10.98,-73.75],[-11.33,-73.51],[-10.79,-73.31],[-11.14,-73.07],[-10.61,-72.87],[-9.75,-72.9],[-9.25,-72.69],[-9.61,-72.46],[-9.12,-72.25],[-7.0,-72.09],[-5.32,-71.67],[-2.07,-72.12],[-1.63,-72.34],[-0.8,-72.33],[-0.43,-72.11],[2.66,-71.6],[2.97,-71.37],[3.74,-71.34],[4.22,-71.55],[6.05,-71.25],[7.83,-71.59],[8.59,-71.55],[8.83,-71.31],[10.53,-70.97],[11.07,-71.15],[16.26,-71.58],[17.81,-71.18],[19.72,-71.4],[19.63,-71.65],[20.25,-71.8],[26.98,-71.98],[27.64,-71.86],[27.62,-71.62],[28.93,-71.62],[29.56,-71.5],[29.52,-71.26],[31.4,-71.13],[31.33,-70.89],[31.92,-70.76],[32.58,-70.87],[34.38,-70.7],[34.28,-70.47],[34.83,-70.33],[34.72,-70.1],[35.26,-69.96],[37.07,-70.01],[37.2,-70.24],[37.86,-70.33],[38.0,-70.56],[39.86,-70.58],[40.36,-70.43],[40.19,-70.2],[40.67,-70.05],[40.5,-69.82],[40.97,-69.67],[40.8,-69.45],[41.26,-69.3],[41.09,-69.07],[42.17,-69.0],[42.6,-68.84],[42.42,-68.62],[42.85,-68.47],[43.46,-68.54],[44.89,-68.29],[46.33,-68.62],[46.72,-68.46],[46.5,-68.25],[46.88,-68.09],[49.09,-68.58],[49.43,-68.38],[50.02,-68.39],[50.35,-68.19],[50.09,-67.98],[51.31,-67.59],[52.74,-67.81],[53.04,-67.6],[53.62,-67.6],[53.91,-67.4],[52.78,-66.98],[53.92,-66.57],[54.48,-66.56],[55.63,-66.96],[54.49,-67.39],[54.79,-67.6],[56.28,-67.79],[56.59,-67.99],[58.06,-67.74],[60.33,-68.3],[61.8,-68.02],[62.18,-68.21],[65.89,-68.63],[66.32,-68.82],[66.12,-69.05],[66.56,-69.23],[66.36,-69.47],[65.7,-69.51],[65.48,-69.74],[65.93,-69.93],[65.71,-70.16],[66.18,-70.35],[65.96,-70.58],[66.43,-70.76],[66.21,-70.99],[66.69,-71.18],[66.47,-71.41],[65.75,-71.45],[65.51,-71.68],[64.78,-71.72],[64.53,-71.94],[65.02,-72.13],[64.77,-72.36],[65.27,-72.55],[65.01,-72.78],[64.24,-72.81],[63.97,-73.03],[64.48,-73.23],[64.21,-73.45],[64.74,-73.64],[64.46,-73.86],[66.4,-74.2],[68.31,-73.89],[68.54,-73.66],[67.96,-73.48],[68.19,-73.25],[68.99,-73.2],[69.2,-72.97],[71.34,-73.03],[71.53,-72.8],[72.3,-72.73],[72.47,-72.5],[71.88,-72.33],[72.06,-72.09],[72.8,-72.02],[72.96,-71.79],[72.39,-71.61],[72.55,-71.38],[74.11,-71.0],[74.25,-70.75],[73.7,-70.59],[73.84,-70.35],[74.51,-70.27],[75.06,-70.44],[76.52,-70.03],[77.09,-70.19],[77.75,-70.1],[77.84,-69.86],[79.22,-69.42],[79.29,-69.18],[81.12,-69.13],[81.17,-68.88],[80.61,-68.73],[80.67,-68.48],[82.44,-68.41],[83.01,-68.56],[84.23,-68.08],[87.14,-68.23],[87.72,-68.1],[87.71,-67.85],[88.27,-67.72],[90.02,-67.82],[90.58,-67.68],[90.53,-67.43],[91.08,-67.29],[95.08,-67.26],[97.84,-66.97],[99.21,-67.39],[99.7,-67.22],[100.33,-67.3],[100.82,-67.12],[100.67,-66.88],[101.15,-66.7],[102.86,-66.67],[104.38,-66.37],[105.82,-66.73],[106.02,-66.97],[106.66,-67.02],[106.86,-67.26],[108.59,-67.17],[108.82,-67.4],[109.47,-67.45],[109.71,-67.68],[111.45,-67.55],[112.64,-68.05],[113.31,-68.07],[114.76,-67.68],[115.43,-67.7],[115.72,-67.92],[116.39,-67.94],[116.76,-67.72],[117.42,-67.73],[117.73,-67.95],[118.4,-67.96],[118.75,-67.74],[120.41,-67.96],[120.74,-67.73],[122.37,-67.49],[122.68,-67.27],[124.32,-67.44],[124.6,-67.22],[126.14,-66.94],[126.51,-67.14],[126.25,-67.37],[126.62,-67.57],[128.15,-67.28],[128.54,-67.48],[130.2,-67.59],[130.43,-67.35],[130.03,-67.16],[130.26,-66.93],[130.87,-66.88],[131.08,-66.65],[132.69,-66.74],[132.88,-66.5],[133.48,-66.45],[133.88,-66.63],[133.7,-66.87],[134.11,-67.05],[135.48,-66.69],[138.96,-67.17],[142.62,-67.33],[143.09,-67.48],[142.99,-67.72],[142.42,-67.81],[142.32,-68.05],[142.8,-68.21],[144.44,-68.17],[144.94,-68.32],[144.86,-68.56],[146.45,-68.75],[146.38,-68.99],[146.9,-69.13],[148.09,-68.68],[148.61,-68.81],[150.23,-68.72],[151.28,-69.21],[151.27,-69.45],[151.82,-69.57],[152.9,-69.09],[154.01,-69.56],[156.68,-69.39],[157.87,-69.83],[160.0,-69.75],[160.09,-69.98],[159.6,-70.12],[159.68,-70.35],[160.97,-70.76],[161.07,-70.99],[160.56,-71.14],[160.67,-71.37],[161.29,-71.46],[161.4,-71.69],[162.54,-71.62],[162.42,-71.39],[162.92,-71.24],[162.79,-71.01],[162.18,-70.93],[162.06,-70.7],[162.55,-70.56],[163.88,-70.94],[164.02,-71.17],[164.64,-71.25],[165.11,-71.09],[164.96,-70.87],[165.42,-70.71],[166.8,-71.07],[166.97,-71.3],[168.65,-71.26],[169.68,-71.76],[169.25,-71.92],[169.45,-72.14],[167.89,-72.41],[168.96,-72.91],[167.31,-73.18],[165.42,-73.21],[164.9,-73.37],[165.07,-73.59],[164.53,-73.75],[164.7,-73.98],[162.83,-74.22],[162.99,-74.44],[162.39,-74.6],[162.54,-74.83],[160.52,-75.05],[160.65,-75.28],[159.99,-75.43],[160.11,-75.66],[160.91,-75.74],[161.05,-75.97],[161.87,-76.05],[162.03,-76.28],[161.34,-76.43],[161.5,-76.66],[162.36,-76.73],[162.53,-76.96],[161.82,-77.12],[161.99,-77.35],[164.02,-77.71],[164.24,-77.94],[163.49,-78.1],[163.71,-78.32],[162.93,-78.48],[161.12,-78.57],[161.3,-78.79],[160.45,-78.95],[160.62,-79.17],[159.72,-79.33],[159.89,-79.55],[158.95,-79.71],[159.25,-79.91],[158.27,-80.06],[158.57,-80.27],[157.54,-80.41],[157.84,-80.62],[159.22,-80.68],[159.56,-80.89],[158.47,-81.04],[158.81,-81.25],[160.3,-81.3],[160.7,-81.51],[159.55,-81.67],[159.95,-81.88],[161.57,-81.93],[162.04,-82.14],[157.81,-82.4],[158.2,-82.62],[163.07,-82.56],[163.63,-82.77],[165.49,-82.81],[166.14,-83.01],[168.08,-83.04],[168.84,-83.24],[167.58,-83.43],[171.45,-83.85],[170.14,-84.04],[171.11,-84.24],[177.06,-84.04],[178.29,-84.23],[177.13,-84.44],[180.0,-84.62],[180.0,90.0],[-180.0,90.0],[-180.0,-84.62]],[[-154.13,-82.51],[-157.27,-82.52],[-157.16,-82.29],[-155.61,-82.17],[-154.12,-82.28],[-154.13,-82.51]]],[[[54.36,12.35],[54.63,12.18],[54.71,12.89],[54.44,13.06],[53.93,12.87],[53.65,13.04],[52.86,12.11],[52.94,11.93],[53.26,12.13],[53.73,11.97],[54.36,12.35]]],[[[-172.54,-13.33],[-172.94,-13.45],[-172.89,-13.67],[-172.36,-13.99],[-172.31,-14.22],[-171.66,-14.15],[-171.6,-14.37],[-171.37,-14.42],[-171.19,-14.25],[-172.13,-13.2],[-172.54,-13.33]]],[[[-170.96,-14.3],[-170.89,-14.52],[-170.66,-14.57],[-170.48,-14.4],[-170.54,-14.17],[-170.96,-14.3]]],[[[-141.25,-15.54],[-141.37,-15.73],[-141.25,-15.95],[-140.89,-16.18],[-140.64,-16.2],[-140.52,-16.0],[-139.91,-16.25],[-139.79,-16.05],[-140.27,-15.61],[-140.88,-15.77],[-141.25,-15.54]]],[[[52.06,12.07],[52.34,11.9],[52.66,12.1],[52.09,12.43],[52.06,12.07]]],[[[-160.7,4.9],[-160.85,4.7],[-160.74,4.47],[-160.5,4.44],[-160.35,4.64],[-160.45,4.87],[-160.7,4.9]]],[[[154.97,-3.29],[154.67,-2.74],[154.44,-2.83],[154.53,-3.46],[154.71,-3.61],[154.97,-3.29]]],[[[168.94,14.71],[168.78,14.89],[168.44,14.64],[169.25,14.36],[169.34,14.57],[169.18,14.75],[168.94,14.71]]],[[[-136.8,-21.56],[-136.42,-21.78],[-136.54,-21.99],[-136.41,-22.2],[-136.16,-22.2],[-136.04,-22.0],[-136.18,-21.37],[-136.81,-21.15],[-136.93,-21.35],[-136.8,-21.56]]],[[[-142.55,-17.51],[-142.41,-17.31],[-142.78,-17.08],[-142.89,-16.44],[-142.75,-16.25],[-142.14,-16.5],[-142.01,-16.3],[-142.11,-15.68],[-143.12,-16.01],[-143.2,-14.97],[-144.65,-14.01],[-145.28,-14.16],[-146.12,-13.46],[-146.75,-13.6],[-147.22,-13.14],[-147.86,-13.27],[-148.22,-13.03],[-148.36,-13.22],[-148.97,-12.94],[-149.11,-13.13],[-149.72,-12.86],[-149.87,-13.05],[-150.12,-13.02],[-150.47,-12.77],[-151.02,-13.12],[-151.63,-12.83],[-152.18,-13.18],[-152.78,-12.89],[-154.16,-13.55],[-154.77,-13.26],[-155.75,-13.76],[-156.83,-14.03],[-157.06,-14.63],[-157.32,-14.6],[-157.48,-14.79],[-157.39,-15.01],[-157.97,-15.36],[-157.88,-15.59],[-158.47,-15.93],[-158.38,-16.16],[-158.54,-16.35],[-158.8,-16.31],[-158.97,-16.5],[-159.03,-17.58],[-159.2,-17.77],[-158.75,-18.28],[-158.49,-18.32],[-158.47,-18.99],[-157.77,-18.87],[-156.95,-19.65],[-156.68,-19.69],[-156.51,-19.49],[-156.24,-19.53],[-156.14,-19.77],[-155.88,-19.8],[-155.71,-19.61],[-155.44,-19.64],[-155.34,-19.88],[-155.07,-19.91],[-154.91,-19.71],[-154.64,-19.75],[-154.53,-19.98],[-154.27,-20.02],[-154.1,-19.82],[-153.46,-20.12],[-152.86,-19.75],[-152.22,-20.05],[-151.63,-19.68],[-150.99,-19.97],[-149.99,-19.42],[-149.34,-19.7],[-147.53,-18.8],[-146.89,-19.07],[-146.75,-18.87],[-144.48,-18.0],[-144.32,-17.37],[-144.07,-17.4],[-143.54,-17.02],[-142.8,-17.49],[-142.93,-17.69],[-143.19,-17.67],[-143.3,-17.46],[-143.56,-17.44],[-143.69,-17.64],[-143.58,-17.86],[-143.32,-17.87],[-143.2,-18.09],[-142.56,-17.93],[-142.45,-18.57],[-141.83,-18.82],[-141.68,-18.2],[-142.55,-17.51]]],[[[175.67,11.91],[176.35,12.37],[176.97,12.25],[177.76,12.91],[176.63,13.36],[175.59,12.66],[175.49,12.46],[175.67,11.91]]],[[[-177.69,-29.06],[-177.95,-28.98],[-178.15,-29.15],[-178.1,-29.39],[-177.84,-29.46],[-177.64,-29.3],[-177.69,-29.06]]],[[[173.15,0.9],[173.19,1.38],[173.49,1.57],[173.44,1.88],[173.74,2.08],[173.61,2.22],[173.31,2.02],[172.75,2.11],[172.67,1.94],[172.85,0.71],[173.19,0.6],[173.15,0.9]]],[[[37.66,-46.62],[37.15,-47.02],[38.15,-47.17],[38.16,-46.7],[37.66,-46.62]]],[[[-171.56,-2.85],[-171.66,-2.64],[-171.99,-2.78],[-171.68,-3.02],[-171.56,-2.85]]],[[[173.95,0.55],[173.62,0.66],[173.24,0.3],[173.91,0.08],[174.29,0.44],[173.95,0.55]]],[[[-138.81,-18.99],[-138.69,-18.79],[-138.81,-18.58],[-139.43,-18.34],[-139.56,-18.54],[-139.43,-18.75],[-139.06,-18.98],[-139.56,-19.37],[-139.44,-19.59],[-139.19,-19.6],[-139.06,-19.4],[-138.44,-19.63],[-138.32,-19.43],[-138.81,-18.99]]],[[[-158.32,-9.24],[-157.67,-9.13],[-157.52,-8.96],[-157.61,-8.74],[-158.25,-8.85],[-158.4,-9.03],[-158.32,-9.24]]],[[[-145.26,-20.28],[-144.99,-20.3],[-144.85,-20.1],[-144.97,-19.88],[-145.23,-19.86],[-145.38,-20.06],[-145.26,-20.28]]],[[[56.07,-6.81],[56.18,-7.18],[56.4,-7.1],[56.46,-6.88],[56.07,-6.81]]],[[[71.77,-6.5],[71.8,-6.27],[71.45,-5.76],[70.96,-6.16],[71.09,-6.77],[71.28,-6.91],[71.77,-6.5]]],[[[179.43,-8.32],[179.07,-8.43],[179.1,-8.63],[179.3,-8.67],[179.43,-8.32]]],[[[-35.39,-54.67],[-35.39,-54.44],[-35.75,-54.33],[-35.74,-54.1],[-36.45,-54.09],[-37.13,-53.63],[-38.19,-53.72],[-38.21,-53.94],[-38.58,-54.04],[-38.61,-54.27],[-37.55,-54.41],[-37.57,-54.64],[-37.21,-54.76],[-36.49,-54.77],[-36.5,-55.0],[-36.14,-55.12],[-35.39,-54.67]]],[[[178.48,-8.29],[178.64,-8.14],[178.42,-7.9],[178.29,-8.25],[178.48,-8.29]]],[[[158.97,-5.36],[159.09,-5.73],[160.05,-5.75],[159.81,-5.01],[159.22,-5.04],[158.97,-5.36]]],[[[-138.82,-9.8],[-138.82,-9.42],[-139.39,-9.56],[-139.39,-10.32],[-138.82,-10.18],[-138.82,-9.8]]],[[[-152.99,-22.83],[-152.88,-23.07],[-152.6,-23.1],[-152.44,-22.9],[-152.55,-22.66],[-152.82,-22.63],[-152.99,-22.83]]],[[[-157.6,2.13],[-157.75,1.93],[-157.65,1.7],[-157.05,1.41],[-156.9,1.6],[-157.0,1.83],[-157.6,2.13]]],[[[176.14,-1.18],[175.96,-1.15],[175.96,-1.49],[176.41,-1.4],[176.68,-1.62],[176.67,-1.27],[176.4,-1.05],[176.14,-1.18]]],[[[-136.26,-18.08],[-136.5,-18.07],[-136.62,-18.27],[-136.49,-18.88],[-136.25,-18.89],[-136.13,-18.69],[-136.26,-18.08]]],[[[178.51,-7.35],[178.74,-7.59],[178.9,-7.44],[178.87,-7.24],[178.51,-7.35]]],[[[-139.19,-22.12],[-138.68,-22.56],[-138.43,-22.57],[-138.3,-22.36],[-138.43,-22.15],[-138.68,-22.14],[-138.81,-21.5],[-139.07,-21.49],[-139.19,-21.7],[-139.07,-21.92],[-139.19,-22.12]]],[[[-139.77,-8.76],[-140.31,-8.51],[-140.46,-8.69],[-140.43,-9.65],[-139.5,-9.35],[-139.39,-8.6],[-139.77,-8.76]]],[[[-22.98,-74.36],[-20.94,-74.77],[-20.23,-74.59],[-20.46,-74.34],[-19.78,-74.16],[-20.02,-73.91],[-19.36,-73.73],[-19.59,-73.49],[-20.46,-73.41],[-21.11,-73.59],[-20.9,-73.84],[-21.58,-74.02],[-22.47,-73.94],[-23.17,-74.11],[-22.98,-74.36]]],[[[71.97,-5.12],[71.32,-5.16],[71.29,-5.39],[72.32,-5.63],[72.58,-5.32],[71.97,-5.12]]],[[[-141.06,-18.45],[-140.94,-18.67],[-140.68,-18.68],[-140.56,-18.48],[-140.66,-17.43],[-140.91,-17.42],[-141.05,-18.03],[-141.3,-18.02],[-141.43,-18.22],[-141.31,-18.44],[-141.06,-18.45]]],[[[-137.14,-23.44],[-136.89,-23.45],[-136.77,-23.24],[-136.9,-23.03],[-137.15,-23.02],[-137.27,-23.23],[-137.14,-23.44]]],[[[-162.77,-18.06],[-162.85,-17.83],[-163.11,-17.78],[-163.28,-17.97],[-163.2,-18.2],[-162.94,-18.25],[-162.77,-18.06]]],[[[-140.98,-14.33],[-140.85,-14.14],[-141.21,-13.91],[-141.71,-14.28],[-141.59,-14.49],[-140.98,-14.33]]],[[[-141.01,-7.86],[-140.62,-8.29],[-140.23,-8.13],[-140.62,-7.7],[-141.01,-7.86]]],[[[-124.88,-24.86],[-124.63,-24.8],[-124.55,-24.59],[-124.71,-24.44],[-125.04,-24.7],[-124.88,-24.86]]],[[[-144.46,-27.96],[-144.18,-27.98],[-144.03,-27.76],[-144.16,-27.54],[-144.44,-27.53],[-144.59,-27.74],[-144.46,-27.96]]],[[[164.1,-67.63],[165.02,-67.56],[164.9,-67.33],[164.38,-67.25],[163.99,-67.4],[164.1,-67.63]]],[[[68.91,-48.25],[68.58,-48.32],[68.63,-48.92],[68.29,-48.99],[68.19,-49.22],[68.58,-49.75],[68.49,-49.98],[69.08,-50.06],[69.18,-49.83],[69.53,-49.76],[70.38,-49.98],[70.73,-49.9],[70.82,-49.67],[70.56,-49.52],[71.07,-48.98],[69.3,-48.77],[68.91,-48.25]]],[[[-141.32,-18.85],[-141.45,-19.06],[-141.33,-19.27],[-140.32,-19.75],[-140.19,-19.55],[-140.32,-19.33],[-141.32,-18.85]]],[[[92.3,-65.34],[91.8,-65.48],[91.85,-65.74],[92.42,-65.84],[92.48,-66.1],[93.06,-66.2],[93.56,-66.05],[93.49,-65.8],[92.3,-65.34]]],[[[-180.0,51.53],[-179.74,51.74],[-179.95,51.94],[-179.77,52.14],[-179.99,52.35],[-180.0,51.53]]],[[[180.0,52.34],[179.05,52.14],[178.83,52.34],[178.44,52.33],[178.26,52.13],[177.87,52.12],[177.64,52.32],[177.25,52.31],[176.52,51.88],[177.36,51.5],[178.31,51.72],[178.53,51.52],[179.52,51.33],[180.0,51.53],[180.0,52.34]]],[[[175.05,-1.4],[175.02,-1.11],[174.69,-1.01],[174.61,-0.42],[174.07,-0.35],[173.99,-0.51],[174.45,-0.74],[174.4,-1.19],[174.73,-1.3],[174.89,-1.71],[175.17,-1.53],[175.05,-1.4]]],[[[-143.44,-20.84],[-143.32,-21.07],[-143.06,-21.08],[-142.92,-20.88],[-143.04,-20.65],[-143.3,-20.64],[-143.41,-19.99],[-143.67,-19.97],[-143.83,-20.6],[-143.71,-20.83],[-143.44,-20.84]]],[[[-27.44,-56.18],[-27.79,-56.32],[-27.74,-56.55],[-26.86,-56.96],[-26.8,-57.19],[-26.03,-57.14],[-26.09,-56.91],[-27.44,-56.18]]],[[[52.05,-46.16],[51.56,-46.59],[51.78,-46.76],[52.49,-46.5],[52.57,-46.3],[52.05,-46.16]]],[[[-26.61,-59.45],[-26.22,-59.3],[-26.29,-59.07],[-26.74,-58.97],[-27.45,-59.5],[-27.39,-59.73],[-26.93,-59.83],[-26.54,-59.68],[-26.61,-59.45]]],[[[166.76,19.31],[166.84,19.54],[166.67,19.72],[166.41,19.68],[166.33,19.45],[166.5,19.27],[166.76,19.31]]],[[[174.8,52.63],[172.62,53.32],[172.22,53.29],[172.06,53.08],[172.31,52.89],[172.15,52.68],[172.4,52.49],[172.8,52.52],[173.68,52.16],[174.63,52.42],[174.8,52.63]]],[[[-159.4,-21.06],[-160.12,-21.17],[-160.3,-21.36],[-160.2,-21.6],[-159.49,-21.49],[-159.31,-21.3],[-159.4,-21.06]]],[[[-142.15,-16.92],[-142.03,-17.13],[-141.78,-17.15],[-141.65,-16.95],[-142.02,-16.72],[-142.15,-16.92]]],[[[176.37,-6.51],[176.53,-6.36],[176.32,-6.13],[176.19,-6.47],[176.37,-6.51]]],[[[-151.48,-11.61],[-151.83,-11.36],[-151.98,-11.55],[-151.88,-11.77],[-151.63,-11.8],[-151.48,-11.61]]],[[[-138.45,-17.15],[-138.69,-17.14],[-138.81,-17.34],[-138.69,-17.55],[-138.45,-17.56],[-138.33,-17.37],[-138.45,-17.15]]],[[[-149.69,-23.18],[-149.57,-23.41],[-149.29,-23.44],[-149.14,-23.23],[-149.25,-23.0],[-149.53,-22.98],[-149.69,-23.18]]],[[[50.61,-46.09],[50.4,-45.92],[50.09,-45.94],[50.0,-46.14],[50.34,-46.68],[50.64,-46.66],[50.61,-46.09]]],[[[-158.0,-20.16],[-157.83,-19.97],[-157.19,-20.28],[-157.02,-20.09],[-157.12,-19.85],[-157.39,-19.81],[-157.48,-19.58],[-158.19,-19.69],[-158.28,-19.46],[-158.91,-19.14],[-159.08,-19.33],[-158.99,-19.57],[-158.0,-20.16]]],[[[-171.97,-4.49],[-172.07,-4.29],[-172.4,-4.42],[-172.09,-4.66],[-171.97,-4.49]]],[[[-169.96,-13.87],[-170.13,-14.05],[-170.07,-14.27],[-169.52,-14.6],[-169.35,-14.42],[-169.41,-14.19],[-169.96,-13.87]]],[[[-138.82,-14.5],[-139.05,-14.48],[-139.17,-14.67],[-139.05,-14.88],[-138.82,-14.9],[-138.82,-14.5]]],[[[157.06,-5.08],[157.32,-4.75],[157.15,-4.61],[156.93,-4.69],[157.06,-5.08]]],[[[176.45,-5.79],[176.21,-5.38],[175.87,-5.49],[176.11,-5.9],[176.45,-5.79]]],[[[178.88,-49.87],[179.2,-49.93],[179.46,-49.77],[179.41,-49.55],[178.23,-49.74],[178.29,-49.96],[178.88,-49.87]]],[[[74.04,-52.8],[72.99,-52.82],[72.91,-53.06],[73.21,-53.21],[73.13,-53.45],[73.43,-53.61],[73.81,-53.52],[73.89,-53.28],[74.26,-53.19],[74.34,-52.95],[74.04,-52.8]]],[[[176.68,-2.66],[176.89,-2.87],[177.04,-2.72],[176.95,-2.53],[176.68,-2.66]]],[[[-34.3,-55.01],[-34.31,-54.78],[-35.03,-54.79],[-35.04,-55.01],[-34.67,-55.13],[-34.3,-55.01]]],[[[-170.99,-4.47],[-171.08,-4.26],[-171.42,-4.39],[-171.1,-4.64],[-170.99,-4.47]]],[[[-178.85,-30.26],[-178.6,-30.34],[-178.4,-30.19],[-178.45,-29.95],[-178.7,-29.86],[-178.9,-30.02],[-178.85,-30.26]]],[[[-159.45,3.66],[-159.34,3.43],[-159.1,3.4],[-158.95,3.6],[-159.0,4.25],[-159.65,4.12],[-159.8,3.92],[-159.69,3.69],[-159.45,3.66]]],[[[77.44,-38.82],[77.7,-38.95],[77.99,-38.85],[78.02,-38.6],[77.76,-38.47],[77.47,-38.58],[77.44,-38.82]]],[[[177.53,-5.84],[177.19,-5.95],[177.22,-6.14],[177.4,-6.18],[177.53,-5.84]]],[[[77.84,-37.74],[77.87,-37.5],[77.61,-37.37],[77.33,-37.47],[77.53,-38.09],[77.79,-38.23],[78.07,-38.12],[78.1,-37.88],[77.84,-37.74]]],[[[-10.2,-40.2],[-10.07,-40.43],[-9.74,-40.47],[-9.53,-40.27],[-9.66,-40.03],[-9.99,-40.0],[-10.2,-40.2]]],[[[-162.06,6.37],[-162.17,6.59],[-162.41,6.62],[-162.59,6.0],[-162.14,5.51],[-161.9,5.48],[-161.75,5.68],[-161.85,5.91],[-162.1,5.94],[-162.21,6.17],[-162.06,6.37]]],[[[145.8,-0.87],[145.84,-0.62],[145.65,-0.45],[145.41,-0.54],[145.37,-0.79],[145.56,-0.95],[145.8,-0.87]]],[[[180.0,-9.03],[179.77,-9.17],[179.68,-9.73],[180.0,-9.67],[180.0,-9.03]]],[[[-180.0,-9.67],[-179.82,-9.26],[-180.0,-9.03],[-180.0,-9.67]]],[[[-26.49,-58.36],[-27.3,-58.41],[-27.24,-58.64],[-26.8,-58.74],[-25.61,-58.54],[-25.69,-58.31],[-26.49,-58.36]]],[[[-176.35,0.19],[-176.55,0.22],[-176.56,-0.16],[-176.25,-0.02],[-176.35,0.19]]],[[[-128.37,-24.14],[-128.33,-24.54],[-128.1,-24.53],[-128.0,-24.32],[-128.37,-24.14]]],[[[-12.88,-37.14],[-13.09,-37.34],[-12.98,-37.58],[-12.66,-37.62],[-12.55,-37.87],[-12.23,-37.91],[-12.02,-37.71],[-12.04,-37.03],[-12.88,-37.14]]],[[[-159.36,-18.63],[-160.06,-18.74],[-160.23,-18.93],[-160.14,-19.17],[-159.44,-19.06],[-159.27,-18.86],[-159.36,-18.63]]],[[[3.06,-54.69],[3.47,-54.68],[3.67,-54.48],[3.48,-54.29],[3.07,-54.3],[2.87,-54.5],[3.06,-54.69]]],[[[-138.68,-21.3],[-138.43,-21.31],[-138.31,-21.1],[-138.44,-20.47],[-138.69,-20.46],[-138.81,-20.66],[-138.68,-21.3]]],[[[-165.85,-11.1],[-165.61,-11.14],[-165.44,-10.96],[-165.51,-10.74],[-165.92,-10.88],[-165.85,-11.1]]],[[[-156.12,55.71],[-155.45,55.76],[-155.46,55.96],[-155.81,56.04],[-156.14,55.91],[-156.12,55.71]]],[[[-171.58,-8.82],[-171.97,-8.94],[-172.02,-9.53],[-171.63,-9.41],[-171.58,-8.82]]],[[[-134.9,-23.05],[-135.27,-22.84],[-135.39,-23.04],[-135.26,-23.25],[-134.25,-23.67],[-134.14,-23.46],[-134.27,-23.26],[-134.9,-23.05]]],[[[-172.47,-8.65],[-172.52,-8.44],[-172.91,-8.56],[-172.64,-8.81],[-172.47,-8.65]]],[[[176.46,52.28],[176.62,52.49],[176.4,52.69],[176.0,52.67],[175.83,52.47],[176.06,52.27],[176.46,52.28]]],[[[-140.61,-21.85],[-140.35,-21.87],[-140.22,-21.66],[-140.34,-21.44],[-140.99,-21.62],[-141.13,-21.83],[-141.0,-22.05],[-140.74,-22.06],[-140.61,-21.85]]],[[[177.17,-7.06],[177.04,-7.4],[177.23,-7.44],[177.39,-7.29],[177.17,-7.06]]],[[[-161.22,-10.64],[-160.81,-10.49],[-160.82,-9.88],[-161.22,-10.02],[-161.22,-10.64]]],[[[-159.74,-0.34],[-159.84,-0.12],[-160.09,-0.09],[-160.23,-0.28],[-159.89,-0.53],[-159.74,-0.34]]],[[[154.11,24.3],[153.91,24.47],[153.66,24.41],[153.61,24.17],[154.05,24.07],[154.11,24.3]]],[[[-135.45,-21.38],[-135.69,-21.38],[-135.81,-21.58],[-135.68,-21.79],[-135.43,-21.8],[-135.32,-21.59],[-135.45,-21.38]]],[[[163.36,-67.09],[163.76,-66.95],[163.65,-66.72],[163.15,-66.64],[162.45,-66.1],[161.57,-66.14],[161.66,-66.37],[162.15,-66.46],[162.25,-66.69],[163.36,-67.09]]],[[[-147.65,-23.58],[-147.92,-23.56],[-148.08,-23.77],[-147.96,-24.0],[-147.68,-24.02],[-147.53,-23.81],[-147.65,-23.58]]],[[[72.69,-7.68],[72.56,-7.07],[72.13,-7.02],[72.27,-7.63],[72.69,-7.68]]],[[[175.88,-2.0],[175.88,-1.65],[175.35,-1.9],[175.62,-2.12],[175.88,-2.0]]],[[[159.31,-4.58],[159.48,-4.72],[159.73,-4.4],[159.36,-4.34],[159.31,-4.58]]],[[[179.66,-10.71],[179.62,-10.5],[179.25,-10.61],[179.49,-10.87],[179.66,-10.71]]],[[[-171.28,-10.69],[-171.39,-11.08],[-170.87,-11.39],[-170.76,-11.0],[-171.28,-10.69]]],[[[-136.98,-18.46],[-136.86,-18.26],[-137.23,-18.03],[-137.35,-18.23],[-137.22,-18.44],[-136.98,-18.46]]],[[[-174.47,-4.8],[-174.31,-4.65],[-174.57,-4.41],[-174.68,-4.77],[-174.47,-4.8]]],[[[-17.38,-72.51],[-17.13,-72.75],[-16.28,-72.81],[-15.71,-72.62],[-15.98,-72.37],[-16.8,-72.32],[-17.38,-72.51]]],[[[-170.94,-3.71],[-170.6,-3.58],[-170.7,-3.37],[-171.24,-3.09],[-171.36,-3.26],[-170.94,-3.71]]],[[[-109.4,10.07],[-109.16,9.98],[-108.96,10.13],[-109.0,10.37],[-109.23,10.46],[-109.44,10.31],[-109.4,10.07]]],[[[-155.69,-5.83],[-155.55,-5.65],[-155.64,-5.44],[-155.89,-5.41],[-156.03,-5.59],[-155.69,-5.83]]],[[[-109.63,-27.19],[-109.41,-27.34],[-109.16,-27.25],[-109.12,-27.03],[-109.59,-26.97],[-109.63,-27.19]]],[[[-157.93,-22.18],[-157.76,-21.98],[-157.86,-21.74],[-158.13,-21.7],[-158.3,-21.9],[-158.21,-22.14],[-157.93,-22.18]]],[[[-25.89,-57.61],[-26.68,-57.66],[-26.62,-57.89],[-26.19,-57.98],[-25.83,-57.84],[-25.89,-57.61]]],[[[-162.96,-13.49],[-163.04,-13.26],[-162.88,-13.08],[-162.96,-12.85],[-163.2,-12.81],[-163.46,-13.4],[-163.38,-13.63],[-163.13,-13.67],[-162.96,-13.49]]],[[[-139.19,-20.86],[-139.06,-20.65],[-139.19,-20.44],[-139.44,-20.43],[-139.57,-20.63],[-139.44,-20.85],[-139.19,-20.86]]],[[[169.05,-52.4],[168.72,-52.54],[168.74,-52.77],[169.42,-52.72],[169.39,-52.49],[169.05,-52.4]]],[[[-154.58,-22.19],[-154.41,-21.99],[-154.51,-21.76],[-154.79,-21.72],[-154.96,-21.92],[-154.85,-22.16],[-154.58,-22.19]]],[[[-150.32,-10.13],[-150.22,-10.34],[-149.83,-10.19],[-150.52,-9.7],[-150.67,-9.88],[-150.57,-10.1],[-150.32,-10.13]]],[[[-130.37,-25.44],[-130.13,-25.43],[-130.16,-25.02],[-130.5,-25.24],[-130.37,-25.44]]],[[[-141.67,-17.78],[-141.42,-17.8],[-141.29,-17.6],[-141.41,-17.38],[-141.66,-17.37],[-141.79,-17.57],[-141.67,-17.78]]],[[[-173.87,-3.79],[-173.96,-3.59],[-174.29,-3.72],[-173.98,-3.96],[-173.87,-3.79]]],[[[158.98,-54.42],[158.61,-54.53],[158.59,-54.75],[159.31,-54.76],[159.33,-54.54],[158.98,-54.42]]],[[[169.81,-0.93],[169.5,-0.87],[169.46,-1.08],[169.59,-1.22],[169.81,-0.93]]],[[[-165.22,-11.62],[-165.3,-11.4],[-165.7,-11.54],[-165.63,-11.76],[-165.39,-11.8],[-165.22,-11.62]]],[[[-156.51,56.19],[-156.86,56.26],[-157.2,56.13],[-157.17,55.93],[-156.49,55.99],[-156.51,56.19]]],[[[-130.63,-23.62],[-130.97,-23.83],[-130.83,-24.03],[-130.6,-24.02],[-130.63,-23.62]]],[[[167.23,-0.43],[166.9,-0.37],[166.86,-0.59],[167.0,-0.73],[167.23,-0.43]]],[[[62.97,-19.53],[62.92,-19.77],[63.12,-19.94],[63.83,-19.93],[63.88,-19.68],[63.68,-19.52],[62.97,-19.53]]],[[[-176.54,0.6],[-176.64,0.8],[-176.95,0.66],[-176.65,0.42],[-176.54,0.6]]],[[[155.49,-4.84],[155.76,-4.51],[155.59,-4.37],[155.37,-4.45],[155.49,-4.84]]]]}}]}