{"type":"FeatureCollection","features":[{"type":"Feature","properties":{},"geometry":{"type":"MultiPolygon","coordinates":[[[[19.99,65.94],[20.33,65.81],[20.25,65.6],[20.58,65.47],[20.51,65.26],[20.1,65.17],[19.77,65.3],[19.37,65.21],[19.3,65.0],[18.9,64.91],[18.57,65.04],[18.18,64.95],[18.13,64.74],[18.45,64.61],[18.39,64.4],[18.01,64.31],[17.69,64.44],[17.31,64.35],[16.99,64.47],[16.62,64.38],[16.29,64.5],[15.93,64.4],[15.6,64.52],[15.24,64.43],[15.2,64.22],[14.85,64.12],[14.82,63.91],[14.47,63.82],[14.44,63.61],[14.1,63.51],[13.78,63.63],[13.33,63.57],[13.2,63.4],[13.52,63.29],[13.97,63.34],[14.28,63.23],[14.15,63.06],[14.46,62.94],[14.32,62.77],[13.88,62.72],[13.75,62.55],[13.31,62.49],[13.18,62.32],[13.49,62.2],[13.36,62.02],[12.18,62.02],[12.06,61.84],[12.37,61.73],[12.24,61.55],[11.81,61.49],[11.51,61.6],[11.63,61.78],[11.32,61.9],[10.89,61.83],[10.77,61.65],[11.08,61.54],[10.96,61.36],[10.54,61.3],[10.23,61.41],[10.35,61.59],[10.04,61.7],[9.62,61.63],[9.5,61.45],[9.81,61.34],[9.7,61.16],[9.28,61.09],[8.98,61.2],[8.56,61.13],[8.46,60.95],[8.76,60.84],[8.66,60.65],[8.25,60.58],[8.14,60.4],[8.45,60.29],[8.34,60.1],[7.94,60.03],[7.64,60.14],[7.27,60.12],[7.17,59.93],[6.8,59.91],[6.52,60.08],[6.62,60.27],[6.99,60.29],[7.09,60.47],[6.81,60.64],[6.91,60.82],[7.29,60.84],[7.39,61.02],[7.77,61.04],[7.87,61.22],[7.6,61.38],[7.7,61.57],[7.42,61.73],[7.03,61.71],[6.93,61.53],[6.54,61.52],[6.25,61.68],[6.35,61.86],[6.74,61.88],[6.84,62.06],[7.24,62.08],[7.34,62.25],[7.73,62.27],[7.84,62.45],[8.23,62.46],[8.34,62.64],[8.73,62.65],[8.84,62.82],[9.23,62.83],[9.35,63.0],[9.78,63.07],[10.1,62.97],[11.3,62.99],[11.42,63.16],[11.1,63.27],[11.22,63.44],[11.67,63.5],[11.79,63.67],[12.24,63.73],[12.37,63.9],[12.05,64.01],[12.18,64.18],[12.51,64.28],[12.53,64.48],[12.87,64.58],[12.88,64.79],[12.55,64.9],[12.56,65.11],[12.91,65.21],[12.93,65.41],[12.46,65.48],[12.34,65.65],[12.7,65.76],[12.58,65.93],[12.95,66.03],[12.83,66.2],[13.2,66.31],[13.08,66.48],[13.46,66.59],[13.35,66.76],[13.73,66.87],[13.62,67.04],[14.01,67.15],[14.52,67.07],[14.92,67.17],[14.81,67.35],[15.22,67.45],[15.12,67.63],[15.53,67.74],[15.43,67.92],[15.85,68.02],[15.75,68.21],[16.19,68.31],[16.08,68.49],[15.54,68.58],[15.43,68.76],[15.88,68.87],[16.43,68.78],[16.53,68.59],[17.07,68.51],[17.52,68.61],[17.43,68.8],[17.89,68.89],[17.81,69.08],[17.25,69.17],[17.15,69.36],[17.63,69.46],[18.19,69.37],[18.67,69.47],[18.59,69.66],[19.08,69.76],[19.65,69.67],[20.15,69.76],[20.72,69.66],[21.23,69.76],[21.17,69.95],[21.69,70.04],[21.64,70.24],[22.17,70.33],[22.74,70.22],[22.78,70.03],[23.35,69.92],[23.88,70.0],[23.85,70.2],[23.28,70.31],[23.25,70.51],[23.8,70.6],[24.38,70.48],[24.93,70.57],[25.5,70.45],[26.07,70.53],[26.06,70.73],[25.49,70.85],[24.92,70.77],[24.33,70.88],[23.77,70.8],[23.18,70.91],[22.62,70.82],[22.67,70.62],[22.12,70.53],[21.53,70.63],[21.0,70.54],[21.06,70.34],[20.53,70.25],[19.95,70.35],[19.43,70.25],[18.84,70.35],[18.33,70.24],[18.42,70.05],[17.93,69.95],[18.02,69.76],[17.53,69.66],[16.96,69.74],[16.48,69.64],[16.58,69.45],[16.12,69.35],[15.55,69.43],[15.09,69.32],[15.2,69.14],[14.76,69.03],[14.19,69.11],[13.75,69.0],[13.88,68.81],[13.45,68.7],[13.58,68.52],[13.16,68.41],[13.29,68.23],[12.87,68.12],[12.33,68.19],[11.93,68.08],[12.07,67.9],[11.67,67.79],[11.81,67.61],[11.42,67.5],[11.56,67.33],[12.08,67.26],[12.46,67.37],[12.33,67.54],[12.73,67.65],[13.26,67.58],[13.38,67.4],[12.98,67.29],[13.11,67.12],[12.72,67.01],[12.21,67.08],[11.83,66.97],[11.96,66.8],[11.59,66.69],[11.72,66.52],[11.35,66.41],[11.48,66.24],[11.12,66.13],[11.26,65.96],[10.9,65.85],[11.03,65.68],[11.51,65.62],[11.64,65.45],[11.29,65.34],[10.82,65.41],[10.48,65.3],[10.61,65.14],[10.28,65.03],[10.41,64.87],[10.13,64.7],[9.72,64.7],[9.6,64.53],[9.88,64.36],[9.77,64.2],[9.36,64.19],[9.07,64.35],[8.66,64.35],[8.54,64.18],[8.13,64.17],[8.02,64.0],[8.32,63.83],[8.2,63.66],[7.8,63.65],[7.69,63.48],[7.29,63.47],[7.18,63.29],[6.77,63.28],[6.67,63.1],[6.27,63.08],[6.16,62.91],[5.76,62.89],[5.66,62.71],[5.26,62.69],[5.16,62.51],[4.76,62.49],[4.67,62.31],[4.97,62.14],[4.87,61.96],[4.48,61.94],[4.39,61.75],[4.69,61.59],[4.59,61.41],[4.2,61.38],[4.11,61.2],[4.41,61.04],[4.32,60.85],[4.62,60.69],[4.53,60.5],[4.82,60.34],[4.73,60.15],[5.02,59.98],[4.93,59.79],[4.55,59.77],[4.46,59.58],[4.75,59.41],[4.66,59.22],[4.94,59.06],[4.85,58.86],[5.13,58.7],[5.05,58.51],[5.32,58.34],[5.68,58.37],[5.95,58.2],[6.31,58.23],[6.58,58.06],[6.49,57.87],[6.78,57.76],[7.16,57.84],[7.45,57.72],[7.84,57.8],[7.93,57.99],[8.32,58.07],[8.61,57.95],[9.0,58.03],[9.1,58.22],[9.5,58.29],[9.6,58.48],[9.31,58.6],[9.41,58.79],[9.81,58.86],[10.11,58.74],[10.51,58.81],[10.8,58.69],[10.69,58.5],[10.98,58.38],[10.87,58.19],[11.16,58.06],[11.05,57.87],[10.65,57.8],[10.36,57.93],[9.97,57.86],[9.87,57.67],[9.48,57.59],[9.37,57.4],[8.99,57.33],[8.7,57.45],[8.31,57.37],[8.22,57.18],[7.84,57.1],[7.74,56.9],[8.02,56.79],[7.93,56.59],[7.55,56.51],[7.46,56.31],[7.74,56.19],[7.65,55.99],[7.93,55.87],[7.83,55.67],[7.46,55.59],[7.37,55.39],[7.65,55.27],[8.02,55.35],[8.29,55.23],[8.2,55.02],[7.83,54.95],[7.74,54.74],[8.02,54.62],[7.92,54.41],[7.56,54.34],[7.47,54.13],[7.11,54.05],[7.02,53.84],[6.66,53.76],[6.39,53.89],[6.04,53.81],[5.95,53.6],[5.6,53.51],[5.33,53.64],[4.98,53.55],[4.9,53.34],[4.56,53.26],[4.48,53.05],[4.15,53.01],[4.07,52.8],[4.33,52.63],[4.25,52.42],[3.93,52.38],[3.85,52.16],[3.53,52.12],[3.45,51.91],[3.13,51.86],[3.06,51.64],[2.74,51.6],[2.67,51.38],[2.35,51.33],[2.28,51.11],[1.96,51.06],[1.7,51.22],[1.77,51.44],[1.51,51.61],[1.57,51.82],[1.9,51.87],[1.97,52.09],[1.7,52.25],[1.77,52.47],[2.1,52.52],[2.17,52.73],[1.91,52.89],[1.98,53.11],[1.71,53.27],[1.37,53.22],[1.1,53.38],[0.76,53.33],[0.49,53.49],[0.56,53.71],[0.28,53.87],[0.34,54.08],[0.06,54.24],[0.13,54.45],[-0.16,54.61],[-0.51,54.56],[-0.79,54.72],[-0.73,54.93],[-1.02,55.09],[-0.96,55.3],[-1.25,55.46],[-1.19,55.67],[-1.49,55.82],[-1.43,56.03],[-1.73,56.19],[-2.09,56.13],[-2.4,56.29],[-2.34,56.5],[-1.98,56.55],[-1.92,56.76],[-1.55,56.81],[-1.49,57.02],[-1.8,57.18],[-1.74,57.38],[-1.37,57.43],[-1.3,57.64],[-1.61,57.79],[-1.99,57.74],[-2.3,57.9],[-2.68,57.84],[-3.0,58.0],[-2.94,58.2],[-2.56,58.25],[-2.5,58.46],[-2.82,58.61],[-2.76,58.81],[-2.38,58.87],[-2.32,59.07],[-1.94,59.12],[-1.87,59.32],[-1.49,59.37],[-1.42,59.57],[-1.03,59.61],[-0.97,59.81],[-0.58,59.85],[-0.51,60.05],[-0.83,60.2],[-0.76,60.4],[-0.37,60.44],[-0.3,60.64],[-0.62,60.79],[-0.55,60.99],[-0.88,61.14],[-1.28,61.1],[-1.35,60.9],[-1.75,60.86],[-1.82,60.66],[-2.21,60.61],[-2.28,60.42],[-2.67,60.37],[-2.74,60.17],[-2.4,60.02],[-2.01,60.07],[-1.68,59.92],[-1.75,59.72],[-2.14,59.67],[-2.2,59.47],[-2.59,59.42],[-2.92,59.57],[-3.31,59.52],[-3.36,59.32],[-3.75,59.26],[-4.09,59.41],[-4.48,59.36],[-4.53,59.15],[-4.19,59.0],[-3.81,59.06],[-3.48,58.91],[-3.53,58.71],[-3.91,58.65],[-4.25,58.8],[-4.63,58.74],[-4.97,58.89],[-5.35,58.83],[-5.4,58.62],[-5.79,58.56],[-6.13,58.71],[-6.51,58.64],[-6.56,58.43],[-6.94,58.37],[-7.28,58.51],[-7.67,58.44],[-7.71,58.23],[-7.36,58.09],[-7.4,57.88],[-7.78,57.81],[-7.82,57.6],[-7.48,57.46],[-7.52,57.25],[-7.89,57.17],[-7.93,56.96],[-8.3,56.89],[-8.34,56.67],[-8.0,56.53],[-7.63,56.6],[-7.3,56.46],[-7.33,56.25],[-7.01,56.1],[-7.04,55.89],[-6.72,55.74],[-6.76,55.52],[-7.12,55.45],[-7.45,55.6],[-7.81,55.52],[-8.14,55.67],[-8.5,55.59],[-8.54,55.37],[-8.9,55.29],[-8.93,55.07],[-9.29,54.99],[-9.32,54.77],[-8.99,54.63],[-9.02,54.41],[-9.38,54.33],[-9.71,54.47],[-10.06,54.38],[-10.39,54.52],[-10.75,54.44],[-10.77,54.21],[-10.44,54.08],[-10.47,53.85],[-10.82,53.76],[-10.84,53.54],[-10.51,53.4],[-10.54,53.17],[-10.21,53.03],[-10.24,52.81],[-10.58,52.72],[-10.61,52.49],[-10.95,52.4],[-10.97,52.17],[-10.65,52.03],[-10.67,51.8],[-10.36,51.66],[-10.38,51.43],[-10.07,51.29],[-9.73,51.38],[-9.42,51.24],[-9.08,51.32],[-8.77,51.18],[-8.43,51.27],[-8.4,51.49],[-8.07,51.58],[-8.03,51.81],[-7.69,51.89],[-7.39,51.74],[-7.05,51.82],[-7.01,52.05],[-6.67,52.13],[-6.37,51.98],[-6.03,52.05],[-5.99,52.28],[-5.65,52.35],[-5.61,52.58],[-5.91,52.73],[-5.87,52.95],[-5.52,53.02],[-5.48,53.25],[-5.78,53.4],[-5.74,53.62],[-6.05,53.77],[-6.01,53.99],[-5.66,54.06],[-5.62,54.28],[-5.26,54.35],[-4.95,54.2],[-5.0,53.98],[-4.7,53.83],[-4.74,53.61],[-5.09,53.54],[-5.13,53.32],[-4.83,53.17],[-4.88,52.94],[-5.22,52.87],[-5.26,52.65],[-4.97,52.5],[-5.01,52.28],[-5.35,52.2],[-5.39,51.98],[-5.73,51.9],[-5.77,51.68],[-5.48,51.53],[-5.14,51.6],[-4.85,51.45],[-4.89,51.22],[-4.6,51.07],[-4.64,50.84],[-4.98,50.77],[-5.27,50.92],[-5.6,50.85],[-5.64,50.62],[-5.97,50.54],[-6.01,50.31],[-6.34,50.23],[-6.38,50.0],[-6.7,49.92],[-6.74,49.69],[-6.45,49.54],[-6.12,49.62],[-6.09,49.85],[-5.76,49.93],[-5.47,49.78],[-5.14,49.86],[-4.86,49.7],[-4.53,49.78],[-4.49,50.01],[-4.16,50.08],[-3.88,49.93],[-3.56,50.0],[-3.51,50.23],[-3.18,50.3],[-3.13,50.52],[-2.81,50.59],[-2.53,50.44],[-2.2,50.5],[-1.93,50.35],[-1.61,50.41],[-1.34,50.25],[-1.01,50.32],[-0.96,50.54],[-0.63,50.6],[-0.37,50.44],[-0.04,50.5],[0.22,50.34],[0.54,50.4],[0.6,50.62],[0.93,50.68],[1.18,50.52],[1.12,50.3],[0.8,50.24],[0.74,50.02],[0.42,49.96],[0.16,50.12],[-0.16,50.06],[-0.22,49.84],[0.04,49.67],[-0.02,49.45],[-0.33,49.39],[-0.59,49.55],[-0.91,49.49],[-1.18,49.65],[-1.12,49.87],[-1.39,50.03],[-1.71,49.96],[-1.98,50.12],[-2.31,50.05],[-2.36,49.83],[-2.68,49.76],[-2.73,49.53],[-3.05,49.46],[-3.1,49.23],[-3.42,49.16],[-3.47,48.93],[-3.79,48.86],[-4.06,49.01],[-4.39,48.94],[-4.43,48.71],[-4.75,48.63],[-5.03,48.78],[-5.35,48.7],[-5.39,48.47],[-5.11,48.32],[-5.15,48.09],[-4.87,47.93],[-4.91,47.7],[-4.64,47.55],[-4.33,47.63],[-4.06,47.47],[-3.74,47.55],[-3.47,47.39],[-3.52,47.16],[-3.25,47.0],[-2.94,47.08],[-2.68,46.92],[-2.73,46.69],[-2.47,46.53],[-2.16,46.61],[-1.91,46.45],[-1.96,46.22],[-1.7,46.06],[-1.75,45.83],[-1.5,45.67],[-1.55,45.44],[-1.3,45.28],[-1.35,45.05],[-1.65,44.97],[-1.7,44.74],[-1.45,44.58],[-1.5,44.35],[-1.8,44.27],[-1.85,44.04],[-1.6,43.88],[-1.65,43.64],[-1.94,43.57],[-2.19,43.72],[-2.48,43.64],[-2.73,43.8],[-3.02,43.72],[-3.28,43.88],[-3.57,43.79],[-3.82,43.95],[-4.12,43.86],[-4.16,43.63],[-4.46,43.54],[-4.72,43.69],[-5.01,43.61],[-5.27,43.76],[-5.57,43.67],[-5.83,43.82],[-6.13,43.73],[-6.39,43.88],[-6.69,43.79],[-6.96,43.94],[-7.26,43.85],[-7.53,44.0],[-7.83,43.9],[-8.1,44.05],[-8.4,43.95],[-8.43,43.71],[-8.73,43.61],[-9.0,43.76],[-9.3,43.66],[-9.33,43.42],[-9.63,43.32],[-9.65,43.07],[-9.38,42.93],[-9.4,42.68],[-9.13,42.54],[-9.15,42.29],[-8.88,42.14],[-8.91,41.9],[-9.2,41.8],[-9.22,41.55],[-8.96,41.41],[-8.98,41.16],[-8.72,41.01],[-8.74,40.77],[-9.03,40.67],[-9.06,40.42],[-9.34,40.31],[-9.36,40.07],[-9.1,39.92],[-9.13,39.67],[-9.41,39.57],[-9.43,39.32],[-9.72,39.21],[-9.74,38.97],[-9.48,38.82],[-9.2,38.93],[-9.17,39.18],[-8.89,39.28],[-8.87,39.53],[-8.58,39.63],[-8.56,39.88],[-8.27,39.98],[-8.01,39.84],[-7.73,39.94],[-7.7,40.18],[-7.42,40.28],[-7.16,40.14],[-6.88,40.23],[-6.62,40.09],[-6.34,40.18],[-6.31,40.43],[-6.02,40.52],[-5.77,40.37],[-5.81,40.13],[-5.56,39.98],[-5.27,40.07],[-5.24,40.32],[-4.95,40.41],[-4.71,40.26],[-4.43,40.35],[-4.39,40.59],[-4.1,40.68],[-3.86,40.53],[-3.58,40.61],[-3.54,40.85],[-3.25,40.94],[-3.01,40.79],[-2.73,40.87],[-2.49,40.72],[-2.53,40.48],[-2.3,40.32],[-2.02,40.41],[-1.78,40.25],[-1.83,40.01],[-1.6,39.86],[-1.32,39.94],[-1.09,39.78],[-0.82,39.87],[-0.77,40.1],[-0.49,40.18],[-0.26,40.03],[-0.31,39.79],[-0.59,39.71],[-0.64,39.47],[-0.41,39.32],[-0.46,39.08],[-0.24,38.92],[-0.29,38.69],[-0.56,38.6],[-0.61,38.37],[-0.88,38.28],[-0.92,38.05],[-1.19,37.96],[-1.24,37.72],[-1.51,37.64],[-1.55,37.4],[-1.33,37.25],[-1.06,37.33],[-1.02,37.57],[-0.75,37.65],[-0.53,37.5],[-0.26,37.58],[-0.21,37.82],[-0.43,37.97],[-0.38,38.21],[-0.12,38.29],[-0.07,38.53],[0.2,38.61],[0.25,38.85],[0.03,39.0],[0.08,39.24],[-0.14,39.4],[-0.09,39.63],[0.18,39.71],[0.24,39.95],[0.51,40.02],[0.56,40.26],[0.84,40.34],[0.89,40.57],[1.17,40.66],[1.23,40.9],[1.51,40.99],[1.74,40.85],[2.02,40.94],[2.08,41.17],[2.36,41.26],[2.42,41.49],[2.71,41.58],[2.94,41.44],[3.23,41.53],[3.29,41.76],[3.59,41.85],[3.65,42.08],[3.42,42.23],[3.48,42.46],[3.25,42.6],[3.31,42.84],[3.61,42.93],[3.67,43.16],[3.97,43.25],[4.21,43.1],[4.51,43.19],[4.74,43.04],[5.04,43.13],[5.28,42.98],[5.58,43.06],[5.82,42.92],[6.12,43.0],[6.35,42.85],[6.66,42.93],[6.74,43.16],[7.05,43.24],[7.12,43.48],[7.43,43.56],[7.67,43.4],[7.98,43.48],[8.06,43.71],[8.37,43.79],[8.46,44.02],[8.77,44.1],[9.01,43.94],[9.33,44.02],[9.56,43.86],[9.88,43.94],[10.12,43.78],[10.03,43.55],[9.71,43.47],[9.63,43.24],[9.31,43.17],[9.23,42.94],[8.91,42.86],[8.68,43.02],[8.37,42.94],[8.29,42.71],[8.52,42.55],[8.44,42.32],[8.13,42.24],[8.05,42.01],[8.28,41.85],[8.21,41.61],[8.43,41.46],[8.74,41.53],[8.97,41.37],[8.89,41.14],[8.58,41.06],[8.36,41.22],[8.05,41.14],[7.97,40.91],[7.67,40.83],[7.6,40.59],[7.82,40.44],[8.12,40.51],[8.35,40.35],[8.27,40.12],[7.97,40.04],[7.9,39.8],[8.12,39.64],[8.05,39.4],[7.75,39.33],[7.67,39.09],[7.9,38.93],[8.19,39.0],[8.42,38.84],[8.34,38.6],[8.56,38.44],[8.86,38.51],[8.94,38.75],[9.24,38.82],[9.31,39.06],[9.62,39.14],[9.84,38.97],[10.14,39.04],[10.22,39.28],[10.0,39.45],[10.08,39.68],[9.86,39.85],[9.94,40.09],[10.25,40.16],[10.33,40.4],[10.11,40.56],[10.19,40.8],[9.96,40.96],[10.05,41.2],[9.82,41.36],[9.9,41.59],[9.67,41.76],[9.76,41.99],[10.07,42.06],[10.3,41.9],[10.61,41.97],[10.7,42.21],[11.02,42.28],[11.24,42.11],[11.56,42.18],[11.79,42.02],[11.7,41.78],[11.93,41.62],[12.25,41.68],[12.47,41.52],[12.38,41.28],[12.61,41.11],[12.52,40.88],[12.74,40.71],[13.05,40.77],[13.28,40.6],[13.59,40.67],[13.82,40.49],[14.13,40.55],[14.36,40.38],[14.67,40.44],[14.89,40.27],[14.8,40.03],[15.02,39.85],[15.33,39.91],[15.55,39.73],[15.45,39.5],[15.67,39.32],[15.57,39.08],[15.26,39.02],[15.16,38.79],[14.85,38.73],[14.63,38.9],[14.32,38.84],[14.23,38.61],[14.44,38.43],[14.35,38.19],[14.04,38.13],[13.82,38.31],[13.52,38.24],[13.3,38.42],[13.39,38.66],[13.17,38.83],[12.86,38.77],[12.77,38.53],[12.46,38.46],[12.38,38.22],[12.07,38.16],[11.98,37.92],[12.2,37.74],[12.12,37.5],[12.33,37.33],[12.64,37.4],[12.85,37.22],[13.15,37.28],[13.37,37.11],[13.67,37.17],[13.89,36.99],[14.19,37.05],[14.41,36.87],[14.32,36.63],[14.53,36.45],[14.83,36.51],[15.04,36.33],[15.35,36.39],[15.44,36.63],[15.23,36.81],[15.33,37.05],[15.63,37.11],[15.73,37.35],[15.52,37.53],[15.61,37.77],[15.93,37.83],[16.14,37.64],[16.45,37.7],[16.55,37.94],[16.86,37.99],[16.96,38.23],[16.75,38.41],[16.85,38.65],[17.17,38.71],[17.27,38.94],[17.58,39.0],[17.69,39.23],[17.47,39.41],[17.58,39.65],[17.36,39.83],[17.04,39.78],[16.83,39.96],[16.93,40.19],[17.25,40.25],[17.47,40.07],[17.79,40.12],[18.0,39.94],[17.9,39.7],[18.11,39.52],[18.43,39.57],[18.54,39.8],[18.86,39.85],[19.07,39.67],[19.4,39.72],[19.61,39.53],[19.5,39.3],[19.71,39.11],[20.03,39.15],[20.24,38.97],[20.13,38.73],[20.34,38.54],[20.23,38.31],[20.44,38.12],[20.33,37.88],[20.53,37.69],[20.42,37.45],[20.63,37.26],[20.94,37.31],[21.05,37.54],[21.37,37.59],[21.57,37.39],[21.46,37.16],[21.66,36.96],[21.55,36.73],[21.75,36.53],[22.07,36.57],[22.27,36.38],[22.58,36.42],[22.78,36.22],[22.67,35.99],[22.86,35.79],[23.18,35.83],[23.29,36.06],[23.09,36.26],[23.21,36.5],[23.01,36.69],[23.13,36.93],[22.93,37.12],[23.04,37.36],[23.36,37.4],[23.47,37.63],[23.79,37.67],[23.99,37.47],[24.31,37.51],[24.43,37.74],[24.75,37.77],[24.87,38.0],[24.67,38.2],[24.35,38.17],[24.15,38.36],[24.27,38.6],[24.07,38.79],[23.75,38.76],[23.55,38.95],[23.66,39.18],[23.46,39.38],[23.14,39.34],[22.93,39.53],[23.05,39.76],[22.85,39.96],[22.96,40.19],[23.29,40.22],[23.5,40.03],[23.82,40.07],[24.03,39.87],[24.35,39.91],[24.48,40.14],[24.27,40.33],[24.39,40.56],[24.72,40.59],[24.85,40.82],[25.18,40.85],[25.38,40.66],[25.25,40.43],[25.46,40.23],[25.33,40.01],[25.0,39.97],[24.88,39.75],[25.08,39.55],[25.41,39.58],[25.53,39.81],[25.86,39.84],[26.06,39.64],[25.93,39.41],[26.13,39.21],[26.0,38.99],[26.2,38.79],[26.07,38.56],[25.75,38.53],[25.63,38.3],[25.83,38.1],[26.15,38.13],[26.27,38.36],[26.59,38.39],[26.72,38.62],[27.04,38.64],[27.16,38.87],[26.97,39.07],[27.1,39.3],[26.9,39.5],[27.03,39.72],[26.83,39.92],[26.51,39.9],[26.31,40.09],[26.44,40.32],[26.76,40.35],[26.96,40.15],[27.29,40.18],[27.49,39.98],[27.81,40.0],[27.94,40.22],[28.27,40.25],[28.46,40.05],[28.79,40.07],[28.92,40.29],[29.25,40.31],[29.38,40.53],[29.71,40.55],[29.84,40.77],[29.65,40.98],[29.79,41.2],[29.6,41.4],[29.27,41.38],[29.07,41.58],[28.74,41.56],[28.54,41.76],[28.21,41.74],[28.01,41.93],[28.15,42.15],[27.95,42.35],[28.08,42.57],[27.88,42.77],[28.02,42.99],[28.36,43.01],[28.49,43.23],[28.83,43.25],[28.97,43.46],[28.77,43.66],[28.91,43.88],[28.71,44.07],[28.85,44.29],[29.19,44.3],[29.33,44.52],[29.67,44.53],[29.81,44.75],[29.61,44.94],[29.75,45.15],[30.1,45.17],[30.3,44.97],[30.64,44.99],[30.79,45.2],[30.59,45.39],[30.24,45.38],[30.04,45.57],[30.19,45.78],[30.53,45.8],[30.68,46.0],[31.03,46.02],[31.18,46.22],[31.52,46.23],[31.72,46.04],[32.07,46.04],[32.26,45.85],[32.11,45.64],[32.31,45.44],[32.16,45.24],[32.35,45.04],[32.7,45.05],[32.89,44.85],[32.74,44.64],[32.93,44.44],[33.27,44.44],[33.46,44.24],[33.79,44.25],[33.98,44.04],[34.31,44.05],[34.46,44.25],[34.8,44.25],[34.95,44.46],[35.29,44.46],[35.44,44.66],[35.78,44.66],[35.93,44.86],[36.27,44.86],[36.42,45.06],[36.76,45.05],[36.93,44.85],[37.27,44.84],[37.44,44.64],[37.78,44.63],[37.95,44.42],[37.79,44.23],[37.96,44.02],[38.29,44.01],[38.45,44.21],[38.78,44.2],[38.95,43.99],[38.79,43.79],[38.96,43.58],[39.28,43.57],[39.45,43.37],[39.77,43.35],[39.93,43.14],[40.25,43.13],[40.41,42.92],[40.73,42.91],[40.89,42.7],[41.21,42.68],[41.36,42.47],[41.21,42.27],[41.36,42.06],[41.21,41.87],[41.36,41.65],[41.21,41.46],[40.9,41.47],[40.74,41.27],[40.43,41.28],[40.27,41.08],[39.96,41.09],[39.8,41.3],[39.49,41.31],[39.33,41.11],[39.5,40.9],[39.81,40.89],[39.97,40.68],[40.28,40.67],[40.43,40.87],[40.74,40.86],[40.9,41.06],[41.21,41.04],[41.36,41.24],[41.67,41.23],[41.83,41.43],[42.14,41.41],[42.29,41.61],[42.6,41.59],[42.76,41.78],[43.06,41.77],[43.21,41.56],[43.52,41.54],[43.67,41.74],[43.98,41.72],[44.13,41.51],[44.43,41.49],[44.58,41.27],[44.88,41.25],[45.03,41.04],[45.33,41.02],[45.47,40.8],[45.78,40.78],[45.92,40.56],[46.23,40.53],[46.36,40.31],[46.67,40.29],[46.84,40.48],[47.14,40.46],[47.32,40.65],[47.18,40.87],[47.36,41.07],[47.22,41.29],[46.91,41.32],[46.77,41.54],[46.94,41.74],[46.8,41.96],[46.49,41.98],[46.35,42.2],[46.03,42.23],[45.89,42.45],[46.06,42.65],[46.38,42.62],[46.52,42.4],[46.84,42.38],[46.98,42.16],[47.3,42.13],[47.43,41.91],[47.75,41.88],[47.89,41.66],[48.2,41.63],[48.34,41.41],[48.65,41.38],[48.78,41.15],[48.6,40.96],[48.29,40.99],[48.11,40.79],[48.24,40.57],[48.55,40.54],[48.73,40.73],[49.05,40.7],[49.23,40.9],[49.54,40.86],[49.73,41.06],[50.04,41.02],[50.23,41.22],[50.1,41.45],[50.29,41.64],[50.16,41.87],[50.35,42.06],[50.22,42.29],[49.9,42.32],[49.77,42.55],[49.96,42.75],[49.83,42.98],[49.5,43.01],[49.37,43.24],[49.04,43.27],[48.85,43.07],[48.53,43.1],[48.39,43.32],[48.06,43.35],[47.92,43.57],[47.6,43.6],[47.46,43.82],[47.13,43.84],[46.98,44.07],[46.66,44.09],[46.48,43.89],[46.15,43.91],[46.01,44.13],[45.68,44.15],[45.53,44.37],[45.21,44.38],[45.05,44.6],[44.73,44.62],[44.57,44.84],[44.75,45.04],[44.59,45.26],[44.26,45.27],[44.11,45.49],[43.78,45.5],[43.62,45.71],[43.29,45.72],[43.13,45.94],[43.3,46.14],[43.14,46.36],[43.31,46.56],[43.64,46.55],[43.82,46.76],[43.66,46.98],[43.83,47.18],[44.17,47.17],[44.35,47.38],[44.69,47.37],[44.88,47.57],[44.71,47.79],[44.9,48.0],[45.25,47.99],[45.43,48.19],[45.78,48.18],[45.98,48.39],[45.82,48.61],[46.01,48.81],[46.37,48.8],[46.56,49.0],[46.4,49.22],[46.6,49.43],[46.96,49.41],[47.17,49.62],[47.53,49.6],[47.74,49.81],[48.1,49.79],[48.32,50.0],[48.69,49.98],[48.9,50.18],[49.27,50.16],[49.49,50.36],[49.87,50.34],[50.09,50.54],[50.47,50.52],[50.62,50.29],[50.99,50.26],[51.22,50.46],[51.6,50.43],[51.83,50.63],[52.21,50.6],[52.36,50.37],[52.74,50.34],[52.98,50.54],[53.36,50.5],[53.5,50.27],[53.88,50.23],[54.12,50.43],[54.5,50.39],[54.64,50.16],[55.02,50.12],[55.27,50.31],[55.65,50.27],[55.9,50.46],[56.29,50.42],[56.41,50.18],[56.79,50.13],[56.92,49.89],[57.3,49.85],[57.42,49.61],[57.8,49.56],[57.92,49.31],[58.29,49.26],[58.41,49.02],[58.78,48.97],[59.04,49.15],[58.93,49.4],[59.19,49.58],[59.57,49.53],[59.84,49.71],[59.73,49.96],[60.0,50.14],[60.38,50.08],[60.66,50.27],[61.04,50.21],[61.32,50.39],[61.7,50.33],[61.98,50.51],[62.37,50.45],[62.65,50.63],[63.04,50.56],[63.33,50.74],[63.71,50.67],[64.01,50.84],[64.39,50.77],[64.69,50.95],[65.08,50.87],[65.16,50.63],[65.55,50.55],[65.85,50.72],[66.23,50.65],[66.31,50.39],[66.69,50.32],[66.77,50.06],[66.48,49.89],[66.56,49.64],[66.93,49.56],[67.01,49.31],[66.71,49.14],[66.79,48.89],[66.5,48.72],[66.58,48.47],[66.94,48.39],[67.23,48.55],[67.6,48.47],[67.9,48.64],[68.26,48.55],[68.56,48.72],[68.49,48.97],[68.79,49.14],[69.16,49.05],[69.23,48.8],[69.59,48.71],[69.89,48.87],[70.26,48.78],[70.56,48.94],[70.93,48.85],[70.99,48.59],[71.35,48.5],[71.4,48.24],[71.76,48.15],[71.81,47.89],[72.17,47.79],[72.22,47.54],[72.57,47.44],[72.87,47.59],[73.23,47.49],[73.53,47.65],[73.49,47.9],[73.8,48.05],[74.15,47.95],[74.19,47.69],[74.54,47.59],[74.85,47.74],[75.2,47.63],[75.51,47.78],[75.86,47.67],[76.17,47.82],[76.51,47.71],[76.83,47.85],[77.17,47.74],[77.49,47.88],[77.83,47.77],[78.15,47.91],[78.13,48.16],[78.45,48.3],[78.79,48.19],[79.12,48.32],[79.46,48.2],[79.78,48.34],[79.77,48.6],[80.1,48.73],[80.44,48.61],[80.76,48.74],[80.76,49.0],[81.09,49.13],[81.43,49.0],[81.76,49.13],[81.76,49.39],[82.09,49.51],[82.43,49.39],[82.43,49.13],[82.76,49.0],[83.1,49.13],[83.1,49.38],[83.44,49.51],[83.77,49.37],[84.11,49.5],[84.12,49.75],[84.46,49.87],[84.79,49.74],[84.78,49.48],[85.11,49.35],[85.45,49.47],[85.46,49.72],[85.14,49.85],[85.15,50.11],[85.49,50.23],[85.51,50.48],[85.17,50.61],[85.19,50.87],[85.54,50.98],[85.87,50.85],[86.22,50.96],[86.24,51.21],[86.6,51.32],[86.62,51.58],[86.97,51.69],[87.31,51.54],[87.67,51.65],[87.69,51.9],[88.05,52.01],[88.08,52.26],[88.44,52.37],[88.48,52.62],[88.84,52.72],[88.87,52.97],[88.54,53.11],[88.57,53.36],[88.23,53.51],[88.26,53.76],[88.63,53.86],[88.67,54.11],[88.32,54.25],[88.35,54.5],[88.0,54.64],[88.03,54.89],[87.68,55.04],[87.7,55.28],[87.34,55.43],[87.37,55.67],[87.76,55.78],[88.12,55.63],[88.51,55.73],[88.87,55.59],[89.26,55.68],[89.62,55.54],[90.01,55.63],[90.05,55.88],[90.44,55.97],[90.49,56.21],[90.88,56.31],[90.93,56.55],[90.58,56.7],[90.62,56.94],[91.03,57.03],[91.08,57.28],[90.72,57.43],[90.76,57.67],[90.4,57.82],[89.99,57.73],[89.62,57.88],[89.66,58.12],[89.28,58.27],[89.32,58.51],[88.94,58.65],[88.52,58.56],[88.14,58.7],[88.17,58.94],[87.78,59.09],[87.36,58.99],[86.96,59.13],[86.99,59.37],[86.59,59.51],[86.16,59.41],[85.75,59.55],[85.33,59.44],[84.92,59.58],[84.93,59.82],[84.52,59.95],[84.09,59.85],[83.67,59.98],[83.68,60.22],[83.25,60.35],[83.25,60.59],[82.82,60.72],[82.82,60.96],[82.39,61.09],[82.38,61.32],[81.94,61.45],[81.5,61.34],[81.05,61.46],[81.04,61.7],[80.58,61.82],[80.14,61.7],[79.68,61.82],[79.66,62.05],[79.2,62.17],[79.18,62.41],[78.7,62.52],[78.26,62.4],[77.78,62.51],[77.75,62.75],[77.27,62.86],[76.82,62.73],[76.34,62.83],[75.89,62.7],[75.41,62.8],[75.36,63.04],[74.86,63.14],[74.42,63.01],[73.92,63.1],[73.86,63.34],[73.36,63.43],[73.3,63.67],[72.79,63.76],[72.72,63.99],[72.2,64.08],[71.76,63.94],[71.24,64.03],[71.16,64.26],[70.63,64.34],[70.19,64.2],[69.67,64.28],[69.57,64.51],[69.04,64.58],[68.61,64.43],[68.07,64.51],[67.97,64.74],[67.43,64.81],[67.32,65.03],[66.77,65.1],[66.66,65.33],[66.1,65.4],[65.67,65.24],[65.12,65.3],[64.7,65.14],[64.15,65.2],[63.73,65.04],[63.86,64.82],[63.45,64.65],[62.91,64.71],[62.5,64.54],[61.96,64.59],[61.56,64.42],[61.02,64.47],[60.63,64.3],[60.78,64.08],[60.4,63.9],[60.55,63.68],[60.17,63.51],[59.64,63.55],[59.27,63.38],[59.43,63.15],[59.95,63.11],[60.1,62.89],[59.73,62.71],[59.88,62.49],[59.52,62.31],[59.01,62.35],[58.86,62.57],[59.22,62.75],[59.06,62.98],[58.55,63.02],[58.19,62.84],[57.67,62.88],[57.5,63.1],[57.86,63.28],[57.7,63.5],[58.06,63.68],[57.89,63.89],[57.36,63.93],[57.19,64.15],[56.65,64.18],[56.29,64.0],[56.47,63.78],[56.11,63.6],[55.59,63.63],[55.24,63.44],[54.72,63.47],[54.53,63.68],[54.0,63.71],[53.67,63.52],[53.86,63.3],[53.53,63.11],[53.01,63.14],[52.82,63.35],[52.3,63.36],[52.1,63.57],[51.57,63.59],[51.26,63.4],[50.74,63.41],[50.43,63.21],[49.92,63.22],[49.61,63.02],[49.82,62.82],[49.52,62.62],[49.02,62.63],[48.73,62.43],[48.23,62.43],[48.02,62.63],[47.52,62.64],[47.3,62.84],[46.8,62.84],[46.57,63.04],[46.07,63.03],[45.8,62.83],[45.3,62.82],[45.07,63.02],[44.57,63.01],[44.31,62.81],[43.82,62.79],[43.58,62.99],[43.84,63.19],[43.6,63.39],[43.1,63.37],[42.85,63.56],[43.11,63.77],[43.61,63.79],[43.86,63.59],[44.36,63.61],[44.63,63.81],[45.14,63.82],[45.42,64.02],[45.18,64.22],[44.66,64.21],[44.42,64.4],[44.69,64.6],[44.44,64.8],[43.92,64.78],[43.67,64.97],[43.94,65.18],[43.69,65.36],[43.15,65.35],[42.89,65.14],[43.14,64.96],[42.88,64.75],[43.13,64.56],[42.87,64.36],[42.36,64.34],[42.1,64.52],[41.59,64.5],[41.33,64.69],[40.82,64.66],[40.55,64.85],[40.8,65.05],[40.53,65.24],[40.01,65.21],[39.74,65.39],[39.98,65.6],[40.51,65.62],[40.76,65.83],[41.29,65.86],[41.56,66.06],[42.1,66.09],[42.37,66.29],[42.91,66.31],[43.18,66.13],[43.73,66.14],[43.99,65.96],[44.53,65.97],[44.82,66.17],[44.56,66.36],[44.86,66.56],[44.6,66.75],[44.9,66.95],[45.46,66.96],[45.72,66.78],[46.29,66.78],[46.54,66.59],[47.11,66.6],[47.43,66.8],[48.0,66.8],[48.33,67.0],[48.08,67.19],[48.41,67.38],[49.0,67.38],[49.34,67.58],[49.09,67.77],[49.44,67.96],[50.04,67.96],[50.4,68.15],[51.01,68.14],[51.38,68.33],[51.99,68.32],[52.37,68.51],[52.99,68.49],[53.22,68.3],[53.83,68.28],[54.05,68.08],[54.66,68.06],[55.06,68.24],[54.85,68.44],[54.23,68.46],[54.01,68.66],[54.41,68.84],[54.18,69.04],[53.55,69.05],[53.15,68.87],[52.53,68.89],[52.14,68.7],[51.52,68.71],[51.14,68.52],[50.52,68.53],[50.16,68.34],[49.55,68.34],[49.19,68.15],[48.59,68.15],[48.25,67.96],[48.5,67.77],[48.16,67.58],[47.57,67.57],[47.25,67.38],[47.5,67.19],[47.18,66.99],[46.6,66.98],[46.35,67.17],[45.77,67.16],[45.51,67.35],[45.82,67.55],[46.4,67.56],[46.73,67.75],[46.46,67.94],[46.79,68.14],[46.53,68.32],[46.86,68.52],[46.59,68.7],[45.98,68.69],[45.65,68.5],[45.93,68.31],[45.6,68.12],[45.87,67.93],[45.55,67.73],[44.97,67.72],[44.7,67.9],[45.01,68.1],[44.73,68.29],[45.05,68.48],[44.77,68.66],[44.17,68.65],[43.88,68.83],[43.28,68.81],[42.97,68.61],[43.26,68.43],[43.86,68.45],[44.14,68.27],[43.83,68.07],[44.11,67.89],[43.81,67.69],[43.23,67.67],[42.94,67.47],[43.22,67.28],[43.79,67.3],[44.09,67.5],[44.66,67.52],[44.93,67.34],[44.63,67.14],[44.06,67.12],[43.77,66.92],[44.04,66.73],[43.75,66.53],[43.19,66.51],[42.92,66.7],[43.21,66.9],[42.93,67.08],[42.37,67.06],[42.09,66.86],[42.37,66.68],[42.09,66.47],[41.55,66.45],[41.28,66.24],[40.74,66.22],[40.46,66.4],[39.92,66.37],[39.64,66.54],[39.1,66.51],[38.86,66.3],[38.33,66.27],[38.04,66.44],[37.51,66.4],[37.21,66.57],[36.68,66.53],[36.38,66.7],[35.86,66.66],[35.55,66.82],[35.03,66.78],[34.72,66.94],[34.19,66.89],[33.88,67.05],[33.36,67.0],[33.04,67.16],[32.52,67.11],[32.33,66.9],[31.82,66.84],[31.64,66.63],[31.96,66.47],[32.46,66.53],[32.78,66.37],[32.59,66.15],[32.9,65.99],[32.71,65.78],[32.22,65.73],[32.04,65.52],[32.34,65.36],[32.17,65.14],[31.69,65.09],[31.38,65.25],[30.91,65.19],[30.6,65.35],[30.13,65.29],[29.97,65.07],[30.28,64.92],[30.75,64.98],[31.05,64.82],[30.88,64.6],[31.18,64.44],[31.02,64.23],[30.56,64.17],[30.27,64.33],[30.42,64.55],[30.12,64.7],[29.66,64.64],[29.36,64.8],[28.9,64.74],[28.59,64.89],[28.14,64.83],[27.83,64.98],[27.97,65.19],[27.65,65.34],[27.79,65.55],[27.47,65.7],[27.61,65.92],[27.29,66.06],[26.82,65.99],[26.5,66.14],[26.63,66.35],[26.3,66.49],[26.43,66.71],[26.09,66.85],[25.62,66.77],[25.28,66.91],[25.41,67.13],[25.07,67.26],[24.6,67.19],[24.25,67.32],[23.78,67.24],[23.43,67.38],[22.97,67.3],[22.62,67.43],[22.16,67.34],[22.06,67.13],[21.61,67.05],[21.52,66.83],[21.87,66.7],[21.78,66.49],[21.34,66.41],[21.0,66.54],[20.57,66.45],[20.49,66.24],[20.07,66.15],[19.99,65.94]],[[-0.62,40.81],[-0.85,40.97],[-0.8,41.21],[-1.03,41.36],[-1.32,41.28],[-1.55,41.44],[-1.5,41.68],[-1.22,41.76],[-0.99,41.6],[-0.7,41.68],[-0.47,41.52],[-0.19,41.6],[-0.14,41.83],[0.15,41.91],[0.37,41.75],[0.32,41.51],[0.55,41.35],[0.5,41.12],[0.22,41.05],[0.17,40.81],[-0.11,40.73],[-0.34,40.89],[-0.62,40.81]],[[37.87,46.43],[37.71,46.23],[37.88,46.03],[37.72,45.84],[37.39,45.84],[37.23,45.65],[36.89,45.65],[36.71,45.86],[36.37,45.86],[36.22,45.66],[35.88,45.67],[35.72,45.47],[35.38,45.47],[35.2,45.67],[35.35,45.87],[35.17,46.07],[35.32,46.27],[35.67,46.27],[35.82,46.47],[36.17,46.46],[36.32,46.66],[36.67,46.65],[36.85,46.45],[37.19,46.45],[37.35,46.64],[37.69,46.63],[37.87,46.43]],[[22.09,59.54],[22.37,59.4],[22.21,59.22],[21.79,59.19],[21.64,59.01],[21.91,58.86],[21.76,58.69],[21.33,58.65],[21.19,58.47],[21.46,58.32],[21.31,58.14],[21.58,57.99],[21.43,57.81],[21.7,57.66],[21.55,57.48],[21.14,57.44],[20.99,57.26],[21.26,57.11],[21.11,56.92],[20.71,56.88],[20.56,56.7],[20.83,56.55],[20.69,56.36],[20.95,56.2],[20.81,56.01],[21.07,55.86],[20.93,55.67],[20.53,55.63],[20.39,55.44],[20.65,55.29],[20.51,55.09],[20.12,55.05],[19.86,55.21],[19.46,55.16],[19.33,54.97],[19.59,54.82],[19.45,54.62],[19.06,54.58],[18.8,54.73],[18.94,54.92],[18.67,55.08],[18.28,55.03],[18.02,55.18],[17.63,55.13],[17.5,54.93],[17.11,54.88],[16.98,54.69],[16.6,54.63],[16.33,54.78],[15.95,54.73],[15.82,54.53],[15.44,54.47],[15.32,54.27],[14.94,54.22],[14.67,54.36],[14.29,54.3],[14.03,54.44],[14.14,54.64],[13.87,54.78],[13.49,54.72],[13.22,54.86],[12.84,54.8],[12.73,54.6],[12.35,54.53],[12.08,54.67],[12.19,54.87],[12.57,54.94],[12.68,55.14],[13.06,55.2],[13.33,55.06],[13.72,55.12],[13.83,55.32],[14.22,55.38],[14.49,55.24],[14.37,55.04],[14.64,54.9],[15.03,54.96],[15.29,54.82],[15.68,54.87],[15.8,55.07],[15.53,55.21],[15.65,55.41],[15.39,55.55],[15.0,55.5],[14.72,55.64],[14.84,55.83],[15.24,55.89],[15.51,55.75],[15.9,55.8],[16.02,56.0],[16.42,56.05],[16.54,56.25],[16.94,56.3],[17.07,56.49],[16.8,56.63],[16.93,56.82],[17.33,56.87],[17.46,57.06],[17.87,57.11],[18.14,56.97],[18.01,56.78],[18.28,56.63],[18.68,56.68],[18.81,56.87],[18.54,57.01],[18.68,57.2],[19.09,57.25],[19.23,57.43],[18.95,57.58],[19.09,57.76],[19.51,57.81],[19.65,57.99],[19.37,58.13],[19.51,58.32],[19.24,58.46],[18.82,58.42],[18.68,58.23],[18.27,58.19],[18.13,58.0],[18.41,57.86],[18.27,57.68],[17.86,57.63],[17.73,57.44],[17.32,57.39],[17.04,57.53],[17.18,57.72],[16.9,57.86],[17.03,58.05],[17.44,58.1],[17.58,58.28],[17.3,58.42],[17.43,58.61],[17.85,58.65],[18.13,58.51],[18.54,58.56],[18.68,58.74],[19.1,58.78],[19.25,58.97],[18.97,59.11],[19.11,59.29],[19.53,59.33],[19.68,59.51],[20.1,59.55],[20.25,59.72],[20.68,59.76],[20.96,59.62],[21.39,59.65],[21.66,59.51],[22.09,59.54]],[[15.19,43.75],[15.42,43.58],[15.32,43.35],[15.54,43.18],[15.44,42.95],[15.67,42.78],[16.0,42.83],[16.22,42.66],[16.12,42.43],[15.79,42.37],[15.57,42.54],[15.24,42.49],[15.14,42.25],[14.81,42.19],[14.59,42.37],[14.69,42.6],[14.46,42.77],[14.56,43.0],[14.33,43.17],[14.43,43.4],[14.2,43.57],[13.87,43.51],[13.64,43.67],[13.74,43.9],[13.51,44.07],[13.18,44.01],[12.95,44.17],[13.04,44.4],[12.81,44.56],[12.9,44.79],[12.67,44.95],[12.77,45.18],[13.1,45.25],[13.33,45.08],[13.24,44.86],[13.47,44.69],[13.8,44.76],[14.04,44.59],[13.94,44.36],[14.17,44.2],[14.5,44.26],[14.73,44.09],[14.63,43.86],[14.86,43.69],[15.19,43.75]],[[13.95,67.97],[14.48,67.9],[14.59,67.71],[14.18,67.61],[13.66,67.69],[13.54,67.87],[13.95,67.97]],[[38.99,65.15],[38.48,65.11],[38.2,65.29],[37.69,65.26],[37.4,65.43],[36.9,65.39],[36.61,65.56],[36.1,65.52],[35.89,65.31],[35.39,65.27],[35.1,65.44],[35.3,65.65],[35.81,65.69],[36.02,65.9],[35.72,66.07],[35.94,66.28],[36.46,66.32],[36.76,66.15],[37.28,66.19],[37.57,66.02],[38.09,66.06],[38.38,65.88],[38.9,65.92],[39.14,66.13],[39.67,66.16],[39.95,65.98],[39.71,65.77],[39.18,65.74],[38.94,65.53],[39.22,65.36],[38.99,65.15]],[[84.49,50.63],[84.83,50.5],[84.82,50.24],[84.47,50.12],[84.14,50.26],[84.14,50.51],[83.8,50.65],[83.81,50.9],[84.16,51.02],[84.5,50.89],[84.49,50.63]],[[21.56,64.09],[21.96,64.17],[22.05,64.39],[21.73,64.52],[21.81,64.73],[21.49,64.87],[21.57,65.08],[21.99,65.16],[22.32,65.03],[22.74,65.11],[22.83,65.32],[23.26,65.4],[23.59,65.26],[24.02,65.34],[24.34,65.2],[24.23,64.99],[23.81,64.91],[23.7,64.7],[23.28,64.62],[23.18,64.41],[22.77,64.33],[22.68,64.11],[22.27,64.04],[22.19,63.82],[21.79,63.74],[21.7,63.53],[21.31,63.45],[21.0,63.58],[21.08,63.8],[21.47,63.88],[21.56,64.09]],[[18.98,60.59],[18.55,60.55],[18.26,60.68],[18.4,60.85],[18.11,60.99],[17.67,60.94],[17.38,61.07],[17.52,61.25],[17.96,61.29],[18.1,61.46],[17.81,61.59],[17.95,61.77],[17.66,61.89],[17.8,62.07],[18.15,62.15],[18.21,62.36],[18.56,62.45],[18.62,62.66],[18.98,62.74],[19.04,62.96],[19.41,63.04],[19.48,63.25],[19.85,63.34],[19.92,63.55],[20.3,63.63],[20.62,63.5],[20.54,63.29],[20.16,63.21],[20.09,62.99],[20.4,62.86],[20.33,62.65],[20.63,62.51],[20.56,62.3],[20.86,62.16],[20.78,61.95],[21.08,61.81],[21.01,61.6],[21.3,61.46],[21.22,61.25],[20.86,61.17],[20.79,60.95],[20.44,60.88],[20.29,60.7],[19.85,60.67],[19.7,60.49],[19.27,60.45],[18.98,60.59]],[[37.69,63.49],[37.96,63.31],[37.75,63.1],[37.27,63.07],[37.01,63.25],[36.54,63.21],[36.27,63.39],[36.47,63.6],[36.95,63.64],[37.22,63.46],[37.69,63.49]],[[16.46,41.84],[16.24,42.02],[16.34,42.25],[16.67,42.31],[16.78,42.54],[17.11,42.59],[17.33,42.42],[17.66,42.47],[17.88,42.29],[18.21,42.34],[18.43,42.16],[18.76,42.21],[18.98,42.03],[18.87,41.8],[19.09,41.62],[18.98,41.39],[19.19,41.2],[19.08,40.97],[19.3,40.79],[19.19,40.55],[18.86,40.51],[18.65,40.69],[18.32,40.64],[18.11,40.82],[17.78,40.77],[17.56,40.95],[17.67,41.18],[17.45,41.36],[17.13,41.31],[16.91,41.49],[16.58,41.43],[16.36,41.61],[16.46,41.84]],[[36.96,65.01],[37.46,65.04],[37.74,64.87],[37.52,64.66],[37.03,64.62],[36.75,64.8],[36.96,65.01]],[[11.68,57.11],[11.57,56.92],[11.18,56.85],[11.07,56.65],[10.69,56.58],[10.4,56.71],[10.51,56.91],[10.9,56.98],[11.01,57.17],[11.4,57.24],[11.68,57.11]],[[28.4,40.47],[28.21,40.67],[28.34,40.89],[28.67,40.92],[28.86,40.72],[28.73,40.49],[28.4,40.47]],[[23.31,38.49],[23.63,38.52],[23.83,38.33],[23.71,38.1],[23.39,38.06],[23.19,38.26],[23.31,38.49]],[[26.91,60.1],[26.8,59.88],[26.42,59.82],[26.15,59.98],[26.26,60.2],[26.64,60.26],[26.91,60.1]],[[43.24,43.21],[43.08,43.01],[42.77,43.02],[42.62,43.24],[42.78,43.44],[43.09,43.43],[43.24,43.21]],[[-2.61,48.69],[-2.88,48.85],[-2.83,49.08],[-2.51,49.15],[-2.24,48.99],[-2.29,48.76],[-2.61,48.69]],[[24.03,57.66],[24.29,57.51],[24.14,57.33],[23.72,57.3],[23.46,57.45],[23.62,57.63],[23.36,57.79],[23.51,57.97],[23.93,58.0],[24.19,57.84],[24.03,57.66]],[[39.33,64.19],[39.1,63.98],[38.61,63.95],[38.34,64.13],[38.57,64.34],[39.07,64.37],[39.33,64.19]],[[12.24,56.85],[12.52,56.72],[12.41,56.53],[12.02,56.46],[11.74,56.59],[11.85,56.79],[12.24,56.85]],[[31.77,64.12],[32.07,63.96],[31.9,63.74],[32.19,63.58],[32.02,63.37],[31.57,63.31],[31.28,63.48],[31.44,63.69],[31.15,63.85],[31.31,64.07],[31.77,64.12]],[[-3.4,53.65],[-3.45,53.44],[-3.8,53.37],[-4.09,53.52],[-4.04,53.74],[-4.35,53.9],[-4.3,54.11],[-3.95,54.18],[-3.65,54.03],[-3.7,53.81],[-3.4,53.65]],[[25.77,59.92],[25.67,59.7],[25.3,59.64],[25.03,59.79],[25.13,60.01],[25.5,60.07],[25.77,59.92]]],[[[-2.54,37.53],[-2.81,37.44],[-2.85,37.2],[-2.62,37.05],[-2.36,37.14],[-2.31,37.38],[-2.54,37.53]]],[[[-15.47,66.66],[-15.96,66.58],[-16.35,66.72],[-16.85,66.64],[-16.96,66.41],[-17.45,66.32],[-17.85,66.46],[-18.34,66.37],[-18.74,66.51],[-19.24,66.42],[-19.32,66.19],[-19.81,66.09],[-20.22,66.23],[-20.71,66.13],[-21.13,66.26],[-21.61,66.16],[-22.04,66.29],[-21.98,66.52],[-22.42,66.65],[-22.92,66.55],[-22.96,66.31],[-23.45,66.21],[-23.89,66.33],[-24.38,66.22],[-24.41,65.99],[-24.89,65.87],[-24.92,65.64],[-24.48,65.51],[-24.51,65.28],[-24.08,65.16],[-24.11,64.92],[-24.57,64.81],[-24.6,64.58],[-24.18,64.45],[-23.73,64.57],[-23.32,64.44],[-22.86,64.55],[-22.46,64.43],[-22.51,64.2],[-22.95,64.09],[-23.0,63.86],[-22.6,63.73],[-22.16,63.84],[-21.77,63.72],[-21.33,63.82],[-20.94,63.69],[-21.0,63.46],[-20.63,63.34],[-20.19,63.44],[-19.82,63.31],[-19.39,63.41],[-19.02,63.28],[-18.59,63.37],[-18.23,63.24],[-17.8,63.33],[-17.71,63.56],[-17.27,63.65],[-16.92,63.51],[-16.48,63.6],[-16.38,63.83],[-15.94,63.91],[-15.84,64.14],[-15.38,64.22],[-15.04,64.08],[-14.59,64.16],[-14.48,64.38],[-14.02,64.46],[-13.9,64.68],[-13.44,64.76],[-13.32,64.98],[-12.85,65.05],[-12.72,65.27],[-13.06,65.42],[-12.93,65.64],[-13.27,65.78],[-13.75,65.71],[-14.11,65.86],[-13.98,66.08],[-14.34,66.22],[-14.22,66.45],[-14.59,66.59],[-15.09,66.51],[-15.47,66.66]],[[-22.15,65.82],[-22.21,65.59],[-22.68,65.49],[-23.1,65.61],[-23.57,65.5],[-24.01,65.63],[-23.97,65.86],[-23.49,65.97],[-23.06,65.85],[-22.58,65.95],[-22.15,65.82]],[[-15.81,65.98],[-15.44,65.84],[-15.55,65.62],[-15.19,65.48],[-15.3,65.25],[-14.94,65.11],[-15.06,64.89],[-14.71,64.75],[-14.82,64.52],[-15.28,64.44],[-15.63,64.58],[-16.08,64.5],[-16.19,64.27],[-16.64,64.19],[-16.99,64.32],[-17.45,64.24],[-17.54,64.01],[-17.98,63.92],[-18.35,64.05],[-18.79,63.96],[-18.87,63.73],[-19.31,63.63],[-19.68,63.76],[-19.61,63.99],[-19.17,64.09],[-19.09,64.32],[-19.47,64.45],[-19.92,64.35],[-20.31,64.48],[-20.76,64.38],[-21.15,64.51],[-21.09,64.74],[-20.63,64.84],[-20.57,65.07],[-20.1,65.17],[-20.03,65.4],[-19.56,65.5],[-19.48,65.73],[-19.0,65.82],[-18.6,65.69],[-18.12,65.78],[-17.74,65.64],[-17.26,65.73],[-16.88,65.59],[-16.4,65.68],[-16.29,65.9],[-15.81,65.98]]],[[[39.49,68.06],[39.8,67.89],[40.36,67.92],[40.64,68.12],[40.34,68.3],[39.76,68.27],[39.45,68.44],[38.88,68.4],[38.57,68.57],[37.99,68.53],[37.74,68.33],[38.05,68.16],[38.62,68.2],[38.93,68.03],[39.49,68.06]]],[[[35.69,33.01],[35.53,33.22],[35.67,33.44],[35.51,33.66],[35.21,33.65],[35.08,33.43],[35.24,33.21],[35.1,32.99],[34.81,32.98],[34.67,32.76],[34.83,32.54],[34.7,32.32],[34.41,32.31],[34.27,32.08],[34.44,31.87],[34.73,31.88],[34.86,32.11],[35.16,32.12],[35.31,31.9],[35.18,31.68],[35.34,31.47],[35.63,31.48],[35.76,31.7],[35.61,31.91],[35.74,32.14],[35.58,32.35],[35.72,32.57],[35.56,32.79],[35.69,33.01]]],[[[35.96,41.78],[35.64,41.78],[35.46,41.99],[35.61,42.2],[35.43,42.4],[35.1,42.4],[34.96,42.19],[34.63,42.19],[34.48,41.98],[34.66,41.77],[34.99,41.78],[35.16,41.57],[35.49,41.57],[35.66,41.36],[35.98,41.36],[36.16,41.16],[36.48,41.16],[36.63,41.36],[36.45,41.57],[36.13,41.57],[35.96,41.78]]],[[[71.24,66.81],[70.76,66.67],[70.19,66.75],[69.72,66.6],[69.15,66.68],[68.68,66.53],[68.79,66.31],[69.35,66.24],[69.82,66.38],[70.38,66.3],[70.85,66.44],[71.41,66.36],[71.5,66.14],[72.05,66.05],[72.52,66.19],[72.45,66.41],[71.89,66.5],[71.81,66.72],[72.29,66.86],[72.21,67.08],[72.7,67.22],[72.62,67.44],[73.13,67.57],[73.05,67.8],[72.47,67.88],[71.96,67.75],[72.05,67.53],[71.55,67.39],[71.64,67.17],[71.15,67.03],[71.24,66.81]]],[[[34.15,69.35],[33.66,69.49],[33.74,69.69],[33.24,69.83],[32.66,69.77],[32.59,69.58],[33.09,69.44],[33.01,69.24],[33.5,69.1],[34.06,69.15],[34.4,69.0],[34.97,69.05],[35.2,69.26],[34.72,69.4],[34.15,69.35]]],[[[26.13,35.27],[25.82,35.24],[25.63,35.44],[25.32,35.41],[25.12,35.61],[24.81,35.57],[24.62,35.77],[24.31,35.74],[24.11,35.94],[23.8,35.9],[23.68,35.67],[23.37,35.63],[23.26,35.39],[23.45,35.2],[23.76,35.23],[23.96,35.03],[23.84,34.8],[24.04,34.6],[24.34,34.63],[24.46,34.87],[24.77,34.9],[24.96,34.7],[25.27,34.74],[25.39,34.97],[25.7,35.0],[25.89,34.8],[26.2,34.83],[26.32,35.07],[26.13,35.27]]],[[[-7.06,61.5],[-7.1,61.3],[-6.74,61.16],[-6.33,61.22],[-6.28,61.42],[-6.65,61.56],[-6.6,61.76],[-6.19,61.82],[-6.14,62.01],[-5.72,62.07],[-5.67,62.26],[-6.04,62.4],[-5.99,62.6],[-6.37,62.74],[-6.79,62.68],[-6.84,62.49],[-7.26,62.43],[-7.3,62.23],[-7.72,62.17],[-7.76,61.97],[-7.39,61.84],[-7.43,61.64],[-7.06,61.5]]],[[[-13.72,58.04],[-14.1,57.95],[-14.11,57.73],[-13.75,57.61],[-13.37,57.69],[-13.35,57.91],[-13.72,58.04]]],[[[2.87,40.12],[2.58,40.03],[2.53,39.8],[2.24,39.71],[2.19,39.47],[2.41,39.32],[2.35,39.09],[2.58,38.94],[2.86,39.03],[3.08,38.88],[3.36,38.96],[3.42,39.2],[3.71,39.29],[3.77,39.52],[4.06,39.61],[4.28,39.46],[4.57,39.54],[4.63,39.78],[4.41,39.93],[4.47,40.17],[4.25,40.32],[3.96,40.23],[3.73,40.38],[3.44,40.3],[3.38,40.06],[3.09,39.97],[2.87,40.12]]],[[[60.68,68.53],[61.13,68.7],[60.95,68.91],[60.32,68.95],[59.87,68.78],[60.05,68.58],[60.68,68.53]]],[[[14.13,36.15],[14.04,35.91],[14.25,35.73],[14.56,35.79],[14.65,36.03],[14.44,36.21],[14.13,36.15]]],[[[33.17,41.96],[33.5,41.97],[33.68,41.76],[34.01,41.77],[34.15,41.98],[33.97,42.18],[33.64,42.18],[33.46,42.38],[33.13,42.38],[32.99,42.16],[32.66,42.15],[32.51,41.94],[32.18,41.93],[32.04,41.72],[31.71,41.71],[31.57,41.49],[31.24,41.48],[31.1,41.26],[30.77,41.24],[30.58,41.45],[30.26,41.43],[30.12,41.21],[30.31,41.01],[30.64,41.03],[30.83,40.82],[31.15,40.84],[31.29,41.06],[31.62,41.07],[31.76,41.29],[32.09,41.3],[32.23,41.51],[32.56,41.52],[32.7,41.74],[33.03,41.75],[33.17,41.96]]],[[[47.9,69.1],[47.54,68.91],[47.81,68.72],[48.43,68.72],[48.69,68.53],[49.3,68.53],[49.66,68.72],[49.4,68.91],[48.78,68.91],[48.52,69.1],[48.88,69.29],[49.51,69.29],[49.77,69.1],[50.4,69.1],[50.78,69.29],[50.52,69.48],[49.89,69.48],[49.62,69.67],[48.98,69.67],[48.61,69.48],[47.98,69.47],[47.62,69.28],[47.9,69.1]]],[[[12.46,36.91],[12.25,37.09],[11.94,37.02],[11.86,36.78],[12.07,36.61],[12.37,36.67],[12.46,36.91]]],[[[11.1,36.17],[11.18,36.41],[11.48,36.47],[11.56,36.72],[11.34,36.89],[11.43,37.13],[11.21,37.3],[10.91,37.23],[10.69,37.41],[10.39,37.34],[10.18,37.51],[9.88,37.43],[9.66,37.6],[9.36,37.53],[9.14,37.7],[8.85,37.63],[8.77,37.38],[8.48,37.31],[8.4,37.07],[8.11,37.0],[7.89,37.16],[7.6,37.08],[7.38,37.25],[7.09,37.17],[6.87,37.33],[6.59,37.26],[6.37,37.42],[6.08,37.34],[6.01,37.1],[5.73,37.02],[5.51,37.18],[5.22,37.1],[5.01,37.25],[4.72,37.17],[4.5,37.33],[4.22,37.24],[4.0,37.4],[3.72,37.32],[3.66,37.08],[3.39,36.99],[3.17,37.15],[2.89,37.06],[2.83,36.82],[2.56,36.73],[2.34,36.89],[2.07,36.8],[1.85,36.95],[1.58,36.86],[1.53,36.62],[1.26,36.54],[1.04,36.68],[0.77,36.6],[0.72,36.36],[0.46,36.27],[0.41,36.03],[0.62,35.88],[0.89,35.97],[1.1,35.82],[1.37,35.91],[1.58,35.76],[1.85,35.84],[2.07,35.69],[2.34,35.78],[2.55,35.62],[2.82,35.71],[3.04,35.55],[3.31,35.64],[3.52,35.48],[3.8,35.57],[4.01,35.41],[4.29,35.49],[4.35,35.73],[4.63,35.81],[4.84,35.65],[5.12,35.73],[5.33,35.57],[5.27,35.33],[5.49,35.17],[5.76,35.25],[5.98,35.09],[6.26,35.16],[6.47,35.0],[6.75,35.08],[6.97,34.91],[7.25,34.99],[7.46,34.82],[7.75,34.9],[7.96,34.73],[8.25,34.8],[8.32,35.04],[8.6,35.12],[8.82,34.95],[9.11,35.02],[9.18,35.26],[9.47,35.33],[9.55,35.57],[9.84,35.65],[10.05,35.47],[10.34,35.54],[10.56,35.37],[10.85,35.44],[11.06,35.26],[11.36,35.33],[11.44,35.57],[11.23,35.75],[11.31,35.99],[11.1,36.17]]],[[[38.07,41.14],[37.92,40.93],[38.09,40.72],[38.4,40.72],[38.55,40.92],[38.39,41.13],[38.07,41.14]]],[[[-3.12,37.11],[-3.35,37.26],[-3.62,37.17],[-3.66,36.92],[-3.43,36.77],[-3.16,36.86],[-3.12,37.11]]],[[[12.46,35.35],[12.75,35.42],[12.84,35.66],[13.14,35.72],[13.23,35.96],[13.02,36.14],[12.72,36.08],[12.63,35.84],[12.33,35.77],[12.25,35.53],[12.46,35.35]]],[[[29.95,70.05],[29.38,69.99],[29.35,69.79],[29.87,69.66],[30.43,69.72],[30.95,69.59],[31.51,69.65],[31.57,69.85],[31.05,69.99],[30.48,69.92],[29.95,70.05]]],[[[32.84,35.09],[32.67,35.3],[32.36,35.29],[32.23,35.06],[32.4,34.85],[32.27,34.62],[32.44,34.41],[32.74,34.43],[32.88,34.65],[32.7,34.86],[32.84,35.09]]],[[[-11.6,63.1],[-11.9,63.24],[-12.34,63.17],[-12.46,62.95],[-12.16,62.81],[-11.73,62.89],[-11.6,63.1]]],[[[36.7,69.19],[36.12,69.14],[35.87,68.94],[36.2,68.78],[36.78,68.82],[37.1,68.66],[37.67,68.7],[37.93,68.9],[37.61,69.07],[37.02,69.03],[36.7,69.19]]],[[[74.78,67.52],[74.21,67.61],[73.7,67.48],[73.77,67.26],[74.34,67.17],[74.84,67.3],[74.78,67.52]]],[[[92.87,53.52],[92.93,53.77],[92.61,53.92],[92.23,53.83],[91.9,53.99],[91.95,54.23],[91.62,54.39],[91.24,54.29],[91.19,54.05],[90.82,53.95],[90.77,53.71],[91.1,53.56],[91.06,53.31],[91.38,53.16],[91.76,53.25],[92.08,53.1],[92.45,53.19],[92.77,53.03],[93.14,53.12],[93.19,53.37],[92.87,53.52]]],[[[57.12,68.54],[57.75,68.51],[58.18,68.68],[57.98,68.89],[57.35,68.92],[56.92,68.75],[56.29,68.77],[55.88,68.6],[56.09,68.39],[56.71,68.37],[57.12,68.54]]],[[[-43.92,60.2],[-44.38,60.25],[-44.71,60.07],[-44.58,59.84],[-44.12,59.78],[-43.79,59.96],[-43.92,60.2]]],[[[19.15,-34.59],[19.32,-34.78],[19.6,-34.77],[19.77,-34.96],[20.05,-34.95],[20.17,-34.75],[20.45,-34.74],[20.57,-34.55],[20.4,-34.36],[20.12,-34.37],[20.0,-34.57],[19.72,-34.58],[19.55,-34.39],[19.27,-34.4],[19.15,-34.59]]],[[[28.31,36.56],[28.43,36.79],[28.25,37.0],[28.37,37.22],[28.19,37.43],[27.87,37.4],[27.68,37.61],[27.36,37.58],[27.24,37.35],[27.43,37.15],[27.3,36.92],[27.49,36.72],[27.8,36.74],[27.99,36.54],[28.31,36.56]]],[[[40.7,66.98],[40.44,66.78],[40.72,66.6],[41.27,66.63],[41.54,66.83],[41.26,67.01],[41.53,67.22],[41.24,67.39],[41.52,67.6],[41.23,67.77],[40.66,67.75],[40.39,67.54],[40.68,67.37],[40.41,67.16],[40.7,66.98]]],[[[31.26,36.97],[31.08,37.18],[30.76,37.16],[30.63,36.94],[30.32,36.92],[30.19,36.7],[30.37,36.49],[30.68,36.51],[30.81,36.73],[31.12,36.75],[31.26,36.97]]],[[[-8.13,57.95],[-8.09,58.16],[-8.44,58.3],[-8.82,58.23],[-8.86,58.02],[-9.24,57.95],[-9.27,57.73],[-8.92,57.6],[-8.54,57.67],[-8.51,57.88],[-8.13,57.95]]],[[[28.05,36.1],[27.87,36.31],[27.55,36.28],[27.43,36.05],[27.62,35.85],[27.93,35.87],[28.05,36.1]]],[[[-43.36,60.79],[-43.71,60.61],[-43.58,60.38],[-43.12,60.32],[-42.77,60.5],[-42.89,60.73],[-43.36,60.79]]],[[[48.09,63.04],[48.38,63.24],[48.16,63.44],[47.65,63.44],[47.36,63.24],[47.58,63.04],[48.09,63.04]]],[[[1.85,39.15],[1.91,39.38],[1.68,39.53],[1.4,39.44],[1.35,39.2],[1.07,39.11],[1.02,38.87],[1.24,38.73],[1.19,38.49],[1.41,38.35],[1.68,38.44],[1.74,38.67],[2.02,38.76],[2.07,39.0],[1.85,39.15]]],[[[-5.65,59.18],[-5.99,59.32],[-6.38,59.26],[-6.43,59.06],[-6.08,58.91],[-5.69,58.97],[-5.65,59.18]]],[[[29.93,36.24],[29.74,36.45],[29.43,36.43],[29.3,36.2],[29.49,35.99],[29.8,36.01],[29.93,36.24]]],[[[25.02,37.14],[24.9,36.91],[25.09,36.71],[25.41,36.74],[25.53,36.97],[25.34,37.17],[25.02,37.14]]]]}}]}