{"type":"FeatureCollection","features":[{"type":"Feature","properties":{},"geometry":{"type":"MultiPolygon","coordinates":[[[[27.91,-28.97],[28.2,-28.94],[28.3,-28.72],[28.58,-28.68],[28.76,-28.87],[29.04,-28.84],[29.21,-29.03],[29.49,-29.0],[29.67,-29.18],[29.56,-29.4],[29.74,-29.59],[29.63,-29.81],[29.35,-29.85],[29.24,-30.06],[29.42,-30.25],[29.31,-30.47],[29.03,-30.5],[28.92,-30.72],[29.1,-30.9],[28.99,-31.12],[28.7,-31.15],[28.6,-31.37],[28.77,-31.55],[28.66,-31.77],[28.38,-31.8],[28.27,-32.01],[28.45,-32.2],[28.34,-32.41],[28.05,-32.44],[27.88,-32.25],[27.59,-32.28],[27.48,-32.5],[27.19,-32.52],[27.08,-32.73],[26.8,-32.76],[26.62,-32.58],[26.34,-32.6],[26.23,-32.81],[25.94,-32.84],[25.83,-33.05],[25.54,-33.07],[25.37,-32.89],[25.08,-32.91],[24.91,-32.72],[24.62,-32.74],[24.51,-32.95],[24.22,-32.97],[24.11,-33.18],[23.83,-33.2],[23.71,-33.4],[23.88,-33.59],[23.77,-33.79],[23.48,-33.81],[23.31,-33.63],[23.43,-33.42],[23.26,-33.24],[22.97,-33.25],[22.86,-33.46],[22.57,-33.48],[22.4,-33.29],[22.12,-33.3],[21.95,-33.12],[21.66,-33.13],[21.55,-33.33],[21.27,-33.35],[21.15,-33.55],[20.87,-33.56],[20.7,-33.37],[20.42,-33.38],[20.3,-33.58],[20.02,-33.6],[19.85,-33.41],[19.57,-33.42],[19.41,-33.23],[19.12,-33.23],[18.96,-33.04],[18.68,-33.05],[18.52,-32.86],[18.63,-32.66],[18.47,-32.47],[18.19,-32.47],[18.08,-32.67],[17.8,-32.68],[17.68,-32.88],[17.84,-33.07],[17.73,-33.27],[17.89,-33.46],[18.17,-33.46],[18.33,-33.65],[18.21,-33.84],[17.93,-33.85],[17.82,-34.04],[17.98,-34.23],[18.26,-34.23],[18.42,-34.42],[18.71,-34.41],[18.87,-34.6],[19.15,-34.59],[19.32,-34.78],[19.6,-34.77],[19.77,-34.96],[20.05,-34.95],[20.17,-34.75],[20.45,-34.74],[20.57,-34.55],[20.85,-34.54],[21.02,-34.72],[21.31,-34.71],[21.42,-34.51],[21.71,-34.5],[21.88,-34.68],[22.17,-34.67],[22.28,-34.47],[22.11,-34.28],[22.23,-34.08],[22.51,-34.07],[22.68,-34.25],[22.97,-34.24],[23.14,-34.42],[23.43,-34.4],[23.54,-34.2],[23.83,-34.18],[24.0,-34.37],[24.29,-34.35],[24.46,-34.53],[24.75,-34.51],[24.87,-34.31],[25.15,-34.28],[25.27,-34.08],[25.55,-34.06],[25.73,-34.24],[26.02,-34.22],[26.13,-34.01],[26.42,-33.99],[26.53,-33.78],[26.82,-33.75],[26.99,-33.93],[27.28,-33.91],[27.39,-33.7],[27.68,-33.67],[27.79,-33.46],[28.08,-33.43],[28.19,-33.22],[28.47,-33.19],[28.58,-32.98],[28.41,-32.8],[28.52,-32.59],[28.8,-32.56],[28.91,-32.35],[29.2,-32.31],[29.3,-32.1],[29.59,-32.07],[29.7,-31.85],[29.98,-31.82],[30.09,-31.6],[30.37,-31.57],[30.48,-31.35],[30.3,-31.17],[30.41,-30.95],[30.69,-30.92],[30.8,-30.7],[31.08,-30.66],[31.18,-30.44],[31.01,-30.26],[31.11,-30.04],[31.39,-30.0],[31.5,-29.78],[31.32,-29.6],[31.42,-29.38],[31.71,-29.34],[31.81,-29.11],[32.09,-29.08],[32.19,-28.85],[32.47,-28.81],[32.57,-28.59],[32.85,-28.55],[32.95,-28.32],[32.78,-28.14],[32.88,-27.91],[32.7,-27.73],[32.81,-27.5],[33.08,-27.46],[33.18,-27.23],[33.01,-27.05],[33.11,-26.82],[32.93,-26.63],[33.03,-26.4],[33.31,-26.36],[33.41,-26.13],[33.24,-25.94],[33.34,-25.71],[33.61,-25.67],[33.71,-25.44],[33.98,-25.4],[34.08,-25.17],[34.35,-25.12],[34.45,-24.89],[34.73,-24.85],[34.9,-25.03],[35.17,-24.99],[35.27,-24.76],[35.09,-24.57],[35.19,-24.34],[35.02,-24.15],[35.11,-23.92],[34.94,-23.73],[35.04,-23.49],[34.86,-23.3],[34.59,-23.35],[34.42,-23.16],[34.52,-22.92],[34.35,-22.73],[34.44,-22.5],[34.27,-22.3],[34.37,-22.07],[34.64,-22.02],[34.73,-21.79],[34.56,-21.6],[34.66,-21.36],[34.49,-21.17],[34.58,-20.93],[34.85,-20.89],[34.95,-20.65],[34.77,-20.46],[34.87,-20.22],[35.14,-20.17],[35.23,-19.94],[35.06,-19.74],[35.16,-19.5],[35.42,-19.46],[35.52,-19.22],[35.78,-19.18],[35.87,-18.94],[35.7,-18.75],[35.8,-18.51],[36.06,-18.46],[36.15,-18.22],[35.98,-18.03],[36.08,-17.79],[36.34,-17.74],[36.43,-17.51],[36.26,-17.31],[36.36,-17.07],[36.62,-17.03],[36.71,-16.79],[36.97,-16.74],[37.06,-16.5],[36.89,-16.31],[36.63,-16.35],[36.46,-16.16],[36.2,-16.2],[36.03,-16.0],[35.77,-16.05],[35.61,-15.85],[35.7,-15.61],[35.96,-15.57],[36.05,-15.33],[36.31,-15.29],[36.4,-15.05],[36.66,-15.0],[36.75,-14.76],[37.01,-14.72],[37.1,-14.48],[37.36,-14.43],[37.52,-14.63],[37.78,-14.58],[37.87,-14.34],[38.13,-14.3],[38.22,-14.06],[38.05,-13.87],[38.14,-13.63],[38.39,-13.58],[38.48,-13.34],[38.73,-13.3],[38.82,-13.06],[39.07,-13.01],[39.16,-12.77],[39.41,-12.73],[39.5,-12.49],[39.75,-12.45],[39.84,-12.21],[40.09,-12.16],[40.17,-11.92],[40.01,-11.73],[40.09,-11.49],[40.34,-11.45],[40.43,-11.21],[40.67,-11.17],[40.76,-10.93],[40.59,-10.73],[40.68,-10.5],[40.51,-10.3],[40.26,-10.35],[40.1,-10.15],[39.85,-10.2],[39.69,-10.0],[39.77,-9.77],[39.61,-9.57],[39.69,-9.34],[39.53,-9.14],[39.62,-8.9],[39.45,-8.71],[39.54,-8.47],[39.37,-8.28],[39.46,-8.04],[39.71,-8.0],[39.79,-7.77],[39.63,-7.57],[39.71,-7.34],[39.55,-7.15],[39.63,-6.91],[39.47,-6.72],[39.56,-6.48],[39.8,-6.44],[39.88,-6.21],[39.72,-6.02],[39.48,-6.06],[39.32,-5.86],[39.4,-5.63],[39.64,-5.59],[39.73,-5.36],[39.97,-5.32],[40.05,-5.09],[39.89,-4.89],[39.65,-4.93],[39.49,-4.74],[39.57,-4.51],[39.82,-4.47],[39.9,-4.24],[39.74,-4.05],[39.82,-3.82],[40.06,-3.78],[40.15,-3.55],[40.39,-3.51],[40.47,-3.29],[40.31,-3.09],[40.39,-2.87],[40.63,-2.83],[40.71,-2.6],[40.95,-2.57],[41.03,-2.34],[41.27,-2.3],[41.35,-2.08],[41.59,-2.04],[41.67,-1.82],[41.9,-1.78],[41.98,-1.56],[41.82,-1.37],[41.9,-1.15],[42.14,-1.11],[42.22,-0.89],[42.45,-0.86],[42.53,-0.63],[42.76,-0.6],[42.84,-0.38],[43.07,-0.35],[43.15,-0.13],[42.99,0.06],[43.07,0.28],[43.3,0.31],[43.37,0.53],[43.6,0.56],[43.68,0.78],[43.91,0.81],[43.98,1.03],[44.21,1.06],[44.29,1.27],[44.51,1.31],[44.59,1.52],[44.82,1.55],[44.89,1.76],[45.11,1.79],[45.19,2.01],[45.41,2.04],[45.48,2.25],[45.71,2.28],[45.86,2.1],[46.08,2.12],[46.15,2.34],[46.38,2.36],[46.45,2.57],[46.29,2.76],[46.36,2.97],[46.58,2.99],[46.65,3.2],[46.5,3.38],[46.28,3.36],[46.13,3.54],[45.91,3.51],[45.84,3.3],[45.62,3.27],[45.46,3.45],[45.24,3.43],[45.09,3.61],[44.86,3.58],[44.71,3.76],[44.49,3.74],[44.33,3.92],[44.11,3.89],[43.96,4.07],[43.73,4.05],[43.66,3.84],[43.43,3.81],[43.35,3.6],[43.13,3.57],[43.05,3.36],[42.82,3.33],[42.75,3.12],[42.52,3.09],[42.36,3.27],[42.13,3.24],[41.98,3.43],[41.75,3.4],[41.59,3.58],[41.36,3.56],[41.2,3.74],[40.97,3.71],[40.82,3.9],[40.9,4.11],[40.74,4.29],[40.82,4.5],[41.05,4.53],[41.21,4.35],[41.44,4.37],[41.51,4.58],[41.36,4.77],[41.13,4.74],[40.98,4.92],[41.05,5.13],[40.9,5.31],[40.98,5.52],[40.83,5.7],[40.59,5.68],[40.44,5.86],[40.52,6.06],[40.75,6.09],[40.83,6.3],[41.06,6.32],[41.14,6.53],[40.98,6.71],[41.06,6.91],[41.29,6.94],[41.37,7.14],[41.21,7.32],[41.29,7.52],[41.14,7.7],[41.21,7.9],[41.06,8.07],[40.84,8.05],[40.68,8.23],[40.76,8.43],[40.99,8.45],[41.07,8.65],[41.29,8.67],[41.37,8.87],[41.6,8.89],[41.75,8.72],[41.97,8.74],[42.05,8.94],[42.27,8.96],[42.35,9.15],[42.57,9.17],[42.72,9.0],[42.94,9.02],[43.09,8.85],[43.32,8.87],[43.39,9.06],[43.61,9.08],[43.68,9.28],[43.54,9.45],[43.31,9.43],[43.21,9.61],[42.98,9.59],[42.87,9.77],[42.65,9.75],[42.54,9.55],[42.31,9.53],[42.2,9.71],[41.97,9.68],[41.86,9.48],[41.63,9.46],[41.52,9.64],[41.29,9.62],[41.18,9.42],[40.95,9.4],[40.84,9.2],[40.61,9.18],[40.54,8.98],[40.31,8.96],[40.23,8.76],[40.0,8.73],[39.92,8.53],[39.69,8.51],[39.54,8.69],[39.62,8.89],[39.47,9.06],[39.58,9.26],[39.81,9.29],[39.92,9.49],[39.81,9.67],[39.92,9.87],[39.8,10.05],[39.57,10.03],[39.45,10.21],[39.22,10.19],[39.1,9.98],[38.87,9.96],[38.75,10.14],[38.52,10.12],[38.4,10.3],[38.16,10.28],[38.05,10.07],[38.17,9.89],[38.06,9.69],[37.83,9.66],[37.7,9.84],[37.47,9.82],[37.34,10.0],[37.11,9.98],[36.98,10.16],[36.74,10.14],[36.63,9.93],[36.4,9.9],[36.29,9.7],[36.41,9.51],[36.65,9.54],[36.78,9.36],[36.67,9.15],[36.43,9.13],[36.32,8.92],[36.09,8.9],[35.96,9.08],[36.07,9.28],[35.94,9.46],[35.7,9.44],[35.58,9.62],[35.34,9.59],[35.23,9.39],[34.99,9.36],[34.88,9.15],[34.65,9.12],[34.54,8.92],[34.67,8.74],[34.56,8.53],[34.71,8.35],[34.95,8.38],[35.03,8.58],[35.27,8.61],[35.42,8.43],[35.34,8.23],[35.1,8.2],[35.02,8.0],[35.17,7.82],[35.08,7.61],[35.24,7.44],[35.15,7.23],[35.3,7.05],[35.22,6.84],[35.37,6.66],[35.29,6.45],[35.44,6.27],[35.36,6.06],[35.12,6.03],[35.03,5.82],[35.19,5.64],[35.42,5.67],[35.51,5.88],[35.75,5.91],[35.83,6.12],[35.68,6.3],[35.76,6.51],[36.0,6.54],[36.09,6.74],[36.32,6.77],[36.41,6.98],[36.64,7.01],[36.79,6.83],[36.71,6.62],[36.48,6.59],[36.39,6.38],[36.55,6.2],[36.46,5.99],[36.62,5.81],[36.53,5.6],[36.29,5.57],[36.21,5.36],[36.36,5.18],[36.28,4.96],[36.43,4.78],[36.35,4.57],[36.5,4.38],[36.42,4.17],[36.57,3.98],[36.49,3.77],[36.25,3.74],[36.09,3.92],[35.85,3.89],[35.7,4.08],[35.79,4.29],[35.63,4.48],[35.39,4.45],[35.3,4.23],[35.06,4.2],[34.98,3.99],[34.74,3.96],[34.58,4.14],[34.67,4.36],[34.51,4.54],[34.27,4.51],[34.12,4.7],[33.88,4.67],[33.72,4.85],[33.48,4.82],[33.39,4.6],[33.15,4.57],[33.06,4.36],[32.82,4.33],[32.67,4.51],[32.43,4.48],[32.34,4.26],[32.09,4.23],[31.94,4.42],[31.7,4.39],[31.61,4.17],[31.36,4.14],[31.21,4.32],[31.3,4.54],[31.15,4.72],[30.9,4.69],[30.81,4.48],[30.57,4.45],[30.48,4.23],[30.23,4.2],[30.08,4.38],[29.84,4.35],[29.75,4.13],[29.5,4.1],[29.41,3.88],[29.17,3.85],[29.07,3.63],[29.22,3.44],[29.13,3.23],[28.89,3.19],[28.79,2.97],[28.95,2.78],[28.85,2.56],[28.61,2.53],[28.51,2.31],[28.66,2.12],[28.57,1.9],[28.72,1.71],[28.63,1.48],[28.78,1.29],[28.69,1.07],[28.44,1.04],[28.35,0.81],[28.5,0.62],[28.41,0.4],[28.16,0.36],[28.06,0.14],[28.22,-0.06],[28.12,-0.28],[27.87,-0.32],[27.78,-0.54],[27.93,-0.74],[27.83,-0.97],[27.99,-1.16],[27.89,-1.39],[27.64,-1.42],[27.55,-1.65],[27.3,-1.69],[27.2,-1.92],[27.35,-2.11],[27.26,-2.34],[27.0,-2.38],[26.91,-2.61],[26.66,-2.64],[26.56,-2.87],[26.71,-3.07],[26.62,-3.3],[26.36,-3.33],[26.27,-3.56],[26.42,-3.76],[26.32,-3.99],[26.07,-4.03],[25.97,-4.26],[25.72,-4.29],[25.56,-4.1],[25.31,-4.13],[25.21,-4.36],[24.96,-4.39],[24.86,-4.63],[24.61,-4.66],[24.51,-4.89],[24.26,-4.93],[24.16,-5.16],[23.9,-5.19],[23.8,-5.42],[23.95,-5.62],[24.21,-5.59],[24.36,-5.79],[24.61,-5.76],[24.77,-5.96],[24.67,-6.19],[24.82,-6.39],[25.08,-6.36],[25.23,-6.56],[25.49,-6.53],[25.59,-6.29],[25.84,-6.26],[26.0,-6.46],[25.9,-6.7],[26.05,-6.9],[25.95,-7.13],[26.11,-7.34],[26.01,-7.57],[25.75,-7.6],[25.65,-7.84],[25.4,-7.87],[25.3,-8.11],[25.45,-8.31],[25.35,-8.55],[25.51,-8.75],[25.41,-8.99],[25.15,-9.02],[25.05,-9.26],[24.79,-9.29],[24.69,-9.52],[24.43,-9.56],[24.33,-9.79],[24.48,-10.0],[24.74,-9.96],[24.9,-10.17],[25.16,-10.14],[25.26,-9.9],[25.52,-9.87],[25.62,-9.63],[25.88,-9.6],[25.98,-9.36],[26.24,-9.33],[26.34,-9.09],[26.59,-9.06],[26.75,-9.26],[26.65,-9.5],[26.39,-9.53],[26.29,-9.77],[26.03,-9.8],[25.93,-10.04],[25.67,-10.07],[25.57,-10.31],[25.73,-10.51],[25.63,-10.75],[25.37,-10.78],[25.27,-11.02],[25.01,-11.05],[24.91,-11.29],[24.65,-11.32],[24.55,-11.56],[24.7,-11.76],[24.6,-12.0],[24.34,-12.03],[24.18,-11.82],[23.92,-11.86],[23.82,-12.09],[23.98,-12.3],[23.87,-12.53],[23.61,-12.56],[23.46,-12.36],[23.2,-12.39],[23.04,-12.18],[22.78,-12.21],[22.63,-12.01],[22.73,-11.77],[22.58,-11.56],[22.32,-11.59],[22.21,-11.83],[21.96,-11.86],[21.8,-11.65],[21.54,-11.68],[21.44,-11.92],[21.18,-11.94],[21.08,-12.18],[20.82,-12.21],[20.72,-12.44],[20.46,-12.47],[20.35,-12.7],[20.1,-12.73],[19.99,-12.96],[19.73,-12.98],[19.58,-12.78],[19.33,-12.8],[19.18,-12.6],[18.92,-12.62],[18.81,-12.85],[18.56,-12.88],[18.41,-12.67],[18.16,-12.7],[18.01,-12.49],[17.75,-12.52],[17.65,-12.75],[17.39,-12.77],[17.25,-12.56],[17.35,-12.33],[17.21,-12.13],[16.96,-12.15],[16.81,-11.95],[16.56,-11.97],[16.42,-11.77],[16.17,-11.79],[16.06,-12.02],[15.81,-12.04],[15.7,-12.27],[15.45,-12.29],[15.31,-12.09],[15.06,-12.11],[14.96,-12.33],[14.71,-12.36],[14.6,-12.58],[14.35,-12.6],[14.21,-12.4],[14.32,-12.17],[14.18,-11.97],[13.93,-11.99],[13.83,-12.21],[13.97,-12.42],[13.86,-12.64],[13.61,-12.66],[13.51,-12.89],[13.65,-13.09],[13.54,-13.32],[13.29,-13.34],[13.19,-13.56],[12.94,-13.58],[12.83,-13.8],[12.97,-14.01],[12.86,-14.23],[12.62,-14.25],[12.51,-14.47],[12.65,-14.68],[12.54,-14.9],[12.68,-15.11],[12.93,-15.09],[13.06,-15.3],[12.96,-15.52],[12.71,-15.53],[12.6,-15.76],[12.74,-15.96],[12.63,-16.18],[12.77,-16.39],[12.66,-16.61],[12.41,-16.63],[12.31,-16.85],[12.06,-16.86],[11.95,-17.08],[12.09,-17.29],[11.98,-17.51],[12.12,-17.71],[12.01,-17.93],[12.15,-18.14],[12.4,-18.13],[12.54,-18.33],[12.43,-18.55],[12.57,-18.76],[12.82,-18.75],[12.96,-18.96],[12.85,-19.17],[12.99,-19.38],[12.88,-19.6],[13.02,-19.81],[13.27,-19.8],[13.42,-20.0],[13.31,-20.22],[13.45,-20.43],[13.7,-20.42],[13.85,-20.62],[13.74,-20.84],[13.88,-21.05],[14.14,-21.04],[14.28,-21.25],[14.17,-21.46],[14.32,-21.67],[14.58,-21.66],[14.72,-21.87],[14.61,-22.08],[14.76,-22.29],[15.02,-22.28],[15.17,-22.49],[15.05,-22.7],[15.2,-22.91],[15.09,-23.13],[15.24,-23.33],[15.13,-23.55],[15.28,-23.75],[15.17,-23.97],[15.32,-24.17],[15.2,-24.39],[15.35,-24.59],[15.62,-24.58],[15.77,-24.79],[16.03,-24.78],[16.14,-24.56],[15.99,-24.36],[16.1,-24.14],[16.37,-24.13],[16.48,-23.91],[16.74,-23.9],[16.86,-23.68],[17.12,-23.67],[17.27,-23.88],[17.16,-24.09],[17.32,-24.3],[17.58,-24.29],[17.74,-24.49],[17.62,-24.71],[17.78,-24.91],[17.67,-25.13],[17.4,-25.14],[17.29,-25.36],[17.44,-25.56],[17.71,-25.55],[17.87,-25.75],[17.75,-25.97],[17.91,-26.17],[18.18,-26.16],[18.29,-25.94],[18.56,-25.93],[18.67,-25.71],[18.94,-25.7],[19.1,-25.9],[18.99,-26.12],[19.15,-26.32],[19.42,-26.3],[19.58,-26.5],[19.85,-26.49],[20.01,-26.69],[19.9,-26.91],[20.06,-27.11],[20.34,-27.09],[20.45,-26.87],[20.72,-26.86],[20.83,-26.64],[21.11,-26.62],[21.22,-26.4],[21.49,-26.38],[21.66,-26.58],[21.93,-26.56],[22.09,-26.76],[22.37,-26.74],[22.53,-26.94],[22.81,-26.92],[22.92,-26.7],[23.2,-26.68],[23.36,-26.88],[23.64,-26.85],[23.81,-27.05],[24.08,-27.03],[24.25,-27.23],[24.53,-27.2],[24.7,-27.4],[24.98,-27.37],[25.09,-27.15],[25.36,-27.13],[25.53,-27.32],[25.42,-27.54],[25.59,-27.74],[25.87,-27.71],[26.04,-27.9],[25.93,-28.13],[26.1,-28.32],[25.99,-28.54],[26.17,-28.73],[26.45,-28.7],[26.62,-28.9],[26.51,-29.11],[26.68,-29.31],[26.96,-29.28],[27.07,-29.06],[27.35,-29.03],[27.52,-29.22],[27.81,-29.19],[27.91,-28.97]],[[40.06,6.6],[40.29,6.63],[40.44,6.45],[40.37,6.24],[40.13,6.22],[39.98,6.4],[40.06,6.6]],[[36.86,-13.85],[36.95,-13.61],[37.2,-13.56],[37.29,-13.32],[37.55,-13.28],[37.72,-13.47],[37.63,-13.71],[37.37,-13.76],[37.28,-14.0],[37.02,-14.04],[36.86,-13.85]],[[36.83,4.62],[36.67,4.81],[36.76,5.02],[36.99,5.05],[37.15,4.87],[37.06,4.65],[36.83,4.62]],[[39.11,9.6],[39.22,9.8],[39.46,9.83],[39.57,9.65],[39.46,9.44],[39.23,9.42],[39.12,9.22],[38.89,9.19],[38.77,9.37],[38.88,9.58],[39.11,9.6]],[[39.52,6.94],[39.6,7.14],[39.83,7.17],[39.99,6.99],[39.91,6.78],[39.68,6.76],[39.52,6.94]]],[[[-121.28,36.05],[-121.35,36.28],[-121.64,36.34],[-121.71,36.57],[-121.49,36.75],[-121.56,36.98],[-121.85,37.04],[-121.92,37.27],[-122.2,37.33],[-122.27,37.56],[-122.06,37.73],[-122.13,37.96],[-122.42,38.02],[-122.49,38.25],[-122.78,38.3],[-122.85,38.53],[-123.14,38.59],[-123.22,38.81],[-123.51,38.86],[-123.72,38.69],[-123.65,38.46],[-123.36,38.41],[-123.29,38.18],[-123.0,38.13],[-122.93,37.9],[-122.64,37.85],[-122.56,37.62],[-122.78,37.44],[-122.71,37.21],[-122.42,37.16],[-122.35,36.92],[-122.06,36.87],[-121.99,36.63],[-122.21,36.46],[-122.14,36.23],[-121.86,36.17],[-121.79,35.93],[-121.5,35.87],[-121.43,35.64],[-121.15,35.58],[-121.08,35.34],[-120.8,35.28],[-120.58,35.45],[-120.64,35.69],[-120.93,35.75],[-121.0,35.98],[-121.28,36.05]]],[[[47.08,3.85],[46.86,3.82],[46.79,3.62],[46.94,3.44],[47.16,3.46],[47.23,3.67],[47.08,3.85]]],[[[-95.32,29.52],[-95.33,29.77],[-95.58,29.89],[-95.82,29.76],[-95.81,29.51],[-95.56,29.39],[-95.32,29.52]]],[[[44.03,4.28],[44.25,4.31],[44.33,4.52],[44.18,4.7],[43.95,4.67],[43.88,4.46],[44.03,4.28]]],[[[-118.83,33.92],[-118.55,33.85],[-118.49,33.61],[-118.2,33.53],[-117.98,33.7],[-118.04,33.95],[-118.32,34.02],[-118.39,34.26],[-118.67,34.33],[-118.89,34.16],[-118.83,33.92]]],[[[-97.79,29.45],[-97.8,29.7],[-97.56,29.83],[-97.58,30.08],[-97.33,30.22],[-97.35,30.47],[-97.61,30.59],[-97.62,30.84],[-97.38,30.97],[-97.4,31.22],[-97.66,31.34],[-97.9,31.21],[-97.88,30.96],[-98.13,30.82],[-98.11,30.57],[-98.35,30.44],[-98.33,30.18],[-98.58,30.05],[-98.56,29.79],[-98.8,29.66],[-99.06,29.77],[-99.3,29.63],[-99.28,29.38],[-99.02,29.27],[-98.78,29.4],[-98.52,29.29],[-98.28,29.43],[-98.03,29.31],[-97.79,29.45]]],[[[-120.03,34.43],[-120.09,34.67],[-120.38,34.74],[-120.44,34.97],[-120.73,35.04],[-120.95,34.87],[-120.88,34.63],[-120.6,34.56],[-120.53,34.33],[-120.25,34.26],[-120.03,34.43]]],[[[23.55,-6.56],[23.7,-6.76],[23.6,-6.99],[23.76,-7.19],[24.01,-7.16],[24.16,-7.36],[24.42,-7.33],[24.52,-7.1],[24.78,-7.06],[24.88,-6.83],[24.72,-6.63],[24.47,-6.66],[24.31,-6.46],[24.06,-6.49],[23.91,-6.29],[24.01,-6.06],[23.85,-5.86],[23.6,-5.89],[23.5,-6.12],[23.65,-6.32],[23.55,-6.56]]],[[[-123.95,39.37],[-123.87,39.14],[-123.58,39.09],[-123.36,39.26],[-123.44,39.49],[-123.73,39.54],[-123.95,39.37]]],[[[39.21,10.58],[39.09,10.76],[38.86,10.74],[38.74,10.53],[38.86,10.35],[39.1,10.37],[39.21,10.58]]],[[[-119.75,34.37],[-119.68,34.13],[-119.4,34.06],[-119.18,34.23],[-119.24,34.47],[-119.53,34.54],[-119.75,34.37]]],[[[-97.24,32.86],[-97.49,32.72],[-97.47,32.48],[-97.72,32.34],[-97.7,32.09],[-97.44,31.98],[-97.2,32.11],[-97.21,32.36],[-96.97,32.49],[-96.98,32.74],[-96.73,32.87],[-96.75,33.12],[-97.01,33.23],[-97.26,33.1],[-97.24,32.86]]]]}}]}