{"type":"FeatureCollection","features":[{"type":"Feature","properties":{},"geometry":{"type":"MultiPolygon","coordinates":[[[[142.14,-35.84],[142.08,-36.09],[141.78,-36.16],[141.55,-35.99],[141.62,-35.75],[141.39,-35.57],[141.1,-35.65],[140.88,-35.48],[140.59,-35.55],[140.36,-35.38],[140.07,-35.45],[139.85,-35.27],[139.56,-35.35],[139.34,-35.17],[139.42,-34.93],[139.2,-34.75],[139.27,-34.51],[139.06,-34.33],[139.13,-34.09],[138.92,-33.91],[138.63,-33.98],[138.56,-34.23],[138.77,-34.4],[138.7,-34.65],[138.41,-34.72],[138.34,-34.96],[138.55,-35.13],[138.48,-35.38],[138.19,-35.45],[138.11,-35.69],[137.82,-35.75],[137.61,-35.58],[137.32,-35.64],[137.11,-35.47],[137.19,-35.22],[137.47,-35.16],[137.69,-35.34],[137.97,-35.27],[138.05,-35.03],[137.84,-34.85],[137.55,-34.92],[137.34,-34.74],[137.06,-34.8],[136.98,-35.05],[136.69,-35.11],[136.61,-35.35],[136.82,-35.53],[136.74,-35.77],[136.45,-35.83],[136.37,-36.07],[136.58,-36.25],[136.87,-36.19],[137.08,-36.37],[137.38,-36.3],[137.45,-36.06],[137.75,-36.0],[137.96,-36.17],[138.25,-36.11],[138.33,-35.86],[138.62,-35.8],[138.83,-35.97],[139.13,-35.9],[139.35,-36.08],[139.27,-36.32],[139.49,-36.5],[139.42,-36.74],[139.64,-36.92],[139.57,-37.16],[139.79,-37.34],[139.72,-37.58],[139.95,-37.76],[139.87,-38.0],[140.1,-38.18],[140.4,-38.11],[140.63,-38.28],[140.94,-38.21],[141.17,-38.38],[141.1,-38.63],[141.33,-38.8],[141.64,-38.73],[141.87,-38.9],[142.18,-38.83],[142.24,-38.58],[142.55,-38.51],[142.79,-38.68],[142.72,-38.93],[142.96,-39.1],[143.27,-39.02],[143.51,-39.19],[143.82,-39.11],[143.88,-38.86],[144.19,-38.78],[144.25,-38.53],[144.55,-38.45],[144.8,-38.62],[145.1,-38.54],[145.35,-38.71],[145.29,-38.96],[145.54,-39.12],[145.84,-39.04],[146.09,-39.2],[146.04,-39.45],[146.29,-39.62],[146.6,-39.53],[146.85,-39.7],[147.16,-39.61],[147.42,-39.77],[147.37,-40.02],[147.62,-40.18],[147.57,-40.43],[147.26,-40.52],[147.2,-40.77],[146.89,-40.86],[146.63,-40.7],[146.32,-40.78],[146.06,-40.62],[145.75,-40.7],[145.5,-40.53],[145.55,-40.29],[145.3,-40.12],[144.99,-40.2],[144.74,-40.03],[144.43,-40.11],[144.18,-39.95],[144.24,-39.7],[144.0,-39.53],[143.69,-39.61],[143.63,-39.85],[143.87,-40.02],[143.81,-40.27],[144.06,-40.44],[144.37,-40.36],[144.62,-40.53],[144.56,-40.78],[144.24,-40.86],[144.18,-41.1],[144.43,-41.27],[144.37,-41.52],[144.62,-41.69],[144.56,-41.93],[144.81,-42.1],[144.75,-42.35],[145.01,-42.51],[144.95,-42.76],[145.21,-42.92],[145.15,-43.17],[145.41,-43.34],[145.73,-43.25],[146.0,-43.42],[145.94,-43.66],[146.2,-43.83],[146.53,-43.75],[146.8,-43.91],[147.13,-43.83],[147.4,-43.99],[147.72,-43.9],[147.78,-43.65],[148.1,-43.57],[148.16,-43.32],[148.48,-43.23],[148.53,-42.98],[148.26,-42.82],[148.31,-42.58],[148.63,-42.49],[148.68,-42.24],[148.42,-42.08],[148.47,-41.83],[148.78,-41.74],[148.83,-41.49],[148.57,-41.33],[148.62,-41.08],[148.35,-40.92],[148.4,-40.67],[148.72,-40.58],[148.77,-40.33],[148.5,-40.17],[148.55,-39.91],[148.29,-39.75],[148.34,-39.5],[148.09,-39.34],[147.78,-39.43],[147.52,-39.27],[147.58,-39.02],[147.32,-38.85],[147.37,-38.6],[147.68,-38.51],[147.73,-38.26],[148.03,-38.17],[148.08,-37.92],[148.38,-37.83],[148.64,-37.99],[148.94,-37.89],[149.19,-38.05],[149.49,-37.96],[149.75,-38.12],[150.05,-38.02],[150.1,-37.77],[150.4,-37.67],[150.44,-37.41],[150.18,-37.26],[150.22,-37.0],[150.52,-36.91],[150.56,-36.65],[150.31,-36.49],[150.35,-36.24],[150.64,-36.14],[150.69,-35.89],[150.98,-35.79],[151.02,-35.53],[151.31,-35.43],[151.35,-35.17],[151.1,-35.02],[151.13,-34.76],[151.42,-34.66],[151.46,-34.41],[151.75,-34.31],[151.78,-34.05],[151.53,-33.9],[151.57,-33.64],[151.85,-33.54],[151.89,-33.28],[152.17,-33.18],[152.21,-32.92],[152.49,-32.82],[152.52,-32.56],[152.8,-32.46],[152.83,-32.2],[153.11,-32.1],[153.14,-31.84],[153.42,-31.74],[153.45,-31.48],[153.21,-31.33],[153.24,-31.08],[153.51,-30.97],[153.54,-30.71],[153.3,-30.56],[153.33,-30.31],[153.6,-30.2],[153.63,-29.95],[153.9,-29.84],[153.93,-29.59],[153.69,-29.44],[153.71,-29.18],[153.98,-29.08],[154.01,-28.82],[153.77,-28.68],[153.8,-28.42],[154.07,-28.32],[154.09,-28.06],[153.86,-27.91],[153.88,-27.66],[153.65,-27.51],[153.68,-27.26],[153.94,-27.15],[153.97,-26.9],[153.73,-26.76],[153.47,-26.86],[153.24,-26.71],[153.27,-26.46],[153.53,-26.36],[153.56,-26.1],[153.33,-25.96],[153.36,-25.71],[153.61,-25.6],[153.64,-25.35],[153.41,-25.21],[153.44,-24.96],[153.7,-24.85],[153.72,-24.6],[153.5,-24.46],[153.24,-24.56],[153.21,-24.81],[152.96,-24.91],[152.73,-24.77],[152.76,-24.52],[152.54,-24.37],[152.28,-24.47],[152.06,-24.32],[152.09,-24.08],[151.87,-23.93],[151.9,-23.68],[152.15,-23.58],[152.18,-23.33],[151.96,-23.19],[151.71,-23.29],[151.68,-23.53],[151.42,-23.63],[151.2,-23.48],[151.24,-23.24],[151.02,-23.09],[151.05,-22.84],[150.83,-22.7],[150.87,-22.45],[150.65,-22.31],[150.69,-22.06],[150.47,-21.91],[150.51,-21.67],[150.29,-21.52],[150.04,-21.62],[149.83,-21.47],[149.58,-21.57],[149.37,-21.42],[149.41,-21.18],[149.65,-21.08],[149.69,-20.84],[149.48,-20.7],[149.52,-20.46],[149.31,-20.31],[149.35,-20.07],[149.14,-19.93],[148.89,-20.02],[148.69,-19.87],[148.44,-19.97],[148.23,-19.82],[147.99,-19.91],[147.78,-19.77],[147.83,-19.53],[147.62,-19.38],[147.38,-19.47],[147.17,-19.33],[147.22,-19.09],[147.02,-18.94],[147.06,-18.71],[146.86,-18.56],[146.62,-18.65],[146.42,-18.51],[146.46,-18.27],[146.26,-18.13],[146.31,-17.9],[146.11,-17.75],[146.15,-17.52],[146.39,-17.43],[146.44,-17.2],[146.24,-17.06],[146.28,-16.83],[146.09,-16.68],[145.85,-16.77],[145.66,-16.63],[145.7,-16.4],[145.51,-16.26],[145.56,-16.03],[145.79,-15.94],[145.84,-15.72],[145.65,-15.58],[145.69,-15.35],[145.5,-15.21],[145.54,-14.99],[145.78,-14.9],[145.82,-14.67],[145.63,-14.53],[145.4,-14.62],[145.21,-14.48],[145.26,-14.25],[145.07,-14.11],[144.83,-14.2],[144.64,-14.06],[144.41,-14.14],[144.22,-14.0],[143.99,-14.09],[143.8,-13.94],[143.84,-13.71],[143.65,-13.57],[143.69,-13.34],[143.93,-13.25],[143.97,-13.02],[143.78,-12.88],[143.83,-12.65],[143.64,-12.5],[143.68,-12.27],[143.49,-12.12],[143.53,-11.89],[143.34,-11.74],[143.11,-11.83],[142.92,-11.68],[142.68,-11.77],[142.64,-12.0],[142.83,-12.15],[142.78,-12.38],[142.55,-12.47],[142.5,-12.7],[142.27,-12.78],[142.07,-12.64],[142.12,-12.4],[141.93,-12.25],[141.97,-12.02],[142.21,-11.94],[142.25,-11.7],[142.06,-11.55],[141.82,-11.64],[141.78,-11.87],[141.54,-11.96],[141.5,-12.19],[141.69,-12.34],[141.65,-12.57],[141.41,-12.66],[141.37,-12.89],[141.56,-13.04],[141.51,-13.27],[141.28,-13.35],[141.23,-13.58],[141.43,-13.73],[141.38,-13.96],[141.57,-14.1],[141.53,-14.33],[141.29,-14.41],[141.25,-14.64],[141.44,-14.78],[141.4,-15.01],[141.59,-15.15],[141.55,-15.38],[141.31,-15.46],[141.27,-15.68],[141.46,-15.83],[141.42,-16.05],[141.61,-16.19],[141.56,-16.41],[141.75,-16.56],[141.69,-16.78],[141.88,-16.93],[141.82,-17.15],[142.01,-17.3],[141.95,-17.53],[142.14,-17.67],[142.09,-17.9],[142.27,-18.05],[142.22,-18.28],[142.41,-18.43],[142.35,-18.66],[142.54,-18.81],[142.49,-19.04],[142.68,-19.19],[142.92,-19.11],[143.11,-19.25],[143.06,-19.49],[143.25,-19.64],[143.2,-19.87],[143.4,-20.02],[143.64,-19.94],[143.84,-20.09],[143.79,-20.32],[143.98,-20.47],[144.23,-20.39],[144.43,-20.54],[144.38,-20.78],[144.57,-20.93],[144.82,-20.84],[145.02,-20.99],[145.27,-20.9],[145.47,-21.05],[145.72,-20.96],[145.92,-21.11],[146.17,-21.03],[146.38,-21.18],[146.33,-21.42],[146.08,-21.51],[146.04,-21.75],[146.24,-21.9],[146.49,-21.81],[146.54,-21.57],[146.79,-21.48],[146.99,-21.63],[146.95,-21.87],[147.16,-22.02],[147.11,-22.26],[147.32,-22.41],[147.28,-22.65],[147.02,-22.75],[146.98,-22.99],[147.19,-23.14],[147.15,-23.39],[146.89,-23.48],[146.85,-23.72],[147.06,-23.88],[147.01,-24.12],[146.76,-24.21],[146.54,-24.06],[146.29,-24.15],[146.24,-24.39],[146.45,-24.55],[146.4,-24.79],[146.62,-24.95],[146.57,-25.2],[146.79,-25.35],[146.74,-25.6],[146.95,-25.75],[146.91,-26.0],[147.13,-26.16],[147.08,-26.41],[147.3,-26.56],[147.56,-26.47],[147.78,-26.63],[148.05,-26.53],[148.27,-26.69],[148.53,-26.59],[148.75,-26.75],[148.71,-27.0],[148.94,-27.15],[148.9,-27.4],[149.12,-27.56],[149.08,-27.81],[149.31,-27.97],[149.27,-28.22],[149.49,-28.37],[149.76,-28.28],[149.99,-28.43],[149.95,-28.68],[149.68,-28.78],[149.64,-29.03],[149.87,-29.19],[149.83,-29.44],[149.56,-29.54],[149.52,-29.79],[149.75,-29.95],[149.71,-30.2],[149.44,-30.3],[149.4,-30.55],[149.12,-30.65],[149.08,-30.9],[148.8,-31.0],[148.76,-31.25],[148.48,-31.35],[148.43,-31.6],[148.15,-31.7],[148.11,-31.95],[148.34,-32.11],[148.3,-32.36],[148.02,-32.46],[147.97,-32.71],[147.69,-32.8],[147.45,-32.64],[147.17,-32.73],[147.12,-32.99],[147.35,-33.15],[147.3,-33.4],[147.02,-33.49],[146.78,-33.33],[146.5,-33.42],[146.45,-33.67],[146.16,-33.76],[146.11,-34.01],[146.34,-34.18],[146.29,-34.43],[146.0,-34.52],[145.95,-34.77],[145.65,-34.86],[145.42,-34.69],[145.13,-34.78],[145.07,-35.03],[144.78,-35.11],[144.72,-35.36],[144.43,-35.45],[144.19,-35.28],[143.9,-35.36],[143.84,-35.61],[143.55,-35.69],[143.32,-35.53],[143.02,-35.61],[142.96,-35.85],[142.67,-35.93],[142.44,-35.76],[142.14,-35.84]],[[147.91,-23.11],[148.12,-23.26],[148.08,-23.5],[148.3,-23.66],[148.25,-23.9],[148.0,-24.0],[147.95,-24.24],[147.7,-24.34],[147.65,-24.58],[147.4,-24.67],[147.18,-24.52],[147.23,-24.27],[147.48,-24.18],[147.53,-23.94],[147.31,-23.78],[147.36,-23.54],[147.61,-23.45],[147.66,-23.2],[147.91,-23.11]]],[[[133.95,-13.47],[133.99,-13.24],[134.23,-13.16],[134.27,-12.93],[134.07,-12.78],[133.84,-12.86],[133.65,-12.71],[133.41,-12.78],[133.37,-13.01],[133.13,-13.09],[133.09,-13.32],[132.86,-13.39],[132.82,-13.62],[133.01,-13.77],[133.25,-13.7],[133.44,-13.85],[133.67,-13.77],[133.72,-13.55],[133.95,-13.47]]],[[[148.11,-9.51],[148.16,-9.28],[147.97,-9.13],[148.02,-8.89],[147.83,-8.74],[147.88,-8.5],[147.69,-8.35],[147.73,-8.11],[147.55,-7.96],[147.31,-8.05],[147.13,-7.9],[147.17,-7.66],[146.98,-7.51],[147.03,-7.27],[146.84,-7.12],[146.6,-7.21],[146.41,-7.05],[146.18,-7.14],[145.99,-6.99],[146.04,-6.74],[146.27,-6.66],[146.32,-6.41],[146.13,-6.26],[145.89,-6.35],[145.7,-6.19],[145.75,-5.95],[145.55,-5.79],[145.32,-5.88],[145.13,-5.73],[144.89,-5.81],[144.7,-5.66],[144.46,-5.75],[144.27,-5.59],[144.32,-5.34],[144.12,-5.19],[143.89,-5.28],[143.69,-5.12],[143.45,-5.21],[143.26,-5.05],[143.02,-5.14],[142.83,-4.98],[142.59,-5.07],[142.4,-4.91],[142.16,-4.99],[141.96,-4.84],[141.73,-4.92],[141.53,-4.76],[141.29,-4.85],[141.1,-4.69],[140.86,-4.78],[140.66,-4.62],[140.71,-4.37],[140.51,-4.21],[140.27,-4.3],[140.08,-4.14],[139.84,-4.23],[139.64,-4.07],[139.4,-4.15],[139.2,-3.99],[139.25,-3.74],[139.05,-3.58],[138.81,-3.67],[138.62,-3.51],[138.38,-3.6],[138.18,-3.43],[137.94,-3.52],[137.74,-3.36],[137.5,-3.45],[137.31,-3.29],[137.07,-3.37],[136.87,-3.21],[136.63,-3.3],[136.43,-3.13],[136.19,-3.22],[136.15,-3.47],[135.91,-3.56],[135.87,-3.81],[135.63,-3.89],[135.59,-4.14],[135.78,-4.3],[136.02,-4.22],[136.22,-4.38],[136.46,-4.29],[136.5,-4.04],[136.74,-3.96],[136.94,-4.12],[136.89,-4.37],[137.09,-4.53],[137.33,-4.44],[137.53,-4.6],[137.77,-4.52],[137.81,-4.27],[138.05,-4.18],[138.24,-4.34],[138.48,-4.25],[138.68,-4.42],[138.92,-4.33],[139.12,-4.49],[139.36,-4.4],[139.55,-4.56],[139.79,-4.47],[139.99,-4.64],[139.94,-4.88],[140.14,-5.04],[140.38,-4.96],[140.57,-5.11],[140.81,-5.03],[141.01,-5.19],[141.25,-5.1],[141.44,-5.26],[141.68,-5.17],[141.87,-5.33],[142.11,-5.24],[142.31,-5.4],[142.26,-5.65],[142.46,-5.8],[142.41,-6.05],[142.61,-6.21],[142.84,-6.12],[143.04,-6.28],[143.28,-6.19],[143.47,-6.34],[143.71,-6.26],[143.9,-6.41],[143.85,-6.66],[144.05,-6.81],[144.28,-6.72],[144.33,-6.48],[144.56,-6.39],[144.76,-6.55],[144.99,-6.46],[145.18,-6.61],[145.14,-6.86],[145.33,-7.01],[145.56,-6.92],[145.75,-7.08],[145.71,-7.32],[145.9,-7.47],[146.13,-7.38],[146.32,-7.54],[146.56,-7.45],[146.75,-7.6],[146.7,-7.84],[146.89,-7.99],[146.85,-8.23],[147.04,-8.38],[146.99,-8.62],[147.18,-8.77],[147.13,-9.01],[147.32,-9.16],[147.55,-9.07],[147.74,-9.22],[147.7,-9.45],[147.88,-9.6],[148.11,-9.51]]],[[[133.83,-1.27],[133.63,-1.1],[133.39,-1.19],[133.35,-1.44],[133.55,-1.61],[133.79,-1.52],[133.98,-1.68],[134.22,-1.59],[134.26,-1.34],[134.07,-1.18],[133.83,-1.27]]],[[[167.27,-45.36],[167.26,-45.11],[166.95,-45.0],[166.65,-45.14],[166.67,-45.38],[166.37,-45.52],[166.38,-45.77],[166.69,-45.87],[166.99,-45.74],[166.97,-45.49],[167.27,-45.36]]],[[[146.41,-5.93],[146.45,-5.68],[146.26,-5.53],[146.03,-5.62],[145.98,-5.86],[146.17,-6.02],[146.41,-5.93]]],[[[166.28,-50.94],[166.6,-50.8],[166.59,-50.57],[166.26,-50.47],[165.94,-50.6],[165.94,-50.83],[166.28,-50.94]]],[[[136.2,-35.0],[135.99,-34.82],[135.71,-34.88],[135.63,-35.12],[135.83,-35.3],[136.12,-35.24],[136.2,-35.0]]],[[[147.16,-6.54],[147.4,-6.45],[147.44,-6.21],[147.25,-6.06],[147.02,-6.15],[146.83,-5.99],[146.6,-6.08],[146.55,-6.32],[146.74,-6.48],[146.97,-6.39],[147.16,-6.54]]],[[[169.28,-44.13],[169.26,-43.89],[168.96,-43.78],[168.67,-43.92],[168.69,-44.17],[168.99,-44.27],[169.28,-44.13]]],[[[168.4,-44.31],[168.1,-44.2],[167.81,-44.34],[167.83,-44.59],[168.13,-44.7],[168.42,-44.56],[168.4,-44.31]]]]}}]}