{"type":"FeatureCollection","features":[{"type":"Feature","properties":{},"geometry":{"type":"MultiPolygon","coordinates":[[[[38.99,65.15],[36.61,65.56],[35.39,65.27],[35.1,65.44],[35.3,65.65],[35.01,65.81],[35.94,66.28],[35.64,66.45],[35.86,66.66],[33.04,67.16],[32.52,67.11],[32.33,66.9],[33.16,66.79],[33.48,66.63],[33.28,66.42],[34.4,66.14],[34.2,65.93],[34.5,65.77],[34.3,65.56],[33.81,65.51],[31.91,65.89],[30.13,65.29],[29.04,65.53],[27.79,65.55],[27.47,65.7],[27.61,65.92],[27.29,66.06],[26.04,66.07],[25.71,66.21],[25.83,66.42],[25.5,66.56],[24.46,66.2],[23.34,66.39],[22.9,66.31],[22.8,66.1],[21.59,66.07],[21.51,65.85],[21.08,65.77],[21.0,65.56],[21.33,65.43],[21.25,65.21],[20.35,64.83],[20.28,64.62],[20.6,64.49],[20.52,64.27],[19.42,64.24],[18.91,63.72],[18.22,63.76],[17.85,63.68],[17.8,63.46],[16.76,63.41],[16.72,63.2],[17.03,63.08],[16.98,62.87],[16.63,62.78],[16.59,62.57],[14.98,62.07],[14.85,61.9],[15.15,61.78],[15.01,61.6],[13.33,60.9],[10.73,61.0],[9.16,60.25],[9.05,60.07],[9.35,59.95],[8.74,59.51],[7.64,59.47],[7.54,59.28],[7.84,59.17],[7.74,58.98],[6.69,58.99],[6.41,59.16],[6.51,59.35],[6.05,59.87],[6.15,60.06],[5.2,60.36],[5.29,60.55],[5.0,60.71],[5.09,60.9],[4.41,61.04],[4.32,60.85],[4.62,60.69],[4.53,60.5],[5.02,59.98],[4.46,59.58],[4.94,59.06],[4.85,58.86],[5.13,58.7],[5.05,58.51],[6.31,58.23],[6.58,58.06],[6.49,57.87],[6.78,57.76],[7.45,57.72],[6.88,57.26],[5.87,57.26],[4.9,56.61],[4.55,56.57],[4.47,56.37],[3.5,56.46],[2.99,56.02],[2.01,56.1],[1.51,55.64],[0.52,55.71],[0.45,55.5],[0.1,55.45],[-0.19,55.61],[-0.96,55.3],[-1.49,55.82],[-1.43,56.03],[-2.4,56.29],[-1.92,56.76],[-1.55,56.81],[-1.49,57.02],[-1.8,57.18],[-1.74,57.38],[-1.37,57.43],[-1.3,57.64],[-4.07,58.03],[-4.13,57.83],[-3.8,57.68],[-2.42,57.48],[-2.48,57.28],[-2.85,57.22],[-2.9,57.01],[-2.59,56.86],[-2.65,56.65],[-3.7,56.69],[-3.75,56.48],[-4.94,55.86],[-5.26,56.01],[-5.21,56.23],[-5.9,56.31],[-5.95,56.09],[-7.12,55.45],[-7.16,55.23],[-6.56,54.72],[-6.6,54.5],[-7.73,53.83],[-7.77,53.61],[-8.5,53.23],[-8.53,53.0],[-8.88,52.92],[-9.49,53.43],[-9.84,53.35],[-9.57,52.75],[-10.29,52.35],[-10.95,52.4],[-10.97,52.17],[-10.65,52.03],[-10.38,51.43],[-8.77,51.18],[-8.07,51.58],[-8.03,51.81],[-7.39,51.74],[-7.05,51.82],[-7.01,52.05],[-6.37,51.98],[-5.65,52.35],[-5.35,52.2],[-5.39,51.98],[-5.73,51.9],[-5.52,51.3],[-6.22,50.92],[-6.01,50.31],[-6.7,49.92],[-6.74,49.69],[-6.45,49.54],[-6.49,49.31],[-5.95,48.77],[-5.99,48.54],[-6.31,48.46],[-6.35,48.23],[-5.82,47.69],[-6.21,47.14],[-5.7,46.6],[-3.65,46.46],[-1.7,46.06],[-1.75,45.83],[-1.3,45.28],[-1.35,45.05],[-1.65,44.97],[-1.7,44.74],[-1.45,44.58],[-1.5,44.35],[-1.8,44.27],[-1.65,43.64],[-3.82,43.95],[-4.46,43.54],[-8.1,44.05],[-8.73,43.61],[-9.0,43.76],[-9.3,43.66],[-9.65,43.07],[-8.88,42.14],[-9.22,41.55],[-8.96,41.41],[-8.74,40.77],[-9.34,40.31],[-9.13,39.67],[-9.41,39.57],[-9.67,39.71],[-9.96,39.61],[-9.98,39.36],[-9.72,39.21],[-9.74,38.97],[-9.48,38.82],[-9.5,38.57],[-8.78,37.65],[-8.5,37.75],[-8.48,38.0],[-8.96,38.54],[-8.94,38.79],[-8.04,39.59],[-8.01,39.84],[-7.73,39.94],[-7.7,40.18],[-6.34,40.18],[-5.03,39.92],[-4.43,40.35],[-3.14,40.07],[-2.53,40.48],[-2.11,39.93],[-1.83,40.01],[-1.09,39.78],[-0.16,40.5],[0.06,40.34],[0.01,40.1],[-0.26,40.03],[-0.64,39.47],[-0.24,38.92],[0.03,39.0],[0.08,39.24],[-0.14,39.4],[-0.09,39.63],[0.84,40.34],[1.23,40.9],[2.02,40.94],[2.42,41.49],[3.23,41.53],[3.29,41.76],[3.59,41.85],[3.48,42.46],[3.25,42.6],[3.67,43.16],[5.04,43.13],[6.35,42.85],[7.05,43.24],[7.12,43.48],[7.98,43.48],[8.46,44.02],[8.77,44.1],[10.12,43.78],[9.23,42.94],[8.37,42.94],[8.29,42.71],[8.52,42.55],[8.05,42.01],[8.43,41.46],[8.74,41.53],[8.97,41.37],[8.89,41.14],[8.05,41.14],[7.6,40.59],[8.35,40.35],[7.9,39.8],[8.12,39.64],[8.05,39.4],[8.42,38.84],[9.24,38.82],[9.7,39.37],[10.0,39.45],[9.94,40.09],[10.25,40.16],[10.33,40.4],[9.96,40.96],[10.05,41.2],[9.82,41.36],[9.9,41.59],[9.67,41.76],[9.76,41.99],[10.61,41.97],[10.7,42.21],[11.02,42.28],[11.24,42.11],[11.56,42.18],[11.79,42.02],[11.7,41.78],[12.47,41.52],[12.38,41.28],[12.74,40.71],[14.67,40.44],[14.89,40.27],[14.8,40.03],[15.55,39.73],[15.45,39.5],[15.67,39.32],[15.69,38.66],[14.32,38.84],[14.23,38.61],[14.44,38.43],[14.35,38.19],[14.04,38.13],[13.3,38.42],[13.39,38.66],[13.17,38.83],[12.46,38.46],[11.98,37.92],[12.2,37.74],[12.51,37.81],[12.85,37.22],[14.19,37.05],[14.53,36.45],[14.83,36.51],[15.33,37.05],[15.11,37.23],[15.21,37.47],[16.75,38.41],[16.85,38.65],[17.17,38.71],[17.16,39.36],[17.47,39.41],[17.58,39.65],[16.83,39.96],[16.93,40.19],[17.79,40.12],[18.11,39.52],[18.86,39.85],[18.97,40.09],[18.65,40.69],[17.78,40.77],[17.45,41.36],[17.13,41.31],[16.36,41.61],[16.34,42.25],[17.11,42.59],[18.98,42.03],[18.87,41.8],[19.19,41.2],[19.08,40.97],[19.3,40.79],[19.19,40.55],[19.4,40.37],[19.4,39.72],[19.61,39.53],[19.93,39.58],[20.14,39.39],[20.03,39.15],[20.77,38.82],[20.23,38.31],[20.44,38.12],[21.18,38.44],[21.39,38.25],[21.28,38.01],[21.48,37.82],[21.46,37.16],[22.7,36.65],[23.01,36.69],[23.04,37.36],[22.84,37.55],[22.09,37.24],[21.8,37.86],[21.91,38.1],[22.23,38.14],[23.47,37.63],[24.23,37.94],[24.27,38.6],[23.55,38.95],[23.66,39.18],[23.46,39.38],[23.14,39.34],[22.93,39.53],[23.5,40.03],[24.35,39.91],[24.39,40.56],[25.18,40.85],[25.46,40.23],[24.88,39.75],[25.08,39.55],[25.86,39.84],[26.06,39.64],[25.93,39.41],[26.2,38.79],[26.07,38.56],[25.75,38.53],[25.63,38.3],[25.83,38.1],[27.04,38.64],[27.16,38.87],[26.9,39.5],[27.03,39.72],[26.31,40.09],[26.44,40.32],[26.76,40.35],[27.49,39.98],[27.81,40.0],[27.94,40.22],[28.79,40.07],[28.92,40.29],[29.71,40.55],[29.79,41.2],[29.07,41.58],[28.74,41.56],[28.54,41.76],[28.68,41.98],[27.95,42.35],[28.08,42.57],[27.88,42.77],[28.02,42.99],[28.83,43.25],[28.91,43.88],[28.71,44.07],[28.85,44.29],[29.67,44.53],[29.75,45.15],[30.64,44.99],[30.79,45.2],[30.04,45.57],[30.19,45.78],[31.52,46.23],[32.26,45.85],[32.16,45.24],[32.35,45.04],[32.7,45.05],[32.93,44.44],[33.27,44.44],[33.98,44.04],[36.76,45.05],[36.93,44.85],[37.78,44.63],[37.96,44.02],[38.78,44.2],[38.96,43.58],[41.21,42.68],[41.36,42.47],[41.21,42.27],[41.36,42.06],[41.21,41.46],[40.43,41.28],[40.27,41.08],[39.96,41.09],[39.8,41.3],[39.49,41.31],[39.33,41.11],[40.9,40.23],[41.21,40.22],[41.36,40.42],[41.67,40.4],[41.82,40.19],[42.58,40.36],[43.18,39.91],[43.93,40.07],[44.51,39.62],[45.27,39.77],[45.84,39.32],[47.07,39.63],[47.24,39.82],[47.55,39.79],[48.11,39.32],[48.9,39.45],[49.02,39.22],[49.33,39.19],[49.51,39.38],[50.24,39.08],[50.43,39.27],[51.16,38.97],[51.35,39.16],[51.65,39.12],[51.77,38.89],[52.08,38.85],[53.28,39.33],[54.01,39.0],[54.72,39.33],[55.45,38.99],[55.76,39.6],[56.6,39.68],[56.92,40.28],[55.96,41.1],[56.72,41.43],[56.61,41.66],[55.74,41.58],[55.74,42.25],[55.41,42.29],[55.29,42.53],[55.62,43.15],[55.95,43.1],[56.17,43.29],[56.06,43.53],[55.17,43.44],[54.59,43.96],[53.79,44.28],[53.58,44.09],[53.7,43.85],[54.49,43.53],[55.06,43.01],[54.85,42.82],[54.52,42.86],[54.21,42.25],[53.88,42.29],[53.31,42.8],[53.61,43.42],[53.49,43.66],[52.23,44.25],[51.94,43.62],[52.98,42.84],[52.77,42.65],[52.45,42.69],[51.41,43.46],[50.55,43.34],[49.48,44.09],[48.2,44.62],[48.11,45.27],[48.3,45.47],[48.16,45.7],[48.35,45.9],[48.21,46.12],[48.95,46.5],[49.85,46.65],[50.12,47.28],[51.62,47.59],[51.92,48.22],[54.07,48.67],[54.31,48.86],[55.18,48.54],[55.42,48.74],[55.79,48.69],[55.92,48.46],[56.28,48.41],[57.15,48.74],[57.52,48.69],[57.64,48.45],[58.01,48.4],[58.13,48.16],[57.87,47.97],[57.99,47.73],[58.35,47.67],[58.75,48.29],[59.12,48.24],[59.38,48.42],[59.27,48.67],[59.53,48.85],[59.42,49.1],[59.68,49.28],[60.71,49.35],[60.81,49.11],[61.19,49.04],[61.46,49.23],[63.8,49.5],[64.09,49.68],[64.93,49.28],[65.22,49.45],[65.59,49.38],[65.68,49.13],[66.05,49.05],[66.13,48.8],[65.64,48.2],[65.72,47.95],[66.52,47.54],[66.6,47.29],[67.6,47.29],[68.11,47.88],[69.78,47.95],[69.84,47.69],[69.55,47.53],[69.61,47.27],[69.96,47.18],[70.02,46.93],[69.73,46.77],[69.79,46.51],[70.55,46.07],[71.0,45.47],[71.97,45.43],[72.4,44.82],[73.36,44.78],[73.41,44.52],[72.87,43.96],[71.31,43.94],[69.81,43.64],[69.08,44.08],[68.81,43.91],[68.07,44.34],[67.8,44.17],[67.66,43.5],[68.0,43.41],[68.26,43.58],[68.6,43.49],[68.66,43.24],[69.6,43.23],[69.65,42.97],[69.17,42.39],[69.23,42.14],[68.37,41.9],[68.44,41.65],[69.14,41.22],[69.2,40.97],[68.93,40.8],[68.99,40.55],[68.16,40.31],[67.84,40.4],[67.78,40.65],[66.89,40.65],[66.82,40.9],[66.5,40.98],[65.11,40.63],[65.01,39.96],[66.09,39.23],[65.99,38.57],[66.3,38.49],[66.54,38.65],[66.85,38.57],[66.91,38.32],[67.77,38.32],[68.21,38.89],[68.52,38.81],[68.77,38.97],[69.08,38.88],[69.13,38.63],[70.0,38.61],[70.05,38.36],[70.35,38.27],[70.2,37.61],[70.5,37.52],[70.89,36.93],[70.65,36.78],[70.35,36.87],[70.1,36.71],[70.15,36.46],[70.99,36.43],[71.44,36.99],[71.05,37.59],[71.51,38.15],[71.12,38.74],[71.38,38.9],[71.33,39.15],[72.73,39.43],[72.34,40.03],[72.6,40.18],[73.26,39.73],[73.76,40.29],[74.07,40.19],[73.87,39.53],[74.74,39.48],[74.78,39.22],[75.08,39.12],[75.11,38.87],[75.4,38.76],[75.43,38.51],[75.73,38.41],[75.76,38.15],[76.68,37.33],[76.7,37.08],[76.99,36.98],[77.8,37.15],[78.09,37.04],[78.1,36.79],[78.39,36.68],[78.65,36.82],[78.93,36.71],[78.95,36.46],[79.76,36.37],[79.77,36.13],[80.05,36.01],[80.85,36.17],[81.66,36.07],[82.19,36.58],[83.53,36.48],[83.8,36.6],[83.81,36.85],[84.62,36.98],[84.62,37.22],[84.9,37.35],[85.7,37.22],[86.26,37.71],[86.28,37.95],[86.56,38.07],[87.36,37.93],[87.64,38.05],[87.66,38.3],[87.94,38.41],[88.2,38.28],[88.48,38.39],[88.5,38.64],[88.78,38.75],[89.04,38.62],[89.64,39.09],[90.43,38.92],[91.03,39.38],[92.35,39.17],[92.96,39.62],[93.2,39.48],[94.02,39.53],[94.06,39.77],[93.82,39.92],[93.53,39.82],[93.29,39.96],[93.67,40.55],[92.88,40.74],[92.92,40.98],[92.67,41.13],[93.4,42.06],[94.25,42.11],[94.3,42.35],[93.84,42.89],[93.53,42.8],[93.28,42.94],[93.32,43.19],[92.5,43.38],[92.54,43.63],[92.05,44.17],[92.09,44.42],[93.56,44.42],[94.03,43.87],[94.91,43.91],[95.36,43.36],[95.66,43.45],[95.72,43.69],[95.47,43.85],[95.52,44.09],[94.7,44.3],[94.39,44.21],[93.92,44.76],[91.86,44.82],[91.58,44.96],[91.98,45.56],[91.71,45.71],[91.75,45.96],[92.07,46.06],[92.11,46.3],[91.22,46.5],[90.9,46.4],[90.36,46.94],[90.4,47.19],[90.1,47.34],[90.14,47.59],[89.21,47.78],[89.24,48.03],[88.94,48.17],[88.61,48.06],[88.3,48.21],[88.33,48.46],[88.02,48.6],[87.68,48.49],[87.37,48.63],[87.1,49.28],[87.44,49.39],[87.46,49.64],[86.48,49.81],[86.5,50.06],[88.18,50.11],[88.78,49.57],[89.13,49.68],[89.16,49.93],[88.85,50.07],[88.88,50.32],[89.23,50.43],[89.26,50.68],[88.65,51.22],[88.68,51.47],[89.04,51.58],[89.07,51.82],[90.12,51.88],[90.44,51.73],[90.4,51.48],[90.04,51.38],[89.72,51.53],[89.36,51.43],[89.33,51.18],[89.93,50.63],[90.94,50.68],[91.25,50.53],[91.21,50.29],[90.47,49.84],[90.17,49.99],[89.82,49.89],[90.06,49.24],[89.71,49.14],[89.41,49.28],[89.06,49.18],[89.03,48.93],[91.26,48.64],[91.22,48.39],[91.51,48.24],[91.47,48.0],[91.76,47.85],[91.72,47.6],[92.25,47.05],[92.57,47.15],[92.62,47.39],[92.34,47.55],[92.38,47.79],[93.1,48.23],[93.15,48.48],[93.48,48.57],[93.77,48.42],[93.72,48.17],[94.0,48.01],[95.55,47.97],[96.01,48.54],[95.73,48.7],[95.79,48.94],[96.13,49.03],[96.41,48.87],[97.15,49.27],[97.02,49.92],[96.11,50.16],[96.18,50.4],[95.9,50.56],[95.96,50.8],[96.31,50.88],[96.6,50.72],[97.58,50.72],[97.65,50.96],[97.37,51.12],[97.44,51.36],[96.52,51.61],[96.59,51.85],[96.95,51.93],[97.23,51.76],[97.59,51.84],[97.67,52.08],[97.38,52.24],[97.46,52.48],[97.82,52.56],[97.9,52.79],[96.28,53.14],[95.24,53.14],[94.93,53.3],[95.0,53.54],[95.37,53.62],[95.44,53.87],[94.44,54.11],[94.5,54.35],[94.18,54.51],[93.8,54.42],[93.48,54.58],[93.54,54.82],[94.63,54.83],[95.65,54.59],[96.49,54.98],[96.79,54.81],[96.72,54.57],[97.7,54.32],[98.08,54.39],[98.16,54.62],[97.86,54.79],[97.95,55.03],[98.33,55.09],[98.63,54.93],[98.54,54.69],[98.84,54.52],[98.76,54.29],[99.05,54.12],[99.42,54.18],[99.9,53.61],[100.92,53.57],[101.19,53.39],[101.1,53.16],[101.54,52.58],[101.9,52.64],[102.78,52.36],[102.68,52.13],[102.33,52.07],[102.23,51.83],[102.49,51.66],[103.44,51.6],[104.86,51.19],[105.21,51.24],[105.31,51.47],[105.66,51.52],[105.89,51.34],[105.34,50.84],[104.42,50.91],[104.32,50.68],[103.98,50.62],[103.15,50.91],[102.36,50.56],[101.51,50.84],[101.17,50.78],[101.08,50.54],[100.73,50.48],[100.82,49.84],[99.28,49.96],[99.2,49.73],[100.06,49.47],[99.98,49.23],[99.22,48.85],[99.15,48.61],[99.4,48.44],[99.74,48.52],[99.81,48.75],[100.73,48.73],[101.14,48.16],[100.65,47.62],[100.89,47.45],[101.78,47.42],[102.02,47.26],[101.93,47.02],[102.71,46.76],[102.63,46.52],[102.85,46.36],[104.76,46.1],[106.52,45.6],[107.22,45.93],[108.22,45.7],[108.41,45.52],[108.31,45.3],[108.98,45.01],[108.88,44.79],[109.06,44.62],[108.57,44.14],[108.75,43.97],[108.65,43.75],[109.3,43.46],[109.69,43.73],[110.43,43.66],[110.6,43.49],[110.5,43.28],[110.95,43.16],[111.12,42.99],[111.01,42.78],[111.62,42.49],[111.51,42.28],[111.67,42.11],[110.44,41.12],[111.04,40.84],[110.57,40.37],[111.42,40.15],[111.68,39.25],[111.58,39.04],[110.91,39.1],[110.56,38.83],[110.58,37.89],[110.98,37.79],[111.03,38.36],[111.43,38.26],[111.39,37.69],[111.93,37.43],[111.62,36.99],[111.84,36.85],[111.8,36.66],[112.47,36.43],[112.8,35.55],[113.01,35.41],[113.25,35.46],[113.28,35.66],[113.97,35.62],[113.83,36.15],[114.07,36.2],[114.11,36.39],[113.94,36.73],[114.45,37.02],[114.31,37.54],[114.56,37.58],[114.59,37.77],[114.38,37.92],[114.49,38.12],[114.35,38.27],[115.16,38.96],[118.12,38.2],[118.16,38.38],[117.6,38.64],[117.72,38.84],[118.07,39.06],[118.66,38.97],[120.9,40.48],[121.7,40.78],[121.97,40.75],[122.01,40.3],[121.58,40.21],[121.56,39.86],[121.21,39.65],[121.2,39.31],[120.73,38.91],[121.33,38.65],[121.59,38.85],[122.0,38.73],[122.5,39.02],[123.06,38.98],[123.49,39.75],[123.86,39.79],[124.31,39.42],[124.69,39.45],[124.96,38.95],[124.51,38.17],[124.63,37.73],[126.1,37.66],[126.13,37.44],[125.84,37.18],[126.05,37.08],[126.01,36.9],[125.72,36.63],[126.42,35.69],[125.85,35.14],[125.81,34.95],[126.01,34.85],[125.69,34.38],[127.23,34.23],[128.05,34.88],[128.42,34.48],[128.66,34.56],[129.57,35.57],[129.37,35.67],[129.6,35.97],[129.36,36.51],[129.7,37.18],[127.83,39.7],[128.65,39.75],[129.03,40.21],[129.45,40.24],[129.61,40.8],[130.25,40.94],[129.99,41.48],[130.59,42.29],[131.26,42.22],[131.69,42.69],[132.6,42.73],[133.08,42.3],[133.53,42.77],[134.24,42.68],[134.71,43.14],[135.19,43.16],[135.68,44.08],[136.42,44.21],[136.94,45.14],[137.71,45.27],[137.72,45.5],[138.82,46.66],[138.84,46.89],[139.11,47.01],[139.12,47.24],[140.3,48.4],[140.32,48.63],[140.61,48.75],[140.38,49.32],[140.95,49.76],[140.56,50.28],[140.86,50.4],[140.84,50.61],[140.5,50.71],[140.47,50.92],[141.06,51.38],[141.04,51.59],[141.69,51.61],[141.72,51.4],[142.06,51.3],[142.08,51.08],[141.76,50.97],[141.79,50.75],[142.12,50.65],[142.14,50.44],[141.83,50.33],[141.85,50.11],[142.18,50.02],[142.15,49.79],[141.85,49.67],[142.07,49.1],[141.77,48.98],[141.74,48.75],[142.26,48.28],[142.23,48.05],[141.62,47.59],[141.6,47.36],[141.86,47.24],[141.52,46.66],[141.79,46.54],[142.0,45.95],[142.54,45.94],[142.34,46.53],[142.63,46.64],[143.74,46.61],[143.77,46.85],[143.51,46.97],[142.95,46.99],[143.3,47.57],[142.47,47.7],[142.83,48.28],[143.13,48.39],[142.91,48.97],[143.56,49.43],[144.07,48.95],[144.38,49.06],[144.42,49.29],[143.9,49.77],[143.94,50.0],[143.66,50.12],[144.04,50.69],[143.38,51.11],[143.68,51.66],[142.98,52.08],[142.97,52.3],[143.62,52.76],[143.61,52.98],[142.89,53.41],[142.87,53.63],[143.22,53.75],[143.2,53.98],[142.84,54.08],[142.82,54.31],[142.11,54.29],[142.51,53.74],[142.17,53.62],[142.19,53.39],[141.55,52.93],[141.19,53.03],[141.17,53.25],[141.5,53.37],[141.47,53.6],[140.41,53.67],[140.38,53.89],[140.0,53.99],[139.67,53.86],[138.88,54.27],[138.27,53.79],[137.9,53.88],[137.84,54.1],[138.17,54.23],[138.12,54.46],[137.03,54.5],[136.97,54.73],[138.02,54.91],[137.97,55.14],[136.85,55.18],[136.25,54.67],[135.86,54.76],[135.8,54.98],[136.12,55.12],[136.06,55.35],[135.66,55.43],[135.33,55.29],[135.4,55.07],[134.36,54.86],[134.44,54.64],[134.12,54.5],[132.03,54.28],[132.12,54.06],[132.98,53.7],[133.5,54.21],[134.59,54.19],[135.15,54.7],[135.54,54.62],[135.61,54.4],[136.7,54.37],[136.76,54.14],[136.44,54.01],[136.5,53.78],[135.49,53.59],[136.0,53.07],[135.45,52.58],[135.51,52.36],[135.88,52.28],[135.94,52.06],[135.64,51.93],[135.7,51.71],[134.76,51.52],[135.65,50.73],[135.37,50.6],[135.43,50.39],[134.53,50.2],[134.59,49.99],[134.32,49.86],[133.14,50.49],[133.07,50.7],[133.55,51.19],[133.47,51.4],[133.76,51.54],[133.68,51.75],[132.68,51.76],[132.2,51.26],[131.21,51.25],[131.12,51.46],[131.4,51.61],[131.31,51.82],[131.58,51.96],[131.5,52.18],[132.43,52.4],[131.89,52.9],[130.85,52.89],[130.75,53.1],[131.04,53.25],[130.94,53.47],[129.88,53.45],[129.78,53.66],[129.39,53.72],[128.44,53.48],[127.55,53.8],[127.43,54.02],[126.76,53.91],[126.37,53.97],[126.24,54.18],[125.57,54.07],[124.64,54.38],[124.26,53.84],[123.32,54.13],[122.42,53.84],[121.47,54.12],[119.57,53.7],[119.34,53.53],[119.51,53.33],[119.29,53.16],[118.9,53.18],[118.73,53.38],[117.73,53.26],[117.52,53.09],[117.69,52.89],[117.48,52.72],[116.92,52.93],[116.33,52.78],[115.38,53.01],[115.19,52.83],[115.37,52.64],[115.18,52.46],[115.36,52.27],[114.61,51.94],[113.1,52.34],[112.92,52.17],[113.12,51.98],[112.4,51.63],[112.61,51.09],[113.15,51.26],[113.7,51.06],[112.99,50.73],[113.17,50.55],[113.04,50.34],[111.83,49.82],[111.27,49.36],[110.44,49.46],[110.32,49.25],[110.01,49.21],[109.28,49.52],[109.84,50.0],[109.64,50.18],[109.76,50.4],[110.09,50.43],[110.21,50.65],[109.47,50.97],[110.05,51.45],[110.38,51.48],[110.66,50.9],[111.44,51.18],[111.57,51.4],[111.37,51.58],[111.04,51.55],[110.84,51.73],[111.43,52.19],[110.68,52.52],[109.88,52.24],[109.1,52.57],[108.29,52.27],[108.07,52.45],[108.19,52.67],[108.54,52.71],[109.61,53.44],[109.3,54.02],[109.46,54.21],[109.23,54.39],[109.97,54.78],[109.75,54.96],[109.92,55.15],[109.69,55.34],[109.86,55.53],[109.22,55.71],[109.04,55.52],[109.28,55.33],[109.11,55.14],[109.34,54.96],[108.61,54.57],[108.84,54.39],[108.71,54.17],[108.35,54.13],[107.27,53.4],[106.91,53.35],[106.8,53.13],[106.44,53.09],[106.2,53.27],[106.32,53.49],[106.68,53.53],[107.27,54.02],[105.81,54.48],[105.93,54.7],[105.68,54.88],[105.8,55.1],[105.54,55.28],[105.17,55.24],[104.56,54.74],[104.19,54.69],[103.93,54.87],[104.04,55.1],[104.9,55.42],[105.02,55.64],[104.61,56.22],[104.72,56.45],[104.45,56.63],[104.57,56.85],[104.29,57.03],[104.41,57.25],[102.76,57.69],[102.87,57.92],[102.58,58.09],[102.69,58.32],[102.39,58.5],[101.46,58.17],[100.43,58.46],[99.28,58.52],[98.72,59.09],[97.79,58.74],[95.92,59.1],[95.5,59.03],[95.42,58.79],[94.5,58.41],[93.38,58.65],[93.44,58.89],[93.08,59.05],[92.65,58.97],[92.29,59.12],[92.35,59.36],[91.97,59.51],[91.17,59.58],[91.22,59.82],[90.83,59.97],[89.18,60.09],[88.28,59.67],[85.36,59.93],[83.24,59.87],[82.39,60.36],[79.37,60.25],[78.45,60.73],[76.28,60.55],[75.82,60.66],[75.78,60.9],[74.43,60.97],[74.38,61.21],[73.9,61.31],[72.6,61.12],[71.57,61.54],[68.51,61.19],[67.44,61.57],[62.71,60.91],[61.6,61.25],[61.24,61.08],[59.9,61.0],[59.56,60.82],[59.7,60.59],[59.36,60.41],[59.5,60.18],[59.16,60.0],[58.69,60.05],[58.54,60.27],[58.87,60.46],[58.73,60.68],[58.24,60.73],[58.09,60.95],[57.6,60.99],[57.26,60.81],[56.12,61.1],[54.99,60.76],[54.51,60.79],[54.33,61.0],[53.85,61.03],[53.54,60.84],[52.38,61.1],[51.3,60.73],[50.82,60.74],[50.63,60.95],[50.15,60.97],[49.86,60.77],[49.39,60.78],[49.19,60.99],[48.71,61.0],[48.43,60.79],[47.27,61.01],[46.28,60.6],[45.81,60.6],[45.59,60.8],[44.41,60.58],[44.19,60.78],[43.04,60.96],[42.81,61.16],[43.05,61.36],[42.82,61.56],[41.65,61.32],[40.0,61.85],[40.22,62.06],[39.97,62.24],[40.2,62.46],[39.22,62.8],[39.44,63.01],[39.18,63.19],[38.7,63.17],[38.44,63.35],[38.66,63.56],[38.39,63.74],[38.61,63.95],[38.34,64.13],[38.57,64.34],[36.75,64.8],[36.96,65.01],[37.46,65.04],[39.3,64.58],[39.8,64.61],[40.8,65.05],[40.53,65.24],[39.26,64.97],[38.99,65.15]],[[78.06,41.22],[78.08,40.97],[77.8,40.83],[77.5,40.94],[76.96,40.4],[75.5,40.43],[74.98,39.88],[74.68,39.98],[74.3,40.59],[74.58,40.74],[75.47,40.68],[75.99,41.23],[76.3,41.12],[76.58,41.27],[76.81,41.92],[77.1,42.07],[78.0,41.99],[78.56,42.52],[81.85,42.49],[81.86,42.23],[81.56,42.1],[81.26,42.22],[80.69,41.7],[79.21,41.78],[78.92,41.64],[78.93,41.39],[78.06,41.22]],[[141.57,52.71],[141.93,52.61],[141.95,52.39],[141.27,52.37],[141.25,52.59],[141.57,52.71]],[[88.44,43.65],[88.46,43.9],[88.77,44.01],[89.05,43.87],[89.02,43.62],[88.72,43.51],[88.44,43.65]],[[108.71,48.42],[108.51,48.6],[108.62,48.82],[108.94,48.86],[109.14,48.69],[109.03,48.47],[108.71,48.42]],[[74.61,42.68],[74.93,42.57],[74.96,42.32],[74.68,42.17],[74.36,42.27],[74.33,42.53],[74.61,42.68]],[[21.2,39.1],[21.52,39.14],[21.73,38.95],[21.62,38.72],[21.3,38.67],[21.09,38.87],[21.2,39.1]],[[117.01,51.64],[117.92,51.4],[118.04,50.85],[117.48,50.71],[116.42,51.13],[116.25,51.32],[116.45,51.49],[117.01,51.64]],[[10.29,58.43],[9.31,58.6],[9.41,58.79],[9.81,58.86],[10.51,58.81],[10.8,58.69],[10.29,58.43]],[[95.58,49.35],[95.52,49.1],[95.18,49.02],[94.9,49.17],[94.96,49.42],[95.3,49.5],[95.58,49.35]],[[22.87,38.22],[22.14,38.57],[22.17,39.22],[22.49,39.26],[22.7,39.07],[22.58,38.84],[22.78,38.64],[23.63,38.52],[23.83,38.33],[23.71,38.1],[22.87,38.22]],[[15.67,42.78],[16.0,42.83],[16.22,42.66],[16.12,42.43],[15.79,42.37],[15.57,42.54],[14.81,42.19],[14.59,42.37],[14.69,42.6],[14.33,43.17],[14.43,43.4],[13.64,43.67],[13.74,43.9],[13.51,44.07],[13.18,44.01],[12.95,44.17],[13.04,44.4],[12.67,44.95],[12.77,45.18],[13.1,45.25],[13.33,45.08],[13.24,44.86],[13.47,44.69],[13.8,44.76],[14.04,44.59],[13.94,44.36],[14.17,44.2],[14.5,44.26],[14.73,44.09],[14.63,43.86],[15.42,43.58],[15.32,43.35],[15.67,42.78]],[[138.59,50.61],[138.8,51.16],[139.11,51.29],[139.45,51.2],[139.86,50.68],[139.3,50.22],[138.59,50.61]],[[138.46,49.64],[138.79,49.56],[138.83,49.35],[138.22,49.31],[138.17,49.52],[138.46,49.64]],[[23.81,64.91],[23.7,64.7],[23.28,64.62],[21.49,64.87],[21.57,65.08],[22.74,65.11],[22.83,65.32],[23.26,65.4],[24.34,65.2],[24.23,64.99],[23.81,64.91]],[[120.93,51.53],[121.3,51.5],[121.6,52.02],[122.21,52.15],[122.06,52.35],[122.91,52.64],[123.3,52.6],[123.43,52.4],[123.1,51.87],[123.74,51.42],[122.54,51.19],[122.23,50.67],[121.73,50.9],[120.79,50.81],[120.71,51.37],[120.93,51.53]],[[138.66,48.61],[138.65,48.38],[138.37,48.26],[137.51,48.33],[137.46,48.53],[137.98,48.98],[138.66,48.61]],[[105.58,54.03],[105.47,53.8],[105.71,53.63],[105.6,53.4],[105.24,53.35],[104.99,53.53],[105.1,53.76],[104.85,53.94],[104.96,54.16],[105.33,54.21],[105.58,54.03]],[[-9.28,52.38],[-8.97,52.24],[-8.99,52.01],[-9.7,51.61],[-10.02,51.75],[-9.62,52.3],[-9.28,52.38]],[[-4.72,55.28],[-4.27,55.78],[-2.93,55.6],[-2.98,55.38],[-4.0,55.41],[-4.05,55.2],[-4.41,55.13],[-4.72,55.28]],[[-4.74,53.61],[-5.09,53.54],[-5.13,53.32],[-4.83,53.17],[-5.26,52.65],[-5.91,52.73],[-5.48,53.25],[-6.05,53.77],[-6.01,53.99],[-5.26,54.35],[-4.95,54.2],[-4.74,53.61]],[[73.74,46.37],[74.05,46.52],[75.03,46.46],[75.07,46.2],[75.77,45.73],[75.8,45.47],[75.24,44.92],[75.27,44.66],[74.98,44.51],[74.28,44.98],[73.99,44.83],[73.65,44.93],[73.87,45.6],[73.53,45.7],[73.49,45.96],[73.79,46.11],[73.74,46.37]],[[85.11,42.61],[84.81,42.49],[84.52,42.62],[84.53,42.87],[85.42,42.99],[85.44,43.24],[84.55,43.38],[84.56,43.63],[84.26,43.76],[83.95,43.64],[83.66,43.77],[83.66,44.02],[83.97,44.15],[84.27,44.02],[84.57,44.14],[85.16,43.62],[86.06,43.73],[86.35,43.6],[86.33,43.34],[87.21,43.19],[87.19,42.94],[87.47,42.8],[87.45,42.55],[87.15,42.44],[86.6,42.96],[85.71,42.85],[85.7,42.6],[85.4,42.48],[85.11,42.61]],[[121.61,52.96],[121.76,52.76],[121.53,52.59],[121.68,52.39],[121.07,52.26],[120.92,52.46],[121.15,52.63],[121.0,52.83],[121.61,52.96]],[[36.67,46.65],[36.85,46.45],[37.69,46.63],[37.87,46.43],[37.72,45.84],[36.89,45.65],[36.71,45.86],[36.37,45.86],[35.72,45.47],[35.38,45.47],[35.2,45.67],[35.32,46.27],[36.67,46.65]],[[138.68,51.81],[138.72,51.59],[138.07,51.56],[138.02,51.77],[138.33,51.9],[138.28,52.12],[138.95,52.16],[138.99,51.94],[138.68,51.81]],[[82.74,42.62],[82.45,42.49],[82.15,42.62],[82.15,42.87],[82.45,43.0],[83.34,42.88],[83.34,42.62],[83.04,42.5],[82.74,42.62]],[[93.45,52.97],[93.82,53.05],[94.13,52.89],[94.07,52.65],[93.71,52.56],[93.4,52.72],[93.45,52.97]],[[-0.01,41.2],[-0.52,41.28],[-0.47,41.52],[-0.19,41.6],[0.04,41.44],[-0.01,41.2]],[[95.64,52.09],[95.28,52.01],[94.98,52.17],[95.05,52.42],[95.41,52.5],[95.71,52.34],[95.64,52.09]],[[92.31,50.82],[92.0,50.97],[92.05,51.22],[92.41,51.31],[92.71,51.16],[92.66,50.91],[92.31,50.82]],[[28.73,40.49],[28.4,40.47],[28.21,40.67],[28.34,40.89],[28.67,40.92],[28.86,40.72],[28.73,40.49]],[[91.13,49.79],[91.47,49.89],[91.77,49.74],[91.73,49.49],[91.39,49.39],[91.08,49.54],[91.13,49.79]],[[107.24,48.41],[107.55,48.46],[107.66,48.68],[107.98,48.73],[108.19,48.55],[107.65,48.06],[107.34,48.01],[107.13,48.19],[107.24,48.41]],[[137.52,52.51],[137.88,52.42],[137.92,52.21],[137.26,52.16],[137.21,52.38],[137.52,52.51]],[[77.34,42.72],[77.03,42.84],[77.0,43.09],[77.29,43.24],[77.61,43.12],[77.63,42.87],[77.34,42.72]],[[-4.3,54.11],[-3.95,54.18],[-3.65,54.03],[-3.7,53.81],[-4.35,53.9],[-4.3,54.11]],[[89.52,42.84],[89.79,42.7],[89.76,42.45],[89.46,42.34],[88.94,42.87],[88.97,43.12],[89.27,43.23],[89.55,43.09],[89.52,42.84]]],[[[74.38,35.77],[74.13,35.63],[74.17,35.38],[74.45,35.28],[74.92,35.82],[74.89,36.07],[74.61,36.17],[74.35,36.02],[74.38,35.77]]],[[[141.64,42.41],[142.4,42.26],[142.67,42.37],[142.7,42.61],[141.93,42.76],[140.64,42.68],[140.39,42.81],[140.41,43.04],[141.44,43.01],[141.71,43.12],[141.73,43.36],[140.44,43.51],[139.9,43.05],[139.33,42.12],[140.08,41.99],[140.06,41.75],[139.8,41.64],[139.79,41.41],[140.03,41.28],[140.28,41.39],[140.3,41.63],[140.8,41.61],[140.23,40.69],[140.47,40.56],[141.01,41.01],[141.25,40.88],[141.23,40.65],[141.9,39.78],[142.16,39.88],[142.18,40.12],[141.51,40.99],[141.53,41.23],[141.29,41.36],[141.31,41.59],[141.07,41.72],[141.09,41.96],[140.84,42.09],[140.86,42.32],[141.13,42.43],[141.64,42.41]]],[[[139.45,35.77],[139.21,35.66],[139.2,35.43],[139.87,35.27],[139.86,35.03],[140.08,34.9],[140.83,35.67],[140.43,36.65],[139.96,36.68],[139.53,37.17],[139.06,37.2],[139.58,38.11],[140.09,38.56],[140.1,38.8],[139.87,38.93],[138.61,37.45],[138.81,36.86],[139.5,36.7],[139.49,36.47],[139.25,36.37],[139.45,35.77]]],[[[69.61,36.39],[69.37,36.24],[69.42,35.99],[69.71,35.9],[69.96,36.06],[69.91,36.3],[69.61,36.39]]],[[[141.28,44.08],[141.25,43.85],[141.5,43.72],[142.08,44.18],[142.1,44.42],[141.57,44.43],[141.55,44.19],[141.28,44.08]]],[[[107.98,33.58],[108.01,33.79],[107.79,33.93],[107.54,33.87],[107.51,33.66],[107.98,33.58]]],[[[122.76,37.18],[122.79,37.36],[122.36,37.36],[122.0,37.7],[121.52,37.47],[121.11,37.58],[120.77,38.06],[119.71,37.21],[120.32,36.94],[120.81,37.19],[121.0,37.04],[120.74,36.83],[120.89,36.5],[121.15,36.71],[121.78,36.63],[121.81,36.81],[122.48,36.91],[122.76,37.18]]],[[[135.64,34.46],[135.85,34.56],[135.86,34.79],[135.64,34.91],[135.43,34.81],[135.64,34.46]]],[[[2.87,40.12],[2.58,40.03],[2.19,39.47],[2.92,39.26],[3.54,39.67],[3.61,39.91],[4.41,39.93],[4.47,40.17],[3.73,40.38],[3.09,39.97],[2.87,40.12]]],[[[108.95,32.03],[108.92,31.81],[109.38,31.74],[109.41,31.95],[109.2,32.1],[108.95,32.03]]],[[[136.3,36.15],[136.09,36.27],[135.86,36.16],[135.86,35.93],[136.3,35.92],[136.3,36.15]]],[[[141.11,45.15],[141.39,45.26],[141.87,44.78],[142.41,44.76],[142.69,44.87],[142.72,45.11],[142.23,45.59],[141.15,45.61],[140.87,45.5],[140.85,45.27],[141.11,45.15]]],[[[140.42,39.85],[140.18,39.98],[140.2,40.21],[139.71,40.23],[139.7,40.0],[140.37,39.14],[140.62,39.25],[140.64,39.48],[140.4,39.61],[140.42,39.85]]],[[[32.56,41.52],[33.17,41.96],[34.01,41.77],[34.15,41.98],[33.46,42.38],[33.13,42.38],[31.57,41.49],[31.24,41.48],[31.1,41.26],[30.77,41.24],[30.58,41.45],[30.26,41.43],[30.12,41.21],[30.31,41.01],[31.15,40.84],[31.76,41.29],[32.56,41.52]]],[[[138.72,34.99],[138.95,35.09],[138.97,35.33],[138.75,35.46],[138.51,35.35],[138.5,35.12],[138.72,34.99]]],[[[144.44,43.72],[145.23,43.56],[145.19,43.32],[144.37,43.25],[144.34,43.01],[144.59,42.87],[145.41,42.94],[145.44,43.18],[145.73,43.28],[145.56,43.9],[145.09,44.41],[144.8,44.3],[144.44,43.72]]],[[[120.18,36.21],[119.95,36.17],[120.1,35.84],[120.36,36.06],[120.18,36.21]]],[[[-8.69,54.27],[-8.34,54.35],[-8.31,54.57],[-8.99,54.63],[-9.02,54.41],[-8.69,54.27]]],[[[35.98,41.36],[36.16,41.16],[36.48,41.16],[36.63,41.36],[36.45,41.57],[35.64,41.78],[35.46,41.99],[35.13,41.99],[34.96,42.19],[34.63,42.19],[34.48,41.98],[34.66,41.77],[35.98,41.36]]],[[[148.7,45.62],[148.39,45.52],[148.34,45.28],[148.6,45.14],[148.91,45.24],[148.96,45.48],[148.7,45.62]]],[[[64.56,41.46],[64.48,41.71],[64.15,41.78],[63.91,41.61],[63.99,41.36],[64.31,41.28],[64.56,41.46]]],[[[137.7,56.27],[138.45,56.32],[138.4,56.55],[139.07,57.05],[139.02,57.29],[138.24,57.24],[138.3,57.01],[137.64,56.5],[137.7,56.27]]],[[[107.9,56.07],[108.32,56.08],[108.49,56.27],[108.24,56.46],[108.41,56.66],[107.73,56.83],[107.57,56.63],[107.82,56.45],[107.07,56.04],[107.74,55.87],[107.9,56.07]]],[[[119.39,35.54],[119.58,35.39],[119.84,35.61],[119.42,35.73],[119.39,35.54]]],[[[137.07,55.77],[137.41,55.91],[137.35,56.14],[136.94,56.23],[136.33,55.72],[136.39,55.49],[136.79,55.4],[137.13,55.54],[137.07,55.77]]],[[[142.11,39.41],[141.88,39.54],[141.34,39.09],[141.11,39.22],[140.58,38.77],[140.57,38.54],[140.8,38.41],[140.78,38.17],[140.53,38.07],[140.73,37.46],[141.2,37.43],[141.01,38.04],[142.09,39.17],[142.11,39.41]]],[[[137.9,37.13],[137.45,37.15],[137.44,36.92],[137.66,36.79],[137.42,36.22],[137.64,36.1],[138.11,36.54],[137.9,37.13]]],[[[119.29,37.32],[119.06,37.28],[119.22,36.95],[119.49,37.17],[119.29,37.32]]],[[[91.88,37.86],[92.12,37.72],[92.4,37.82],[92.23,38.45],[91.46,38.62],[91.18,38.51],[91.14,38.27],[91.91,38.1],[91.88,37.86]]],[[[144.25,44.33],[143.46,44.49],[143.17,44.38],[143.14,44.14],[143.93,43.99],[144.22,44.09],[144.25,44.33]]],[[[110.75,31.5],[110.78,31.71],[110.57,31.86],[110.33,31.79],[110.3,31.58],[110.75,31.5]]],[[[140.41,58.53],[140.02,58.39],[140.06,58.16],[140.87,58.19],[140.83,58.43],[140.41,58.53]]],[[[136.77,37.29],[137.22,37.27],[137.23,37.5],[137.0,37.63],[136.77,37.52],[136.77,37.29]]],[[[147.64,44.61],[148.03,45.19],[147.78,45.33],[147.12,44.89],[147.08,44.65],[147.33,44.51],[147.64,44.61]]],[[[63.91,42.53],[63.83,42.78],[63.5,42.85],[63.25,42.67],[63.33,42.43],[63.66,42.35],[63.91,42.53]]],[[[57.32,38.67],[57.01,38.72],[56.8,38.54],[56.79,37.89],[57.62,37.95],[57.83,38.13],[57.32,38.67]]],[[[41.29,65.86],[41.56,66.06],[41.28,66.24],[40.74,66.22],[38.94,65.53],[39.22,65.36],[39.74,65.39],[40.76,65.83],[41.29,65.86]]],[[[36.76,66.15],[38.09,66.06],[38.38,65.88],[38.9,65.92],[39.14,66.13],[37.21,66.57],[36.68,66.53],[36.46,66.32],[36.76,66.15]]],[[[118.31,35.72],[118.85,36.17],[118.49,36.65],[118.07,36.76],[117.57,36.5],[117.13,36.6],[117.1,36.41],[117.53,36.31],[117.69,35.97],[118.31,35.72]]],[[[126.54,33.09],[126.83,33.37],[126.38,33.39],[126.34,33.19],[126.54,33.09]]],[[[128.55,54.65],[128.43,54.87],[128.03,54.93],[127.06,54.66],[127.18,54.45],[128.1,54.12],[129.75,54.47],[129.64,54.68],[129.24,54.75],[128.55,54.65]]],[[[107.82,55.49],[107.41,55.48],[107.28,55.26],[107.53,55.08],[107.9,55.12],[108.06,55.31],[107.82,55.49]]],[[[118.82,38.3],[118.59,38.27],[118.75,37.94],[119.01,38.16],[118.82,38.3]]],[[[27.36,37.58],[27.24,37.35],[27.43,37.15],[27.74,37.18],[27.87,37.4],[27.68,37.61],[27.36,37.58]]],[[[136.73,35.21],[137.16,34.73],[137.38,34.84],[137.18,35.42],[136.96,35.55],[136.73,35.44],[136.73,35.21]]],[[[110.52,53.66],[110.69,53.84],[110.47,54.03],[110.08,54.03],[109.91,53.84],[110.52,53.66]]],[[[38.07,41.14],[37.92,40.93],[38.09,40.72],[38.4,40.72],[38.55,40.92],[38.39,41.13],[38.07,41.14]]],[[[63.25,40.84],[63.58,40.76],[63.82,40.94],[63.74,41.18],[63.42,41.26],[63.17,41.08],[63.25,40.84]]],[[[138.63,37.92],[138.64,38.15],[138.17,38.17],[138.16,37.94],[138.39,37.81],[138.63,37.92]]],[[[137.21,36.81],[136.99,36.93],[136.76,36.83],[136.76,36.59],[137.21,36.58],[137.21,36.81]]],[[[140.18,57.46],[140.14,57.69],[139.72,57.79],[139.35,57.65],[139.39,57.42],[140.18,57.46]]],[[[-3.62,37.17],[-3.66,36.92],[-3.43,36.77],[-3.16,36.86],[-3.12,37.11],[-3.35,37.26],[-3.62,37.17]]],[[[73.6,35.58],[73.31,35.67],[73.06,35.52],[73.1,35.28],[73.38,35.18],[73.63,35.33],[73.6,35.58]]],[[[143.72,42.32],[144.06,42.9],[143.81,43.03],[143.53,42.93],[142.89,42.0],[143.14,41.87],[143.72,42.32]]],[[[10.25,63.76],[10.13,63.59],[10.46,63.48],[11.02,63.72],[10.25,63.76]]],[[[133.93,35.19],[134.14,35.3],[134.14,35.53],[133.93,35.64],[133.72,35.53],[133.93,35.19]]],[[[121.22,24.12],[121.48,24.44],[121.29,24.56],[121.06,24.46],[121.02,24.24],[121.22,24.12]]]]}}]}