{"type":"FeatureCollection","features":[{"type":"Feature","properties":{},"geometry":{"type":"MultiPolygon","coordinates":[[[[17.58,39.0],[17.58,39.65],[16.83,39.96],[16.93,40.19],[17.79,40.12],[18.11,39.52],[19.4,39.72],[19.5,39.3],[20.24,38.97],[20.33,37.88],[21.57,37.39],[21.75,36.53],[23.09,36.26],[23.13,36.93],[24.31,37.51],[24.15,36.61],[24.9,36.91],[25.17,36.28],[26.42,36.4],[26.48,37.07],[26.79,37.09],[27.62,35.85],[27.93,35.87],[28.49,36.36],[28.37,37.22],[27.36,37.58],[26.72,38.62],[28.45,38.97],[29.47,38.61],[31.3,39.57],[31.39,40.21],[32.31,40.67],[33.14,40.48],[33.11,40.91],[32.6,41.1],[31.62,41.07],[32.7,41.74],[33.21,41.54],[33.25,41.12],[34.69,41.36],[34.01,41.77],[33.97,42.18],[33.13,42.38],[31.1,41.26],[29.79,41.2],[28.74,41.56],[28.48,42.18],[27.95,42.35],[28.02,42.99],[28.97,43.46],[28.85,44.29],[29.67,44.53],[29.75,45.15],[30.79,45.2],[30.04,45.57],[30.19,45.78],[31.52,46.23],[32.26,45.85],[32.16,45.24],[32.7,45.05],[32.93,44.44],[33.98,44.04],[36.76,45.05],[37.78,44.63],[37.96,44.02],[38.78,44.2],[38.96,43.58],[41.21,42.68],[41.36,41.65],[40.27,41.08],[39.49,41.31],[39.5,40.48],[44.39,40.25],[46.14,39.29],[46.33,39.9],[46.8,40.07],[46.87,40.9],[49.05,40.7],[49.34,41.74],[48.75,42.22],[48.8,42.64],[44.73,44.62],[44.59,45.26],[43.13,45.94],[44.32,46.53],[44.35,47.38],[45.2,47.14],[45.25,47.99],[46.56,49.0],[46.6,49.43],[51.92,51.06],[52.83,50.77],[54.34,51.29],[55.9,51.13],[56.54,50.61],[57.57,50.71],[57.56,50.04],[58.44,49.69],[59.0,50.74],[58.38,51.28],[58.65,51.46],[59.55,51.11],[59.5,50.44],[60.55,50.51],[61.85,51.67],[62.93,51.72],[63.43,52.33],[64.13,52.43],[64.03,52.68],[65.05,52.96],[65.45,52.88],[65.32,52.22],[66.43,52.23],[67.37,51.58],[70.2,51.89],[70.01,51.22],[70.83,50.78],[70.63,50.12],[71.75,49.83],[71.49,49.42],[70.5,49.2],[71.4,48.24],[70.67,47.0],[71.67,46.97],[72.46,46.26],[73.92,47.29],[75.23,47.38],[76.97,46.57],[78.9,46.65],[78.63,45.99],[77.68,45.83],[78.05,45.2],[77.12,45.03],[76.58,44.23],[75.34,44.15],[74.65,44.62],[73.74,44.42],[74.14,43.8],[73.61,43.24],[72.3,43.65],[71.79,43.08],[70.58,42.95],[69.81,43.64],[69.2,43.57],[70.04,42.63],[69.34,41.63],[69.72,41.29],[69.57,40.62],[70.46,40.6],[70.94,41.17],[72.12,41.3],[72.83,40.59],[71.09,40.41],[70.62,39.84],[68.03,39.64],[67.84,39.23],[67.03,38.98],[67.4,38.65],[68.77,38.97],[70.0,38.61],[70.35,38.27],[70.2,37.61],[70.89,36.93],[71.44,36.99],[72.07,38.21],[71.68,38.81],[71.9,39.21],[73.87,39.53],[75.08,39.12],[75.73,38.41],[74.97,37.71],[75.81,37.65],[76.16,37.05],[77.3,36.62],[77.8,37.15],[80.05,36.01],[80.84,36.42],[80.29,36.89],[79.2,36.85],[79.45,37.24],[80.55,37.28],[81.65,36.81],[81.38,36.43],[81.66,36.07],[82.19,36.58],[84.88,36.85],[87.94,38.41],[88.73,38.26],[90.71,39.03],[90.93,38.65],[90.3,37.95],[91.88,37.86],[92.28,37.1],[93.03,36.93],[94.13,37.33],[94.12,38.67],[94.45,39.01],[93.6,38.71],[93.2,39.48],[94.54,39.49],[94.4,40.11],[94.74,40.45],[93.96,40.65],[93.6,41.67],[94.79,42.05],[94.8,43.42],[95.72,43.69],[94.5,44.7],[92.17,44.92],[91.75,45.96],[92.35,45.91],[92.58,45.51],[93.49,45.55],[93.97,45.0],[94.66,45.43],[98.87,44.78],[99.25,45.1],[99.08,45.5],[97.71,45.82],[98.1,46.14],[98.91,45.9],[100.18,46.2],[100.57,45.64],[101.66,45.45],[102.9,45.73],[103.39,46.25],[106.5,46.84],[107.23,46.55],[108.45,46.75],[108.73,46.19],[110.34,46.63],[111.3,46.37],[111.54,45.81],[111.03,45.34],[110.26,45.42],[110.33,45.03],[111.09,44.95],[111.89,45.46],[112.57,44.77],[112.51,44.18],[111.39,44.01],[111.5,43.25],[111.01,42.78],[111.84,42.91],[111.94,42.16],[110.44,41.12],[111.04,40.84],[110.57,40.37],[111.58,39.99],[111.73,38.88],[111.28,38.41],[112.19,38.41],[112.28,37.69],[111.8,36.66],[112.26,36.57],[112.64,37.39],[113.56,35.91],[114.35,36.44],[114.21,36.97],[115.04,37.67],[117.47,37.2],[117.64,36.87],[116.7,36.71],[116.83,36.18],[117.62,35.59],[118.97,35.65],[120.3,33.49],[120.9,33.22],[120.6,32.79],[121.57,31.1],[120.57,30.3],[121.19,30.19],[122.26,31.39],[121.63,32.59],[121.01,32.68],[121.31,33.17],[121.0,33.8],[120.41,34.06],[120.15,34.94],[119.58,35.39],[121.15,35.65],[121.04,36.17],[121.67,36.08],[121.55,36.6],[122.64,36.64],[123.07,37.63],[121.37,37.79],[121.07,38.44],[122.5,39.02],[123.3,38.69],[123.86,39.79],[124.69,39.45],[124.96,38.95],[124.63,37.73],[125.9,37.75],[126.13,37.44],[125.56,36.91],[125.93,36.54],[125.6,36.08],[125.97,35.7],[125.81,34.95],[125.13,34.87],[124.97,34.11],[126.06,33.98],[126.1,33.1],[127.23,33.16],[126.95,33.95],[128.09,34.0],[129.82,35.65],[129.7,37.18],[127.83,39.7],[128.65,39.75],[129.45,40.24],[129.61,40.8],[130.25,40.94],[129.99,41.48],[130.59,42.29],[131.26,42.22],[131.69,42.69],[132.6,42.73],[133.08,42.3],[133.53,42.77],[134.24,42.68],[135.19,43.16],[135.68,44.08],[136.42,44.21],[136.94,45.14],[137.71,45.27],[140.93,49.1],[140.65,49.65],[141.22,50.09],[140.75,51.26],[141.04,51.59],[142.06,51.3],[141.48,50.64],[141.85,50.11],[141.55,50.0],[141.85,49.67],[141.42,48.41],[141.94,47.94],[141.62,47.59],[141.84,47.01],[140.91,45.97],[141.69,45.6],[140.87,45.5],[141.34,44.79],[141.04,44.44],[141.25,43.85],[140.18,43.4],[139.35,42.36],[140.08,41.99],[139.3,41.66],[140.03,41.28],[139.76,40.94],[139.87,38.93],[138.86,37.79],[138.17,38.17],[138.38,37.58],[137.45,37.15],[137.42,36.22],[139.02,36.49],[139.46,36.0],[139.2,35.43],[140.32,35.0],[140.83,35.67],[141.01,38.04],[142.37,39.51],[141.51,40.99],[141.82,41.57],[141.37,42.3],[142.16,42.39],[143.14,41.87],[144.34,43.01],[145.95,42.9],[146.31,43.49],[147.16,43.55],[146.99,44.17],[147.68,44.85],[150.8,45.8],[150.66,46.43],[151.04,46.76],[150.78,46.91],[149.64,45.91],[147.82,45.57],[146.78,44.55],[145.42,44.75],[144.8,44.3],[143.71,44.36],[142.69,44.87],[142.26,45.83],[142.86,46.28],[143.64,45.91],[144.0,46.49],[142.83,48.28],[143.8,49.08],[144.55,48.24],[145.24,48.92],[143.72,50.79],[144.02,51.34],[143.34,51.76],[143.98,52.43],[143.61,52.98],[143.94,53.31],[143.22,53.75],[143.54,54.32],[142.43,54.64],[142.11,54.29],[142.51,53.74],[141.47,53.6],[139.85,54.89],[138.46,54.59],[138.7,55.18],[137.07,55.77],[138.15,55.95],[138.71,56.92],[139.85,57.09],[140.14,57.69],[141.32,57.85],[142.02,58.82],[143.65,59.33],[145.33,59.34],[146.16,58.86],[147.86,59.31],[148.65,58.82],[150.02,59.61],[150.42,59.48],[149.94,59.14],[150.3,58.76],[155.35,58.95],[155.97,59.5],[154.76,59.72],[154.84,59.95],[157.11,61.24],[156.82,61.64],[155.92,61.71],[154.14,60.49],[152.28,60.12],[151.52,60.64],[149.69,60.23],[148.88,60.74],[146.66,60.65],[145.78,61.15],[144.46,60.3],[142.67,60.76],[140.98,60.23],[139.89,59.1],[138.45,59.88],[136.75,59.78],[137.0,60.4],[135.98,60.82],[136.22,61.45],[135.65,61.78],[135.98,62.18],[133.94,62.52],[131.71,62.2],[129.88,62.88],[129.5,62.71],[129.4,62.07],[128.52,61.96],[127.95,61.38],[126.77,61.73],[126.24,61.15],[123.75,60.76],[124.42,60.48],[126.4,60.92],[128.53,60.45],[127.7,60.34],[127.17,59.77],[124.0,59.27],[123.53,57.07],[122.82,56.94],[122.44,56.38],[121.41,56.67],[121.33,57.27],[120.88,57.3],[120.39,55.96],[119.35,56.23],[119.05,55.66],[117.98,55.53],[116.75,55.98],[116.58,56.57],[115.5,56.81],[113.99,56.27],[115.48,56.03],[115.45,55.26],[114.83,55.09],[114.63,55.67],[113.39,55.32],[112.34,55.53],[112.32,55.91],[112.94,56.1],[112.69,56.68],[113.54,57.06],[114.63,56.84],[114.86,57.42],[115.96,57.19],[116.87,57.54],[115.53,57.59],[115.33,58.19],[113.51,58.24],[113.47,59.43],[114.9,60.22],[114.66,60.42],[114.91,60.62],[115.41,60.61],[118.27,59.69],[118.42,59.07],[117.69,58.9],[117.65,58.5],[121.51,58.06],[122.76,59.18],[121.92,59.66],[120.47,59.76],[121.54,60.1],[121.45,60.73],[118.32,60.09],[117.84,60.12],[117.66,60.74],[116.93,60.97],[114.92,61.03],[112.7,60.45],[110.41,61.05],[110.06,61.66],[108.75,61.84],[108.26,62.85],[107.73,62.84],[107.63,62.22],[106.4,61.97],[105.68,63.38],[104.96,63.13],[105.3,62.94],[105.25,62.32],[103.56,62.64],[104.43,63.11],[103.21,63.45],[102.68,63.41],[102.7,62.79],[101.32,62.89],[100.74,63.47],[101.58,63.96],[100.29,64.28],[100.44,64.5],[100.05,64.68],[97.89,64.48],[97.62,64.87],[94.94,65.65],[94.6,66.04],[92.58,66.22],[91.79,66.99],[92.54,67.54],[89.86,67.83],[90.58,68.39],[89.63,69.17],[90.32,69.5],[88.56,69.7],[90.03,70.61],[92.53,70.47],[94.02,70.87],[95.84,70.61],[96.7,70.92],[94.15,71.11],[93.09,71.68],[91.04,71.66],[87.87,72.65],[85.75,72.58],[84.35,73.08],[82.25,72.73],[81.44,73.34],[83.62,73.46],[83.6,73.7],[80.64,73.7],[80.0,73.33],[80.85,72.73],[79.6,72.23],[78.08,72.69],[76.92,72.18],[75.35,72.62],[74.28,72.1],[71.73,72.83],[71.55,73.06],[72.15,73.22],[71.96,73.45],[69.77,73.45],[68.85,72.9],[69.07,72.67],[68.53,72.51],[68.74,72.28],[68.22,72.12],[68.43,71.9],[67.92,71.74],[68.13,71.51],[66.44,71.25],[66.67,71.03],[65.96,70.49],[66.85,70.2],[66.82,69.6],[65.32,69.34],[63.56,69.89],[61.83,69.82],[59.66,70.54],[57.92,70.43],[57.66,71.02],[56.62,71.26],[56.99,71.44],[55.56,71.87],[55.95,72.45],[55.57,72.66],[58.45,73.56],[58.08,73.77],[58.54,73.96],[58.15,74.17],[56.86,74.01],[57.25,73.8],[56.0,73.64],[55.58,73.05],[54.38,73.27],[54.78,73.46],[54.36,73.67],[56.02,74.03],[55.6,74.24],[53.49,74.08],[53.1,73.88],[53.58,73.29],[52.07,72.91],[52.56,72.32],[51.16,71.94],[51.57,71.75],[51.34,71.18],[54.87,70.35],[56.56,70.49],[59.76,69.56],[58.66,69.43],[57.98,68.89],[56.29,68.77],[54.59,69.22],[48.25,67.96],[46.79,68.14],[46.59,68.7],[45.7,68.88],[43.28,68.81],[42.97,68.61],[43.86,68.45],[44.11,67.89],[43.23,67.67],[42.93,67.08],[41.24,67.39],[41.51,67.98],[41.21,68.15],[38.88,68.4],[38.51,68.94],[37.02,69.03],[36.48,69.55],[35.2,69.26],[31.7,70.25],[30.74,70.92],[28.97,70.91],[27.85,71.37],[26.65,71.01],[25.46,71.46],[22.54,71.22],[21.53,70.63],[18.76,70.54],[18.02,69.76],[13.75,69.0],[13.29,68.23],[11.93,68.08],[11.42,67.5],[13.38,67.4],[11.83,66.97],[10.9,65.85],[11.64,65.45],[10.48,65.3],[10.41,64.87],[9.6,64.53],[9.77,64.2],[8.13,64.17],[8.2,63.66],[4.76,62.49],[4.97,62.14],[4.11,61.2],[5.02,59.98],[4.46,59.58],[5.05,58.51],[7.45,57.72],[9.5,58.29],[9.41,58.79],[10.51,58.81],[11.16,58.06],[7.84,57.1],[8.02,56.79],[7.46,56.31],[7.93,55.87],[7.37,55.39],[8.29,55.23],[7.83,54.95],[7.92,54.41],[7.02,53.84],[4.98,53.55],[4.15,53.01],[4.25,52.42],[2.28,51.11],[1.51,51.61],[2.17,52.73],[1.98,53.11],[0.49,53.49],[0.13,54.45],[-0.79,54.72],[-1.43,56.03],[-2.4,56.29],[-1.55,56.81],[-1.74,57.38],[-1.3,57.64],[-3.0,58.0],[-2.5,58.46],[-2.76,58.81],[-0.58,59.85],[-0.76,60.4],[-0.3,60.64],[-0.88,61.14],[-2.67,60.37],[-1.68,59.92],[-2.2,59.47],[-4.48,59.36],[-3.53,58.71],[-4.97,58.89],[-7.67,58.44],[-7.36,58.09],[-7.78,57.81],[-7.52,57.25],[-8.34,56.67],[-7.3,56.46],[-6.76,55.52],[-8.5,55.59],[-9.29,54.99],[-9.02,54.41],[-10.75,54.44],[-10.44,54.08],[-10.84,53.54],[-10.21,53.03],[-10.97,52.17],[-10.38,51.43],[-8.77,51.18],[-8.03,51.81],[-5.65,52.35],[-5.87,52.95],[-5.48,53.25],[-6.01,53.99],[-4.95,54.2],[-4.7,53.83],[-5.09,53.54],[-5.01,52.28],[-5.77,51.68],[-4.85,51.45],[-4.64,50.84],[-5.6,50.85],[-6.7,49.92],[-6.45,49.54],[-5.76,49.93],[-4.86,49.7],[-3.56,50.0],[-2.81,50.59],[-1.34,50.25],[-0.63,50.6],[1.18,50.52],[0.74,50.02],[-0.16,50.06],[-0.02,49.45],[-0.91,49.49],[-1.98,50.12],[-3.47,48.93],[-5.35,48.7],[-4.91,47.7],[-3.74,47.55],[-1.91,46.45],[-1.3,45.28],[-1.65,44.97],[-1.65,43.64],[-3.82,43.95],[-4.46,43.54],[-8.1,44.05],[-9.63,43.32],[-8.88,42.14],[-9.22,41.55],[-8.72,41.01],[-9.34,40.31],[-9.13,39.67],[-9.96,39.61],[-9.01,38.04],[-9.33,37.43],[-8.85,36.9],[-6.77,36.74],[-6.15,35.56],[-6.44,35.21],[-6.24,34.82],[-5.38,35.62],[-4.68,35.18],[-5.04,36.2],[-3.97,36.59],[-2.26,36.26],[-1.33,37.25],[-0.58,37.26],[-0.21,37.82],[-0.38,38.21],[0.25,38.85],[-0.09,39.63],[1.23,40.9],[2.02,40.94],[2.42,41.49],[3.59,41.85],[3.25,42.6],[3.67,43.16],[6.35,42.85],[8.77,44.1],[10.12,43.78],[9.23,42.94],[8.37,42.94],[8.52,42.55],[8.05,42.01],[8.97,41.37],[8.05,41.14],[7.6,40.59],[8.35,40.35],[7.9,39.8],[8.42,38.84],[9.24,38.82],[10.0,39.45],[9.94,40.09],[10.33,40.4],[9.76,41.99],[11.02,42.28],[12.47,41.52],[12.74,40.71],[14.67,40.44],[14.8,40.03],[15.55,39.73],[15.69,38.66],[14.63,38.9],[14.32,38.84],[14.35,38.19],[12.77,38.53],[12.07,38.16],[12.2,37.74],[13.12,37.94],[12.72,37.64],[12.85,37.22],[14.19,37.05],[14.53,36.45],[14.83,36.51],[15.33,37.05],[15.21,37.47],[16.45,37.7],[16.44,38.36],[17.58,39.0]],[[73.84,69.57],[73.97,69.34],[73.11,68.83],[72.36,69.15],[72.85,69.29],[72.71,69.52],[73.84,69.57]],[[17.43,58.61],[18.54,58.56],[19.25,58.97],[19.11,59.29],[20.25,59.72],[22.37,59.4],[21.19,58.47],[21.7,57.66],[20.56,56.7],[21.07,55.86],[20.53,55.63],[20.51,55.09],[19.46,55.16],[19.59,54.82],[19.06,54.58],[18.67,55.08],[17.63,55.13],[14.94,54.22],[13.87,54.78],[12.08,54.67],[12.68,55.14],[14.22,55.38],[14.64,54.9],[15.68,54.87],[15.65,55.41],[14.84,55.83],[15.9,55.8],[16.94,56.3],[16.93,56.82],[17.46,57.06],[18.68,56.68],[18.54,57.01],[19.65,57.99],[19.51,58.32],[18.27,58.19],[18.27,57.68],[17.32,57.39],[16.9,57.86],[17.58,58.28],[17.43,58.61]],[[25.31,38.27],[26.34,37.93],[25.46,37.41],[25.19,38.04],[24.67,38.2],[24.63,39.29],[25.86,39.84],[26.06,39.64],[25.48,39.15],[25.31,38.27]],[[13.18,44.01],[12.67,44.95],[13.1,45.25],[15.42,43.58],[15.44,42.95],[16.0,42.83],[16.12,42.43],[14.81,42.19],[14.43,43.4],[13.18,44.01]],[[101.35,51.25],[101.0,51.18],[100.56,51.76],[99.76,51.39],[99.3,51.96],[98.67,52.06],[98.55,52.7],[99.36,53.07],[99.64,52.9],[99.19,52.6],[99.39,52.2],[101.45,52.35],[101.71,52.18],[101.27,51.88],[101.35,51.25]],[[119.82,37.75],[119.98,37.42],[119.49,37.17],[119.44,38.04],[118.16,38.38],[118.07,38.71],[119.01,38.85],[119.48,39.61],[121.97,40.75],[122.01,40.3],[121.11,39.81],[120.88,38.59],[120.39,38.35],[120.51,37.85],[119.82,37.75]],[[102.75,47.62],[104.55,48.38],[105.64,48.15],[105.86,47.98],[105.34,47.47],[106.08,47.18],[104.73,46.73],[104.39,47.3],[102.75,47.62]],[[-4.3,54.11],[-3.65,54.03],[-3.45,53.44],[-4.09,53.52],[-4.3,54.11]],[[97.34,47.74],[97.74,48.06],[98.59,47.82],[98.19,47.5],[97.34,47.74]],[[75.83,53.06],[76.25,52.7],[77.7,52.76],[78.13,52.13],[79.21,52.03],[79.59,51.66],[79.26,51.27],[79.65,50.64],[78.99,50.11],[77.18,50.95],[75.77,50.89],[75.33,51.51],[74.24,51.57],[73.39,52.28],[72.78,51.72],[72.39,51.82],[72.96,52.64],[72.46,53.24],[72.8,53.39],[73.63,52.94],[75.83,53.06]],[[23.46,57.45],[23.51,57.97],[24.29,57.51],[23.46,57.45]],[[12.02,56.46],[11.85,56.79],[12.52,56.72],[12.02,56.46]],[[17.95,61.77],[17.8,62.07],[18.56,62.45],[19.76,61.92],[20.44,60.88],[19.7,60.49],[18.55,60.55],[17.38,61.07],[18.1,61.46],[17.95,61.77]],[[120.95,48.83],[121.97,48.72],[121.82,48.03],[121.08,47.76],[120.89,46.76],[117.41,45.53],[116.58,45.82],[116.69,46.4],[117.14,46.58],[118.38,46.15],[119.37,46.4],[119.57,47.74],[120.95,48.83]],[[35.38,45.47],[35.17,46.07],[35.82,46.47],[37.87,46.43],[37.72,45.84],[35.38,45.47]],[[74.55,68.19],[73.35,66.91],[72.29,66.86],[73.49,68.15],[74.55,68.19]],[[43.75,66.53],[42.92,66.7],[43.77,66.92],[44.04,66.73],[43.75,66.53]],[[35.1,65.44],[36.02,65.9],[35.72,66.07],[35.94,66.28],[39.95,65.98],[39.18,65.74],[38.99,65.15],[35.1,65.44]],[[19.19,41.2],[19.19,40.55],[17.78,40.77],[17.45,41.36],[16.58,41.43],[16.24,42.02],[17.11,42.59],[18.76,42.21],[19.19,41.2]],[[94.66,46.81],[92.71,47.89],[93.3,49.22],[93.93,49.15],[94.16,48.75],[93.72,48.17],[94.61,47.95],[95.2,46.5],[96.05,46.28],[94.71,45.68],[94.23,46.23],[94.66,46.81]],[[119.15,44.78],[119.11,44.46],[118.67,44.66],[118.88,45.13],[119.15,44.78]],[[112.37,55.15],[112.2,54.58],[111.58,54.78],[111.74,55.34],[112.37,55.15]],[[68.04,68.87],[67.22,69.16],[68.29,69.24],[68.48,69.02],[68.04,68.87]],[[132.4,56.07],[131.25,55.23],[129.61,55.5],[128.6,56.67],[126.15,56.79],[124.23,57.82],[124.5,58.61],[125.57,58.91],[127.42,58.69],[128.6,58.12],[130.94,58.41],[130.72,58.02],[129.5,57.99],[129.3,57.61],[128.23,57.34],[128.36,57.12],[129.54,57.15],[130.53,55.97],[132.4,56.07]],[[124.0,56.42],[124.43,56.38],[124.3,55.99],[123.14,56.51],[124.0,56.42]],[[99.5,47.8],[99.68,47.4],[99.1,47.49],[99.5,47.8]],[[110.78,56.49],[111.63,56.49],[110.83,56.11],[108.91,56.28],[109.69,56.68],[110.78,56.49]],[[100.41,46.91],[99.85,47.0],[99.92,47.24],[100.25,47.31],[100.41,46.91]],[[131.6,57.88],[132.15,57.58],[131.38,57.5],[131.6,57.88]],[[24.48,40.14],[25.0,39.97],[24.11,39.45],[24.03,39.87],[24.48,40.14]],[[92.32,44.03],[92.09,44.42],[92.4,44.52],[93.82,44.27],[93.46,43.93],[92.32,44.03]],[[110.92,55.35],[111.14,55.16],[110.55,54.97],[110.28,55.53],[110.87,55.73],[110.92,55.35]],[[73.97,70.41],[73.07,69.89],[72.28,70.21],[73.17,70.73],[73.97,70.41]],[[132.21,56.52],[132.44,56.9],[132.96,56.59],[132.21,56.52]],[[134.61,50.96],[135.02,50.67],[134.18,50.27],[134.61,50.96]],[[10.9,56.98],[11.68,57.11],[10.69,56.58],[10.51,56.91],[10.9,56.98]],[[134.43,53.61],[134.66,53.97],[135.11,53.67],[134.43,53.61]],[[96.57,54.1],[96.95,54.17],[97.17,53.77],[96.5,53.86],[96.57,54.1]],[[46.4,67.56],[47.57,67.57],[47.18,66.99],[45.51,67.35],[46.4,67.56]],[[77.5,37.51],[76.92,37.73],[77.74,37.9],[78.05,37.54],[77.5,37.51]],[[137.27,59.45],[137.79,59.12],[136.96,59.07],[137.27,59.45]],[[55.04,68.82],[55.25,68.62],[54.85,68.44],[54.01,68.66],[55.04,68.82]]],[[[-22.46,64.43],[-22.95,64.09],[-22.6,63.73],[-18.23,63.24],[-16.48,63.6],[-15.84,64.14],[-14.59,64.16],[-13.44,64.76],[-13.53,65.34],[-12.93,65.64],[-14.11,65.86],[-14.59,66.59],[-18.74,66.51],[-19.81,66.09],[-21.61,66.16],[-22.42,66.65],[-23.49,65.97],[-22.58,65.95],[-22.21,65.59],[-24.01,65.63],[-24.51,65.28],[-23.73,64.57],[-22.46,64.43]],[[-20.63,64.84],[-19.0,65.82],[-15.52,64.81],[-16.64,64.19],[-20.76,64.38],[-21.09,64.74],[-20.63,64.84]]],[[[118.16,62.58],[117.98,63.22],[117.43,63.24],[117.05,62.21],[117.81,61.97],[118.16,62.58]]],[[[162.1,54.64],[162.75,55.14],[161.76,55.4],[161.88,55.62],[163.54,55.85],[163.51,56.45],[164.08,56.73],[163.05,57.0],[163.76,57.51],[163.28,58.07],[162.51,58.17],[162.65,58.4],[163.87,58.35],[165.25,59.12],[163.67,59.37],[163.49,59.76],[164.78,59.7],[166.07,60.25],[166.22,59.85],[167.01,59.71],[167.05,60.34],[169.02,60.5],[170.67,59.79],[170.8,60.41],[173.7,61.37],[172.91,61.55],[171.22,60.85],[168.81,61.32],[167.6,61.01],[166.45,61.34],[167.33,61.84],[167.0,62.02],[165.62,62.11],[165.1,62.7],[164.21,62.83],[162.98,62.48],[161.17,62.71],[159.6,62.5],[158.84,61.95],[157.43,61.96],[157.71,61.56],[159.48,61.39],[159.6,60.75],[160.82,60.49],[161.93,60.85],[161.86,61.49],[163.58,61.26],[159.26,59.19],[159.38,58.57],[156.27,58.03],[156.45,57.42],[155.51,57.03],[155.78,56.65],[155.29,56.34],[155.55,55.97],[155.0,55.43],[155.58,54.92],[155.05,54.39],[156.4,52.39],[155.85,51.85],[156.32,51.32],[155.23,51.08],[155.42,50.7],[154.89,50.15],[156.16,50.01],[158.93,51.84],[158.68,52.84],[160.22,53.12],[160.05,53.5],[160.67,54.01],[160.49,54.39],[162.26,54.26],[162.1,54.64]],[[160.6,57.7],[160.81,57.31],[160.05,57.4],[160.6,57.7]],[[158.17,55.84],[158.39,55.46],[157.67,55.54],[158.17,55.84]],[[160.66,56.25],[160.86,55.87],[160.14,55.96],[160.66,56.25]],[[160.51,58.31],[161.29,58.22],[160.72,57.92],[160.51,58.31]],[[161.49,61.66],[160.62,61.76],[160.75,62.0],[162.3,62.19],[161.49,61.66]],[[161.25,59.69],[162.07,59.59],[161.46,59.3],[161.25,59.69]],[[165.26,61.01],[164.93,61.19],[165.1,61.42],[165.94,61.29],[165.26,61.01]]],[[[152.41,62.43],[153.77,62.23],[154.36,62.57],[152.99,62.78],[152.61,63.17],[151.54,62.72],[151.48,62.48],[152.41,62.43]]],[[[136.09,36.27],[136.08,35.81],[136.53,36.49],[136.09,36.27]]],[[[25.63,35.44],[24.11,35.94],[23.26,35.39],[24.96,34.7],[26.2,34.83],[26.13,35.27],[25.63,35.44]]],[[[33.14,35.1],[33.11,35.54],[32.36,35.29],[32.27,34.62],[32.74,34.43],[32.84,35.09],[33.14,35.1]]],[[[56.08,75.24],[55.62,75.05],[56.06,74.83],[55.61,74.64],[57.36,74.6],[56.94,74.81],[57.42,75.0],[56.99,75.22],[56.08,75.24]]],[[[1.68,38.44],[2.07,39.0],[1.68,39.53],[1.02,38.87],[1.68,38.44]]],[[[133.08,35.66],[132.46,35.55],[132.49,34.88],[132.89,35.32],[134.14,35.3],[133.93,35.64],[133.08,35.66]]],[[[-25.03,37.29],[-25.35,37.66],[-25.12,38.06],[-26.24,37.98],[-25.56,37.0],[-25.03,37.29]]],[[[-5.82,32.18],[-6.62,31.62],[-5.66,31.55],[-5.05,32.49],[-5.82,32.18]]],[[[-26.87,38.44],[-26.67,39.1],[-27.89,39.52],[-28.95,38.9],[-28.26,38.19],[-26.87,38.44]]],[[[28.81,36.38],[29.49,35.99],[29.93,36.24],[29.25,36.63],[28.81,36.38]]],[[[109.54,44.5],[108.75,43.97],[108.83,43.58],[110.87,44.52],[110.22,44.82],[109.54,44.5]]],[[[67.82,48.89],[68.79,49.14],[68.72,49.39],[67.23,49.73],[66.5,48.72],[67.6,48.47],[67.82,48.89]]],[[[7.68,36.44],[5.66,36.78],[5.03,36.37],[4.66,36.93],[3.98,36.29],[2.99,36.43],[2.66,36.1],[3.86,35.81],[4.47,36.21],[4.84,35.65],[5.83,35.49],[6.81,36.21],[7.82,36.03],[7.68,36.44]]],[[[2.86,39.03],[4.57,39.54],[4.47,40.17],[3.73,40.38],[2.58,40.03],[2.19,39.47],[2.86,39.03]]],[[[-17.7,32.69],[-16.39,32.32],[-16.92,33.09],[-17.7,32.69]]],[[[1.53,36.62],[2.23,36.41],[2.56,36.73],[1.36,37.01],[0.24,36.42],[0.94,36.21],[1.53,36.62]]],[[[47.98,69.47],[47.54,68.91],[48.69,68.53],[50.28,68.72],[50.78,69.29],[49.62,69.67],[47.98,69.47]]],[[[179.13,51.32],[179.69,51.53],[179.48,51.73],[177.64,52.32],[177.08,52.1],[179.13,51.32]]],[[[152.97,48.16],[152.63,48.08],[152.76,47.45],[151.83,47.42],[151.37,46.85],[152.22,46.65],[153.36,47.39],[153.24,48.01],[153.65,48.34],[152.97,48.16]]],[[[-176.46,51.9],[-177.44,52.12],[-178.19,51.73],[-176.45,51.49],[-176.46,51.9]]],[[[167.29,54.49],[167.97,54.36],[167.99,54.96],[167.3,55.09],[167.29,54.49]]],[[[155.36,49.61],[154.11,49.75],[154.22,49.13],[153.19,48.87],[154.42,48.74],[155.36,49.61]]],[[[137.0,37.63],[136.54,37.18],[136.98,36.47],[137.0,37.63]]],[[[122.7,30.27],[123.01,30.78],[122.38,30.89],[121.58,29.99],[122.36,29.56],[122.7,30.27]]],[[[60.24,75.32],[59.72,75.13],[60.11,74.91],[61.53,75.06],[60.24,75.32]]],[[[36.63,41.36],[38.09,40.72],[39.02,41.12],[38.07,41.14],[36.43,41.99],[35.64,41.78],[35.43,42.4],[34.63,42.19],[34.66,41.77],[36.16,41.16],[36.63,41.36]]],[[[-8.44,58.3],[-9.27,57.73],[-8.13,57.95],[-8.44,58.3]]],[[[128.78,32.98],[128.66,32.39],[129.48,33.04],[130.1,32.7],[130.43,33.18],[129.81,33.52],[131.26,33.82],[131.44,34.59],[129.65,33.83],[128.78,32.98]]],[[[107.29,63.45],[106.55,63.21],[107.41,63.03],[107.62,63.25],[107.29,63.45]]],[[[172.31,52.89],[172.4,52.49],[173.68,52.16],[174.24,52.4],[173.92,52.99],[173.27,53.16],[172.22,53.29],[172.31,52.89]]],[[[-16.89,28.51],[-17.14,28.38],[-16.89,28.0],[-16.64,28.38],[-16.89,28.51]]],[[[178.39,62.69],[178.11,62.49],[178.35,62.28],[179.98,62.68],[178.39,62.69]]],[[[68.2,43.83],[68.87,43.66],[68.41,44.25],[67.8,44.17],[68.2,43.83]]],[[[136.72,34.52],[137.38,34.84],[136.96,35.55],[136.29,34.77],[136.72,34.52]]],[[[175.73,61.84],[175.99,62.05],[175.73,62.25],[175.2,62.24],[174.18,61.8],[175.73,61.84]]],[[[-17.9,29.25],[-18.14,28.86],[-17.63,28.37],[-17.39,28.75],[-17.9,29.25]]],[[[118.11,56.69],[118.79,56.85],[118.16,57.08],[118.11,56.69]]],[[[30.63,36.94],[30.19,36.7],[30.42,36.05],[30.86,36.3],[30.81,36.73],[31.79,36.35],[32.24,36.59],[31.08,37.18],[30.63,36.94]]],[[[-6.74,61.16],[-6.28,61.42],[-6.6,61.76],[-5.72,62.07],[-5.99,62.6],[-6.79,62.68],[-7.72,62.17],[-6.74,61.16]]],[[[33.03,36.4],[32.72,36.39],[32.76,35.96],[33.2,36.19],[33.03,36.4]]],[[[-16.13,33.47],[-16.39,33.34],[-16.13,32.96],[-15.87,33.34],[-16.13,33.47]]],[[[34.67,32.76],[34.7,32.32],[35.16,32.12],[35.1,32.99],[34.67,32.76]]],[[[35.24,33.21],[35.67,33.44],[35.51,33.66],[35.21,33.65],[35.24,33.21]]],[[[129.32,34.43],[129.73,34.21],[129.61,34.7],[129.16,34.73],[129.32,34.43]]],[[[-31.3,39.16],[-30.78,39.48],[-31.09,39.57],[-31.3,39.16]]],[[[166.06,54.96],[166.2,54.57],[166.75,54.83],[166.34,55.39],[165.92,55.34],[166.06,54.96]]],[[[135.38,62.51],[135.72,62.91],[134.78,62.84],[135.38,62.51]]],[[[59.48,74.33],[59.98,74.51],[59.6,74.73],[58.23,74.57],[59.48,74.33]]],[[[85.87,74.05],[86.59,73.66],[87.4,74.02],[85.87,74.05]]],[[[61.91,75.87],[61.34,75.69],[61.71,75.46],[63.22,75.6],[61.91,75.87]]]]}}]}