{"type":"FeatureCollection","features":[{"type":"Feature","properties":{},"geometry":{"type":"MultiPolygon","coordinates":[[[[-70.62,41.33],[-70.3,41.37],[-70.19,41.59],[-69.87,41.63],[-69.75,41.84],[-69.95,42.02],[-70.28,41.98],[-70.48,42.15],[-70.81,42.11],[-71.02,42.29],[-70.91,42.51],[-70.58,42.55],[-70.46,42.77],[-70.68,42.95],[-70.56,43.17],[-70.77,43.35],[-71.11,43.3],[-71.22,43.08],[-71.0,42.9],[-71.12,42.68],[-71.45,42.64],[-71.56,42.42],[-71.34,42.24],[-71.46,42.02],[-71.24,41.85],[-71.36,41.63],[-71.68,41.59],[-71.78,41.37],[-72.1,41.32],[-72.31,41.49],[-72.63,41.45],[-72.85,41.62],[-73.17,41.57],[-73.27,41.35],[-73.59,41.3],[-73.68,41.08],[-74.0,41.03],[-74.1,40.81],[-74.41,40.75],[-74.5,40.54],[-74.81,40.48],[-74.9,40.26],[-75.21,40.21],[-75.3,39.99],[-75.61,39.94],[-75.69,39.72],[-75.48,39.56],[-75.17,39.61],[-75.08,39.83],[-74.78,39.88],[-74.69,40.1],[-74.38,40.15],[-74.16,39.99],[-73.86,40.04],[-73.76,40.26],[-73.98,40.42],[-73.88,40.64],[-73.57,40.69],[-73.35,40.52],[-73.04,40.57],[-72.94,40.79],[-72.63,40.84],[-72.42,40.67],[-72.1,40.72],[-72.0,40.93],[-71.68,40.98],[-71.57,41.2],[-71.26,41.24],[-71.15,41.46],[-70.83,41.5],[-70.62,41.33]]],[[[100.75,29.85],[100.98,29.71],[101.23,29.8],[101.26,30.02],[101.03,30.16],[101.05,30.38],[100.83,30.52],[100.57,30.43],[100.55,30.21],[100.78,30.07],[100.75,29.85]]],[[[80.78,29.51],[81.02,29.64],[81.26,29.54],[81.27,29.3],[81.51,29.2],[81.51,28.96],[81.76,28.86],[81.99,28.98],[82.23,28.88],[82.23,28.64],[82.47,28.54],[82.47,28.31],[82.71,28.2],[82.95,28.32],[83.18,28.22],[83.42,28.34],[83.65,28.23],[83.89,28.35],[84.12,28.24],[84.36,28.36],[84.59,28.26],[84.58,28.03],[84.81,27.92],[85.05,28.04],[85.28,27.93],[85.52,28.04],[85.74,27.93],[85.73,27.7],[85.96,27.59],[85.95,27.36],[86.17,27.24],[86.41,27.36],[86.64,27.25],[86.88,27.36],[87.11,27.25],[87.35,27.36],[87.57,27.25],[87.56,27.01],[87.79,26.89],[88.03,27.01],[88.26,26.89],[88.5,27.01],[88.51,27.24],[88.76,27.35],[88.99,27.23],[88.97,27.0],[89.2,26.88],[89.44,26.99],[89.67,26.87],[89.92,26.98],[90.14,26.86],[90.39,26.97],[90.62,26.85],[90.86,26.96],[90.88,27.2],[91.12,27.31],[91.35,27.18],[91.34,26.95],[91.57,26.82],[91.81,26.93],[92.04,26.81],[92.29,26.92],[92.31,27.15],[92.55,27.26],[92.78,27.13],[93.03,27.24],[93.26,27.11],[93.51,27.22],[93.53,27.45],[93.77,27.56],[94.0,27.43],[94.25,27.54],[94.27,27.77],[94.04,27.9],[94.06,28.13],[94.31,28.24],[94.54,28.11],[94.79,28.21],[94.81,28.44],[95.06,28.55],[95.29,28.42],[95.54,28.52],[95.77,28.39],[95.75,28.16],[95.98,28.03],[96.23,28.13],[96.46,28.0],[96.44,27.76],[96.67,27.63],[96.64,27.4],[96.87,27.26],[96.85,27.03],[97.08,26.9],[97.33,27.0],[97.35,27.23],[97.12,27.37],[97.14,27.6],[97.39,27.7],[97.62,27.56],[97.87,27.66],[98.1,27.53],[98.08,27.29],[97.83,27.2],[97.81,26.96],[98.03,26.83],[98.01,26.59],[98.24,26.45],[98.22,26.22],[98.44,26.08],[98.42,25.84],[98.17,25.74],[98.15,25.51],[97.9,25.41],[97.88,25.17],[98.11,25.03],[98.35,25.13],[98.58,24.99],[98.83,25.09],[99.05,24.95],[99.03,24.71],[99.25,24.57],[99.5,24.67],[99.73,24.53],[99.7,24.29],[99.93,24.15],[99.9,23.91],[100.13,23.77],[100.37,23.86],[100.4,24.1],[100.64,24.2],[100.67,24.44],[100.91,24.54],[101.14,24.4],[101.38,24.49],[101.41,24.73],[101.66,24.83],[101.88,24.68],[101.85,24.44],[102.07,24.3],[102.05,24.06],[102.27,23.92],[102.52,24.01],[102.74,23.87],[102.98,23.96],[103.01,24.2],[103.25,24.29],[103.47,24.15],[103.72,24.24],[103.94,24.09],[104.18,24.18],[104.21,24.42],[104.46,24.51],[104.48,24.75],[104.73,24.84],[104.75,25.07],[105.0,25.16],[105.22,25.02],[105.46,25.1],[105.49,25.34],[105.27,25.49],[105.3,25.72],[105.08,25.87],[105.11,26.1],[105.35,26.19],[105.57,26.04],[105.82,26.13],[106.03,25.98],[106.28,26.06],[106.31,26.29],[106.09,26.44],[106.12,26.67],[105.9,26.82],[105.93,27.05],[106.18,27.13],[106.2,27.36],[105.99,27.51],[105.74,27.43],[105.52,27.57],[105.55,27.8],[105.33,27.94],[105.08,27.86],[104.86,28.0],[104.61,27.92],[104.39,28.06],[104.15,27.98],[103.92,28.12],[103.95,28.35],[103.73,28.49],[103.75,28.72],[103.53,28.86],[103.56,29.09],[103.34,29.23],[103.36,29.45],[103.14,29.59],[103.16,29.82],[102.94,29.96],[102.97,30.18],[103.22,30.27],[103.24,30.49],[103.5,30.57],[103.52,30.79],[103.77,30.88],[103.8,31.1],[104.05,31.18],[104.08,31.4],[104.33,31.48],[104.36,31.7],[104.13,31.83],[104.16,32.05],[104.41,32.13],[104.44,32.35],[104.69,32.43],[104.92,32.29],[105.17,32.36],[105.2,32.58],[104.97,32.72],[105.0,32.93],[105.25,33.01],[105.28,33.22],[105.53,33.29],[105.56,33.51],[105.34,33.64],[105.37,33.85],[105.62,33.93],[105.65,34.14],[105.42,34.27],[105.45,34.48],[105.23,34.62],[105.25,34.83],[105.03,34.96],[105.06,35.17],[105.31,35.24],[105.34,35.44],[105.11,35.58],[104.86,35.51],[104.63,35.64],[104.38,35.57],[104.2,35.71],[104.27,35.93],[104.09,36.08],[103.83,36.01],[103.65,36.16],[103.39,36.08],[103.32,35.86],[103.06,35.78],[102.87,35.93],[102.94,36.15],[102.76,36.3],[102.49,36.22],[102.42,36.0],[102.16,35.92],[101.97,36.07],[102.04,36.29],[101.85,36.44],[101.58,36.36],[101.52,36.13],[101.25,36.05],[101.06,36.2],[100.79,36.12],[100.6,36.26],[100.33,36.18],[100.27,35.95],[100.46,35.81],[100.73,35.89],[100.92,35.75],[101.19,35.83],[101.38,35.68],[101.64,35.76],[101.83,35.62],[102.09,35.7],[102.28,35.55],[102.54,35.63],[102.73,35.49],[102.66,35.26],[102.84,35.12],[103.1,35.2],[103.33,35.06],[103.3,34.86],[103.04,34.78],[102.81,34.91],[102.56,34.83],[102.53,34.62],[102.76,34.49],[103.02,34.57],[103.25,34.44],[103.5,34.51],[103.73,34.38],[103.7,34.17],[103.45,34.09],[103.22,34.23],[102.96,34.15],[102.94,33.94],[103.16,33.8],[103.14,33.59],[103.37,33.46],[103.62,33.54],[103.85,33.4],[103.82,33.19],[104.04,33.05],[104.02,32.84],[103.76,32.76],[103.54,32.89],[103.28,32.82],[103.26,32.6],[103.0,32.52],[102.98,32.3],[102.72,32.22],[102.7,32.0],[102.93,31.87],[102.9,31.65],[103.12,31.51],[103.1,31.29],[102.85,31.21],[102.82,30.99],[102.57,30.9],[102.54,30.68],[102.29,30.6],[102.06,30.73],[102.09,30.95],[102.34,31.04],[102.37,31.26],[102.14,31.4],[102.17,31.62],[102.42,31.7],[102.45,31.92],[102.22,32.06],[102.24,32.27],[102.02,32.41],[101.76,32.32],[101.74,32.11],[101.96,31.97],[101.94,31.75],[101.69,31.67],[101.66,31.45],[101.89,31.31],[101.86,31.09],[101.61,31.0],[101.58,30.78],[101.81,30.65],[101.79,30.42],[102.01,30.29],[101.99,30.06],[102.21,29.92],[102.19,29.7],[101.94,29.61],[101.91,29.39],[102.14,29.25],[102.11,29.02],[101.86,28.93],[101.63,29.07],[101.38,28.98],[101.16,29.12],[101.18,29.35],[100.95,29.48],[100.7,29.39],[100.68,29.16],[100.43,29.07],[100.4,28.85],[100.15,28.75],[100.13,28.52],[99.88,28.43],[99.65,28.57],[99.67,28.8],[99.93,28.89],[99.95,29.12],[99.72,29.25],[99.75,29.48],[99.52,29.62],[99.26,29.52],[99.04,29.66],[98.78,29.56],[98.76,29.33],[98.51,29.24],[98.49,29.01],[98.24,28.92],[98.21,28.69],[97.96,28.59],[97.94,28.36],[97.69,28.26],[97.46,28.39],[97.48,28.62],[97.25,28.76],[97.27,28.99],[97.04,29.12],[96.79,29.02],[96.56,29.15],[96.31,29.05],[96.08,29.18],[96.1,29.41],[95.87,29.54],[95.89,29.77],[95.66,29.89],[95.68,30.12],[95.45,30.25],[95.2,30.15],[94.97,30.27],[94.72,30.17],[94.7,29.95],[94.93,29.82],[94.91,29.59],[94.66,29.49],[94.43,29.62],[94.17,29.51],[94.16,29.28],[93.91,29.18],[93.89,28.95],[93.64,28.85],[93.62,28.62],[93.37,28.51],[93.14,28.64],[92.89,28.53],[92.87,28.3],[93.1,28.17],[93.08,27.94],[92.84,27.84],[92.61,27.96],[92.36,27.85],[92.34,27.62],[92.09,27.51],[91.86,27.64],[91.88,27.87],[91.65,27.99],[91.4,27.88],[91.17,28.01],[90.93,27.9],[90.7,28.02],[90.45,27.91],[90.22,28.03],[89.98,27.92],[89.75,28.04],[89.5,27.93],[89.49,27.69],[89.24,27.58],[89.01,27.7],[88.77,27.59],[88.54,27.7],[88.3,27.59],[88.07,27.71],[87.83,27.59],[87.6,27.71],[87.61,27.94],[87.39,28.06],[87.14,27.94],[87.13,27.71],[86.89,27.59],[86.66,27.71],[86.68,27.94],[86.45,28.05],[86.21,27.94],[85.98,28.05],[85.99,28.28],[85.77,28.39],[85.53,28.27],[85.3,28.38],[85.31,28.61],[85.08,28.72],[84.84,28.6],[84.61,28.71],[84.37,28.59],[84.13,28.7],[83.89,28.58],[83.66,28.69],[83.42,28.57],[83.19,28.68],[83.19,28.91],[82.95,29.02],[82.95,29.25],[82.71,29.36],[82.71,29.59],[82.47,29.7],[82.47,29.93],[82.23,30.04],[81.98,29.92],[81.74,30.03],[81.5,29.9],[81.25,30.0],[81.01,29.88],[80.76,29.98],[80.76,30.22],[80.51,30.33],[80.27,30.2],[80.02,30.3],[79.78,30.17],[79.79,29.93],[80.04,29.83],[80.28,29.96],[80.52,29.85],[80.53,29.62],[80.78,29.51]]],[[[-76.91,39.49],[-76.99,39.27],[-77.29,39.22],[-77.36,39.0],[-77.66,38.94],[-77.74,38.72],[-77.52,38.57],[-77.22,38.63],[-77.14,38.84],[-76.85,38.9],[-76.77,39.12],[-76.47,39.17],[-76.38,39.39],[-76.08,39.45],[-76.0,39.66],[-76.22,39.82],[-76.52,39.77],[-76.6,39.55],[-76.91,39.49]]],[[[-3.3,54.09],[-3.0,53.94],[-2.65,54.0],[-2.6,54.21],[-2.89,54.37],[-3.25,54.31],[-3.3,54.09]]],[[[78.0,30.9],[78.26,30.79],[78.5,30.93],[78.48,31.17],[78.22,31.27],[77.98,31.14],[78.0,30.9]]],[[[106.29,33.51],[106.51,33.37],[106.76,33.45],[106.79,33.66],[106.57,33.8],[106.32,33.72],[106.29,33.51]]],[[[93.53,36.89],[93.49,36.65],[93.72,36.51],[93.99,36.61],[94.22,36.48],[94.49,36.57],[94.72,36.43],[94.99,36.53],[95.21,36.39],[95.48,36.49],[95.71,36.35],[95.98,36.44],[96.2,36.3],[96.46,36.39],[96.68,36.25],[96.95,36.35],[97.16,36.2],[97.43,36.29],[97.65,36.15],[97.91,36.24],[97.97,36.47],[97.76,36.62],[97.49,36.53],[97.27,36.67],[97.0,36.58],[96.79,36.72],[96.52,36.63],[96.3,36.77],[96.35,37.01],[96.13,37.15],[95.86,37.05],[95.63,37.2],[95.36,37.1],[95.13,37.24],[94.86,37.15],[94.63,37.29],[94.36,37.19],[94.13,37.33],[94.17,37.57],[93.94,37.71],[93.66,37.61],[93.43,37.75],[93.15,37.65],[92.91,37.79],[92.63,37.68],[92.6,37.44],[92.83,37.31],[92.79,37.07],[93.03,36.93],[93.3,37.03],[93.53,36.89]]],[[[-122.93,37.9],[-122.64,37.85],[-122.56,37.62],[-122.27,37.56],[-122.06,37.73],[-122.13,37.96],[-122.42,38.02],[-122.49,38.25],[-122.78,38.3],[-122.85,38.53],[-123.14,38.59],[-123.22,38.81],[-123.51,38.86],[-123.72,38.69],[-123.65,38.46],[-123.36,38.41],[-123.29,38.18],[-123.0,38.13],[-122.93,37.9]]],[[[-0.19,51.1],[-0.25,50.88],[0.02,50.72],[0.34,50.78],[0.4,51.0],[0.14,51.16],[-0.19,51.1]]],[[[-3.89,51.44],[-3.6,51.29],[-3.65,51.06],[-3.37,50.91],[-3.04,50.97],[-2.99,51.2],[-2.66,51.27],[-2.6,51.49],[-2.89,51.64],[-3.22,51.58],[-3.51,51.73],[-3.84,51.66],[-3.89,51.44]]],[[[102.88,33.51],[102.66,33.65],[102.68,33.86],[102.45,33.99],[102.2,33.91],[102.17,33.7],[101.92,33.62],[101.89,33.4],[102.12,33.27],[102.37,33.35],[102.6,33.22],[102.86,33.3],[102.88,33.51]]],[[[150.68,-34.2],[150.92,-34.35],[151.21,-34.25],[151.25,-34.0],[151.53,-33.9],[151.57,-33.64],[151.85,-33.54],[151.89,-33.28],[151.64,-33.13],[151.36,-33.23],[151.32,-33.49],[151.04,-33.59],[151.0,-33.84],[150.71,-33.94],[150.68,-34.2]]],[[[114.34,21.91],[114.37,22.14],[114.6,22.21],[114.63,22.45],[114.86,22.52],[114.89,22.75],[114.69,22.9],[114.47,22.83],[114.43,22.6],[114.2,22.53],[114.01,22.68],[113.78,22.6],[113.58,22.76],[113.35,22.68],[113.32,22.45],[113.52,22.3],[113.48,22.06],[113.68,21.91],[113.91,21.99],[114.11,21.83],[114.34,21.91]]],[[[-117.82,34.12],[-118.04,33.95],[-118.32,34.02],[-118.39,34.26],[-118.67,34.33],[-118.89,34.16],[-118.83,33.92],[-118.55,33.85],[-118.49,33.61],[-118.2,33.53],[-117.98,33.7],[-117.7,33.63],[-117.47,33.8],[-117.53,34.04],[-117.82,34.12]]],[[[139.24,36.13],[139.46,36.0],[139.45,35.77],[139.21,35.66],[139.2,35.43],[138.97,35.33],[138.75,35.46],[138.51,35.35],[138.5,35.12],[138.72,34.99],[138.71,34.76],[138.93,34.63],[139.16,34.73],[139.17,34.96],[139.41,35.06],[139.63,34.93],[139.86,35.03],[140.08,34.9],[140.32,35.0],[140.33,35.23],[140.57,35.34],[140.59,35.57],[140.83,35.67],[140.85,35.91],[140.62,36.04],[140.64,36.28],[140.88,36.38],[140.9,36.62],[140.67,36.75],[140.43,36.65],[140.41,36.41],[140.17,36.31],[139.95,36.44],[139.71,36.34],[139.49,36.47],[139.25,36.37],[139.24,36.13]]],[[[136.73,35.44],[136.73,35.21],[136.51,35.11],[136.51,34.88],[136.29,34.77],[136.28,34.54],[136.5,34.42],[136.72,34.52],[136.72,34.75],[136.94,34.86],[137.16,34.73],[137.38,34.84],[137.39,35.07],[137.17,35.19],[137.18,35.42],[136.96,35.55],[136.73,35.44]]],[[[85.16,37.22],[85.44,37.34],[85.45,37.59],[85.18,37.72],[84.91,37.59],[84.9,37.35],[85.16,37.22]]],[[[-3.7,52.33],[-3.99,52.49],[-4.33,52.42],[-4.37,52.19],[-4.08,52.04],[-3.75,52.11],[-3.7,52.33]]],[[[152.8,-32.46],[152.83,-32.2],[152.59,-32.05],[152.31,-32.16],[152.28,-32.41],[152.0,-32.51],[151.96,-32.77],[152.21,-32.92],[152.49,-32.82],[152.52,-32.56],[152.8,-32.46]]],[[[-3.45,53.44],[-3.8,53.37],[-3.84,53.15],[-3.55,53.0],[-3.21,53.06],[-2.92,52.91],[-2.57,52.97],[-2.52,53.19],[-2.18,53.25],[-2.12,53.47],[-2.41,53.63],[-2.76,53.56],[-2.81,53.35],[-3.16,53.28],[-3.45,53.44]]],[[[151.1,-35.02],[151.13,-34.76],[150.88,-34.61],[150.6,-34.71],[150.56,-34.96],[150.27,-35.06],[150.22,-35.32],[149.93,-35.41],[149.89,-35.67],[150.14,-35.83],[150.43,-35.73],[150.47,-35.47],[150.77,-35.37],[150.81,-35.12],[151.1,-35.02]]],[[[-117.52,32.9],[-117.46,32.66],[-117.18,32.58],[-116.95,32.75],[-117.01,33.0],[-117.29,33.07],[-117.52,32.9]]],[[[-120.88,34.63],[-120.6,34.56],[-120.53,34.33],[-120.25,34.26],[-120.03,34.43],[-120.09,34.67],[-120.38,34.74],[-120.44,34.97],[-120.73,35.04],[-120.95,34.87],[-120.88,34.63]]],[[[-119.4,34.06],[-119.18,34.23],[-119.24,34.47],[-119.53,34.54],[-119.75,34.37],[-119.68,34.13],[-119.4,34.06]]],[[[-121.5,35.87],[-121.28,36.05],[-121.35,36.28],[-121.64,36.34],[-121.86,36.17],[-121.79,35.93],[-121.5,35.87]]],[[[153.77,-28.68],[153.8,-28.42],[153.56,-28.27],[153.59,-28.02],[153.36,-27.87],[153.39,-27.62],[153.15,-27.47],[152.89,-27.57],[152.86,-27.83],[153.09,-27.98],[153.06,-28.23],[153.3,-28.38],[153.27,-28.63],[153.51,-28.78],[153.77,-28.68]]],[[[135.85,34.11],[135.85,33.88],[136.06,33.76],[136.28,33.86],[136.28,34.09],[136.07,34.21],[135.85,34.11]]],[[[109.13,31.67],[109.38,31.74],[109.41,31.95],[109.2,32.1],[108.95,32.03],[108.92,31.81],[109.13,31.67]]],[[[-123.87,39.14],[-123.58,39.09],[-123.36,39.26],[-123.44,39.49],[-123.73,39.54],[-123.95,39.37],[-123.87,39.14]]],[[[83.54,37.22],[83.54,36.97],[83.81,36.85],[84.08,36.97],[84.08,37.22],[83.82,37.34],[83.54,37.22]]],[[[-4.6,51.07],[-4.64,50.84],[-4.36,50.69],[-4.03,50.76],[-3.98,50.99],[-4.27,51.14],[-4.6,51.07]]],[[[-116.44,31.69],[-116.5,31.94],[-116.78,32.01],[-117.0,31.85],[-116.95,31.6],[-116.67,31.52],[-116.44,31.69]]],[[[135.0,34.14],[135.0,33.92],[135.21,33.8],[135.43,33.9],[135.43,34.13],[135.21,34.25],[135.0,34.14]]],[[[135.85,34.56],[135.86,34.79],[135.64,34.91],[135.43,34.81],[135.43,34.58],[135.64,34.46],[135.85,34.56]]],[[[153.21,-29.14],[153.18,-29.39],[153.42,-29.54],[153.69,-29.44],[153.71,-29.18],[153.48,-29.04],[153.21,-29.14]]],[[[107.54,33.87],[107.51,33.66],[107.73,33.52],[107.98,33.58],[108.01,33.79],[107.79,33.93],[107.54,33.87]]],[[[110.51,31.43],[110.75,31.5],[110.78,31.71],[110.57,31.86],[110.33,31.79],[110.3,31.58],[110.51,31.43]]],[[[106.16,36.06],[105.91,35.99],[105.88,35.79],[106.1,35.65],[106.07,35.45],[106.3,35.31],[106.55,35.38],[106.58,35.59],[106.36,35.72],[106.39,35.92],[106.16,36.06]]],[[[88.86,28.97],[89.1,29.08],[89.33,28.97],[89.58,29.08],[89.59,29.31],[89.36,29.42],[89.12,29.31],[88.89,29.43],[88.64,29.32],[88.63,29.09],[88.86,28.97]]],[[[-122.42,37.16],[-122.35,36.92],[-122.06,36.87],[-121.99,36.63],[-121.71,36.57],[-121.49,36.75],[-121.56,36.98],[-121.85,37.04],[-121.92,37.27],[-122.2,37.33],[-122.42,37.16]]],[[[91.5,29.27],[91.49,29.04],[91.72,28.92],[91.97,29.02],[91.98,29.25],[91.75,29.38],[91.5,29.27]]],[[[95.05,25.6],[95.3,25.7],[95.32,25.94],[95.09,26.07],[94.84,25.97],[94.82,25.73],[95.05,25.6]]],[[[83.0,36.96],[82.73,36.84],[82.73,36.59],[83.0,36.47],[83.27,36.6],[83.27,36.84],[83.0,36.96]]]]}}]}