{"type":"FeatureCollection","features":[{"type":"Feature","properties":{},"geometry":{"type":"MultiPolygon","coordinates":[[[[-0.02,49.45],[-0.91,49.49],[-1.39,50.03],[-1.98,50.12],[-2.68,49.76],[-2.73,49.53],[-3.42,49.16],[-3.47,48.93],[-4.06,49.01],[-4.75,48.63],[-5.35,48.7],[-5.39,48.47],[-4.87,47.93],[-4.91,47.7],[-3.74,47.55],[-3.47,47.39],[-3.52,47.16],[-2.94,47.08],[-2.68,46.92],[-2.73,46.69],[-1.91,46.45],[-1.96,46.22],[-1.3,45.28],[-1.35,45.05],[-1.65,44.97],[-1.7,44.74],[-1.45,44.58],[-1.5,44.35],[-1.8,44.27],[-1.65,43.64],[-3.82,43.95],[-4.46,43.54],[-8.1,44.05],[-8.73,43.61],[-9.0,43.76],[-9.3,43.66],[-9.33,43.42],[-9.63,43.32],[-9.65,43.07],[-8.88,42.14],[-9.22,41.55],[-8.72,41.01],[-8.74,40.77],[-9.34,40.31],[-9.13,39.67],[-9.96,39.61],[-9.98,39.36],[-9.72,39.21],[-9.74,38.97],[-9.01,38.04],[-9.33,37.43],[-8.85,36.9],[-8.05,36.97],[-6.77,36.74],[-6.8,36.49],[-6.15,35.56],[-6.18,35.32],[-6.44,35.21],[-6.47,34.97],[-6.24,34.82],[-5.68,35.27],[-5.64,35.52],[-4.88,35.57],[-5.04,36.2],[-4.77,36.3],[-4.54,36.15],[-3.97,36.59],[-2.26,36.26],[-1.37,37.01],[-1.33,37.25],[-0.58,37.26],[-0.21,37.82],[-0.43,37.97],[-0.38,38.21],[0.2,38.61],[0.25,38.85],[-0.14,39.4],[-0.09,39.63],[0.84,40.34],[1.23,40.9],[2.02,40.94],[2.42,41.49],[3.23,41.53],[3.29,41.76],[3.59,41.85],[3.48,42.46],[3.25,42.6],[3.67,43.16],[5.04,43.13],[6.35,42.85],[7.05,43.24],[7.12,43.48],[7.98,43.48],[8.46,44.02],[8.77,44.1],[10.12,43.78],[9.23,42.94],[8.37,42.94],[8.29,42.71],[8.52,42.55],[8.05,42.01],[8.43,41.46],[8.74,41.53],[8.97,41.37],[8.89,41.14],[8.58,41.06],[8.36,41.22],[7.67,40.83],[7.6,40.59],[8.35,40.35],[7.9,39.8],[8.12,39.64],[8.19,39.0],[8.94,38.75],[10.0,39.45],[9.94,40.09],[10.25,40.16],[10.33,40.4],[9.96,40.96],[10.05,41.2],[9.82,41.36],[9.9,41.59],[9.67,41.76],[9.76,41.99],[10.61,41.97],[10.7,42.21],[11.02,42.28],[11.24,42.11],[11.56,42.18],[11.79,42.02],[11.7,41.78],[12.47,41.52],[12.38,41.28],[12.74,40.71],[14.67,40.44],[14.89,40.27],[14.8,40.03],[15.55,39.73],[15.45,39.5],[15.67,39.32],[15.69,38.66],[14.85,38.73],[14.75,38.49],[14.04,38.13],[12.77,38.53],[12.46,38.46],[11.98,37.92],[12.72,37.64],[13.03,37.7],[13.37,37.11],[14.19,37.05],[14.53,36.45],[14.83,36.51],[15.33,37.05],[15.11,37.23],[15.21,37.47],[16.75,38.41],[16.85,38.65],[17.17,38.71],[17.16,39.36],[16.94,39.54],[17.04,39.78],[16.83,39.96],[16.93,40.19],[17.79,40.12],[18.0,39.94],[18.33,39.99],[18.43,40.22],[18.11,40.82],[17.24,40.9],[17.02,41.08],[17.13,41.31],[16.36,41.61],[16.46,41.84],[16.24,42.02],[14.81,42.19],[14.46,42.77],[14.13,42.71],[13.91,42.88],[14.0,43.11],[13.64,43.67],[13.74,43.9],[12.95,44.17],[12.9,44.79],[12.67,44.95],[12.77,45.18],[13.1,45.25],[13.33,45.08],[13.24,44.86],[13.47,44.69],[13.8,44.76],[14.04,44.59],[13.94,44.36],[14.73,44.09],[14.63,43.86],[14.86,43.69],[15.75,43.64],[15.98,43.47],[15.87,43.24],[16.66,42.94],[16.55,42.71],[16.78,42.54],[17.54,42.88],[18.32,42.57],[18.65,42.62],[18.98,42.03],[19.75,42.35],[19.97,42.17],[19.42,41.66],[19.63,41.48],[19.96,41.53],[20.28,40.93],[20.17,40.69],[19.3,40.79],[19.19,40.55],[19.94,40.23],[19.83,40.0],[20.14,39.39],[20.9,39.71],[21.2,39.1],[21.52,39.14],[21.64,39.37],[21.34,39.99],[21.45,40.22],[22.31,40.11],[22.88,40.61],[22.13,40.95],[22.25,41.18],[22.58,41.22],[22.79,41.03],[23.57,41.33],[23.78,41.14],[23.65,40.91],[23.33,40.87],[23.2,40.65],[23.41,40.45],[24.19,40.75],[24.31,40.98],[25.18,40.85],[25.76,41.33],[25.48,41.95],[25.15,41.92],[24.94,42.11],[25.07,42.33],[25.94,42.2],[26.54,42.67],[27.41,42.53],[27.61,42.33],[27.48,42.11],[27.15,42.08],[26.95,42.28],[26.61,42.25],[26.48,42.03],[26.68,41.84],[28.08,41.51],[28.28,41.32],[28.14,41.09],[28.86,40.72],[28.27,40.25],[28.98,39.87],[28.85,39.64],[28.52,39.62],[28.45,38.97],[28.64,38.77],[29.47,38.61],[29.66,38.4],[29.53,38.18],[30.22,37.78],[30.98,38.04],[31.16,37.84],[31.98,37.66],[32.11,37.88],[32.88,38.13],[32.98,38.78],[33.3,38.79],[33.89,39.23],[34.21,39.24],[34.39,39.03],[35.16,39.25],[35.33,39.04],[35.65,39.05],[36.25,39.47],[36.57,39.47],[36.73,39.26],[37.51,39.47],[37.67,39.26],[37.98,39.26],[38.59,39.67],[38.9,39.66],[39.53,39.23],[40.29,39.42],[40.44,39.2],[40.75,39.19],[40.9,39.4],[41.66,39.16],[41.81,39.36],[42.57,39.53],[42.71,39.32],[43.89,38.84],[44.49,39.21],[45.22,38.95],[45.84,39.32],[46.14,39.29],[47.13,38.58],[47.43,38.55],[48.07,38.9],[47.94,39.12],[47.64,39.15],[47.47,38.96],[47.17,38.99],[47.07,39.63],[47.24,39.82],[46.67,40.29],[46.87,40.9],[47.63,40.63],[47.8,40.82],[48.11,40.79],[48.69,40.31],[49.0,40.28],[49.18,40.48],[49.05,40.7],[49.23,40.9],[48.65,41.38],[48.83,41.57],[48.7,41.8],[47.93,42.08],[47.83,42.73],[47.51,42.75],[46.44,43.47],[45.63,43.31],[45.01,43.76],[43.74,44.24],[43.6,44.87],[43.77,45.08],[43.12,45.52],[42.8,45.53],[42.63,45.32],[42.31,45.33],[42.15,45.54],[41.82,45.55],[41.66,45.34],[40.86,45.56],[39.74,44.97],[38.41,45.42],[38.22,46.02],[38.38,46.21],[38.21,46.42],[38.37,46.61],[39.19,46.79],[39.32,47.42],[39.14,47.62],[38.34,47.4],[38.18,47.21],[38.35,47.0],[37.69,46.63],[37.87,46.43],[37.72,45.84],[36.89,45.65],[36.71,45.86],[36.37,45.86],[35.72,45.47],[35.38,45.47],[35.2,45.67],[35.32,46.27],[35.67,46.27],[35.82,46.47],[36.17,46.46],[36.32,46.66],[37.19,46.45],[37.35,46.64],[37.17,46.84],[37.33,47.03],[37.67,47.03],[37.83,47.22],[37.65,47.42],[38.31,47.81],[38.09,48.42],[37.76,48.41],[37.58,48.61],[37.69,49.23],[37.5,49.43],[37.65,49.64],[39.49,50.32],[39.63,50.95],[41.05,51.4],[41.22,51.61],[41.02,52.23],[40.66,52.22],[39.9,52.62],[40.06,53.25],[39.86,53.45],[40.04,53.66],[39.84,53.87],[40.02,54.08],[40.4,54.09],[40.6,53.89],[40.98,53.9],[41.74,54.33],[42.13,54.34],[42.33,54.55],[42.13,54.76],[42.33,54.97],[42.13,55.17],[42.93,55.6],[42.73,55.81],[42.33,55.8],[42.13,56.01],[41.12,55.77],[40.92,55.97],[39.91,56.14],[39.7,56.34],[39.88,56.55],[39.67,56.75],[38.68,56.5],[35.97,57.35],[35.58,57.31],[35.41,57.1],[34.4,57.22],[34.25,57.0],[33.86,56.96],[33.54,57.54],[33.16,57.5],[32.92,57.68],[33.07,57.9],[32.82,58.07],[32.97,58.29],[32.73,58.47],[32.88,58.68],[31.98,58.99],[32.13,59.2],[31.88,59.38],[31.22,59.5],[31.37,59.72],[31.11,59.89],[30.05,59.95],[29.65,60.5],[28.32,60.71],[27.92,60.65],[27.8,60.44],[28.73,60.17],[28.6,59.96],[28.21,59.9],[27.29,60.16],[27.41,60.38],[27.14,60.53],[26.48,60.63],[25.81,60.72],[24.95,60.37],[23.66,60.54],[23.18,61.04],[21.87,61.18],[21.95,61.4],[21.66,61.54],[21.74,61.75],[21.45,61.89],[21.98,62.4],[21.68,62.53],[20.86,62.16],[20.78,61.95],[21.3,61.46],[20.79,60.95],[19.7,60.49],[18.55,60.55],[18.11,60.99],[17.38,61.07],[18.1,61.46],[17.66,61.89],[18.56,62.45],[18.62,62.66],[18.98,62.74],[19.04,62.96],[19.41,63.04],[19.48,63.25],[19.85,63.34],[19.92,63.55],[21.0,63.58],[21.08,63.8],[20.77,63.93],[19.67,63.89],[19.61,63.68],[18.79,63.3],[18.73,63.09],[17.7,63.04],[17.65,62.83],[16.75,62.27],[16.31,62.22],[15.84,62.64],[15.08,62.71],[15.22,62.88],[14.91,63.0],[15.05,63.17],[14.73,63.28],[14.15,63.06],[14.64,62.66],[14.5,62.48],[14.81,62.37],[14.67,62.19],[14.23,62.14],[13.75,62.55],[11.49,62.71],[13.33,63.57],[12.82,63.96],[12.05,64.01],[12.87,64.58],[12.56,65.11],[12.91,65.21],[12.93,65.41],[12.34,65.65],[12.95,66.03],[12.83,66.2],[13.2,66.31],[13.08,66.48],[13.46,66.59],[13.35,66.76],[13.73,66.87],[13.62,67.04],[14.92,67.17],[14.81,67.35],[15.22,67.45],[15.12,67.63],[14.59,67.71],[13.66,67.69],[13.54,67.87],[13.95,67.97],[13.83,68.15],[12.87,68.12],[13.0,67.94],[12.6,67.83],[13.38,67.4],[12.98,67.29],[13.11,67.12],[11.83,66.97],[11.96,66.8],[11.59,66.69],[11.72,66.52],[11.35,66.41],[11.48,66.24],[10.9,65.85],[11.64,65.45],[10.48,65.3],[10.61,65.14],[10.28,65.03],[10.41,64.87],[9.6,64.53],[9.88,64.36],[9.77,64.2],[8.66,64.35],[8.54,64.18],[8.13,64.17],[8.02,64.0],[8.32,63.83],[8.2,63.66],[7.8,63.65],[6.16,62.91],[5.76,62.89],[5.66,62.71],[5.26,62.69],[5.16,62.51],[4.76,62.49],[4.67,62.31],[4.97,62.14],[4.87,61.96],[4.48,61.94],[4.39,61.75],[4.69,61.59],[4.11,61.2],[4.41,61.04],[4.32,60.85],[4.62,60.69],[4.53,60.5],[5.02,59.98],[4.46,59.58],[4.94,59.06],[4.85,58.86],[5.13,58.7],[5.05,58.51],[6.31,58.23],[6.58,58.06],[6.49,57.87],[6.78,57.76],[7.45,57.72],[7.84,57.8],[7.93,57.99],[9.0,58.03],[9.1,58.22],[9.5,58.29],[9.6,58.48],[9.31,58.6],[9.41,58.79],[10.51,58.81],[10.8,58.69],[10.69,58.5],[11.16,58.06],[11.05,57.87],[9.97,57.86],[9.37,57.4],[8.7,57.45],[7.84,57.1],[7.74,56.9],[8.02,56.79],[7.46,56.31],[7.93,55.87],[7.37,55.39],[8.29,55.23],[8.2,55.02],[7.83,54.95],[7.74,54.74],[8.02,54.62],[7.92,54.41],[7.56,54.34],[7.02,53.84],[6.39,53.89],[6.04,53.81],[5.95,53.6],[4.98,53.55],[4.48,53.05],[4.15,53.01],[4.25,52.42],[3.13,51.86],[2.28,51.11],[1.96,51.06],[1.51,51.61],[1.97,52.09],[1.7,52.25],[1.77,52.47],[2.1,52.52],[2.17,52.73],[1.91,52.89],[1.98,53.11],[0.49,53.49],[0.56,53.71],[0.06,54.24],[0.13,54.45],[-0.79,54.72],[-0.73,54.93],[-1.25,55.46],[-1.19,55.67],[-1.49,55.82],[-1.43,56.03],[-2.4,56.29],[-1.92,56.76],[-1.55,56.81],[-1.49,57.02],[-1.8,57.18],[-1.74,57.38],[-1.37,57.43],[-1.3,57.64],[-3.0,58.0],[-2.5,58.46],[-2.82,58.61],[-2.76,58.81],[-1.49,59.37],[-1.42,59.57],[-1.03,59.61],[-0.97,59.81],[-0.58,59.85],[-0.51,60.05],[-0.83,60.2],[-0.76,60.4],[-0.37,60.44],[-0.3,60.64],[-0.88,61.14],[-2.67,60.37],[-2.74,60.17],[-1.68,59.92],[-2.2,59.47],[-2.92,59.57],[-3.75,59.26],[-4.48,59.36],[-4.53,59.15],[-3.48,58.91],[-3.53,58.71],[-4.97,58.89],[-5.79,58.56],[-6.51,58.64],[-6.56,58.43],[-6.94,58.37],[-7.67,58.44],[-7.71,58.23],[-7.36,58.09],[-7.4,57.88],[-7.78,57.81],[-7.82,57.6],[-7.48,57.46],[-7.52,57.25],[-7.89,57.17],[-8.34,56.67],[-7.3,56.46],[-7.33,56.25],[-6.72,55.74],[-6.76,55.52],[-8.5,55.59],[-8.54,55.37],[-9.29,54.99],[-9.32,54.77],[-8.99,54.63],[-9.02,54.41],[-10.75,54.44],[-10.77,54.21],[-10.44,54.08],[-10.84,53.54],[-10.21,53.03],[-10.24,52.81],[-10.95,52.4],[-10.97,52.17],[-10.65,52.03],[-10.38,51.43],[-8.77,51.18],[-8.07,51.58],[-8.03,51.81],[-7.39,51.74],[-7.05,51.82],[-7.01,52.05],[-6.37,51.98],[-5.65,52.35],[-5.87,52.95],[-5.52,53.02],[-5.48,53.25],[-6.05,53.77],[-6.01,53.99],[-5.66,54.06],[-5.62,54.28],[-4.95,54.2],[-5.0,53.98],[-4.7,53.83],[-4.74,53.61],[-5.09,53.54],[-5.13,53.32],[-4.83,53.17],[-4.88,52.94],[-5.22,52.87],[-5.01,52.28],[-5.35,52.2],[-5.77,51.68],[-4.85,51.45],[-4.64,50.84],[-5.6,50.85],[-5.64,50.62],[-6.7,49.92],[-6.74,49.69],[-6.45,49.54],[-5.76,49.93],[-4.86,49.7],[-4.53,49.78],[-4.49,50.01],[-3.56,50.0],[-3.13,50.52],[-2.81,50.59],[-1.34,50.25],[-0.63,50.6],[0.22,50.34],[0.93,50.68],[1.18,50.52],[0.74,50.02],[-0.16,50.06],[-0.02,49.45]],[[-3.45,53.44],[-4.09,53.52],[-4.3,54.11],[-3.65,54.03],[-3.45,53.44]],[[23.93,58.0],[24.29,57.51],[23.72,57.3],[23.36,57.79],[23.93,58.0]],[[32.35,45.04],[32.7,45.05],[32.89,44.85],[32.74,44.64],[32.93,44.44],[33.27,44.44],[33.98,44.04],[36.76,45.05],[36.93,44.85],[37.78,44.63],[37.96,44.02],[38.78,44.2],[38.96,43.58],[41.21,42.68],[41.36,42.47],[41.21,42.27],[41.36,41.65],[40.27,41.08],[39.49,41.31],[38.87,40.92],[38.55,40.92],[37.9,41.35],[37.12,41.15],[36.45,41.57],[35.64,41.78],[35.43,42.4],[34.15,41.98],[33.46,42.38],[33.13,42.38],[31.57,41.49],[31.24,41.48],[31.1,41.26],[30.26,41.43],[30.12,41.21],[30.83,40.82],[29.76,40.13],[29.44,40.11],[29.25,40.31],[29.84,40.77],[29.65,40.98],[29.79,41.2],[29.07,41.58],[28.21,41.74],[27.95,42.35],[28.08,42.57],[27.88,42.77],[28.02,42.99],[28.83,43.25],[28.91,43.88],[28.71,44.07],[28.85,44.29],[29.67,44.53],[29.75,45.15],[30.64,44.99],[30.79,45.2],[30.04,45.57],[30.19,45.78],[31.52,46.23],[32.26,45.85],[32.11,45.64],[32.35,45.04]],[[30.17,59.57],[30.04,59.35],[29.39,59.47],[29.52,59.68],[29.91,59.74],[30.17,59.57]],[[9.42,61.91],[8.01,62.1],[7.91,61.92],[8.19,61.76],[8.88,61.67],[8.36,61.41],[7.42,61.73],[7.52,61.91],[7.24,62.08],[7.84,62.45],[8.73,62.65],[9.01,62.48],[10.5,62.4],[9.42,61.91]],[[12.19,54.87],[12.57,54.94],[12.68,55.14],[13.72,55.12],[13.83,55.32],[14.22,55.38],[14.64,54.9],[15.68,54.87],[15.8,55.07],[15.53,55.21],[15.65,55.41],[14.72,55.64],[14.84,55.83],[15.9,55.8],[16.54,56.25],[16.94,56.3],[17.07,56.49],[16.8,56.63],[16.93,56.82],[17.46,57.06],[17.87,57.11],[18.28,56.63],[18.68,56.68],[18.81,56.87],[18.54,57.01],[19.23,57.43],[18.95,57.58],[19.09,57.76],[19.65,57.99],[19.37,58.13],[19.51,58.32],[18.82,58.42],[18.27,58.19],[18.13,58.0],[18.41,57.86],[17.73,57.44],[17.32,57.39],[16.9,57.86],[17.58,58.28],[17.3,58.42],[17.43,58.61],[18.54,58.56],[19.1,58.78],[19.25,58.97],[18.97,59.11],[19.68,59.51],[19.4,59.65],[19.54,59.82],[21.66,59.51],[22.25,59.72],[22.95,59.6],[22.79,59.43],[23.07,59.28],[22.91,59.1],[21.79,59.19],[21.64,59.01],[21.91,58.86],[21.19,58.47],[21.46,58.32],[21.31,58.14],[21.7,57.66],[21.14,57.44],[20.99,57.26],[21.26,57.11],[20.56,56.7],[20.83,56.55],[20.69,56.36],[21.07,55.86],[20.93,55.67],[20.53,55.63],[20.39,55.44],[20.65,55.29],[20.51,55.09],[19.46,55.16],[19.33,54.97],[19.59,54.82],[19.45,54.62],[19.06,54.58],[18.67,55.08],[18.02,55.18],[17.63,55.13],[16.98,54.69],[15.95,54.73],[15.82,54.53],[14.94,54.22],[14.03,54.44],[14.14,54.64],[13.87,54.78],[13.22,54.86],[12.35,54.53],[12.08,54.67],[12.19,54.87]],[[-2.61,48.69],[-2.88,48.85],[-2.83,49.08],[-2.24,48.99],[-2.29,48.76],[-2.61,48.69]],[[33.82,40.08],[33.65,40.29],[33.79,40.5],[34.11,40.51],[34.29,40.3],[34.15,40.08],[33.82,40.08]],[[25.67,59.7],[25.03,59.79],[25.13,60.01],[25.5,60.07],[25.77,59.92],[25.67,59.7]],[[10.51,56.91],[10.9,56.98],[11.01,57.17],[11.68,57.11],[11.57,56.92],[10.69,56.58],[10.4,56.71],[10.51,56.91]],[[11.85,56.79],[12.52,56.72],[12.41,56.53],[12.02,56.46],[11.74,56.59],[11.85,56.79]],[[26.8,59.88],[26.15,59.98],[26.26,60.2],[26.64,60.26],[26.91,60.1],[26.8,59.88]]],[[[152.09,-24.08],[151.39,-23.88],[151.42,-23.63],[150.83,-22.7],[150.29,-23.14],[150.44,-23.78],[149.89,-24.22],[150.04,-24.87],[148.34,-24.79],[147.95,-24.24],[147.4,-24.67],[147.18,-24.52],[146.45,-24.55],[146.74,-25.6],[146.95,-25.75],[146.6,-26.34],[146.82,-26.5],[146.77,-26.75],[147.47,-26.97],[147.74,-26.88],[148.14,-27.44],[148.09,-27.69],[148.81,-27.91],[148.95,-28.57],[149.68,-28.78],[149.83,-29.44],[149.56,-29.54],[149.52,-29.79],[149.75,-29.95],[149.71,-30.2],[149.44,-30.3],[149.4,-30.55],[149.83,-31.12],[149.79,-31.37],[151.06,-31.64],[150.38,-32.61],[149.58,-32.65],[149.21,-33.25],[148.92,-33.35],[148.88,-33.6],[149.32,-34.18],[149.28,-34.43],[148.32,-35.22],[148.27,-35.48],[147.44,-35.5],[147.04,-36.1],[146.75,-36.18],[146.5,-36.02],[146.21,-36.11],[146.15,-36.36],[145.86,-36.45],[145.62,-36.28],[144.97,-36.7],[144.73,-36.54],[144.43,-36.62],[144.19,-36.45],[143.89,-36.53],[143.66,-36.36],[143.36,-36.44],[143.13,-36.27],[142.83,-36.35],[142.6,-36.18],[139.71,-35.76],[139.49,-35.59],[139.56,-35.35],[139.06,-34.33],[138.77,-34.4],[138.7,-34.65],[138.91,-34.82],[138.84,-35.07],[138.19,-35.45],[138.11,-35.69],[137.82,-35.75],[137.11,-35.47],[136.45,-35.83],[136.37,-36.07],[137.08,-36.37],[137.75,-36.0],[137.96,-36.17],[138.25,-36.11],[138.33,-35.86],[138.62,-35.8],[138.83,-35.97],[139.13,-35.9],[139.64,-36.92],[139.57,-37.16],[139.79,-37.34],[139.72,-37.58],[139.95,-37.76],[139.87,-38.0],[140.1,-38.18],[140.94,-38.21],[141.33,-38.8],[142.01,-38.41],[142.24,-38.58],[142.55,-38.51],[142.96,-39.1],[143.27,-39.02],[143.51,-39.19],[144.55,-38.45],[145.35,-38.71],[145.65,-38.62],[146.09,-39.2],[146.4,-39.12],[146.65,-39.28],[147.32,-38.85],[147.37,-38.6],[148.03,-38.17],[148.08,-37.92],[150.05,-38.02],[150.1,-37.77],[150.4,-37.67],[150.44,-37.41],[150.18,-37.26],[150.22,-37.0],[150.52,-36.91],[150.56,-36.65],[150.31,-36.49],[150.35,-36.24],[150.64,-36.14],[150.47,-35.47],[151.1,-35.02],[150.92,-34.35],[151.53,-33.9],[151.36,-33.23],[151.64,-33.13],[151.68,-32.87],[152.49,-32.82],[152.52,-32.56],[152.8,-32.46],[152.62,-31.8],[153.51,-30.97],[153.33,-30.31],[153.9,-29.84],[153.93,-29.59],[153.69,-29.44],[153.71,-29.18],[153.98,-29.08],[154.01,-28.82],[153.77,-28.68],[154.09,-28.06],[153.65,-27.51],[153.97,-26.9],[153.24,-26.71],[153.27,-26.46],[153.53,-26.36],[153.56,-26.1],[153.33,-25.96],[153.64,-25.35],[153.21,-24.81],[152.96,-24.91],[152.25,-24.72],[152.09,-24.08]]],[[[21.82,38.52],[22.14,38.57],[22.26,38.8],[22.05,38.99],[21.73,38.95],[21.62,38.72],[21.82,38.52]]],[[[-75.68,-50.68],[-75.14,-51.19],[-75.51,-51.77],[-75.41,-51.99],[-74.14,-52.6],[-74.03,-52.82],[-74.27,-53.0],[-73.68,-53.49],[-73.92,-53.67],[-73.81,-53.89],[-73.45,-53.94],[-73.33,-54.16],[-72.97,-54.2],[-71.86,-54.94],[-70.89,-55.14],[-70.66,-54.96],[-70.83,-54.77],[-71.23,-54.76],[-71.39,-54.57],[-71.16,-54.39],[-70.2,-54.59],[-68.74,-54.03],[-66.59,-54.56],[-66.38,-54.37],[-66.58,-54.19],[-67.56,-54.02],[-67.74,-53.83],[-67.54,-53.64],[-68.28,-53.28],[-68.08,-53.1],[-68.25,-52.92],[-68.05,-52.73],[-68.22,-52.55],[-68.02,-52.36],[-68.19,-52.19],[-68.77,-52.37],[-69.57,-52.09],[-70.34,-52.42],[-71.24,-52.53],[-71.36,-52.31],[-71.14,-52.13],[-71.72,-51.65],[-71.41,-51.07],[-71.98,-50.59],[-71.76,-50.41],[-71.88,-50.19],[-71.57,-49.62],[-72.12,-49.13],[-71.91,-48.95],[-72.02,-48.73],[-71.81,-48.55],[-71.92,-48.33],[-71.72,-48.16],[-71.83,-47.94],[-71.53,-47.37],[-72.06,-46.88],[-71.35,-46.58],[-70.64,-46.89],[-69.17,-46.5],[-68.93,-45.94],[-67.99,-45.67],[-67.58,-45.92],[-67.81,-46.48],[-67.69,-46.7],[-66.56,-47.22],[-66.4,-47.05],[-66.52,-46.84],[-67.23,-46.56],[-67.29,-45.96],[-66.84,-45.82],[-66.63,-45.27],[-66.18,-45.13],[-65.5,-45.41],[-65.34,-45.23],[-65.47,-45.03],[-64.88,-44.72],[-64.91,-43.39],[-63.15,-42.68],[-63.53,-42.45],[-63.63,-41.88],[-64.68,-42.11],[-64.74,-41.17],[-64.35,-41.05],[-63.61,-41.52],[-62.09,-41.0],[-61.94,-39.41],[-60.87,-39.04],[-60.29,-39.29],[-59.5,-38.88],[-57.42,-38.42],[-56.49,-36.65],[-56.29,-36.56],[-56.6,-36.1],[-57.27,-36.0],[-56.99,-35.26],[-57.54,-34.7],[-58.2,-34.6],[-58.24,-34.41],[-58.04,-34.32],[-58.31,-34.03],[-58.67,-34.41],[-59.14,-34.14],[-59.44,-34.83],[-58.92,-35.27],[-58.52,-35.16],[-58.02,-35.54],[-57.58,-35.54],[-57.55,-35.73],[-57.74,-35.82],[-58.17,-35.81],[-58.67,-35.5],[-59.07,-35.61],[-59.59,-35.16],[-62.31,-35.97],[-62.81,-35.69],[-63.24,-35.8],[-63.28,-35.61],[-63.51,-35.56],[-64.15,-35.81],[-64.66,-35.52],[-65.1,-35.62],[-65.96,-34.68],[-65.61,-33.99],[-64.53,-33.65],[-64.03,-32.59],[-64.07,-32.39],[-64.3,-32.34],[-64.17,-31.78],[-64.94,-31.2],[-65.47,-32.06],[-68.6,-32.68],[-68.84,-32.62],[-68.7,-32.05],[-69.15,-32.14],[-69.3,-32.7],[-69.06,-32.77],[-69.02,-32.97],[-69.6,-33.82],[-69.29,-34.29],[-70.06,-35.47],[-70.59,-35.14],[-70.62,-34.94],[-70.22,-34.46],[-70.53,-33.98],[-70.31,-33.84],[-70.16,-33.28],[-70.68,-32.94],[-71.83,-33.23],[-71.99,-33.79],[-72.4,-34.28],[-72.09,-34.76],[-72.5,-35.24],[-72.97,-35.31],[-72.66,-35.79],[-73.08,-36.26],[-72.99,-36.47],[-73.59,-36.71],[-73.51,-36.93],[-73.68,-37.08],[-74.12,-37.16],[-74.13,-37.75],[-73.78,-38.04],[-74.4,-38.28],[-73.61,-39.07],[-73.99,-39.98],[-73.9,-40.2],[-74.09,-40.36],[-74.0,-40.59],[-74.19,-40.74],[-74.1,-40.97],[-74.29,-41.13],[-73.83,-41.64],[-74.5,-41.9],[-74.51,-42.51],[-74.23,-42.57],[-74.13,-42.8],[-74.82,-43.06],[-74.84,-43.68],[-75.04,-43.84],[-74.56,-44.36],[-75.28,-44.63],[-75.19,-44.86],[-75.4,-45.02],[-74.91,-45.54],[-75.24,-46.1],[-75.14,-46.33],[-75.89,-46.61],[-75.39,-47.13],[-74.54,-47.07],[-74.44,-47.3],[-75.74,-47.7],[-75.77,-48.33],[-76.0,-48.5],[-75.48,-49.01],[-75.85,-49.59],[-75.31,-50.1],[-75.68,-50.68]],[[-66.78,-33.92],[-67.02,-33.86],[-67.05,-33.66],[-66.67,-33.16],[-66.43,-33.22],[-66.57,-33.77],[-66.78,-33.92]],[[-73.19,-49.38],[-73.19,-50.01],[-73.42,-50.18],[-73.75,-50.14],[-73.86,-49.91],[-73.63,-49.73],[-73.62,-49.11],[-73.41,-48.93],[-73.08,-48.98],[-72.98,-49.21],[-73.19,-49.38]],[[-57.2,-36.37],[-56.76,-36.37],[-56.72,-36.56],[-57.24,-37.18],[-57.52,-36.91],[-57.16,-36.55],[-57.2,-36.37]],[[-70.52,-53.22],[-70.39,-53.44],[-70.61,-53.62],[-70.96,-53.59],[-71.09,-53.37],[-70.87,-53.19],[-70.52,-53.22]],[[-68.81,-52.74],[-68.63,-52.92],[-68.84,-53.1],[-69.44,-53.29],[-69.82,-53.29],[-69.95,-53.07],[-68.81,-52.74]],[[-69.27,-53.47],[-68.88,-53.47],[-68.71,-53.66],[-69.31,-53.84],[-69.48,-53.66],[-69.27,-53.47]]],[[[35.79,31.26],[36.08,31.27],[36.21,31.5],[36.94,31.3],[37.08,31.52],[37.79,31.75],[37.91,32.4],[38.2,32.4],[38.34,32.62],[37.75,33.05],[37.88,33.27],[37.73,33.48],[36.99,33.69],[36.81,34.34],[36.51,34.33],[36.35,34.55],[35.62,34.31],[35.48,34.09],[35.64,33.88],[35.51,33.66],[35.21,33.65],[35.08,33.43],[35.24,33.21],[35.1,32.99],[34.81,32.98],[34.67,32.76],[34.83,32.54],[34.27,32.08],[34.44,31.87],[34.73,31.88],[34.92,31.23],[35.21,31.24],[35.34,31.47],[35.63,31.48],[35.79,31.26]]],[[[176.07,-36.83],[176.23,-36.19],[175.66,-35.76],[175.42,-35.91],[175.16,-35.81],[174.52,-34.88],[173.76,-34.82],[173.73,-34.58],[173.18,-34.12],[172.44,-34.3],[172.76,-34.9],[173.02,-35.01],[172.84,-35.65],[174.01,-36.79],[174.04,-37.04],[174.32,-37.14],[174.35,-37.38],[174.62,-37.48],[174.66,-37.72],[174.0,-38.66],[174.03,-38.9],[173.78,-39.05],[173.81,-39.3],[173.56,-39.45],[173.6,-39.69],[174.41,-39.73],[175.08,-40.65],[174.83,-40.8],[174.55,-40.71],[174.51,-40.47],[174.23,-40.37],[173.44,-40.58],[172.84,-40.14],[172.35,-40.68],[172.07,-40.58],[171.81,-40.72],[172.15,-41.31],[171.33,-41.51],[171.36,-41.75],[170.6,-42.68],[170.62,-42.93],[169.78,-43.11],[169.8,-43.36],[169.52,-43.5],[169.22,-43.4],[168.94,-43.54],[168.96,-43.78],[168.67,-43.92],[168.37,-43.82],[168.08,-43.96],[168.1,-44.2],[167.81,-44.34],[167.51,-44.24],[167.22,-44.37],[167.23,-44.62],[166.65,-45.14],[166.67,-45.38],[166.37,-45.52],[166.38,-45.77],[166.08,-45.9],[166.09,-46.15],[166.72,-46.61],[166.73,-46.85],[167.05,-46.95],[167.06,-47.2],[167.38,-47.3],[167.39,-47.54],[167.71,-47.65],[168.01,-47.51],[168.0,-47.27],[168.91,-47.09],[168.89,-46.85],[169.19,-46.71],[170.11,-46.76],[170.4,-46.62],[170.37,-46.38],[171.26,-46.18],[170.9,-45.6],[171.43,-45.07],[171.65,-44.44],[173.07,-44.18],[173.04,-43.94],[173.31,-43.79],[172.95,-43.22],[173.77,-43.01],[173.73,-42.77],[174.44,-41.83],[174.4,-41.59],[174.66,-41.44],[174.94,-41.53],[174.98,-41.77],[175.81,-41.8],[176.06,-41.64],[176.22,-41.01],[176.99,-40.79],[177.34,-39.76],[178.08,-39.54],[178.04,-39.3],[178.27,-39.14],[178.22,-38.9],[178.45,-38.75],[178.4,-38.51],[178.98,-37.57],[178.94,-37.33],[177.19,-37.44],[176.96,-37.59],[176.07,-36.83]]],[[[-101.07,29.66],[-100.8,29.55],[-100.56,29.69],[-100.02,29.21],[-99.28,29.38],[-98.74,28.9],[-98.01,29.06],[-97.48,28.57],[-97.24,28.71],[-96.5,28.6],[-96.04,29.12],[-95.79,29.0],[-95.06,29.14],[-94.84,29.77],[-95.09,29.9],[-95.1,30.15],[-94.86,30.28],[-94.87,30.52],[-95.61,30.64],[-95.62,30.89],[-95.88,31.01],[-96.62,30.87],[-96.88,30.99],[-96.66,31.62],[-96.92,31.74],[-96.94,31.99],[-96.22,32.88],[-96.24,33.12],[-96.78,33.61],[-97.02,33.48],[-97.29,33.6],[-97.77,33.09],[-98.03,33.21],[-98.28,33.08],[-98.49,32.44],[-99.25,32.29],[-99.46,31.65],[-100.21,31.49],[-100.41,30.85],[-101.67,30.65],[-101.07,29.66]]],[[[-12.46,62.95],[-12.16,62.81],[-11.73,62.89],[-11.6,63.1],[-12.34,63.17],[-12.46,62.95]]],[[[149.38,-24.41],[149.24,-23.77],[149.02,-23.62],[148.77,-23.71],[148.9,-24.36],[149.12,-24.51],[149.38,-24.41]]],[[[-4.7,33.32],[-4.66,33.56],[-4.89,33.71],[-5.15,33.61],[-5.47,33.02],[-5.25,32.87],[-4.51,32.93],[-4.47,33.17],[-4.7,33.32]]],[[[-6.08,58.91],[-5.69,58.97],[-5.65,59.18],[-6.38,59.26],[-6.43,59.06],[-6.08,58.91]]],[[[-98.05,18.26],[-98.03,18.01],[-98.25,17.86],[-100.31,17.82],[-100.53,17.68],[-100.51,17.43],[-100.27,17.32],[-99.14,17.54],[-98.65,17.08],[-97.99,17.26],[-97.75,17.15],[-97.49,16.55],[-97.26,16.44],[-97.05,16.58],[-96.58,16.12],[-95.92,16.29],[-96.17,16.89],[-95.95,17.03],[-95.96,17.28],[-97.17,18.82],[-96.76,19.85],[-97.92,19.91],[-98.44,20.88],[-99.62,20.93],[-99.9,21.55],[-100.41,22.02],[-100.22,22.67],[-100.47,22.78],[-100.49,23.04],[-99.31,23.25],[-99.12,23.9],[-99.64,24.38],[-99.44,25.03],[-99.97,25.51],[-99.77,26.16],[-100.3,26.64],[-100.54,26.5],[-100.79,26.61],[-101.24,26.07],[-101.42,25.41],[-102.14,25.23],[-102.12,24.97],[-101.86,24.86],[-101.84,24.61],[-102.07,24.46],[-101.77,23.84],[-102.0,23.69],[-102.25,23.8],[-102.68,23.25],[-103.41,23.31],[-103.44,23.57],[-103.7,23.67],[-104.41,23.48],[-104.38,23.22],[-104.12,23.12],[-104.09,22.86],[-104.32,22.71],[-104.01,22.09],[-104.71,21.89],[-104.68,21.64],[-104.9,21.49],[-104.59,20.87],[-104.81,20.72],[-105.06,20.82],[-105.29,20.67],[-105.26,20.42],[-104.17,19.25],[-102.55,19.53],[-102.04,19.07],[-100.89,19.3],[-99.87,18.11],[-99.45,18.65],[-99.21,18.55],[-98.99,18.69],[-98.75,18.58],[-98.53,18.73],[-98.05,18.26]]],[[[26.96,40.15],[27.81,40.0],[27.94,40.22],[26.69,40.77],[26.37,40.74],[26.24,40.52],[26.96,40.15]]],[[[-68.5,-51.79],[-68.63,-51.58],[-68.96,-51.55],[-69.16,-51.73],[-69.03,-51.94],[-68.7,-51.98],[-68.5,-51.79]]],[[[-17.8,63.33],[-17.71,63.56],[-17.27,63.65],[-16.48,63.6],[-15.84,64.14],[-14.59,64.16],[-13.9,64.68],[-12.85,65.05],[-12.72,65.27],[-13.06,65.42],[-12.93,65.64],[-14.11,65.86],[-13.98,66.08],[-14.34,66.22],[-14.22,66.45],[-14.59,66.59],[-16.35,66.72],[-17.45,66.32],[-18.74,66.51],[-19.81,66.09],[-21.61,66.16],[-22.42,66.65],[-22.92,66.55],[-22.96,66.31],[-23.45,66.21],[-23.49,65.97],[-22.58,65.95],[-22.15,65.82],[-22.21,65.59],[-24.48,65.51],[-24.51,65.28],[-23.69,64.8],[-23.73,64.57],[-22.46,64.43],[-22.51,64.2],[-22.95,64.09],[-23.0,63.86],[-21.33,63.82],[-20.63,63.34],[-17.8,63.33]],[[-16.64,64.19],[-17.81,64.37],[-17.72,64.6],[-18.09,64.73],[-18.93,64.77],[-18.85,65.0],[-19.24,65.14],[-19.16,65.36],[-17.83,65.41],[-17.45,65.28],[-17.54,65.05],[-17.17,64.91],[-15.52,64.81],[-15.63,64.58],[-16.64,64.19]],[[-20.1,65.17],[-19.71,65.04],[-19.78,64.81],[-20.63,64.84],[-20.57,65.07],[-20.1,65.17]]],[[[8.1,35.21],[8.32,35.04],[8.6,35.12],[8.68,35.36],[9.47,35.33],[9.55,35.57],[9.84,35.65],[9.78,36.3],[9.56,36.47],[10.02,37.02],[9.29,37.29],[8.25,36.59],[6.52,37.01],[6.23,36.94],[6.16,36.7],[5.38,36.7],[5.31,36.46],[5.03,36.37],[4.66,36.93],[4.04,36.53],[3.33,36.75],[2.72,36.34],[1.53,36.62],[1.26,36.54],[1.21,36.3],[1.58,35.76],[2.34,35.78],[3.04,35.55],[3.64,35.96],[4.84,35.65],[5.12,35.73],[5.83,35.49],[5.76,35.25],[5.98,35.09],[6.75,35.08],[7.46,34.82],[8.1,35.21]]],[[[144.18,-39.95],[144.24,-39.7],[144.0,-39.53],[143.69,-39.61],[143.81,-40.27],[144.06,-40.44],[144.37,-40.36],[144.43,-40.11],[144.18,-39.95]]],[[[-80.0,27.06],[-80.41,27.1],[-80.43,26.86],[-80.23,26.73],[-80.0,27.06]]],[[[1.24,38.73],[1.19,38.49],[1.41,38.35],[2.02,38.76],[1.91,39.38],[1.68,39.53],[1.4,39.44],[1.35,39.2],[1.07,39.11],[1.02,38.87],[1.24,38.73]]],[[[-17.17,32.7],[-16.91,32.58],[-16.65,32.71],[-16.65,32.96],[-16.92,33.09],[-17.18,32.96],[-17.17,32.7]]],[[[-91.54,14.61],[-90.91,14.77],[-90.91,15.01],[-91.55,15.09],[-91.34,15.71],[-91.55,15.82],[-91.97,15.31],[-91.97,15.07],[-91.54,14.61]]],[[[-51.6,-26.47],[-52.04,-26.51],[-51.76,-26.82],[-51.11,-26.66],[-51.15,-26.44],[-51.6,-26.47]]],[[[-57.18,-34.32],[-57.38,-34.42],[-57.34,-34.61],[-56.83,-34.98],[-56.63,-34.89],[-56.12,-35.26],[-55.75,-34.88],[-56.03,-34.6],[-56.67,-34.7],[-57.18,-34.32]]],[[[144.93,-40.45],[144.24,-40.86],[144.18,-41.1],[144.62,-41.69],[144.56,-41.93],[144.81,-42.1],[144.75,-42.35],[145.01,-42.51],[144.95,-42.76],[145.21,-42.92],[145.15,-43.17],[146.0,-43.42],[145.94,-43.66],[146.2,-43.83],[146.53,-43.75],[146.8,-43.91],[147.51,-43.49],[147.78,-43.65],[148.1,-43.57],[148.16,-43.32],[148.48,-43.23],[148.53,-42.98],[148.26,-42.82],[148.31,-42.58],[148.63,-42.49],[148.68,-42.24],[148.42,-42.08],[148.83,-41.49],[148.35,-40.92],[148.77,-40.33],[148.5,-40.17],[148.34,-39.5],[148.09,-39.34],[147.42,-39.77],[147.57,-40.43],[147.83,-40.6],[147.78,-40.85],[147.46,-40.94],[144.93,-40.45]]],[[[-175.83,-43.94],[-176.5,-43.53],[-177.27,-43.72],[-176.84,-44.27],[-176.17,-44.68],[-175.93,-44.54],[-175.83,-43.94]]],[[[-8.54,57.67],[-8.09,58.16],[-8.44,58.3],[-9.24,57.95],[-9.27,57.73],[-8.54,57.67]]],[[[25.39,34.97],[25.7,35.0],[25.82,35.24],[25.63,35.44],[25.32,35.41],[25.2,35.17],[25.39,34.97]]],[[[-66.75,-48.77],[-65.63,-48.3],[-65.76,-48.09],[-65.59,-47.91],[-65.65,-46.94],[-66.1,-47.08],[-66.06,-48.06],[-66.23,-48.24],[-67.19,-48.53],[-67.06,-48.74],[-66.75,-48.77]]],[[[-7.66,30.94],[-7.64,31.19],[-7.87,31.33],[-8.12,31.22],[-8.15,30.97],[-7.92,30.83],[-7.66,30.94]]],[[[-69.26,-50.51],[-69.54,-51.08],[-69.42,-51.3],[-69.09,-51.33],[-68.88,-51.15],[-68.94,-50.54],[-67.72,-50.07],[-67.85,-49.85],[-68.17,-49.82],[-68.87,-50.15],[-69.19,-50.11],[-69.39,-50.29],[-69.26,-50.51]]],[[[-72.32,6.91],[-72.51,6.78],[-72.49,6.55],[-72.27,6.45],[-72.07,6.57],[-72.32,6.91]]],[[[-6.14,31.58],[-5.91,31.44],[-5.66,31.55],[-5.34,32.14],[-4.61,32.2],[-4.58,32.44],[-5.28,32.63],[-5.82,32.18],[-6.05,32.32],[-6.31,32.22],[-6.62,31.62],[-6.87,31.51],[-7.1,31.65],[-7.36,31.55],[-7.38,31.3],[-6.67,31.13],[-6.14,31.58]]],[[[168.06,-29.25],[168.3,-29.12],[168.29,-28.87],[168.04,-28.75],[167.8,-28.88],[167.81,-29.13],[168.06,-29.25]]],[[[-4.4,33.66],[-4.18,33.52],[-3.92,33.61],[-3.88,33.86],[-4.11,34.0],[-4.37,33.91],[-4.4,33.66]]],[[[-70.69,8.7],[-70.93,9.03],[-71.12,8.91],[-71.09,8.69],[-70.69,8.7]]],[[[32.67,35.3],[32.36,35.29],[32.23,35.06],[32.44,34.41],[32.74,34.43],[34.19,35.36],[34.02,35.57],[33.28,35.33],[33.11,35.54],[32.8,35.52],[32.67,35.3]]],[[[-97.55,25.65],[-97.3,25.53],[-97.07,25.67],[-97.35,26.29],[-97.11,26.43],[-97.13,26.68],[-97.38,26.8],[-97.39,27.05],[-97.16,27.19],[-97.17,27.44],[-97.69,27.93],[-97.93,27.79],[-97.64,27.17],[-98.1,26.64],[-97.55,25.65]]],[[[4.12,39.85],[4.41,39.93],[4.47,40.17],[3.73,40.38],[3.44,40.3],[3.38,40.06],[2.58,40.03],[2.19,39.47],[2.58,38.94],[2.86,39.03],[3.08,38.88],[4.06,39.61],[4.12,39.85]]],[[[-116.11,31.37],[-116.5,31.94],[-116.78,32.01],[-117.0,31.85],[-116.61,31.28],[-116.33,31.2],[-116.11,31.37]]],[[[-5.99,62.6],[-6.79,62.68],[-6.84,62.49],[-7.72,62.17],[-7.76,61.97],[-7.39,61.84],[-7.43,61.64],[-7.06,61.5],[-7.1,61.3],[-6.33,61.22],[-6.28,61.42],[-6.65,61.56],[-6.6,61.76],[-5.72,62.07],[-5.67,62.26],[-6.04,62.4],[-5.99,62.6]]],[[[-50.62,-28.04],[-50.04,-28.65],[-49.39,-28.49],[-49.43,-28.27],[-49.23,-28.15],[-49.52,-27.84],[-50.62,-28.04]]],[[[166.28,-50.94],[166.6,-50.8],[166.59,-50.57],[166.26,-50.47],[165.62,-50.97],[165.63,-51.2],[165.96,-51.3],[166.29,-51.17],[166.28,-50.94]]],[[[-177.84,-29.46],[-177.64,-29.3],[-177.69,-29.06],[-177.95,-28.98],[-178.15,-29.15],[-178.1,-29.39],[-177.84,-29.46]]],[[[-103.41,18.68],[-103.16,18.58],[-102.94,18.73],[-102.97,18.98],[-103.21,19.09],[-103.43,18.94],[-103.41,18.68]]],[[[-73.55,10.51],[-73.36,10.63],[-73.6,10.95],[-73.79,10.83],[-73.77,10.61],[-73.55,10.51]]],[[[26.58,39.47],[26.9,39.5],[27.03,39.72],[26.83,39.92],[25.98,40.07],[25.86,39.84],[26.58,39.47]]],[[[32.72,36.39],[32.59,36.17],[32.76,35.96],[33.07,35.97],[33.2,36.19],[33.03,36.4],[32.72,36.39]]],[[[-13.37,57.69],[-13.35,57.91],[-13.72,58.04],[-14.1,57.95],[-14.11,57.73],[-13.37,57.69]]],[[[158.94,-31.7],[159.19,-31.84],[159.46,-31.72],[159.47,-31.47],[159.22,-31.33],[158.95,-31.45],[158.94,-31.7]]],[[[11.42,67.5],[11.56,67.33],[12.46,67.37],[12.33,67.54],[11.81,67.61],[11.42,67.5]]],[[[-78.85,-33.37],[-79.08,-33.5],[-79.05,-33.71],[-78.8,-33.8],[-78.57,-33.67],[-78.59,-33.45],[-78.85,-33.37]]],[[[-54.43,-34.86],[-54.47,-34.67],[-54.91,-34.68],[-54.63,-34.96],[-54.43,-34.86]]],[[[30.68,36.51],[31.26,36.97],[31.08,37.18],[30.32,36.92],[30.14,37.13],[29.82,37.11],[29.69,36.88],[29.87,36.68],[30.68,36.51]]],[[[29.43,36.43],[29.3,36.2],[29.49,35.99],[29.8,36.01],[29.93,36.24],[29.74,36.45],[29.43,36.43]]],[[[27.28,41.24],[27.15,41.02],[27.35,40.82],[27.68,40.85],[27.81,41.07],[27.62,41.27],[27.28,41.24]]],[[[22.0,37.67],[21.89,37.43],[22.09,37.24],[22.41,37.28],[22.44,37.94],[22.23,38.14],[21.91,38.1],[21.8,37.86],[22.0,37.67]]],[[[21.46,62.88],[22.01,63.39],[21.31,63.45],[21.23,63.23],[20.85,63.15],[20.78,62.94],[21.08,62.81],[21.46,62.88]]],[[[14.25,35.73],[14.56,35.79],[14.65,36.03],[14.44,36.21],[14.13,36.15],[14.04,35.91],[14.25,35.73]]],[[[-100.79,18.04],[-101.03,18.14],[-101.24,18.0],[-101.22,17.74],[-100.98,17.64],[-100.77,17.79],[-100.79,18.04]]],[[[166.49,-48.43],[166.8,-48.3],[166.79,-48.06],[166.47,-47.95],[166.16,-48.09],[166.17,-48.33],[166.49,-48.43]]],[[[178.29,-49.96],[178.61,-50.03],[178.88,-49.87],[178.82,-49.65],[178.23,-49.74],[178.29,-49.96]]],[[[-67.55,-48.89],[-67.73,-49.07],[-67.6,-49.28],[-67.11,-49.13],[-67.24,-48.92],[-67.55,-48.89]]],[[[-71.99,44.01],[-71.76,43.83],[-71.43,43.88],[-71.31,44.1],[-71.53,44.28],[-71.87,44.24],[-71.99,44.01]]],[[[-50.87,-26.75],[-50.58,-27.06],[-50.38,-26.93],[-50.42,-26.71],[-50.87,-26.75]]],[[[24.27,35.07],[24.38,35.3],[24.19,35.5],[23.88,35.47],[23.76,35.23],[23.96,35.03],[24.27,35.07]]],[[[-92.2,16.39],[-91.99,16.52],[-91.99,16.77],[-92.21,16.88],[-92.42,16.74],[-92.42,16.5],[-92.2,16.39]]]]}}]}