{"type":"FeatureCollection","features":[{"type":"Feature","properties":{},"geometry":{"type":"MultiPolygon","coordinates":[[[[114.19,41.38],[114.08,41.18],[114.63,40.89],[115.26,41.17],[115.42,40.64],[115.79,40.88],[115.65,41.05],[115.76,41.25],[116.41,41.15],[116.51,41.72],[118.39,42.86],[117.87,43.17],[117.23,42.91],[116.84,43.05],[116.7,43.22],[116.82,43.42],[117.48,43.31],[117.99,43.73],[117.86,43.9],[117.98,44.1],[118.8,44.49],[118.37,44.69],[117.46,44.04],[116.79,44.16],[116.68,43.59],[116.01,43.69],[115.62,43.46],[115.55,42.51],[114.88,42.61],[114.12,42.12],[113.29,42.37],[112.8,41.91],[112.1,41.99],[111.62,41.52],[110.92,41.59],[110.44,41.12],[111.04,40.84],[111.68,41.15],[112.93,40.8],[114.16,41.75],[114.57,41.63],[114.19,41.38]],[[116.87,42.31],[116.49,42.08],[116.35,42.25],[116.47,42.45],[116.87,42.31]]],[[[3.44,40.3],[3.38,40.06],[3.09,39.97],[2.87,40.12],[2.24,39.71],[2.35,39.09],[3.08,38.88],[3.71,39.29],[3.77,39.52],[4.57,39.54],[4.47,40.17],[4.25,40.32],[3.44,40.3]]],[[[17.64,21.24],[17.02,20.9],[16.94,20.67],[17.12,20.48],[17.74,20.81],[17.82,21.05],[17.64,21.24]]],[[[18.89,74.3],[20.31,74.3],[20.22,74.51],[19.45,74.61],[19.35,74.82],[18.55,74.92],[17.87,74.81],[18.0,74.6],[18.78,74.5],[18.89,74.3]]],[[[145.21,-42.92],[145.15,-43.17],[146.0,-43.42],[145.94,-43.66],[146.2,-43.83],[147.13,-43.83],[147.4,-43.99],[148.48,-43.23],[148.53,-42.98],[148.26,-42.82],[148.31,-42.58],[148.63,-42.49],[148.68,-42.24],[148.42,-42.08],[148.83,-41.49],[148.35,-40.92],[148.77,-40.33],[148.5,-40.17],[148.34,-39.5],[147.52,-39.27],[147.37,-38.6],[147.68,-38.51],[148.08,-37.92],[149.49,-37.96],[149.75,-38.12],[150.4,-37.67],[150.44,-37.41],[150.18,-37.26],[150.22,-37.0],[150.52,-36.91],[150.35,-36.24],[151.31,-35.43],[151.35,-35.17],[151.1,-35.02],[151.13,-34.76],[151.75,-34.31],[151.57,-33.64],[151.85,-33.54],[151.89,-33.28],[152.17,-33.18],[152.21,-32.92],[152.49,-32.82],[152.52,-32.56],[153.42,-31.74],[153.45,-31.48],[153.21,-31.33],[153.24,-31.08],[153.51,-30.97],[153.33,-30.31],[153.9,-29.84],[153.93,-29.59],[153.69,-29.44],[153.71,-29.18],[153.98,-29.08],[154.01,-28.82],[153.77,-28.68],[154.09,-28.06],[153.65,-27.51],[153.97,-26.9],[153.24,-26.71],[153.27,-26.46],[153.53,-26.36],[153.56,-26.1],[153.33,-25.96],[153.36,-25.71],[153.61,-25.6],[153.64,-25.35],[153.41,-25.21],[153.72,-24.6],[153.02,-24.41],[152.66,-23.38],[152.43,-23.23],[152.18,-23.33],[151.77,-22.79],[151.52,-22.89],[151.49,-23.14],[151.24,-23.24],[151.02,-23.09],[151.34,-22.5],[151.12,-22.35],[150.97,-21.72],[150.75,-21.57],[150.51,-21.67],[150.29,-21.52],[150.33,-21.28],[149.65,-21.08],[149.69,-20.84],[149.14,-19.93],[148.89,-20.02],[148.23,-19.82],[147.99,-19.91],[147.95,-20.15],[148.61,-20.35],[148.91,-21.37],[149.58,-21.57],[149.25,-22.15],[149.64,-22.69],[149.9,-22.6],[150.11,-22.74],[150.62,-24.18],[150.07,-24.62],[149.85,-24.47],[147.7,-24.34],[147.15,-23.39],[146.89,-23.48],[146.85,-23.72],[146.12,-23.75],[145.77,-24.33],[145.98,-24.48],[145.93,-24.73],[145.37,-25.15],[145.32,-25.4],[145.69,-25.96],[145.33,-26.54],[145.54,-26.7],[145.49,-26.95],[145.23,-27.04],[145.17,-27.29],[145.56,-27.85],[145.51,-28.1],[144.59,-28.86],[144.7,-29.53],[143.43,-30.61],[143.38,-30.86],[143.1,-30.95],[143.04,-31.19],[142.76,-31.28],[142.54,-31.11],[141.92,-31.52],[141.71,-31.35],[141.43,-31.43],[141.02,-32.0],[140.74,-32.08],[140.04,-31.81],[139.76,-31.88],[139.69,-32.13],[139.41,-32.2],[139.2,-32.03],[139.27,-31.79],[138.93,-31.2],[139.68,-30.32],[139.0,-30.05],[138.39,-30.44],[138.32,-30.68],[138.65,-31.27],[138.58,-31.51],[137.25,-32.52],[135.63,-32.02],[134.64,-32.68],[134.45,-32.5],[134.18,-32.56],[133.88,-31.97],[133.61,-32.03],[132.96,-31.74],[132.34,-32.08],[132.06,-31.5],[131.79,-31.55],[131.17,-31.25],[130.56,-31.59],[129.95,-31.28],[129.69,-31.34],[129.6,-31.56],[128.9,-31.48],[128.46,-31.99],[128.2,-32.03],[128.03,-31.85],[127.78,-31.9],[127.68,-32.12],[127.42,-32.17],[127.26,-31.99],[126.65,-32.3],[126.08,-31.98],[125.37,-32.5],[125.12,-32.54],[124.56,-32.22],[123.96,-32.51],[123.76,-31.93],[123.12,-31.82],[122.21,-31.35],[121.63,-31.63],[121.46,-31.07],[120.71,-30.77],[120.04,-31.25],[119.32,-30.96],[118.42,-31.45],[117.6,-30.97],[117.24,-31.15],[116.61,-30.92],[116.21,-31.05],[115.48,-30.65],[115.37,-30.47],[115.51,-30.32],[115.04,-29.94],[115.25,-29.16],[114.89,-28.96],[114.82,-28.47],[114.23,-28.25],[114.09,-28.39],[114.54,-28.76],[114.4,-28.9],[114.51,-29.07],[114.86,-29.27],[114.6,-30.39],[115.08,-30.77],[114.93,-30.92],[115.04,-31.1],[115.41,-31.31],[115.16,-32.47],[115.65,-32.87],[115.47,-33.37],[114.78,-33.47],[114.58,-33.98],[115.76,-34.63],[115.85,-35.18],[116.25,-35.39],[117.12,-35.11],[117.81,-35.34],[119.08,-34.89],[119.91,-34.59],[120.01,-34.38],[119.88,-34.2],[120.23,-33.97],[120.75,-34.31],[121.35,-34.04],[121.74,-34.2],[121.92,-34.78],[122.89,-34.27],[123.44,-34.6],[123.34,-34.82],[123.49,-35.0],[124.32,-35.31],[124.73,-35.46],[125.36,-35.17],[125.52,-35.36],[125.79,-35.32],[125.89,-35.1],[125.73,-34.92],[125.46,-34.95],[125.3,-34.77],[124.68,-35.06],[123.7,-34.57],[124.42,-34.07],[124.41,-33.05],[125.07,-33.16],[125.88,-32.42],[126.55,-32.52],[126.71,-32.7],[127.33,-32.39],[127.49,-32.57],[127.75,-32.53],[127.85,-32.3],[128.11,-32.26],[128.27,-32.44],[128.54,-32.39],[128.98,-31.89],[129.68,-31.97],[129.77,-31.74],[130.03,-31.69],[130.64,-32.0],[131.26,-31.66],[131.89,-31.96],[131.8,-32.19],[131.99,-32.37],[132.25,-32.32],[132.44,-32.5],[133.06,-32.15],[133.25,-32.33],[133.17,-32.56],[132.9,-32.62],[132.81,-32.85],[133.0,-33.03],[133.63,-32.68],[133.93,-33.27],[134.21,-33.22],[134.4,-33.39],[133.96,-33.93],[134.15,-34.1],[134.07,-34.34],[133.79,-34.4],[133.12,-34.1],[132.85,-34.15],[132.76,-34.39],[132.48,-34.44],[132.29,-34.26],[131.65,-34.6],[131.01,-34.28],[130.37,-34.61],[130.19,-34.43],[129.91,-34.48],[129.82,-34.71],[129.1,-34.62],[129.09,-35.25],[128.37,-35.16],[128.27,-35.38],[128.45,-35.57],[129.17,-35.67],[129.43,-36.26],[129.71,-36.22],[129.89,-36.4],[130.55,-36.08],[130.73,-36.27],[133.89,-37.01],[134.09,-37.19],[134.38,-37.14],[134.59,-37.32],[134.88,-37.26],[135.09,-37.44],[135.76,-37.09],[138.53,-37.85],[140.94,-38.21],[141.33,-38.8],[143.27,-39.02],[143.51,-39.19],[144.19,-38.78],[144.98,-39.04],[145.84,-39.04],[146.29,-39.62],[147.16,-39.61],[147.62,-40.18],[147.57,-40.43],[146.89,-40.86],[146.63,-40.7],[145.75,-40.7],[145.3,-40.12],[144.43,-40.11],[144.0,-39.53],[143.69,-39.61],[143.81,-40.27],[144.62,-40.53],[144.18,-41.1],[144.62,-41.69],[144.56,-41.93],[144.81,-42.1],[144.75,-42.35],[145.01,-42.51],[144.95,-42.76],[145.21,-42.92]],[[152.57,-24.12],[152.54,-24.37],[152.28,-24.47],[152.06,-24.32],[152.09,-24.08],[152.34,-23.97],[152.57,-24.12]],[[136.8,-33.97],[137.08,-33.9],[137.29,-34.08],[137.21,-34.32],[136.93,-34.39],[136.72,-34.21],[136.8,-33.97]],[[134.43,-34.05],[134.51,-33.81],[134.79,-33.75],[134.99,-33.93],[134.91,-34.17],[134.63,-34.22],[134.43,-34.05]]],[[[88.58,75.6],[87.71,75.5],[87.65,75.25],[88.44,75.11],[89.3,75.21],[89.39,75.46],[88.58,75.6]]],[[[-78.86,26.27],[-78.62,26.59],[-78.02,26.65],[-78.0,26.88],[-78.79,26.96],[-79.02,26.63],[-78.86,26.27]]],[[[172.79,-42.0],[171.97,-42.2],[172.0,-42.44],[171.73,-42.59],[171.44,-42.49],[171.65,-41.85],[172.47,-41.66],[172.44,-41.41],[171.6,-41.36],[170.85,-42.29],[170.87,-42.54],[170.6,-42.68],[170.62,-42.93],[169.78,-43.11],[169.8,-43.36],[169.52,-43.5],[169.22,-43.4],[168.94,-43.54],[168.96,-43.78],[168.67,-43.92],[168.37,-43.82],[168.08,-43.96],[167.83,-44.59],[168.13,-44.7],[168.69,-44.17],[168.99,-44.27],[169.34,-44.87],[169.05,-45.01],[169.07,-45.25],[169.97,-45.31],[169.99,-45.55],[168.51,-45.78],[167.59,-45.71],[167.01,-46.23],[166.7,-46.12],[166.69,-45.87],[166.99,-45.74],[166.97,-45.49],[167.55,-44.97],[167.54,-44.73],[167.23,-44.62],[166.65,-45.14],[166.67,-45.38],[166.37,-45.52],[166.38,-45.77],[166.08,-45.9],[166.09,-46.15],[166.4,-46.25],[166.41,-46.5],[167.34,-46.58],[167.06,-47.2],[167.71,-47.65],[168.01,-47.51],[168.0,-47.27],[168.58,-46.75],[169.5,-46.8],[170.4,-46.62],[170.37,-46.38],[170.66,-46.23],[170.64,-45.99],[170.92,-45.85],[170.9,-45.6],[171.18,-45.46],[171.15,-45.22],[171.68,-44.68],[171.65,-44.44],[171.93,-44.29],[172.23,-44.39],[172.5,-44.24],[172.47,-44.0],[173.31,-43.79],[172.95,-43.22],[173.77,-43.01],[173.73,-42.77],[174.44,-41.83],[174.4,-41.59],[174.66,-41.44],[174.94,-41.53],[174.98,-41.77],[175.81,-41.8],[176.06,-41.64],[176.22,-41.01],[176.99,-40.79],[177.34,-39.76],[177.06,-39.67],[176.82,-39.83],[176.66,-40.46],[175.9,-40.68],[175.94,-40.92],[175.69,-41.07],[175.4,-40.98],[175.57,-40.35],[175.29,-40.26],[175.25,-40.01],[174.97,-39.92],[174.94,-39.68],[174.03,-38.9],[173.56,-39.45],[173.6,-39.69],[174.41,-39.73],[175.08,-40.65],[174.3,-40.86],[173.69,-40.43],[173.44,-40.58],[173.15,-40.48],[173.12,-40.23],[172.84,-40.14],[172.35,-40.68],[172.07,-40.58],[171.81,-40.72],[171.83,-40.97],[172.12,-41.07],[172.38,-40.92],[172.99,-41.36],[172.79,-42.0]],[[170.42,-43.8],[170.12,-43.7],[170.1,-43.46],[170.37,-43.32],[170.67,-43.42],[170.7,-43.66],[170.42,-43.8]],[[173.54,-41.31],[173.79,-41.16],[174.08,-41.25],[174.11,-41.5],[173.63,-42.04],[173.34,-41.95],[173.54,-41.31]]],[[[38.36,16.54],[38.73,16.77],[38.6,16.97],[38.35,16.95],[38.23,16.74],[38.36,16.54]]],[[[-71.12,8.91],[-71.09,8.69],[-70.69,8.7],[-70.93,9.03],[-71.12,8.91]]],[[[131.31,-26.36],[131.9,-26.63],[132.15,-26.57],[132.48,-26.28],[132.56,-26.05],[132.39,-25.88],[131.81,-26.24],[130.0,-25.63],[129.34,-26.2],[129.91,-26.48],[130.49,-26.14],[131.06,-26.42],[131.31,-26.36]]],[[[-83.76,79.42],[-83.55,79.65],[-84.61,79.79],[-85.87,79.7],[-86.04,79.47],[-84.99,79.34],[-85.17,79.11],[-84.16,78.97],[-82.97,79.05],[-82.74,79.28],[-83.76,79.42]]],[[[-45.37,59.71],[-44.91,59.65],[-44.58,59.84],[-43.54,59.49],[-43.21,59.67],[-43.33,59.91],[-42.99,60.08],[-43.12,60.32],[-41.96,60.61],[-42.67,61.15],[-41.49,61.43],[-41.6,61.67],[-42.08,61.73],[-42.2,61.97],[-41.83,62.15],[-41.95,62.38],[-41.58,62.56],[-41.7,62.8],[-40.45,63.07],[-40.56,63.31],[-40.17,63.47],[-40.28,63.71],[-39.89,63.88],[-39.99,64.12],[-39.59,64.28],[-39.7,64.52],[-40.22,64.6],[-40.34,64.84],[-38.98,65.09],[-39.09,65.33],[-38.66,65.49],[-36.22,65.55],[-35.78,65.7],[-35.86,65.94],[-35.41,66.09],[-34.89,66.0],[-34.43,66.15],[-34.5,66.39],[-34.04,66.53],[-34.1,66.77],[-32.63,66.96],[-32.68,67.2],[-31.74,67.71],[-31.78,67.95],[-31.28,68.09],[-29.71,68.0],[-29.2,68.13],[-29.21,68.37],[-30.8,68.46],[-32.37,68.3],[-32.33,68.06],[-32.83,67.92],[-32.77,67.68],[-33.26,67.54],[-33.21,67.3],[-34.7,67.11],[-34.63,66.87],[-35.1,66.72],[-35.03,66.48],[-35.48,66.33],[-36.02,66.43],[-36.47,66.27],[-36.38,66.03],[-36.83,65.88],[-39.3,65.81],[-39.73,65.65],[-39.62,65.41],[-40.99,65.15],[-40.86,64.91],[-41.27,64.75],[-41.15,64.51],[-41.55,64.34],[-41.42,64.1],[-40.91,64.03],[-40.79,63.79],[-42.07,63.51],[-41.95,63.27],[-42.33,63.1],[-42.2,62.86],[-42.57,62.69],[-42.45,62.45],[-42.81,62.27],[-42.68,62.04],[-43.04,61.86],[-42.92,61.62],[-43.27,61.45],[-43.14,61.21],[-43.49,61.03],[-43.36,60.79],[-44.52,60.49],[-45.61,60.83],[-45.75,61.07],[-47.06,60.98],[-47.88,61.5],[-49.06,61.82],[-49.24,62.05],[-48.91,62.24],[-49.8,62.75],[-49.47,62.95],[-49.66,63.18],[-50.94,63.49],[-51.15,63.73],[-50.8,63.92],[-51.01,64.16],[-50.67,64.35],[-50.88,64.59],[-52.24,64.89],[-52.59,64.69],[-52.36,64.46],[-52.7,64.25],[-52.47,64.02],[-51.91,63.99],[-51.7,63.76],[-52.03,63.56],[-51.82,63.33],[-51.27,63.29],[-51.07,63.06],[-51.4,62.86],[-50.47,62.36],[-50.79,62.16],[-50.6,61.93],[-49.39,61.62],[-49.21,61.39],[-49.53,61.19],[-49.35,60.96],[-48.86,60.92],[-48.04,60.41],[-46.75,60.51],[-46.6,60.28],[-45.51,59.94],[-45.37,59.71]]],[[[38.87,9.96],[38.52,10.12],[37.83,9.66],[37.84,9.28],[37.38,8.84],[37.92,8.52],[37.91,7.93],[37.59,7.7],[37.82,7.14],[38.05,7.17],[37.98,7.55],[38.61,8.01],[38.62,8.59],[39.92,9.49],[39.9,11.81],[39.42,12.17],[39.89,12.6],[39.75,14.39],[39.87,14.6],[39.38,14.97],[39.13,14.95],[39.0,15.56],[38.75,15.54],[38.65,14.91],[39.14,14.55],[38.66,14.1],[39.15,13.74],[39.04,13.53],[39.17,12.94],[38.81,12.71],[38.71,12.1],[38.47,12.08],[37.98,12.43],[38.81,13.11],[38.67,13.7],[37.36,12.98],[37.26,12.37],[37.63,12.2],[37.77,11.62],[37.41,11.39],[37.05,11.55],[36.59,11.11],[36.73,10.53],[37.32,10.78],[37.33,10.39],[37.81,10.05],[38.51,10.51],[39.1,10.37],[39.22,10.19],[38.87,9.96]],[[38.5,10.9],[38.49,11.29],[38.73,11.31],[38.85,11.13],[38.5,10.9]]],[[[37.15,-47.02],[37.65,-47.09],[38.16,-46.7],[37.66,-46.62],[37.15,-47.02]]],[[[114.36,-26.25],[114.47,-25.71],[114.17,-25.58],[114.08,-25.07],[113.88,-25.1],[113.74,-25.58],[113.38,-25.68],[113.34,-25.98],[112.96,-26.08],[113.39,-26.44],[113.34,-26.74],[113.58,-26.77],[114.33,-26.55],[114.36,-26.25]],[[113.7,-25.87],[113.84,-25.74],[114.17,-25.93],[113.8,-26.03],[113.7,-25.87]]],[[[-169.78,57.36],[-170.75,57.64],[-171.2,57.09],[-171.07,56.89],[-170.66,56.85],[-169.66,57.16],[-169.78,57.36]]],[[[-151.63,-80.39],[-149.21,-80.34],[-149.32,-80.11],[-150.54,-80.02],[-151.68,-80.16],[-151.63,-80.39]]],[[[172.4,52.49],[174.07,52.18],[174.8,52.63],[172.62,53.32],[172.22,53.29],[172.06,53.08],[172.31,52.89],[172.15,52.68],[172.4,52.49]]],[[[-83.1,80.11],[-82.86,80.33],[-81.5,80.41],[-81.22,80.64],[-82.35,80.78],[-90.15,80.89],[-90.06,81.12],[-88.66,81.22],[-88.52,81.45],[-89.8,81.57],[-89.64,81.8],[-88.11,81.91],[-87.88,82.14],[-90.86,82.15],[-90.99,81.92],[-93.99,81.45],[-94.03,81.22],[-91.49,80.78],[-91.54,80.55],[-89.02,80.54],[-87.82,80.42],[-87.96,80.19],[-86.82,80.06],[-83.1,80.11]]],[[[35.45,-2.51],[35.69,-2.47],[35.78,-2.24],[35.62,-2.05],[35.71,-1.82],[35.96,-1.79],[35.97,-1.14],[36.62,-1.26],[36.85,-1.88],[37.1,-1.84],[37.18,-1.61],[36.88,-0.58],[36.96,-0.36],[37.61,-0.48],[37.62,0.16],[36.66,0.66],[35.76,0.11],[35.39,1.55],[34.82,1.26],[34.42,1.42],[34.33,1.19],[34.49,1.0],[35.29,0.69],[34.87,0.21],[35.43,-0.14],[35.34,-0.37],[34.76,-0.66],[34.67,-0.89],[35.24,-1.24],[35.29,-2.31],[35.45,-2.51]]],[[[173.02,-35.01],[173.65,-35.95],[174.22,-36.4],[174.04,-37.04],[174.62,-37.48],[174.45,-38.12],[174.73,-38.21],[174.97,-38.06],[174.93,-37.82],[175.68,-37.62],[175.95,-37.71],[175.99,-37.95],[176.26,-38.04],[176.5,-37.89],[177.08,-38.31],[177.31,-38.16],[177.59,-38.25],[178.0,-37.7],[178.27,-37.79],[178.31,-38.03],[177.9,-38.58],[177.95,-38.82],[177.21,-39.04],[176.93,-38.95],[176.7,-39.1],[176.74,-39.34],[177.53,-39.36],[178.27,-39.14],[178.22,-38.9],[178.81,-37.96],[178.45,-37.4],[177.69,-37.38],[177.27,-37.92],[176.69,-37.5],[176.46,-37.65],[176.19,-37.56],[176.34,-36.92],[175.76,-36.49],[175.42,-35.91],[174.66,-35.86],[174.82,-35.22],[174.06,-35.17],[174.03,-34.92],[173.76,-34.82],[173.53,-34.97],[172.97,-34.51],[172.73,-34.66],[172.76,-34.9],[173.02,-35.01]]],[[[73.56,17.31],[73.17,18.0],[72.77,17.98],[73.16,17.06],[73.56,17.08],[73.56,17.31]]],[[[36.64,7.01],[36.73,7.21],[36.34,7.37],[36.41,6.98],[36.64,7.01]]],[[[-23.89,66.33],[-24.89,65.87],[-24.92,65.64],[-24.08,65.16],[-24.11,64.92],[-24.57,64.81],[-24.6,64.58],[-22.46,64.43],[-22.51,64.2],[-22.95,64.09],[-23.0,63.86],[-21.33,63.82],[-20.63,63.34],[-19.39,63.41],[-18.23,63.24],[-17.8,63.33],[-17.71,63.56],[-16.48,63.6],[-15.84,64.14],[-14.59,64.16],[-14.48,64.38],[-12.85,65.05],[-12.72,65.27],[-13.06,65.42],[-12.93,65.64],[-13.27,65.78],[-14.11,65.86],[-13.98,66.08],[-14.34,66.22],[-14.22,66.45],[-14.59,66.59],[-16.35,66.72],[-17.45,66.32],[-18.74,66.51],[-19.81,66.09],[-21.61,66.16],[-22.42,66.65],[-23.36,66.67],[-23.85,66.57],[-23.89,66.33]],[[-22.21,65.59],[-24.01,65.63],[-23.97,65.86],[-23.49,65.97],[-22.58,65.95],[-22.15,65.82],[-22.21,65.59]],[[-20.03,65.4],[-19.0,65.82],[-16.88,65.59],[-15.81,65.98],[-15.44,65.84],[-15.55,65.62],[-15.19,65.48],[-15.3,65.25],[-14.13,65.05],[-14.82,64.52],[-16.08,64.5],[-16.73,63.96],[-18.35,64.05],[-19.31,63.63],[-19.99,64.12],[-19.92,64.35],[-21.15,64.51],[-21.09,64.74],[-20.1,65.17],[-20.03,65.4]]],[[[70.64,-49.29],[70.99,-49.21],[71.07,-48.98],[70.81,-48.84],[69.89,-48.85],[69.06,-48.62],[68.29,-48.99],[68.19,-49.22],[68.58,-49.75],[68.49,-49.98],[68.74,-50.13],[69.53,-49.76],[70.13,-49.83],[70.64,-49.29]],[[68.78,-49.3],[68.87,-49.07],[69.21,-49.0],[69.46,-49.15],[69.37,-49.38],[68.78,-49.3]]],[[[22.43,80.1],[25.95,80.2],[27.12,80.07],[28.32,80.16],[28.37,80.39],[27.17,80.53],[23.51,80.44],[20.8,80.9],[19.62,80.78],[19.78,80.55],[16.25,80.39],[16.49,80.17],[15.46,80.04],[14.17,80.12],[10.94,79.92],[11.28,79.7],[13.48,79.76],[14.72,79.68],[14.97,79.46],[18.32,79.4],[18.49,79.18],[19.63,79.08],[19.76,78.86],[18.81,78.74],[18.96,78.51],[18.05,78.39],[18.21,78.17],[17.34,78.05],[17.51,77.83],[16.67,77.71],[16.85,77.49],[16.04,77.36],[15.05,77.45],[14.84,77.67],[15.65,77.8],[15.45,78.01],[16.3,78.14],[16.1,78.36],[16.98,78.49],[16.79,78.71],[11.67,78.69],[11.37,78.9],[12.23,79.05],[11.93,79.26],[10.72,79.34],[9.86,79.19],[10.2,78.98],[9.38,78.83],[9.72,78.62],[10.85,78.55],[11.15,78.33],[13.57,77.97],[13.81,77.75],[13.03,77.62],[13.27,77.4],[15.44,77.02],[15.63,76.81],[14.88,76.68],[15.08,76.47],[17.64,76.41],[18.41,76.53],[18.27,76.74],[17.34,76.84],[17.18,77.06],[17.98,77.18],[17.83,77.39],[18.66,77.51],[18.52,77.73],[19.38,77.85],[19.25,78.07],[21.17,78.08],[21.26,77.86],[20.38,77.75],[20.49,77.53],[22.46,77.09],[24.16,77.52],[24.12,77.74],[25.05,77.84],[25.02,78.06],[22.97,78.52],[22.9,78.75],[21.83,78.86],[21.74,79.09],[25.97,79.06],[25.98,78.83],[24.95,78.73],[24.98,78.51],[25.98,78.38],[28.05,78.8],[30.11,78.75],[30.19,78.97],[29.17,79.11],[27.04,79.16],[27.06,79.38],[28.17,79.48],[28.22,79.7],[27.1,79.84],[24.87,79.41],[21.53,79.54],[21.43,79.76],[20.23,79.87],[20.09,80.1],[22.43,80.1]]],[[[29.96,-24.03],[30.06,-23.8],[29.89,-23.6],[29.61,-23.64],[29.13,-24.13],[29.3,-24.33],[29.58,-24.29],[29.68,-24.06],[29.96,-24.03]]],[[[35.47,7.46],[35.86,7.31],[36.5,7.78],[36.36,8.54],[35.81,8.28],[35.79,7.7],[35.47,7.46]]],[[[18.18,20.66],[18.36,20.47],[18.36,19.8],[18.54,19.61],[18.8,19.66],[18.72,20.75],[18.54,20.95],[18.99,21.47],[18.81,21.66],[18.54,21.62],[18.45,21.38],[18.18,21.33],[18.18,20.66]]],[[[28.61,-25.28],[28.12,-25.77],[27.84,-25.8],[27.67,-25.6],[27.01,-25.89],[26.84,-25.7],[26.57,-25.73],[26.46,-25.95],[27.08,-26.31],[28.25,-26.61],[28.29,-25.96],[28.95,-25.67],[29.06,-25.44],[28.89,-25.25],[28.61,-25.28]]],[[[-96.63,80.74],[-96.57,80.51],[-99.05,80.46],[-100.21,80.32],[-100.08,80.09],[-101.18,79.95],[-101.04,79.72],[-99.83,79.64],[-98.74,79.78],[-98.84,80.01],[-97.69,80.15],[-95.28,80.18],[-95.31,80.41],[-94.07,80.54],[-94.07,80.77],[-96.63,80.74]]],[[[139.41,74.72],[143.67,74.66],[144.5,74.8],[144.49,75.06],[143.61,75.18],[142.76,75.04],[141.87,75.16],[141.03,75.02],[138.4,75.08],[137.61,74.93],[137.74,74.67],[138.63,74.57],[139.41,74.72]]],[[[12.84,35.66],[13.14,35.72],[13.23,35.96],[13.02,36.14],[12.72,36.08],[12.25,35.53],[12.46,35.35],[12.75,35.42],[12.84,35.66]]],[[[14.44,36.21],[14.13,36.15],[14.04,35.91],[14.25,35.73],[14.56,35.79],[14.65,36.03],[14.44,36.21]]],[[[131.12,37.54],[130.9,37.65],[130.72,37.31],[131.13,37.32],[131.12,37.54]]],[[[6.11,23.21],[6.67,23.58],[6.73,23.82],[6.54,23.99],[6.29,23.93],[6.23,23.69],[5.54,23.73],[5.18,23.18],[5.8,22.9],[6.05,22.97],[6.11,23.21]]],[[[111.7,55.72],[112.12,55.72],[112.32,55.91],[112.09,56.11],[112.29,56.3],[112.06,56.49],[111.63,56.49],[110.83,56.11],[111.7,55.72]]],[[[119.6,37.72],[119.25,38.19],[117.73,38.49],[117.89,38.16],[119.17,37.83],[118.87,37.43],[119.22,36.95],[119.45,36.99],[119.33,37.5],[119.6,37.72]]],[[[146.26,-18.13],[146.31,-17.9],[145.68,-17.7],[145.72,-17.46],[146.39,-17.43],[146.28,-16.83],[145.85,-16.77],[145.51,-16.26],[144.85,-16.29],[144.95,-16.89],[144.66,-17.21],[145.0,-17.73],[144.67,-18.28],[145.3,-18.48],[145.83,-18.07],[146.33,-18.98],[146.29,-19.21],[146.93,-19.42],[147.17,-19.33],[147.22,-19.09],[146.57,-18.89],[146.62,-18.65],[146.26,-18.13]]],[[[115.31,73.89],[114.85,73.67],[115.29,73.45],[116.17,73.44],[116.65,73.66],[116.22,73.89],[115.31,73.89]]],[[[40.29,6.63],[40.6,6.86],[40.6,7.45],[40.07,7.78],[40.07,8.36],[39.69,8.51],[38.76,7.83],[38.75,7.25],[38.44,7.01],[38.51,6.63],[38.2,6.39],[38.27,6.0],[38.66,5.85],[39.68,6.76],[40.29,6.63]]],[[[-72.32,6.91],[-72.59,7.48],[-73.0,7.46],[-72.49,6.55],[-72.85,6.06],[-73.26,6.04],[-73.4,5.44],[-72.57,5.49],[-72.6,5.72],[-72.07,6.57],[-72.32,6.91]]],[[[45.45,80.12],[48.46,79.76],[51.69,79.99],[52.43,79.78],[53.76,79.78],[54.41,79.99],[57.76,79.74],[60.63,80.11],[60.04,80.33],[60.87,80.52],[62.31,80.49],[63.2,80.68],[62.64,80.91],[61.13,80.94],[60.5,81.17],[58.95,81.2],[58.25,81.42],[59.14,81.62],[58.4,81.84],[56.72,81.86],[55.86,81.66],[56.65,81.44],[53.54,81.04],[54.32,80.82],[53.62,80.62],[52.17,80.62],[51.36,80.82],[52.02,81.04],[51.16,81.24],[49.61,81.23],[49.0,81.02],[45.5,80.75],[45.01,80.53],[45.93,80.34],[45.45,80.12]],[[58.78,80.78],[57.98,80.58],[56.53,80.6],[55.81,80.81],[56.58,81.02],[58.11,81.0],[58.78,80.78]]],[[[113.92,74.56],[113.43,74.78],[113.9,75.0],[113.4,75.22],[112.41,75.22],[111.95,74.99],[112.47,74.77],[112.02,74.55],[111.08,74.54],[110.66,74.31],[108.43,74.05],[108.06,73.81],[105.95,73.52],[105.63,73.29],[107.54,72.92],[109.6,73.19],[109.98,73.42],[110.86,73.43],[111.26,73.66],[113.51,73.46],[113.95,73.68],[113.49,73.9],[113.93,74.12],[113.46,74.34],[113.92,74.56]]],[[[131.91,71.49],[132.51,71.67],[133.28,71.59],[133.44,71.34],[134.2,71.25],[137.58,71.55],[139.72,71.5],[140.39,71.65],[140.32,71.9],[139.57,72.01],[139.48,72.27],[141.65,72.45],[141.6,72.7],[142.32,72.84],[142.28,73.1],[144.58,73.25],[144.57,73.51],[143.77,73.63],[143.74,73.89],[142.92,74.01],[142.14,73.87],[142.19,73.62],[139.86,73.44],[139.94,73.18],[140.75,73.07],[140.81,72.82],[138.61,72.63],[138.71,72.37],[138.03,72.22],[138.13,71.96],[137.47,71.81],[136.71,71.9],[134.67,71.67],[132.95,72.09],[130.94,71.82],[131.14,71.57],[131.91,71.49]]],[[[-24.38,69.42],[-25.46,69.43],[-25.49,69.2],[-24.97,69.07],[-24.42,69.18],[-24.38,69.42]]],[[[48.2,15.08],[47.56,15.44],[47.09,15.03],[47.19,14.84],[47.75,15.06],[48.71,14.52],[48.76,15.29],[48.2,15.08]]],[[[-173.5,59.81],[-171.64,60.29],[-172.41,60.75],[-173.53,61.02],[-173.85,60.84],[-173.05,60.39],[-174.13,60.05],[-173.97,59.84],[-173.5,59.81]]],[[[-159.33,21.72],[-159.06,21.7],[-158.9,21.9],[-159.01,22.13],[-159.66,22.4],[-161.09,21.63],[-160.98,21.41],[-160.71,21.39],[-160.13,21.78],[-159.49,21.51],[-159.33,21.72]]],[[[128.79,73.38],[128.54,73.62],[127.65,73.68],[127.04,73.49],[127.31,73.25],[129.27,72.88],[129.5,72.63],[128.9,72.45],[129.13,72.2],[128.55,72.02],[128.78,71.77],[128.22,71.59],[128.44,71.34],[129.22,71.28],[129.43,71.03],[130.19,70.97],[130.38,70.72],[131.13,70.65],[131.69,70.82],[131.51,71.07],[129.78,71.46],[129.57,71.71],[130.15,71.89],[129.94,72.14],[130.54,72.32],[130.33,72.57],[130.94,72.74],[130.73,72.99],[128.79,73.38]]],[[[-17.38,27.74],[-16.64,27.63],[-16.15,28.14],[-15.66,27.64],[-14.92,27.77],[-14.19,27.65],[-13.18,28.89],[-13.17,29.14],[-13.41,29.27],[-13.4,29.52],[-13.65,29.65],[-13.9,29.53],[-13.9,29.28],[-14.92,28.02],[-15.16,28.15],[-15.16,28.4],[-15.9,28.52],[-15.9,28.77],[-16.14,28.9],[-16.39,28.77],[-16.64,28.89],[-17.14,28.38],[-17.9,29.25],[-18.39,28.73],[-18.38,28.47],[-18.13,28.35],[-18.37,27.72],[-17.86,27.22],[-17.62,27.36],[-17.62,27.61],[-17.87,27.73],[-17.88,27.98],[-17.63,28.11],[-17.38,27.99],[-17.38,27.74]]],[[[30.09,-31.6],[29.63,-31.46],[28.34,-32.41],[28.8,-32.56],[30.09,-31.6]]],[[[180.0,52.34],[179.05,52.14],[178.83,52.34],[178.44,52.33],[178.26,52.13],[177.87,52.12],[177.64,52.32],[177.25,52.31],[176.52,51.88],[177.36,51.5],[178.31,51.72],[178.53,51.52],[179.52,51.33],[180.0,51.53],[180.0,52.34]]],[[[-180.0,51.53],[-179.74,51.74],[-179.95,51.94],[-179.77,52.14],[-179.99,52.35],[-180.0,51.53]]],[[[27.98,-29.38],[27.87,-29.6],[28.05,-29.79],[28.33,-29.76],[28.96,-30.1],[29.24,-30.06],[29.35,-29.85],[29.17,-29.66],[29.67,-29.18],[28.58,-28.68],[28.3,-28.72],[28.2,-28.94],[28.37,-29.13],[28.26,-29.35],[27.98,-29.38]]],[[[-99.32,20.06],[-99.56,20.17],[-99.78,20.02],[-99.76,19.77],[-100.45,19.59],[-100.43,19.34],[-99.93,18.87],[-99.25,19.05],[-98.09,19.01],[-97.87,19.15],[-97.89,19.4],[-97.21,19.57],[-97.22,19.83],[-97.46,19.94],[-98.14,19.76],[-98.63,20.24],[-99.32,20.06]]],[[[28.94,-3.42],[29.04,-3.19],[28.88,-2.99],[28.63,-3.03],[28.53,-3.26],[28.69,-3.45],[28.94,-3.42]]],[[[65.68,76.94],[59.14,76.38],[58.59,76.19],[59.02,75.98],[59.99,75.94],[63.71,76.41],[66.35,76.48],[67.03,76.65],[66.71,76.88],[65.68,76.94]]],[[[128.54,35.05],[128.5,34.86],[127.8,34.79],[127.76,34.6],[128.66,34.56],[128.99,35.03],[128.54,35.05]]],[[[21.83,-34.3],[21.66,-34.11],[21.37,-34.12],[21.26,-34.32],[20.52,-34.16],[20.4,-34.36],[19.72,-34.58],[19.1,-34.21],[19.22,-34.01],[19.01,-33.43],[18.73,-33.44],[18.21,-33.84],[18.42,-34.42],[19.77,-34.96],[20.45,-34.74],[20.57,-34.55],[21.02,-34.72],[21.71,-34.5],[22.17,-34.67],[22.28,-34.47],[21.83,-34.3]]],[[[-153.1,-77.14],[-154.89,-77.17],[-154.91,-77.39],[-154.0,-77.49],[-153.09,-77.36],[-153.1,-77.14]]],[[[176.62,52.49],[176.4,52.69],[176.0,52.67],[175.83,52.47],[176.06,52.27],[176.46,52.28],[176.62,52.49]]],[[[-171.93,25.7],[-171.53,25.91],[-171.65,26.12],[-171.91,26.11],[-172.05,25.9],[-171.93,25.7]]],[[[104.78,43.39],[104.07,43.65],[104.16,43.88],[103.95,44.04],[103.65,43.98],[103.43,44.14],[102.75,43.78],[102.53,43.94],[102.23,43.87],[102.15,43.64],[102.88,43.38],[103.56,43.75],[103.77,43.59],[103.69,43.36],[104.39,43.1],[104.69,43.16],[104.78,43.39]]],[[[-113.87,36.93],[-114.16,37.01],[-114.4,36.85],[-114.35,36.6],[-114.05,36.53],[-113.81,36.69],[-113.87,36.93]]],[[[-150.76,-79.34],[-150.83,-79.11],[-152.96,-79.16],[-152.94,-79.38],[-151.83,-79.48],[-150.76,-79.34]]],[[[-117.63,41.78],[-117.57,41.56],[-117.26,41.49],[-117.02,41.65],[-117.08,41.88],[-117.63,41.78]]],[[[153.38,48.49],[152.23,47.75],[151.37,46.85],[152.22,46.65],[153.36,47.39],[153.24,48.01],[153.58,48.1],[153.65,48.34],[153.38,48.49]]],[[[37.64,6.13],[37.25,6.29],[37.17,6.08],[37.33,5.89],[37.64,6.13]]],[[[-177.19,28.31],[-177.34,28.52],[-177.62,28.51],[-177.75,28.28],[-177.61,28.08],[-177.33,28.09],[-177.19,28.31]]],[[[144.23,-19.3],[143.99,-19.38],[143.94,-19.62],[144.13,-19.77],[144.08,-20.0],[144.72,-20.21],[144.97,-20.13],[145.02,-19.89],[144.82,-19.74],[144.57,-19.83],[144.23,-19.3]]],[[[50.37,15.15],[50.4,15.53],[49.88,15.71],[49.07,15.11],[49.39,14.93],[49.85,15.33],[50.37,15.15]]],[[[119.42,35.73],[119.39,35.54],[119.8,35.43],[119.65,35.76],[119.42,35.73]]],[[[-159.77,-79.87],[-158.57,-79.76],[-158.47,-79.54],[-159.5,-79.42],[-159.38,-79.2],[-161.51,-79.18],[-161.68,-79.4],[-160.67,-79.53],[-160.83,-79.75],[-159.77,-79.87]]],[[[133.17,-23.59],[133.0,-23.43],[132.68,-23.72],[133.26,-23.98],[133.58,-23.69],[133.17,-23.59]]],[[[113.52,22.3],[113.48,22.06],[113.68,21.91],[113.91,21.99],[113.94,22.22],[114.6,22.21],[114.63,22.45],[113.58,22.76],[113.35,22.68],[113.32,22.45],[113.52,22.3]]],[[[113.81,-28.67],[113.66,-28.82],[113.77,-28.99],[114.16,-28.87],[113.81,-28.67]]],[[[-67.23,76.22],[-68.26,76.2],[-68.65,75.98],[-68.03,75.78],[-67.03,75.81],[-66.62,76.02],[-64.02,75.85],[-62.07,76.28],[-62.63,76.48],[-63.68,76.48],[-64.14,76.27],[-66.82,76.44],[-67.23,76.22]]],[[[145.35,72.87],[144.6,72.74],[143.84,72.86],[143.1,72.73],[143.13,72.47],[145.35,72.35],[146.09,72.48],[146.82,72.35],[146.8,72.09],[148.95,71.93],[148.9,71.68],[149.57,71.53],[151.13,72.01],[151.22,72.26],[149.05,72.45],[148.29,72.33],[147.57,72.47],[147.61,72.72],[146.87,72.86],[146.1,72.74],[145.35,72.87]]],[[[121.79,23.76],[121.37,23.78],[121.07,23.24],[121.49,23.22],[121.79,23.76]]],[[[51.56,-46.59],[52.09,-46.73],[52.57,-46.3],[52.05,-46.16],[51.56,-46.59]]],[[[147.54,-19.86],[147.78,-19.77],[147.83,-19.53],[147.62,-19.38],[147.38,-19.47],[147.34,-19.71],[147.54,-19.86]]],[[[-158.05,22.27],[-158.21,22.06],[-158.1,21.84],[-158.68,21.45],[-158.58,21.22],[-157.93,20.95],[-157.77,21.15],[-157.5,21.13],[-157.39,20.9],[-157.13,20.87],[-157.07,20.21],[-156.37,20.36],[-156.27,20.13],[-156.48,19.49],[-156.37,19.26],[-156.11,19.23],[-156.06,18.56],[-154.93,18.88],[-154.65,19.96],[-154.76,20.19],[-155.03,20.22],[-155.13,20.46],[-155.83,20.31],[-155.89,20.97],[-156.16,21.0],[-156.64,21.49],[-157.34,21.33],[-157.83,21.81],[-157.67,22.02],[-157.78,22.25],[-158.05,22.27]]],[[[132.27,-23.62],[131.95,-23.91],[132.11,-24.08],[132.36,-24.02],[132.43,-23.79],[132.27,-23.62]]],[[[119.27,23.68],[119.42,23.3],[120.02,23.17],[119.98,22.95],[120.17,22.83],[120.43,23.15],[120.24,23.27],[120.28,23.49],[120.8,24.14],[120.38,24.15],[119.86,23.51],[119.52,23.96],[119.3,23.9],[119.27,23.68]]],[[[-73.32,79.95],[-73.74,79.74],[-76.74,79.41],[-77.08,79.19],[-76.17,79.02],[-76.51,78.8],[-75.63,78.63],[-75.97,78.41],[-73.15,78.12],[-73.52,77.89],[-72.74,77.72],[-73.1,77.49],[-72.36,77.32],[-72.71,77.09],[-71.99,76.91],[-69.44,77.2],[-69.03,77.42],[-69.73,77.61],[-69.31,77.83],[-70.05,78.01],[-71.21,77.98],[-71.98,78.16],[-71.58,78.38],[-68.72,78.66],[-68.24,78.87],[-69.02,79.06],[-70.29,79.03],[-70.73,78.81],[-71.97,78.78],[-72.38,78.56],[-73.58,78.51],[-74.42,78.69],[-74.05,78.91],[-74.92,79.08],[-74.54,79.3],[-71.52,79.6],[-71.05,79.82],[-71.95,80.0],[-73.32,79.95]]],[[[-80.95,25.49],[-81.13,25.86],[-81.34,25.75],[-81.36,25.52],[-80.95,25.49]]],[[[-28.15,39.36],[-28.12,39.11],[-28.95,38.9],[-29.13,38.24],[-27.14,38.29],[-26.64,38.85],[-26.67,39.1],[-27.55,39.16],[-27.58,39.41],[-27.89,39.52],[-28.15,39.36]]],[[[-173.9,25.86],[-173.64,25.87],[-173.5,26.08],[-173.63,26.29],[-173.9,26.28],[-174.03,26.07],[-173.9,25.86]]],[[[76.52,11.24],[76.73,11.6],[76.53,11.73],[76.33,11.61],[76.52,11.24]]],[[[-117.75,41.17],[-117.81,41.39],[-118.36,41.29],[-118.29,41.07],[-117.99,41.0],[-117.75,41.17]]],[[[126.91,33.76],[126.34,33.19],[126.54,33.09],[127.07,33.46],[127.11,33.65],[126.91,33.76]]],[[[35.92,-3.09],[35.77,-2.9],[35.52,-2.93],[35.43,-3.16],[35.59,-3.36],[35.84,-3.32],[35.92,-3.09]]],[[[25.73,-34.24],[26.42,-33.99],[26.53,-33.78],[27.28,-33.91],[27.39,-33.7],[27.68,-33.67],[27.79,-33.46],[27.61,-33.28],[26.93,-33.55],[26.75,-33.36],[26.46,-33.39],[26.35,-33.6],[25.6,-33.46],[24.69,-34.12],[23.77,-33.79],[23.48,-33.81],[23.37,-34.02],[22.63,-33.86],[22.51,-34.07],[23.14,-34.42],[23.83,-34.18],[24.46,-34.53],[25.15,-34.28],[25.27,-34.08],[25.73,-34.24]]],[[[-176.13,-43.85],[-176.2,-43.62],[-176.5,-43.53],[-177.27,-43.72],[-176.84,-44.27],[-176.17,-44.68],[-175.76,-44.17],[-175.83,-43.94],[-176.13,-43.85]]],[[[8.91,24.81],[9.63,24.76],[9.7,25.0],[9.51,25.18],[7.88,25.46],[7.81,25.22],[8.01,25.04],[8.72,24.99],[8.91,24.81]]],[[[-112.0,33.17],[-111.72,33.08],[-111.48,33.24],[-111.86,33.83],[-112.15,33.91],[-112.9,33.68],[-112.85,33.43],[-112.05,33.42],[-112.0,33.17]]],[[[-148.1,-76.32],[-149.77,-76.38],[-149.7,-76.6],[-148.8,-76.68],[-148.0,-76.54],[-148.1,-76.32]]],[[[138.87,-16.71],[138.21,-16.72],[138.16,-16.94],[139.02,-17.07],[139.33,-17.58],[139.98,-17.57],[139.77,-16.61],[139.58,-16.47],[139.06,-16.85],[138.87,-16.71]]],[[[141.17,-17.17],[140.75,-17.11],[140.4,-17.64],[140.82,-17.71],[141.17,-17.17]]],[[[42.87,9.39],[42.87,9.77],[42.65,9.75],[42.54,9.55],[42.87,9.39]]],[[[149.68,75.02],[149.61,74.76],[150.41,74.61],[151.3,74.72],[151.4,74.98],[150.58,75.13],[150.67,75.38],[149.83,75.53],[148.91,75.42],[148.85,75.16],[149.68,75.02]]],[[[36.91,-2.95],[37.48,-3.3],[37.72,-3.26],[37.81,-3.04],[37.24,-2.68],[37.0,-2.72],[36.91,-2.95]]],[[[120.61,73.35],[120.09,73.14],[120.45,72.91],[121.31,72.88],[121.83,73.08],[121.49,73.32],[120.61,73.35]]],[[[165.94,-50.83],[165.62,-50.97],[165.63,-51.2],[166.29,-51.17],[166.59,-50.57],[165.94,-50.6],[165.94,-50.83]]],[[[73.16,16.59],[74.34,14.25],[74.74,14.26],[73.56,16.6],[73.16,16.59]]],[[[48.69,68.53],[50.28,68.72],[50.65,68.91],[50.4,69.1],[50.78,69.29],[49.62,69.67],[47.98,69.47],[47.62,69.28],[47.9,69.1],[47.54,68.91],[48.69,68.53]]],[[[-168.53,63.32],[-169.33,63.81],[-170.55,64.13],[-172.72,63.65],[-171.85,63.18],[-170.45,63.28],[-170.3,63.06],[-170.66,62.88],[-170.5,62.66],[-170.0,62.62],[-168.76,62.92],[-168.9,63.15],[-168.53,63.32]]],[[[113.51,-28.16],[113.36,-28.3],[113.46,-28.47],[113.85,-28.36],[113.51,-28.16]]],[[[143.69,66.35],[143.15,66.21],[143.17,65.96],[143.72,65.84],[144.26,65.97],[144.24,66.22],[143.69,66.35]]],[[[-146.71,-77.27],[-146.58,-77.49],[-145.59,-77.56],[-144.76,-77.4],[-144.93,-77.18],[-146.71,-77.27]]],[[[69.3,76.28],[70.01,76.45],[69.74,76.69],[68.74,76.76],[68.03,76.59],[68.32,76.35],[69.3,76.28]]],[[[-16.13,32.71],[-15.87,33.34],[-16.13,33.47],[-16.65,32.96],[-17.44,33.08],[-17.7,32.95],[-17.7,32.69],[-17.43,32.57],[-17.17,32.7],[-16.65,32.19],[-16.13,32.71]]],[[[-156.14,55.91],[-156.12,55.71],[-155.45,55.76],[-155.46,55.96],[-155.81,56.04],[-156.14,55.91]]],[[[167.3,55.09],[166.34,55.39],[166.48,55.6],[166.21,55.77],[165.23,55.46],[165.09,55.24],[165.78,55.12],[166.06,54.96],[165.92,54.74],[166.2,54.57],[167.29,54.49],[168.23,54.18],[168.64,54.22],[168.79,54.43],[168.53,54.61],[168.67,54.82],[168.41,55.0],[167.3,55.09]]],[[[30.68,80.11],[33.01,80.04],[33.18,80.27],[32.06,80.42],[30.79,80.34],[30.68,80.11]]],[[[-53.7,66.28],[-54.05,66.07],[-53.8,65.84],[-54.14,65.64],[-53.89,65.41],[-52.48,65.12],[-52.12,65.32],[-53.19,65.82],[-52.84,66.02],[-53.09,66.25],[-52.72,66.45],[-52.97,66.68],[-52.6,66.88],[-53.75,67.37],[-53.38,67.57],[-53.65,67.8],[-53.27,68.01],[-53.54,68.24],[-51.01,68.76],[-51.26,68.99],[-51.94,69.03],[-54.49,68.49],[-54.2,68.26],[-54.58,68.06],[-54.3,67.83],[-54.67,67.63],[-54.39,67.4],[-54.76,67.19],[-54.49,66.97],[-53.86,66.94],[-53.59,66.71],[-53.95,66.51],[-53.7,66.28]]],[[[-55.32,73.04],[-55.69,73.26],[-55.22,73.46],[-55.6,73.68],[-56.47,73.7],[-56.94,73.5],[-56.54,73.28],[-57.0,73.08],[-56.62,72.86],[-55.78,72.84],[-55.32,73.04]]],[[[-28.17,68.37],[-26.6,68.49],[-26.59,68.73],[-28.17,68.85],[-28.7,68.73],[-28.69,68.49],[-28.17,68.37]]],[[[-15.69,24.4],[-16.16,23.9],[-16.16,23.65],[-15.93,23.54],[-15.45,24.04],[-15.45,24.28],[-15.69,24.4]]],[[[77.79,-38.23],[78.07,-38.12],[78.1,-37.88],[77.61,-37.37],[77.33,-37.47],[77.53,-38.09],[77.79,-38.23]]],[[[-51.6,70.96],[-52.34,71.0],[-52.79,70.8],[-52.49,70.57],[-51.76,70.54],[-51.31,70.73],[-51.6,70.96]]],[[[159.46,-31.72],[159.47,-31.47],[159.22,-31.33],[158.95,-31.45],[158.94,-31.7],[159.19,-31.84],[159.46,-31.72]]],[[[97.13,41.42],[97.01,42.05],[96.23,42.27],[95.93,42.18],[95.53,41.61],[95.95,41.07],[96.25,41.16],[96.48,41.01],[97.13,41.42]]],[[[-67.46,77.66],[-67.91,77.45],[-67.24,77.26],[-66.13,77.27],[-65.66,77.49],[-66.32,77.68],[-67.46,77.66]]],[[[47.29,10.87],[47.17,10.68],[47.48,10.52],[47.51,10.89],[47.29,10.87]]],[[[1.24,38.73],[1.19,38.49],[1.41,38.35],[2.02,38.76],[1.91,39.38],[1.68,39.53],[1.4,39.44],[1.35,39.2],[1.07,39.11],[1.02,38.87],[1.24,38.73]]],[[[141.4,-15.01],[141.83,-15.07],[141.72,-14.47],[142.0,-14.16],[141.81,-14.02],[141.29,-14.41],[141.4,-15.01]]],[[[122.01,25.08],[121.66,25.54],[121.4,25.22],[120.75,25.13],[120.71,24.91],[121.74,24.76],[121.48,24.44],[121.44,24.22],[121.64,24.1],[122.13,24.53],[122.01,25.08]]],[[[-6.14,62.01],[-5.72,62.07],[-5.67,62.26],[-6.37,62.74],[-7.26,62.43],[-7.76,61.97],[-7.39,61.84],[-7.43,61.64],[-6.74,61.16],[-6.33,61.22],[-6.28,61.42],[-6.65,61.56],[-6.6,61.76],[-6.19,61.82],[-6.14,62.01]]],[[[-6.38,59.26],[-6.43,59.06],[-5.69,58.97],[-5.65,59.18],[-5.99,59.32],[-6.38,59.26]]],[[[-81.55,65.89],[-81.08,65.72],[-80.48,65.8],[-80.35,66.05],[-80.83,66.22],[-81.43,66.14],[-81.55,65.89]]],[[[145.27,-15.3],[145.5,-15.21],[145.54,-14.99],[145.36,-14.85],[145.12,-14.93],[145.08,-15.16],[145.27,-15.3]]],[[[-30.78,39.48],[-31.09,39.57],[-31.14,39.82],[-31.45,39.91],[-31.71,39.75],[-31.66,39.5],[-30.99,39.07],[-30.73,39.22],[-30.78,39.48]]],[[[-157.54,-77.09],[-158.47,-77.2],[-158.55,-77.42],[-156.73,-77.41],[-156.68,-77.19],[-157.54,-77.09]]],[[[120.78,35.95],[121.81,36.81],[121.41,36.93],[120.89,36.5],[120.63,36.28],[120.78,35.95]]],[[[158.61,-54.53],[158.59,-54.75],[158.94,-54.87],[159.31,-54.76],[159.33,-54.54],[158.61,-54.53]]],[[[-147.46,-81.11],[-146.26,-80.96],[-146.45,-80.73],[-148.97,-80.8],[-148.84,-81.03],[-147.46,-81.11]]],[[[-180.0,70.79],[-179.57,70.56],[-177.63,70.73],[-177.18,70.94],[-177.49,71.17],[-177.03,71.37],[-178.46,71.85],[-179.27,71.87],[-180.0,71.66],[-180.0,70.79]]],[[[180.0,71.66],[178.26,71.46],[177.85,71.24],[178.22,71.02],[177.81,70.81],[178.17,70.59],[180.0,70.79],[180.0,71.66]]],[[[-13.37,57.69],[-13.35,57.91],[-13.72,58.04],[-14.1,57.95],[-14.11,57.73],[-13.37,57.69]]],[[[-62.23,47.84],[-62.4,47.63],[-62.18,47.01],[-61.29,47.26],[-61.11,47.47],[-61.32,48.09],[-62.23,47.84]]],[[[31.63,-28.93],[30.97,-29.23],[30.86,-29.45],[31.04,-29.63],[31.32,-29.6],[31.42,-29.38],[31.71,-29.34],[31.81,-29.11],[31.63,-28.93]]],[[[141.55,-15.38],[141.31,-15.46],[141.27,-15.68],[141.46,-15.83],[141.74,-15.52],[141.55,-15.38]]],[[[100.43,43.43],[100.36,43.2],[100.58,43.04],[100.88,43.11],[100.95,43.35],[100.73,43.51],[100.43,43.43]]],[[[24.33,76.42],[26.86,76.48],[26.87,76.7],[24.27,76.86],[23.42,76.75],[23.47,76.54],[24.33,76.42]]],[[[112.2,57.46],[112.65,57.46],[112.86,57.65],[112.62,57.85],[112.17,57.86],[111.97,57.66],[112.2,57.46]]],[[[-73.55,10.51],[-73.36,10.63],[-73.6,10.95],[-73.79,10.83],[-73.77,10.61],[-73.55,10.51]]],[[[-97.17,18.82],[-97.18,19.07],[-97.41,19.18],[-97.64,19.04],[-97.62,18.79],[-97.39,18.68],[-97.17,18.82]]],[[[81.88,75.18],[82.68,75.3],[82.65,75.55],[81.79,75.67],[80.98,75.54],[81.04,75.3],[81.88,75.18]]],[[[31.11,-30.04],[30.93,-29.86],[30.65,-29.89],[30.55,-30.11],[30.72,-30.3],[31.01,-30.26],[31.11,-30.04]]],[[[52.04,25.69],[52.39,25.43],[52.54,25.59],[52.45,25.8],[52.04,25.69]]],[[[91.56,66.29],[91.64,66.53],[91.16,66.68],[90.61,66.6],[90.54,66.36],[91.56,66.29]]],[[[-60.51,44.01],[-60.67,43.8],[-60.5,43.61],[-59.67,43.84],[-59.5,44.04],[-59.67,44.24],[-60.0,44.23],[-60.17,44.02],[-60.51,44.01]]],[[[129.82,35.65],[129.58,36.19],[129.75,36.52],[129.55,36.63],[129.2,35.97],[129.57,35.57],[129.82,35.65]]],[[[113.68,-26.93],[113.64,-27.23],[113.97,-27.43],[113.79,-27.88],[114.13,-28.08],[114.35,-27.32],[113.68,-26.93]]],[[[116.72,45.65],[117.13,45.88],[116.98,46.05],[116.7,46.02],[116.58,45.82],[116.72,45.65]]],[[[-146.9,59.62],[-146.95,59.42],[-146.61,59.31],[-146.21,59.41],[-146.15,59.62],[-146.9,59.62]]],[[[122.06,-18.75],[122.1,-18.55],[121.7,-18.46],[121.85,-18.81],[122.06,-18.75]]],[[[-80.35,25.34],[-79.91,25.77],[-80.08,26.13],[-80.52,25.7],[-80.35,25.34]]],[[[113.6,-24.62],[113.6,-24.97],[113.79,-24.94],[113.89,-24.75],[113.6,-24.62]]],[[[113.52,57.84],[114.64,57.62],[114.87,57.81],[113.96,58.23],[113.51,58.24],[113.29,58.04],[113.52,57.84]]],[[[-88.55,79.04],[-88.66,78.81],[-87.64,78.68],[-86.5,78.78],[-86.35,79.01],[-88.55,79.04]]],[[[-159.15,-85.12],[-156.65,-85.01],[-156.52,-84.77],[-161.04,-84.75],[-161.38,-84.99],[-159.15,-85.12]]],[[[28.03,-24.27],[27.93,-24.5],[28.1,-24.69],[28.37,-24.66],[28.86,-24.17],[28.69,-23.97],[28.03,-24.27]]],[[[145.35,72.09],[144.63,71.96],[144.64,71.71],[145.35,71.58],[146.06,71.71],[146.07,71.96],[145.35,72.09]]],[[[-56.8,74.34],[-56.31,74.54],[-56.73,74.76],[-57.65,74.78],[-58.14,74.58],[-57.71,74.36],[-56.8,74.34]]],[[[-64.43,32.34],[-64.31,32.52],[-64.46,32.68],[-64.73,32.66],[-65.22,32.26],[-65.07,32.11],[-64.43,32.34]]],[[[72.91,-53.06],[73.21,-53.21],[73.59,-53.13],[73.66,-52.89],[73.37,-52.74],[72.99,-52.82],[72.91,-53.06]]],[[[-155.56,-81.94],[-155.61,-82.17],[-154.12,-82.28],[-154.13,-82.51],[-155.73,-82.64],[-155.79,-82.87],[-157.51,-82.99],[-157.64,-83.23],[-159.47,-83.34],[-159.68,-83.57],[-157.93,-83.7],[-156.02,-83.58],[-155.94,-83.34],[-154.16,-83.22],[-154.15,-82.98],[-152.49,-82.85],[-152.54,-82.62],[-150.99,-82.48],[-151.08,-82.25],[-152.62,-82.15],[-152.65,-81.91],[-155.56,-81.94]]],[[[174.76,-38.46],[174.52,-38.61],[174.55,-38.85],[174.83,-38.95],[175.07,-38.8],[175.04,-38.55],[174.76,-38.46]]],[[[41.97,9.31],[42.31,9.53],[42.2,9.71],[41.63,9.46],[41.52,9.26],[41.67,9.09],[41.97,9.31]]],[[[-146.04,-76.9],[-145.25,-76.74],[-145.4,-76.53],[-147.09,-76.61],[-146.97,-76.83],[-146.04,-76.9]]],[[[141.33,-16.49],[141.61,-16.19],[141.42,-16.05],[141.18,-16.13],[141.14,-16.35],[141.33,-16.49]]],[[[141.24,74.25],[140.38,74.36],[139.6,74.21],[139.69,73.95],[140.53,73.84],[141.3,73.99],[141.24,74.25]]],[[[-25.41,38.17],[-26.24,37.98],[-26.21,37.72],[-25.27,36.89],[-25.0,37.03],[-25.35,37.66],[-25.09,37.8],[-25.12,38.06],[-25.41,38.17]]],[[[91.07,75.4],[91.97,75.5],[92.1,75.74],[91.3,75.9],[90.38,75.8],[90.28,75.55],[91.07,75.4]]],[[[-55.69,71.34],[-54.92,71.32],[-54.49,71.52],[-52.64,71.23],[-52.19,71.42],[-53.59,71.91],[-54.37,71.94],[-54.82,71.74],[-55.6,71.77],[-56.03,71.57],[-55.69,71.34]]],[[[37.01,9.38],[37.14,9.2],[37.48,9.43],[37.34,10.0],[37.11,9.98],[37.01,9.38]]],[[[-154.03,-79.06],[-154.02,-78.83],[-155.05,-78.73],[-155.02,-78.51],[-154.02,-78.38],[-154.01,-78.16],[-154.98,-78.06],[-157.03,-78.52],[-157.1,-78.75],[-156.1,-78.85],[-156.15,-79.08],[-154.03,-79.06]]],[[[-8.09,58.16],[-8.82,58.23],[-9.27,57.73],[-8.54,57.67],[-8.09,58.16]]],[[[169.42,-52.72],[169.39,-52.49],[169.05,-52.4],[168.72,-52.54],[168.74,-52.77],[169.42,-52.72]]],[[[50.09,-45.94],[50.0,-46.14],[50.22,-46.31],[50.52,-46.29],[50.61,-46.09],[50.09,-45.94]]],[[[131.87,35.0],[131.67,34.89],[131.89,34.56],[132.08,34.89],[131.87,35.0]]],[[[29.44,-25.18],[30.09,-24.88],[30.2,-24.65],[30.02,-24.45],[29.37,-24.75],[29.27,-24.98],[29.44,-25.18]]],[[[113.15,38.97],[113.29,38.81],[113.65,39.06],[113.25,39.17],[113.15,38.97]]],[[[-157.2,56.13],[-157.17,55.93],[-156.49,55.99],[-156.51,56.19],[-156.86,56.26],[-157.2,56.13]]],[[[118.05,73.86],[117.55,73.65],[117.95,73.42],[118.84,73.4],[119.35,73.61],[118.96,73.84],[118.05,73.86]]],[[[-51.79,69.45],[-52.07,69.69],[-51.64,69.88],[-51.92,70.11],[-53.65,70.41],[-53.96,70.64],[-54.7,70.66],[-55.11,70.46],[-54.8,70.24],[-55.21,70.04],[-54.89,69.81],[-55.29,69.61],[-53.99,69.12],[-53.31,69.09],[-51.79,69.45]],[[-52.77,69.72],[-53.18,69.52],[-53.88,69.55],[-54.18,69.78],[-53.77,69.98],[-53.06,69.95],[-52.77,69.72]]],[[[-150.34,-77.41],[-152.17,-77.46],[-152.13,-77.68],[-151.18,-77.77],[-151.12,-77.99],[-150.13,-78.07],[-149.21,-77.93],[-149.3,-77.71],[-150.27,-77.63],[-150.34,-77.41]]],[[[92.07,42.54],[92.37,42.64],[92.41,42.89],[92.15,43.04],[91.84,42.94],[91.8,42.69],[92.07,42.54]]],[[[-85.97,82.46],[-86.27,82.23],[-84.94,82.1],[-83.31,82.18],[-82.92,82.41],[-84.26,82.55],[-85.97,82.46]]],[[[140.18,32.89],[140.19,33.13],[139.75,33.16],[139.73,32.93],[139.95,32.79],[140.18,32.89]]],[[[-68.9,76.39],[-68.5,76.61],[-69.16,76.8],[-70.23,76.77],[-70.61,76.54],[-69.94,76.36],[-68.9,76.39]]],[[[12.25,37.09],[11.94,37.02],[11.86,36.78],[12.07,36.61],[12.37,36.67],[12.46,36.91],[12.25,37.09]]],[[[123.15,73.92],[123.48,73.69],[124.38,73.64],[124.96,73.84],[124.65,74.08],[123.73,74.12],[123.15,73.92]]],[[[32.37,-18.38],[32.54,-18.58],[32.81,-18.54],[32.9,-18.3],[32.74,-18.1],[32.47,-18.14],[32.37,-18.38]]],[[[143.78,56.73],[143.39,56.84],[143.01,56.72],[143.03,56.49],[143.8,56.5],[143.78,56.73]]],[[[40.99,9.02],[41.29,9.24],[40.95,9.4],[40.54,8.98],[40.69,8.8],[40.99,9.02]]],[[[38.34,17.37],[38.21,17.57],[37.96,17.55],[37.84,17.33],[37.97,17.13],[38.34,17.37]]],[[[122.35,-18.29],[122.6,-18.03],[122.41,-17.88],[122.2,-17.94],[122.35,-18.29]]],[[[145.36,75.44],[145.36,75.19],[146.22,75.06],[147.1,75.18],[147.13,75.44],[146.25,75.57],[145.36,75.44]]],[[[-59.51,75.64],[-59.03,75.43],[-58.06,75.41],[-57.54,75.61],[-58.01,75.83],[-59.01,75.84],[-59.51,75.64]]],[[[166.16,-48.09],[166.17,-48.33],[166.49,-48.43],[166.8,-48.3],[166.79,-48.06],[166.47,-47.95],[166.16,-48.09]]],[[[30.02,-31.2],[30.69,-30.92],[30.8,-30.7],[30.62,-30.52],[30.34,-30.55],[29.84,-31.02],[30.02,-31.2]]],[[[-169.84,56.78],[-170.13,56.62],[-170.01,56.41],[-169.32,56.54],[-169.43,56.75],[-169.84,56.78]]],[[[138.05,-16.36],[137.86,-16.21],[137.58,-16.51],[138.01,-16.58],[138.05,-16.36]]]]}}]}