{"type":"FeatureCollection","features":[{"type":"Feature","properties":{},"geometry":{"type":"MultiPolygon","coordinates":[[[[-106.45,78.32],[-107.67,77.53],[-105.04,76.71],[-106.39,76.15],[-108.22,77.13],[-113.09,76.51],[-113.01,77.14],[-108.71,77.59],[-107.56,78.38],[-110.39,78.93],[-114.36,78.64],[-115.77,77.64],[-120.11,77.69],[-124.05,75.85],[-112.77,74.16],[-101.56,75.31],[-99.58,74.41],[-101.85,74.2],[-103.41,72.77],[-99.34,71.1],[-96.73,71.43],[-97.34,71.04],[-96.61,70.44],[-99.57,69.48],[-100.28,69.82],[-99.22,70.61],[-99.96,70.96],[-101.76,70.5],[-104.04,71.25],[-103.68,71.89],[-104.53,72.21],[-104.04,72.61],[-104.94,72.93],[-103.79,73.49],[-104.87,74.04],[-112.36,73.07],[-116.42,74.53],[-122.77,74.85],[-125.41,74.41],[-125.01,72.99],[-126.5,72.16],[-123.04,70.91],[-119.03,71.45],[-118.89,70.81],[-117.0,70.31],[-118.51,69.95],[-116.87,69.02],[-120.5,70.02],[-124.16,69.88],[-124.44,70.5],[-126.11,69.88],[-128.48,70.89],[-137.65,69.22],[-142.14,70.33],[-157.66,71.51],[-166.66,68.96],[-166.85,68.32],[-162.56,66.51],[-164.96,67.02],[-168.06,65.82],[-178.84,69.02],[-179.62,65.19],[-176.36,65.31],[-176.26,64.67],[-173.44,63.91],[-172.17,64.25],[-171.95,65.29],[-169.62,65.75],[-168.33,65.42],[-168.45,64.79],[-162.23,64.28],[-161.58,63.75],[-163.08,63.96],[-163.23,63.13],[-165.6,63.22],[-166.67,61.67],[-165.43,60.9],[-168.08,60.18],[-166.52,59.61],[-165.14,60.25],[-164.87,59.61],[-162.09,59.83],[-162.86,58.52],[-157.8,58.06],[-158.74,57.03],[-168.98,53.23],[-172.81,52.74],[-173.03,52.15],[-174.54,52.63],[-178.6,52.14],[-179.32,51.33],[-173.04,51.75],[-168.48,52.6],[-165.84,54.06],[-159.03,54.74],[-159.53,55.6],[-157.85,55.87],[-155.91,57.47],[-154.46,56.95],[-154.78,56.01],[-151.63,57.49],[-151.51,58.94],[-145.55,60.34],[-144.66,59.59],[-141.54,59.89],[-138.39,58.87],[-133.02,54.5],[-133.64,54.13],[-132.65,52.65],[-130.69,51.69],[-131.55,54.12],[-131.06,54.29],[-128.01,51.2],[-129.44,50.73],[-124.91,48.16],[-124.0,45.13],[-125.1,42.66],[-124.41,41.53],[-126.48,37.25],[-126.18,36.34],[-119.24,30.38],[-114.85,29.13],[-114.47,28.54],[-115.95,28.29],[-114.34,26.62],[-112.46,26.0],[-112.45,24.57],[-111.09,23.85],[-110.32,22.14],[-105.08,18.89],[-96.98,15.34],[-94.14,15.67],[-91.32,13.55],[-87.21,12.4],[-82.59,5.22],[-86.53,2.62],[-87.04,0.47],[-81.25,-5.7],[-80.91,-7.09],[-80.04,-6.76],[-79.11,-9.64],[-76.53,-13.0],[-76.87,-14.06],[-76.08,-15.13],[-70.54,-18.33],[-70.15,-21.47],[-71.07,-23.18],[-70.59,-25.13],[-72.19,-30.66],[-71.8,-33.44],[-74.4,-38.28],[-73.61,-39.07],[-74.29,-41.13],[-73.83,-41.64],[-74.6,-42.28],[-74.13,-42.8],[-75.43,-43.55],[-74.56,-44.36],[-75.79,-44.73],[-74.91,-45.54],[-76.02,-47.01],[-74.98,-47.41],[-75.74,-47.7],[-76.12,-50.39],[-75.24,-50.96],[-75.96,-51.49],[-73.94,-54.3],[-67.71,-56.3],[-63.33,-54.83],[-66.97,-54.19],[-69.01,-50.94],[-67.22,-49.92],[-67.06,-48.74],[-65.63,-48.3],[-65.65,-46.94],[-67.29,-45.96],[-65.06,-45.27],[-64.76,-43.22],[-60.98,-42.75],[-59.76,-41.8],[-44.8,-37.89],[-37.36,-37.33],[-35.01,-36.39],[-24.98,-29.0],[-22.67,-28.21],[-21.73,-27.08],[-22.74,-26.18],[-22.02,-25.23],[-22.42,-24.7],[-19.84,-23.5],[-18.82,-24.36],[-14.85,-24.88],[-11.41,-23.24],[-0.14,-25.56],[9.13,-31.6],[19.37,-35.16],[26.88,-34.14],[29.7,-31.85],[31.69,-31.6],[35.13,-29.24],[35.07,-28.2],[36.09,-27.61],[35.17,-24.99],[35.93,-23.78],[36.1,-20.23],[39.19,-17.9],[41.16,-15.08],[41.09,-10.65],[40.02,-9.72],[40.2,-7.92],[39.55,-7.15],[40.39,-2.87],[43.68,0.78],[47.53,3.31],[51.59,10.43],[51.36,12.22],[44.34,10.46],[43.6,12.11],[52.27,15.2],[53.47,16.71],[56.65,17.3],[56.06,17.79],[58.27,18.96],[58.06,19.55],[60.27,18.61],[65.27,13.81],[66.18,11.27],[63.72,9.12],[63.09,6.98],[63.58,5.78],[68.4,2.45],[74.65,0.89],[88.01,0.76],[94.5,-0.46],[99.0,-1.91],[101.17,-4.39],[101.1,-2.8],[104.4,-6.27],[105.27,-6.08],[105.36,-7.14],[111.71,-8.78],[112.16,-8.35],[114.11,-9.84],[118.51,-8.9],[119.12,-10.2],[120.69,-10.56],[121.19,-9.97],[120.1,-9.03],[123.48,-8.57],[124.45,-9.13],[122.54,-10.62],[122.84,-11.38],[127.09,-8.7],[129.28,-8.64],[127.55,-7.2],[124.19,-8.12],[123.44,-7.48],[121.65,-8.3],[118.25,-7.91],[119.58,-7.03],[118.9,-6.17],[118.8,-6.86],[116.96,-7.27],[117.01,-8.32],[116.08,-7.99],[116.44,-6.8],[115.14,-6.43],[115.25,-5.52],[116.54,-4.6],[116.61,-2.6],[119.54,-0.13],[118.51,-3.21],[119.37,-4.23],[118.74,-4.46],[119.0,-5.47],[120.36,-5.88],[120.37,-7.2],[121.32,-7.76],[121.45,-6.83],[120.57,-5.8],[120.66,-3.76],[122.77,-6.38],[122.87,-5.67],[123.84,-6.23],[124.59,-5.52],[123.76,-5.36],[123.61,-3.6],[122.15,-2.09],[122.66,-1.44],[123.97,-2.55],[126.82,-2.2],[126.51,-1.39],[123.93,-1.42],[122.47,0.09],[124.15,0.04],[125.59,1.06],[125.93,4.7],[125.08,4.83],[125.13,2.28],[124.33,1.27],[123.43,0.93],[121.05,1.83],[120.33,1.09],[120.53,2.54],[123.78,6.17],[125.58,5.26],[127.24,7.56],[128.61,7.87],[130.72,9.87],[130.88,10.87],[130.22,13.64],[128.35,17.23],[126.53,18.28],[126.52,19.6],[129.76,21.53],[130.72,25.49],[131.7,25.84],[131.26,27.11],[132.42,28.32],[137.78,30.39],[141.9,34.51],[140.88,36.38],[141.01,38.04],[142.3,38.79],[142.4,39.75],[141.37,42.3],[143.14,41.87],[145.95,42.9],[147.68,44.85],[151.18,46.14],[150.78,46.91],[144.8,44.3],[142.69,44.87],[142.26,45.83],[144.0,46.49],[142.83,48.28],[143.8,49.08],[144.55,48.24],[145.24,48.92],[143.34,51.76],[143.98,52.43],[143.57,53.64],[146.05,54.44],[146.07,55.35],[143.78,56.73],[142.66,56.36],[139.81,57.32],[143.65,59.33],[155.35,58.95],[155.97,59.5],[154.84,59.95],[158.21,61.64],[159.48,61.39],[160.2,60.19],[161.65,60.39],[157.5,58.04],[156.27,58.03],[156.45,57.42],[155.51,57.03],[155.05,54.39],[156.4,52.39],[155.85,51.85],[156.32,51.32],[155.23,51.08],[154.22,49.13],[153.26,49.11],[154.07,48.66],[158.93,51.84],[160.49,54.39],[162.79,54.54],[161.88,55.62],[164.23,56.34],[163.05,57.0],[163.76,57.51],[162.65,58.4],[168.53,60.46],[170.67,59.79],[170.8,60.41],[173.7,61.37],[177.58,62.48],[179.64,62.07],[179.98,62.68],[178.97,63.11],[179.78,67.11],[173.57,68.16],[179.08,69.06],[178.81,69.71],[176.65,70.15],[171.36,70.5],[166.79,69.63],[161.51,69.68],[160.85,70.53],[162.87,70.48],[162.57,70.91],[152.91,71.04],[150.31,71.64],[151.22,72.26],[150.52,72.41],[142.32,72.84],[144.57,73.51],[142.03,74.39],[139.6,74.21],[140.81,72.82],[138.61,72.63],[138.13,71.96],[131.54,71.99],[130.56,71.39],[129.57,71.71],[130.73,72.99],[127.38,73.93],[123.73,74.12],[121.49,73.32],[117.63,74.09],[113.95,73.68],[113.4,75.22],[109.6,74.73],[108.06,73.81],[103.66,74.31],[105.23,74.83],[104.62,75.02],[94.97,73.7],[93.91,74.52],[100.2,75.02],[99.61,76.11],[103.34,77.42],[107.49,76.23],[110.53,76.74],[104.12,77.9],[108.17,78.25],[105.41,78.62],[105.53,79.29],[104.67,79.49],[100.1,79.76],[97.26,81.44],[91.54,81.59],[88.29,80.88],[92.18,80.69],[89.17,79.99],[90.04,79.34],[97.49,78.71],[101.44,77.56],[100.01,77.26],[100.18,76.59],[94.9,77.15],[91.3,75.9],[82.0,74.44],[77.99,72.93],[76.91,73.76],[72.92,73.13],[70.15,73.84],[68.43,71.9],[66.69,71.64],[65.74,70.1],[66.38,69.44],[57.92,70.43],[55.56,71.87],[57.11,72.61],[56.78,73.22],[63.22,75.6],[69.56,76.05],[70.22,77.09],[66.03,77.35],[58.59,76.19],[65.04,76.13],[58.23,74.57],[56.99,75.22],[58.49,75.79],[54.7,75.46],[54.75,74.26],[50.12,71.75],[59.48,69.77],[56.92,68.75],[54.59,69.22],[47.65,67.96],[46.59,68.7],[43.28,68.81],[44.11,67.89],[42.37,67.06],[41.24,67.39],[41.21,68.15],[29.15,71.93],[22.95,72.12],[14.34,70.46],[12.89,68.78],[11.49,68.63],[12.33,68.19],[9.16,65.36],[4.4,64.04],[4.52,63.53],[0.63,62.02],[0.1,60.68],[-0.88,61.14],[-2.21,60.61],[-3.36,59.32],[-4.48,59.36],[-3.53,58.71],[-7.67,58.44],[-7.52,57.25],[-8.34,56.67],[-7.04,55.89],[-8.5,55.59],[-9.29,54.99],[-9.02,54.41],[-10.75,54.44],[-10.54,53.17],[-17.34,47.82],[-33.38,44.64],[-38.41,39.89],[-39.22,37.79],[-37.23,36.6],[-37.33,35.93],[-34.58,34.69],[-31.2,31.0],[-27.03,28.99],[-25.0,26.48],[-23.74,23.3],[-25.3,19.74],[-24.88,17.74],[-25.73,17.19],[-24.76,16.33],[-26.24,13.67],[-24.93,11.22],[-22.24,11.76],[-16.8,8.49],[-15.38,6.84],[-13.48,5.97],[-10.53,5.97],[-7.79,4.08],[-5.22,5.13],[-1.4,4.61],[1.26,5.87],[4.69,4.66],[4.99,0.58],[9.26,-1.97],[12.01,-5.34],[13.3,-8.38],[12.5,-9.1],[13.58,-12.23],[12.07,-13.43],[11.24,-17.54],[14.39,-22.52],[14.12,-24.0],[8.27,-20.99],[5.88,-18.3],[5.07,-14.24],[3.03,-12.3],[-1.79,-10.35],[-13.31,-9.18],[-14.71,-10.09],[-29.67,-11.64],[-29.85,-10.66],[-27.98,-8.99],[-25.96,-9.43],[-16.46,-7.53],[-15.26,-6.05],[-15.32,-4.77],[-17.5,-3.12],[-25.0,-1.19],[-29.14,-1.7],[-31.89,-0.92],[-34.94,-1.2],[-41.23,1.34],[-47.99,0.05],[-49.21,0.74],[-50.86,2.75],[-50.87,4.14],[-52.64,5.68],[-55.33,6.39],[-56.75,5.99],[-58.15,6.91],[-58.28,7.84],[-61.02,9.82],[-60.23,11.26],[-61.46,11.43],[-60.91,13.14],[-58.73,14.77],[-58.14,16.24],[-59.42,20.26],[-61.78,22.42],[-61.35,24.49],[-60.16,26.5],[-56.55,28.19],[-53.72,28.27],[-52.64,29.49],[-50.3,30.07],[-50.68,32.25],[-52.1,33.34],[-50.9,34.62],[-51.2,35.94],[-49.46,37.37],[-46.37,37.72],[-45.94,38.73],[-50.46,41.56],[-58.55,42.09],[-57.02,43.89],[-52.05,45.22],[-50.53,46.96],[-52.88,48.5],[-53.42,49.77],[-56.01,50.25],[-54.81,50.65],[-55.54,51.09],[-54.71,51.5],[-55.4,52.37],[-55.07,53.43],[-59.42,55.42],[-61.04,57.38],[-60.83,58.04],[-63.35,59.31],[-63.17,59.98],[-64.83,60.82],[-66.33,59.18],[-68.31,59.06],[-69.56,59.87],[-67.43,60.69],[-69.25,61.47],[-70.5,61.15],[-74.11,63.1],[-76.08,62.42],[-76.72,63.04],[-76.1,64.03],[-73.59,63.83],[-71.89,62.62],[-64.37,61.28],[-64.51,62.16],[-63.47,62.64],[-64.65,63.05],[-63.59,63.52],[-63.71,64.41],[-64.96,64.81],[-62.3,65.1],[-60.23,66.65],[-66.95,68.94],[-65.66,69.42],[-67.23,69.81],[-67.53,70.67],[-76.21,72.82],[-76.75,73.88],[-78.27,73.98],[-77.64,72.93],[-81.03,73.52],[-79.81,74.07],[-80.29,74.47],[-78.05,75.09],[-79.25,75.65],[-76.99,76.88],[-77.49,77.28],[-74.66,77.84],[-79.39,77.37],[-78.82,76.98],[-80.32,76.44],[-88.57,76.56],[-89.37,76.93],[-86.5,77.01],[-87.15,77.61],[-83.95,77.9],[-91.96,78.47],[-92.96,79.05],[-91.79,79.4],[-96.41,79.82],[-94.07,80.54],[-95.37,80.87],[-101.18,79.95],[-96.27,79.13],[-105.52,79.55],[-107.17,79.0],[-105.79,78.71],[-106.45,78.32]],[[96.84,38.04],[95.28,37.95],[97.29,38.84],[97.95,38.4],[96.84,38.04]],[[-133.78,64.21],[-139.28,64.84],[-127.9,65.13],[-126.83,64.31],[-127.06,63.7],[-124.62,62.42],[-124.65,61.6],[-126.05,62.05],[-128.08,61.07],[-129.47,61.48],[-130.63,63.08],[-132.04,63.06],[-131.18,63.48],[-132.32,64.26],[-133.78,64.21]],[[77.97,34.92],[76.82,35.84],[78.7,36.07],[79.31,34.62],[81.68,34.59],[79.51,35.99],[84.85,36.11],[85.97,37.34],[91.46,36.78],[93.17,34.76],[91.36,34.26],[93.3,32.62],[90.42,32.76],[89.79,33.61],[87.76,33.18],[85.31,34.4],[84.26,33.91],[84.03,35.01],[85.34,35.13],[84.84,35.87],[82.99,35.73],[82.46,34.98],[82.98,34.26],[79.34,34.13],[77.97,34.92]],[[-86.21,66.81],[-86.66,67.22],[-85.26,67.92],[-85.72,68.32],[-84.23,69.02],[-85.16,69.82],[-82.65,69.7],[-81.81,68.88],[-82.72,68.29],[-81.55,67.05],[-84.68,66.35],[-86.21,66.81]],[[128.9,72.45],[125.01,72.48],[128.55,72.02],[128.44,71.34],[131.13,70.65],[130.41,69.8],[131.46,69.23],[130.94,69.06],[131.94,68.49],[131.1,67.9],[132.05,67.33],[131.09,66.08],[132.42,65.68],[135.04,67.16],[137.55,66.54],[137.65,67.95],[135.74,68.23],[136.72,68.8],[135.84,69.4],[136.29,69.81],[141.44,70.0],[140.33,69.2],[141.76,68.22],[139.58,67.39],[144.8,65.85],[145.34,66.23],[142.5,67.09],[143.03,67.48],[149.58,65.41],[148.42,64.69],[149.33,63.92],[148.78,63.56],[149.18,62.93],[146.77,62.85],[146.72,61.87],[148.48,61.11],[140.4,61.06],[138.39,60.12],[138.21,60.84],[136.78,61.12],[137.89,62.05],[137.39,63.76],[127.29,64.5],[127.74,65.33],[126.19,66.58],[126.85,67.19],[125.79,67.73],[127.82,70.48],[122.23,71.06],[124.75,72.05],[119.95,72.7],[126.16,73.55],[129.27,72.88],[128.9,72.45]],[[-92.68,71.48],[-94.03,71.97],[-93.32,72.59],[-87.12,73.75],[-86.4,73.61],[-87.64,72.29],[-85.87,71.36],[-83.78,71.4],[-85.67,71.85],[-84.69,72.44],[-85.24,72.83],[-82.54,73.59],[-80.44,72.23],[-75.85,72.4],[-74.63,71.39],[-72.3,71.54],[-67.96,69.78],[-69.22,69.29],[-67.65,68.92],[-68.88,68.42],[-66.82,68.51],[-62.1,66.2],[-64.79,65.49],[-65.23,66.14],[-67.86,66.48],[-67.84,65.37],[-64.48,63.72],[-66.1,63.22],[-68.84,63.75],[-66.79,62.51],[-67.55,62.25],[-73.04,64.56],[-70.3,64.55],[-70.83,65.86],[-68.97,65.98],[-68.89,66.65],[-70.99,66.97],[-72.71,67.74],[-72.73,68.41],[-77.36,69.83],[-77.52,70.49],[-86.94,70.27],[-87.47,70.66],[-86.68,71.01],[-89.24,71.57],[-89.8,72.2],[-89.0,72.56],[-89.69,72.69],[-91.21,72.22],[-90.57,71.84],[-91.35,71.23],[-90.14,70.47],[-92.68,71.48]],[[-70.16,-33.28],[-70.53,-30.73],[-68.64,-24.45],[-67.64,-26.72],[-69.71,-29.93],[-69.29,-34.29],[-70.4,-34.8],[-70.16,-33.28]],[[139.61,42.47],[139.65,39.29],[137.71,38.19],[135.89,40.07],[135.67,42.71],[136.94,45.14],[140.93,49.1],[140.75,51.26],[141.35,51.71],[142.06,51.3],[141.48,50.64],[141.94,47.94],[140.91,45.97],[141.69,45.6],[140.87,45.5],[141.25,43.85],[139.61,42.47]],[[18.0,-27.0],[16.85,-27.67],[16.61,-26.64],[15.81,-26.67],[17.44,-25.56],[16.78,-24.32],[17.23,-23.45],[21.09,-22.99],[22.16,-23.98],[21.72,-24.88],[20.2,-24.77],[19.37,-25.88],[19.56,-27.55],[20.48,-28.33],[18.18,-28.65],[18.0,-27.0]],[[-68.19,38.87],[-65.75,41.47],[-61.41,41.19],[-63.21,37.83],[-61.69,36.82],[-62.25,36.42],[-64.52,37.53],[-67.93,37.37],[-68.19,38.87]],[[-64.13,59.51],[-63.04,58.65],[-63.96,58.18],[-63.85,57.3],[-65.06,57.47],[-65.47,58.56],[-64.13,59.51]],[[108.14,-4.7],[110.58,-6.58],[105.98,-5.29],[106.31,-4.23],[108.14,-4.7]],[[116.24,58.16],[118.66,57.45],[118.11,56.69],[120.7,57.52],[119.92,56.98],[120.72,56.52],[119.05,55.66],[116.75,55.98],[115.94,56.79],[116.84,57.15],[116.24,58.16]],[[-78.66,65.11],[-78.08,64.26],[-79.6,63.36],[-77.41,62.72],[-79.55,62.43],[-82.2,63.2],[-79.77,64.03],[-82.94,65.21],[-82.14,65.8],[-82.51,66.22],[-80.3,67.22],[-81.54,68.22],[-80.61,68.8],[-81.0,69.21],[-79.42,68.7],[-80.38,68.13],[-78.07,67.94],[-76.98,66.91],[-73.14,67.26],[-74.81,66.67],[-74.5,65.56],[-77.62,65.93],[-78.66,65.11]],[[-93.49,65.82],[-95.09,65.94],[-94.57,66.58],[-95.14,66.95],[-92.35,67.09],[-94.03,67.72],[-91.6,68.98],[-88.77,68.05],[-86.87,66.46],[-90.29,65.79],[-88.31,64.97],[-88.9,64.61],[-92.98,65.19],[-93.49,65.82]],[[-59.47,48.56],[-59.66,47.51],[-61.69,48.08],[-61.17,49.15],[-62.54,49.73],[-60.23,49.81],[-57.28,51.32],[-59.47,48.56]],[[92.99,70.07],[94.46,70.47],[95.01,70.3],[94.21,69.99],[94.62,69.59],[98.15,70.16],[99.13,68.92],[100.73,68.61],[97.99,68.16],[98.15,67.52],[95.4,67.67],[90.95,69.58],[92.99,70.07]],[[116.17,73.44],[117.95,73.42],[117.39,72.76],[114.84,73.23],[116.17,73.44]],[[-97.9,73.98],[-99.21,73.21],[-100.94,73.88],[-97.9,73.98]],[[20.02,-30.21],[18.15,-29.67],[20.1,-28.56],[20.02,-30.21]],[[170.06,67.38],[167.54,67.9],[170.6,67.84],[171.08,67.21],[170.06,67.38]],[[-144.62,61.91],[-144.84,62.46],[-143.0,62.83],[-140.75,62.29],[-141.08,61.66],[-139.31,61.23],[-138.5,61.93],[-137.3,61.26],[-138.55,61.18],[-138.19,59.84],[-142.19,60.13],[-144.3,60.63],[-142.25,60.87],[-142.4,61.41],[-144.62,61.91]],[[-89.67,69.58],[-90.23,69.97],[-88.84,70.44],[-85.93,69.48],[-86.9,68.37],[-89.67,69.58]],[[-88.58,74.03],[-89.26,74.4],[-88.35,74.75],[-94.04,75.62],[-93.17,75.98],[-79.68,75.18],[-81.88,74.55],[-86.72,74.72],[-81.53,73.92],[-88.58,74.03]],[[95.58,79.05],[93.79,79.63],[95.63,80.21],[93.87,81.03],[96.55,80.95],[99.38,79.27],[95.58,79.05]],[[-156.42,67.59],[-155.39,68.33],[-150.4,68.29],[-145.58,69.4],[-141.71,69.13],[-149.45,67.59],[-156.42,67.59]],[[-148.05,61.32],[-149.56,61.97],[-148.59,62.62],[-145.58,61.51],[-148.05,61.32]],[[-66.38,49.5],[-65.9,50.18],[-64.68,49.83],[-66.38,49.5]],[[-145.78,63.47],[-144.05,63.42],[-144.3,62.77],[-147.94,63.61],[-148.09,62.95],[-152.46,62.46],[-152.9,61.9],[-151.67,61.61],[-153.35,60.47],[-154.59,61.83],[-150.6,63.61],[-145.78,63.47]],[[-102.3,76.72],[-103.42,77.03],[-101.85,77.58],[-96.93,77.36],[-102.3,76.72]],[[95.89,76.08],[98.36,75.8],[96.96,75.24],[90.95,75.16],[95.89,76.08]],[[112.92,56.48],[113.54,57.06],[115.5,56.81],[112.92,56.48]],[[-83.14,64.7],[-85.28,64.58],[-83.98,65.28],[-83.14,64.7]],[[-78.74,62.08],[-78.48,61.65],[-79.39,61.75],[-78.74,62.08]],[[111.35,70.81],[111.87,69.72],[108.82,69.02],[105.21,69.32],[104.8,70.17],[106.07,70.67],[104.37,71.03],[108.82,71.63],[111.35,70.81]],[[115.78,-4.44],[115.2,-4.49],[115.87,-3.75],[115.78,-4.44]],[[73.35,66.91],[72.21,67.08],[74.55,68.19],[73.35,66.91]],[[-115.63,75.76],[-112.23,75.84],[-114.72,75.1],[-115.91,75.35],[-115.63,75.76]],[[-25.92,-25.18],[-25.55,-25.72],[-26.61,-26.33],[-27.13,-25.08],[-25.92,-25.18]],[[170.55,61.64],[169.31,62.4],[170.91,62.5],[171.29,61.89],[170.55,61.64]],[[45.51,67.35],[47.57,67.57],[47.18,66.99],[45.51,67.35]],[[-124.81,57.56],[-125.62,58.0],[-125.4,58.59],[-124.16,58.13],[-124.81,57.56]],[[-78.24,68.6],[-78.58,69.02],[-77.9,69.09],[-77.07,68.5],[-78.24,68.6]],[[-72.25,61.45],[-70.35,60.71],[-72.58,60.28],[-75.17,60.69],[-76.9,61.86],[-73.7,62.22],[-72.25,61.45]],[[-95.34,70.71],[-96.02,71.07],[-95.39,71.46],[-94.03,71.47],[-92.12,70.11],[-95.93,70.08],[-95.34,70.71]],[[162.77,60.74],[162.07,61.08],[163.58,61.26],[162.77,60.74]],[[-101.11,76.17],[-97.66,76.52],[-98.45,76.14],[-97.44,75.56],[-99.83,75.13],[-101.79,75.78],[-101.11,76.17]],[[-94.04,72.7],[-95.48,72.69],[-94.78,73.31],[-95.56,73.66],[-94.82,74.04],[-90.99,73.69],[-94.04,72.7]],[[120.49,-0.67],[120.62,0.29],[121.43,0.15],[121.04,-1.14],[120.49,-0.67]],[[165.95,66.91],[167.87,67.04],[168.41,66.42],[165.95,66.91]],[[39.14,66.13],[39.95,65.98],[38.99,65.15],[37.34,65.81],[39.14,66.13]],[[-115.59,44.93],[-113.83,43.92],[-114.97,43.76],[-115.59,44.93]],[[94.67,33.59],[95.23,34.01],[95.56,33.28],[94.67,33.59]],[[149.94,59.14],[149.58,59.51],[150.42,59.48],[149.94,59.14]],[[-137.1,58.56],[-137.89,59.09],[-136.86,59.53],[-137.1,58.56]],[[164.91,65.07],[163.71,65.62],[164.7,66.15],[166.89,65.45],[164.91,65.07]],[[-96.43,74.5],[-95.6,74.15],[-97.15,74.12],[-96.43,74.5]],[[103.76,79.01],[103.74,78.34],[101.2,78.9],[103.76,79.01]],[[74.0,72.57],[74.87,72.24],[73.55,72.19],[74.0,72.57]],[[139.07,57.05],[139.53,56.72],[138.76,56.69],[139.07,57.05]],[[112.84,71.26],[112.76,72.13],[113.99,71.92],[112.84,71.26]],[[163.39,64.49],[162.18,65.03],[163.34,65.15],[163.39,64.49]],[[157.05,63.24],[159.06,63.31],[157.76,62.68],[157.05,63.24]],[[-77.36,64.57],[-77.64,65.0],[-76.62,64.89],[-77.36,64.57]]],[[[73.13,-53.45],[74.34,-52.95],[72.99,-52.82],[73.13,-53.45]]],[[[-142.17,-17.75],[-142.9,-16.86],[-142.11,-15.68],[-143.5,-16.18],[-144.65,-14.01],[-145.67,-14.33],[-150.12,-13.02],[-155.65,-13.98],[-158.19,-16.62],[-158.42,-17.9],[-156.88,-19.22],[-153.83,-19.85],[-147.68,-19.0],[-143.54,-17.02],[-142.8,-17.49],[-143.58,-17.86],[-141.83,-18.82],[-142.17,-17.75]]],[[[-15.94,63.91],[-12.72,65.27],[-14.59,66.59],[-18.15,66.83],[-19.81,66.09],[-23.36,66.67],[-25.38,65.52],[-24.08,65.16],[-24.6,64.58],[-22.46,64.43],[-23.0,63.86],[-21.33,63.82],[-20.32,62.98],[-15.94,63.91]]],[[[140.99,-15.99],[140.04,-17.35],[139.85,-16.17],[138.63,-16.79],[136.47,-15.41],[135.97,-14.52],[137.11,-14.36],[137.08,-10.89],[134.24,-11.85],[133.16,-10.45],[129.96,-11.07],[129.81,-12.0],[130.42,-12.23],[129.34,-14.71],[126.94,-13.54],[124.7,-14.21],[124.04,-15.64],[123.01,-15.51],[122.01,-16.6],[122.16,-18.14],[120.68,-19.66],[118.69,-19.56],[118.8,-20.1],[116.62,-20.2],[115.94,-20.89],[115.29,-20.11],[115.32,-21.2],[113.74,-21.68],[112.64,-25.89],[114.86,-29.27],[113.66,-31.63],[115.85,-35.18],[119.9,-34.94],[137.01,-39.07],[140.88,-39.37],[144.62,-40.53],[144.18,-41.1],[145.15,-43.17],[147.4,-43.99],[148.48,-43.23],[148.34,-39.5],[152.41,-37.48],[163.89,-37.56],[171.73,-39.98],[174.13,-39.64],[175.08,-40.65],[172.84,-40.14],[170.62,-42.93],[167.22,-44.37],[166.09,-46.15],[167.71,-47.65],[171.26,-46.18],[170.9,-45.6],[171.65,-44.44],[173.07,-44.18],[172.95,-43.22],[174.4,-41.59],[175.81,-41.8],[178.08,-39.54],[178.94,-37.33],[176.69,-37.5],[175.92,-35.86],[173.18,-34.12],[172.44,-34.3],[172.52,-35.05],[169.86,-33.96],[168.73,-32.24],[166.92,-31.41],[166.88,-30.4],[164.84,-28.15],[166.26,-26.65],[170.62,-24.99],[177.22,-24.43],[179.8,-23.16],[179.67,-14.15],[171.48,-14.56],[168.69,-15.62],[166.55,-14.44],[167.27,-16.83],[165.15,-18.63],[158.15,-19.63],[156.95,-20.4],[149.52,-20.46],[148.07,-18.11],[145.66,-16.63],[145.82,-14.67],[144.5,-13.69],[143.8,-13.94],[142.95,-10.35],[143.74,-9.62],[144.32,-10.07],[143.6,-9.23],[144.29,-7.85],[146.0,-8.11],[147.33,-10.25],[154.39,-11.72],[154.5,-11.04],[151.42,-9.96],[151.19,-8.96],[152.28,-9.83],[153.18,-9.46],[152.91,-8.71],[150.32,-8.0],[150.74,-9.15],[149.82,-9.5],[147.26,-7.18],[148.38,-5.86],[148.7,-6.4],[151.28,-6.29],[154.04,-3.88],[152.65,-3.53],[152.65,-2.41],[151.33,-2.69],[149.48,-1.11],[149.62,-2.66],[151.97,-3.8],[150.64,-5.21],[150.32,-4.66],[149.54,-5.41],[149.07,-4.46],[148.7,-5.28],[146.31,-5.28],[146.44,-4.55],[144.53,-2.96],[142.28,-3.1],[138.13,-1.1],[137.17,-1.46],[136.23,-0.39],[134.55,-1.0],[131.34,-0.06],[131.55,1.19],[130.88,1.18],[130.71,0.18],[129.18,0.31],[129.11,2.64],[128.49,2.87],[127.28,2.17],[126.93,-1.46],[128.13,-2.18],[129.34,-1.51],[130.23,-2.81],[128.09,-2.43],[125.75,-3.51],[126.94,-4.23],[127.7,-3.5],[128.05,-4.06],[130.11,-3.55],[132.95,-6.46],[133.64,-5.07],[132.49,-5.25],[130.66,-2.89],[131.49,-1.89],[131.52,-3.04],[132.58,-3.36],[133.05,-4.59],[133.84,-3.84],[137.98,-5.82],[138.4,-7.28],[137.72,-7.29],[137.27,-8.59],[140.0,-8.29],[140.5,-9.24],[142.22,-9.51],[140.99,-15.99]],[[135.32,-3.07],[135.1,-1.75],[136.17,-2.06],[135.32,-3.07]],[[129.41,-32.02],[131.89,-31.96],[129.58,-32.84],[127.75,-32.53],[129.41,-32.02]],[[146.43,-40.28],[147.62,-40.18],[146.89,-40.86],[145.5,-40.53],[146.43,-40.28]],[[128.05,0.12],[129.34,-0.1],[129.18,-1.1],[128.05,0.12]]],[[[-84.66,-78.8],[-78.41,-79.15],[-83.07,-78.22],[-84.66,-78.8]]],[[[-64.81,-81.19],[-72.02,-80.9],[-63.86,-81.85],[-61.3,-81.61],[-64.81,-81.19]]],[[[55.53,-5.01],[56.08,-4.42],[55.33,-3.52],[55.54,-4.22],[54.89,-4.46],[55.53,-5.01]]],[[[-50.16,69.14],[-51.1,69.42],[-50.58,70.69],[-55.78,72.84],[-55.22,73.46],[-56.87,73.93],[-56.31,74.54],[-58.1,75.0],[-57.54,75.61],[-58.01,75.83],[-62.63,76.48],[-68.26,76.2],[-70.92,76.95],[-69.03,77.42],[-71.58,78.38],[-64.64,79.32],[-74.42,78.69],[-71.05,79.82],[-65.59,79.92],[-65.21,80.51],[-66.06,80.71],[-58.45,82.26],[-63.72,82.28],[-66.32,81.1],[-69.95,80.85],[-70.07,80.24],[-76.74,79.41],[-75.97,78.41],[-73.15,78.12],[-72.36,77.32],[-73.79,77.05],[-73.4,76.64],[-59.03,75.43],[-59.52,74.81],[-56.54,73.28],[-57.12,72.23],[-54.59,71.09],[-55.29,69.61],[-53.99,69.12],[-54.76,67.19],[-53.59,66.71],[-54.14,65.64],[-50.6,61.93],[-48.04,60.41],[-43.54,59.49],[-42.42,59.79],[-43.12,60.32],[-41.96,60.61],[-42.67,61.15],[-41.24,61.84],[-41.7,62.8],[-40.45,63.07],[-39.59,64.28],[-40.34,64.84],[-33.05,66.58],[-31.78,67.95],[-25.56,68.48],[-20.82,70.49],[-21.18,71.1],[-20.48,71.42],[-21.89,72.55],[-16.53,75.13],[-19.09,75.74],[-17.47,76.96],[-18.01,77.35],[-15.76,77.94],[-18.25,78.18],[-15.89,79.33],[-17.24,79.85],[-9.73,81.7],[-17.27,81.77],[-20.95,83.05],[-27.6,81.75],[-22.01,81.61],[-23.83,81.33],[-22.96,80.98],[-14.09,81.26],[-22.14,79.62],[-21.46,79.02],[-24.63,78.29],[-23.82,77.92],[-24.86,77.36],[-23.32,76.85],[-25.15,75.96],[-19.89,75.66],[-21.67,75.03],[-21.2,74.42],[-23.32,74.37],[-21.48,73.72],[-24.84,73.7],[-24.3,73.1],[-25.66,72.65],[-22.87,71.28],[-26.39,71.59],[-25.85,70.99],[-27.62,69.93],[-23.21,69.86],[-26.59,68.73],[-31.87,68.44],[-36.83,65.88],[-37.99,66.29],[-40.7,65.56],[-43.49,61.03],[-48.38,61.54],[-48.4,62.2],[-51.15,63.73],[-49.96,64.75],[-53.19,65.82],[-52.6,66.88],[-53.75,67.37],[-50.43,67.63],[-51.57,68.14],[-50.16,69.14]],[[-23.14,72.59],[-23.68,72.96],[-22.41,72.92],[-23.14,72.59]]],[[[164.74,6.05],[166.1,6.53],[166.07,8.17],[164.16,8.79],[161.88,7.83],[162.59,6.57],[164.74,6.05]]],[[[144.22,-0.98],[143.85,-1.82],[145.23,-1.54],[144.22,-0.98]]],[[[156.62,-6.33],[154.39,-5.28],[155.17,-7.57],[156.65,-7.18],[156.39,-8.57],[156.86,-8.16],[157.28,-9.03],[159.39,-9.17],[159.32,-9.81],[160.54,-10.32],[160.98,-9.29],[160.94,-10.56],[162.78,-10.99],[160.64,-7.58],[159.94,-8.31],[156.62,-6.33]],[[159.31,-8.58],[158.68,-8.85],[157.55,-7.65],[159.31,-8.58]]],[[[52.02,81.04],[43.07,80.91],[46.32,79.93],[59.66,79.49],[63.2,80.68],[68.1,80.94],[59.34,82.04],[52.02,81.04]]],[[[-173.36,60.2],[-171.64,60.29],[-173.53,61.02],[-173.36,60.2]]],[[[-176.2,-43.62],[-177.27,-43.72],[-176.17,-44.68],[-176.2,-43.62]]],[[[114.91,75.88],[115.45,76.1],[113.26,76.99],[111.63,76.76],[113.89,75.44],[114.91,75.88]]],[[[-123.06,-74.81],[-103.84,-75.21],[-115.65,-73.67],[-120.02,-74.51],[-120.52,-74.33],[-119.44,-73.67],[-126.79,-73.09],[-128.01,-73.3],[-127.73,-73.89],[-123.06,-74.81]]],[[[-89.78,-1.36],[-88.94,-0.79],[-90.29,-0.14],[-89.67,0.53],[-90.57,0.96],[-91.84,0.36],[-91.75,-1.37],[-89.78,-1.36]]],[[[-148.97,-80.8],[-165.14,-81.52],[-154.12,-82.28],[-157.64,-83.23],[-173.67,-82.7],[-174.33,-82.91],[-173.08,-83.08],[-173.76,-83.3],[-172.41,-83.47],[-173.11,-83.69],[-166.79,-84.33],[-170.55,-84.86],[-149.22,-85.33],[-147.52,-84.7],[-154.18,-83.69],[-141.82,-82.25],[-152.65,-81.91],[-139.43,-81.04],[-141.22,-80.76],[-140.83,-80.14],[-149.53,-79.65],[-157.68,-77.53],[-148.2,-78.01],[-144.76,-77.4],[-144.13,-77.03],[-145.4,-76.53],[-143.51,-75.62],[-123.94,-74.83],[-126.96,-74.28],[-130.5,-74.68],[-131.52,-74.08],[-141.08,-75.56],[-146.07,-75.44],[-153.1,-77.14],[-159.21,-76.87],[-158.55,-77.42],[-159.62,-77.75],[-157.99,-78.42],[-150.62,-79.8],[-151.63,-80.39],[-148.97,-80.8]],[[-161.96,-83.91],[-160.43,-84.28],[-164.51,-84.24],[-161.96,-83.91]]],[[[-118.07,28.68],[-118.24,29.42],[-118.61,28.83],[-118.07,28.68]]],[[[-36.09,-53.99],[-37.83,-53.62],[-38.61,-54.27],[-36.14,-55.12],[-35.39,-54.67],[-36.09,-53.99]]],[[[43.38,-24.67],[45.02,-25.97],[46.79,-25.54],[47.99,-23.97],[49.63,-17.37],[50.73,-15.81],[49.37,-11.84],[48.45,-12.04],[46.49,-15.51],[44.07,-16.04],[43.5,-17.7],[44.11,-19.98],[42.86,-22.21],[43.63,-23.33],[43.38,-24.67]]],[[[131.38,-6.56],[130.59,-8.64],[132.36,-7.36],[131.38,-6.56]]],[[[166.04,-10.94],[166.61,-10.03],[165.41,-9.97],[166.04,-10.94]]],[[[49.51,-67.97],[51.36,-67.18],[51.45,-66.36],[54.47,-66.15],[56.55,-67.57],[68.59,-68.19],[69.15,-69.02],[66.86,-70.3],[68.51,-70.62],[65.27,-73.19],[67.96,-73.48],[71.66,-71.68],[67.99,-71.96],[69.71,-70.74],[69.08,-69.91],[70.75,-69.32],[69.66,-68.31],[70.14,-67.6],[60.1,-67.46],[52.31,-65.75],[48.11,-66.7],[48.47,-67.53],[46.37,-67.05],[42.91,-67.88],[49.51,-67.97]]],[[[166.3,-73.5],[170.34,-73.62],[169.65,-72.97],[171.22,-72.68],[169.21,-72.53],[166.3,-73.5]]],[[[-179.47,71.0],[-178.82,70.55],[-177.03,71.37],[-179.27,71.87],[-179.47,71.0]]],[[[160.3,-11.27],[159.46,-11.44],[160.47,-12.27],[160.91,-11.64],[160.3,-11.27]]],[[[-171.25,-14.02],[-172.13,-13.2],[-172.94,-13.45],[-172.31,-14.22],[-171.25,-14.02]]],[[[127.52,-67.31],[128.4,-67.05],[126.91,-66.25],[124.18,-66.57],[127.52,-67.31]]],[[[129.4,-7.92],[129.74,-8.48],[130.25,-8.08],[129.51,-7.21],[130.18,-5.84],[129.13,-6.89],[129.4,-7.92]]],[[[106.89,-66.59],[108.59,-67.17],[112.27,-66.04],[114.95,-66.8],[113.82,-67.43],[117.82,-67.08],[115.88,-67.05],[115.67,-66.38],[112.4,-65.6],[108.79,-66.73],[106.49,-66.11],[106.89,-66.59]]],[[[-164.83,23.97],[-165.72,22.73],[-163.87,20.08],[-156.37,20.36],[-156.06,18.56],[-154.77,19.09],[-154.76,20.19],[-155.83,20.31],[-156.26,21.23],[-155.55,22.48],[-156.26,24.5],[-158.17,25.72],[-163.36,25.59],[-164.61,25.01],[-164.83,23.97]]],[[[97.38,-65.97],[85.43,-66.58],[82.55,-67.66],[105.01,-66.43],[105.26,-66.0],[102.36,-65.0],[102.38,-65.93],[99.85,-65.38],[99.65,-66.05],[100.39,-66.38],[99.91,-66.55],[97.38,-65.97]]],[[[145.29,13.44],[145.23,14.33],[144.36,13.36],[145.29,13.44]]],[[[-81.27,-72.67],[-82.71,-73.68],[-87.93,-72.48],[-94.96,-72.22],[-96.29,-71.51],[-102.98,-71.94],[-99.15,-72.73],[-105.54,-72.95],[-101.91,-74.52],[-102.98,-75.11],[-101.57,-75.63],[-98.12,-75.18],[-101.09,-74.41],[-98.56,-73.34],[-91.14,-73.73],[-89.82,-73.19],[-83.17,-74.09],[-80.62,-73.39],[-70.52,-73.63],[-67.73,-72.79],[-71.26,-73.17],[-71.18,-71.63],[-74.82,-71.73],[-69.75,-70.57],[-68.3,-71.03],[-68.88,-72.12],[-66.44,-72.58],[-66.01,-71.92],[-67.58,-71.47],[-67.09,-70.38],[-68.52,-69.94],[-65.95,-69.29],[-67.33,-68.86],[-67.23,-67.57],[-66.24,-67.35],[-66.27,-68.21],[-64.89,-69.07],[-62.72,-69.47],[-62.88,-71.01],[-61.23,-71.41],[-62.75,-71.88],[-61.02,-72.29],[-61.16,-73.4],[-59.76,-73.58],[-60.23,-70.72],[-61.85,-70.32],[-60.57,-69.41],[-63.16,-68.82],[-61.85,-68.36],[-63.89,-68.4],[-64.29,-67.33],[-60.5,-66.79],[-60.43,-65.71],[-61.45,-65.11],[-58.98,-65.42],[-58.86,-64.77],[-56.54,-64.61],[-56.48,-63.96],[-54.25,-63.12],[-56.38,-62.67],[-60.85,-63.59],[-61.78,-63.0],[-57.19,-61.89],[-60.32,-62.09],[-62.62,-62.82],[-62.52,-63.66],[-64.45,-64.35],[-64.41,-65.19],[-65.88,-65.0],[-67.14,-66.28],[-70.11,-67.32],[-69.91,-67.97],[-67.92,-67.99],[-68.4,-69.07],[-71.06,-68.59],[-76.16,-69.91],[-76.14,-70.56],[-77.87,-70.9],[-72.98,-73.12],[-76.09,-72.55],[-78.34,-73.31],[-81.27,-72.67]],[[-64.04,-66.25],[-64.32,-66.9],[-66.23,-66.92],[-63.22,-65.16],[-62.25,-65.78],[-64.04,-66.25]],[[-71.3,-69.45],[-70.49,-69.04],[-69.25,-69.93],[-71.3,-69.45]]],[[[18.61,-70.85],[26.94,-71.25],[32.42,-70.39],[25.68,-70.03],[25.06,-70.38],[26.91,-70.53],[26.3,-70.88],[19.97,-70.68],[18.9,-70.13],[17.46,-70.54],[16.04,-69.57],[15.25,-69.88],[15.66,-70.29],[11.46,-70.68],[18.61,-70.85]]],[[[-110.52,18.87],[-110.89,19.72],[-111.4,18.49],[-110.52,18.87]]],[[[80.78,-67.98],[81.96,-67.77],[79.7,-67.69],[76.08,-69.63],[73.06,-69.53],[70.75,-71.09],[73.7,-70.59],[73.44,-69.94],[76.52,-70.03],[80.78,-67.98]]],[[[89.16,77.34],[87.17,77.13],[90.95,77.04],[89.16,77.34]]],[[[-141.04,-17.62],[-141.43,-18.22],[-140.68,-18.68],[-141.04,-17.62]]],[[[-174.59,-21.25],[-172.86,-19.92],[-172.01,-17.93],[-173.66,-15.82],[-178.14,-13.89],[-179.52,-14.16],[-179.78,-23.07],[-174.59,-21.25]]],[[[-5.32,-71.67],[-2.11,-71.68],[-2.22,-70.37],[-4.5,-71.24],[-6.37,-70.56],[-9.33,-71.58],[-5.32,-71.67]]],[[[73.51,0.74],[72.73,0.35],[73.29,-0.04],[72.96,-0.97],[73.58,-0.94],[73.51,0.74]]],[[[-34.79,83.91],[-45.23,83.13],[-23.96,83.35],[-34.79,83.91]]],[[[44.35,-12.46],[45.01,-13.21],[45.48,-12.45],[43.13,-11.38],[43.38,-12.65],[44.35,-12.46]]],[[[80.26,80.89],[77.43,81.1],[80.48,80.39],[81.63,80.77],[80.26,80.89]]],[[[-30.93,65.45],[-30.5,65.82],[-31.45,65.79],[-30.93,65.45]]],[[[161.07,-70.99],[166.47,-70.63],[161.84,-70.24],[159.83,-69.28],[159.43,-69.65],[161.36,-70.39],[161.07,-70.99]]],[[[173.66,1.91],[172.75,2.11],[172.98,0.57],[173.66,1.91]]],[[[-82.08,82.86],[-96.72,81.43],[-83.1,80.11],[-81.22,80.64],[-82.35,80.78],[-90.15,80.89],[-88.52,81.45],[-89.64,81.8],[-87.88,82.14],[-78.91,82.78],[-82.08,82.86]]],[[[29.05,78.66],[31.41,79.28],[27.04,79.16],[29.46,80.02],[23.36,80.9],[8.74,79.83],[10.72,79.34],[9.38,78.83],[10.85,78.55],[10.66,77.98],[13.57,77.97],[13.27,77.4],[15.99,76.38],[18.41,76.53],[17.18,77.06],[19.38,77.85],[25.11,77.17],[24.12,77.74],[25.02,78.06],[21.74,79.09],[29.05,78.66]],[[19.63,79.08],[17.34,78.05],[15.45,79.02],[19.63,79.08]],[[23.75,79.53],[20.09,80.1],[27.12,80.07],[23.75,79.53]],[[16.04,77.36],[14.84,77.67],[16.67,77.71],[16.04,77.36]]],[[[172.78,3.4],[172.66,2.74],[173.27,3.14],[172.78,3.4]]],[[[-72.08,-77.58],[-74.8,-77.27],[-74.89,-76.6],[-78.46,-76.89],[-73.51,-77.98],[-72.08,-77.58]]],[[[-165.97,-79.32],[-161.17,-80.2],[-158.47,-79.54],[-161.19,-78.74],[-165.97,-79.32]]],[[[165.68,9.96],[166.46,10.27],[165.68,10.52],[165.68,9.96]]],[[[47.98,69.47],[47.54,68.91],[48.69,68.53],[50.78,69.29],[47.98,69.47]]],[[[54.74,12.36],[53.65,13.04],[52.86,12.11],[54.74,12.36]]],[[[-6.84,62.49],[-7.76,61.97],[-6.33,61.22],[-6.6,61.76],[-5.67,62.26],[-6.84,62.49]]],[[[174.77,-0.85],[173.99,-0.51],[175.09,-1.68],[174.77,-0.85]]],[[[71.61,-6.13],[70.96,-6.16],[71.28,-6.91],[71.61,-6.13]]],[[[-12.95,-72.32],[-16.61,-73.24],[-13.99,-73.39],[-10.44,-72.43],[-10.13,-71.55],[-12.31,-71.01],[-12.95,-72.32]]],[[[167.24,-70.92],[171.6,-71.92],[168.1,-70.6],[167.24,-70.92]]],[[[-61.84,-51.93],[-59.32,-53.23],[-57.37,-51.55],[-61.39,-50.99],[-61.84,-51.93]]],[[[166.54,11.04],[168.05,11.45],[166.54,11.61],[166.54,11.04]]],[[[141.87,75.16],[138.4,75.08],[137.2,75.69],[137.9,76.11],[136.91,76.2],[134.45,75.71],[138.63,74.57],[151.4,74.98],[147.2,75.95],[141.87,75.16]]],[[[165.92,55.34],[165.92,54.74],[167.56,54.31],[168.67,54.82],[165.92,55.34]]],[[[-158.65,-19.18],[-158.27,-20.12],[-157.02,-20.09],[-158.65,-19.18]]],[[[-73.23,-80.43],[-75.25,-80.16],[-75.33,-79.49],[-78.1,-80.06],[-75.69,-80.59],[-76.69,-80.78],[-76.17,-81.02],[-73.23,-80.43]]],[[[-85.17,79.11],[-82.74,79.28],[-84.61,79.79],[-85.87,79.7],[-85.17,79.11]]],[[[40.76,-68.63],[36.3,-69.69],[34.14,-68.7],[31.92,-68.75],[32.66,-69.32],[32.19,-69.69],[33.8,-69.3],[39.03,-70.27],[40.01,-69.15],[42.85,-68.47],[40.76,-68.63]]],[[[167.55,-13.48],[166.7,-12.8],[166.3,-13.22],[167.35,-13.59],[167.6,-14.59],[168.21,-14.49],[167.55,-13.48]]],[[[-140.53,-9.06],[-140.19,-9.67],[-139.31,-8.8],[-140.31,-8.51],[-140.53,-9.06]]],[[[-140.51,-15.59],[-141.25,-15.95],[-139.91,-16.25],[-140.51,-15.59]]],[[[55.29,-21.44],[55.98,-21.47],[55.73,-20.64],[55.06,-20.62],[55.29,-21.44]]],[[[-76.67,-78.77],[-75.84,-78.57],[-75.88,-77.9],[-81.33,-77.87],[-76.67,-78.77]]],[[[68.34,-49.6],[70.38,-49.98],[71.07,-48.98],[68.58,-48.32],[68.34,-49.6]]],[[[134.72,8.08],[133.91,7.3],[134.22,6.47],[135.03,7.25],[135.2,8.26],[134.72,8.08]]],[[[146.52,-1.76],[146.29,-3.0],[148.36,-2.45],[147.23,-1.49],[146.52,-1.76]]],[[[56.91,-20.52],[57.79,-20.71],[58.03,-19.73],[56.91,-20.52]]],[[[169.8,9.82],[170.22,8.77],[170.56,9.56],[169.8,9.82]]],[[[166.08,-78.64],[168.67,-78.32],[167.13,-78.11],[167.93,-77.33],[166.77,-77.06],[165.2,-78.0],[166.82,-78.47],[166.08,-78.64]]],[[[106.04,-10.49],[105.24,-10.24],[105.58,-10.92],[106.04,-10.49]]],[[[134.94,-5.3],[134.07,-5.15],[133.78,-6.86],[134.56,-7.5],[134.94,-5.3]]],[[[121.89,-10.82],[122.21,-10.08],[121.34,-10.35],[121.89,-10.82]]],[[[102.81,-5.22],[101.93,-5.4],[102.31,-5.91],[102.81,-5.22]]],[[[-9.89,71.0],[-7.05,71.03],[-7.59,71.58],[-9.89,71.0]]],[[[165.62,-50.97],[166.29,-51.17],[166.9,-50.2],[165.62,-50.97]]],[[[163.61,-77.26],[163.09,-77.64],[164.74,-77.55],[163.61,-77.26]]],[[[-138.81,-18.99],[-139.43,-18.34],[-139.44,-19.59],[-138.44,-19.63],[-138.81,-18.99]]],[[[167.54,9.68],[166.53,9.34],[167.52,8.57],[168.15,9.03],[167.54,9.68]]],[[[126.89,3.9],[127.28,4.99],[126.35,4.63],[126.89,3.9]]],[[[165.84,9.24],[165.15,9.13],[166.3,8.76],[165.84,9.24]]],[[[159.22,-5.04],[158.93,-5.59],[160.05,-5.75],[159.22,-5.04]]],[[[139.6,9.86],[140.77,10.04],[139.69,10.36],[139.6,9.86]]],[[[87.35,34.39],[87.42,35.36],[85.87,35.38],[87.35,34.39]]],[[[155.47,-68.47],[153.41,-68.73],[155.58,-69.18],[156.08,-69.05],[155.47,-68.47]]],[[[-169.73,-18.67],[-170.34,-18.97],[-169.71,-19.55],[-169.73,-18.67]]],[[[170.88,6.89],[172.33,7.26],[170.91,7.43],[170.88,6.89]]],[[[4.8,-71.08],[6.09,-70.59],[3.7,-70.25],[-0.95,-71.45],[4.8,-71.08]]],[[[-25.35,-76.04],[-23.73,-75.71],[-27.32,-75.85],[-25.35,-76.04]]],[[[-60.92,-74.28],[-62.37,-74.09],[-61.75,-74.74],[-60.92,-74.28]]],[[[-43.53,-78.4],[-44.95,-78.74],[-42.69,-78.81],[-43.53,-78.4]]],[[[171.29,8.74],[170.62,9.2],[170.8,8.13],[171.4,8.03],[171.29,8.74]]],[[[83.43,76.41],[81.04,75.3],[83.53,74.93],[82.65,75.55],[84.33,76.29],[83.43,76.41]]],[[[-169.81,16.32],[-169.17,16.92],[-169.76,17.16],[-169.81,16.32]]],[[[158.71,6.76],[157.81,7.33],[158.06,6.54],[158.71,6.76]]],[[[-168.53,63.32],[-170.55,64.13],[-172.72,63.65],[-169.13,62.75],[-168.53,63.32]]],[[[33.01,80.04],[35.55,80.19],[33.55,80.73],[30.79,80.34],[33.01,80.04]]],[[[51.31,-9.49],[50.63,-9.0],[50.8,-9.81],[51.31,-9.49]]],[[[-143.04,-20.65],[-143.67,-19.97],[-143.71,-20.83],[-143.04,-20.65]]],[[[127.97,-7.28],[128.86,-7.21],[128.51,-6.65],[127.97,-7.28]]],[[[177.92,51.71],[179.69,51.53],[178.83,52.34],[177.25,52.31],[177.36,51.5],[177.92,51.71]]],[[[96.87,-11.7],[96.6,-12.46],[97.24,-12.39],[96.87,-11.7]]],[[[-59.07,13.01],[-59.56,13.57],[-59.89,13.05],[-59.07,13.01]]],[[[162.99,-74.44],[162.07,-75.21],[163.47,-75.13],[163.9,-74.74],[162.99,-74.44]]],[[[167.28,-11.85],[166.44,-10.96],[166.47,-11.82],[167.28,-11.85]]],[[[172.35,6.39],[171.36,6.08],[172.45,5.71],[172.35,6.39]]],[[[18.89,74.3],[20.31,74.3],[18.55,74.92],[17.87,74.81],[18.89,74.3]]],[[[-139.16,-10.34],[-138.82,-9.42],[-139.5,-9.74],[-139.16,-10.34]]],[[[-72.84,-78.89],[-72.6,-79.56],[-67.1,-80.08],[-66.35,-79.86],[-67.03,-79.64],[-66.26,-78.54],[-72.84,-78.89]]],[[[-45.58,-60.22],[-46.73,-60.85],[-44.1,-61.06],[-45.58,-60.22]]],[[[145.64,17.62],[146.23,17.13],[145.98,18.17],[145.64,17.62]]],[[[153.75,5.72],[152.98,6.13],[153.25,5.31],[153.75,5.72]]],[[[151.6,7.94],[151.28,7.37],[153.07,6.62],[151.6,7.94]]],[[[-26.86,-56.96],[-26.09,-56.91],[-27.79,-56.32],[-26.86,-56.96]]],[[[46.77,-9.79],[46.37,-9.0],[45.98,-9.51],[46.77,-9.79]]],[[[144.36,-66.82],[143.27,-67.0],[145.09,-67.84],[144.36,-66.82]]],[[[-45.04,-77.57],[-49.95,-78.13],[-44.31,-77.98],[-45.04,-77.57]]],[[[-43.46,81.83],[-48.6,83.04],[-54.25,82.0],[-43.46,81.83]]],[[[120.73,-67.3],[122.3,-66.62],[118.47,-67.08],[120.73,-67.3]]],[[[145.55,16.03],[146.24,16.02],[145.94,16.82],[145.55,16.03]]],[[[176.14,-1.52],[176.76,-1.46],[176.22,-1.02],[176.14,-1.52]]],[[[151.37,46.85],[152.55,46.73],[153.65,48.34],[151.37,46.85]]],[[[-159.69,3.69],[-159.1,3.4],[-159.0,4.25],[-159.69,3.69]]],[[[129.87,-66.74],[130.91,-66.22],[129.1,-66.35],[129.02,-67.01],[129.87,-66.74]]],[[[178.93,70.58],[179.05,71.45],[177.85,71.24],[178.93,70.58]]],[[[-87.38,79.14],[-88.66,78.81],[-86.5,78.78],[-87.38,79.14]]],[[[173.52,52.97],[172.06,53.08],[173.68,52.16],[174.16,52.8],[173.52,52.97]]],[[[155.52,7.23],[155.83,7.78],[155.03,7.96],[155.52,7.23]]],[[[-20.9,-73.84],[-21.37,-74.27],[-19.78,-74.16],[-20.9,-73.84]]],[[[145.42,15.3],[145.96,14.57],[146.14,15.53],[145.42,15.3]]],[[[37.85,-47.22],[37.97,-46.58],[37.15,-47.02],[37.85,-47.22]]],[[[-13.72,58.04],[-14.11,57.73],[-13.37,57.69],[-13.72,58.04]]]]}}]}