{"type":"FeatureCollection","features":[{"type":"Feature","properties":{},"geometry":{"type":"MultiPolygon","coordinates":[[[[121.05,21.77],[121.69,21.84],[121.73,22.07],[121.31,22.09],[121.12,22.22],[121.16,22.44],[121.8,22.52],[121.53,23.44],[122.02,23.86],[121.9,24.43],[122.4,24.85],[122.28,25.4],[121.93,25.85],[121.4,25.22],[120.75,25.13],[119.93,23.95],[119.3,23.9],[119.27,23.68],[119.05,23.62],[119.17,23.02],[120.17,22.83],[120.44,21.91],[121.05,21.77]],[[121.71,24.54],[121.48,24.44],[121.6,23.88],[121.11,23.46],[121.23,22.89],[120.74,22.46],[120.4,22.93],[120.69,23.48],[120.5,23.6],[120.54,23.82],[121.02,24.24],[120.9,24.8],[121.55,24.88],[121.74,24.76],[121.71,24.54]]],[[[-8.5,37.75],[-8.71,38.39],[-8.96,38.54],[-8.63,39.14],[-8.89,39.28],[-8.87,39.53],[-7.96,40.33],[-7.93,40.58],[-8.67,41.51],[-8.64,41.75],[-8.91,41.9],[-9.2,41.8],[-9.22,41.55],[-8.96,41.41],[-8.74,40.77],[-9.34,40.31],[-9.13,39.67],[-9.41,39.57],[-9.74,38.97],[-9.24,38.43],[-9.03,37.79],[-8.78,37.65],[-8.5,37.75]]],[[[2.82,57.36],[2.02,57.08],[1.94,56.87],[1.29,56.99],[0.5,56.7],[-0.16,56.81],[-0.22,56.6],[-1.25,56.66],[-1.31,56.45],[-1.67,56.4],[-1.98,56.55],[-1.49,57.02],[-1.8,57.18],[-1.74,57.38],[-1.37,57.43],[-1.3,57.64],[-3.0,58.0],[-2.5,58.46],[-2.82,58.61],[-2.76,58.81],[-1.49,59.37],[-1.42,59.57],[-1.03,59.61],[-0.97,59.81],[-0.58,59.85],[-0.51,60.05],[-0.83,60.2],[-0.76,60.4],[-0.37,60.44],[-0.3,60.64],[-0.62,60.79],[-0.55,60.99],[-1.28,61.1],[-1.35,60.9],[-2.67,60.37],[-2.74,60.17],[-1.68,59.92],[-2.2,59.47],[-2.92,59.57],[-3.75,59.26],[-4.48,59.36],[-4.53,59.15],[-3.48,58.91],[-3.53,58.71],[-4.97,58.89],[-5.79,58.56],[-6.51,58.64],[-6.56,58.43],[-6.94,58.37],[-7.67,58.44],[-7.71,58.23],[-7.36,58.09],[-7.4,57.88],[-7.78,57.81],[-7.82,57.6],[-7.48,57.46],[-7.52,57.25],[-7.89,57.17],[-8.34,56.67],[-7.3,56.46],[-7.33,56.25],[-6.72,55.74],[-6.76,55.52],[-8.5,55.59],[-8.54,55.37],[-9.29,54.99],[-9.32,54.77],[-8.99,54.63],[-9.02,54.41],[-10.75,54.44],[-10.77,54.21],[-10.44,54.08],[-10.84,53.54],[-10.21,53.03],[-10.24,52.81],[-10.95,52.4],[-10.97,52.17],[-10.65,52.03],[-10.38,51.43],[-8.77,51.18],[-8.07,51.58],[-8.03,51.81],[-7.39,51.74],[-7.05,51.82],[-7.01,52.05],[-6.37,51.98],[-5.65,52.35],[-5.35,52.2],[-5.77,51.68],[-5.48,51.53],[-5.27,50.92],[-5.6,50.85],[-5.64,50.62],[-6.7,49.92],[-6.74,49.69],[-6.45,49.54],[-5.76,49.93],[-4.86,49.7],[-4.53,49.78],[-4.49,50.01],[-3.88,49.93],[-3.18,50.3],[-2.31,50.05],[-2.36,49.83],[-3.42,49.16],[-3.47,48.93],[-4.06,49.01],[-4.75,48.63],[-5.35,48.7],[-5.39,48.47],[-4.87,47.93],[-4.91,47.7],[-3.74,47.55],[-3.47,47.39],[-3.52,47.16],[-2.94,47.08],[-2.68,46.92],[-2.73,46.69],[-1.91,46.45],[-1.96,46.22],[-1.3,45.28],[-1.35,45.05],[-1.65,44.97],[-1.7,44.74],[-1.45,44.58],[-1.5,44.35],[-1.8,44.27],[-1.65,43.64],[-3.28,43.88],[-3.57,43.79],[-3.61,43.56],[-1.75,43.17],[-1.11,43.56],[-0.69,43.01],[-0.06,43.39],[1.21,43.05],[2.02,43.08],[2.43,42.57],[2.37,42.34],[1.73,41.92],[1.68,41.69],[2.08,41.17],[2.36,41.26],[2.42,41.49],[3.23,41.53],[3.29,41.76],[3.59,41.85],[3.48,42.46],[3.25,42.6],[3.67,43.16],[5.04,43.13],[6.35,42.85],[7.05,43.24],[7.12,43.48],[7.98,43.48],[8.46,44.02],[8.77,44.1],[9.88,43.94],[10.26,43.39],[10.18,43.16],[9.31,43.17],[9.23,42.94],[8.52,42.55],[8.44,42.32],[8.67,42.16],[9.38,42.54],[10.15,42.3],[10.87,42.67],[11.1,42.51],[11.02,42.28],[11.79,42.02],[11.7,41.78],[11.93,41.62],[12.79,41.58],[12.88,41.82],[12.11,42.09],[12.2,42.32],[11.97,42.48],[11.65,42.42],[11.28,42.98],[10.96,42.91],[10.73,43.07],[11.23,43.6],[10.99,43.76],[11.08,43.99],[9.17,44.4],[9.26,44.63],[9.58,44.71],[11.82,44.36],[12.2,43.81],[13.08,43.78],[13.31,43.61],[13.35,42.98],[13.58,42.81],[13.91,42.88],[14.0,43.11],[13.64,43.67],[13.74,43.9],[12.39,44.27],[12.9,44.79],[12.67,44.95],[12.77,45.18],[13.1,45.25],[13.33,45.08],[13.24,44.86],[13.47,44.69],[13.8,44.76],[14.04,44.59],[13.94,44.36],[14.73,44.09],[14.63,43.86],[14.86,43.69],[15.75,43.64],[15.98,43.47],[15.87,43.24],[16.66,42.94],[16.55,42.71],[16.78,42.54],[18.21,42.34],[18.98,42.03],[18.87,41.8],[19.19,41.2],[19.08,40.97],[19.3,40.79],[19.19,40.55],[19.4,40.37],[19.4,39.72],[19.61,39.53],[19.93,39.58],[20.14,39.39],[20.03,39.15],[20.77,38.82],[20.66,38.59],[20.34,38.54],[20.23,38.31],[20.44,38.12],[20.75,38.16],[20.87,38.4],[21.18,38.44],[21.39,38.25],[20.85,37.73],[21.57,37.39],[21.46,37.16],[21.75,36.53],[23.09,36.26],[23.13,36.93],[22.93,37.12],[23.04,37.36],[23.87,37.24],[23.99,37.47],[24.31,37.51],[24.51,37.31],[23.95,36.8],[24.15,36.61],[24.9,36.91],[25.17,36.28],[25.48,36.31],[25.6,36.54],[26.42,36.4],[26.48,37.07],[26.79,37.09],[26.99,36.89],[26.86,36.66],[27.55,36.28],[27.43,36.05],[26.25,35.5],[26.13,35.27],[24.31,35.74],[24.11,35.94],[23.37,35.63],[23.26,35.39],[23.45,35.2],[24.27,35.07],[24.96,34.7],[25.27,34.74],[25.39,34.97],[26.2,34.83],[26.32,35.07],[27.93,35.87],[28.05,36.1],[28.37,36.13],[28.49,36.36],[28.81,36.38],[29.49,35.99],[29.8,36.01],[29.93,36.24],[30.73,36.07],[30.81,36.73],[31.12,36.75],[31.3,36.54],[32.1,36.36],[32.32,35.72],[33.07,35.97],[33.24,35.76],[33.11,35.54],[32.36,35.29],[32.23,35.06],[32.44,34.41],[33.21,34.23],[33.35,34.46],[34.09,34.7],[34.19,35.36],[34.5,35.37],[35.08,35.82],[34.91,36.03],[34.6,36.02],[34.02,35.57],[33.72,35.56],[33.55,35.77],[33.68,35.99],[33.99,36.0],[34.57,36.45],[35.35,36.26],[35.52,36.04],[35.38,35.83],[35.54,35.61],[35.41,35.39],[35.62,34.31],[35.48,34.09],[35.18,34.08],[35.05,33.86],[35.21,33.65],[34.64,33.19],[34.83,32.54],[34.27,32.08],[34.44,31.87],[34.3,31.65],[34.01,31.63],[33.88,31.41],[34.04,31.19],[34.76,31.44],[35.37,31.03],[35.66,31.04],[35.79,31.26],[36.08,31.27],[36.23,31.06],[36.94,31.3],[37.53,30.87],[37.82,30.88],[37.95,31.1],[38.24,31.1],[38.39,30.89],[39.09,31.11],[39.66,30.69],[39.94,30.69],[40.08,30.9],[40.78,30.69],[40.92,30.9],[41.2,30.9],[41.33,30.68],[42.03,30.89],[42.16,30.68],[42.44,30.67],[42.99,31.09],[43.26,31.08],[43.4,30.87],[44.08,31.06],[45.0,30.4],[45.67,30.58],[46.18,30.14],[46.44,30.13],[46.58,30.33],[46.84,30.32],[46.96,30.1],[47.62,30.28],[48.11,29.84],[47.57,29.45],[48.05,29.01],[48.3,29.0],[48.47,29.61],[49.26,29.97],[50.97,28.96],[51.13,29.12],[51.02,29.34],[50.39,29.64],[50.34,30.24],[49.97,30.5],[50.13,30.67],[49.64,31.14],[49.8,31.32],[51.56,30.23],[51.61,29.63],[52.7,28.84],[53.55,29.07],[54.18,28.75],[54.61,28.86],[54.96,28.59],[55.4,28.7],[55.76,28.43],[56.37,28.7],[56.99,28.36],[57.43,28.47],[57.61,28.63],[57.53,28.85],[56.82,29.41],[56.1,29.36],[56.01,29.58],[57.09,29.97],[57.36,29.91],[57.35,29.29],[57.97,28.95],[58.06,28.73],[57.87,28.57],[58.22,28.29],[58.51,28.83],[58.07,29.34],[58.26,29.5],[58.18,29.73],[57.91,29.79],[57.82,30.01],[58.01,30.18],[57.92,30.4],[57.65,30.46],[57.56,30.69],[58.68,31.07],[60.02,30.13],[60.1,29.9],[59.79,29.35],[59.87,29.13],[60.14,29.06],[60.1,28.45],[60.71,28.1],[61.82,28.44],[61.41,28.96],[61.14,29.02],[61.18,29.64],[60.91,29.71],[60.84,29.93],[61.03,30.1],[60.96,30.33],[60.68,30.39],[60.61,30.62],[60.93,31.18],[61.55,30.81],[62.23,31.07],[62.86,30.7],[64.03,31.03],[64.3,30.96],[64.23,30.33],[64.71,30.42],[64.98,30.34],[65.04,30.11],[65.8,30.11],[66.19,29.57],[65.68,28.65],[65.74,28.42],[66.32,28.03],[66.68,28.57],[67.15,28.64],[67.42,29.64],[67.79,30.18],[68.38,29.78],[70.07,30.13],[70.2,30.75],[70.43,30.9],[70.07,31.46],[70.29,31.61],[70.88,31.2],[71.3,31.74],[73.59,31.86],[73.83,32.01],[73.79,32.25],[74.54,32.44],[74.51,32.68],[74.75,32.83],[75.54,32.77],[75.86,32.19],[76.13,32.09],[76.37,32.23],[76.57,32.85],[75.78,32.92],[75.98,33.54],[75.1,34.34],[75.07,34.58],[74.26,34.64],[74.02,34.49],[73.42,34.93],[73.38,35.18],[73.63,35.33],[74.45,35.28],[74.7,35.42],[74.67,35.67],[73.31,35.67],[72.85,35.13],[71.91,35.91],[71.46,35.35],[69.57,35.25],[69.52,35.5],[69.96,36.06],[69.91,36.3],[71.24,36.59],[71.4,37.24],[71.1,37.34],[71.05,37.59],[71.51,38.15],[71.12,38.74],[71.59,39.31],[72.46,39.27],[72.73,39.43],[72.34,40.03],[72.6,40.18],[73.26,39.73],[73.53,39.89],[73.49,40.14],[73.76,40.29],[74.07,40.19],[74.1,39.94],[75.08,39.12],[75.11,38.87],[75.97,38.8],[76.0,38.55],[76.29,38.45],[76.08,37.8],[76.37,37.69],[76.7,37.08],[76.99,36.98],[78.35,37.18],[78.63,37.07],[78.95,36.46],[79.22,36.35],[80.03,36.51],[80.59,36.03],[80.85,36.17],[81.66,36.07],[82.19,36.58],[83.53,36.48],[83.8,36.6],[83.81,36.85],[84.62,36.98],[84.62,37.22],[84.9,37.35],[85.16,37.22],[85.97,37.34],[86.28,37.95],[86.56,38.07],[87.36,37.93],[87.64,38.05],[87.66,38.3],[87.94,38.41],[88.2,38.28],[88.48,38.39],[88.5,38.64],[88.78,38.75],[89.04,38.62],[89.64,39.09],[90.96,38.89],[91.57,39.35],[92.88,39.13],[93.49,39.58],[94.78,39.34],[95.4,39.77],[96.15,39.57],[96.78,39.99],[97.01,39.84],[97.8,39.87],[98.19,39.34],[99.47,39.29],[99.68,39.14],[99.62,38.91],[100.31,38.69],[100.25,38.46],[100.45,38.31],[101.68,38.25],[101.88,38.09],[101.81,37.87],[102.28,37.79],[102.47,37.64],[102.4,37.42],[103.05,37.19],[102.64,36.67],[101.72,36.81],[101.46,36.73],[101.39,36.51],[102.49,36.22],[102.16,35.92],[102.09,35.7],[102.28,35.55],[103.43,35.49],[103.58,35.14],[104.29,34.95],[103.98,34.46],[104.61,33.63],[104.3,33.13],[104.72,32.64],[104.41,32.13],[104.16,32.05],[104.13,31.83],[104.36,31.7],[104.05,31.18],[103.32,31.15],[103.3,30.93],[103.72,30.43],[104.19,30.38],[104.44,30.46],[104.47,30.68],[104.94,30.62],[105.47,31.0],[106.16,30.79],[106.69,31.16],[106.91,31.02],[107.16,31.09],[107.19,31.31],[107.9,31.31],[107.74,31.89],[107.06,32.1],[107.09,32.32],[107.55,32.25],[108.08,32.6],[109.01,32.45],[109.32,32.94],[109.1,33.08],[109.13,33.29],[109.38,33.36],[109.41,33.57],[109.2,33.71],[109.23,33.92],[110.15,33.76],[110.95,34.35],[112.32,34.1],[112.71,33.6],[112.4,33.13],[112.16,33.07],[111.25,33.24],[111.22,33.04],[111.43,32.89],[111.12,32.41],[111.79,32.18],[111.76,31.97],[112.32,31.1],[112.01,30.61],[111.77,30.55],[111.74,30.33],[111.95,30.18],[111.64,29.68],[112.2,28.8],[112.88,28.78],[113.18,29.28],[112.98,29.43],[113.01,29.65],[113.45,29.56],[113.96,29.9],[114.39,29.81],[114.69,30.3],[115.36,30.26],[115.19,30.63],[114.76,30.72],[115.06,31.2],[114.86,31.35],[114.36,31.02],[114.19,31.38],[113.75,31.47],[113.44,30.99],[113.21,30.93],[112.56,31.17],[112.41,31.74],[113.74,32.86],[113.95,32.72],[113.91,32.51],[113.68,32.45],[113.85,32.1],[115.16,31.82],[115.67,32.13],[116.03,31.63],[117.31,31.33],[116.22,30.08],[115.56,30.11],[115.72,29.75],[116.38,29.71],[116.94,30.45],[117.59,30.41],[117.89,30.87],[118.72,30.67],[119.2,30.97],[119.8,30.71],[120.1,30.0],[121.35,29.89],[121.47,29.37],[121.66,29.26],[121.13,28.65],[121.25,28.12],[120.6,28.03],[120.72,27.5],[119.47,26.23],[119.58,25.64],[118.86,25.03],[118.57,24.53],[117.94,24.55],[117.14,23.46],[116.5,23.48],[116.21,22.96],[115.38,23.12],[114.89,22.75],[114.47,22.83],[114.43,22.6],[114.2,22.53],[113.35,22.68],[113.48,22.06],[114.11,21.83],[114.34,21.91],[114.63,22.45],[115.47,22.28],[115.7,22.36],[115.73,22.59],[116.37,22.57],[116.66,23.1],[117.29,23.08],[118.09,24.18],[118.72,24.15],[119.01,24.65],[119.62,24.62],[120.14,25.26],[120.02,25.81],[120.51,26.22],[120.93,26.21],[120.81,26.75],[122.1,28.1],[121.98,28.63],[122.64,28.72],[122.51,29.25],[122.78,29.55],[123.29,29.95],[123.72,29.94],[126.54,33.09],[127.23,33.16],[126.95,33.95],[127.84,33.92],[128.42,34.48],[128.87,34.45],[129.15,33.66],[128.29,32.81],[128.66,32.39],[129.56,32.33],[129.52,32.13],[129.72,32.02],[129.39,31.53],[130.05,31.38],[129.76,31.09],[129.72,30.89],[129.92,30.77],[130.46,31.15],[131.37,31.07],[131.7,31.56],[131.5,31.68],[131.54,31.89],[132.08,32.25],[131.96,32.77],[132.21,32.85],[132.58,32.41],[133.04,32.37],[133.29,32.45],[133.17,32.97],[133.47,33.24],[134.39,33.16],[135.0,33.92],[135.42,33.45],[136.06,33.53],[136.28,34.09],[136.07,34.21],[135.64,33.78],[135.43,34.13],[136.07,34.9],[136.71,34.07],[137.15,34.5],[138.92,34.39],[139.34,33.9],[139.57,34.0],[139.38,34.6],[140.07,34.66],[140.59,35.57],[141.29,35.64],[140.9,36.62],[141.41,37.06],[141.43,37.3],[140.99,37.8],[141.01,38.04],[141.74,38.11],[142.04,38.69],[142.3,38.79],[142.11,39.41],[142.37,39.51],[142.4,39.75],[141.73,40.62],[141.75,40.86],[141.51,40.99],[141.82,41.57],[141.35,42.07],[141.37,42.3],[142.16,42.39],[142.62,41.89],[142.89,42.0],[143.14,41.87],[144.34,43.01],[145.95,42.9],[146.31,43.49],[147.16,43.55],[147.2,43.79],[146.4,43.97],[146.44,44.21],[147.29,44.27],[147.68,44.85],[148.55,44.9],[148.96,45.48],[148.13,45.66],[147.47,45.23],[147.08,44.65],[145.42,44.75],[144.8,44.3],[144.54,44.44],[143.71,44.36],[143.46,44.49],[143.49,44.72],[142.69,44.87],[142.72,45.11],[142.23,45.59],[142.26,45.83],[142.86,46.28],[143.35,45.8],[143.64,45.91],[144.0,46.49],[143.51,46.97],[143.54,47.21],[143.27,47.33],[143.3,47.57],[143.03,47.69],[143.06,47.92],[142.8,48.04],[143.16,48.62],[142.88,48.74],[142.91,48.97],[143.56,49.43],[144.07,48.95],[144.38,49.06],[144.42,49.29],[143.9,49.77],[144.29,50.34],[144.01,50.46],[144.04,50.69],[143.07,50.78],[143.06,51.0],[143.69,51.44],[143.68,51.66],[142.98,52.08],[142.97,52.3],[143.62,52.76],[143.61,52.98],[142.89,53.41],[142.87,53.63],[143.22,53.75],[143.2,53.98],[142.84,54.08],[142.82,54.31],[142.11,54.29],[142.51,53.74],[140.77,53.57],[140.0,53.99],[139.3,53.96],[139.26,54.18],[138.17,54.23],[138.12,54.46],[138.74,54.95],[138.7,55.18],[136.85,55.18],[136.79,55.4],[137.13,55.54],[137.07,55.77],[138.15,55.95],[138.1,56.18],[138.45,56.32],[138.4,56.55],[139.07,57.05],[139.02,57.29],[138.61,57.38],[137.94,56.87],[137.99,56.64],[137.64,56.5],[137.7,56.27],[136.6,56.09],[136.66,55.86],[136.33,55.72],[136.39,55.49],[135.33,55.29],[135.4,55.07],[134.68,55.01],[134.12,54.5],[133.03,54.5],[131.33,54.2],[131.43,53.98],[132.29,53.62],[133.66,53.77],[133.97,53.91],[133.89,54.13],[134.9,54.34],[134.83,54.56],[135.15,54.7],[135.54,54.62],[135.61,54.4],[136.7,54.37],[136.76,54.14],[136.44,54.01],[136.5,53.78],[135.49,53.59],[136.0,53.07],[135.69,52.93],[135.75,52.71],[135.21,52.23],[135.7,51.71],[135.05,51.66],[134.54,51.17],[134.61,50.96],[135.59,50.94],[135.65,50.73],[135.15,50.25],[133.56,50.21],[133.7,50.77],[133.34,50.84],[133.27,51.05],[133.76,51.54],[133.68,51.75],[132.68,51.76],[132.6,51.97],[132.23,52.04],[132.15,52.25],[132.43,52.4],[132.35,52.61],[132.64,52.76],[132.55,52.97],[131.51,52.97],[130.46,53.75],[129.39,53.72],[129.28,53.94],[129.57,54.09],[130.25,54.18],[129.13,54.97],[128.03,54.93],[127.06,54.66],[127.18,54.45],[128.1,54.12],[128.22,53.9],[127.94,53.75],[127.55,53.8],[127.43,54.02],[126.76,53.91],[126.37,53.97],[126.24,54.18],[125.57,54.07],[125.17,54.12],[125.04,54.33],[124.37,54.21],[123.42,54.51],[117.73,53.26],[117.52,53.09],[117.69,52.89],[117.48,52.72],[116.92,52.93],[116.33,52.78],[115.38,53.01],[115.19,52.83],[115.93,52.43],[114.61,51.94],[113.1,52.34],[112.92,52.17],[113.12,51.98],[112.4,51.63],[113.51,51.25],[113.7,50.71],[112.73,50.31],[112.65,49.7],[111.46,49.18],[110.9,48.71],[110.08,48.81],[109.97,48.59],[110.16,48.42],[109.62,47.94],[109.81,47.77],[109.7,47.55],[108.97,47.24],[108.69,47.81],[107.96,47.49],[106.71,47.91],[107.24,48.41],[107.02,48.59],[107.13,48.81],[107.45,48.86],[107.56,49.08],[107.35,49.26],[107.46,49.48],[109.11,50.32],[109.23,50.54],[109.02,50.72],[109.59,51.19],[109.38,51.37],[109.5,51.59],[110.38,51.48],[110.97,51.94],[110.68,52.52],[109.88,52.24],[109.66,52.42],[109.32,52.39],[109.2,52.17],[108.86,52.13],[108.07,52.45],[108.19,52.67],[108.54,52.71],[109.61,53.44],[109.3,54.02],[109.46,54.21],[109.23,54.39],[109.4,54.58],[109.17,54.77],[108.77,54.76],[108.61,54.57],[108.84,54.39],[108.71,54.17],[107.39,53.62],[106.33,52.87],[105.97,52.82],[105.73,53.0],[105.85,53.22],[106.68,53.53],[106.79,53.76],[106.55,53.94],[104.77,53.08],[104.38,53.66],[104.49,53.89],[104.23,54.06],[104.34,54.29],[103.44,54.59],[104.04,55.1],[103.61,55.68],[103.72,55.91],[103.45,56.08],[103.56,56.31],[102.61,56.61],[102.21,56.56],[101.74,57.14],[101.34,57.09],[101.04,57.26],[101.14,57.49],[100.84,57.66],[100.94,57.89],[100.43,58.46],[99.28,58.52],[98.72,59.09],[97.79,58.74],[97.45,58.9],[97.03,58.84],[96.95,58.61],[96.53,58.54],[95.42,58.79],[94.5,58.41],[94.15,58.57],[93.73,58.49],[93.08,59.05],[92.65,58.97],[92.29,59.12],[92.35,59.36],[91.17,59.58],[91.22,59.82],[90.83,59.97],[90.89,60.21],[89.66,60.42],[89.71,60.66],[89.31,60.8],[88.38,60.38],[87.98,60.53],[87.54,60.43],[87.51,60.19],[87.07,60.09],[86.66,60.23],[86.23,60.13],[85.42,60.65],[82.39,60.61],[81.51,61.1],[81.5,61.34],[81.05,61.46],[77.05,61.3],[76.07,61.75],[76.03,61.99],[75.55,62.1],[73.31,61.88],[72.27,62.3],[69.13,61.97],[68.63,62.05],[68.54,62.28],[68.04,62.36],[67.63,62.2],[66.52,62.58],[65.62,62.49],[65.23,62.32],[65.34,62.09],[64.95,61.93],[64.45,61.99],[64.33,62.22],[64.72,62.39],[64.6,62.62],[64.09,62.68],[63.7,62.51],[63.83,62.28],[63.44,62.11],[63.57,61.88],[63.19,61.71],[62.06,62.06],[61.93,62.29],[62.3,62.46],[62.16,62.68],[61.65,62.74],[60.4,62.44],[60.54,62.21],[60.18,62.04],[60.32,61.81],[59.97,61.63],[60.11,61.41],[59.76,61.23],[59.9,61.0],[59.56,60.82],[59.7,60.59],[59.36,60.41],[59.5,60.18],[59.16,60.0],[59.31,59.77],[58.98,59.59],[57.88,59.91],[57.73,60.13],[58.06,60.32],[57.91,60.54],[58.24,60.73],[57.44,61.22],[57.78,61.4],[57.62,61.62],[56.46,61.92],[56.29,62.14],[55.78,62.17],[55.45,61.98],[54.95,62.01],[54.77,62.23],[54.27,62.26],[53.94,62.07],[53.44,62.09],[53.25,62.3],[52.75,62.33],[52.44,62.13],[51.93,62.15],[51.74,62.36],[51.24,62.38],[50.93,62.18],[49.73,62.41],[48.65,62.02],[48.16,62.02],[47.95,62.23],[46.69,62.03],[45.04,62.62],[42.35,63.15],[42.11,63.34],[42.35,63.55],[42.1,63.73],[42.36,63.94],[42.1,64.13],[40.85,63.88],[40.61,63.67],[40.87,63.48],[40.63,63.27],[39.44,63.01],[39.22,62.8],[39.47,62.62],[39.25,62.4],[38.06,62.53],[37.19,62.07],[36.73,62.04],[36.47,62.21],[36.67,62.43],[36.41,62.61],[35.95,62.57],[34.95,62.88],[33.86,62.58],[33.69,62.36],[33.96,62.19],[33.78,61.97],[33.34,61.93],[33.07,62.1],[32.04,61.79],[31.77,61.96],[30.64,62.02],[30.36,62.18],[30.51,62.4],[30.23,62.56],[29.51,62.66],[29.09,62.6],[28.95,62.39],[27.83,62.42],[27.7,62.21],[27.99,62.05],[27.86,61.84],[25.79,62.1],[24.89,61.75],[22.2,62.04],[21.68,62.53],[21.76,62.75],[22.15,62.82],[22.84,62.76],[22.93,62.98],[22.62,63.12],[22.71,63.33],[24.65,64.27],[24.76,64.49],[24.44,64.63],[24.55,64.85],[25.74,64.85],[25.86,65.06],[25.54,65.21],[25.66,65.42],[25.34,65.56],[25.46,65.78],[25.13,65.92],[23.57,66.04],[23.13,65.96],[23.03,65.75],[21.84,65.72],[21.75,65.51],[20.84,65.13],[20.76,64.92],[21.32,64.44],[21.24,64.22],[20.84,64.14],[20.77,63.93],[19.67,63.89],[19.61,63.68],[19.23,63.6],[19.17,63.38],[18.79,63.3],[18.73,63.09],[17.55,62.4],[17.5,62.19],[17.06,62.15],[16.91,61.98],[17.21,61.85],[16.49,61.46],[16.79,61.33],[16.65,61.15],[17.1,60.72],[15.97,60.26],[15.83,60.08],[16.12,59.96],[15.99,59.77],[14.89,59.3],[14.48,59.25],[14.02,59.69],[13.31,59.75],[12.89,59.69],[12.77,59.51],[13.07,59.38],[12.95,59.2],[12.01,58.89],[11.54,59.32],[11.66,59.5],[10.65,59.67],[9.23,59.09],[8.13,58.38],[6.41,58.42],[5.96,58.95],[6.05,59.14],[5.77,59.3],[5.86,59.49],[5.58,59.66],[6.15,60.06],[5.2,60.36],[5.29,60.55],[5.0,60.71],[5.09,60.9],[4.8,61.06],[5.38,61.45],[5.08,61.62],[5.17,61.8],[4.48,61.94],[4.39,61.75],[4.69,61.59],[4.11,61.2],[4.41,61.04],[4.32,60.85],[4.62,60.69],[4.53,60.5],[5.02,59.98],[4.46,59.58],[4.75,59.41],[4.66,59.22],[4.94,59.06],[4.85,58.86],[5.32,58.34],[6.31,58.23],[6.58,58.06],[6.49,57.87],[7.45,57.72],[8.32,58.07],[9.0,58.03],[9.6,58.48],[9.31,58.6],[9.41,58.79],[9.81,58.86],[10.8,58.69],[10.69,58.5],[11.16,58.06],[10.65,57.8],[9.68,57.98],[9.29,57.91],[9.19,57.71],[8.12,57.68],[8.03,57.49],[7.64,57.41],[7.36,57.53],[6.97,57.45],[6.41,56.98],[5.43,57.03],[5.34,56.84],[4.99,56.8],[2.82,57.36]],[[133.72,35.31],[133.93,35.19],[134.35,35.63],[134.78,35.62],[135.21,35.16],[135.64,35.6],[135.86,35.48],[135.86,35.25],[135.43,34.81],[133.94,34.97],[133.73,34.86],[133.74,34.64],[133.12,34.54],[132.92,34.21],[132.31,34.33],[131.76,33.98],[131.39,34.4],[131.44,34.59],[132.09,34.67],[132.28,35.0],[132.69,34.99],[132.68,35.21],[132.89,35.32],[133.72,35.31]],[[135.43,43.5],[135.68,44.08],[136.42,44.21],[136.94,45.14],[137.71,45.27],[137.72,45.5],[138.82,46.66],[138.84,46.89],[139.11,47.01],[139.12,47.24],[140.3,48.4],[140.32,48.63],[140.61,48.75],[140.63,48.98],[140.93,49.1],[140.95,49.32],[140.68,49.44],[140.65,49.65],[141.22,50.09],[140.84,50.61],[141.14,50.73],[141.12,50.95],[140.78,51.04],[140.75,51.26],[141.06,51.38],[141.04,51.59],[141.69,51.61],[141.72,51.4],[142.06,51.3],[142.08,51.08],[141.76,50.97],[141.79,50.75],[142.12,50.65],[141.85,50.11],[142.18,50.02],[142.15,49.79],[141.85,49.67],[141.82,49.44],[142.09,49.33],[142.07,49.1],[141.77,48.98],[141.74,48.75],[142.01,48.63],[141.99,48.4],[141.69,48.29],[141.67,48.06],[141.94,47.94],[141.91,47.71],[141.62,47.59],[141.84,47.01],[140.94,46.2],[140.91,45.97],[141.71,45.84],[141.69,45.6],[140.87,45.5],[140.85,45.27],[141.34,44.79],[141.32,44.55],[141.04,44.44],[141.25,43.85],[140.98,43.74],[140.96,43.5],[140.18,43.4],[140.16,43.17],[139.35,42.36],[139.33,42.12],[140.08,41.99],[140.06,41.75],[139.3,41.66],[139.29,41.42],[140.03,41.28],[139.74,40.7],[140.47,40.56],[141.01,41.01],[141.9,39.78],[141.6,39.2],[140.85,39.12],[141.05,38.51],[140.8,38.41],[140.51,37.83],[140.74,37.7],[140.94,37.09],[140.69,36.99],[140.67,36.75],[140.2,36.78],[139.96,36.68],[139.95,36.44],[139.25,36.37],[139.24,36.13],[139.46,36.0],[139.2,35.43],[138.75,35.46],[138.28,35.02],[137.39,35.07],[136.96,35.55],[136.08,35.58],[136.53,36.49],[137.21,36.58],[137.21,36.81],[137.44,36.92],[137.89,36.9],[137.47,37.85],[137.02,38.32],[136.32,37.53],[136.54,36.95],[136.09,36.5],[135.86,35.93],[133.92,35.87],[133.26,36.66],[132.85,36.22],[133.08,35.66],[132.46,35.55],[132.47,35.33],[132.06,35.33],[131.67,34.89],[130.81,34.92],[130.77,34.73],[130.98,34.62],[130.64,34.16],[130.39,34.07],[130.19,34.19],[130.23,34.38],[129.57,34.51],[129.45,35.0],[129.74,35.27],[129.53,35.38],[129.82,35.65],[129.58,36.19],[129.75,36.52],[129.53,36.84],[129.7,37.18],[127.83,39.7],[128.65,39.75],[129.03,40.21],[129.45,40.24],[129.61,40.8],[130.25,40.94],[129.99,41.48],[130.59,42.29],[131.26,42.22],[131.69,42.69],[132.6,42.73],[133.08,42.3],[133.53,42.77],[134.24,42.68],[134.47,42.8],[134.47,43.02],[135.19,43.16],[135.19,43.38],[135.43,43.5]],[[97.01,45.41],[97.89,45.42],[98.7,45.18],[98.63,44.94],[98.32,44.86],[97.51,45.09],[97.2,45.01],[96.95,45.17],[97.01,45.41]],[[84.86,43.76],[86.35,43.6],[86.33,43.34],[87.21,43.19],[87.45,42.55],[85.99,42.47],[85.7,42.6],[85.09,42.11],[84.8,42.24],[84.53,42.87],[84.83,43.0],[84.84,43.25],[84.26,43.76],[83.95,43.64],[83.66,43.77],[83.66,44.02],[84.57,44.14],[84.87,44.01],[84.86,43.76]],[[119.85,45.36],[120.29,45.16],[119.8,45.04],[119.68,45.22],[119.85,45.36]],[[138.99,51.94],[138.42,51.47],[138.07,51.56],[138.02,51.77],[138.33,51.9],[138.28,52.12],[138.59,52.25],[138.95,52.16],[138.99,51.94]],[[89.41,49.28],[89.06,49.18],[89.03,48.93],[89.34,48.78],[90.32,48.84],[91.26,48.64],[91.22,48.39],[91.51,48.24],[91.47,48.0],[92.01,47.45],[91.96,47.2],[92.25,47.05],[92.57,47.15],[92.85,46.99],[92.81,46.75],[93.69,46.54],[93.86,45.89],[93.54,45.8],[93.04,46.35],[91.51,46.35],[90.98,46.9],[90.65,46.8],[90.36,46.94],[90.14,47.59],[89.21,47.78],[89.24,48.03],[88.94,48.17],[88.61,48.06],[88.3,48.21],[88.33,48.46],[88.02,48.6],[87.68,48.49],[87.37,48.63],[87.39,48.89],[87.08,49.03],[86.74,48.91],[86.42,49.05],[86.8,49.67],[85.81,49.83],[85.82,50.09],[86.17,50.2],[87.17,50.04],[87.51,50.15],[87.54,50.4],[88.56,50.47],[88.59,50.72],[88.27,50.86],[88.3,51.12],[87.97,51.26],[88.38,51.87],[88.74,51.97],[89.76,51.78],[90.52,52.23],[90.84,52.08],[91.61,52.51],[91.93,52.36],[91.48,51.77],[90.44,51.73],[90.0,51.13],[90.59,50.59],[90.94,50.68],[90.99,50.93],[91.34,51.03],[91.65,50.88],[91.21,50.29],[91.52,50.13],[91.47,49.89],[91.77,49.74],[91.73,49.49],[91.39,49.39],[90.82,49.94],[90.47,49.84],[90.17,49.99],[89.82,49.89],[90.06,49.24],[89.71,49.14],[89.41,49.28]],[[19.87,42.58],[19.1,42.9],[18.21,42.98],[17.87,43.56],[17.09,43.23],[16.75,43.81],[15.29,43.98],[14.93,44.55],[15.04,44.77],[14.8,44.94],[14.91,45.17],[15.24,45.23],[15.48,45.06],[15.37,44.83],[15.6,44.66],[17.64,44.37],[17.98,43.79],[18.77,44.12],[18.99,43.94],[18.99,43.31],[20.32,42.86],[20.2,42.63],[19.87,42.58]],[[93.92,54.91],[93.98,55.15],[94.37,55.23],[94.95,54.67],[95.79,55.07],[96.79,54.81],[97.64,55.19],[97.95,55.03],[99.01,54.99],[99.51,54.42],[99.42,54.18],[99.71,54.01],[99.62,53.78],[99.9,53.61],[100.92,53.57],[101.37,52.99],[101.73,53.05],[102.0,52.88],[101.9,52.64],[102.78,52.36],[102.68,52.13],[103.09,51.55],[104.04,51.49],[104.86,51.19],[105.21,51.24],[105.31,51.47],[105.66,51.52],[105.89,51.34],[104.89,50.56],[103.98,50.62],[103.88,50.39],[104.11,50.22],[104.15,49.59],[103.25,49.64],[102.86,50.22],[102.52,50.16],[102.0,49.63],[101.07,49.67],[100.99,49.43],[100.65,49.37],[100.57,49.13],[100.82,48.96],[101.15,49.03],[101.24,49.27],[101.57,49.33],[101.82,49.16],[101.31,48.63],[102.13,48.36],[101.22,47.52],[101.46,47.36],[101.78,47.42],[102.02,47.26],[101.93,47.02],[102.71,46.76],[102.77,46.12],[101.91,46.16],[101.83,45.92],[101.51,45.85],[100.73,46.11],[100.81,46.34],[100.57,46.51],[99.86,46.13],[99.45,46.69],[98.73,46.3],[97.91,46.54],[97.59,46.46],[97.14,47.02],[96.82,46.93],[96.56,47.09],[97.01,47.66],[96.15,47.9],[96.22,48.14],[95.73,48.7],[95.79,48.94],[94.27,49.24],[94.33,49.49],[94.67,49.58],[94.96,49.42],[95.92,49.43],[95.98,49.67],[95.48,50.23],[95.55,50.48],[95.26,50.64],[95.32,50.88],[95.67,50.96],[96.6,50.72],[96.95,50.8],[97.02,51.04],[96.52,51.61],[95.51,51.61],[94.98,52.17],[93.96,52.16],[93.65,52.32],[93.71,52.56],[93.4,52.72],[93.45,52.97],[94.5,52.98],[94.56,53.22],[94.25,53.38],[94.31,53.62],[94.69,53.7],[94.75,53.95],[94.18,54.51],[93.1,54.5],[92.77,54.65],[92.82,54.9],[93.21,54.98],[93.54,54.82],[93.92,54.91]],[[23.18,64.41],[22.27,64.04],[21.7,63.53],[21.0,63.58],[21.56,64.09],[21.96,64.17],[22.05,64.39],[21.73,64.52],[21.81,64.73],[21.49,64.87],[22.08,65.38],[23.26,65.4],[23.36,65.61],[23.8,65.69],[24.89,65.49],[24.78,65.28],[23.28,64.62],[23.18,64.41]],[[25.46,37.41],[25.19,38.04],[24.87,38.0],[24.67,38.2],[24.71,38.86],[24.51,39.06],[25.08,39.55],[25.86,39.84],[26.06,39.64],[25.93,39.41],[25.61,39.38],[25.48,39.15],[25.68,38.96],[25.11,38.47],[26.34,37.93],[26.22,37.7],[25.46,37.41]],[[13.66,47.21],[14.0,47.27],[14.24,47.11],[14.14,46.89],[13.21,46.92],[13.11,46.7],[12.34,46.34],[11.52,46.59],[11.62,46.81],[11.38,46.96],[11.04,46.89],[11.1,46.29],[10.34,45.92],[9.95,46.45],[8.48,46.53],[8.39,46.3],[7.26,45.61],[7.19,45.38],[7.43,45.24],[6.95,44.7],[7.19,44.55],[7.27,43.94],[6.41,43.93],[6.18,44.07],[6.25,44.3],[6.56,44.39],[6.64,44.62],[5.85,44.83],[6.31,45.37],[6.63,45.45],[6.54,46.05],[7.42,46.06],[8.32,46.9],[9.8,46.83],[10.31,47.35],[10.64,47.42],[12.05,47.1],[12.83,47.46],[13.66,47.21]],[[133.95,34.29],[134.58,34.16],[134.38,33.6],[133.55,33.63],[132.96,33.09],[132.51,33.13],[132.84,33.6],[132.64,33.71],[132.68,33.91],[133.55,33.86],[133.95,34.29]],[[40.17,62.85],[41.38,62.71],[41.63,62.52],[41.39,62.31],[40.92,62.29],[39.95,62.64],[40.17,62.85]],[[81.26,42.48],[82.15,42.62],[82.15,42.87],[82.45,43.0],[82.74,42.88],[83.04,43.01],[83.34,42.88],[83.34,42.62],[83.04,42.5],[82.74,42.62],[82.15,42.11],[81.26,42.22],[80.69,41.7],[79.21,41.78],[78.92,41.64],[78.93,41.39],[78.65,41.25],[78.35,41.36],[78.06,41.22],[78.08,40.97],[77.22,40.8],[77.24,40.54],[76.96,40.4],[75.5,40.43],[74.98,39.88],[74.34,40.34],[74.54,41.0],[74.82,41.15],[75.13,41.04],[76.58,41.27],[76.22,41.89],[76.5,42.03],[78.0,41.99],[78.56,42.52],[81.26,42.48]],[[22.41,37.28],[22.09,37.24],[21.89,37.43],[21.91,38.1],[22.23,38.14],[22.44,37.94],[22.41,37.28]],[[83.63,42.24],[83.63,42.5],[83.93,42.62],[84.22,42.49],[84.22,42.24],[83.92,42.12],[83.63,42.24]],[[112.51,48.5],[112.38,48.29],[112.08,48.25],[111.9,48.43],[112.02,48.64],[112.51,48.5]],[[18.55,60.55],[18.11,60.99],[17.38,61.07],[18.1,61.46],[17.66,61.89],[18.56,62.45],[18.62,62.66],[18.98,62.74],[19.04,62.96],[19.41,63.04],[19.48,63.25],[19.85,63.34],[19.92,63.55],[20.62,63.5],[20.09,62.99],[20.4,62.86],[20.33,62.65],[20.86,62.16],[20.78,61.95],[21.3,61.46],[21.22,61.25],[19.7,60.49],[18.55,60.55]],[[107.26,52.15],[107.03,52.33],[107.15,52.55],[107.5,52.59],[107.72,52.41],[107.61,52.19],[107.26,52.15]],[[122.21,52.15],[122.06,52.35],[122.29,52.52],[123.3,52.6],[123.43,52.4],[123.1,51.87],[123.74,51.42],[122.54,51.19],[122.23,50.67],[121.73,50.9],[120.79,50.81],[120.71,51.37],[121.89,51.62],[122.21,52.15]],[[88.73,54.6],[89.8,54.4],[89.77,54.16],[90.1,54.01],[90.06,53.76],[88.98,53.71],[88.32,54.25],[88.35,54.5],[88.0,54.64],[88.03,54.89],[88.42,54.99],[88.45,55.24],[88.84,55.34],[89.19,55.19],[89.15,54.95],[88.77,54.85],[88.73,54.6]],[[28.08,42.57],[27.88,42.77],[28.02,42.99],[28.36,43.01],[28.56,42.81],[29.42,42.65],[29.68,42.03],[30.53,41.87],[31.24,41.48],[31.1,41.26],[30.26,41.43],[30.12,41.21],[29.79,41.2],[29.07,41.58],[28.74,41.56],[28.48,42.18],[28.15,42.15],[27.95,42.35],[28.08,42.57]],[[-2.83,49.08],[-2.51,49.15],[-2.24,48.99],[-2.29,48.76],[-2.88,48.85],[-2.83,49.08]],[[143.59,43.41],[143.0,42.95],[143.19,42.35],[142.92,42.24],[142.67,42.37],[142.7,42.61],[141.93,42.76],[142.26,43.34],[142.01,43.47],[142.03,43.71],[142.61,44.16],[142.64,44.4],[142.92,44.51],[143.4,44.01],[143.93,43.99],[143.9,43.75],[144.15,43.62],[144.44,43.72],[144.69,43.59],[144.66,43.35],[144.37,43.25],[143.59,43.41]],[[96.25,45.88],[96.57,45.97],[96.82,45.81],[96.76,45.57],[96.44,45.48],[96.19,45.64],[96.25,45.88]],[[116.45,51.49],[117.38,51.62],[118.08,51.21],[116.96,50.92],[116.25,51.32],[116.45,51.49]],[[128.5,44.51],[128.46,44.02],[127.95,43.94],[127.98,44.43],[128.5,44.51]],[[102.87,48.72],[102.54,48.66],[102.3,48.82],[102.39,49.06],[102.73,49.12],[102.97,48.95],[102.87,48.72]],[[13.78,57.62],[13.1,57.69],[13.21,57.88],[13.62,57.94],[13.9,57.81],[13.78,57.62]],[[-1.12,49.87],[-1.98,50.12],[-1.93,50.35],[-0.42,50.22],[-0.16,50.06],[-0.02,49.45],[-0.91,49.49],[-1.18,49.65],[-1.12,49.87]],[[121.07,52.26],[120.92,52.46],[121.15,52.63],[121.0,52.83],[121.61,52.96],[121.76,52.76],[121.53,52.59],[121.68,52.39],[121.07,52.26]],[[88.46,43.9],[88.77,44.01],[89.05,43.87],[89.02,43.62],[88.72,43.51],[88.44,43.65],[88.46,43.9]],[[77.0,43.09],[77.29,43.24],[77.61,43.12],[77.63,42.87],[77.34,42.72],[77.03,42.84],[77.0,43.09]],[[136.7,45.93],[136.19,45.92],[135.94,46.48],[136.2,46.6],[136.71,46.16],[137.23,46.18],[137.22,45.95],[136.7,45.93]],[[131.05,32.84],[130.68,33.26],[130.97,33.54],[131.63,33.39],[131.59,33.2],[131.8,33.08],[131.5,32.8],[131.63,32.29],[130.79,31.64],[130.59,31.75],[130.47,32.27],[131.05,32.84]],[[120.88,48.48],[120.74,48.67],[120.95,48.83],[121.29,48.79],[121.89,48.38],[121.15,48.1],[121.28,47.92],[121.08,47.76],[121.22,47.58],[120.96,47.09],[120.11,47.0],[120.03,47.52],[119.57,47.74],[120.62,47.98],[120.88,48.48]],[[92.41,51.31],[92.71,51.16],[93.07,51.25],[93.37,51.09],[93.32,50.85],[92.31,50.82],[92.0,50.97],[92.05,51.22],[92.41,51.31]],[[20.52,42.03],[20.85,42.08],[21.07,41.89],[20.95,41.66],[20.62,41.62],[20.41,41.8],[20.52,42.03]],[[69.04,35.18],[68.81,35.02],[68.52,35.11],[68.46,35.35],[68.7,35.51],[68.99,35.43],[69.04,35.18]],[[138.05,47.22],[138.04,46.99],[137.5,46.53],[137.24,46.63],[137.25,46.86],[136.47,46.95],[136.74,47.53],[137.01,47.65],[138.07,47.68],[138.34,47.57],[138.32,47.34],[138.05,47.22]],[[96.37,46.37],[96.05,46.28],[95.79,46.44],[95.85,46.68],[96.17,46.77],[96.43,46.61],[96.37,46.37]],[[5.26,55.87],[4.07,55.36],[3.19,55.65],[4.12,56.34],[4.74,56.21],[5.52,56.47],[5.78,56.3],[5.26,55.87]],[[80.29,44.37],[79.64,44.87],[79.63,45.13],[79.94,45.26],[80.26,45.14],[80.27,44.89],[80.58,44.77],[80.59,44.51],[80.29,44.37]],[[68.45,34.22],[67.81,34.63],[67.58,34.47],[67.29,34.55],[66.88,35.12],[67.12,35.29],[67.41,35.2],[67.47,34.96],[68.28,34.95],[68.34,34.71],[68.63,34.62],[68.68,34.38],[68.45,34.22]],[[100.14,56.92],[100.54,56.97],[100.84,56.8],[100.74,56.57],[100.34,56.51],[100.04,56.68],[100.14,56.92]],[[67.93,34.14],[67.81,33.5],[67.58,33.34],[67.3,33.43],[67.41,34.07],[67.64,34.23],[67.93,34.14]],[[19.68,59.51],[20.68,59.76],[22.37,59.4],[21.06,58.8],[20.37,58.9],[19.38,58.64],[18.97,59.11],[19.68,59.51]],[[95.69,44.82],[95.64,44.58],[95.33,44.49],[95.07,44.64],[95.12,44.88],[95.44,44.97],[95.69,44.82]],[[14.43,58.05],[15.12,57.98],[14.59,57.73],[14.3,57.86],[14.43,58.05]],[[140.64,42.68],[140.39,42.81],[140.41,43.04],[140.67,43.15],[141.44,43.01],[141.42,42.78],[140.64,42.68]],[[24.03,39.87],[24.35,39.91],[24.48,40.14],[24.8,40.17],[25.0,39.97],[24.88,39.75],[24.11,39.45],[23.91,39.64],[24.03,39.87]],[[137.28,48.0],[137.24,48.2],[137.74,48.65],[137.7,48.86],[138.58,49.02],[138.17,49.52],[138.71,49.98],[138.67,50.19],[138.96,50.31],[138.54,50.82],[138.84,50.95],[138.8,51.16],[139.45,51.2],[139.49,50.98],[139.83,50.89],[139.86,50.68],[139.56,50.56],[139.96,50.04],[139.41,49.59],[139.8,49.08],[139.21,48.62],[138.9,48.04],[137.28,48.0]],[[131.76,51.54],[131.4,51.61],[131.31,51.82],[131.95,51.9],[132.03,51.68],[131.76,51.54]],[[107.8,50.15],[107.58,50.32],[107.69,50.55],[108.02,50.59],[108.24,50.41],[108.12,50.19],[107.8,50.15]],[[120.06,46.67],[119.87,46.52],[119.42,46.73],[119.93,46.85],[120.06,46.67]],[[74.68,42.17],[74.36,42.27],[74.33,42.53],[74.61,42.68],[74.93,42.57],[74.96,42.32],[74.68,42.17]],[[94.44,45.83],[94.71,45.68],[94.66,45.43],[94.34,45.34],[94.07,45.5],[94.12,45.74],[94.44,45.83]],[[143.66,50.12],[143.35,50.01],[143.07,50.13],[143.1,50.36],[143.69,50.35],[143.66,50.12]],[[136.52,55.04],[136.58,54.81],[136.25,54.67],[135.86,54.76],[135.8,54.98],[136.52,55.04]]],[[[177.69,-37.38],[177.27,-37.92],[176.69,-37.5],[176.46,-37.65],[176.19,-37.56],[176.34,-36.92],[175.76,-36.49],[175.42,-35.91],[174.66,-35.86],[174.82,-35.22],[174.06,-35.17],[174.03,-34.92],[173.76,-34.82],[173.53,-34.97],[172.97,-34.51],[172.73,-34.66],[173.35,-35.61],[174.22,-36.4],[174.04,-37.04],[174.62,-37.48],[174.45,-38.12],[174.73,-38.21],[174.76,-38.46],[174.31,-39.0],[174.03,-38.9],[173.78,-39.05],[173.6,-39.69],[174.41,-39.73],[175.08,-40.65],[174.62,-41.19],[174.33,-41.1],[173.98,-40.52],[173.15,-40.48],[173.12,-40.23],[172.84,-40.14],[172.35,-40.68],[172.07,-40.58],[171.81,-40.72],[171.83,-40.97],[172.12,-41.07],[172.38,-40.92],[172.67,-41.02],[173.02,-41.61],[173.31,-41.7],[173.79,-41.16],[174.08,-41.25],[174.11,-41.5],[173.41,-42.43],[173.44,-42.67],[173.18,-42.82],[173.21,-43.07],[173.51,-43.16],[173.77,-43.01],[173.73,-42.77],[173.99,-42.62],[173.96,-42.37],[174.66,-41.44],[175.27,-41.86],[176.06,-41.64],[176.42,-40.61],[176.66,-40.46],[176.95,-40.55],[177.38,-40.0],[177.02,-39.43],[178.27,-39.14],[178.22,-38.9],[178.81,-37.96],[178.76,-37.72],[178.18,-37.31],[177.96,-37.46],[177.69,-37.38]],[[175.78,-39.95],[175.18,-39.53],[175.55,-38.5],[175.79,-38.35],[176.38,-38.77],[176.81,-38.23],[177.59,-38.25],[178.0,-37.7],[178.27,-37.79],[178.13,-38.42],[177.4,-38.64],[177.44,-38.88],[177.21,-39.04],[176.93,-38.95],[176.7,-39.1],[176.34,-40.13],[176.1,-40.28],[175.82,-40.19],[175.78,-39.95]],[[175.9,-40.68],[175.94,-40.92],[175.69,-41.07],[175.4,-40.98],[175.37,-40.74],[175.61,-40.59],[175.9,-40.68]]],[[[1.0,41.04],[1.51,40.99],[1.56,41.22],[1.34,41.36],[1.05,41.27],[1.0,41.04]]],[[[49.4,68.91],[48.78,68.91],[48.52,69.1],[47.54,68.91],[47.81,68.72],[49.3,68.53],[49.66,68.72],[49.4,68.91]]],[[[39.1,66.51],[38.86,66.3],[38.33,66.27],[38.04,66.44],[33.04,67.16],[32.52,67.11],[32.33,66.9],[33.16,66.79],[33.48,66.63],[33.28,66.42],[33.59,66.26],[34.1,66.31],[34.3,66.52],[35.12,66.4],[34.2,65.93],[34.5,65.77],[34.3,65.56],[34.6,65.39],[34.4,65.18],[34.7,65.01],[34.5,64.8],[34.79,64.63],[34.59,64.42],[34.88,64.25],[36.12,64.16],[36.4,63.99],[36.2,63.77],[36.47,63.6],[37.64,63.88],[37.91,63.71],[38.39,63.74],[38.66,63.56],[38.44,63.35],[38.7,63.17],[39.18,63.19],[39.4,63.41],[39.14,63.59],[39.37,63.8],[38.34,64.13],[38.57,64.34],[38.3,64.52],[37.03,64.62],[36.75,64.8],[36.96,65.01],[40.57,64.45],[40.82,64.66],[40.55,64.85],[40.8,65.05],[39.74,65.39],[39.98,65.6],[42.1,66.09],[42.37,66.29],[44.53,65.97],[44.82,66.17],[44.56,66.36],[44.86,66.56],[44.6,66.75],[44.9,66.95],[47.11,66.6],[48.33,67.0],[48.08,67.19],[48.41,67.38],[48.16,67.58],[47.57,67.57],[47.25,67.38],[47.5,67.19],[47.18,66.99],[45.77,67.16],[45.51,67.35],[45.82,67.55],[46.73,67.75],[46.46,67.94],[46.79,68.14],[46.53,68.32],[46.86,68.52],[46.59,68.7],[45.98,68.69],[45.65,68.5],[45.93,68.31],[45.6,68.12],[45.87,67.93],[45.55,67.73],[44.97,67.72],[44.7,67.9],[45.01,68.1],[44.73,68.29],[44.14,68.27],[43.83,68.07],[44.11,67.89],[43.81,67.69],[44.93,67.34],[44.63,67.14],[44.06,67.12],[43.77,66.92],[44.04,66.73],[43.75,66.53],[43.19,66.51],[42.92,66.7],[43.21,66.9],[42.93,67.08],[42.37,67.06],[42.09,66.86],[42.37,66.68],[41.28,66.24],[39.1,66.51]],[[39.95,65.98],[39.71,65.77],[39.18,65.74],[38.94,65.53],[39.22,65.36],[38.99,65.15],[38.48,65.11],[36.61,65.56],[35.39,65.27],[35.1,65.44],[35.3,65.65],[35.01,65.81],[35.94,66.28],[36.46,66.32],[38.38,65.88],[38.9,65.92],[39.14,66.13],[39.67,66.16],[39.95,65.98]]],[[[94.81,52.82],[94.74,52.58],[95.05,52.42],[96.07,52.42],[96.59,51.85],[96.95,51.93],[97.02,52.17],[96.73,52.33],[96.8,52.57],[96.51,52.73],[94.81,52.82]]],[[[139.72,57.79],[139.35,57.65],[139.39,57.42],[140.18,57.46],[140.14,57.69],[139.72,57.79]]],[[[121.78,21.03],[121.74,20.81],[121.93,20.68],[122.16,20.78],[122.2,21.01],[121.78,21.03]]],[[[-27.89,39.52],[-28.15,39.36],[-28.12,39.11],[-28.95,38.9],[-29.13,38.24],[-27.14,38.29],[-26.87,38.44],[-26.67,39.1],[-27.55,39.16],[-27.58,39.41],[-27.89,39.52]]],[[[43.86,68.45],[44.17,68.65],[43.88,68.83],[43.28,68.81],[42.97,68.61],[43.26,68.43],[43.86,68.45]]],[[[91.67,38.24],[92.12,37.72],[92.28,37.1],[92.52,36.96],[93.3,37.03],[93.72,36.51],[97.43,36.29],[97.33,36.9],[97.11,37.05],[95.36,37.1],[94.95,37.62],[94.68,37.52],[94.45,37.67],[94.31,38.28],[93.56,38.47],[93.6,38.71],[93.36,38.85],[92.55,38.79],[92.31,38.93],[91.71,38.48],[91.46,38.62],[91.18,38.51],[91.14,38.27],[91.39,38.13],[91.67,38.24]]],[[[153.51,-28.78],[153.77,-28.68],[153.8,-28.42],[153.36,-27.87],[153.39,-27.62],[153.65,-27.51],[153.68,-27.26],[153.44,-27.11],[152.89,-27.57],[152.86,-27.83],[153.51,-28.78]]],[[[139.84,38.46],[140.09,38.56],[140.1,38.8],[139.87,38.93],[139.89,39.16],[140.62,39.25],[140.64,39.48],[140.18,39.98],[140.2,40.21],[139.71,40.23],[139.7,40.0],[139.45,39.89],[139.65,39.29],[139.41,39.18],[139.13,38.6],[138.42,38.51],[137.92,37.6],[138.36,37.11],[139.06,37.2],[139.84,38.46]]],[[[116.05,29.02],[115.75,28.53],[116.37,28.28],[116.6,28.34],[117.16,29.1],[116.8,29.62],[116.31,29.29],[115.89,29.38],[116.05,29.02]]],[[[-7.1,61.3],[-6.33,61.22],[-6.28,61.42],[-6.65,61.56],[-6.6,61.76],[-5.72,62.07],[-5.67,62.26],[-6.37,62.74],[-7.72,62.17],[-7.76,61.97],[-7.06,61.5],[-7.1,61.3]]],[[[116.13,-32.05],[115.75,-31.85],[115.6,-32.0],[115.69,-32.52],[115.95,-32.55],[116.13,-32.05]]],[[[16.91,41.49],[16.58,41.43],[16.24,42.02],[14.81,42.19],[14.46,42.77],[14.13,42.71],[14.04,42.47],[14.39,41.9],[15.26,41.85],[15.61,41.26],[17.02,41.08],[17.13,41.31],[16.91,41.49]]],[[[173.31,-43.79],[173.27,-43.55],[172.65,-43.12],[172.14,-43.66],[172.17,-43.9],[172.47,-44.0],[173.31,-43.79]]],[[[77.0,30.83],[77.76,30.76],[78.0,30.9],[77.98,31.14],[76.88,32.27],[76.63,32.13],[76.66,31.89],[77.2,31.44],[77.0,30.83]]],[[[115.47,-33.37],[114.62,-33.63],[114.7,-34.17],[115.13,-34.04],[115.01,-33.85],[115.44,-33.72],[115.59,-33.56],[115.47,-33.37]]],[[[103.05,57.52],[102.94,57.29],[103.39,56.71],[104.29,57.03],[104.41,57.25],[103.45,57.56],[103.05,57.52]]],[[[123.02,24.71],[122.71,24.16],[124.19,23.97],[124.73,24.61],[125.6,24.55],[125.88,24.87],[124.81,25.05],[124.3,24.63],[123.02,24.71]]],[[[-6.39,43.88],[-7.83,43.9],[-8.1,44.05],[-8.73,43.61],[-9.0,43.76],[-9.3,43.66],[-9.65,43.07],[-8.88,42.14],[-8.59,42.24],[-8.56,42.49],[-9.08,43.03],[-9.05,43.27],[-8.76,43.37],[-8.48,43.22],[-7.86,43.66],[-4.24,43.15],[-3.95,43.23],[-3.91,43.47],[-4.16,43.63],[-6.39,43.88]]],[[[111.04,33.39],[111.07,33.59],[110.86,33.74],[110.61,33.68],[110.58,33.47],[111.04,33.39]]],[[[123.9,26.1],[123.24,26.02],[123.36,25.46],[123.56,25.34],[124.06,25.76],[124.1,25.98],[123.9,26.1]]],[[[18.33,39.99],[18.32,40.64],[17.56,40.95],[16.81,40.61],[16.29,40.08],[16.51,39.9],[17.25,40.25],[18.0,39.94],[18.33,39.99]]],[[[64.42,29.64],[64.02,30.17],[63.75,30.25],[63.54,30.09],[63.34,29.08],[64.55,29.18],[64.75,29.33],[64.69,29.56],[64.42,29.64]]],[[[113.31,31.56],[113.54,31.62],[113.58,31.83],[113.37,31.98],[113.13,31.92],[113.1,31.71],[113.31,31.56]]],[[[-25.27,36.89],[-25.0,37.03],[-25.35,37.66],[-25.09,37.8],[-25.12,38.06],[-25.98,38.13],[-26.24,37.98],[-26.21,37.72],[-25.27,36.89]]],[[[-14.82,64.52],[-15.28,64.44],[-15.38,64.22],[-14.59,64.16],[-14.48,64.38],[-13.44,64.76],[-13.32,64.98],[-14.13,65.05],[-14.82,64.52]]],[[[107.82,56.45],[108.24,56.46],[108.41,56.66],[107.73,56.83],[107.57,56.63],[107.82,56.45]]],[[[109.63,55.72],[109.22,55.71],[109.04,55.52],[109.28,55.33],[109.11,55.14],[109.34,54.96],[109.75,54.96],[109.92,55.15],[109.69,55.34],[109.86,55.53],[109.63,55.72]]],[[[172.15,-41.31],[171.33,-41.51],[171.36,-41.75],[170.6,-42.68],[170.62,-42.93],[170.35,-43.07],[170.37,-43.32],[170.67,-43.42],[170.95,-43.27],[170.92,-43.03],[171.68,-42.1],[171.65,-41.85],[172.47,-41.66],[172.44,-41.41],[172.15,-41.31]]],[[[128.97,28.29],[128.69,27.99],[128.65,27.77],[128.85,27.65],[129.71,28.56],[129.26,28.59],[128.97,28.29]]],[[[-16.64,64.19],[-16.73,63.96],[-17.98,63.92],[-18.07,63.69],[-18.51,63.6],[-20.13,63.67],[-20.82,64.15],[-22.51,64.2],[-22.95,64.09],[-23.0,63.86],[-21.33,63.82],[-20.63,63.34],[-19.39,63.41],[-18.23,63.24],[-17.8,63.33],[-17.71,63.56],[-16.92,63.51],[-15.94,63.91],[-15.84,64.14],[-16.19,64.27],[-16.64,64.19]]],[[[72.05,66.05],[72.52,66.19],[72.45,66.41],[71.41,66.36],[71.5,66.14],[72.05,66.05]]],[[[40.7,66.98],[40.44,66.78],[40.72,66.6],[41.27,66.63],[41.54,66.83],[41.26,67.01],[41.53,67.22],[41.24,67.39],[41.52,67.6],[41.23,67.77],[40.66,67.75],[40.39,67.54],[40.68,67.37],[40.41,67.16],[40.7,66.98]]],[[[149.7,46.15],[149.64,45.91],[149.33,45.81],[149.27,45.57],[149.53,45.43],[150.22,45.86],[150.28,46.1],[150.02,46.24],[149.7,46.15]]],[[[-16.39,32.32],[-16.65,32.96],[-16.92,33.09],[-17.7,32.95],[-17.7,32.69],[-17.43,32.57],[-17.17,32.7],[-16.65,32.19],[-16.39,32.32]]],[[[-17.14,28.12],[-16.39,28.01],[-16.15,28.14],[-16.15,28.39],[-16.89,28.51],[-17.14,28.38],[-17.14,28.12]]],[[[5.46,62.35],[4.76,62.49],[4.67,62.31],[4.97,62.14],[5.37,62.17],[5.46,62.35]]],[[[15.75,40.21],[15.43,40.15],[15.33,39.91],[15.55,39.73],[15.87,39.79],[15.97,40.03],[15.75,40.21]]],[[[13.02,41.41],[12.92,41.18],[13.69,40.9],[14.01,40.96],[14.1,41.2],[13.88,41.37],[13.02,41.41]]],[[[14.36,40.38],[15.21,40.33],[15.31,40.56],[14.55,40.85],[14.23,40.79],[14.13,40.55],[14.36,40.38]]],[[[171.43,-45.07],[171.4,-44.83],[171.93,-44.29],[171.9,-44.05],[171.6,-43.95],[170.82,-44.88],[170.84,-45.12],[170.56,-45.27],[170.59,-45.51],[170.9,-45.6],[171.43,-45.07]]],[[[128.4,26.47],[128.73,27.0],[128.08,27.16],[127.52,26.54],[127.07,26.57],[126.79,26.26],[127.44,26.1],[127.39,25.88],[127.6,25.76],[128.4,26.47]]],[[[-9.08,37.29],[-9.1,37.04],[-8.85,36.9],[-8.58,37.01],[-8.55,37.25],[-8.8,37.4],[-9.08,37.29]]],[[[-18.37,27.72],[-18.12,27.6],[-17.87,27.73],[-17.88,27.98],[-18.13,28.1],[-18.37,27.97],[-18.37,27.72]]],[[[54.66,68.06],[55.06,68.24],[54.85,68.44],[53.83,68.28],[54.05,68.08],[54.66,68.06]]],[[[48.25,67.96],[48.5,67.77],[49.09,67.77],[52.37,68.51],[52.14,68.7],[51.52,68.71],[48.25,67.96]]],[[[9.12,40.98],[9.43,41.05],[9.36,41.68],[9.67,41.76],[9.76,41.99],[9.53,42.15],[8.82,41.77],[8.74,41.53],[9.12,40.98]]],[[[39.8,67.89],[40.36,67.92],[40.64,68.12],[40.34,68.3],[38.57,68.57],[37.99,68.53],[37.74,68.33],[39.8,67.89]]],[[[70.85,66.44],[70.76,66.67],[70.19,66.75],[69.72,66.6],[69.82,66.38],[70.85,66.44]]],[[[130.04,30.24],[130.7,30.08],[131.28,30.66],[131.08,30.79],[130.54,30.41],[130.33,30.53],[130.04,30.24]]],[[[35.87,68.94],[37.1,68.66],[37.67,68.7],[37.93,68.9],[36.7,69.19],[36.12,69.14],[35.87,68.94]]],[[[131.13,37.32],[131.12,37.54],[130.7,37.53],[130.93,37.21],[131.13,37.32]]],[[[128.62,32.19],[128.37,32.1],[128.33,31.9],[128.53,31.79],[128.82,32.08],[128.62,32.19]]],[[[-17.63,28.37],[-17.39,28.5],[-17.39,28.75],[-17.9,29.25],[-18.15,29.12],[-18.14,28.86],[-17.63,28.37]]],[[[6.16,62.91],[5.76,62.89],[5.66,62.71],[5.96,62.55],[7.05,62.42],[7.16,62.6],[6.16,62.91]]],[[[-6.08,58.91],[-5.69,58.97],[-5.65,59.18],[-6.38,59.26],[-6.43,59.06],[-6.08,58.91]]],[[[-8.44,58.3],[-8.82,58.23],[-9.27,57.73],[-8.92,57.6],[-8.13,57.95],[-8.09,58.16],[-8.44,58.3]]],[[[110.47,54.03],[110.08,54.03],[109.91,53.84],[110.52,53.66],[110.69,53.84],[110.47,54.03]]],[[[-176.67,-43.9],[-176.91,-44.04],[-176.84,-44.27],[-176.3,-44.22],[-176.2,-43.62],[-176.5,-43.53],[-176.73,-43.67],[-176.67,-43.9]]],[[[16.22,38.54],[15.91,38.48],[15.81,38.25],[16.02,38.06],[16.34,38.12],[16.44,38.36],[16.22,38.54]]],[[[-31.14,39.82],[-31.45,39.91],[-31.71,39.75],[-31.66,39.5],[-30.99,39.07],[-30.73,39.22],[-30.78,39.48],[-31.09,39.57],[-31.14,39.82]]],[[[-13.37,57.69],[-13.35,57.91],[-13.72,58.04],[-14.1,57.95],[-14.11,57.73],[-13.37,57.69]]]]}}]}