{"type":"FeatureCollection","features":[{"type":"Feature","properties":{},"geometry":{"type":"MultiPolygon","coordinates":[[[[48.11,43.77],[48.44,43.75],[48.63,43.94],[48.96,43.92],[49.09,43.69],[49.42,43.66],[49.56,43.43],[49.89,43.4],[50.08,43.6],[50.41,43.57],[50.55,43.34],[50.88,43.3],[51.08,43.5],[51.41,43.46],[51.54,43.23],[51.87,43.2],[52.07,43.39],[51.94,43.62],[51.61,43.66],[51.48,43.89],[51.69,44.09],[52.02,44.05],[52.23,44.25],[52.57,44.21],[52.69,43.97],[53.03,43.93],[53.15,43.7],[53.49,43.66],[53.7,43.85],[53.58,44.09],[53.79,44.28],[54.13,44.24],[54.25,44.0],[54.59,43.96],[54.81,44.15],[55.15,44.1],[55.27,43.86],[55.61,43.82],[55.83,44.01],[56.17,43.96],[56.28,43.72],[56.62,43.67],[56.85,43.86],[57.19,43.8],[57.3,43.56],[57.64,43.51],[57.74,43.27],[58.08,43.21],[58.31,43.4],[58.65,43.34],[58.75,43.1],[59.09,43.04],[59.32,43.22],[59.66,43.16],[59.76,42.92],[60.09,42.85],[60.33,43.04],[60.66,42.97],[60.91,43.15],[61.24,43.09],[61.33,42.84],[61.67,42.77],[61.91,42.95],[62.25,42.89],[62.5,43.06],[62.83,42.99],[63.08,43.17],[63.42,43.1],[63.67,43.27],[64.01,43.2],[64.26,43.38],[64.6,43.3],[64.85,43.47],[65.19,43.4],[65.27,43.15],[65.6,43.07],[65.86,43.24],[66.2,43.16],[66.27,42.91],[66.6,42.83],[66.86,43.0],[67.2,42.91],[67.46,43.08],[67.79,43.0],[67.86,42.74],[68.19,42.66],[68.45,42.82],[68.78,42.73],[69.05,42.9],[68.99,43.15],[68.66,43.24],[68.6,43.49],[68.26,43.58],[68.0,43.41],[67.66,43.5],[67.59,43.75],[67.26,43.84],[67.19,44.09],[67.46,44.26],[67.39,44.51],[67.66,44.68],[68.01,44.59],[68.07,44.34],[68.41,44.25],[68.47,44.0],[68.81,43.91],[69.08,44.08],[69.02,44.33],[69.3,44.5],[69.64,44.4],[69.7,44.15],[70.03,44.06],[70.31,44.22],[70.65,44.13],[70.93,44.29],[71.26,44.19],[71.54,44.35],[71.88,44.25],[72.16,44.41],[72.5,44.31],[72.78,44.47],[72.74,44.72],[72.4,44.82],[72.36,45.08],[72.02,45.18],[71.97,45.43],[71.63,45.53],[71.58,45.79],[71.24,45.88],[71.18,46.14],[71.48,46.3],[71.42,46.55],[71.08,46.65],[70.78,46.49],[70.43,46.58],[70.37,46.84],[70.67,47.0],[70.61,47.25],[70.91,47.41],[70.85,47.67],[71.15,47.83],[71.1,48.08],[71.4,48.24],[71.35,48.5],[71.65,48.66],[71.6,48.91],[71.24,49.01],[71.18,49.26],[71.49,49.42],[71.86,49.32],[72.17,49.48],[72.12,49.73],[71.75,49.83],[71.69,50.09],[71.32,50.18],[71.27,50.44],[70.89,50.53],[70.83,50.78],[70.45,50.88],[70.13,50.72],[69.76,50.81],[69.69,51.06],[69.31,51.15],[68.99,50.98],[68.61,51.07],[68.54,51.32],[68.15,51.41],[67.84,51.24],[67.45,51.32],[67.14,51.16],[66.76,51.24],[66.67,51.49],[66.28,51.57],[65.98,51.39],[65.59,51.47],[65.29,51.3],[64.9,51.37],[64.81,51.62],[64.41,51.69],[64.11,51.52],[63.72,51.59],[63.43,51.41],[63.03,51.48],[62.74,51.3],[62.35,51.36],[62.25,51.61],[61.85,51.67],[61.57,51.49],[61.17,51.55],[60.89,51.37],[61.0,51.13],[60.72,50.94],[60.33,51.0],[60.22,51.24],[59.82,51.3],[59.71,51.54],[59.32,51.6],[59.04,51.41],[58.65,51.46],[58.38,51.28],[57.98,51.33],[57.72,51.14],[57.33,51.19],[57.2,51.42],[56.81,51.47],[56.68,51.71],[56.29,51.75],[56.15,51.99],[55.76,52.03],[55.5,51.84],[55.1,51.88],[54.85,51.68],[54.45,51.72],[54.31,51.96],[53.92,51.99],[53.67,51.79],[53.28,51.83],[53.13,52.06],[52.74,52.09],[52.49,51.89],[52.1,51.92],[51.86,51.72],[51.47,51.75],[51.24,51.55],[50.85,51.58],[50.7,51.8],[50.31,51.83],[50.08,51.63],[49.69,51.65],[49.47,51.44],[49.08,51.46],[48.86,51.26],[48.48,51.28],[48.27,51.07],[47.89,51.09],[47.67,50.89],[47.3,50.9],[47.09,50.7],[46.72,50.71],[46.51,50.5],[46.14,50.51],[45.94,50.31],[45.58,50.32],[45.38,50.11],[45.55,49.89],[45.35,49.69],[44.99,49.69],[44.8,49.49],[44.97,49.27],[44.78,49.06],[44.42,49.07],[44.24,48.86],[43.89,48.87],[43.7,48.66],[43.36,48.67],[43.18,48.46],[43.35,48.25],[43.17,48.04],[43.34,47.83],[43.16,47.62],[42.82,47.62],[42.65,47.42],[42.82,47.2],[42.65,47.0],[42.81,46.78],[42.64,46.58],[42.81,46.36],[42.64,46.16],[42.8,45.94],[43.13,45.94],[43.29,45.72],[43.62,45.71],[43.78,45.5],[44.11,45.49],[44.26,45.27],[44.59,45.26],[44.75,45.04],[45.08,45.02],[45.23,44.81],[45.56,44.79],[45.71,44.57],[46.04,44.55],[46.18,44.33],[46.51,44.31],[46.66,44.09],[46.98,44.07],[47.17,44.27],[47.5,44.24],[47.64,44.02],[47.97,44.0],[48.11,43.77]],[[67.23,48.55],[66.94,48.39],[67.02,48.13],[66.73,47.96],[66.37,48.04],[66.29,48.3],[66.58,48.47],[66.5,48.72],[66.79,48.89],[66.71,49.14],[67.01,49.31],[66.93,49.56],[67.23,49.73],[67.6,49.65],[67.9,49.82],[68.28,49.73],[68.35,49.48],[68.05,49.31],[68.12,49.06],[67.82,48.89],[67.9,48.64],[67.6,48.47],[67.23,48.55]],[[57.84,50.9],[58.23,50.85],[58.35,50.61],[58.08,50.42],[57.7,50.47],[57.57,50.71],[57.84,50.9]]],[[[99.3,46.21],[99.23,45.97],[98.91,45.9],[98.66,46.06],[98.35,45.98],[98.28,45.74],[98.52,45.58],[98.84,45.66],[99.08,45.5],[99.4,45.57],[99.64,45.41],[99.95,45.49],[100.19,45.33],[100.5,45.4],[100.73,45.24],[101.04,45.31],[101.27,45.15],[101.58,45.22],[101.66,45.45],[101.43,45.62],[101.12,45.55],[100.89,45.71],[100.57,45.64],[100.34,45.8],[100.02,45.73],[99.78,45.89],[99.86,46.13],[99.62,46.29],[99.3,46.21]]],[[[75.58,47.27],[75.23,47.38],[74.92,47.23],[74.58,47.33],[74.27,47.18],[73.92,47.29],[73.62,47.13],[73.66,46.88],[73.36,46.72],[73.01,46.83],[72.71,46.67],[72.76,46.41],[73.1,46.31],[73.15,46.06],[73.49,45.96],[73.53,45.7],[73.23,45.55],[73.28,45.29],[73.61,45.19],[73.65,44.93],[73.99,44.83],[74.28,44.98],[74.61,44.88],[74.65,44.62],[74.98,44.51],[75.27,44.66],[75.24,44.92],[75.54,45.07],[75.87,44.96],[76.17,45.11],[76.49,45.0],[76.79,45.14],[76.77,45.4],[77.07,45.54],[77.4,45.43],[77.7,45.57],[77.68,45.83],[77.99,45.97],[78.32,45.85],[78.63,45.99],[78.61,46.25],[78.92,46.39],[79.25,46.27],[79.56,46.41],[79.55,46.67],[79.86,46.8],[80.19,46.68],[80.2,46.42],[80.53,46.3],[80.84,46.44],[81.16,46.31],[81.48,46.44],[81.48,46.7],[81.15,46.82],[80.83,46.69],[80.51,46.81],[80.5,47.07],[80.17,47.19],[79.85,47.06],[79.52,47.18],[79.5,47.43],[79.17,47.55],[78.85,47.42],[78.87,47.16],[78.55,47.02],[78.22,47.14],[77.9,47.0],[77.56,47.11],[77.25,46.97],[76.91,47.08],[76.6,46.94],[76.26,47.05],[76.23,47.31],[75.89,47.42],[75.58,47.27]]],[[[88.88,47.67],[88.85,47.42],[89.15,47.27],[89.12,47.02],[89.41,46.88],[89.74,46.98],[89.77,47.24],[89.48,47.38],[89.51,47.63],[89.21,47.78],[88.88,47.67]]],[[[94.94,48.04],[94.61,47.95],[94.33,48.11],[94.39,48.35],[94.72,48.44],[94.78,48.68],[94.5,48.84],[94.16,48.75],[93.88,48.91],[93.93,49.15],[93.64,49.31],[93.3,49.22],[93.01,49.37],[92.67,49.28],[92.62,49.03],[92.28,48.94],[92.23,48.69],[91.89,48.59],[91.6,48.74],[91.26,48.64],[91.22,48.39],[91.51,48.24],[91.47,48.0],[91.76,47.85],[91.72,47.6],[92.01,47.45],[92.34,47.55],[92.38,47.79],[92.71,47.89],[93.0,47.74],[92.95,47.49],[92.62,47.39],[92.57,47.15],[92.85,46.99],[93.18,47.09],[93.46,46.94],[93.79,47.03],[94.06,46.88],[94.39,46.97],[94.66,46.81],[94.61,46.57],[94.28,46.48],[94.23,46.23],[94.5,46.08],[94.82,46.17],[95.08,46.01],[95.41,46.1],[95.67,45.95],[95.99,46.04],[96.05,46.28],[95.79,46.44],[95.85,46.68],[95.58,46.84],[95.25,46.75],[94.99,46.9],[95.04,47.15],[95.37,47.24],[95.64,47.08],[95.97,47.17],[96.03,47.41],[95.76,47.57],[95.43,47.48],[95.16,47.64],[95.22,47.88],[94.94,48.04]]],[[[92.8,45.11],[93.12,45.21],[93.39,45.06],[93.71,45.16],[93.76,45.4],[93.49,45.55],[93.17,45.46],[92.9,45.61],[92.94,45.85],[92.67,46.01],[92.35,45.91],[92.3,45.66],[92.58,45.51],[92.53,45.26],[92.8,45.11]]],[[[87.32,48.13],[87.3,47.88],[87.61,47.73],[87.94,47.85],[87.97,48.1],[87.66,48.24],[87.32,48.13]]],[[[78.31,50.1],[78.33,49.84],[78.68,49.72],[79.01,49.86],[79.36,49.74],[79.7,49.87],[79.68,50.13],[79.33,50.25],[79.31,50.51],[78.96,50.63],[78.62,50.49],[78.26,50.61],[77.93,50.47],[77.95,50.21],[78.31,50.1]]],[[[94.66,45.43],[94.34,45.34],[94.29,45.1],[94.55,44.95],[94.86,45.04],[94.92,45.28],[94.66,45.43]]],[[[81.06,50.15],[80.71,50.27],[80.37,50.14],[80.38,49.89],[80.73,49.76],[81.07,49.89],[81.06,50.15]]],[[[90.61,46.55],[90.65,46.8],[90.36,46.94],[90.03,46.84],[90.0,46.59],[90.29,46.44],[90.25,46.19],[90.54,46.05],[90.86,46.15],[91.15,46.0],[91.47,46.11],[91.51,46.35],[91.22,46.5],[90.9,46.4],[90.61,46.55]]],[[[95.69,44.82],[96.01,44.91],[96.07,45.15],[95.81,45.31],[95.49,45.22],[95.44,44.97],[95.69,44.82]]]]}}]}