{"type":"FeatureCollection","features":[{"type":"Feature","properties":{},"geometry":{"type":"MultiPolygon","coordinates":[[[[180.0,64.98],[179.47,64.99],[179.16,64.78],[178.58,64.78],[178.27,64.57],[177.7,64.57],[177.42,64.78],[176.84,64.78],[176.55,64.57],[176.83,64.36],[177.4,64.36],[177.67,64.15],[178.24,64.15],[178.5,63.94],[178.2,63.73],[178.46,63.53],[178.17,63.32],[178.42,63.11],[178.97,63.11],[179.21,62.9],[178.92,62.69],[178.39,62.69],[178.14,62.9],[177.6,62.9],[177.32,62.69],[176.79,62.69],[176.52,62.47],[175.99,62.47],[175.73,62.25],[175.2,62.24],[174.95,62.03],[174.42,62.02],[174.18,61.8],[173.66,61.78],[173.42,61.57],[172.91,61.55],[172.68,61.33],[172.17,61.31],[171.94,61.09],[171.44,61.07],[171.22,60.85],[170.72,60.82],[170.51,60.6],[170.8,60.41],[170.59,60.19],[170.1,60.16],[169.81,60.35],[170.02,60.57],[169.72,60.76],[169.22,60.72],[168.92,60.91],[168.41,60.87],[168.22,60.65],[167.73,60.61],[167.54,60.38],[167.05,60.34],[166.74,60.52],[166.24,60.48],[165.92,60.66],[165.43,60.61],[165.26,60.38],[164.77,60.33],[164.61,60.1],[164.13,60.05],[163.79,60.22],[163.31,60.17],[163.16,59.94],[163.49,59.76],[163.35,59.54],[162.87,59.48],[162.73,59.25],[163.06,59.08],[162.92,58.85],[162.46,58.79],[162.32,58.57],[161.87,58.51],[161.74,58.28],[162.06,58.11],[161.93,57.89],[162.25,57.72],[162.7,57.78],[163.01,57.62],[162.87,57.39],[162.43,57.33],[162.31,57.11],[162.61,56.95],[162.49,56.72],[162.06,56.66],[161.93,56.44],[161.51,56.38],[161.2,56.54],[160.78,56.48],[160.46,56.63],[160.04,56.57],[159.93,56.34],[159.51,56.27],[159.41,56.05],[159.72,55.9],[160.14,55.96],[160.24,56.19],[160.66,56.25],[160.97,56.09],[161.39,56.16],[161.7,56.0],[161.58,55.78],[161.16,55.71],[161.05,55.49],[161.35,55.34],[161.24,55.12],[161.53,54.96],[161.41,54.74],[161.01,54.68],[160.72,54.83],[160.32,54.77],[160.21,54.55],[159.81,54.48],[159.7,54.26],[159.3,54.19],[159.2,53.97],[159.48,53.81],[159.38,53.59],[158.99,53.52],[158.88,53.29],[158.5,53.22],[158.21,53.37],[157.83,53.3],[157.73,53.08],[158.01,52.92],[157.91,52.7],[158.19,52.54],[158.1,52.31],[157.72,52.24],[157.44,52.39],[157.53,52.62],[157.25,52.77],[157.35,53.0],[157.06,53.15],[157.16,53.38],[156.87,53.53],[156.96,53.75],[156.67,53.9],[156.77,54.13],[156.46,54.27],[156.54,54.49],[156.22,54.64],[156.3,54.86],[156.69,54.94],[156.78,55.16],[156.45,55.31],[156.53,55.53],[156.21,55.68],[156.29,55.9],[155.96,56.05],[156.04,56.28],[156.45,56.36],[156.53,56.58],[156.2,56.73],[156.28,56.96],[156.7,57.04],[156.79,57.27],[157.22,57.35],[157.31,57.58],[157.74,57.65],[157.84,57.88],[158.28,57.96],[158.38,58.19],[158.83,58.26],[158.93,58.49],[159.38,58.57],[159.5,58.8],[159.95,58.87],[160.07,59.1],[160.53,59.16],[160.66,59.4],[161.12,59.46],[161.25,59.69],[161.73,59.76],[161.86,59.99],[162.34,60.05],[162.49,60.28],[162.14,60.45],[162.28,60.68],[162.77,60.74],[163.12,60.57],[163.61,60.62],[163.77,60.85],[163.42,61.03],[163.58,61.26],[164.08,61.32],[164.25,61.55],[163.9,61.72],[164.06,61.96],[164.58,62.01],[164.75,62.24],[164.4,62.42],[164.57,62.65],[164.21,62.83],[163.67,62.78],[163.51,62.54],[162.98,62.48],[162.82,62.25],[163.18,62.08],[163.03,61.84],[162.51,61.78],[162.37,61.55],[161.86,61.49],[161.72,61.25],[161.22,61.19],[161.08,60.96],[160.59,60.89],[160.22,61.06],[160.35,61.29],[159.98,61.46],[160.11,61.69],[159.73,61.86],[159.22,61.79],[158.84,61.95],[158.33,61.88],[157.94,62.04],[157.43,61.96],[157.32,61.72],[156.82,61.64],[156.72,61.4],[156.23,61.32],[156.13,61.08],[155.65,60.99],[155.56,60.76],[155.08,60.67],[155.0,60.43],[154.53,60.34],[154.45,60.1],[153.99,60.01],[153.92,59.78],[154.3,59.63],[154.23,59.39],[153.78,59.3],[153.39,59.45],[152.94,59.35],[152.88,59.12],[152.44,59.02],[152.05,59.16],[152.11,59.4],[151.71,59.54],[151.27,59.44],[150.87,59.58],[150.42,59.48],[150.02,59.61],[150.06,59.85],[149.65,59.99],[149.2,59.88],[149.17,59.64],[148.73,59.53],[148.32,59.66],[147.88,59.55],[147.86,59.31],[147.43,59.2],[147.02,59.33],[147.03,59.57],[146.61,59.69],[146.18,59.57],[146.18,59.33],[145.75,59.22],[145.33,59.34],[144.91,59.22],[144.49,59.33],[144.07,59.21],[143.65,59.33],[143.23,59.2],[142.8,59.31],[142.4,59.19],[142.42,58.95],[142.02,58.82],[141.59,58.93],[141.19,58.79],[141.22,58.56],[140.83,58.43],[140.87,58.19],[140.48,58.06],[140.52,57.82],[140.14,57.69],[140.18,57.46],[139.81,57.32],[139.39,57.42],[139.02,57.29],[139.07,57.05],[138.71,56.92],[138.76,56.69],[138.4,56.55],[137.99,56.64],[137.64,56.5],[137.7,56.27],[137.35,56.14],[137.41,55.91],[137.07,55.77],[136.66,55.86],[136.33,55.72],[136.39,55.49],[136.06,55.35],[136.12,55.12],[135.8,54.98],[135.4,55.07],[135.08,54.93],[135.15,54.7],[135.54,54.62],[135.86,54.76],[136.25,54.67],[136.58,54.81],[136.97,54.73],[137.03,54.5],[136.7,54.37],[136.76,54.14],[136.44,54.01],[136.5,53.78],[136.88,53.7],[137.2,53.83],[137.14,54.06],[137.46,54.19],[137.84,54.1],[137.9,53.88],[137.57,53.74],[137.62,53.52],[138.0,53.43],[138.32,53.57],[138.27,53.79],[138.6,53.92],[138.55,54.14],[138.88,54.27],[139.26,54.18],[139.59,54.31],[139.97,54.21],[140.0,53.99],[140.38,53.89],[140.41,53.67],[140.77,53.57],[140.8,53.35],[141.17,53.25],[141.19,53.03],[140.87,52.91],[140.89,52.69],[141.25,52.59],[141.27,52.37],[141.62,52.27],[141.95,52.39],[141.93,52.61],[142.26,52.73],[142.24,52.95],[141.88,53.05],[141.86,53.27],[142.19,53.39],[142.17,53.62],[142.51,53.74],[142.87,53.63],[142.89,53.41],[143.24,53.3],[143.26,53.08],[142.92,52.96],[142.94,52.74],[143.29,52.64],[143.3,52.42],[142.97,52.3],[142.98,52.08],[143.33,51.98],[143.34,51.76],[143.01,51.65],[143.03,51.43],[143.36,51.33],[143.38,51.11],[143.71,51.01],[143.72,50.79],[143.4,50.68],[143.41,50.47],[143.69,50.35],[143.66,50.12],[143.94,50.0],[143.9,49.77],[144.18,49.65],[144.14,49.42],[143.83,49.31],[143.56,49.43],[143.25,49.32],[142.98,49.44],[142.67,49.32],[142.64,49.09],[142.91,48.97],[142.88,48.74],[142.58,48.63],[142.31,48.75],[142.34,48.98],[142.07,49.1],[142.09,49.33],[142.4,49.44],[142.42,49.67],[142.15,49.79],[142.18,50.02],[142.48,50.13],[142.46,50.34],[142.14,50.44],[142.12,50.65],[142.43,50.77],[142.41,50.98],[142.73,51.1],[142.71,51.32],[142.37,51.42],[142.35,51.63],[142.01,51.73],[141.99,51.95],[141.65,52.05],[141.33,51.93],[140.98,52.03],[140.66,51.91],[140.69,51.69],[140.38,51.57],[140.41,51.35],[140.75,51.26],[140.78,51.04],[140.47,50.92],[140.5,50.71],[140.2,50.59],[140.23,50.37],[140.56,50.28],[140.59,50.07],[140.29,49.95],[140.32,49.74],[140.03,49.62],[140.06,49.41],[140.38,49.32],[140.36,49.09],[140.07,48.97],[140.05,48.74],[140.32,48.63],[140.3,48.4],[140.02,48.29],[139.75,48.4],[139.46,48.28],[139.45,48.05],[139.17,47.93],[139.15,47.7],[138.87,47.58],[138.86,47.35],[138.59,47.23],[138.57,47.0],[138.3,46.88],[138.29,46.66],[138.02,46.54],[138.01,46.31],[137.75,46.19],[137.74,45.96],[137.47,45.84],[137.47,45.61],[137.21,45.49],[136.95,45.6],[136.69,45.48],[136.69,45.25],[136.43,45.13],[136.43,44.9],[136.18,44.78],[136.18,44.55],[135.93,44.43],[135.68,44.54],[135.43,44.42],[135.43,44.19],[135.19,44.07],[135.19,43.84],[134.94,43.72],[134.95,43.49],[134.71,43.37],[134.47,43.48],[134.23,43.36],[134.23,43.13],[134.0,43.01],[133.76,43.11],[133.53,42.99],[133.29,43.1],[133.06,42.97],[132.82,43.08],[132.59,42.95],[132.36,43.05],[132.35,43.28],[132.11,43.38],[131.89,43.25],[131.9,43.03],[131.68,42.91],[131.44,43.01],[131.22,42.88],[131.24,42.66],[131.02,42.54],[131.03,42.32],[130.82,42.19],[130.83,41.97],[131.06,41.87],[131.08,41.65],[131.3,41.55],[131.32,41.33],[131.55,41.23],[131.56,41.0],[131.79,40.9],[131.8,40.68],[132.02,40.58],[132.24,40.69],[132.47,40.59],[132.48,40.37],[132.7,40.26],[132.71,40.03],[132.94,39.93],[132.95,39.7],[133.17,39.59],[133.39,39.71],[133.62,39.6],[133.62,39.37],[133.85,39.26],[133.85,39.04],[134.08,38.92],[134.08,38.7],[134.31,38.58],[134.31,38.36],[134.53,38.24],[134.76,38.36],[134.98,38.24],[134.98,38.01],[135.2,37.89],[135.43,38.01],[135.65,37.89],[135.88,38.0],[136.1,37.88],[136.33,37.99],[136.55,37.87],[136.55,37.64],[136.32,37.53],[136.32,37.3],[136.54,37.18],[136.54,36.95],[136.76,36.83],[136.99,36.93],[137.21,36.81],[137.44,36.92],[137.66,36.79],[137.89,36.9],[137.9,37.13],[137.68,37.26],[137.69,37.49],[137.46,37.61],[137.47,37.85],[137.7,37.95],[137.93,37.83],[137.92,37.6],[138.15,37.47],[138.14,37.24],[138.36,37.11],[138.6,37.22],[138.61,37.45],[138.85,37.56],[138.86,37.79],[139.1,37.9],[139.32,37.77],[139.57,37.88],[139.58,38.11],[139.83,38.22],[139.84,38.46],[140.09,38.56],[140.1,38.8],[139.87,38.93],[139.89,39.16],[140.13,39.27],[140.15,39.51],[140.4,39.61],[140.42,39.85],[140.18,39.98],[140.2,40.21],[139.96,40.34],[139.98,40.58],[140.23,40.69],[140.25,40.92],[140.51,41.03],[140.75,40.9],[141.01,41.01],[141.25,40.88],[141.23,40.65],[141.47,40.52],[141.45,40.28],[141.68,40.15],[141.66,39.91],[141.9,39.78],[141.88,39.54],[141.62,39.43],[141.6,39.2],[141.34,39.09],[141.32,38.85],[141.55,38.72],[141.53,38.48],[141.28,38.38],[141.05,38.51],[140.8,38.41],[140.78,38.17],[141.01,38.04],[141.26,38.14],[141.49,38.01],[141.74,38.11],[141.77,38.35],[142.02,38.45],[142.25,38.32],[142.51,38.42],[142.74,38.28],[143.0,38.39],[143.23,38.25],[143.49,38.35],[143.52,38.59],[143.79,38.69],[144.02,38.55],[144.28,38.65],[144.32,38.89],[144.58,38.99],[144.82,38.85],[145.09,38.95],[145.12,39.19],[145.39,39.29],[145.63,39.14],[145.9,39.24],[145.94,39.48],[146.22,39.58],[146.25,39.82],[146.53,39.92],[146.57,40.16],[146.85,40.26],[147.09,40.11],[147.37,40.21],[147.42,40.45],[147.7,40.55],[147.75,40.79],[148.03,40.89],[148.08,41.13],[148.37,41.22],[148.61,41.07],[148.91,41.17],[148.96,41.41],[149.25,41.5],[149.3,41.75],[149.6,41.84],[149.65,42.08],[149.95,42.18],[150.0,42.42],[150.31,42.51],[150.36,42.75],[150.67,42.85],[150.92,42.69],[151.22,42.78],[151.28,43.03],[151.59,43.11],[151.65,43.36],[151.96,43.45],[152.03,43.69],[152.34,43.78],[152.41,44.02],[152.72,44.11],[152.98,43.95],[153.29,44.04],[153.36,44.28],[153.68,44.36],[153.75,44.6],[154.08,44.69],[154.33,44.53],[154.66,44.61],[154.73,44.85],[155.06,44.93],[155.31,44.77],[155.64,44.85],[155.9,44.69],[156.23,44.77],[156.48,44.6],[156.81,44.68],[156.89,44.92],[157.23,45.0],[157.48,44.83],[157.81,44.9],[158.06,44.74],[158.4,44.81],[158.49,45.05],[158.83,45.12],[159.08,44.95],[159.42,45.02],[159.51,45.26],[159.85,45.33],[160.1,45.15],[160.44,45.22],[160.54,45.46],[160.89,45.53],[161.13,45.35],[161.48,45.41],[161.58,45.65],[161.93,45.72],[162.18,45.54],[162.53,45.6],[162.63,45.84],[162.98,45.9],[163.23,45.72],[163.58,45.77],[163.69,46.01],[164.04,46.07],[164.28,45.88],[164.64,45.94],[164.75,46.17],[165.11,46.23],[165.35,46.04],[165.71,46.09],[165.82,46.33],[166.18,46.38],[166.3,46.61],[166.66,46.66],[166.9,46.47],[167.26,46.52],[167.39,46.75],[167.75,46.8],[167.88,47.03],[168.24,47.07],[168.37,47.3],[168.74,47.34],[168.97,47.15],[169.34,47.19],[169.47,47.42],[169.84,47.46],[169.97,47.69],[170.34,47.72],[170.57,47.53],[170.94,47.56],[171.08,47.79],[171.45,47.82],[171.59,48.05],[171.96,48.08],[172.11,48.3],[172.48,48.33],[172.63,48.55],[173.0,48.58],[173.15,48.8],[173.52,48.83],[173.68,49.05],[174.05,49.07],[174.28,48.87],[174.65,48.89],[174.81,49.11],[175.18,49.13],[175.34,49.35],[175.72,49.37],[175.94,49.17],[176.32,49.18],[176.48,49.4],[176.85,49.41],[177.02,49.63],[177.4,49.64],[177.56,49.85],[177.94,49.86],[178.15,49.66],[178.53,49.67],[178.7,49.88],[179.08,49.88],[179.25,50.09],[179.63,50.1],[179.8,50.3],[180.0,50.31],[180.0,64.98]],[[137.97,55.14],[138.02,54.91],[137.69,54.77],[137.3,54.86],[137.24,55.09],[137.58,55.23],[137.97,55.14]]],[[[180.0,69.38],[179.85,69.48],[179.14,69.49],[178.81,69.71],[178.09,69.72],[177.74,69.94],[177.01,69.94],[176.65,70.15],[175.91,70.15],[175.54,69.93],[175.91,69.71],[176.64,69.72],[176.99,69.5],[177.71,69.5],[178.05,69.28],[178.75,69.28],[179.08,69.06],[179.77,69.05],[180.0,68.89],[180.0,69.38]]],[[[-180.0,68.89],[-179.23,68.82],[-178.94,68.59],[-178.26,68.58],[-177.98,68.35],[-177.31,68.33],[-177.05,68.11],[-176.39,68.09],[-176.13,67.86],[-175.49,67.84],[-175.25,67.61],[-175.65,67.41],[-175.41,67.19],[-174.78,67.16],[-174.56,66.93],[-174.95,66.74],[-174.72,66.51],[-174.12,66.48],[-173.72,66.68],[-173.94,66.9],[-173.53,67.09],[-172.92,67.06],[-172.71,66.83],[-172.1,66.79],[-171.91,66.56],[-171.31,66.52],[-171.12,66.3],[-170.53,66.25],[-170.36,66.02],[-170.77,65.84],[-171.35,65.88],[-171.75,65.7],[-172.33,65.74],[-172.71,65.55],[-172.53,65.33],[-172.91,65.14],[-172.72,64.91],[-173.09,64.73],[-172.9,64.5],[-173.27,64.32],[-173.82,64.35],[-174.01,64.57],[-174.57,64.6],[-174.78,64.82],[-175.35,64.85],[-175.56,65.07],[-175.2,65.26],[-175.41,65.48],[-176.0,65.51],[-176.22,65.73],[-176.82,65.75],[-177.17,65.55],[-177.76,65.57],[-178.01,65.79],[-178.61,65.8],[-178.86,66.02],[-178.51,66.23],[-178.77,66.44],[-179.39,66.46],[-179.73,66.25],[-179.47,66.03],[-179.81,65.83],[-179.54,65.61],[-179.88,65.4],[-179.62,65.19],[-180.0,64.98],[-180.0,50.31],[-179.82,50.31],[-179.61,50.1],[-179.24,50.1],[-179.06,50.31],[-178.68,50.31],[-178.51,50.51],[-178.13,50.51],[-177.93,50.3],[-177.55,50.3],[-177.37,50.5],[-176.99,50.49],[-176.81,50.69],[-176.43,50.68],[-176.25,50.88],[-175.87,50.87],[-175.68,50.66],[-175.31,50.65],[-175.12,50.84],[-174.75,50.83],[-174.56,51.02],[-174.18,51.01],[-173.99,51.2],[-173.62,51.18],[-173.43,51.37],[-173.05,51.35],[-172.86,51.54],[-172.49,51.52],[-172.31,51.31],[-171.94,51.29],[-171.74,51.47],[-171.37,51.45],[-171.18,51.63],[-170.81,51.61],[-170.61,51.79],[-170.24,51.76],[-170.04,51.94],[-169.67,51.91],[-169.47,52.09],[-169.1,52.06],[-168.9,52.24],[-168.53,52.21],[-168.32,52.38],[-167.96,52.35],[-167.75,52.52],[-167.39,52.48],[-167.23,52.27],[-166.87,52.23],[-166.66,52.4],[-166.3,52.36],[-166.09,52.53],[-165.74,52.49],[-165.59,52.28],[-165.23,52.23],[-165.02,52.4],[-164.67,52.35],[-164.46,52.52],[-164.11,52.47],[-163.97,52.26],[-163.62,52.21],[-163.41,52.38],[-163.06,52.33],[-162.93,52.11],[-162.58,52.06],[-162.37,52.22],[-162.03,52.17],[-161.9,51.95],[-161.56,51.9],[-161.35,52.06],[-161.01,52.0],[-160.89,51.79],[-160.56,51.73],[-160.35,51.89],[-160.02,51.83],[-159.8,51.99],[-159.47,51.93],[-159.36,51.71],[-159.03,51.65],[-158.82,51.81],[-158.5,51.75],[-158.28,51.9],[-157.96,51.84],[-157.74,51.99],[-157.42,51.93],[-157.32,51.71],[-157.01,51.65],[-156.79,51.79],[-156.48,51.73],[-156.26,51.88],[-155.95,51.81],[-155.73,51.95],[-155.42,51.89],[-155.33,51.67],[-155.03,51.6],[-154.81,51.75],[-154.51,51.68],[-154.42,51.46],[-154.12,51.39],[-153.9,51.53],[-153.61,51.46],[-153.39,51.6],[-153.1,51.53],[-153.02,51.31],[-152.72,51.24],[-152.51,51.38],[-152.22,51.3],[-152.01,51.44],[-151.72,51.37],[-151.64,51.15],[-151.36,51.08],[-151.15,51.21],[-150.87,51.14],[-150.8,50.92],[-150.52,50.85],[-150.31,50.98],[-150.03,50.9],[-149.97,50.69],[-149.69,50.61],[-149.48,50.74],[-149.21,50.66],[-149.0,50.79],[-148.73,50.71],[-148.68,50.5],[-148.41,50.42],[-148.2,50.55],[-147.94,50.47],[-147.89,50.26],[-147.63,50.18],[-147.42,50.31],[-147.16,50.23],[-146.96,50.35],[-146.7,50.27],[-146.65,50.06],[-146.4,49.98],[-146.2,50.1],[-145.95,50.02],[-145.9,49.81],[-145.66,49.73],[-145.45,49.85],[-145.21,49.77],[-145.17,49.56],[-144.93,49.47],[-144.73,49.6],[-144.49,49.51],[-144.38,49.35],[-144.06,49.31],[-143.95,49.15],[-143.13,49.18],[-143.02,49.02],[-142.72,48.97],[-142.61,48.81],[-142.34,48.82],[-142.23,48.65],[-141.96,48.67],[-141.85,48.5],[-141.58,48.51],[-141.41,48.69],[-141.14,48.7],[-141.03,48.53],[-140.76,48.54],[-140.65,48.37],[-140.38,48.38],[-140.27,48.21],[-140.0,48.21],[-139.89,48.04],[-139.61,48.05],[-139.51,47.87],[-139.23,47.88],[-139.13,47.7],[-138.85,47.71],[-138.75,47.53],[-138.47,47.53],[-138.36,47.35],[-138.08,47.35],[-137.98,47.18],[-137.7,47.18],[-137.6,47.0],[-137.32,46.99],[-137.21,46.81],[-136.93,46.81],[-136.75,46.99],[-136.46,46.98],[-136.36,46.8],[-136.08,46.8],[-135.98,46.61],[-135.69,46.61],[-135.59,46.42],[-135.31,46.41],[-135.21,46.22],[-134.92,46.22],[-134.82,46.03],[-134.54,46.02],[-134.44,45.83],[-134.15,45.82],[-134.06,45.62],[-133.77,45.61],[-133.67,45.42],[-133.38,45.4],[-133.29,45.21],[-133.0,45.19],[-132.9,45.0],[-132.61,44.98],[-132.52,44.79],[-132.23,44.77],[-132.14,44.57],[-131.85,44.55],[-131.76,44.35],[-131.46,44.33],[-131.37,44.13],[-131.57,43.95],[-131.48,43.75],[-131.19,43.73],[-131.1,43.53],[-131.3,43.35],[-131.22,43.14],[-130.93,43.12],[-130.84,42.91],[-131.04,42.74],[-130.95,42.53],[-130.66,42.5],[-130.57,42.3],[-130.77,42.12],[-130.69,41.91],[-130.4,41.88],[-130.31,41.67],[-130.51,41.49],[-130.43,41.29],[-130.62,41.11],[-130.54,40.9],[-130.25,40.87],[-130.17,40.65],[-130.37,40.47],[-130.28,40.26],[-130.48,40.08],[-130.39,39.87],[-130.59,39.69],[-130.5,39.48],[-130.7,39.29],[-130.61,39.08],[-130.8,38.9],[-130.72,38.68],[-130.91,38.5],[-131.19,38.54],[-131.38,38.35],[-131.29,38.14],[-131.48,37.96],[-131.4,37.74],[-131.58,37.56],[-131.5,37.34],[-131.68,37.16],[-131.6,36.95],[-131.79,36.76],[-131.7,36.55],[-131.43,36.51],[-131.35,36.29],[-131.08,36.26],[-131.0,36.04],[-131.18,35.86],[-131.1,35.64],[-130.83,35.6],[-130.75,35.38],[-130.48,35.34],[-130.4,35.12],[-130.13,35.08],[-130.05,34.85],[-129.79,34.81],[-129.71,34.59],[-129.44,34.54],[-129.36,34.32],[-129.09,34.28],[-129.01,34.05],[-128.74,34.0],[-128.55,34.18],[-128.28,34.14],[-128.2,33.91],[-127.93,33.86],[-127.86,33.63],[-127.59,33.59],[-127.51,33.36],[-127.24,33.31],[-127.16,33.08],[-126.89,33.02],[-126.7,33.2],[-126.43,33.15],[-126.35,32.92],[-126.08,32.87],[-126.01,32.63],[-125.74,32.58],[-125.66,32.34],[-125.39,32.29],[-125.19,32.47],[-124.92,32.41],[-124.85,32.17],[-124.58,32.12],[-124.51,31.88],[-124.24,31.82],[-124.03,32.0],[-123.76,31.94],[-123.69,31.7],[-123.42,31.64],[-123.21,31.81],[-122.94,31.75],[-122.87,31.51],[-122.6,31.45],[-122.39,31.62],[-122.12,31.56],[-121.91,31.74],[-121.63,31.67],[-121.57,31.43],[-121.29,31.36],[-121.08,31.54],[-120.81,31.47],[-120.59,31.64],[-120.32,31.57],[-120.1,31.75],[-119.83,31.68],[-119.61,31.85],[-119.33,31.78],[-119.12,31.95],[-118.84,31.88],[-118.62,32.05],[-118.34,31.98],[-118.12,32.15],[-117.84,32.07],[-117.78,31.83],[-117.5,31.75],[-117.28,31.92],[-117.0,31.85],[-116.95,31.6],[-116.67,31.52],[-116.44,31.69],[-116.5,31.94],[-116.78,32.01],[-116.84,32.26],[-117.12,32.34],[-117.18,32.58],[-116.95,32.75],[-117.01,33.0],[-117.29,33.07],[-117.35,33.31],[-117.64,33.39],[-117.7,33.63],[-117.47,33.8],[-117.53,34.04],[-117.82,34.12],[-118.04,33.95],[-118.32,34.02],[-118.39,34.26],[-118.67,34.33],[-118.89,34.16],[-119.18,34.23],[-119.24,34.47],[-119.53,34.54],[-119.59,34.78],[-119.87,34.84],[-119.94,35.08],[-120.22,35.15],[-120.29,35.38],[-120.58,35.45],[-120.64,35.69],[-120.93,35.75],[-121.0,35.98],[-120.78,36.16],[-120.84,36.39],[-121.13,36.45],[-121.2,36.69],[-121.49,36.75],[-121.56,36.98],[-121.85,37.04],[-121.92,37.27],[-121.69,37.44],[-121.76,37.68],[-122.06,37.73],[-122.13,37.96],[-121.9,38.14],[-121.97,38.37],[-122.27,38.42],[-122.34,38.65],[-122.63,38.71],[-122.85,38.53],[-123.14,38.59],[-123.22,38.81],[-123.51,38.86],[-123.58,39.09],[-123.36,39.26],[-123.44,39.49],[-123.73,39.54],[-123.8,39.76],[-123.58,39.94],[-123.66,40.16],[-123.95,40.21],[-124.03,40.43],[-124.33,40.48],[-124.4,40.7],[-124.18,40.88],[-123.88,40.83],[-123.66,41.0],[-123.74,41.22],[-124.04,41.27],[-124.11,41.49],[-123.89,41.66],[-123.97,41.88],[-124.27,41.93],[-124.34,42.14],[-124.12,42.31],[-124.2,42.53],[-124.5,42.58],[-124.58,42.79],[-124.35,42.96],[-124.43,43.18],[-124.21,43.35],[-124.29,43.56],[-124.06,43.73],[-124.14,43.95],[-123.91,44.12],[-123.99,44.33],[-123.76,44.5],[-123.84,44.71],[-123.61,44.88],[-123.68,45.09],[-124.0,45.13],[-124.08,45.34],[-123.84,45.51],[-123.92,45.71],[-123.69,45.88],[-123.77,46.09],[-123.53,46.26],[-123.61,46.46],[-123.93,46.5],[-124.01,46.71],[-123.77,46.87],[-123.86,47.08],[-124.17,47.12],[-124.25,47.32],[-124.02,47.48],[-124.1,47.69],[-124.42,47.72],[-124.5,47.92],[-124.26,48.09],[-123.94,48.05],[-123.7,48.21],[-123.38,48.18],[-123.3,47.98],[-122.98,47.94],[-122.9,47.73],[-123.14,47.57],[-123.06,47.37],[-123.3,47.2],[-123.22,47.0],[-122.9,46.96],[-122.66,47.12],[-122.34,47.08],[-122.1,47.24],[-122.17,47.45],[-121.93,47.61],[-122.01,47.81],[-121.76,47.97],[-121.84,48.18],[-122.16,48.22],[-122.24,48.42],[-122.0,48.58],[-122.08,48.78],[-122.4,48.82],[-122.48,49.02],[-122.23,49.18],[-122.32,49.38],[-122.64,49.42],[-122.89,49.26],[-123.22,49.3],[-123.3,49.5],[-123.63,49.53],[-123.71,49.73],[-124.04,49.76],[-124.2,49.96],[-124.53,50.0],[-124.69,50.2],[-124.51,50.37],[-124.67,50.57],[-125.01,50.6],[-125.17,50.8],[-125.51,50.83],[-125.67,51.03],[-126.01,51.06],[-126.18,51.26],[-126.51,51.28],[-126.68,51.11],[-127.01,51.13],[-127.18,51.33],[-127.02,51.5],[-127.2,51.7],[-127.03,51.88],[-127.21,52.08],[-127.05,52.25],[-127.23,52.45],[-127.57,52.47],[-127.75,52.67],[-127.59,52.85],[-127.77,53.05],[-128.12,53.07],[-128.31,53.26],[-128.15,53.45],[-128.34,53.64],[-128.17,53.83],[-128.36,54.02],[-128.2,54.21],[-128.39,54.4],[-128.22,54.59],[-128.42,54.79],[-128.78,54.8],[-128.95,54.62],[-128.75,54.42],[-128.92,54.23],[-128.72,54.04],[-128.88,53.85],[-129.24,53.87],[-129.43,54.06],[-129.28,54.25],[-129.47,54.44],[-129.83,54.45],[-130.04,54.65],[-129.88,54.83],[-129.51,54.82],[-129.35,55.01],[-129.56,55.21],[-129.92,55.22],[-130.13,55.41],[-130.5,55.42],[-130.71,55.61],[-130.55,55.8],[-130.76,56.0],[-131.14,56.0],[-131.35,56.19],[-131.73,56.19],[-131.95,56.39],[-131.8,56.58],[-132.02,56.77],[-132.4,56.77],[-132.62,56.96],[-132.47,57.15],[-132.7,57.34],[-133.09,57.34],[-133.32,57.53],[-133.17,57.72],[-133.41,57.91],[-133.26,58.1],[-133.5,58.29],[-133.35,58.49],[-133.6,58.68],[-133.99,58.67],[-134.14,58.47],[-134.53,58.46],[-134.78,58.65],[-134.64,58.85],[-134.89,59.03],[-134.75,59.23],[-135.0,59.42],[-135.4,59.4],[-135.66,59.58],[-136.06,59.57],[-136.2,59.37],[-136.59,59.35],[-136.72,59.15],[-137.11,59.13],[-137.24,58.93],[-136.98,58.76],[-137.1,58.56],[-137.48,58.54],[-137.74,58.72],[-137.62,58.91],[-137.89,59.09],[-137.77,59.29],[-137.38,59.31],[-137.25,59.51],[-137.52,59.69],[-137.91,59.67],[-138.19,59.84],[-138.58,59.82],[-138.86,60.0],[-139.25,59.97],[-139.56,60.09],[-139.98,60.01],[-140.29,60.14],[-140.71,60.06],[-141.03,60.18],[-141.45,60.1],[-141.77,60.22],[-142.19,60.13],[-142.52,60.25],[-142.43,60.46],[-142.77,60.57],[-143.19,60.49],[-143.53,60.6],[-143.95,60.51],[-144.3,60.63],[-144.22,60.84],[-144.57,60.95],[-144.49,61.16],[-144.85,61.28],[-145.28,61.18],[-145.35,60.97],[-145.78,60.87],[-146.14,60.98],[-146.07,61.2],[-146.44,61.31],[-146.87,61.21],[-147.24,61.32],[-147.67,61.21],[-148.05,61.32],[-148.47,61.21],[-148.86,61.32],[-148.81,61.54],[-148.38,61.64],[-148.34,61.86],[-148.73,61.97],[-149.16,61.86],[-149.56,61.97],[-149.52,62.18],[-149.08,62.29],[-149.04,62.51],[-148.59,62.62],[-148.55,62.84],[-148.96,62.95],[-149.41,62.84],[-149.82,62.95],[-150.27,62.83],[-150.69,62.94],[-151.14,62.82],[-151.16,62.6],[-151.6,62.48],[-152.02,62.58],[-152.46,62.46],[-152.47,62.24],[-152.9,62.12],[-152.9,61.9],[-152.49,61.8],[-152.5,61.58],[-152.1,61.49],[-152.11,61.27],[-152.52,61.15],[-152.53,60.93],[-152.94,60.81],[-153.34,60.9],[-153.34,61.12],[-153.75,61.21],[-153.75,61.43],[-154.16,61.52],[-154.16,61.74],[-154.59,61.83],[-154.59,62.06],[-154.17,62.18],[-154.17,62.4],[-153.74,62.53],[-153.31,62.44],[-152.88,62.56],[-152.87,62.78],[-152.43,62.91],[-152.42,63.13],[-151.97,63.25],[-151.54,63.15],[-151.09,63.27],[-151.06,63.49],[-150.6,63.61],[-150.57,63.83],[-150.11,63.94],[-149.67,63.84],[-149.2,63.95],[-149.16,64.17],[-148.68,64.28],[-148.25,64.17],[-147.77,64.28],[-147.35,64.16],[-146.86,64.27],[-146.45,64.15],[-146.52,63.93],[-146.11,63.81],[-145.63,63.91],[-145.23,63.79],[-144.75,63.88],[-144.66,64.1],[-145.07,64.23],[-145.55,64.13],[-145.96,64.25],[-145.89,64.47],[-146.31,64.59],[-146.24,64.81],[-146.66,64.93],[-147.16,64.83],[-147.6,64.95],[-147.53,65.17],[-147.98,65.29],[-147.92,65.52],[-148.37,65.63],[-148.88,65.52],[-148.93,65.3],[-149.43,65.18],[-149.89,65.3],[-150.38,65.18],[-150.84,65.29],[-151.34,65.17],[-151.8,65.28],[-151.78,65.51],[-152.26,65.61],[-152.25,65.84],[-151.74,65.97],[-151.72,66.2],[-151.21,66.32],[-151.18,66.55],[-151.68,66.66],[-152.2,66.53],[-152.7,66.64],[-153.22,66.52],[-153.73,66.62],[-154.24,66.49],[-154.75,66.59],[-155.26,66.46],[-155.78,66.56],[-156.28,66.42],[-156.26,66.19],[-156.75,66.05],[-157.27,66.14],[-157.75,66.0],[-158.28,66.09],[-158.32,66.32],[-157.84,66.46],[-157.3,66.37],[-156.81,66.51],[-156.84,66.75],[-156.33,66.89],[-156.36,67.12],[-156.91,67.21],[-157.42,67.07],[-157.97,67.17],[-158.47,67.02],[-159.02,67.11],[-159.52,66.96],[-160.08,67.05],[-160.57,66.89],[-161.13,66.97],[-161.21,67.21],[-161.79,67.29],[-162.27,67.13],[-162.85,67.21],[-162.95,67.44],[-163.54,67.51],[-163.65,67.75],[-164.25,67.82],[-164.37,68.05],[-164.98,68.12],[-165.11,68.36],[-165.74,68.43],[-165.88,68.66],[-165.38,68.83],[-164.74,68.76],[-164.23,68.93],[-163.6,68.86],[-163.08,69.02],[-163.19,69.26],[-162.66,69.42],[-162.77,69.66],[-162.22,69.82],[-162.32,70.05],[-161.76,70.21],[-161.1,70.13],[-160.53,70.28],[-160.62,70.53],[-160.03,70.68],[-159.37,70.59],[-158.77,70.74],[-158.11,70.64],[-157.51,70.79],[-157.55,71.03],[-156.93,71.17],[-156.27,71.07],[-156.24,70.83],[-155.59,70.72],[-154.97,70.86],[-154.33,70.75],[-153.7,70.88],[-153.08,70.77],[-153.09,70.53],[-152.47,70.42],[-151.85,70.54],[-151.24,70.42],[-150.61,70.54],[-150.02,70.42],[-149.38,70.54],[-148.8,70.41],[-148.86,70.17],[-148.29,70.05],[-147.66,70.16],[-147.1,70.03],[-146.46,70.13],[-145.92,70.0],[-145.28,70.1],[-144.74,69.96],[-144.1,70.06],[-143.58,69.92],[-142.93,70.01],[-142.42,69.87],[-142.56,69.64],[-142.06,69.5],[-141.43,69.58],[-140.94,69.44],[-140.31,69.52],[-139.83,69.37],[-139.2,69.45],[-138.74,69.3],[-138.91,69.07],[-138.46,68.92],[-137.83,69.0],[-137.4,68.84],[-136.77,68.91],[-136.58,69.13],[-135.95,69.2],[-135.74,69.42],[-135.1,69.48],[-134.88,69.7],[-134.23,69.76],[-133.81,69.6],[-133.16,69.65],[-132.75,69.49],[-132.1,69.54],[-131.85,69.75],[-131.2,69.8],[-130.93,70.01],[-130.3,70.03],[-129.94,69.83],[-129.31,69.85],[-129.02,70.06],[-128.38,70.07],[-128.08,70.28],[-128.43,70.48],[-128.12,70.69],[-128.48,70.89],[-129.15,70.88],[-129.45,70.67],[-129.09,70.47],[-129.38,70.26],[-130.02,70.24],[-130.39,70.44],[-131.07,70.4],[-131.34,70.18],[-132.0,70.13],[-132.26,69.92],[-132.92,69.87],[-133.34,70.03],[-134.0,69.98],[-134.43,70.14],[-135.1,70.08],[-135.32,69.86],[-135.97,69.8],[-136.18,69.58],[-136.82,69.51],[-137.02,69.29],[-137.65,69.22],[-138.1,69.37],[-137.92,69.6],[-138.38,69.75],[-139.03,69.67],[-139.5,69.82],[-139.33,70.05],[-139.81,70.2],[-140.47,70.12],[-140.97,70.27],[-140.81,70.5],[-141.33,70.65],[-142.0,70.56],[-142.52,70.71],[-143.19,70.62],[-143.73,70.76],[-143.6,70.99],[-144.16,71.13],[-144.84,71.04],[-145.4,71.18],[-146.08,71.08],[-146.66,71.21],[-147.34,71.1],[-147.93,71.24],[-147.85,71.47],[-148.46,71.6],[-149.14,71.49],[-149.76,71.62],[-150.44,71.5],[-151.07,71.62],[-151.74,71.5],[-152.38,71.62],[-152.36,71.86],[-153.02,71.98],[-153.7,71.85],[-154.37,71.96],[-155.03,71.83],[-155.72,71.93],[-156.37,71.8],[-157.06,71.9],[-157.71,71.75],[-158.41,71.85],[-159.04,71.71],[-159.75,71.8],[-159.83,72.04],[-160.56,72.13],[-161.19,71.98],[-161.92,72.06],[-162.53,71.9],[-163.27,71.98],[-163.88,71.82],[-164.62,71.89],[-165.21,71.73],[-165.95,71.8],[-166.53,71.62],[-167.28,71.69],[-167.84,71.51],[-168.59,71.57],[-169.14,71.39],[-169.89,71.45],[-170.42,71.26],[-170.2,71.02],[-170.72,70.84],[-171.45,70.89],[-171.96,70.7],[-171.73,70.46],[-172.21,70.27],[-172.93,70.32],[-173.41,70.12],[-174.13,70.16],[-174.59,69.96],[-174.33,69.73],[-174.78,69.54],[-175.49,69.57],[-175.92,69.37],[-176.62,69.39],[-177.04,69.19],[-176.77,68.97],[-177.18,68.76],[-177.86,68.78],[-178.15,69.01],[-178.84,69.02],[-179.14,69.25],[-179.84,69.26],[-180.0,69.38],[-180.0,68.89]],[[-159.34,66.26],[-159.29,66.03],[-159.76,65.88],[-160.29,65.96],[-160.36,66.19],[-159.88,66.34],[-159.34,66.26]]],[[[-177.18,70.94],[-177.49,71.17],[-177.03,71.37],[-177.34,71.6],[-178.13,71.62],[-178.46,71.85],[-179.27,71.87],[-179.72,71.66],[-179.37,71.43],[-178.59,71.41],[-178.26,71.19],[-178.71,70.98],[-179.47,71.0],[-179.9,70.78],[-179.57,70.56],[-178.82,70.55],[-178.39,70.75],[-177.63,70.73],[-177.18,70.94]]],[[[-157.99,72.97],[-158.67,72.83],[-158.6,72.58],[-157.87,72.49],[-157.2,72.63],[-157.25,72.87],[-157.99,72.97]]],[[[-80.3,52.28],[-80.39,52.04],[-80.78,51.96],[-80.86,51.71],[-80.56,51.54],[-80.17,51.62],[-79.86,51.45],[-79.47,51.53],[-79.38,51.77],[-79.69,51.94],[-79.59,52.19],[-79.2,52.26],[-79.1,52.51],[-79.41,52.68],[-79.81,52.61],[-80.12,52.78],[-80.03,53.03],[-80.35,53.2],[-80.76,53.12],[-80.84,52.87],[-81.24,52.79],[-81.32,52.54],[-81.01,52.37],[-80.61,52.45],[-80.3,52.28]]],[[[-124.44,70.5],[-125.11,70.51],[-125.45,70.3],[-125.13,70.09],[-124.47,70.09],[-124.13,70.29],[-124.44,70.5]]],[[[-146.25,61.95],[-145.88,61.84],[-145.95,61.62],[-145.58,61.51],[-145.14,61.61],[-144.78,61.49],[-144.34,61.58],[-144.26,61.8],[-144.62,61.91],[-144.55,62.13],[-144.92,62.25],[-144.84,62.46],[-144.38,62.56],[-144.3,62.77],[-144.68,62.89],[-145.14,62.8],[-145.53,62.91],[-145.99,62.81],[-146.06,62.6],[-146.51,62.5],[-146.9,62.61],[-147.35,62.51],[-147.41,62.29],[-147.02,62.18],[-147.08,61.96],[-146.69,61.85],[-146.25,61.95]]],[[[141.31,35.87],[141.09,36.01],[141.11,36.25],[140.88,36.38],[140.9,36.62],[141.14,36.72],[141.16,36.96],[141.41,37.06],[141.43,37.3],[141.2,37.43],[141.22,37.67],[140.99,37.8],[140.74,37.7],[140.73,37.46],[140.95,37.33],[140.94,37.09],[140.69,36.99],[140.67,36.75],[140.43,36.65],[140.41,36.41],[140.64,36.28],[140.62,36.04],[140.38,35.94],[140.36,35.71],[140.13,35.6],[139.9,35.74],[139.67,35.63],[139.65,35.4],[139.42,35.3],[139.2,35.43],[138.97,35.33],[138.75,35.46],[138.51,35.35],[138.5,35.12],[138.72,34.99],[138.71,34.76],[138.93,34.63],[139.16,34.73],[139.17,34.96],[139.41,35.06],[139.63,34.93],[139.61,34.7],[139.83,34.56],[140.07,34.66],[140.08,34.9],[140.32,35.0],[140.54,34.86],[140.78,34.96],[140.79,35.2],[140.57,35.34],[140.59,35.57],[140.83,35.67],[141.05,35.54],[141.29,35.64],[141.31,35.87]]],[[[130.2,41.6],[130.18,41.82],[129.95,41.92],[129.74,41.8],[129.76,41.58],[129.99,41.48],[130.2,41.6]]],[[[-122.35,70.9],[-121.97,71.1],[-122.28,71.31],[-122.98,71.32],[-123.36,71.12],[-123.04,70.91],[-122.35,70.9]]],[[[-146.61,66.63],[-147.14,66.53],[-147.61,66.65],[-148.15,66.54],[-148.62,66.66],[-149.15,66.55],[-149.2,66.32],[-149.72,66.21],[-150.2,66.32],[-150.72,66.21],[-150.75,65.98],[-150.28,65.86],[-150.31,65.64],[-149.85,65.52],[-149.34,65.64],[-149.3,65.87],[-148.78,65.98],[-148.32,65.86],[-147.8,65.97],[-147.74,66.2],[-147.21,66.3],[-146.75,66.18],[-146.23,66.28],[-145.77,66.16],[-145.24,66.26],[-144.8,66.13],[-144.27,66.23],[-144.17,66.45],[-144.61,66.58],[-145.15,66.48],[-145.61,66.61],[-145.52,66.84],[-145.99,66.96],[-146.53,66.86],[-146.61,66.63]]],[[[-74.26,39.77],[-74.05,39.61],[-73.74,39.66],[-73.65,39.87],[-73.86,40.04],[-74.16,39.99],[-74.26,39.77]]],[[[-111.68,67.78],[-111.24,67.96],[-110.63,67.9],[-110.18,68.07],[-110.34,68.31],[-110.97,68.37],[-111.41,68.19],[-112.04,68.25],[-112.47,68.07],[-112.29,67.83],[-111.68,67.78]]],[[[-94.02,59.83],[-94.02,60.09],[-94.46,60.22],[-94.9,60.09],[-94.89,59.83],[-94.45,59.71],[-94.45,59.45],[-94.02,59.32],[-94.02,59.07],[-93.6,58.94],[-93.17,59.06],[-93.16,59.32],[-93.59,59.45],[-93.59,59.7],[-94.02,59.83]]],[[[168.4,69.27],[169.12,69.31],[169.4,69.54],[170.12,69.57],[170.42,69.81],[171.15,69.83],[171.46,70.06],[172.2,70.09],[172.61,69.88],[173.35,69.89],[173.68,70.12],[173.28,70.33],[172.53,70.31],[172.11,70.52],[171.36,70.5],[171.04,70.27],[170.29,70.24],[169.99,70.01],[169.25,69.98],[168.96,69.74],[168.24,69.71],[167.96,69.47],[168.4,69.27]]],[[[162.73,69.56],[163.44,69.62],[163.67,69.86],[163.16,70.05],[162.44,69.99],[162.23,69.74],[162.73,69.56]]],[[[159.93,55.52],[159.62,55.67],[159.21,55.6],[159.11,55.38],[158.7,55.31],[158.61,55.09],[158.21,55.02],[158.12,54.79],[158.42,54.64],[158.82,54.72],[158.91,54.94],[159.32,55.01],[159.62,54.85],[160.02,54.92],[160.12,55.14],[159.82,55.3],[159.93,55.52]]],[[[-119.31,69.56],[-119.57,69.78],[-120.23,69.8],[-120.5,70.02],[-121.17,70.04],[-121.54,69.83],[-121.26,69.62],[-120.61,69.6],[-120.34,69.38],[-119.69,69.36],[-119.31,69.56]]],[[[-113.91,68.4],[-114.33,68.21],[-114.13,67.98],[-113.51,67.93],[-113.09,68.12],[-113.28,68.35],[-113.91,68.4]]],[[[169.54,69.11],[169.26,68.88],[169.68,68.68],[170.37,68.71],[170.66,68.94],[170.25,69.14],[169.54,69.11]]],[[[-143.71,61.14],[-143.28,61.23],[-142.93,61.11],[-142.49,61.2],[-142.4,61.41],[-142.75,61.53],[-143.19,61.44],[-143.54,61.56],[-143.98,61.47],[-144.06,61.26],[-143.71,61.14]]],[[[-127.43,70.29],[-127.09,70.09],[-127.4,69.88],[-127.06,69.67],[-126.43,69.67],[-126.1,69.47],[-125.47,69.47],[-125.15,69.67],[-125.46,69.88],[-126.11,69.88],[-126.44,70.09],[-126.11,70.3],[-126.45,70.5],[-127.11,70.5],[-127.43,70.29]]],[[[-91.94,58.15],[-92.35,58.29],[-92.77,58.17],[-92.78,57.91],[-92.38,57.78],[-91.96,57.9],[-91.94,58.15]]],[[[-123.21,69.66],[-122.56,69.65],[-122.2,69.85],[-122.49,70.06],[-123.16,70.07],[-123.51,69.87],[-124.16,69.88],[-124.5,69.67],[-124.2,69.46],[-123.56,69.45],[-123.21,69.66]]],[[[-126.51,72.57],[-126.14,72.37],[-125.4,72.37],[-125.03,72.58],[-125.39,72.79],[-126.14,72.78],[-126.51,72.57]]],[[[179.34,70.8],[178.99,71.02],[179.41,71.23],[179.05,71.45],[178.26,71.46],[177.85,71.24],[178.22,71.02],[177.81,70.81],[178.17,70.59],[178.93,70.58],[179.34,70.8]]],[[[-115.82,69.17],[-115.59,68.95],[-114.95,68.9],[-114.53,69.09],[-114.74,69.32],[-115.39,69.36],[-115.82,69.17]]],[[[-118.51,69.95],[-118.25,69.73],[-117.59,69.7],[-117.18,69.89],[-117.42,70.11],[-118.1,70.14],[-118.51,69.95]]]]}}]}