{"type":"FeatureCollection","features":[{"type":"Feature","properties":{},"geometry":{"type":"MultiPolygon","coordinates":[[[[29.3,36.2],[30.73,36.07],[30.81,36.73],[31.12,36.75],[32.1,36.36],[32.32,35.72],[33.07,35.97],[33.11,35.54],[32.23,35.06],[32.27,34.62],[32.91,34.22],[34.09,34.7],[34.19,35.36],[34.63,35.59],[33.72,35.56],[33.68,35.99],[34.57,36.45],[35.35,36.26],[35.62,34.31],[35.05,33.86],[35.24,33.21],[34.67,32.76],[34.73,31.88],[35.61,31.91],[35.79,31.26],[36.64,31.73],[37.37,31.52],[37.49,32.18],[38.77,32.84],[38.59,33.92],[37.7,34.35],[38.71,35.0],[38.11,35.43],[37.21,35.42],[37.8,35.85],[38.55,35.64],[39.13,36.06],[39.88,35.84],[40.91,36.46],[41.64,36.22],[42.67,36.82],[43.83,36.76],[45.09,36.06],[45.2,35.43],[45.91,35.59],[46.0,34.55],[46.42,34.73],[46.34,35.77],[46.93,36.13],[48.48,35.74],[49.39,36.04],[50.55,34.85],[51.24,35.58],[52.11,35.45],[51.6,35.95],[50.84,35.85],[50.9,36.26],[52.25,36.27],[50.01,37.42],[50.67,37.76],[50.73,38.17],[54.21,39.19],[55.77,38.28],[55.68,37.21],[52.73,36.41],[52.66,36.0],[53.62,36.27],[54.02,35.99],[52.58,35.59],[52.51,35.18],[53.46,35.45],[54.15,35.12],[56.09,35.63],[56.99,36.76],[57.57,36.0],[58.91,36.82],[60.12,36.57],[60.24,36.99],[59.85,37.29],[59.03,37.24],[56.18,39.31],[56.92,40.28],[55.96,41.1],[56.72,41.43],[56.61,41.66],[55.74,41.58],[55.19,42.11],[55.5,43.39],[54.95,43.24],[54.96,42.58],[54.21,42.25],[53.31,42.8],[51.46,42.81],[50.88,43.3],[50.02,43.17],[48.96,43.92],[48.11,43.77],[45.25,45.23],[45.12,45.87],[44.63,46.1],[45.64,46.06],[47.0,47.91],[47.9,48.08],[48.78,49.32],[51.75,50.2],[52.64,49.91],[53.5,50.27],[54.39,49.96],[55.65,50.27],[57.28,49.18],[58.29,49.26],[58.15,48.83],[58.64,48.54],[59.04,49.15],[59.68,49.28],[60.0,50.14],[63.71,50.67],[64.21,51.27],[64.9,51.37],[66.69,50.32],[66.05,49.05],[66.58,48.47],[66.16,47.62],[67.17,47.63],[67.67,48.22],[68.47,47.79],[68.99,48.38],[70.02,48.36],[69.84,47.69],[70.61,47.25],[70.43,46.58],[71.24,45.88],[72.21,45.85],[72.02,45.18],[72.99,45.14],[73.78,44.16],[69.81,43.64],[67.8,44.17],[68.66,43.24],[69.6,43.23],[69.23,42.14],[68.37,41.9],[69.14,41.22],[68.93,40.8],[69.36,40.21],[68.54,39.97],[67.78,40.65],[66.5,40.98],[65.11,40.63],[65.01,39.96],[66.09,39.23],[65.75,38.4],[66.19,37.82],[69.3,37.88],[69.95,37.46],[69.81,36.8],[70.65,36.78],[71.1,37.34],[70.7,37.93],[71.51,38.15],[71.12,38.74],[71.33,39.15],[72.73,39.43],[72.34,40.03],[72.6,40.18],[73.26,39.73],[73.76,40.29],[74.07,40.19],[73.87,39.53],[74.74,39.48],[76.7,37.08],[77.8,37.15],[80.05,36.01],[81.66,36.07],[82.19,36.58],[83.53,36.48],[84.08,36.97],[84.88,36.85],[87.1,38.06],[87.94,38.41],[88.73,38.26],[89.32,38.73],[89.77,37.97],[90.83,37.92],[93.91,36.14],[95.39,36.02],[95.98,36.44],[96.95,36.35],[97.8,35.78],[98.39,36.19],[98.3,36.79],[98.63,37.11],[95.68,37.43],[95.33,38.19],[94.59,38.38],[95.48,38.91],[94.78,39.34],[95.92,39.72],[98.97,39.36],[99.97,38.38],[102.28,37.79],[102.13,37.34],[99.44,37.37],[99.19,36.45],[99.86,36.24],[100.27,35.13],[100.99,35.15],[101.64,35.76],[102.4,35.19],[102.05,34.68],[102.45,33.99],[101.71,33.96],[102.12,33.27],[101.53,32.46],[101.96,31.97],[101.58,30.78],[102.21,29.92],[102.11,29.02],[100.7,29.39],[100.88,28.8],[100.08,28.06],[99.65,28.57],[99.95,29.12],[99.24,29.29],[98.99,29.2],[99.17,28.61],[98.24,28.92],[98.42,28.32],[97.42,27.93],[97.21,28.3],[97.48,28.62],[95.6,29.21],[95.89,29.77],[94.97,30.27],[94.72,30.17],[94.91,29.59],[94.1,28.59],[93.35,28.28],[94.06,28.13],[94.85,28.9],[96.46,28.0],[97.08,26.9],[97.14,27.6],[97.87,27.66],[97.81,26.96],[98.44,26.08],[97.88,25.17],[99.3,25.05],[99.73,24.53],[101.85,24.44],[102.25,23.68],[102.98,23.96],[104.05,22.99],[104.59,23.65],[105.3,23.68],[104.65,24.13],[104.48,24.75],[106.19,25.36],[107.78,25.02],[108.29,25.42],[108.69,24.89],[109.47,25.59],[110.1,25.14],[111.44,26.66],[111.3,27.26],[111.98,27.25],[112.11,28.14],[110.83,28.82],[111.37,29.4],[111.32,30.63],[112.11,31.25],[111.61,32.54],[112.43,33.34],[113.12,33.31],[112.98,33.86],[113.77,34.43],[112.73,35.16],[114.42,35.52],[114.07,36.2],[114.59,37.77],[114.35,38.27],[115.16,38.96],[116.14,39.12],[117.6,38.64],[117.89,38.16],[119.17,37.83],[118.87,37.43],[119.45,36.99],[119.44,38.04],[118.16,38.38],[118.07,38.71],[119.01,38.85],[119.48,39.61],[121.97,40.75],[122.01,40.3],[121.11,39.81],[120.88,38.59],[120.39,38.35],[120.51,37.85],[119.86,37.93],[119.87,36.88],[120.74,36.83],[120.59,36.1],[119.27,36.06],[118.33,36.99],[116.86,36.37],[117.32,35.16],[117.94,34.91],[118.47,35.38],[121.15,35.65],[121.04,36.17],[121.67,36.08],[121.55,36.6],[122.41,36.55],[122.92,36.91],[123.07,37.63],[121.18,37.94],[121.07,38.44],[121.59,38.85],[122.86,39.06],[123.3,38.69],[123.86,39.79],[124.69,39.45],[124.96,38.95],[124.63,37.73],[125.9,37.75],[126.13,37.44],[125.56,36.91],[125.93,36.54],[125.6,36.08],[125.97,35.7],[125.81,34.95],[125.13,34.87],[124.97,34.11],[125.89,34.28],[126.22,33.69],[125.9,33.21],[126.79,33.17],[127.11,33.65],[126.5,33.97],[128.66,34.56],[129.82,35.65],[129.7,37.18],[127.83,39.7],[128.65,39.75],[129.45,40.24],[129.61,40.8],[130.25,40.94],[129.99,41.48],[130.59,42.29],[131.26,42.22],[131.69,42.69],[132.6,42.73],[133.08,42.3],[133.53,42.77],[134.24,42.68],[135.19,43.16],[135.68,44.08],[136.42,44.21],[136.94,45.14],[137.71,45.27],[140.93,49.1],[140.65,49.65],[141.22,50.09],[140.75,51.26],[141.35,51.71],[142.06,51.3],[141.48,50.64],[141.85,49.67],[141.42,48.41],[141.94,47.94],[141.62,47.59],[141.84,47.01],[140.91,45.97],[141.69,45.6],[140.87,45.5],[141.34,44.79],[141.04,44.44],[141.25,43.85],[140.18,43.4],[139.35,42.36],[140.08,41.99],[139.3,41.66],[140.03,41.28],[139.76,40.94],[139.96,40.34],[139.45,39.89],[139.65,39.29],[139.13,38.6],[138.42,38.51],[137.9,37.13],[137.25,38.2],[136.79,38.21],[137.0,37.63],[135.86,36.16],[136.08,35.58],[133.5,35.65],[131.14,34.32],[132.22,33.94],[133.32,34.65],[133.95,34.52],[133.55,33.86],[132.68,33.91],[132.71,33.01],[133.3,33.56],[134.38,33.6],[134.37,34.51],[134.78,34.94],[135.21,34.48],[135.0,33.92],[135.85,33.43],[136.94,34.86],[138.04,34.68],[138.5,35.12],[138.93,34.63],[139.41,35.06],[140.32,35.0],[140.83,35.67],[140.64,36.28],[141.43,37.3],[141.01,38.04],[141.74,38.11],[142.3,38.79],[142.11,39.41],[142.4,39.75],[141.51,40.99],[141.82,41.57],[141.37,42.3],[142.16,42.39],[143.14,41.87],[144.59,42.87],[145.95,42.9],[146.31,43.49],[147.16,43.55],[146.99,44.17],[147.68,44.85],[150.8,45.8],[150.66,46.43],[151.04,46.76],[150.46,46.82],[149.64,45.91],[147.82,45.57],[147.42,44.99],[146.22,44.58],[145.42,44.75],[144.8,44.3],[143.71,44.36],[142.69,44.87],[142.26,45.83],[142.86,46.28],[143.64,45.91],[144.0,46.49],[142.83,48.28],[143.8,49.08],[144.55,48.24],[145.24,48.92],[143.72,50.79],[144.02,51.34],[143.34,51.76],[143.98,52.43],[143.61,52.98],[143.94,53.31],[143.22,53.75],[143.54,54.32],[142.43,54.64],[142.11,54.29],[142.51,53.74],[141.47,53.6],[139.85,54.89],[138.46,54.59],[138.7,55.18],[137.07,55.77],[138.15,55.95],[138.71,56.92],[139.85,57.09],[140.87,58.19],[140.41,58.53],[139.39,57.42],[138.24,57.24],[137.7,56.27],[136.6,56.09],[136.39,55.49],[134.93,55.37],[133.42,54.43],[132.55,54.8],[131.63,54.35],[131.04,54.86],[129.94,54.84],[129.31,55.34],[127.66,55.58],[125.98,55.2],[125.02,55.52],[124.33,55.39],[124.21,55.01],[125.84,54.82],[126.38,54.56],[126.24,54.18],[125.17,54.12],[124.09,54.63],[121.87,54.08],[120.91,54.36],[120.59,53.81],[119.63,54.08],[119.34,53.53],[118.38,53.78],[118.12,53.24],[116.92,52.93],[115.99,53.54],[115.39,53.38],[115.19,52.83],[114.04,52.5],[113.09,52.71],[111.98,52.36],[111.95,52.73],[112.51,52.9],[111.92,53.1],[110.68,52.52],[108.29,52.27],[108.19,52.67],[110.69,53.84],[109.3,54.02],[110.03,54.4],[109.63,55.72],[109.04,55.52],[109.17,54.77],[108.25,54.53],[108.23,53.91],[107.63,54.06],[107.64,54.68],[108.7,55.14],[108.24,56.46],[109.57,57.45],[109.5,57.84],[111.28,57.86],[111.44,58.45],[112.11,58.65],[111.83,59.24],[110.02,58.84],[108.56,59.21],[108.4,60.0],[107.64,60.18],[107.64,59.18],[106.44,59.34],[106.37,58.74],[104.58,58.65],[104.28,58.83],[105.06,59.27],[104.93,59.67],[105.56,59.9],[103.23,60.37],[102.75,60.95],[98.09,60.51],[96.4,61.57],[95.41,61.21],[93.75,61.39],[93.43,61.78],[93.97,62.08],[92.58,61.86],[92.25,62.24],[92.78,62.55],[91.03,62.7],[90.29,63.46],[88.94,63.66],[88.14,64.41],[88.71,64.95],[87.85,65.7],[85.87,65.78],[83.87,66.54],[82.33,66.68],[81.75,67.26],[79.65,67.26],[78.42,67.95],[76.29,67.9],[75.03,68.33],[74.55,68.19],[75.29,67.65],[73.7,67.48],[72.45,66.41],[71.81,66.72],[73.13,67.57],[72.38,68.1],[72.9,68.24],[73.11,68.83],[70.95,68.72],[69.55,69.1],[68.88,68.36],[67.3,68.14],[66.72,67.19],[65.67,67.1],[65.87,67.69],[65.14,67.96],[65.61,68.12],[65.47,68.33],[67.05,68.57],[64.68,69.4],[63.15,69.14],[63.31,68.93],[62.84,68.77],[58.42,69.06],[54.85,68.44],[54.01,68.66],[54.41,68.84],[54.18,69.04],[53.55,69.05],[48.25,67.96],[46.79,68.14],[46.59,68.7],[45.7,68.88],[43.28,68.81],[42.97,68.61],[43.86,68.45],[44.11,67.89],[42.37,67.06],[41.24,67.39],[41.51,67.98],[41.21,68.15],[38.88,68.4],[38.51,68.94],[35.2,69.26],[32.81,70.17],[31.57,69.85],[31.11,70.19],[31.76,70.45],[31.23,70.58],[30.0,70.25],[28.33,70.44],[26.61,69.62],[21.48,68.79],[18.2,66.34],[17.05,66.27],[17.29,65.73],[16.17,65.66],[14.18,64.14],[13.87,64.46],[14.25,64.77],[13.2,64.47],[12.55,64.9],[12.93,65.41],[12.34,65.65],[13.46,66.59],[12.46,66.73],[11.42,65.18],[10.28,65.03],[10.87,64.6],[4.76,62.49],[4.97,62.14],[4.11,61.2],[5.02,59.98],[4.46,59.58],[5.05,58.51],[7.45,57.72],[9.5,58.29],[9.41,58.79],[10.51,58.81],[11.16,58.06],[7.84,57.1],[8.02,56.79],[7.46,56.31],[7.93,55.87],[7.37,55.39],[8.29,55.23],[7.83,54.95],[7.92,54.41],[7.02,53.84],[4.98,53.55],[4.15,53.01],[4.25,52.42],[2.28,51.11],[1.51,51.61],[2.17,52.73],[1.98,53.11],[0.49,53.49],[0.13,54.45],[-0.79,54.72],[-1.43,56.03],[-2.4,56.29],[-1.55,56.81],[-1.74,57.38],[-1.3,57.64],[-3.0,58.0],[-2.5,58.46],[-2.76,58.81],[-1.87,59.32],[-2.92,59.57],[-3.75,59.26],[-3.53,58.71],[-6.51,58.64],[-7.78,57.81],[-7.48,57.46],[-7.93,56.96],[-6.47,57.03],[-7.3,56.46],[-6.76,55.52],[-8.5,55.59],[-9.29,54.99],[-9.02,54.41],[-10.75,54.44],[-10.44,54.08],[-10.84,53.54],[-10.21,53.03],[-10.97,52.17],[-10.38,51.43],[-8.77,51.18],[-8.03,51.81],[-6.03,52.05],[-5.48,53.25],[-6.01,53.99],[-5.26,54.35],[-4.7,53.83],[-5.09,53.54],[-5.01,52.28],[-5.77,51.68],[-4.85,51.45],[-4.64,50.84],[-5.6,50.85],[-6.74,49.69],[-3.56,50.0],[-2.81,50.59],[-1.34,50.25],[-0.63,50.6],[1.18,50.52],[0.74,50.02],[-0.16,50.06],[-0.02,49.45],[-0.91,49.49],[-1.98,50.12],[-3.47,48.93],[-5.35,48.7],[-4.91,47.7],[-3.74,47.55],[-1.91,46.45],[-1.3,45.28],[-1.65,44.97],[-1.65,43.64],[-3.82,43.95],[-4.46,43.54],[-8.1,44.05],[-9.3,43.66],[-9.65,43.07],[-8.88,42.14],[-9.22,41.55],[-8.74,40.77],[-9.34,40.31],[-9.13,39.67],[-9.98,39.36],[-9.01,38.04],[-8.71,38.39],[-8.94,38.79],[-8.33,39.49],[-6.34,40.18],[-5.03,39.92],[-5.87,39.64],[-5.66,39.25],[-4.61,39.13],[-2.66,39.76],[-2.43,39.6],[-2.92,38.31],[-2.54,37.53],[-3.81,37.56],[-4.16,36.98],[-2.67,36.8],[-1.69,38.03],[-2.24,39.21],[-0.78,38.76],[-0.91,39.39],[-0.14,39.4],[1.23,40.9],[2.02,40.94],[2.42,41.49],[3.59,41.85],[3.25,42.6],[3.67,43.16],[6.35,42.85],[8.77,44.1],[10.12,43.78],[9.23,42.94],[8.37,42.94],[8.52,42.55],[8.05,42.01],[8.97,41.37],[7.67,40.83],[8.35,40.35],[7.9,39.8],[8.19,39.0],[8.94,38.75],[10.14,39.04],[9.86,39.85],[10.33,40.4],[9.76,41.99],[11.56,42.18],[11.7,41.78],[12.47,41.52],[12.74,40.71],[14.67,40.44],[14.8,40.03],[15.55,39.73],[15.57,39.08],[14.32,38.84],[14.35,38.19],[13.52,38.24],[13.17,38.83],[11.98,37.92],[12.33,37.33],[14.19,37.05],[14.53,36.45],[15.35,36.39],[15.61,37.77],[16.45,37.7],[16.96,38.23],[16.85,38.65],[17.58,39.0],[17.58,39.65],[16.83,39.96],[17.25,40.25],[17.79,40.12],[18.11,39.52],[19.4,39.72],[19.5,39.3],[20.24,38.97],[20.34,38.54],[19.8,38.02],[20.33,37.88],[20.63,37.26],[21.37,37.59],[21.55,36.73],[22.58,36.42],[22.86,35.79],[23.64,36.77],[25.67,36.11],[27.36,36.49],[27.43,36.05],[26.13,35.27],[23.8,35.9],[23.26,35.39],[23.76,35.23],[24.04,34.6],[26.2,34.83],[26.75,35.33],[27.55,35.18],[27.62,35.85],[28.05,36.1],[29.3,36.2]],[[13.06,55.2],[13.22,54.86],[12.08,54.67],[13.06,55.2]],[[30.53,45.8],[31.18,46.22],[32.07,46.04],[32.16,45.24],[32.7,45.05],[32.93,44.44],[33.98,44.04],[36.76,45.05],[37.78,44.63],[37.96,44.02],[38.78,44.2],[38.96,43.58],[41.21,42.68],[41.36,41.65],[40.27,41.08],[38.07,41.14],[36.43,41.99],[35.64,41.78],[35.61,42.2],[35.1,42.4],[34.48,41.98],[33.13,42.38],[31.1,41.26],[28.74,41.56],[27.88,42.77],[28.83,43.25],[28.91,43.88],[30.8,43.76],[31.43,44.19],[30.7,44.58],[30.53,45.8]],[[11.42,63.16],[12.62,63.17],[12.81,62.89],[10.5,62.4],[10.58,61.94],[8.04,60.87],[8.45,60.29],[7.84,59.84],[6.52,60.08],[7.09,60.47],[6.91,60.82],[7.87,61.22],[6.25,61.68],[7.24,62.08],[7.16,62.6],[9.78,63.07],[10.3,62.69],[11.42,63.16]],[[89.31,48.53],[90.32,48.84],[91.26,48.64],[90.47,47.69],[92.01,47.45],[92.2,46.8],[92.81,46.75],[93.04,46.35],[92.11,46.3],[91.35,47.25],[90.1,47.34],[89.58,48.13],[88.3,48.21],[88.69,48.82],[88.38,48.96],[87.08,49.03],[88.1,49.36],[87.81,49.75],[87.14,49.78],[87.51,50.15],[89.13,49.68],[88.88,50.32],[89.26,50.68],[88.97,51.08],[91.25,50.53],[89.82,49.89],[90.06,49.24],[89.06,49.18],[89.31,48.53]],[[133.66,53.77],[134.2,54.27],[135.29,54.26],[135.04,53.89],[135.56,53.37],[134.78,52.52],[135.28,52.01],[134.33,51.81],[133.9,52.1],[134.12,52.46],[132.43,52.4],[132.64,52.76],[133.97,52.89],[133.44,53.4],[133.66,53.77]],[[61.36,65.47],[61.51,65.25],[61.11,65.08],[59.45,65.22],[61.36,65.47]],[[102.5,32.36],[103.08,33.16],[104.04,33.05],[102.72,32.22],[103.1,31.29],[102.29,30.6],[102.22,32.06],[102.5,32.36]],[[86.93,43.33],[87.19,42.94],[86.02,42.97],[85.4,42.48],[85.12,42.86],[85.44,43.24],[84.56,43.63],[86.06,43.73],[86.93,43.33]],[[77.61,43.12],[77.03,42.84],[77.29,43.24],[77.61,43.12]],[[81.26,42.48],[81.86,42.23],[80.67,42.21],[80.1,41.69],[79.48,42.18],[79.76,42.57],[81.26,42.48]],[[73.4,46.47],[73.66,46.88],[76.26,47.05],[76.97,46.57],[78.57,46.76],[78.92,46.39],[76.22,44.59],[74.36,44.47],[72.9,45.65],[73.4,46.47]],[[74.58,40.74],[76.33,40.87],[76.66,40.51],[75.5,40.43],[74.98,39.88],[74.34,40.34],[74.58,40.74]],[[98.28,50.87],[97.8,51.43],[96.52,51.61],[97.59,51.84],[97.46,52.48],[97.9,52.79],[96.28,53.14],[96.12,53.78],[95.13,54.03],[94.88,54.43],[95.33,54.75],[100.27,53.67],[100.46,53.27],[102.17,52.47],[102.33,52.07],[101.79,51.54],[102.04,51.37],[103.44,51.6],[104.28,51.31],[103.73,50.8],[102.55,51.03],[101.17,50.78],[100.65,50.24],[98.67,50.06],[97.83,49.43],[96.11,50.16],[95.96,50.8],[96.95,50.8],[97.43,50.23],[98.28,50.87]],[[89.79,42.7],[89.46,42.34],[88.97,43.12],[89.79,42.7]],[[93.93,39.05],[93.2,39.48],[94.02,39.53],[94.26,39.39],[93.93,39.05]],[[106.98,56.42],[107.28,55.26],[106.04,55.55],[106.53,55.81],[106.56,56.41],[106.98,56.42]],[[110.22,27.79],[109.74,27.64],[110.04,28.16],[110.49,28.08],[110.22,27.79]],[[15.79,42.37],[14.59,42.37],[14.43,43.4],[12.95,44.17],[12.9,44.79],[13.8,44.76],[15.42,43.58],[15.44,42.95],[16.22,42.66],[15.79,42.37]],[[105.96,29.24],[106.46,29.4],[106.16,28.87],[105.17,28.54],[104.28,29.11],[104.83,29.73],[105.96,29.24]],[[131.62,53.55],[131.13,53.83],[131.82,53.91],[131.62,53.55]],[[100.57,46.51],[99.68,47.4],[97.98,46.78],[97.54,47.34],[96.95,47.42],[96.61,48.46],[97.22,48.39],[97.41,47.98],[99.15,48.61],[101.61,46.95],[101.68,46.32],[100.57,46.51]],[[55.49,36.39],[55.79,36.33],[55.69,35.92],[55.29,36.2],[55.49,36.39]],[[77.88,50.98],[76.04,51.54],[77.09,51.72],[78.56,51.25],[78.96,50.63],[77.88,50.98]],[[37.69,65.26],[35.1,65.44],[36.02,65.9],[35.72,66.07],[35.94,66.28],[38.38,65.88],[39.67,66.16],[39.95,65.98],[39.18,65.74],[38.99,65.15],[37.69,65.26]],[[10.51,56.91],[11.68,57.11],[10.69,56.58],[10.51,56.91]],[[85.26,45.91],[85.89,45.89],[85.23,45.15],[84.94,45.53],[85.26,45.91]],[[36.71,45.86],[35.38,45.47],[35.17,46.07],[36.32,46.66],[37.69,46.63],[37.72,45.84],[36.71,45.86]],[[76.81,41.92],[78.89,42.15],[79.21,41.78],[77.22,40.8],[76.58,41.27],[76.81,41.92]],[[16.67,42.31],[17.11,42.59],[18.76,42.21],[19.19,40.55],[17.78,40.77],[17.45,41.36],[16.58,41.43],[16.24,42.02],[16.67,42.31]],[[45.51,67.35],[46.73,67.75],[47.57,67.57],[47.18,66.99],[45.51,67.35]],[[91.13,49.79],[91.47,49.89],[91.73,49.49],[91.08,49.54],[91.13,49.79]],[[41.28,66.24],[40.46,66.4],[41.27,66.63],[41.55,66.45],[41.28,66.24]],[[24.71,38.86],[24.63,39.29],[24.96,39.32],[25.68,38.96],[24.71,38.86]],[[130.46,53.75],[129.96,54.03],[130.65,54.12],[130.46,53.75]],[[24.79,38.43],[26.34,37.93],[25.46,37.41],[24.79,38.43]],[[109.84,50.0],[110.37,49.86],[110.32,49.25],[109.81,49.39],[109.84,50.0]],[[-3.65,54.03],[-3.4,53.65],[-3.8,53.37],[-4.35,53.9],[-3.65,54.03]],[[11.85,56.79],[12.52,56.72],[12.02,56.46],[11.85,56.79]],[[98.78,49.41],[98.96,49.01],[98.37,49.1],[98.78,49.41]]],[[[121.31,29.68],[120.73,29.99],[120.25,29.64],[119.8,30.71],[119.2,30.97],[117.63,30.61],[117.07,29.88],[117.84,29.27],[117.73,28.64],[119.4,29.64],[119.74,29.13],[120.21,29.43],[120.36,29.07],[119.89,28.76],[119.07,28.97],[118.53,28.23],[117.21,28.09],[117.08,27.23],[116.33,26.61],[116.45,26.02],[115.67,25.15],[116.35,25.36],[116.86,24.44],[118.3,25.49],[118.92,25.46],[119.03,26.11],[117.8,26.4],[117.79,27.63],[118.2,27.53],[118.66,26.42],[120.2,26.87],[120.08,27.41],[121.63,29.06],[121.31,29.68]]],[[[161.12,59.46],[162.49,60.28],[161.65,60.39],[159.84,59.49],[160.07,59.1],[161.12,59.46]]],[[[113.86,27.8],[113.76,27.14],[114.69,27.41],[114.53,27.78],[113.86,27.8]]],[[[151.83,47.42],[151.37,46.85],[152.55,46.73],[153.36,47.39],[153.24,48.01],[153.65,48.34],[152.63,48.08],[152.76,47.45],[151.83,47.42]]],[[[63.83,42.78],[63.5,42.85],[63.33,42.43],[63.91,42.53],[63.83,42.78]]],[[[159.39,57.72],[159.95,58.02],[159.38,58.57],[157.59,58.27],[156.53,57.65],[156.7,57.04],[155.51,57.03],[155.78,56.65],[155.29,56.34],[155.55,55.97],[155.0,55.43],[155.58,54.92],[155.05,54.39],[156.4,52.39],[155.85,51.85],[156.32,51.32],[155.23,51.08],[155.42,50.7],[154.89,50.15],[156.16,50.01],[158.93,51.84],[158.68,52.84],[160.22,53.12],[160.05,53.5],[160.67,54.01],[160.49,54.39],[162.1,54.64],[161.88,55.62],[163.67,56.07],[162.87,57.39],[163.59,57.9],[161.87,58.51],[161.93,57.89],[160.37,57.24],[160.46,56.63],[157.98,55.39],[158.21,55.02],[157.72,54.72],[157.02,55.83],[159.51,57.11],[159.39,57.72]],[[160.02,54.92],[160.64,55.43],[160.24,56.19],[160.97,56.09],[161.24,55.12],[160.02,54.92]],[[157.84,54.13],[157.16,54.2],[157.63,54.5],[157.84,54.13]]],[[[121.32,24.78],[120.87,24.58],[121.22,24.12],[120.69,23.48],[121.0,22.79],[121.74,24.76],[121.32,24.78]]],[[[27.2,70.49],[30.13,70.85],[24.89,71.17],[22.12,70.53],[23.35,69.92],[23.85,70.2],[23.25,70.51],[23.8,70.6],[24.96,70.17],[27.2,70.49]]],[[[130.79,31.64],[131.5,31.68],[131.8,33.08],[130.81,33.85],[129.77,33.32],[130.43,33.18],[130.26,32.39],[130.79,31.64]]],[[[121.61,30.19],[121.77,29.88],[123.01,30.78],[122.15,30.79],[121.61,30.19]]],[[[141.56,59.16],[141.22,58.56],[142.42,58.95],[141.56,59.16]]],[[[113.47,25.13],[114.4,25.41],[114.53,26.3],[114.16,26.83],[113.1,25.66],[111.46,25.14],[111.35,25.98],[110.54,25.06],[110.92,24.53],[111.43,24.91],[112.24,24.3],[112.34,24.99],[112.94,24.53],[113.47,25.13]]],[[[116.43,27.27],[116.01,27.36],[115.71,26.86],[116.13,26.77],[116.43,27.27]]],[[[-1.55,60.31],[-2.01,60.07],[-1.29,59.96],[-0.3,60.64],[-1.75,60.86],[-1.55,60.31]]],[[[113.76,28.61],[114.13,28.09],[115.62,29.11],[114.83,29.72],[113.89,29.47],[113.76,28.61]]],[[[155.09,49.77],[154.11,49.75],[154.22,49.13],[153.19,48.87],[154.42,48.74],[155.28,49.38],[155.09,49.77]]],[[[115.16,31.82],[114.86,31.35],[115.82,30.38],[117.01,30.87],[116.26,31.68],[115.16,31.82]]],[[[121.0,30.3],[121.42,30.29],[121.72,30.8],[121.3,30.8],[121.0,30.3]]],[[[52.07,43.39],[53.61,43.42],[52.23,44.25],[52.07,43.39]]],[[[114.02,31.74],[114.29,32.01],[113.64,32.25],[113.95,32.72],[113.33,33.16],[113.47,32.6],[112.93,32.07],[114.02,31.74]]],[[[15.85,68.02],[16.08,68.49],[15.1,68.47],[13.9,67.33],[14.92,67.17],[15.85,68.02]]],[[[60.59,69.32],[61.7,69.44],[60.79,69.7],[60.41,69.53],[60.59,69.32]]],[[[163.35,59.54],[162.73,59.25],[163.53,59.14],[163.35,59.54]]],[[[-27.14,38.29],[-26.67,39.1],[-27.58,39.41],[-28.95,38.9],[-28.57,38.29],[-27.14,38.29]]],[[[110.6,54.59],[110.65,54.22],[111.22,54.4],[110.6,54.59]]],[[[-17.43,32.57],[-16.39,32.32],[-16.92,33.09],[-17.7,32.95],[-17.43,32.57]]],[[[20.15,69.76],[21.23,69.76],[21.64,70.24],[18.84,70.35],[17.53,69.66],[18.19,69.37],[20.15,69.76]]],[[[153.26,58.97],[155.06,59.33],[154.45,60.1],[153.99,60.01],[154.3,59.63],[153.78,59.3],[149.65,59.99],[148.73,59.53],[142.78,59.55],[143.23,59.2],[149.11,59.16],[150.87,59.58],[151.27,59.44],[150.78,59.1],[151.12,58.73],[152.76,58.64],[153.26,58.97]]],[[[5.83,35.49],[5.98,35.09],[6.97,34.91],[8.1,35.21],[7.53,35.95],[8.4,36.18],[5.66,36.78],[5.03,36.37],[4.66,36.93],[3.98,36.29],[4.84,35.65],[5.83,35.49]]],[[[121.52,32.0],[121.79,32.29],[121.43,32.68],[121.16,32.39],[121.52,32.0]]],[[[-6.67,31.13],[-5.66,31.55],[-5.05,32.49],[-6.59,31.87],[-6.87,31.51],[-6.67,31.13]]],[[[48.43,68.72],[49.3,68.53],[49.77,69.1],[50.78,69.29],[49.62,69.67],[47.98,69.47],[47.54,68.91],[48.43,68.72]]],[[[173.36,52.76],[173.27,53.16],[172.71,52.92],[173.36,52.76]]],[[[121.39,54.7],[121.48,55.09],[120.82,54.95],[121.39,54.7]]],[[[121.68,31.7],[121.8,31.2],[122.22,31.19],[122.1,31.7],[121.68,31.7]]],[[[1.24,38.73],[1.57,39.06],[1.35,39.2],[1.07,39.11],[1.24,38.73]]],[[[166.2,54.57],[166.75,54.83],[166.34,55.39],[165.78,55.12],[166.2,54.57]]],[[[3.09,39.97],[2.24,39.71],[2.92,39.26],[4.47,40.17],[3.73,40.38],[3.09,39.97]]],[[[120.11,34.75],[119.31,35.16],[119.62,34.48],[120.26,34.41],[120.11,34.75]]],[[[165.09,58.9],[164.94,59.3],[164.47,59.25],[163.7,58.74],[165.09,58.9]]],[[[-25.27,36.89],[-25.0,37.03],[-25.35,37.66],[-25.12,38.06],[-26.24,37.98],[-25.27,36.89]]],[[[54.59,43.96],[53.58,44.09],[54.49,43.53],[54.59,43.96]]],[[[100.55,30.21],[101.23,29.8],[101.05,30.38],[100.55,30.21]]],[[[-31.71,39.75],[-31.3,39.16],[-30.73,39.22],[-31.14,39.82],[-31.71,39.75]]],[[[63.99,41.36],[64.56,41.46],[64.48,41.71],[64.15,41.78],[63.99,41.36]]],[[[14.25,35.73],[14.65,36.03],[14.44,36.21],[14.13,36.15],[14.25,35.73]]],[[[163.31,60.17],[163.49,59.76],[164.13,60.05],[163.31,60.17]]],[[[15.88,68.87],[17.07,68.51],[17.89,68.89],[17.25,69.17],[15.88,68.87]]],[[[167.43,54.7],[167.56,54.31],[168.11,54.57],[167.43,54.7]]]]}}]}