{"type":"FeatureCollection","features":[{"type":"Feature","properties":{},"geometry":{"type":"MultiPolygon","coordinates":[[[[24.61,57.87],[24.76,58.05],[24.5,58.2],[24.66,58.38],[24.4,58.53],[23.98,58.51],[23.71,58.66],[23.87,58.83],[23.6,58.98],[23.76,59.16],[24.12,59.23],[24.21,59.44],[24.57,59.51],[24.84,59.36],[25.2,59.42],[25.3,59.64],[25.03,59.79],[25.13,60.01],[25.5,60.07],[25.77,59.92],[25.67,59.7],[25.94,59.55],[26.31,59.61],[26.58,59.45],[26.95,59.51],[27.22,59.35],[27.6,59.41],[27.71,59.63],[27.45,59.79],[27.56,60.0],[27.29,60.16],[27.41,60.38],[27.14,60.53],[26.75,60.47],[26.48,60.63],[26.09,60.57],[25.98,60.35],[25.61,60.29],[25.33,60.44],[24.95,60.37],[24.68,60.52],[24.31,60.46],[24.03,60.6],[23.66,60.54],[23.38,60.68],[23.47,60.9],[23.18,61.04],[23.27,61.26],[22.98,61.4],[22.61,61.33],[22.32,61.47],[22.41,61.69],[22.11,61.83],[21.74,61.75],[21.45,61.89],[21.52,62.1],[21.9,62.18],[21.98,62.4],[21.68,62.53],[21.3,62.46],[21.0,62.59],[20.63,62.51],[20.56,62.3],[20.86,62.16],[20.78,61.95],[21.08,61.81],[21.01,61.6],[21.3,61.46],[21.22,61.25],[20.86,61.17],[20.79,60.95],[20.44,60.88],[20.29,60.7],[19.85,60.67],[19.7,60.49],[19.27,60.45],[18.98,60.59],[18.55,60.55],[18.26,60.68],[18.4,60.85],[18.11,60.99],[17.67,60.94],[17.38,61.07],[17.52,61.25],[17.96,61.29],[18.1,61.46],[17.81,61.59],[17.95,61.77],[17.66,61.89],[17.8,62.07],[18.15,62.15],[18.21,62.36],[18.56,62.45],[18.62,62.66],[18.98,62.74],[19.04,62.96],[19.41,63.04],[19.48,63.25],[19.85,63.34],[19.92,63.55],[19.61,63.68],[19.23,63.6],[19.17,63.38],[18.79,63.3],[18.73,63.09],[18.37,63.0],[18.31,62.79],[17.95,62.7],[17.65,62.83],[17.29,62.74],[17.25,62.53],[16.9,62.44],[16.75,62.27],[16.31,62.22],[16.17,62.05],[14.98,62.07],[14.85,61.9],[15.15,61.78],[15.01,61.6],[14.58,61.55],[14.45,61.37],[14.02,61.32],[13.71,61.44],[13.28,61.38],[13.16,61.2],[12.73,61.14],[12.43,61.26],[12.0,61.2],[11.69,61.31],[11.27,61.25],[11.15,61.07],[10.73,61.0],[10.43,61.12],[10.01,61.05],[9.9,60.87],[10.2,60.75],[10.09,60.57],[9.68,60.5],[9.57,60.32],[9.16,60.25],[9.05,60.07],[8.64,59.99],[8.54,59.81],[8.14,59.73],[8.04,59.55],[7.64,59.47],[7.54,59.28],[7.15,59.21],[6.88,59.37],[6.97,59.56],[6.7,59.73],[6.33,59.7],[6.05,59.87],[6.15,60.06],[6.52,60.08],[6.62,60.27],[6.34,60.43],[5.96,60.41],[5.67,60.57],[5.77,60.76],[5.48,60.92],[5.57,61.11],[5.28,61.27],[5.38,61.45],[5.08,61.62],[5.17,61.8],[4.87,61.96],[4.48,61.94],[4.39,61.75],[4.69,61.59],[4.59,61.41],[4.2,61.38],[4.11,61.2],[4.41,61.04],[4.32,60.85],[4.62,60.69],[4.53,60.5],[4.82,60.34],[4.73,60.15],[5.02,59.98],[4.93,59.79],[4.55,59.77],[4.46,59.58],[4.75,59.41],[4.66,59.22],[4.94,59.06],[4.85,58.86],[5.13,58.7],[5.05,58.51],[5.32,58.34],[5.68,58.37],[5.95,58.2],[6.31,58.23],[6.58,58.06],[6.49,57.87],[6.78,57.76],[7.16,57.84],[7.45,57.72],[7.84,57.8],[7.93,57.99],[8.32,58.07],[8.61,57.95],[9.0,58.03],[9.1,58.22],[9.5,58.29],[9.6,58.48],[9.31,58.6],[9.41,58.79],[9.81,58.86],[10.11,58.74],[10.51,58.81],[10.8,58.69],[10.69,58.5],[10.98,58.38],[10.87,58.19],[11.16,58.06],[11.05,57.87],[10.65,57.8],[10.36,57.93],[9.97,57.86],[9.87,57.67],[9.48,57.59],[9.37,57.4],[8.99,57.33],[8.7,57.45],[8.31,57.37],[8.22,57.18],[7.84,57.1],[7.74,56.9],[8.02,56.79],[7.93,56.59],[7.55,56.51],[7.46,56.31],[7.74,56.19],[7.65,55.99],[7.93,55.87],[7.83,55.67],[7.46,55.59],[7.37,55.39],[7.65,55.27],[8.02,55.35],[8.29,55.23],[8.2,55.02],[7.83,54.95],[7.74,54.74],[8.02,54.62],[7.92,54.41],[7.56,54.34],[7.47,54.13],[7.11,54.05],[7.02,53.84],[6.66,53.76],[6.39,53.89],[6.04,53.81],[5.95,53.6],[5.6,53.51],[5.33,53.64],[4.98,53.55],[4.9,53.34],[4.56,53.26],[4.48,53.05],[4.15,53.01],[4.07,52.8],[4.33,52.63],[4.25,52.42],[3.93,52.38],[3.85,52.16],[3.53,52.12],[3.45,51.91],[3.13,51.86],[3.06,51.64],[2.74,51.6],[2.67,51.38],[2.35,51.33],[2.28,51.11],[1.96,51.06],[1.7,51.22],[1.77,51.44],[1.51,51.61],[1.57,51.82],[1.9,51.87],[1.97,52.09],[1.7,52.25],[1.77,52.47],[2.1,52.52],[2.17,52.73],[1.91,52.89],[1.98,53.11],[1.71,53.27],[1.37,53.22],[1.1,53.38],[0.76,53.33],[0.49,53.49],[0.56,53.71],[0.28,53.87],[0.34,54.08],[0.06,54.24],[0.13,54.45],[-0.16,54.61],[-0.51,54.56],[-0.79,54.72],[-0.73,54.93],[-1.02,55.09],[-0.96,55.3],[-1.25,55.46],[-1.19,55.67],[-1.49,55.82],[-1.43,56.03],[-1.73,56.19],[-2.09,56.13],[-2.4,56.29],[-2.34,56.5],[-1.98,56.55],[-1.92,56.76],[-1.55,56.81],[-1.49,57.02],[-1.8,57.18],[-1.74,57.38],[-1.37,57.43],[-1.3,57.64],[-1.61,57.79],[-1.99,57.74],[-2.3,57.9],[-2.68,57.84],[-3.0,58.0],[-2.94,58.2],[-2.56,58.25],[-2.5,58.46],[-2.82,58.61],[-2.76,58.81],[-2.38,58.87],[-2.32,59.07],[-1.94,59.12],[-1.87,59.32],[-1.49,59.37],[-1.42,59.57],[-1.03,59.61],[-0.97,59.81],[-0.58,59.85],[-0.51,60.05],[-0.83,60.2],[-0.76,60.4],[-0.37,60.44],[-0.3,60.64],[-0.62,60.79],[-1.02,60.75],[-1.35,60.9],[-1.75,60.86],[-1.82,60.66],[-2.21,60.61],[-2.28,60.42],[-1.95,60.27],[-2.01,60.07],[-1.68,59.92],[-1.75,59.72],[-2.14,59.67],[-2.2,59.47],[-2.59,59.42],[-2.92,59.57],[-3.31,59.52],[-3.36,59.32],[-3.75,59.26],[-3.81,59.06],[-3.48,58.91],[-3.53,58.71],[-3.91,58.65],[-4.25,58.8],[-4.63,58.74],[-4.97,58.89],[-5.35,58.83],[-5.4,58.62],[-5.79,58.56],[-6.13,58.71],[-6.51,58.64],[-6.56,58.43],[-6.94,58.37],[-7.28,58.51],[-7.67,58.44],[-7.71,58.23],[-7.36,58.09],[-7.4,57.88],[-7.78,57.81],[-7.82,57.6],[-7.48,57.46],[-7.52,57.25],[-7.89,57.17],[-7.93,56.96],[-7.59,56.82],[-7.63,56.6],[-7.3,56.46],[-7.33,56.25],[-7.01,56.1],[-7.04,55.89],[-6.72,55.74],[-6.76,55.52],[-7.12,55.45],[-7.45,55.6],[-7.81,55.52],[-8.14,55.67],[-8.5,55.59],[-8.54,55.37],[-8.9,55.29],[-8.93,55.07],[-9.29,54.99],[-9.32,54.77],[-8.99,54.63],[-9.02,54.41],[-9.38,54.33],[-9.71,54.47],[-10.06,54.38],[-10.09,54.16],[-10.44,54.08],[-10.47,53.85],[-10.82,53.76],[-10.84,53.54],[-10.51,53.4],[-10.54,53.17],[-10.21,53.03],[-9.86,53.12],[-9.54,52.98],[-9.57,52.75],[-9.92,52.67],[-10.24,52.81],[-10.58,52.72],[-10.61,52.49],[-10.95,52.4],[-10.97,52.17],[-10.65,52.03],[-10.67,51.8],[-10.36,51.66],[-10.38,51.43],[-10.07,51.29],[-9.73,51.38],[-9.42,51.24],[-9.08,51.32],[-8.77,51.18],[-8.43,51.27],[-8.4,51.49],[-8.07,51.58],[-8.03,51.81],[-7.69,51.89],[-7.39,51.74],[-7.05,51.82],[-7.01,52.05],[-6.67,52.13],[-6.37,51.98],[-6.03,52.05],[-5.99,52.28],[-5.65,52.35],[-5.61,52.58],[-5.91,52.73],[-5.87,52.95],[-5.52,53.02],[-5.48,53.25],[-5.78,53.4],[-5.74,53.62],[-6.05,53.77],[-6.01,53.99],[-5.66,54.06],[-5.62,54.28],[-5.26,54.35],[-4.95,54.2],[-5.0,53.98],[-4.7,53.83],[-4.74,53.61],[-5.09,53.54],[-5.13,53.32],[-4.83,53.17],[-4.88,52.94],[-5.22,52.87],[-5.26,52.65],[-4.97,52.5],[-5.01,52.28],[-5.35,52.2],[-5.39,51.98],[-5.73,51.9],[-5.77,51.68],[-5.48,51.53],[-5.14,51.6],[-4.85,51.45],[-4.89,51.22],[-4.6,51.07],[-4.64,50.84],[-4.98,50.77],[-5.27,50.92],[-5.6,50.85],[-5.64,50.62],[-5.97,50.54],[-6.01,50.31],[-6.34,50.23],[-6.38,50.0],[-6.7,49.92],[-6.74,49.69],[-6.45,49.54],[-6.12,49.62],[-6.09,49.85],[-5.76,49.93],[-5.47,49.78],[-5.14,49.86],[-4.86,49.7],[-4.53,49.78],[-4.49,50.01],[-4.16,50.08],[-3.88,49.93],[-3.56,50.0],[-3.51,50.23],[-3.18,50.3],[-3.13,50.52],[-2.81,50.59],[-2.53,50.44],[-2.2,50.5],[-1.93,50.35],[-1.61,50.41],[-1.34,50.25],[-1.01,50.32],[-0.96,50.54],[-0.63,50.6],[-0.37,50.44],[-0.04,50.5],[0.22,50.34],[0.54,50.4],[0.6,50.62],[0.93,50.68],[1.18,50.52],[1.12,50.3],[0.8,50.24],[0.74,50.02],[0.42,49.96],[0.16,50.12],[-0.16,50.06],[-0.22,49.84],[0.04,49.67],[-0.02,49.45],[-0.33,49.39],[-0.59,49.55],[-0.91,49.49],[-1.18,49.65],[-1.12,49.87],[-1.39,50.03],[-1.71,49.96],[-1.98,50.12],[-2.31,50.05],[-2.36,49.83],[-2.68,49.76],[-2.73,49.53],[-3.05,49.46],[-3.1,49.23],[-3.42,49.16],[-3.47,48.93],[-3.79,48.86],[-4.06,49.01],[-4.39,48.94],[-4.43,48.71],[-4.75,48.63],[-5.03,48.78],[-5.35,48.7],[-5.39,48.47],[-5.11,48.32],[-5.15,48.09],[-4.87,47.93],[-4.91,47.7],[-4.64,47.55],[-4.33,47.63],[-4.06,47.47],[-3.74,47.55],[-3.47,47.39],[-3.52,47.16],[-3.25,47.0],[-2.94,47.08],[-2.68,46.92],[-2.73,46.69],[-2.47,46.53],[-2.16,46.61],[-1.91,46.45],[-1.96,46.22],[-1.7,46.06],[-1.75,45.83],[-1.5,45.67],[-1.55,45.44],[-1.3,45.28],[-1.35,45.05],[-1.65,44.97],[-1.7,44.74],[-1.45,44.58],[-1.5,44.35],[-1.8,44.27],[-1.85,44.04],[-1.6,43.88],[-1.65,43.64],[-1.94,43.57],[-2.19,43.72],[-2.48,43.64],[-2.73,43.8],[-3.02,43.72],[-3.28,43.88],[-3.57,43.79],[-3.82,43.95],[-4.12,43.86],[-4.16,43.63],[-4.46,43.54],[-4.72,43.69],[-5.01,43.61],[-5.27,43.76],[-5.57,43.67],[-5.83,43.82],[-6.13,43.73],[-6.39,43.88],[-6.69,43.79],[-6.96,43.94],[-7.26,43.85],[-7.53,44.0],[-7.83,43.9],[-8.1,44.05],[-8.4,43.95],[-8.43,43.71],[-8.73,43.61],[-9.0,43.76],[-9.3,43.66],[-9.33,43.42],[-9.63,43.32],[-9.65,43.07],[-9.38,42.93],[-9.4,42.68],[-9.13,42.54],[-9.15,42.29],[-8.88,42.14],[-8.91,41.9],[-9.2,41.8],[-9.22,41.55],[-8.96,41.41],[-8.98,41.16],[-8.72,41.01],[-8.74,40.77],[-9.03,40.67],[-9.06,40.42],[-9.34,40.31],[-9.36,40.07],[-9.1,39.92],[-9.13,39.67],[-9.41,39.57],[-9.67,39.71],[-9.96,39.61],[-9.98,39.36],[-9.72,39.21],[-9.74,38.97],[-9.48,38.82],[-9.5,38.57],[-9.24,38.43],[-9.26,38.18],[-9.01,38.04],[-9.03,37.79],[-8.78,37.65],[-8.5,37.75],[-8.48,38.0],[-8.73,38.14],[-8.71,38.39],[-8.96,38.54],[-8.94,38.79],[-8.66,38.89],[-8.63,39.14],[-8.35,39.24],[-8.33,39.49],[-8.04,39.59],[-8.01,39.84],[-7.73,39.94],[-7.7,40.18],[-7.42,40.28],[-7.16,40.14],[-6.88,40.23],[-6.85,40.48],[-6.56,40.58],[-6.31,40.43],[-6.02,40.52],[-5.77,40.37],[-5.81,40.13],[-5.56,39.98],[-5.27,40.07],[-5.24,40.32],[-4.95,40.41],[-4.71,40.26],[-4.43,40.35],[-4.39,40.59],[-4.1,40.68],[-3.86,40.53],[-3.58,40.61],[-3.54,40.85],[-3.25,40.94],[-3.21,41.18],[-2.93,41.27],[-2.69,41.11],[-2.4,41.19],[-2.36,41.43],[-2.07,41.52],[-1.83,41.36],[-1.55,41.44],[-1.5,41.68],[-1.74,41.83],[-1.69,42.07],[-1.41,42.15],[-1.17,41.99],[-0.89,42.07],[-0.65,41.91],[-0.37,41.99],[-0.14,41.83],[0.15,41.91],[0.37,41.75],[0.66,41.82],[0.88,41.66],[0.83,41.43],[1.05,41.27],[1.0,41.04],[0.72,40.96],[0.67,40.73],[0.39,40.65],[0.34,40.42],[0.06,40.34],[0.01,40.1],[0.24,39.95],[0.51,40.02],[0.56,40.26],[0.84,40.34],[0.89,40.57],[1.17,40.66],[1.23,40.9],[1.51,40.99],[1.74,40.85],[2.02,40.94],[2.08,41.17],[2.36,41.26],[2.42,41.49],[2.71,41.58],[2.94,41.44],[3.23,41.53],[3.29,41.76],[3.59,41.85],[3.65,42.08],[3.42,42.23],[3.48,42.46],[3.25,42.6],[3.31,42.84],[3.61,42.93],[3.67,43.16],[3.97,43.25],[4.21,43.1],[4.51,43.19],[4.74,43.04],[5.04,43.13],[5.28,42.98],[5.58,43.06],[5.82,42.92],[6.12,43.0],[6.35,42.85],[6.66,42.93],[6.74,43.16],[7.05,43.24],[7.12,43.48],[7.43,43.56],[7.67,43.4],[7.98,43.48],[8.06,43.71],[8.37,43.79],[8.46,44.02],[8.77,44.1],[9.01,43.94],[9.33,44.02],[9.56,43.86],[9.88,43.94],[10.12,43.78],[10.03,43.55],[10.26,43.39],[10.18,43.16],[10.41,43.0],[10.73,43.07],[10.82,43.3],[10.58,43.46],[10.67,43.69],[10.44,43.85],[10.52,44.08],[10.29,44.24],[9.97,44.17],[9.73,44.32],[9.41,44.25],[9.17,44.4],[8.85,44.33],[8.62,44.48],[8.7,44.71],[9.02,44.79],[9.11,45.02],[8.87,45.17],[8.95,45.4],[9.27,45.47],[9.51,45.32],[9.84,45.39],[10.08,45.24],[10.4,45.31],[10.49,45.54],[10.82,45.61],[11.06,45.46],[11.39,45.53],[11.48,45.75],[11.82,45.82],[12.05,45.66],[11.96,45.44],[12.2,45.28],[12.1,45.05],[12.34,44.89],[12.24,44.66],[11.92,44.59],[11.82,44.36],[12.06,44.2],[12.39,44.27],[12.48,44.5],[12.81,44.56],[12.9,44.79],[12.67,44.95],[12.77,45.18],[13.1,45.25],[13.33,45.08],[13.24,44.86],[13.47,44.69],[13.8,44.76],[14.04,44.59],[13.94,44.36],[14.17,44.2],[14.5,44.26],[14.73,44.09],[14.63,43.86],[14.86,43.69],[15.19,43.75],[15.42,43.58],[15.75,43.64],[15.98,43.47],[15.87,43.24],[16.1,43.06],[16.43,43.12],[16.66,42.94],[16.55,42.71],[16.78,42.54],[17.11,42.59],[17.21,42.82],[17.54,42.88],[17.77,42.7],[18.1,42.75],[18.32,42.57],[18.21,42.34],[18.43,42.16],[18.76,42.21],[18.98,42.03],[19.31,42.08],[19.53,41.9],[19.42,41.66],[19.63,41.48],[19.96,41.53],[20.18,41.34],[20.06,41.11],[20.28,40.93],[20.17,40.69],[20.38,40.51],[20.7,40.55],[20.92,40.36],[21.24,40.41],[21.36,40.64],[21.68,40.68],[21.8,40.91],[22.13,40.95],[22.25,41.18],[22.04,41.37],[21.71,41.33],[21.5,41.52],[21.61,41.75],[21.94,41.79],[22.16,41.6],[22.49,41.64],[22.7,41.45],[23.03,41.49],[23.15,41.71],[23.48,41.75],[23.69,41.56],[24.02,41.59],[24.23,41.4],[24.56,41.43],[24.69,41.66],[25.02,41.69],[25.15,41.92],[24.94,42.11],[24.61,42.08],[24.4,42.27],[24.52,42.49],[24.86,42.53],[25.07,42.33],[25.4,42.36],[25.53,42.59],[25.87,42.62],[26.0,42.84],[26.33,42.86],[26.47,43.09],[26.26,43.28],[25.92,43.25],[25.79,43.03],[25.45,43.0],[25.25,43.19],[24.91,43.16],[24.7,43.35],[24.36,43.32],[24.15,43.51],[23.81,43.48],[23.59,43.66],[23.26,43.63],[23.04,43.82],[23.17,44.04],[22.95,44.22],[22.61,44.19],[22.39,44.37],[22.51,44.59],[22.86,44.63],[22.98,44.85],[23.33,44.89],[23.45,45.11],[23.8,45.14],[24.02,44.96],[24.36,44.99],[24.49,45.21],[24.28,45.39],[24.41,45.61],[24.19,45.8],[23.84,45.76],[23.62,45.95],[23.75,46.16],[23.53,46.35],[23.66,46.56],[23.44,46.74],[23.57,46.96],[23.35,47.14],[22.99,47.11],[22.77,47.29],[22.41,47.25],[22.28,47.03],[22.51,46.85],[22.38,46.64],[22.61,46.46],[22.48,46.24],[22.7,46.06],[23.05,46.1],[23.27,45.91],[23.14,45.69],[22.8,45.66],[22.58,45.84],[22.23,45.8],[22.1,45.58],[21.76,45.54],[21.63,45.32],[21.29,45.28],[21.16,45.06],[20.82,45.02],[20.6,45.2],[20.72,45.42],[20.49,45.6],[20.61,45.82],[20.39,46.0],[20.51,46.22],[20.28,46.39],[20.4,46.61],[20.17,46.79],[20.29,47.01],[20.06,47.18],[20.18,47.4],[20.54,47.44],[20.66,47.66],[21.02,47.7],[21.14,47.92],[21.5,47.96],[21.63,48.17],[21.99,48.21],[22.11,48.42],[22.47,48.46],[22.61,48.67],[22.97,48.71],[23.2,48.53],[23.56,48.56],[23.78,48.38],[23.65,48.17],[23.88,47.99],[24.23,48.03],[24.46,47.84],[24.82,47.87],[24.95,48.08],[24.73,48.27],[24.37,48.24],[24.14,48.42],[24.28,48.63],[24.05,48.8],[24.19,49.01],[23.96,49.19],[23.6,49.16],[23.37,49.33],[23.5,49.54],[23.27,49.72],[23.41,49.92],[23.78,49.96],[23.91,50.16],[23.68,50.34],[23.82,50.54],[23.58,50.72],[23.72,50.92],[24.1,50.95],[24.24,51.15],[24.0,51.32],[24.14,51.53],[23.91,51.7],[24.05,51.9],[23.81,52.07],[23.95,52.27],[23.71,52.44],[23.85,52.64],[24.24,52.66],[24.38,52.86],[24.14,53.03],[24.29,53.23],[24.04,53.39],[24.19,53.59],[24.58,53.62],[24.72,53.81],[25.11,53.84],[25.26,54.03],[25.65,54.05],[25.81,54.24],[26.2,54.26],[26.35,54.45],[26.75,54.47],[26.9,54.66],[26.66,54.83],[26.27,54.81],[26.02,54.98],[26.18,55.16],[25.93,55.33],[25.54,55.31],[25.29,55.47],[25.44,55.66],[25.19,55.82],[24.79,55.8],[24.54,55.96],[24.69,56.14],[24.44,56.3],[24.6,56.49],[24.34,56.65],[23.93,56.62],[23.68,56.78],[23.83,56.96],[24.24,56.99],[24.39,57.17],[24.81,57.19],[24.96,57.38],[24.71,57.53],[24.86,57.71],[24.61,57.87]],[[15.8,55.07],[15.53,55.21],[15.65,55.41],[15.39,55.55],[15.0,55.5],[14.72,55.64],[14.84,55.83],[15.24,55.89],[15.51,55.75],[15.9,55.8],[16.02,56.0],[16.42,56.05],[16.54,56.25],[16.94,56.3],[17.07,56.49],[16.8,56.63],[16.93,56.82],[17.33,56.87],[17.46,57.06],[17.87,57.11],[18.14,56.97],[18.01,56.78],[18.28,56.63],[18.68,56.68],[18.81,56.87],[18.54,57.01],[18.68,57.2],[19.09,57.25],[19.23,57.43],[18.95,57.58],[19.09,57.76],[19.51,57.81],[19.65,57.99],[19.37,58.13],[19.51,58.32],[19.24,58.46],[18.82,58.42],[18.68,58.23],[18.27,58.19],[18.13,58.0],[18.41,57.86],[18.27,57.68],[17.86,57.63],[17.73,57.44],[17.32,57.39],[17.04,57.53],[17.18,57.72],[16.9,57.86],[17.03,58.05],[17.44,58.1],[17.58,58.28],[17.3,58.42],[17.43,58.61],[17.85,58.65],[18.13,58.51],[18.54,58.56],[18.68,58.74],[19.1,58.78],[19.25,58.97],[18.97,59.11],[19.11,59.29],[19.53,59.33],[19.68,59.51],[20.1,59.55],[20.25,59.72],[20.68,59.76],[20.96,59.62],[21.39,59.65],[21.66,59.51],[22.09,59.54],[22.37,59.4],[22.21,59.22],[21.79,59.19],[21.64,59.01],[21.91,58.86],[21.76,58.69],[21.33,58.65],[21.19,58.47],[21.46,58.32],[21.31,58.14],[21.58,57.99],[21.43,57.81],[21.7,57.66],[21.55,57.48],[21.14,57.44],[20.99,57.26],[21.26,57.11],[21.11,56.92],[20.71,56.88],[20.56,56.7],[20.83,56.55],[20.69,56.36],[20.95,56.2],[20.81,56.01],[21.07,55.86],[20.93,55.67],[20.53,55.63],[20.39,55.44],[20.65,55.29],[20.51,55.09],[20.12,55.05],[19.86,55.21],[19.46,55.16],[19.33,54.97],[19.59,54.82],[19.45,54.62],[19.06,54.58],[18.8,54.73],[18.94,54.92],[18.67,55.08],[18.28,55.03],[18.02,55.18],[17.63,55.13],[17.5,54.93],[17.11,54.88],[16.98,54.69],[16.6,54.63],[16.33,54.78],[15.95,54.73],[15.82,54.53],[15.44,54.47],[15.32,54.27],[14.94,54.22],[14.67,54.36],[14.29,54.3],[14.03,54.44],[14.14,54.64],[13.87,54.78],[13.49,54.72],[13.22,54.86],[12.84,54.8],[12.73,54.6],[12.35,54.53],[12.08,54.67],[12.19,54.87],[12.57,54.94],[12.68,55.14],[13.06,55.2],[13.33,55.06],[13.72,55.12],[13.83,55.32],[14.22,55.38],[14.49,55.24],[14.37,55.04],[14.64,54.9],[15.03,54.96],[15.29,54.82],[15.68,54.87],[15.8,55.07]],[[26.42,59.82],[26.15,59.98],[26.26,60.2],[26.64,60.26],[26.91,60.1],[26.8,59.88],[26.42,59.82]],[[-4.81,41.38],[-4.52,41.47],[-4.27,41.31],[-4.31,41.07],[-4.6,40.98],[-4.84,41.13],[-4.81,41.38]],[[11.68,57.11],[11.57,56.92],[11.18,56.85],[11.07,56.65],[10.69,56.58],[10.4,56.71],[10.51,56.91],[10.9,56.98],[11.01,57.17],[11.4,57.24],[11.68,57.11]],[[-5.67,41.1],[-5.38,41.19],[-5.13,41.04],[-5.17,40.8],[-5.45,40.71],[-5.7,40.86],[-5.67,41.1]],[[12.02,56.46],[11.74,56.59],[11.85,56.79],[12.24,56.85],[12.52,56.72],[12.41,56.53],[12.02,56.46]],[[24.03,57.66],[24.29,57.51],[24.14,57.33],[23.72,57.3],[23.46,57.45],[23.62,57.63],[23.36,57.79],[23.51,57.97],[23.93,58.0],[24.19,57.84],[24.03,57.66]],[[-2.51,49.15],[-2.24,48.99],[-2.29,48.76],[-2.61,48.69],[-2.88,48.85],[-2.83,49.08],[-2.51,49.15]],[[22.45,58.57],[22.72,58.42],[22.56,58.24],[22.14,58.21],[21.88,58.36],[22.03,58.54],[22.45,58.57]],[[23.05,57.42],[22.9,57.24],[22.49,57.21],[22.23,57.36],[22.38,57.54],[22.79,57.58],[23.05,57.42]],[[-3.7,53.81],[-3.4,53.65],[-3.45,53.44],[-3.8,53.37],[-4.09,53.52],[-4.04,53.74],[-4.35,53.9],[-4.3,54.11],[-3.95,54.18],[-3.65,54.03],[-3.7,53.81]],[[12.63,45.57],[12.39,45.73],[12.48,45.96],[12.82,46.02],[13.06,45.86],[12.96,45.64],[12.63,45.57]]],[[[10.96,42.91],[10.87,42.67],[11.1,42.51],[11.42,42.58],[11.51,42.81],[11.28,42.98],[10.96,42.91]]],[[[3.09,39.97],[2.87,40.12],[2.58,40.03],[2.53,39.8],[2.75,39.65],[2.69,39.41],[2.92,39.26],[3.2,39.35],[3.26,39.59],[3.54,39.67],[3.61,39.91],[3.38,40.06],[3.09,39.97]]],[[[8.67,42.16],[8.98,42.24],[9.06,42.47],[9.38,42.54],[9.46,42.78],[9.23,42.94],[8.91,42.86],[8.83,42.63],[8.52,42.55],[8.44,42.32],[8.67,42.16]]],[[[28.73,60.17],[28.6,59.96],[28.87,59.79],[29.26,59.85],[29.39,60.07],[29.12,60.23],[28.73,60.17]]],[[[-1.5,40.33],[-1.46,40.57],[-1.69,40.73],[-1.97,40.65],[-2.02,40.41],[-1.78,40.25],[-1.5,40.33]]],[[[13.31,43.61],[13.22,43.38],[13.45,43.21],[13.35,42.98],[13.58,42.81],[13.91,42.88],[14.0,43.11],[13.78,43.28],[13.87,43.51],[13.64,43.67],[13.31,43.61]]],[[[25.32,45.48],[24.97,45.46],[24.84,45.24],[25.05,45.05],[25.4,45.08],[25.53,45.3],[25.32,45.48]]],[[[12.52,43.88],[12.76,43.71],[13.08,43.78],[13.18,44.01],[12.95,44.17],[12.62,44.11],[12.52,43.88]]],[[[7.05,62.42],[7.16,62.6],[6.86,62.76],[6.46,62.74],[6.36,62.57],[6.66,62.4],[7.05,62.42]]],[[[-5.69,58.97],[-5.65,59.18],[-5.99,59.32],[-6.38,59.26],[-6.43,59.06],[-6.08,58.91],[-5.69,58.97]]],[[[21.08,62.81],[21.46,62.88],[21.54,63.1],[21.23,63.23],[20.85,63.15],[20.78,62.94],[21.08,62.81]]],[[[-9.08,37.29],[-9.1,37.04],[-8.85,36.9],[-8.58,37.01],[-8.55,37.25],[-8.8,37.4],[-9.08,37.29]]],[[[14.26,42.3],[14.17,42.07],[14.39,41.9],[14.72,41.96],[14.81,42.19],[14.59,42.37],[14.26,42.3]]]]}}]}