{"type":"FeatureCollection","features":[{"type":"Feature","properties":{},"geometry":{"type":"MultiPolygon","coordinates":[[[[91.35,47.25],[91.02,47.15],[90.73,47.3],[90.76,47.55],[90.47,47.69],[90.14,47.59],[90.1,47.34],[90.4,47.19],[90.36,46.94],[90.65,46.8],[90.98,46.9],[91.26,46.75],[91.22,46.5],[91.51,46.35],[91.83,46.45],[92.11,46.3],[92.44,46.4],[92.71,46.25],[93.04,46.35],[93.09,46.6],[92.81,46.75],[92.48,46.65],[92.2,46.8],[92.25,47.05],[91.96,47.2],[91.63,47.1],[91.35,47.25]]],[[[92.63,39.28],[92.35,39.17],[92.1,39.31],[91.82,39.21],[91.57,39.35],[91.28,39.24],[91.03,39.38],[90.75,39.28],[90.71,39.03],[90.43,38.92],[90.18,39.06],[89.89,38.95],[89.64,39.09],[89.35,38.98],[89.09,39.11],[88.81,39.0],[88.78,38.75],[88.5,38.64],[88.24,38.77],[87.96,38.66],[87.94,38.41],[87.66,38.3],[87.4,38.43],[87.12,38.31],[87.1,38.06],[86.82,37.94],[86.56,38.07],[86.28,37.95],[86.26,37.71],[85.99,37.59],[85.73,37.71],[85.45,37.59],[85.44,37.34],[85.16,37.22],[84.9,37.35],[84.62,37.22],[84.36,37.35],[84.08,37.22],[84.08,36.97],[83.81,36.85],[83.54,36.97],[83.27,36.84],[83.27,36.6],[83.0,36.47],[82.73,36.59],[82.46,36.46],[82.19,36.58],[81.92,36.45],[81.65,36.56],[81.38,36.43],[81.39,36.18],[81.12,36.05],[80.85,36.17],[80.84,36.42],[80.57,36.53],[80.56,36.78],[80.29,36.89],[80.02,36.76],[80.03,36.51],[79.76,36.37],[79.49,36.49],[79.47,36.74],[79.2,36.85],[78.93,36.71],[78.65,36.82],[78.63,37.07],[78.35,37.18],[78.09,37.04],[77.8,37.15],[77.54,37.01],[77.25,37.12],[76.99,36.98],[76.7,37.08],[76.68,37.33],[76.39,37.44],[76.37,37.69],[76.08,37.8],[76.05,38.05],[76.32,38.19],[76.29,38.45],[76.0,38.55],[75.97,38.8],[75.67,38.91],[75.4,38.76],[75.11,38.87],[75.08,39.12],[74.78,39.22],[74.74,39.48],[75.01,39.63],[74.98,39.88],[75.25,40.03],[75.56,39.92],[75.83,40.07],[76.13,39.96],[76.41,40.11],[76.38,40.36],[76.66,40.51],[76.96,40.4],[77.24,40.54],[77.54,40.43],[77.82,40.57],[78.12,40.46],[78.4,40.6],[78.38,40.85],[78.66,41.0],[78.65,41.25],[78.93,41.39],[78.92,41.64],[79.21,41.78],[79.51,41.67],[79.8,41.8],[80.1,41.69],[80.39,41.82],[80.69,41.7],[80.98,41.84],[81.27,41.71],[81.57,41.85],[81.56,42.1],[81.86,42.23],[82.15,42.11],[82.45,42.24],[82.74,42.11],[83.04,42.24],[83.33,42.12],[83.63,42.24],[83.92,42.12],[84.22,42.24],[84.5,42.11],[84.8,42.24],[85.09,42.11],[85.39,42.23],[85.4,42.48],[85.7,42.6],[85.99,42.47],[86.29,42.59],[86.57,42.45],[86.87,42.57],[87.15,42.44],[87.45,42.55],[87.47,42.8],[87.78,42.92],[87.8,43.17],[87.52,43.31],[87.21,43.19],[86.93,43.33],[86.95,43.58],[86.66,43.71],[86.35,43.6],[86.06,43.73],[85.75,43.61],[85.46,43.75],[85.48,44.0],[85.18,44.13],[84.87,44.01],[84.57,44.14],[84.27,44.02],[83.97,44.15],[83.66,44.02],[83.36,44.15],[83.05,44.02],[83.05,43.77],[83.35,43.64],[83.66,43.77],[83.95,43.64],[83.95,43.39],[83.65,43.26],[83.35,43.39],[83.05,43.26],[83.04,43.01],[82.74,42.88],[82.45,43.0],[82.15,42.87],[81.85,43.0],[81.55,42.87],[81.25,42.99],[80.95,42.85],[80.96,42.6],[80.66,42.47],[80.36,42.59],[80.35,42.84],[80.64,42.98],[80.64,43.23],[80.33,43.35],[80.03,43.22],[80.04,42.96],[79.75,42.82],[79.44,42.94],[79.15,42.8],[78.84,42.92],[78.54,42.78],[78.56,42.52],[78.27,42.38],[77.96,42.5],[77.67,42.36],[77.69,42.1],[77.41,41.96],[77.1,42.07],[76.81,41.92],[76.5,42.03],[76.48,42.29],[76.16,42.4],[75.88,42.25],[75.56,42.36],[75.53,42.62],[75.21,42.72],[74.93,42.57],[74.61,42.68],[74.33,42.53],[74.01,42.63],[73.73,42.48],[73.41,42.58],[73.13,42.43],[72.81,42.53],[72.53,42.37],[72.21,42.47],[71.93,42.31],[71.61,42.41],[71.34,42.25],[71.01,42.35],[70.74,42.19],[70.79,41.93],[71.11,41.84],[71.38,42.0],[71.7,41.9],[71.98,42.06],[72.3,41.96],[72.57,42.12],[72.89,42.02],[73.17,42.17],[73.49,42.07],[73.53,41.82],[73.84,41.71],[74.12,41.87],[74.44,41.76],[74.47,41.51],[74.78,41.4],[75.06,41.55],[75.37,41.45],[75.65,41.59],[75.96,41.49],[75.99,41.23],[75.71,41.09],[75.4,41.19],[75.13,41.04],[74.82,41.15],[74.54,41.0],[74.23,41.1],[73.96,40.95],[73.99,40.7],[73.72,40.54],[73.76,40.29],[73.49,40.14],[73.18,40.24],[72.91,40.09],[72.6,40.18],[72.34,40.03],[72.03,40.13],[71.76,39.97],[71.45,40.07],[71.19,39.91],[71.24,39.66],[70.97,39.5],[70.67,39.59],[70.62,39.84],[70.3,39.94],[70.04,39.78],[69.73,39.87],[69.48,39.71],[69.53,39.46],[69.27,39.29],[68.96,39.38],[68.71,39.22],[68.4,39.31],[68.15,39.14],[68.21,38.89],[68.52,38.81],[68.77,38.97],[69.08,38.88],[69.33,39.04],[69.64,38.95],[69.89,39.11],[70.2,39.02],[70.46,39.18],[70.76,39.09],[70.81,38.84],[71.12,38.74],[71.17,38.49],[70.91,38.34],[70.96,38.09],[70.7,37.93],[70.75,37.68],[71.05,37.59],[71.1,37.34],[70.85,37.18],[70.89,36.93],[71.19,36.84],[71.24,36.59],[70.99,36.43],[70.69,36.53],[70.45,36.37],[70.15,36.46],[69.91,36.3],[69.96,36.06],[69.71,35.9],[69.76,35.65],[69.52,35.5],[69.57,35.25],[69.86,35.16],[70.1,35.32],[70.39,35.23],[70.64,35.38],[70.92,35.29],[71.17,35.45],[71.46,35.35],[71.7,35.51],[71.66,35.75],[71.91,35.91],[72.2,35.81],[72.24,35.56],[72.52,35.47],[72.56,35.22],[72.85,35.13],[73.1,35.28],[73.06,35.52],[73.31,35.67],[73.6,35.58],[73.85,35.72],[74.13,35.63],[74.38,35.77],[74.67,35.67],[74.7,35.42],[74.45,35.28],[74.17,35.38],[73.91,35.23],[73.63,35.33],[73.38,35.18],[73.42,34.93],[73.7,34.83],[73.95,34.98],[74.23,34.88],[74.26,34.64],[74.54,34.54],[74.79,34.68],[75.07,34.58],[75.1,34.34],[75.38,34.24],[75.4,33.99],[75.68,33.89],[75.71,33.65],[75.98,33.54],[76.0,33.3],[76.27,33.2],[76.3,32.96],[76.57,32.85],[76.59,32.61],[76.86,32.51],[76.88,32.27],[77.14,32.16],[77.16,31.92],[77.43,31.82],[77.44,31.58],[77.71,31.48],[77.95,31.61],[78.21,31.51],[78.22,31.27],[78.48,31.17],[78.5,30.93],[78.75,30.82],[78.77,30.59],[79.02,30.48],[79.26,30.62],[79.52,30.51],[79.53,30.27],[79.78,30.17],[80.02,30.3],[80.27,30.2],[80.51,30.33],[80.76,30.22],[80.76,29.98],[81.01,29.88],[81.02,29.64],[81.26,29.54],[81.5,29.66],[81.75,29.56],[81.99,29.68],[82.23,29.57],[82.23,29.34],[82.47,29.23],[82.47,29.0],[82.71,28.89],[82.71,28.66],[82.95,28.55],[83.19,28.68],[83.42,28.57],[83.66,28.69],[83.89,28.58],[83.89,28.35],[84.12,28.24],[84.36,28.36],[84.59,28.26],[84.83,28.37],[85.06,28.27],[85.3,28.38],[85.53,28.27],[85.52,28.04],[85.74,27.93],[85.98,28.05],[86.21,27.94],[86.2,27.71],[86.42,27.59],[86.66,27.71],[86.89,27.59],[87.13,27.71],[87.36,27.59],[87.6,27.71],[87.83,27.59],[87.82,27.36],[88.04,27.24],[88.29,27.36],[88.3,27.59],[88.54,27.7],[88.77,27.59],[88.76,27.35],[88.99,27.23],[89.23,27.35],[89.24,27.58],[89.49,27.69],[89.5,27.93],[89.75,28.04],[89.98,27.92],[89.96,27.69],[90.19,27.56],[90.44,27.68],[90.67,27.55],[90.91,27.66],[90.93,27.9],[91.17,28.01],[91.4,27.88],[91.65,27.99],[91.88,27.87],[91.86,27.64],[92.09,27.51],[92.34,27.62],[92.36,27.85],[92.61,27.96],[92.84,27.84],[93.08,27.94],[93.1,28.17],[92.87,28.3],[92.89,28.53],[93.14,28.64],[93.37,28.51],[93.62,28.62],[93.64,28.85],[93.89,28.95],[93.91,29.18],[94.16,29.28],[94.17,29.51],[94.43,29.62],[94.66,29.49],[94.91,29.59],[94.93,29.82],[94.7,29.95],[94.72,30.17],[94.97,30.27],[95.2,30.15],[95.45,30.25],[95.68,30.12],[95.93,30.22],[96.17,30.09],[96.42,30.19],[96.44,30.42],[96.21,30.54],[96.23,30.77],[96.48,30.87],[96.71,30.74],[96.97,30.83],[96.99,31.06],[97.24,31.15],[97.26,31.38],[97.52,31.47],[97.75,31.34],[98.0,31.44],[98.02,31.66],[98.28,31.75],[98.3,31.97],[98.55,32.06],[98.79,31.93],[99.04,32.02],[99.06,32.24],[99.32,32.33],[99.34,32.55],[99.6,32.64],[99.62,32.86],[99.88,32.94],[100.11,32.81],[100.36,32.9],[100.59,32.77],[100.85,32.85],[100.87,33.07],[100.64,33.2],[100.67,33.42],[100.92,33.5],[101.15,33.37],[101.13,33.15],[101.36,33.02],[101.61,33.11],[101.64,33.32],[101.89,33.4],[101.92,33.62],[101.69,33.75],[101.71,33.96],[101.97,34.04],[101.99,34.25],[102.25,34.33],[102.28,34.55],[102.53,34.62],[102.56,34.83],[102.33,34.96],[102.4,35.19],[102.66,35.26],[102.73,35.49],[102.54,35.63],[102.28,35.55],[102.21,35.33],[101.95,35.25],[101.76,35.4],[101.83,35.62],[101.64,35.76],[101.38,35.68],[101.19,35.83],[100.92,35.75],[100.73,35.89],[100.46,35.81],[100.27,35.95],[100.0,35.87],[99.8,36.01],[99.86,36.24],[100.13,36.33],[100.33,36.18],[100.6,36.26],[100.79,36.12],[101.06,36.2],[101.25,36.05],[101.52,36.13],[101.58,36.36],[101.39,36.51],[101.46,36.73],[101.26,36.88],[101.33,37.11],[101.6,37.19],[101.79,37.04],[102.06,37.12],[102.25,36.97],[102.52,37.04],[102.71,36.9],[102.98,36.97],[103.05,37.19],[102.86,37.34],[102.59,37.27],[102.4,37.42],[102.47,37.64],[102.28,37.79],[102.01,37.72],[101.81,37.87],[101.88,38.09],[101.68,38.25],[101.41,38.17],[101.21,38.32],[100.93,38.24],[100.73,38.39],[100.45,38.31],[100.25,38.46],[100.31,38.69],[100.1,38.84],[99.83,38.76],[99.62,38.91],[99.68,39.14],[99.47,39.29],[99.19,39.21],[98.97,39.36],[98.69,39.27],[98.47,39.42],[98.19,39.34],[97.97,39.48],[98.03,39.72],[97.8,39.87],[97.52,39.78],[97.29,39.93],[97.01,39.84],[96.95,39.61],[96.67,39.52],[96.44,39.66],[96.15,39.57],[95.92,39.72],[95.63,39.63],[95.4,39.77],[95.11,39.68],[95.06,39.44],[94.78,39.34],[94.54,39.49],[94.26,39.39],[94.02,39.53],[93.73,39.43],[93.49,39.58],[93.2,39.48],[93.16,39.24],[92.88,39.13],[92.63,39.28]],[[92.55,38.79],[92.84,38.89],[93.08,38.75],[93.36,38.85],[93.6,38.71],[93.56,38.47],[93.79,38.33],[94.07,38.43],[94.31,38.28],[94.26,38.05],[94.49,37.9],[94.45,37.67],[94.68,37.52],[94.95,37.62],[95.18,37.48],[95.13,37.24],[95.36,37.1],[95.63,37.2],[95.86,37.05],[96.13,37.15],[96.35,37.01],[96.62,37.1],[96.68,37.33],[96.95,37.42],[97.17,37.28],[97.44,37.37],[97.66,37.23],[97.6,36.99],[97.82,36.85],[97.76,36.62],[97.97,36.47],[97.91,36.24],[97.65,36.15],[97.43,36.29],[97.16,36.2],[96.95,36.35],[96.68,36.25],[96.46,36.39],[96.2,36.3],[95.98,36.44],[95.71,36.35],[95.48,36.49],[95.21,36.39],[94.99,36.53],[94.72,36.43],[94.49,36.57],[94.22,36.48],[93.99,36.61],[93.72,36.51],[93.49,36.65],[93.53,36.89],[93.3,37.03],[93.03,36.93],[92.79,37.07],[92.83,37.31],[92.6,37.44],[92.63,37.68],[92.4,37.82],[92.12,37.72],[91.88,37.86],[91.91,38.1],[91.67,38.24],[91.71,38.48],[91.99,38.58],[92.23,38.45],[92.51,38.55],[92.55,38.79]]],[[[77.94,42.75],[78.23,42.9],[78.21,43.15],[77.9,43.27],[77.61,43.12],[77.29,43.24],[77.0,43.09],[76.68,43.2],[76.39,43.06],[76.42,42.8],[76.74,42.69],[77.03,42.84],[77.34,42.72],[77.63,42.87],[77.94,42.75]]],[[[81.2,44.78],[80.89,44.9],[80.88,45.16],[81.19,45.29],[81.51,45.16],[81.82,45.3],[81.81,45.55],[81.5,45.68],[81.18,45.54],[80.87,45.67],[80.55,45.53],[80.56,45.28],[80.26,45.14],[79.94,45.26],[79.63,45.13],[79.31,45.25],[79.0,45.11],[79.02,44.85],[79.34,44.73],[79.35,44.48],[79.67,44.36],[79.97,44.5],[80.29,44.37],[80.59,44.51],[80.9,44.39],[81.21,44.52],[81.2,44.78]]],[[[89.51,47.63],[89.84,47.74],[89.88,47.99],[89.58,48.13],[89.24,48.03],[89.21,47.78],[89.51,47.63]]],[[[68.52,35.11],[68.81,35.02],[69.04,35.18],[68.99,35.43],[68.7,35.51],[68.46,35.35],[68.52,35.11]]],[[[88.46,43.9],[88.18,44.04],[87.87,43.92],[87.85,43.67],[88.13,43.53],[88.44,43.65],[88.72,43.51],[89.02,43.62],[89.05,43.87],[88.77,44.01],[88.46,43.9]]]]}}]}