{"type":"FeatureCollection","features":[{"type":"Feature","properties":{},"geometry":{"type":"MultiPolygon","coordinates":[[[[-36.49,-54.77],[-35.77,-55.01],[-35.74,-54.1],[-38.58,-54.04],[-36.49,-54.77]]],[[[-96.32,-72.24],[-100.4,-72.23],[-97.75,-72.73],[-95.64,-72.6],[-96.32,-72.24]]],[[[180.0,63.14],[179.01,63.52],[179.11,64.36],[180.0,64.55],[180.0,89.82],[146.77,89.56],[167.32,89.39],[161.11,89.16],[170.95,88.97],[166.15,88.75],[172.48,88.55],[168.68,88.33],[173.31,88.13],[170.2,87.91],[173.84,87.7],[171.21,87.48],[174.47,86.84],[166.73,86.38],[169.12,86.18],[167.73,85.95],[169.83,85.75],[168.53,85.52],[170.41,85.32],[169.2,85.09],[171.3,84.45],[166.86,83.96],[168.33,83.76],[167.48,83.53],[169.67,82.46],[166.41,81.96],[167.97,81.32],[165.2,80.81],[166.66,80.18],[163.4,79.16],[163.89,78.73],[161.89,78.18],[162.4,77.75],[152.07,76.51],[152.81,76.1],[151.61,75.49],[148.04,75.56],[151.29,76.92],[148.36,77.1],[149.57,77.73],[146.5,78.66],[147.77,79.29],[145.38,79.82],[148.1,80.57],[146.84,81.22],[148.43,81.59],[146.98,81.98],[148.73,82.35],[130.26,84.96],[129.5,85.2],[130.95,85.62],[123.2,85.96],[121.08,85.76],[122.36,85.53],[120.47,85.33],[121.67,85.1],[111.92,84.03],[113.17,83.82],[112.08,83.59],[113.25,83.38],[112.23,83.16],[113.32,82.94],[112.36,82.72],[113.39,82.5],[112.48,82.28],[113.44,82.07],[112.58,81.84],[113.49,81.63],[112.67,81.4],[113.54,81.19],[112.76,80.96],[113.58,80.75],[112.83,80.52],[113.62,80.31],[112.97,79.64],[115.73,79.2],[115.0,78.1],[117.35,77.64],[116.72,77.43],[117.25,77.2],[116.64,76.98],[117.16,76.76],[116.57,76.54],[116.84,74.99],[114.87,74.56],[114.85,73.67],[113.49,73.9],[113.43,74.78],[115.39,75.22],[114.91,75.88],[115.45,76.1],[113.26,76.99],[108.8,76.93],[106.04,77.75],[108.17,78.25],[99.48,80.18],[98.46,81.27],[91.54,81.59],[88.4,81.13],[92.18,80.69],[89.06,79.74],[91.97,78.79],[98.4,78.53],[98.67,77.87],[101.44,77.56],[100.01,77.26],[100.18,76.59],[96.19,77.48],[91.3,75.9],[86.93,75.89],[84.34,74.8],[82.65,75.55],[84.33,76.29],[80.79,76.28],[80.11,75.66],[82.77,74.56],[78.65,73.07],[77.24,73.04],[77.7,73.66],[76.91,73.76],[72.92,73.13],[69.56,73.69],[68.43,71.9],[66.69,71.64],[65.74,70.1],[66.38,69.44],[57.92,70.43],[55.56,71.87],[57.11,72.61],[56.78,73.22],[61.53,75.06],[69.56,76.05],[70.22,77.09],[66.03,77.35],[54.7,75.46],[54.75,74.26],[50.96,72.72],[51.48,72.14],[50.12,71.75],[51.73,70.98],[59.48,69.77],[57.98,68.89],[52.68,69.26],[47.65,67.96],[46.59,68.7],[43.28,68.81],[44.11,67.89],[42.37,67.06],[41.24,67.39],[41.21,68.15],[36.48,69.55],[35.2,69.26],[30.74,70.92],[24.27,71.49],[18.76,70.54],[12.87,68.12],[14.48,67.9],[13.9,67.33],[14.52,67.07],[16.19,68.31],[15.43,68.76],[17.52,68.61],[17.15,69.36],[22.17,70.33],[27.61,68.6],[37.67,68.7],[40.66,67.75],[40.46,66.4],[32.33,66.9],[34.4,66.14],[34.59,64.42],[36.47,63.6],[38.61,63.95],[36.96,65.01],[39.8,64.61],[40.8,65.05],[39.98,65.6],[47.92,66.41],[48.08,67.19],[49.34,67.58],[52.9,65.96],[53.19,66.74],[55.3,67.45],[56.1,66.63],[53.52,65.34],[57.58,64.94],[58.09,64.29],[58.68,64.87],[58.16,65.51],[65.22,66.94],[60.87,64.69],[59.73,62.71],[60.54,62.21],[59.36,60.41],[60.12,59.91],[59.21,58.48],[58.14,58.81],[57.26,60.81],[55.31,60.95],[50.26,59.3],[44.32,58.94],[42.12,57.66],[40.43,58.01],[39.08,56.52],[37.49,56.43],[36.27,55.33],[38.3,54.21],[42.93,55.6],[46.98,55.17],[48.16,54.72],[49.28,52.75],[52.79,53.18],[53.15,53.81],[60.04,52.4],[65.05,52.96],[71.35,51.61],[72.67,52.23],[72.93,50.96],[73.96,51.17],[73.49,51.78],[74.11,52.33],[79.23,51.78],[79.65,50.64],[80.7,50.53],[79.7,49.87],[82.76,49.0],[84.11,49.5],[84.42,48.6],[85.51,50.48],[84.14,50.26],[84.17,51.27],[86.24,51.21],[88.84,52.72],[87.68,55.04],[88.51,55.73],[90.66,55.09],[90.19,54.5],[91.19,54.05],[89.95,53.02],[90.97,52.82],[93.82,53.05],[94.06,54.02],[91.38,55.03],[93.39,55.71],[95.4,54.99],[98.11,55.5],[103.74,52.29],[104.28,51.31],[106.57,52.06],[108.28,51.65],[107.03,52.33],[108.54,52.71],[109.46,54.21],[108.77,54.76],[105.05,52.27],[105.38,52.95],[104.06,52.98],[103.28,55.0],[104.22,56.18],[106.89,56.8],[107.74,55.87],[109.5,57.84],[111.93,58.05],[112.77,59.24],[115.63,59.99],[118.21,59.28],[117.44,58.71],[118.31,58.27],[119.1,58.83],[122.35,58.6],[123.66,59.72],[124.8,58.78],[135.19,58.1],[134.73,57.11],[135.92,57.09],[137.34,57.66],[135.47,58.48],[136.65,58.69],[136.06,59.25],[137.4,60.55],[136.22,61.45],[137.61,63.02],[135.88,63.79],[128.03,64.2],[126.19,66.58],[128.77,70.18],[130.78,68.39],[129.38,66.95],[130.94,66.32],[130.79,65.66],[133.13,65.36],[135.37,66.42],[136.64,65.98],[138.66,66.59],[137.65,67.95],[138.11,68.35],[140.51,68.44],[138.9,67.75],[141.49,66.31],[148.88,64.31],[150.4,61.78],[153.89,61.12],[155.92,61.71],[152.28,60.12],[145.78,61.15],[144.46,60.3],[142.25,60.63],[140.98,60.23],[139.89,59.1],[140.41,58.53],[137.7,56.27],[134.12,54.5],[132.03,54.28],[132.98,53.7],[136.7,54.37],[135.88,52.28],[137.32,50.53],[132.93,48.44],[133.14,47.84],[130.86,47.57],[131.18,46.79],[132.81,46.27],[133.35,47.24],[134.3,47.03],[136.32,48.24],[137.95,50.57],[136.6,52.11],[136.93,53.48],[139.22,52.5],[139.11,51.29],[140.1,51.23],[140.59,50.07],[137.47,45.61],[134.95,43.49],[132.11,43.38],[133.71,45.14],[133.45,45.69],[135.18,46.56],[134.36,46.84],[132.64,45.95],[130.59,42.29],[134.24,42.68],[137.71,45.27],[140.93,49.1],[140.75,51.26],[141.69,51.61],[141.84,47.01],[140.91,45.97],[141.69,45.6],[140.87,45.5],[141.25,43.85],[139.9,43.05],[139.33,42.12],[140.06,41.75],[139.29,41.42],[140.03,41.28],[139.98,40.58],[141.25,40.88],[141.88,39.54],[140.78,38.17],[141.49,38.01],[142.4,39.75],[141.37,42.3],[143.14,41.87],[145.95,42.9],[147.68,44.85],[150.42,45.47],[151.24,46.38],[150.46,46.82],[146.22,44.58],[142.95,44.74],[144.66,43.35],[143.0,42.95],[142.92,42.24],[141.93,42.76],[141.5,43.72],[142.31,43.82],[141.87,44.78],[142.72,45.11],[142.26,45.83],[143.97,46.25],[142.83,48.28],[143.8,49.08],[144.55,48.24],[145.24,48.92],[144.04,50.69],[143.35,50.01],[142.77,50.46],[144.03,51.12],[143.33,51.98],[144.3,52.76],[149.55,53.69],[150.93,55.57],[153.91,56.91],[153.68,57.52],[155.12,58.25],[154.9,58.86],[157.29,60.61],[157.11,61.24],[159.1,61.55],[160.2,60.19],[161.65,60.39],[157.5,58.04],[156.27,58.03],[156.45,57.42],[155.51,57.03],[155.05,54.39],[156.4,52.39],[155.85,51.85],[156.32,51.32],[155.23,51.08],[154.22,49.13],[153.26,49.11],[154.07,48.66],[158.93,51.84],[160.49,54.39],[162.79,54.54],[161.88,55.62],[164.23,56.34],[163.05,57.0],[163.76,57.51],[162.65,58.4],[168.53,60.46],[170.67,59.79],[171.51,60.66],[177.58,62.48],[179.64,62.07],[180.0,63.14]]],[[[-180.0,64.55],[-178.3,64.53],[-178.16,63.9],[-175.89,63.2],[-165.88,62.83],[-166.67,61.67],[-165.43,60.9],[-168.08,60.18],[-166.52,59.61],[-165.14,60.25],[-164.87,59.61],[-162.09,59.83],[-162.86,58.52],[-157.8,58.06],[-158.74,57.03],[-168.98,53.23],[-172.81,52.74],[-173.03,52.15],[-174.54,52.63],[-178.6,52.14],[-179.35,51.74],[-179.12,51.13],[-169.06,52.45],[-163.51,54.52],[-159.03,54.74],[-159.53,55.6],[-157.85,55.87],[-155.91,57.47],[-154.46,56.95],[-154.78,56.01],[-151.63,57.49],[-151.51,58.94],[-145.55,60.34],[-144.66,59.59],[-139.88,59.49],[-136.96,58.18],[-136.58,57.06],[-133.02,54.5],[-133.64,54.13],[-133.27,53.21],[-132.95,54.13],[-131.84,53.75],[-131.71,53.01],[-132.65,52.65],[-131.32,52.63],[-131.06,54.29],[-128.01,51.2],[-129.44,50.73],[-124.91,48.16],[-124.39,45.38],[-123.06,46.59],[-125.1,42.66],[-124.41,41.53],[-124.84,40.35],[-123.43,37.78],[-122.64,37.85],[-121.03,34.22],[-119.37,32.92],[-118.55,33.85],[-118.8,32.78],[-117.86,33.22],[-116.67,31.52],[-117.53,34.04],[-120.03,34.43],[-121.64,36.34],[-121.15,39.28],[-122.18,39.9],[-122.12,38.82],[-123.14,38.59],[-124.03,40.43],[-123.66,41.0],[-124.58,42.79],[-123.14,43.6],[-121.73,49.5],[-123.22,49.3],[-126.01,50.68],[-125.59,49.72],[-123.63,48.78],[-124.11,48.45],[-127.97,50.46],[-126.51,50.91],[-127.5,50.98],[-128.28,52.89],[-130.25,53.53],[-130.45,55.04],[-132.47,56.2],[-134.89,59.03],[-136.84,58.38],[-139.56,60.09],[-143.69,60.19],[-146.44,61.31],[-148.47,61.21],[-148.98,60.68],[-148.32,60.05],[-151.47,59.36],[-151.4,60.21],[-149.32,61.0],[-149.82,62.95],[-152.46,62.46],[-151.73,60.95],[-153.37,59.61],[-155.77,60.79],[-154.57,61.18],[-155.43,61.79],[-155.03,62.37],[-147.77,64.28],[-143.57,63.51],[-140.52,61.95],[-138.31,62.89],[-134.79,60.79],[-134.28,61.99],[-135.29,62.35],[-132.69,62.84],[-134.18,63.19],[-132.7,63.84],[-138.82,64.14],[-140.17,64.9],[-132.63,65.46],[-127.11,64.93],[-123.25,61.54],[-124.21,61.17],[-124.75,59.16],[-121.7,57.56],[-117.85,57.62],[-118.05,56.81],[-119.61,56.36],[-121.11,57.31],[-121.9,55.96],[-115.91,54.06],[-116.65,53.55],[-115.13,52.09],[-114.32,49.32],[-112.66,48.38],[-112.39,46.51],[-110.06,46.99],[-109.86,46.11],[-110.67,45.69],[-109.03,45.06],[-108.93,43.11],[-107.43,42.89],[-107.81,44.94],[-106.79,44.22],[-107.08,42.57],[-106.28,42.99],[-105.29,42.24],[-105.14,41.3],[-105.97,41.12],[-105.3,40.46],[-105.17,37.67],[-103.98,37.02],[-104.65,37.96],[-102.41,39.91],[-101.12,38.28],[-99.15,37.49],[-99.9,36.86],[-98.5,36.04],[-99.26,35.65],[-98.6,33.94],[-97.02,33.48],[-97.47,32.48],[-96.46,32.5],[-96.32,34.61],[-95.31,35.1],[-94.86,36.57],[-93.29,36.06],[-93.06,36.9],[-91.01,37.07],[-91.5,35.41],[-92.76,35.32],[-92.24,34.58],[-89.75,35.7],[-86.58,35.39],[-83.25,37.25],[-82.06,35.77],[-78.11,38.45],[-76.87,38.1],[-77.31,37.62],[-75.85,36.54],[-76.65,35.81],[-75.69,35.62],[-76.8,35.4],[-77.09,34.59],[-76.42,34.35],[-71.5,39.02],[-66.83,42.17],[-59.67,43.84],[-60.68,44.2],[-59.49,46.07],[-60.02,47.09],[-56.42,47.55],[-56.83,46.72],[-53.41,46.27],[-51.96,47.64],[-53.42,49.77],[-56.18,50.47],[-54.81,50.65],[-55.54,51.09],[-54.66,51.92],[-55.4,52.37],[-55.25,53.65],[-59.42,55.42],[-61.04,57.38],[-60.83,58.04],[-62.29,58.45],[-64.31,60.83],[-65.87,60.77],[-64.37,61.28],[-64.51,62.16],[-63.47,62.64],[-64.65,63.05],[-63.59,63.52],[-63.71,64.41],[-64.96,64.81],[-61.42,65.32],[-61.47,66.2],[-60.23,66.65],[-64.66,68.13],[-64.84,69.0],[-63.51,69.47],[-64.07,70.54],[-62.63,70.99],[-63.26,72.49],[-61.65,72.92],[-62.48,75.65],[-59.03,75.43],[-59.52,74.81],[-56.54,73.28],[-57.18,71.81],[-54.59,71.09],[-56.26,70.28],[-53.99,69.12],[-54.76,67.19],[-53.59,66.71],[-54.14,65.64],[-50.6,61.93],[-48.04,60.41],[-43.54,59.49],[-42.42,59.79],[-43.12,60.32],[-41.96,60.61],[-42.67,61.15],[-41.24,61.84],[-41.7,62.8],[-40.45,63.07],[-39.59,64.28],[-40.34,64.84],[-33.05,66.58],[-31.78,67.95],[-25.56,68.48],[-20.82,70.49],[-21.18,71.1],[-20.48,71.42],[-21.89,72.55],[-16.53,75.13],[-19.09,75.74],[-17.47,76.96],[-18.01,77.35],[-15.76,77.94],[-18.25,78.18],[-15.89,79.33],[-17.24,79.85],[-9.73,81.7],[-17.27,81.77],[-19.55,82.89],[-26.98,83.86],[-47.57,83.41],[-53.82,82.38],[-58.79,82.85],[-55.95,84.2],[-59.88,85.03],[-56.67,86.02],[-58.02,86.23],[-55.65,86.41],[-57.09,86.63],[-54.37,86.81],[-62.79,87.26],[-58.68,87.87],[-61.58,88.08],[-57.01,88.28],[-60.47,88.5],[-49.12,89.09],[-54.18,89.32],[-36.98,89.72],[-111.01,89.32],[-93.89,88.99],[-107.99,88.19],[-99.89,87.62],[-107.3,87.07],[-101.92,86.51],[-106.99,85.94],[-102.96,85.39],[-108.16,84.42],[-105.03,83.89],[-111.88,81.29],[-109.6,80.79],[-112.4,78.79],[-115.12,78.45],[-115.77,77.64],[-121.8,77.49],[-122.38,77.28],[-121.99,76.67],[-124.03,76.25],[-122.29,75.06],[-130.76,72.6],[-145.33,74.08],[-148.37,76.24],[-152.63,77.89],[-151.5,78.51],[-153.61,79.01],[-152.43,79.63],[-154.82,80.13],[-153.57,80.76],[-154.94,81.14],[-152.09,81.64],[-153.52,82.27],[-151.86,82.64],[-153.49,83.02],[-151.63,83.39],[-155.44,83.9],[-153.4,84.53],[-158.24,85.02],[-156.08,85.65],[-159.35,86.02],[-156.55,86.41],[-160.62,86.77],[-157.27,87.15],[-162.65,87.51],[-158.48,87.9],[-166.38,88.24],[-161.03,88.64],[-175.3,88.96],[-144.19,89.76],[-180.0,89.82],[-180.0,64.55]],[[-82.43,74.95],[-83.01,75.34],[-81.34,75.27],[-82.43,74.95]]],[[[20.81,56.01],[19.45,54.62],[18.02,55.18],[14.94,54.22],[12.35,54.53],[14.22,55.38],[15.68,54.87],[14.84,55.83],[17.07,56.49],[12.74,55.87],[13.36,56.32],[13.03,56.98],[12.07,57.17],[10.65,59.67],[7.64,58.11],[5.77,58.56],[7.45,57.72],[10.51,58.81],[11.33,57.75],[7.84,57.1],[7.37,55.39],[8.29,55.23],[7.92,54.41],[4.98,53.55],[1.96,51.06],[1.98,53.11],[0.49,53.49],[-1.43,56.03],[-2.4,56.29],[-1.3,57.64],[-3.0,58.0],[-1.87,59.32],[-7.67,58.44],[-7.93,56.96],[-6.47,57.03],[-7.3,56.46],[-6.76,55.52],[-8.5,55.59],[-9.29,54.99],[-9.02,54.41],[-10.75,54.44],[-10.21,53.03],[-10.97,52.17],[-10.38,51.43],[-6.03,52.05],[-5.48,53.25],[-6.01,53.99],[-5.26,54.35],[-4.7,53.83],[-5.77,51.68],[-4.64,50.84],[-6.74,49.69],[-2.81,50.59],[1.18,50.52],[-0.16,50.06],[-0.02,49.45],[-1.98,50.12],[-3.47,48.93],[-5.35,48.7],[-4.91,47.7],[-1.91,46.45],[-1.3,45.28],[-1.65,43.64],[-8.1,44.05],[-9.63,43.32],[-8.72,41.01],[-9.13,39.67],[-9.96,39.61],[-9.1,37.04],[-7.02,36.88],[-6.15,35.56],[-2.97,36.47],[-4.16,36.98],[-6.05,36.3],[-6.93,37.62],[-8.8,37.4],[-7.85,41.31],[-8.48,43.22],[-1.45,43.25],[-0.24,46.19],[-1.55,46.75],[-0.52,47.42],[0.23,46.94],[0.46,47.84],[-1.5,48.29],[-1.08,48.81],[0.75,48.97],[2.11,47.54],[3.91,47.8],[4.99,49.3],[6.33,48.84],[6.59,47.9],[4.9,47.26],[4.24,44.17],[7.42,46.06],[7.34,46.66],[11.23,47.34],[12.53,46.79],[11.04,46.89],[10.34,45.92],[8.48,46.53],[7.35,45.01],[12.06,44.2],[14.1,45.44],[13.8,44.76],[14.37,44.65],[14.78,45.56],[13.49,46.15],[17.25,47.4],[17.94,49.3],[16.74,49.52],[14.87,48.43],[13.09,48.72],[13.25,49.74],[12.19,49.54],[10.52,50.78],[14.25,51.08],[15.17,52.19],[14.59,53.61],[17.76,54.79],[19.58,54.27],[21.84,55.4],[21.5,56.43],[20.81,56.01]],[[-4.83,57.91],[-4.98,57.29],[-2.9,57.01],[-4.53,56.14],[-5.68,57.37],[-4.83,57.91]],[[13.36,53.22],[12.67,53.85],[13.95,53.69],[13.36,53.22]]],[[[-66.97,-68.65],[-62.72,-69.47],[-62.88,-71.01],[-61.23,-71.41],[-62.75,-71.88],[-60.9,-72.73],[-62.53,-73.2],[-62.28,-74.53],[-65.12,-75.0],[-64.59,-75.66],[-65.09,-75.88],[-71.66,-76.7],[-76.65,-75.41],[-79.38,-76.17],[-76.66,-77.42],[-82.72,-77.55],[-79.52,-78.42],[-85.35,-78.06],[-82.88,-79.37],[-77.59,-79.63],[-80.52,-80.18],[-76.17,-81.02],[-77.83,-81.64],[-77.29,-81.88],[-64.63,-82.95],[-63.4,-83.6],[-64.5,-83.82],[-60.83,-84.03],[-52.46,-82.78],[-51.88,-82.54],[-53.19,-82.35],[-52.62,-82.11],[-43.29,-82.66],[-41.24,-82.31],[-42.5,-81.91],[-40.49,-81.3],[-21.94,-79.83],[-28.12,-80.14],[-29.48,-80.03],[-28.43,-79.63],[-29.95,-79.01],[-35.79,-78.92],[-31.58,-77.36],[-32.65,-76.98],[-38.1,-78.9],[-32.11,-79.81],[-33.28,-80.45],[-41.65,-80.9],[-45.6,-81.84],[-59.25,-82.03],[-56.14,-81.53],[-57.21,-81.33],[-56.6,-81.1],[-57.6,-80.89],[-57.01,-80.66],[-57.96,-80.46],[-57.39,-80.22],[-54.94,-80.38],[-55.47,-80.62],[-54.44,-80.82],[-54.98,-81.06],[-53.9,-81.25],[-49.46,-81.32],[-41.29,-80.39],[-42.32,-79.98],[-40.67,-79.38],[-44.12,-77.73],[-49.06,-77.38],[-51.51,-78.44],[-50.97,-78.87],[-52.66,-79.17],[-52.12,-79.6],[-55.4,-79.95],[-57.36,-78.43],[-56.89,-78.19],[-57.93,-77.55],[-57.49,-77.31],[-58.19,-77.11],[-58.24,-75.99],[-60.5,-75.61],[-60.79,-74.72],[-59.05,-74.23],[-60.05,-72.7],[-58.53,-72.21],[-60.32,-71.82],[-60.23,-70.72],[-61.85,-70.32],[-60.57,-69.41],[-63.16,-68.82],[-61.85,-68.36],[-63.89,-68.4],[-64.29,-67.33],[-60.5,-66.79],[-60.43,-65.71],[-61.45,-65.11],[-58.98,-65.42],[-58.86,-64.77],[-57.33,-64.89],[-54.43,-63.36],[-56.38,-62.67],[-61.72,-63.42],[-57.51,-61.7],[-62.62,-62.82],[-62.52,-63.66],[-64.45,-64.35],[-64.41,-65.19],[-65.88,-65.0],[-70.11,-67.32],[-69.91,-67.97],[-67.97,-68.43],[-68.4,-69.07],[-72.15,-68.78],[-77.87,-70.9],[-72.98,-73.12],[-76.09,-72.55],[-78.34,-73.31],[-81.27,-72.67],[-82.71,-73.68],[-88.68,-72.39],[-98.56,-73.34],[-91.14,-73.73],[-89.82,-73.19],[-83.17,-74.09],[-80.62,-73.39],[-77.53,-74.03],[-69.14,-73.43],[-66.03,-72.8],[-66.01,-71.92],[-67.58,-71.47],[-67.09,-70.38],[-68.52,-69.94],[-65.95,-69.29],[-66.97,-68.65]],[[-49.81,-80.65],[-51.54,-80.04],[-49.75,-79.73],[-50.38,-79.3],[-48.73,-78.98],[-49.06,-78.31],[-43.06,-79.32],[-44.83,-79.92],[-43.92,-80.33],[-49.81,-80.65]],[[-68.3,-71.03],[-68.88,-72.12],[-72.29,-71.38],[-68.3,-71.03]],[[-63.5,-65.38],[-62.31,-65.35],[-62.52,-66.0],[-66.23,-66.92],[-63.5,-65.38]],[[-71.71,-69.66],[-70.49,-69.04],[-69.25,-69.93],[-71.71,-69.66]],[[-66.94,-68.21],[-67.23,-67.57],[-65.92,-67.56],[-66.94,-68.21]]],[[[180.0,-83.82],[164.29,-82.39],[164.88,-82.01],[161.0,-80.94],[163.15,-80.05],[161.47,-79.81],[161.67,-79.25],[167.68,-78.85],[168.49,-77.77],[170.81,-77.44],[163.61,-77.26],[164.11,-76.87],[162.87,-76.35],[164.0,-75.81],[162.85,-75.28],[166.55,-74.56],[165.61,-74.27],[165.96,-73.89],[170.58,-73.84],[169.65,-72.97],[171.22,-72.68],[171.6,-71.92],[170.72,-71.05],[161.84,-70.24],[160.39,-69.37],[156.08,-69.05],[154.39,-68.01],[148.13,-68.44],[144.68,-67.45],[145.3,-67.11],[144.9,-66.72],[134.65,-66.33],[134.02,-65.73],[131.5,-66.18],[143.27,-67.0],[144.12,-67.54],[143.38,-68.12],[143.87,-68.27],[146.13,-67.88],[147.53,-68.78],[151.28,-69.21],[154.46,-68.72],[160.0,-69.75],[161.07,-70.99],[165.42,-70.71],[169.48,-71.54],[170.33,-72.42],[168.35,-72.25],[168.96,-72.91],[159.99,-75.43],[162.38,-75.67],[161.34,-76.43],[162.53,-76.96],[161.99,-77.35],[164.93,-78.61],[161.12,-78.57],[157.54,-80.41],[160.7,-81.51],[159.95,-81.88],[162.04,-82.14],[157.81,-82.4],[178.45,-84.63],[180.0,-84.62],[180.0,-83.82]]],[[[-180.0,-84.62],[-162.19,-85.46],[-144.22,-85.25],[-147.22,-84.94],[-145.86,-84.31],[-152.34,-83.56],[-149.21,-82.81],[-152.62,-82.15],[-149.99,-81.41],[-151.45,-81.08],[-155.56,-81.94],[-154.13,-82.51],[-157.64,-83.23],[-176.24,-82.96],[-167.92,-83.94],[-168.5,-84.17],[-167.36,-84.56],[-179.63,-83.81],[-180.0,-84.62]]],[[[39.23,-68.84],[38.57,-69.58],[36.3,-69.69],[34.14,-68.7],[31.92,-68.75],[32.66,-69.32],[32.19,-69.69],[33.8,-69.3],[39.03,-70.27],[40.01,-69.15],[42.85,-68.47],[39.23,-68.84]]],[[[-15.46,-73.54],[-13.42,-73.2],[-16.61,-73.24],[-16.68,-73.92],[-15.48,-74.22],[-16.11,-74.41],[-14.86,-74.71],[-13.95,-74.07],[-15.46,-73.54]]],[[[-116.49,46.94],[-116.36,48.5],[-117.88,48.37],[-118.09,48.99],[-118.72,48.12],[-120.29,48.16],[-119.99,47.33],[-120.98,46.69],[-120.12,45.96],[-121.88,45.83],[-120.15,45.16],[-118.46,45.48],[-117.84,46.38],[-115.58,45.96],[-115.58,46.97],[-116.49,46.94]]],[[[-67.58,-54.39],[-66.39,-54.75],[-68.49,-55.53],[-70.89,-55.14],[-66.64,-56.09],[-66.61,-55.32],[-65.18,-54.71],[-67.58,-54.39]]],[[[171.93,-44.29],[171.32,-44.1],[170.06,-46.28],[171.93,-44.29]]],[[[113.55,-67.2],[115.43,-67.7],[118.47,-67.08],[119.42,-67.74],[126.05,-66.51],[129.17,-67.44],[130.52,-66.03],[129.1,-66.35],[129.02,-67.01],[125.95,-66.07],[116.88,-66.85],[112.4,-65.6],[108.79,-66.73],[105.44,-66.24],[103.38,-64.89],[100.3,-65.21],[99.17,-66.22],[85.43,-66.58],[82.55,-67.66],[87.09,-66.96],[99.57,-66.97],[103.6,-66.06],[108.59,-67.17],[112.9,-66.07],[114.95,-66.8],[113.55,-67.2]]],[[[-118.73,51.03],[-120.53,50.88],[-119.35,50.53],[-120.02,49.66],[-118.94,49.89],[-118.73,51.03]]],[[[43.09,62.97],[41.36,63.51],[43.07,62.17],[44.52,62.21],[43.09,62.97]]],[[[30.11,78.75],[31.41,79.28],[30.37,79.43],[27.04,79.16],[29.38,79.8],[28.37,80.39],[23.36,80.9],[8.74,79.83],[10.72,79.34],[9.38,78.83],[10.85,78.55],[10.66,77.98],[13.57,77.97],[13.27,77.4],[15.99,76.38],[18.41,76.53],[17.18,77.06],[19.38,77.85],[25.11,77.17],[24.12,77.74],[25.02,78.06],[21.74,79.09],[25.97,79.06],[24.95,78.73],[25.98,78.38],[30.11,78.75]],[[16.17,79.37],[19.76,78.86],[16.98,78.49],[17.53,79.06],[16.17,79.37]]],[[[84.32,77.53],[80.34,77.77],[82.45,77.03],[84.32,77.53]]],[[[172.87,53.13],[172.22,53.29],[172.4,52.49],[174.24,52.4],[172.87,53.13]]],[[[20.49,-71.07],[26.94,-71.25],[32.42,-70.39],[25.68,-70.03],[25.06,-70.38],[26.91,-70.53],[26.3,-70.88],[19.97,-70.68],[18.9,-70.13],[17.46,-70.54],[16.04,-69.57],[15.25,-69.88],[15.66,-70.29],[12.53,-70.14],[10.74,-70.73],[11.07,-71.15],[13.58,-70.49],[20.49,-71.07]]],[[[6.89,43.63],[2.97,43.58],[2.89,42.28],[1.68,41.69],[3.23,41.53],[3.67,43.16],[6.35,42.85],[7.43,43.56],[6.89,43.63]]],[[[129.74,41.8],[130.04,40.82],[130.37,42.17],[129.74,41.8]]],[[[68.72,-48.7],[68.34,-49.6],[70.13,-49.83],[68.78,-49.3],[70.48,-48.92],[68.72,-48.7]]],[[[151.83,47.42],[151.37,46.85],[152.55,46.73],[153.65,48.34],[151.83,47.42]]],[[[-161.19,-78.74],[-164.32,-78.8],[-161.68,-79.4],[-165.28,-79.68],[-159.91,-80.1],[-158.47,-79.54],[-161.19,-78.74]]],[[[-28.76,70.17],[-27.61,70.88],[-28.78,70.89],[-29.35,70.52],[-28.76,70.17]]],[[[23.57,66.04],[20.84,65.13],[21.32,64.44],[21.57,65.08],[24.34,65.2],[23.92,64.34],[20.78,62.94],[25.74,64.85],[25.46,65.78],[23.57,66.04]]],[[[128.28,53.11],[123.42,54.51],[119.97,53.67],[124.67,53.21],[126.7,52.18],[126.6,52.96],[128.28,53.11]]],[[[115.16,-33.69],[116.01,-33.42],[115.95,-32.55],[114.58,-33.98],[115.92,-34.47],[115.16,-33.69]]],[[[-22.86,64.55],[-22.6,63.73],[-18.23,63.24],[-12.72,65.27],[-14.59,66.59],[-18.15,66.83],[-19.81,66.09],[-23.36,66.67],[-24.92,65.64],[-24.08,65.16],[-24.6,64.58],[-22.86,64.55]]],[[[-81.95,25.91],[-81.7,26.49],[-82.88,27.75],[-82.78,29.4],[-84.49,30.24],[-84.74,29.66],[-84.06,29.97],[-82.82,28.7],[-83.31,27.78],[-81.95,25.91]]],[[[15.62,50.53],[13.46,50.17],[15.89,49.79],[16.47,50.27],[15.62,50.53]]],[[[21.97,59.86],[24.84,59.36],[25.5,60.07],[27.86,59.25],[33.05,60.51],[31.31,61.31],[30.32,60.39],[28.84,60.99],[23.84,60.17],[21.44,60.89],[21.95,61.4],[21.45,61.89],[20.42,60.39],[21.97,59.86]]],[[[127.18,54.45],[130.44,54.55],[125.02,55.52],[127.18,54.45]]],[[[-154.0,-77.05],[-154.91,-77.39],[-153.09,-77.36],[-154.0,-77.05]]],[[[138.14,37.24],[140.62,39.25],[140.2,40.21],[138.42,38.51],[138.14,37.24]]],[[[-147.46,-81.11],[-146.45,-80.73],[-151.68,-80.16],[-147.46,-81.11]]],[[[-113.99,47.86],[-114.77,48.41],[-114.52,47.57],[-113.99,47.86]]],[[[53.54,81.04],[49.32,81.65],[49.0,81.02],[42.64,80.68],[50.54,79.57],[59.66,79.49],[68.1,80.94],[65.59,81.47],[66.67,81.65],[66.14,81.88],[59.34,82.04],[54.22,81.67],[53.54,81.04]]],[[[49.27,-67.76],[51.36,-67.18],[51.15,-66.56],[53.11,-65.95],[52.31,-65.75],[48.11,-66.7],[48.47,-67.53],[46.37,-67.05],[42.91,-67.88],[47.57,-67.71],[48.26,-68.35],[49.27,-67.76]]],[[[-22.95,-75.54],[-25.52,-75.79],[-24.35,-76.13],[-18.24,-75.65],[-22.95,-75.54]]],[[[-6.74,61.16],[-5.72,62.07],[-5.99,62.6],[-7.72,62.17],[-6.74,61.16]]],[[[-24.95,36.52],[-25.12,38.06],[-26.24,37.98],[-24.95,36.52]]],[[[172.74,-43.85],[173.31,-43.79],[172.65,-43.12],[172.17,-43.9],[172.74,-43.85]]],[[[78.71,81.25],[77.63,80.85],[80.48,80.39],[82.93,80.91],[78.71,81.25]]],[[[11.86,65.72],[13.46,66.59],[12.46,66.73],[11.86,65.72]]],[[[-27.58,39.41],[-29.13,38.24],[-26.87,38.44],[-26.67,39.1],[-27.58,39.41]]],[[[68.82,-71.03],[69.71,-70.74],[69.08,-69.91],[70.58,-69.56],[70.26,-69.14],[71.22,-68.6],[69.66,-68.31],[70.59,-67.77],[60.7,-67.44],[69.03,-68.37],[68.6,-69.73],[66.86,-70.3],[68.51,-70.62],[65.27,-73.19],[67.96,-73.48],[68.99,-73.2],[68.85,-72.56],[71.49,-71.92],[68.52,-72.14],[67.99,-71.96],[68.94,-71.68],[68.82,-71.03]]],[[[127.22,50.03],[128.72,49.61],[127.85,50.68],[127.22,50.03]]],[[[115.52,39.2],[119.01,39.2],[119.49,39.96],[116.19,40.4],[115.52,39.2]]],[[[-17.38,27.99],[-16.64,27.63],[-15.9,28.77],[-17.14,28.38],[-17.9,29.25],[-18.38,28.47],[-17.38,27.99]]],[[[-99.75,-75.17],[-102.34,-75.49],[-99.02,-75.54],[-98.08,-74.93],[-99.55,-74.43],[-100.44,-74.79],[-99.75,-75.17]]],[[[121.7,40.78],[121.33,38.65],[124.24,39.83],[125.31,39.19],[125.07,37.73],[126.89,37.49],[126.82,38.13],[125.66,38.05],[126.0,39.89],[124.83,39.78],[124.52,40.49],[122.22,39.98],[124.08,41.83],[124.0,43.74],[120.21,40.74],[119.83,39.83],[121.7,40.78]]],[[[-5.61,-70.57],[-8.08,-71.4],[-4.52,-71.68],[-5.61,-70.57]]],[[[-44.1,-61.06],[-44.72,-60.28],[-46.73,-60.85],[-44.1,-61.06]]],[[[72.1,-70.08],[70.75,-71.09],[72.0,-71.2],[73.7,-70.59],[73.44,-69.94],[76.52,-70.03],[81.96,-67.77],[79.7,-67.69],[76.08,-69.63],[72.1,-70.08]]],[[[-7.88,70.77],[-7.05,71.03],[-7.59,71.58],[-10.09,70.78],[-7.88,70.77]]],[[[140.17,36.31],[139.25,36.37],[139.45,35.77],[138.27,34.79],[140.32,35.0],[141.43,37.3],[140.74,37.7],[140.17,36.31]]],[[[-55.43,-60.89],[-55.78,-61.35],[-53.41,-61.32],[-55.43,-60.89]]],[[[123.05,44.84],[124.05,45.04],[123.96,47.09],[122.51,45.24],[123.05,44.84]]],[[[24.75,-34.51],[25.09,-33.9],[22.51,-34.07],[24.75,-34.51]]],[[[-95.52,28.63],[-92.89,29.79],[-95.09,29.9],[-95.06,29.14],[-97.66,27.42],[-95.52,28.63]]],[[[180.0,52.34],[177.25,52.31],[177.13,51.69],[179.52,51.33],[180.0,52.34]]],[[[-88.38,30.08],[-85.84,30.33],[-89.08,30.47],[-89.79,29.38],[-89.33,28.64],[-88.38,30.08]]],[[[113.78,22.6],[112.83,22.06],[113.42,21.6],[116.66,23.1],[113.78,22.6]]],[[[92.26,50.57],[91.86,50.23],[92.81,50.02],[94.27,50.62],[92.26,50.57]]],[[[-73.28,-44.2],[-74.16,-44.03],[-73.88,-45.32],[-73.28,-44.2]]],[[[73.37,-52.74],[73.21,-53.21],[74.26,-53.19],[73.37,-52.74]]],[[[165.64,55.51],[165.09,55.24],[166.2,54.57],[168.79,54.43],[165.64,55.51]]],[[[-77.9,34.42],[-81.29,31.86],[-77.64,33.73],[-77.36,34.53],[-77.9,34.42]]],[[[-81.01,29.96],[-81.1,31.49],[-81.83,30.51],[-80.17,27.43],[-81.01,29.96]]],[[[147.66,62.1],[148.17,62.46],[147.22,62.48],[147.66,62.1]]],[[[-73.46,-43.14],[-73.55,-42.31],[-74.44,-43.35],[-73.46,-43.14]]],[[[0.03,39.0],[1.56,41.22],[-0.59,39.71],[0.03,39.0]]],[[[-154.02,-78.38],[-157.1,-78.75],[-154.03,-79.06],[-155.05,-78.73],[-154.02,-78.38]]],[[[-13.69,28.15],[-13.92,28.77],[-13.17,29.14],[-13.65,29.65],[-14.67,28.4],[-13.69,28.15]]],[[[-111.26,45.62],[-111.42,46.28],[-111.9,45.78],[-111.26,45.62]]],[[[136.28,34.54],[137.38,34.84],[137.18,35.42],[136.28,34.54]]],[[[127.79,40.13],[127.5,39.03],[128.44,39.85],[127.79,40.13]]],[[[-0.83,60.2],[-1.75,60.86],[-2.01,60.07],[-0.83,60.2]]],[[[-29.64,-77.07],[-26.03,-76.46],[-29.92,-76.3],[-30.68,-76.96],[-29.64,-77.07]]],[[[-69.26,51.86],[-69.06,51.0],[-67.95,51.54],[-68.29,52.17],[-69.26,51.86]]],[[[10.58,43.46],[10.52,44.08],[9.41,44.25],[10.58,43.46]]],[[[-170.37,57.02],[-169.78,57.36],[-171.04,57.47],[-170.37,57.02]]],[[[-146.25,61.95],[-144.3,62.77],[-145.99,62.81],[-146.25,61.95]]],[[[-161.95,-81.11],[-165.46,-81.75],[-159.82,-81.82],[-161.95,-81.11]]],[[[-82.79,35.75],[-83.73,35.62],[-82.84,35.06],[-82.79,35.75]]],[[[136.99,37.16],[137.89,36.9],[137.46,37.61],[136.99,37.16]]],[[[59.86,-67.68],[57.86,-66.49],[55.31,-66.35],[56.47,-66.74],[55.65,-67.38],[59.86,-67.68]]],[[[20.4,-34.36],[18.61,-33.64],[17.82,-34.04],[19.77,-34.96],[20.4,-34.36]]],[[[-174.13,60.05],[-171.64,60.29],[-173.53,61.02],[-173.05,60.39],[-174.13,60.05]]],[[[9.92,-70.13],[9.0,-70.42],[10.22,-70.55],[9.92,-70.13]]],[[[137.6,59.83],[137.27,59.45],[138.11,59.5],[137.6,59.83]]],[[[-16.39,32.58],[-16.13,33.47],[-17.7,32.95],[-16.39,32.58]]],[[[34.08,79.89],[35.55,80.19],[33.55,80.73],[30.68,80.11],[34.08,79.89]]],[[[18.55,74.92],[18.0,74.6],[20.31,74.3],[18.55,74.92]]],[[[7.07,-70.32],[3.57,-70.91],[7.06,-70.97],[8.27,-70.46],[7.07,-70.32]]],[[[47.71,69.66],[47.54,68.91],[48.69,68.53],[50.78,69.29],[47.71,69.66]]],[[[-131.54,51.9],[-130.69,51.69],[-130.6,52.24],[-131.54,51.9]]],[[[-20.46,-74.34],[-20.02,-73.91],[-21.58,-74.02],[-20.46,-74.34]]],[[[93.53,77.97],[94.87,78.31],[92.78,78.38],[93.53,77.97]]]]}}]}