{"type":"FeatureCollection","features":[{"type":"Feature","properties":{},"geometry":{"type":"MultiPolygon","coordinates":[[[[148.26,-42.82],[148.31,-42.58],[148.63,-42.49],[148.68,-42.24],[148.42,-42.08],[148.47,-41.83],[148.78,-41.74],[148.83,-41.49],[148.57,-41.33],[148.62,-41.08],[148.35,-40.92],[148.4,-40.67],[148.14,-40.51],[147.83,-40.6],[147.78,-40.85],[147.46,-40.94],[147.2,-40.77],[146.89,-40.86],[146.63,-40.7],[146.32,-40.78],[146.06,-40.62],[145.75,-40.7],[145.5,-40.53],[145.18,-40.62],[144.93,-40.45],[144.99,-40.2],[144.74,-40.03],[144.43,-40.11],[144.18,-39.95],[144.24,-39.7],[144.0,-39.53],[143.69,-39.61],[143.63,-39.85],[143.87,-40.02],[143.81,-40.27],[144.06,-40.44],[144.37,-40.36],[144.62,-40.53],[144.56,-40.78],[144.24,-40.86],[144.18,-41.1],[144.43,-41.27],[144.37,-41.52],[144.62,-41.69],[144.56,-41.93],[144.81,-42.1],[144.75,-42.35],[145.01,-42.51],[144.95,-42.76],[145.21,-42.92],[145.15,-43.17],[145.41,-43.34],[145.73,-43.25],[146.0,-43.42],[145.94,-43.66],[146.2,-43.83],[146.53,-43.75],[146.8,-43.91],[147.13,-43.83],[147.18,-43.58],[147.51,-43.49],[147.78,-43.65],[148.1,-43.57],[148.16,-43.32],[148.48,-43.23],[148.53,-42.98],[148.26,-42.82]]]]}}]}