{"type":"FeatureCollection","features":[{"type":"Feature","properties":{},"geometry":{"type":"MultiPolygon","coordinates":[[[[13.71,61.44],[12.98,61.5],[12.43,61.26],[10.01,61.05],[9.48,60.8],[9.37,60.62],[9.68,60.5],[9.57,60.32],[7.15,59.21],[6.7,59.73],[6.05,59.87],[6.62,60.27],[6.15,60.78],[6.25,60.97],[5.96,61.13],[6.06,61.31],[5.77,61.48],[5.86,61.66],[6.74,61.88],[6.84,62.06],[6.55,62.22],[6.66,62.4],[7.05,62.42],[8.67,63.16],[10.1,62.97],[11.67,63.5],[11.79,63.67],[11.47,63.78],[11.6,63.95],[12.18,64.18],[11.53,64.6],[11.53,64.8],[12.23,65.21],[12.11,65.38],[12.46,65.48],[12.34,65.65],[12.7,65.76],[12.58,65.93],[13.2,66.31],[13.08,66.48],[13.46,66.59],[13.35,66.76],[12.84,66.83],[12.46,66.73],[12.59,66.55],[11.97,66.17],[12.1,66.0],[11.74,65.89],[11.86,65.72],[11.51,65.62],[11.64,65.45],[11.29,65.34],[11.42,65.18],[10.28,65.03],[10.41,64.87],[10.13,64.7],[10.41,64.53],[10.29,64.37],[9.36,64.19],[9.24,64.02],[8.13,64.17],[8.02,64.0],[8.32,63.83],[8.2,63.66],[7.8,63.65],[6.16,62.91],[5.76,62.89],[5.66,62.71],[5.26,62.69],[5.16,62.51],[4.76,62.49],[4.67,62.31],[4.97,62.14],[4.87,61.96],[4.48,61.94],[4.39,61.75],[4.69,61.59],[4.11,61.2],[4.41,61.04],[4.32,60.85],[4.62,60.69],[4.53,60.5],[5.02,59.98],[4.46,59.58],[4.94,59.06],[4.85,58.86],[5.13,58.7],[5.05,58.51],[6.31,58.23],[6.58,58.06],[6.49,57.87],[6.78,57.76],[7.45,57.72],[7.84,57.8],[7.93,57.99],[9.0,58.03],[9.1,58.22],[9.5,58.29],[9.6,58.48],[9.31,58.6],[9.41,58.79],[10.51,58.81],[10.8,58.69],[10.69,58.5],[11.16,58.06],[11.05,57.87],[9.97,57.86],[9.37,57.4],[8.7,57.45],[7.84,57.1],[7.74,56.9],[8.02,56.79],[7.46,56.31],[7.93,55.87],[7.37,55.39],[8.29,55.23],[8.2,55.02],[7.83,54.95],[7.74,54.74],[8.02,54.62],[7.92,54.41],[7.56,54.34],[7.02,53.84],[6.39,53.89],[6.04,53.81],[5.95,53.6],[4.98,53.55],[4.48,53.05],[4.15,53.01],[4.25,52.42],[3.13,51.86],[2.28,51.11],[1.96,51.06],[1.51,51.61],[1.97,52.09],[1.7,52.25],[1.77,52.47],[2.1,52.52],[2.17,52.73],[1.91,52.89],[1.98,53.11],[0.49,53.49],[0.56,53.71],[0.06,54.24],[0.13,54.45],[-0.79,54.72],[-0.73,54.93],[-1.25,55.46],[-1.19,55.67],[-1.49,55.82],[-1.43,56.03],[-2.4,56.29],[-1.92,56.76],[-1.55,56.81],[-1.49,57.02],[-1.8,57.18],[-1.74,57.38],[-1.37,57.43],[-1.3,57.64],[-3.0,58.0],[-2.5,58.46],[-2.82,58.61],[-2.76,58.81],[-1.49,59.37],[-1.42,59.57],[-1.03,59.61],[-0.97,59.81],[-0.58,59.85],[-0.51,60.05],[-0.83,60.2],[-0.76,60.4],[-0.37,60.44],[-0.3,60.64],[-0.88,61.14],[-2.67,60.37],[-2.74,60.17],[-1.68,59.92],[-2.2,59.47],[-2.92,59.57],[-3.75,59.26],[-4.48,59.36],[-4.53,59.15],[-3.48,58.91],[-3.53,58.71],[-4.97,58.89],[-5.79,58.56],[-6.51,58.64],[-6.56,58.43],[-6.94,58.37],[-7.67,58.44],[-7.71,58.23],[-7.36,58.09],[-7.4,57.88],[-7.78,57.81],[-7.82,57.6],[-7.48,57.46],[-7.52,57.25],[-7.89,57.17],[-8.34,56.67],[-7.3,56.46],[-7.33,56.25],[-6.72,55.74],[-6.76,55.52],[-8.5,55.59],[-8.54,55.37],[-9.29,54.99],[-9.32,54.77],[-8.99,54.63],[-9.02,54.41],[-10.75,54.44],[-10.77,54.21],[-10.44,54.08],[-10.84,53.54],[-10.51,53.4],[-10.54,53.17],[-9.54,52.98],[-9.57,52.75],[-10.58,52.72],[-10.97,52.17],[-10.65,52.03],[-10.38,51.43],[-8.77,51.18],[-8.07,51.58],[-8.03,51.81],[-7.39,51.74],[-7.05,51.82],[-7.01,52.05],[-6.37,51.98],[-5.65,52.35],[-5.87,52.95],[-5.52,53.02],[-5.48,53.25],[-6.05,53.77],[-6.01,53.99],[-5.66,54.06],[-5.62,54.28],[-4.95,54.2],[-5.0,53.98],[-4.7,53.83],[-4.74,53.61],[-5.09,53.54],[-5.13,53.32],[-4.83,53.17],[-4.88,52.94],[-5.22,52.87],[-5.01,52.28],[-5.35,52.2],[-5.77,51.68],[-4.85,51.45],[-4.64,50.84],[-5.6,50.85],[-5.64,50.62],[-6.7,49.92],[-6.74,49.69],[-6.45,49.54],[-5.76,49.93],[-4.86,49.7],[-4.53,49.78],[-4.49,50.01],[-3.56,50.0],[-3.13,50.52],[-2.81,50.59],[-1.34,50.25],[-0.63,50.6],[0.22,50.34],[0.54,50.4],[0.6,50.62],[1.18,50.52],[0.74,50.02],[-0.16,50.06],[-0.02,49.45],[-0.91,49.49],[-1.39,50.03],[-1.98,50.12],[-2.68,49.76],[-2.73,49.53],[-3.42,49.16],[-3.47,48.93],[-4.06,49.01],[-4.75,48.63],[-5.35,48.7],[-5.39,48.47],[-4.87,47.93],[-4.91,47.7],[-3.74,47.55],[-3.47,47.39],[-3.52,47.16],[-2.94,47.08],[-2.68,46.92],[-2.73,46.69],[-1.91,46.45],[-1.96,46.22],[-1.3,45.28],[-1.35,45.05],[-1.65,44.97],[-1.7,44.74],[-1.45,44.58],[-1.5,44.35],[-1.8,44.27],[-1.65,43.64],[-3.82,43.95],[-4.46,43.54],[-8.1,44.05],[-8.73,43.61],[-9.0,43.76],[-9.3,43.66],[-9.33,43.42],[-9.63,43.32],[-9.65,43.07],[-8.88,42.14],[-9.22,41.55],[-8.72,41.01],[-8.74,40.77],[-9.34,40.31],[-9.13,39.67],[-9.96,39.61],[-9.98,39.36],[-9.72,39.21],[-9.74,38.97],[-9.01,38.04],[-9.33,37.43],[-8.85,36.9],[-8.05,36.97],[-6.77,36.74],[-6.8,36.49],[-6.15,35.56],[-6.18,35.32],[-6.74,34.86],[-7.35,33.91],[-7.61,33.81],[-7.85,33.95],[-8.4,33.48],[-8.64,33.62],[-8.9,33.51],[-8.93,33.26],[-10.03,32.07],[-10.05,31.82],[-9.81,31.68],[-9.83,31.43],[-10.08,31.32],[-10.1,31.07],[-9.87,30.93],[-9.89,30.68],[-10.14,30.57],[-9.94,29.94],[-10.19,29.82],[-10.48,29.21],[-11.21,29.11],[-11.49,28.49],[-12.22,28.38],[-12.24,28.13],[-12.0,28.0],[-11.27,28.11],[-10.99,28.73],[-10.75,28.84],[-10.3,28.33],[-9.78,28.81],[-9.08,28.66],[-8.83,28.77],[-8.81,29.02],[-8.56,29.13],[-8.33,29.0],[-7.81,29.46],[-7.59,29.33],[-7.34,29.44],[-6.92,28.92],[-6.67,29.03],[-5.99,28.86],[-5.74,28.97],[-5.71,29.21],[-5.46,29.32],[-5.25,29.18],[-4.72,29.63],[-4.05,29.45],[-3.52,29.89],[-2.86,29.71],[-2.61,29.81],[-2.58,30.05],[-2.33,30.14],[-2.12,30.0],[-1.59,30.43],[-0.94,30.23],[-0.7,30.31],[-0.66,30.55],[0.04,30.57],[0.09,30.8],[0.34,30.89],[0.99,30.66],[1.55,31.06],[1.75,30.91],[2.01,30.99],[2.06,31.23],[2.78,31.23],[2.83,31.47],[3.09,31.55],[3.3,31.39],[3.56,31.47],[3.62,31.71],[3.88,31.79],[4.09,31.63],[4.35,31.7],[4.41,31.95],[4.68,32.02],[4.89,31.86],[5.15,31.94],[5.21,32.18],[5.48,32.26],[5.69,32.09],[5.96,32.17],[6.03,32.41],[6.3,32.49],[6.51,32.32],[6.78,32.39],[6.85,32.64],[7.12,32.71],[7.33,32.54],[7.61,32.61],[7.68,32.86],[7.96,32.93],[8.17,32.76],[8.45,32.83],[8.52,33.07],[8.8,33.15],[9.5,32.87],[9.78,32.94],[9.86,33.18],[10.64,33.14],[10.72,33.39],[11.0,33.45],[11.34,32.86],[13.11,32.57],[13.2,32.81],[12.99,33.0],[11.71,33.16],[11.37,33.76],[11.08,33.7],[10.38,33.98],[10.82,34.54],[11.62,34.49],[11.7,34.74],[11.36,35.33],[11.44,35.57],[11.1,36.17],[11.56,36.72],[11.21,37.3],[10.91,37.23],[9.66,37.6],[8.85,37.63],[8.77,37.38],[8.11,37.0],[6.37,37.42],[5.73,37.02],[4.0,37.4],[3.72,37.32],[3.66,37.08],[2.89,37.06],[2.83,36.82],[2.56,36.73],[1.36,37.01],[1.09,36.92],[1.04,36.68],[0.29,36.65],[-0.07,36.09],[-0.33,36.0],[-0.55,36.16],[-1.12,35.74],[-1.33,35.9],[-1.6,35.81],[-1.64,35.57],[-2.2,35.15],[-2.91,35.35],[-2.87,35.6],[-3.09,35.75],[-3.66,35.32],[-4.38,35.52],[-4.65,35.42],[-5.08,35.96],[-5.04,36.2],[-4.77,36.3],[-4.54,36.15],[-3.97,36.59],[-2.26,36.26],[-1.37,37.01],[-1.33,37.25],[-0.58,37.26],[-0.21,37.82],[-0.43,37.97],[-0.38,38.21],[0.2,38.61],[0.25,38.85],[-0.14,39.4],[-0.09,39.63],[0.84,40.34],[1.23,40.9],[2.02,40.94],[2.42,41.49],[3.23,41.53],[3.29,41.76],[3.59,41.85],[3.48,42.46],[3.25,42.6],[3.67,43.16],[5.04,43.13],[6.35,42.85],[7.05,43.24],[7.12,43.48],[7.98,43.48],[8.46,44.02],[8.77,44.1],[10.12,43.78],[9.23,42.94],[8.37,42.94],[8.29,42.71],[8.52,42.55],[8.05,42.01],[8.43,41.46],[8.74,41.53],[8.97,41.37],[8.89,41.14],[8.05,41.14],[7.6,40.59],[8.35,40.35],[8.27,40.12],[7.97,40.04],[7.9,39.8],[8.12,39.64],[7.67,39.09],[8.42,38.84],[8.34,38.6],[8.56,38.44],[9.24,38.82],[9.31,39.06],[10.14,39.04],[10.08,39.68],[9.86,39.85],[10.33,40.4],[9.96,40.96],[10.05,41.2],[9.82,41.36],[9.9,41.59],[9.67,41.76],[9.76,41.99],[10.61,41.97],[10.7,42.21],[11.02,42.28],[11.24,42.11],[11.56,42.18],[11.79,42.02],[11.7,41.78],[12.47,41.52],[12.38,41.28],[12.74,40.71],[14.67,40.44],[14.89,40.27],[14.8,40.03],[15.55,39.73],[15.57,39.08],[15.26,39.02],[15.16,38.79],[14.32,38.84],[14.35,38.19],[13.52,38.24],[13.17,38.83],[12.46,38.46],[11.98,37.92],[12.33,37.33],[14.19,37.05],[14.53,36.45],[15.35,36.39],[15.44,36.63],[15.23,36.81],[15.73,37.35],[15.52,37.53],[15.61,37.77],[16.45,37.7],[16.96,38.23],[16.75,38.41],[16.85,38.65],[17.58,39.0],[17.58,39.65],[16.83,39.96],[16.93,40.19],[17.25,40.25],[17.47,40.07],[17.79,40.12],[18.11,39.52],[18.86,39.85],[19.07,39.67],[19.4,39.72],[19.61,39.53],[19.5,39.3],[20.24,38.97],[20.13,38.73],[20.34,38.54],[19.8,38.02],[20.53,37.69],[20.42,37.45],[20.63,37.26],[20.94,37.31],[21.24,36.68],[22.07,36.57],[22.35,35.95],[23.18,35.83],[23.37,35.63],[23.34,34.96],[24.04,34.6],[24.77,34.9],[24.96,34.7],[25.77,34.57],[26.75,35.33],[27.55,35.18],[27.62,35.85],[28.42,35.69],[28.49,36.36],[30.29,35.83],[30.86,36.3],[30.68,36.51],[30.81,36.73],[31.12,36.75],[31.3,36.54],[32.1,36.36],[32.32,35.72],[33.07,35.97],[33.24,35.76],[33.11,35.54],[32.36,35.29],[31.79,34.82],[31.96,34.61],[33.21,34.23],[33.35,34.46],[34.09,34.7],[34.19,35.36],[34.5,35.37],[35.08,35.82],[34.91,36.03],[34.6,36.02],[34.02,35.57],[33.72,35.56],[33.55,35.77],[33.68,35.99],[34.88,36.46],[35.52,36.04],[35.38,35.83],[35.54,35.61],[35.41,35.39],[35.62,34.31],[35.48,34.09],[35.18,34.08],[35.05,33.86],[35.21,33.65],[34.64,33.19],[34.83,32.54],[34.7,32.32],[34.41,32.31],[34.3,31.65],[33.59,31.39],[33.42,31.6],[33.13,31.59],[33.0,31.36],[33.62,30.95],[34.33,31.21],[34.52,30.56],[35.23,30.81],[35.44,29.72],[35.73,29.73],[35.86,29.95],[35.7,30.17],[35.83,30.39],[36.12,30.4],[36.71,29.98],[37.41,30.22],[37.99,29.8],[38.69,30.03],[39.26,29.6],[39.54,29.6],[39.67,29.82],[39.95,29.82],[40.09,29.61],[40.78,29.83],[41.33,29.4],[42.01,29.61],[42.55,29.18],[43.23,29.38],[44.14,28.73],[44.81,28.92],[45.32,28.49],[45.58,28.48],[45.72,28.69],[46.35,28.46],[46.49,28.66],[46.75,28.65],[47.23,28.22],[47.88,28.4],[47.99,28.18],[49.66,27.28],[49.8,27.47],[49.7,27.68],[48.74,28.15],[48.66,28.77],[48.41,28.78],[48.3,29.0],[48.84,29.38],[48.72,29.59],[48.87,29.79],[49.51,29.96],[49.66,30.15],[49.55,30.37],[48.9,30.2],[48.76,30.01],[48.13,30.25],[47.99,30.05],[47.73,30.07],[47.24,30.51],[46.6,30.75],[46.51,31.38],[45.85,31.62],[45.73,31.84],[45.89,32.46],[46.16,32.45],[46.31,32.65],[46.2,33.28],[46.35,33.48],[47.01,33.23],[47.16,33.43],[47.84,33.59],[47.93,32.96],[48.35,33.12],[48.27,33.74],[47.48,34.24],[48.08,34.57],[47.55,35.04],[47.71,35.22],[48.44,35.34],[48.56,35.12],[48.84,35.08],[48.92,34.46],[49.2,34.42],[49.41,35.01],[49.29,35.23],[49.46,35.41],[49.75,35.38],[49.81,34.75],[51.67,33.65],[52.3,33.97],[52.59,33.92],[52.84,34.5],[53.59,34.59],[53.7,34.36],[53.99,34.31],[56.09,34.99],[57.15,34.36],[58.83,34.88],[59.5,34.52],[59.83,35.1],[59.74,35.33],[59.45,35.4],[58.74,35.11],[58.44,35.17],[58.35,35.41],[59.57,35.81],[60.25,35.44],[60.71,34.9],[61.51,34.94],[61.72,35.11],[62.39,34.73],[63.12,34.99],[63.41,34.92],[63.78,35.5],[66.7,35.86],[66.93,36.02],[67.58,35.61],[68.35,35.84],[68.99,35.43],[69.42,35.99],[69.37,36.24],[70.15,36.46],[70.1,36.71],[70.35,36.87],[70.65,36.78],[70.89,36.93],[70.5,37.52],[70.75,37.68],[70.7,37.93],[70.4,38.02],[70.35,38.27],[70.61,38.43],[70.56,38.68],[69.89,39.11],[67.96,38.73],[67.65,38.82],[67.59,39.07],[68.4,39.31],[68.34,39.56],[68.59,39.72],[71.76,39.97],[72.03,40.13],[72.34,40.03],[72.6,40.18],[72.91,40.09],[73.18,40.24],[73.49,40.14],[73.99,40.7],[73.61,41.31],[73.29,41.41],[73.49,42.07],[71.98,42.06],[71.7,41.9],[71.75,41.65],[70.89,41.43],[70.94,41.17],[70.68,41.01],[70.36,41.11],[70.52,41.77],[70.2,41.87],[70.15,42.12],[72.81,42.53],[75.53,42.62],[76.08,43.17],[76.39,43.06],[78.51,43.29],[79.15,42.8],[79.72,43.33],[80.03,43.22],[80.93,43.37],[80.93,43.62],[80.62,43.74],[79.71,43.59],[79.4,43.71],[79.38,43.96],[81.53,44.14],[81.52,44.4],[81.21,44.52],[79.05,44.34],[78.73,44.46],[79.0,45.11],[79.94,45.26],[79.92,45.52],[79.6,45.64],[78.66,45.48],[78.68,45.23],[78.09,44.69],[77.15,44.77],[76.85,44.63],[77.22,44.0],[78.77,43.94],[78.79,43.69],[78.49,43.55],[77.56,43.63],[77.27,43.49],[76.95,43.6],[76.92,43.86],[75.99,43.93],[75.96,44.19],[75.63,44.3],[74.72,44.11],[74.03,44.57],[73.74,44.42],[73.78,44.16],[74.1,44.06],[73.89,43.4],[73.61,43.24],[72.92,43.7],[72.63,43.55],[72.3,43.65],[72.02,43.49],[72.07,43.23],[71.19,43.01],[70.48,43.46],[70.2,43.3],[69.87,43.39],[69.81,43.64],[68.87,43.66],[68.41,44.25],[68.07,44.34],[67.8,44.17],[67.86,43.92],[68.2,43.83],[68.66,43.24],[69.6,43.23],[69.65,42.97],[69.38,42.81],[69.82,42.21],[68.96,41.98],[69.02,41.72],[69.34,41.63],[69.4,41.38],[69.14,41.22],[69.2,40.97],[69.51,40.88],[69.36,40.21],[68.54,39.97],[67.84,40.4],[67.59,40.23],[67.27,40.32],[66.82,40.9],[66.5,40.98],[66.25,40.81],[65.36,40.8],[64.93,40.21],[65.01,39.96],[65.71,39.56],[65.78,39.31],[65.54,39.14],[65.99,38.57],[65.57,37.98],[66.01,37.41],[66.86,37.41],[67.1,37.58],[67.77,37.16],[68.55,37.4],[68.86,37.31],[68.91,37.07],[68.67,36.91],[68.37,36.99],[68.13,36.83],[65.14,36.5],[64.91,36.33],[64.61,36.41],[64.54,36.65],[64.77,36.82],[64.7,37.07],[64.4,37.14],[64.17,36.97],[63.49,37.37],[63.26,37.2],[62.96,37.27],[62.58,36.68],[63.41,35.81],[63.19,35.64],[62.89,35.72],[62.53,35.14],[62.23,35.21],[61.78,35.76],[62.0,35.93],[61.92,36.17],[61.1,36.13],[59.85,37.29],[58.75,37.96],[58.66,38.2],[58.87,38.38],[59.18,38.31],[59.4,38.49],[58.9,39.04],[59.12,39.22],[59.02,39.46],[57.46,40.41],[57.35,40.65],[57.03,40.71],[56.82,40.52],[56.07,40.87],[55.96,41.1],[56.72,41.43],[56.61,41.66],[55.74,41.58],[54.75,42.39],[53.88,42.29],[53.31,42.8],[52.45,42.69],[51.87,43.2],[51.01,43.07],[50.41,43.57],[49.56,43.43],[48.49,44.17],[47.64,44.02],[47.02,44.49],[47.21,44.69],[47.06,44.91],[46.73,44.94],[46.58,45.16],[46.8,45.78],[46.65,46.01],[46.84,46.21],[46.69,46.43],[46.88,46.63],[46.73,46.86],[47.46,47.25],[47.35,47.9],[48.11,48.28],[48.0,48.94],[48.21,49.14],[48.05,49.36],[48.26,49.57],[50.99,50.26],[51.22,50.46],[51.6,50.43],[51.83,50.63],[52.21,50.6],[52.45,50.8],[52.83,50.77],[53.08,50.97],[54.09,51.1],[54.34,51.29],[55.25,50.98],[55.51,51.17],[55.9,51.13],[56.29,51.75],[57.2,51.42],[57.33,51.19],[57.06,50.99],[57.7,50.47],[57.44,50.28],[57.56,50.04],[58.58,50.12],[58.85,50.31],[58.23,50.85],[58.65,51.46],[58.53,51.7],[59.48,52.03],[59.87,51.97],[60.33,52.58],[60.73,52.53],[61.02,52.71],[60.91,52.95],[61.2,53.13],[61.09,53.38],[61.38,53.56],[61.27,53.8],[62.29,54.1],[62.18,54.34],[62.49,54.52],[62.38,54.76],[62.69,54.94],[62.58,55.18],[62.9,55.36],[62.79,55.6],[63.11,55.78],[63.0,56.02],[63.32,56.2],[63.22,56.44],[63.54,56.61],[63.43,56.85],[63.77,57.03],[63.66,57.27],[63.99,57.44],[63.89,57.68],[63.44,57.75],[63.32,57.98],[62.87,58.05],[62.53,57.87],[61.5,58.22],[61.17,58.04],[59.94,57.97],[59.62,57.79],[59.75,57.55],[59.43,57.37],[58.98,57.42],[58.26,57.93],[58.57,58.12],[58.43,58.35],[56.75,58.93],[56.6,59.16],[56.13,59.19],[55.82,59.0],[54.73,59.29],[54.43,59.1],[53.21,58.96],[53.04,59.18],[53.33,59.38],[53.16,59.6],[51.93,59.45],[51.1,59.9],[50.63,59.92],[49.61,59.53],[49.15,59.54],[48.95,59.75],[48.49,59.76],[48.22,59.56],[47.1,59.78],[46.14,59.37],[45.69,59.37],[45.48,59.57],[45.03,59.57],[44.79,59.36],[43.68,59.55],[42.78,59.12],[42.34,59.11],[42.12,59.3],[41.03,59.06],[40.14,59.43],[39.08,59.17],[38.84,59.36],[39.04,59.58],[38.81,59.77],[37.14,59.26],[36.9,59.44],[37.09,59.66],[36.84,59.84],[36.42,59.81],[35.64,59.34],[35.23,59.31],[34.98,59.49],[33.99,59.2],[33.75,59.37],[34.49,59.85],[34.24,60.02],[34.4,60.24],[34.83,60.28],[35.0,60.49],[34.74,60.67],[34.92,60.89],[36.04,60.78],[36.86,61.25],[36.6,61.43],[36.8,61.64],[35.83,61.96],[36.02,62.18],[35.75,62.35],[35.3,62.32],[35.03,62.49],[33.96,62.19],[33.78,61.97],[34.75,61.67],[34.58,61.45],[33.54,61.15],[33.28,61.33],[33.44,61.54],[33.18,61.71],[33.34,61.93],[33.07,62.1],[32.64,62.05],[32.47,61.84],[31.34,61.91],[31.07,62.07],[31.22,62.29],[30.23,62.56],[30.38,62.77],[30.09,62.94],[27.5,63.16],[27.21,63.32],[27.33,63.53],[27.03,63.68],[26.61,63.62],[26.48,63.4],[25.35,63.41],[25.24,63.2],[24.83,63.13],[24.53,63.27],[24.63,63.49],[25.58,63.84],[25.69,64.06],[24.65,64.27],[24.76,64.49],[25.74,64.85],[25.86,65.06],[25.54,65.21],[25.66,65.42],[25.34,65.56],[25.46,65.78],[25.13,65.92],[23.57,66.04],[22.36,66.02],[22.27,65.8],[21.33,65.43],[21.25,65.21],[20.84,65.13],[20.76,64.92],[21.08,64.78],[21.0,64.57],[20.6,64.49],[20.06,63.98],[18.98,63.94],[18.91,63.72],[18.22,63.76],[17.44,63.38],[17.12,63.5],[17.17,63.71],[16.49,63.74],[16.45,63.53],[16.76,63.41],[16.72,63.2],[15.84,62.64],[14.64,62.66],[14.5,62.48],[14.81,62.37],[14.1,61.96],[14.41,61.84],[14.28,61.67],[14.58,61.55],[14.45,61.37],[13.71,61.44]],[[28.97,43.46],[28.71,44.07],[28.85,44.29],[29.67,44.53],[29.75,45.15],[30.64,44.99],[30.79,45.2],[30.04,45.57],[30.19,45.78],[31.52,46.23],[32.26,45.85],[32.16,45.24],[32.35,45.04],[32.7,45.05],[32.93,44.44],[33.27,44.44],[33.98,44.04],[34.31,44.05],[34.46,44.25],[34.8,44.25],[36.42,45.06],[37.78,44.63],[37.96,44.02],[38.78,44.2],[38.96,43.58],[41.21,42.68],[41.36,42.47],[41.21,42.27],[41.36,41.65],[40.27,41.08],[39.49,41.31],[39.33,41.11],[39.02,41.12],[38.86,41.33],[38.07,41.14],[36.43,41.99],[35.64,41.78],[35.43,42.4],[34.15,41.98],[33.46,42.38],[33.13,42.38],[31.57,41.49],[31.24,41.48],[31.1,41.26],[30.26,41.43],[30.12,41.21],[29.79,41.2],[29.07,41.58],[28.74,41.56],[28.48,42.18],[28.15,42.15],[27.95,42.35],[28.02,42.99],[28.36,43.01],[28.97,43.46]],[[15.24,42.49],[15.14,42.25],[14.81,42.19],[14.59,42.37],[14.69,42.6],[14.33,43.17],[14.43,43.4],[13.64,43.67],[13.74,43.9],[13.51,44.07],[13.18,44.01],[12.95,44.17],[13.04,44.4],[12.67,44.95],[12.77,45.18],[13.1,45.25],[13.33,45.08],[13.24,44.86],[13.47,44.69],[13.8,44.76],[14.04,44.59],[13.94,44.36],[14.17,44.2],[14.5,44.26],[14.73,44.09],[14.63,43.86],[15.42,43.58],[15.44,42.95],[16.22,42.66],[16.12,42.43],[15.24,42.49]],[[14.67,54.36],[14.29,54.3],[13.87,54.78],[13.22,54.86],[12.35,54.53],[12.08,54.67],[12.19,54.87],[12.57,54.94],[12.68,55.14],[13.72,55.12],[13.83,55.32],[14.22,55.38],[14.64,54.9],[15.68,54.87],[15.8,55.07],[15.53,55.21],[15.65,55.41],[14.72,55.64],[14.84,55.83],[15.9,55.8],[16.54,56.25],[16.94,56.3],[17.07,56.49],[16.8,56.63],[16.93,56.82],[18.28,56.63],[18.14,56.44],[18.54,55.96],[18.41,55.76],[18.01,55.72],[17.88,55.52],[18.15,55.37],[18.02,55.18],[17.63,55.13],[16.98,54.69],[15.95,54.73],[15.32,54.27],[14.67,54.36]],[[21.79,63.74],[21.7,63.53],[21.0,63.58],[21.08,63.8],[21.96,64.17],[22.05,64.39],[21.49,64.87],[21.57,65.08],[22.74,65.11],[22.83,65.32],[23.26,65.4],[24.02,65.34],[24.13,65.55],[24.57,65.63],[24.89,65.49],[24.78,65.28],[24.34,65.2],[24.23,64.99],[23.81,64.91],[23.7,64.7],[21.79,63.74]],[[52.11,35.45],[52.0,35.68],[52.18,35.86],[52.47,35.82],[52.58,35.59],[52.4,35.41],[52.11,35.45]],[[18.21,42.34],[18.98,42.03],[18.87,41.8],[19.09,41.62],[18.98,41.39],[19.19,41.2],[19.19,40.55],[17.78,40.77],[17.45,41.36],[17.13,41.31],[16.36,41.61],[16.34,42.25],[16.67,42.31],[16.78,42.54],[18.21,42.34]],[[24.51,39.06],[24.63,39.29],[24.96,39.32],[25.68,38.96],[25.56,38.73],[25.23,38.7],[24.51,39.06]],[[19.65,57.99],[19.37,58.13],[19.51,58.32],[18.82,58.42],[18.27,58.19],[18.13,58.0],[18.41,57.86],[18.27,57.68],[17.32,57.39],[16.9,57.86],[17.58,58.28],[17.3,58.42],[17.43,58.61],[18.54,58.56],[19.25,58.97],[18.97,59.11],[19.11,59.29],[20.25,59.72],[22.37,59.4],[21.79,59.19],[21.64,59.01],[21.91,58.86],[21.19,58.47],[21.46,58.32],[21.31,58.14],[21.58,57.99],[21.43,57.81],[19.36,57.1],[18.95,57.58],[19.65,57.99]],[[21.22,61.25],[20.29,60.7],[19.27,60.45],[18.26,60.68],[18.4,60.85],[18.11,60.99],[17.38,61.07],[18.1,61.46],[17.66,61.89],[17.8,62.07],[19.41,63.04],[19.48,63.25],[19.85,63.34],[19.92,63.55],[20.3,63.63],[20.62,63.5],[20.09,62.99],[20.4,62.86],[20.33,62.65],[20.86,62.16],[20.78,61.95],[21.3,61.46],[21.22,61.25]],[[10.4,56.71],[11.01,57.17],[11.68,57.11],[11.07,56.65],[10.4,56.71]],[[35.32,46.27],[35.67,46.27],[36.32,46.66],[36.67,46.65],[36.85,46.45],[37.69,46.63],[37.88,46.03],[37.23,45.65],[36.37,45.86],[35.72,45.47],[35.38,45.47],[35.17,46.07],[35.32,46.27]],[[23.72,36.34],[23.52,36.53],[23.64,36.77],[23.95,36.8],[24.15,36.61],[24.97,36.48],[25.24,35.84],[25.55,35.87],[25.67,36.11],[25.99,36.14],[26.18,35.94],[26.06,35.7],[25.32,35.41],[24.62,35.77],[23.8,35.9],[23.6,36.1],[23.72,36.34]],[[26.06,39.64],[25.93,39.41],[25.61,39.38],[25.41,39.58],[25.53,39.81],[25.86,39.84],[26.06,39.64]],[[10.5,64.1],[11.07,64.33],[11.4,64.22],[11.27,64.05],[10.5,64.1]],[[-4.04,53.74],[-4.35,53.9],[-4.3,54.11],[-3.65,54.03],[-3.45,53.44],[-4.09,53.52],[-4.04,53.74]],[[12.24,56.85],[12.52,56.72],[12.41,56.53],[11.74,56.59],[11.85,56.79],[12.24,56.85]],[[25.63,38.3],[25.83,38.1],[26.15,38.13],[26.34,37.93],[26.22,37.7],[24.87,38.0],[24.67,38.2],[24.79,38.43],[25.11,38.47],[25.31,38.27],[25.63,38.3]],[[71.4,40.32],[70.51,40.35],[70.46,40.6],[71.31,40.82],[71.62,40.73],[71.67,40.48],[71.4,40.32]],[[24.48,40.14],[24.8,40.17],[25.0,39.97],[24.88,39.75],[24.56,39.71],[24.35,39.91],[24.48,40.14]],[[-2.83,49.08],[-2.51,49.15],[-2.24,48.99],[-2.29,48.76],[-2.88,48.85],[-2.83,49.08]]],[[[-13.41,29.27],[-13.4,29.52],[-13.65,29.65],[-13.9,29.53],[-14.67,28.15],[-14.43,28.02],[-13.69,28.15],[-13.43,28.77],[-13.18,28.89],[-13.17,29.14],[-13.41,29.27]]],[[[72.47,47.95],[72.17,47.79],[72.22,47.54],[72.57,47.44],[73.53,47.65],[73.09,48.26],[72.73,48.36],[72.42,48.2],[72.47,47.95]]],[[[53.56,26.91],[52.05,28.18],[51.37,28.11],[51.27,28.32],[51.43,28.48],[50.97,28.96],[51.13,29.12],[51.02,29.34],[50.66,29.6],[50.24,29.47],[50.71,29.0],[50.55,28.83],[50.91,28.58],[50.96,27.99],[51.57,27.68],[51.99,27.8],[53.14,26.8],[53.56,26.91]]],[[[-17.38,27.99],[-17.38,27.74],[-17.13,27.62],[-16.39,27.76],[-16.39,28.01],[-16.15,28.14],[-15.66,27.64],[-14.92,27.77],[-15.16,28.4],[-15.9,28.52],[-15.9,28.77],[-16.14,28.9],[-16.39,28.77],[-16.64,28.89],[-17.14,28.38],[-17.9,29.25],[-18.39,28.73],[-18.38,28.47],[-18.13,28.35],[-18.37,27.72],[-17.86,27.22],[-17.62,27.36],[-17.62,27.61],[-17.87,27.73],[-17.88,27.98],[-17.63,28.11],[-17.38,27.99]]],[[[53.02,29.17],[52.76,29.22],[52.6,29.05],[52.7,28.84],[53.12,28.96],[53.02,29.17]]],[[[34.79,64.63],[34.59,64.42],[34.88,64.25],[36.12,64.16],[36.4,63.99],[36.2,63.77],[36.47,63.6],[37.64,63.88],[37.91,63.71],[38.39,63.74],[38.61,63.95],[38.34,64.13],[38.57,64.34],[38.3,64.52],[37.8,64.48],[36.75,64.8],[37.69,65.26],[37.4,65.43],[36.9,65.39],[36.68,65.18],[35.39,65.27],[35.1,65.44],[35.3,65.65],[35.01,65.81],[35.21,66.03],[34.91,66.19],[34.4,66.14],[34.2,65.93],[34.5,65.77],[34.3,65.56],[34.6,65.39],[34.4,65.18],[34.7,65.01],[34.5,64.8],[34.79,64.63]],[[35.27,64.67],[35.48,64.89],[35.97,64.93],[36.25,64.76],[36.05,64.54],[35.56,64.5],[35.27,64.67]]],[[[74.13,35.63],[73.85,35.72],[73.6,35.58],[73.63,35.33],[73.91,35.23],[74.17,35.38],[74.13,35.63]]],[[[32.54,31.56],[32.25,31.54],[32.08,31.75],[31.78,31.73],[31.65,31.5],[31.82,31.29],[32.58,31.12],[32.71,31.35],[32.54,31.56]]],[[[82.45,42.24],[82.15,42.11],[81.86,42.23],[81.27,41.71],[79.8,41.8],[79.51,41.67],[79.52,41.41],[78.65,41.25],[78.66,41.0],[78.96,40.88],[78.98,40.63],[78.7,40.49],[76.66,40.51],[76.38,40.36],[76.41,40.11],[75.56,39.92],[75.34,39.27],[76.29,38.45],[76.32,38.19],[76.92,37.73],[76.95,37.48],[77.23,37.37],[77.5,37.51],[78.09,37.04],[78.9,37.21],[79.47,36.74],[80.29,36.89],[80.84,36.42],[81.11,36.55],[81.92,36.45],[82.46,36.95],[83.81,36.85],[84.08,36.97],[84.08,37.22],[84.9,37.35],[84.91,37.59],[85.18,37.72],[85.99,37.59],[86.56,38.07],[86.57,38.32],[85.8,39.21],[85.82,39.45],[85.54,39.58],[85.56,39.83],[84.72,39.97],[84.73,40.22],[84.45,40.35],[84.75,40.97],[84.19,41.48],[84.2,41.74],[84.5,41.86],[84.5,42.11],[82.45,42.24]]],[[[74.73,33.07],[74.97,33.22],[75.24,33.12],[75.27,32.87],[75.83,32.43],[76.08,32.57],[76.05,32.81],[74.88,33.95],[74.85,34.19],[74.57,34.29],[74.54,34.54],[73.21,34.54],[73.38,35.18],[73.1,35.28],[72.32,35.07],[71.7,35.51],[71.46,35.35],[71.5,35.11],[70.73,34.89],[70.77,34.65],[71.06,34.55],[71.83,34.77],[72.11,34.67],[72.15,34.43],[72.96,34.39],[73.0,34.14],[73.59,33.71],[73.84,33.85],[74.64,33.8],[74.67,33.56],[74.42,33.41],[74.45,33.17],[74.73,33.07]]],[[[39.77,65.0],[40.04,64.82],[40.55,64.85],[40.8,65.05],[40.53,65.24],[40.01,65.21],[39.77,65.0]]],[[[50.34,30.24],[50.07,30.28],[49.92,30.11],[50.03,29.9],[50.45,30.02],[50.34,30.24]]],[[[-14.47,26.27],[-14.96,25.77],[-14.96,25.53],[-14.72,25.4],[-13.99,26.28],[-13.98,26.52],[-14.22,26.65],[-14.46,26.52],[-14.47,26.27]]],[[[-12.48,28.01],[-12.72,28.14],[-12.97,28.02],[-12.98,27.77],[-12.74,27.64],[-12.5,27.76],[-12.48,28.01]]],[[[-5.67,62.26],[-7.26,62.43],[-7.76,61.97],[-7.39,61.84],[-7.43,61.64],[-6.74,61.16],[-6.33,61.22],[-6.28,61.42],[-6.65,61.56],[-6.6,61.76],[-5.72,62.07],[-5.67,62.26]]],[[[1.07,39.11],[1.02,38.87],[1.41,38.35],[2.02,38.76],[2.07,39.0],[1.68,39.53],[1.07,39.11]]],[[[53.81,26.86],[54.16,26.6],[54.32,26.76],[54.23,26.97],[53.81,26.86]]],[[[81.25,42.99],[81.55,42.87],[82.14,43.38],[83.05,43.26],[83.35,43.39],[83.35,43.64],[82.44,43.77],[82.44,44.02],[82.14,44.15],[81.53,43.63],[81.25,42.99]]],[[[3.71,39.29],[3.77,39.52],[4.57,39.54],[4.63,39.78],[4.41,39.93],[4.47,40.17],[3.73,40.38],[3.44,40.3],[3.38,40.06],[2.58,40.03],[2.19,39.47],[2.58,38.94],[2.86,39.03],[3.08,38.88],[3.71,39.29]]],[[[14.44,36.21],[14.13,36.15],[14.04,35.91],[14.25,35.73],[14.56,35.79],[14.65,36.03],[14.44,36.21]]],[[[-15.87,33.34],[-16.13,33.47],[-16.39,33.34],[-16.39,33.09],[-16.65,32.96],[-17.44,33.08],[-17.7,32.95],[-17.7,32.69],[-17.43,32.57],[-17.17,32.7],[-16.65,32.19],[-15.87,33.09],[-15.87,33.34]]],[[[52.02,44.05],[52.15,43.82],[52.48,43.78],[52.69,43.97],[52.57,44.21],[52.23,44.25],[52.02,44.05]]],[[[69.91,34.92],[69.67,34.76],[69.72,34.52],[70.01,34.43],[70.25,34.58],[70.2,34.83],[69.91,34.92]]],[[[75.99,41.23],[75.96,41.49],[75.65,41.59],[74.78,41.4],[74.82,41.15],[75.13,41.04],[75.99,41.23]]],[[[-8.86,58.02],[-9.24,57.95],[-9.27,57.73],[-8.54,57.67],[-8.51,57.88],[-8.86,58.02]]],[[[77.67,42.36],[78.56,42.52],[78.54,42.78],[78.23,42.9],[76.13,42.65],[76.16,42.4],[76.81,41.92],[77.69,42.1],[77.67,42.36]]],[[[12.25,37.09],[11.94,37.02],[11.86,36.78],[12.07,36.61],[12.37,36.67],[12.46,36.91],[12.25,37.09]]],[[[64.48,41.71],[64.15,41.78],[63.91,41.61],[63.99,41.36],[64.31,41.28],[64.56,41.46],[64.48,41.71]]],[[[73.88,41.46],[74.19,41.36],[74.47,41.51],[74.44,41.76],[74.12,41.87],[73.84,41.71],[73.88,41.46]]],[[[-28.04,38.6],[-28.34,38.7],[-28.6,38.55],[-28.57,38.29],[-28.26,38.19],[-28.0,38.35],[-28.04,38.6]]],[[[-25.09,37.8],[-25.12,38.06],[-25.41,38.17],[-25.68,38.02],[-25.65,37.76],[-25.35,37.66],[-25.09,37.8]]],[[[54.67,26.49],[55.09,26.59],[55.0,26.81],[54.74,26.86],[54.58,26.7],[54.67,26.49]]],[[[-13.74,26.65],[-13.5,26.52],[-13.26,26.65],[-13.0,27.27],[-13.23,27.39],[-13.48,27.27],[-13.74,26.65]]],[[[-5.69,58.97],[-5.65,59.18],[-5.99,59.32],[-6.38,59.26],[-6.43,59.06],[-5.69,58.97]]],[[[12.46,35.35],[13.14,35.72],[13.23,35.96],[13.02,36.14],[12.72,36.08],[12.63,35.84],[12.33,35.77],[12.25,35.53],[12.46,35.35]]],[[[74.81,48.0],[75.13,48.15],[75.09,48.4],[74.74,48.51],[74.42,48.36],[74.46,48.1],[74.81,48.0]]],[[[50.11,26.84],[50.01,27.05],[49.77,27.07],[49.63,26.87],[49.73,26.66],[50.11,26.84]]]]}}]}