{"type":"FeatureCollection","features":[{"type":"Feature","properties":{},"geometry":{"type":"MultiPolygon","coordinates":[[[[16.97,49.95],[17.21,49.79],[17.57,49.84],[17.69,50.06],[17.45,50.22],[17.08,50.17],[16.84,50.32],[16.95,50.54],[16.71,50.69],[16.34,50.64],[16.09,50.8],[16.21,51.01],[15.96,51.16],[15.59,51.11],[15.48,50.9],[15.11,50.84],[15.0,50.63],[15.25,50.47],[15.62,50.53],[15.86,50.37],[16.23,50.43],[16.47,50.27],[16.36,50.06],[16.0,50.0],[15.89,49.79],[15.53,49.73],[15.42,49.52],[15.06,49.46],[14.81,49.62],[14.46,49.56],[14.35,49.34],[14.6,49.18],[14.95,49.24],[15.2,49.09],[15.09,48.87],[14.73,48.81],[14.49,48.97],[14.14,48.91],[13.89,49.06],[14.0,49.28],[13.75,49.43],[13.4,49.37],[13.15,49.52],[12.8,49.46],[12.69,49.24],[12.94,49.09],[12.84,48.87],[13.09,48.72],[13.44,48.78],[13.68,48.63],[13.58,48.41],[13.23,48.34],[12.99,48.5],[12.64,48.43],[12.39,48.59],[12.05,48.52],[11.95,48.3],[11.61,48.23],[11.36,48.38],[11.02,48.31],[10.77,48.46],[10.43,48.39],[10.18,48.54],[9.84,48.46],[9.59,48.61],[9.25,48.53],[9.16,48.31],[8.83,48.24],[8.58,48.38],[8.66,48.6],[8.41,48.75],[8.08,48.67],[7.99,48.45],[8.24,48.3],[8.16,48.08],[7.83,48.0],[7.74,47.78],[7.99,47.64],[7.91,47.41],[7.58,47.34],[7.33,47.48],[7.01,47.4],[6.76,47.54],[6.43,47.46],[6.36,47.23],[6.03,47.15],[5.96,46.93],[5.64,46.84],[5.56,46.62],[5.81,46.48],[5.73,46.25],[5.42,46.16],[5.34,45.94],[5.59,45.8],[5.51,45.57],[5.75,45.43],[5.68,45.2],[5.37,45.11],[5.3,44.89],[5.54,44.74],[5.47,44.51],[5.7,44.37],[6.01,44.45],[6.25,44.3],[6.18,44.07],[6.41,43.93],[6.73,44.01],[6.96,43.86],[7.27,43.94],[7.51,43.79],[7.82,43.87],[7.9,44.1],[8.22,44.17],[8.3,44.4],[8.06,44.56],[7.75,44.48],[7.51,44.63],[7.59,44.86],[7.35,45.01],[7.43,45.24],[7.74,45.31],[7.82,45.54],[8.15,45.62],[8.39,45.47],[8.71,45.55],[8.79,45.78],[9.12,45.85],[9.36,45.7],[9.69,45.78],[9.93,45.62],[10.25,45.7],[10.49,45.54],[10.82,45.61],[11.06,45.46],[11.39,45.53],[11.48,45.75],[11.82,45.82],[11.91,46.05],[12.24,46.12],[12.48,45.96],[12.82,46.02],[12.92,46.25],[13.25,46.31],[13.49,46.15],[13.39,45.93],[13.63,45.76],[13.97,45.83],[14.2,45.66],[14.54,45.73],[14.78,45.56],[14.67,45.33],[14.91,45.17],[14.8,44.94],[15.04,44.77],[15.37,44.83],[15.48,45.06],[15.24,45.23],[15.35,45.45],[15.11,45.62],[15.22,45.85],[14.98,46.01],[15.09,46.23],[15.43,46.29],[15.54,46.52],[15.88,46.57],[15.99,46.8],[16.33,46.85],[16.44,47.07],[16.21,47.24],[16.32,47.46],[16.67,47.52],[16.78,47.73],[16.54,47.9],[16.19,47.84],[15.95,48.01],[16.06,48.23],[15.82,48.39],[15.47,48.33],[15.22,48.49],[15.33,48.71],[15.69,48.77],[15.8,48.98],[16.15,49.04],[16.26,49.26],[16.62,49.31],[16.74,49.52],[16.49,49.69],[16.61,49.9],[16.97,49.95]]],[[[80.36,71.88],[79.67,71.99],[79.6,72.23],[78.89,72.34],[78.26,72.21],[78.34,71.97],[77.73,71.84],[77.02,71.94],[76.42,71.81],[76.53,71.57],[77.22,71.47],[77.32,71.23],[76.74,71.1],[76.06,71.2],[75.95,71.43],[75.25,71.53],[75.13,71.77],[74.42,71.86],[73.84,71.72],[73.98,71.48],[73.43,71.34],[73.57,71.11],[74.25,71.01],[74.38,70.78],[73.84,70.64],[73.97,70.41],[73.45,70.26],[73.58,70.03],[74.23,69.94],[74.35,69.71],[73.84,69.57],[73.97,69.34],[74.59,69.25],[75.09,69.38],[75.71,69.29],[75.82,69.05],[75.31,68.92],[74.7,69.02],[74.21,68.88],[74.32,68.65],[74.92,68.56],[75.03,68.33],[74.55,68.19],[74.66,67.96],[74.14,67.84],[74.21,67.61],[73.7,67.48],[73.77,67.26],[73.27,67.13],[73.35,66.91],[72.85,66.77],[72.93,66.55],[72.45,66.41],[71.89,66.5],[71.81,66.72],[72.29,66.86],[72.21,67.08],[72.7,67.22],[72.62,67.44],[73.13,67.57],[73.05,67.8],[73.56,67.93],[73.49,68.15],[73.96,68.29],[73.84,68.51],[73.24,68.6],[73.11,68.83],[72.5,68.92],[72.36,69.15],[72.85,69.29],[72.71,69.52],[72.07,69.6],[71.93,69.83],[72.42,69.98],[72.28,70.21],[72.79,70.35],[72.64,70.58],[73.17,70.73],[73.03,70.96],[72.34,71.05],[72.19,71.28],[71.49,71.36],[71.32,71.59],[71.86,71.74],[71.69,71.98],[72.25,72.13],[72.08,72.36],[72.66,72.51],[72.49,72.75],[71.73,72.83],[71.15,72.68],[70.39,72.75],[70.19,72.99],[69.41,73.06],[68.85,72.9],[69.07,72.67],[68.53,72.51],[68.74,72.28],[68.22,72.12],[68.43,71.9],[67.92,71.74],[68.13,71.51],[67.63,71.35],[66.92,71.42],[66.44,71.25],[66.67,71.03],[67.36,70.97],[67.57,70.74],[67.1,70.58],[67.31,70.36],[66.85,70.2],[67.06,69.98],[66.61,69.82],[66.82,69.6],[67.46,69.53],[67.66,69.31],[68.29,69.24],[68.48,69.02],[69.1,68.95],[69.27,68.72],[68.77,68.58],[68.16,68.65],[67.66,68.5],[67.05,68.57],[66.92,68.79],[66.3,68.85],[66.16,69.06],[65.53,69.12],[65.32,69.34],[64.68,69.4],[64.45,69.62],[63.8,69.67],[63.56,69.89],[62.9,69.94],[62.49,69.77],[61.83,69.82],[61.57,70.03],[60.9,70.08],[60.52,69.91],[59.86,69.95],[59.57,70.16],[59.95,70.33],[59.66,70.54],[58.98,70.58],[58.6,70.4],[58.9,70.19],[58.53,70.02],[58.83,69.81],[59.48,69.77],[59.76,69.56],[60.41,69.53],[60.59,69.32],[60.14,69.16],[60.32,68.95],[59.87,68.78],[59.24,68.82],[59.05,69.03],[58.42,69.06],[57.98,68.89],[57.35,68.92],[56.92,68.75],[56.29,68.77],[55.88,68.6],[55.25,68.62],[54.85,68.44],[54.23,68.46],[54.01,68.66],[54.41,68.84],[54.18,69.04],[53.55,69.05],[53.15,68.87],[52.53,68.89],[52.14,68.7],[51.52,68.71],[51.14,68.52],[50.52,68.53],[50.16,68.34],[49.55,68.34],[49.19,68.15],[48.59,68.15],[48.25,67.96],[48.5,67.77],[48.16,67.58],[47.57,67.57],[47.25,67.38],[47.5,67.19],[47.18,66.99],[46.6,66.98],[46.35,67.17],[45.77,67.16],[45.51,67.35],[45.82,67.55],[46.4,67.56],[46.73,67.75],[46.46,67.94],[46.79,68.14],[46.53,68.32],[46.86,68.52],[46.59,68.7],[45.98,68.69],[45.7,68.88],[45.09,68.86],[44.77,68.66],[44.17,68.65],[43.88,68.83],[43.28,68.81],[42.97,68.61],[43.26,68.43],[43.86,68.45],[44.14,68.27],[43.83,68.07],[44.11,67.89],[43.81,67.69],[44.09,67.5],[43.79,67.3],[44.06,67.12],[43.77,66.92],[44.04,66.73],[43.75,66.53],[43.19,66.51],[42.92,66.7],[43.21,66.9],[42.93,67.08],[42.37,67.06],[42.09,66.86],[42.37,66.68],[42.09,66.47],[41.55,66.45],[41.28,66.24],[40.74,66.22],[40.46,66.4],[40.72,66.6],[41.27,66.63],[41.54,66.83],[41.26,67.01],[41.53,67.22],[41.24,67.39],[41.52,67.6],[41.23,67.77],[40.66,67.75],[40.36,67.92],[40.64,68.12],[40.34,68.3],[39.76,68.27],[39.45,68.44],[38.88,68.4],[38.57,68.57],[37.99,68.53],[37.67,68.7],[37.93,68.9],[37.61,69.07],[37.02,69.03],[36.7,69.19],[36.12,69.14],[35.78,69.3],[35.2,69.26],[34.72,69.4],[34.82,69.6],[34.33,69.74],[33.74,69.69],[33.24,69.83],[33.32,70.03],[32.81,70.17],[32.22,70.11],[32.15,69.91],[31.57,69.85],[31.05,69.99],[31.11,70.19],[31.7,70.25],[31.76,70.45],[31.23,70.58],[30.63,70.52],[30.09,70.65],[30.13,70.85],[29.57,70.99],[28.97,70.91],[28.41,71.04],[28.43,71.25],[27.85,71.37],[27.25,71.3],[27.24,71.09],[26.65,71.01],[26.06,71.14],[25.48,71.05],[24.89,71.17],[24.31,71.08],[23.71,71.2],[23.14,71.11],[23.18,70.91],[22.62,70.82],[22.03,70.93],[21.48,70.83],[21.53,70.63],[21.0,70.54],[21.06,70.34],[20.53,70.25],[19.95,70.35],[19.43,70.25],[18.84,70.35],[18.33,70.24],[18.42,70.05],[17.93,69.95],[18.02,69.76],[17.53,69.66],[16.96,69.74],[16.48,69.64],[16.58,69.45],[16.12,69.35],[15.55,69.43],[15.09,69.32],[15.2,69.14],[14.76,69.03],[14.87,68.84],[14.44,68.74],[14.56,68.55],[14.13,68.44],[13.58,68.52],[13.16,68.41],[13.29,68.23],[12.87,68.12],[13.0,67.94],[13.54,67.87],[13.95,67.97],[14.48,67.9],[14.59,67.71],[14.18,67.61],[14.3,67.43],[13.9,67.33],[13.38,67.4],[12.98,67.29],[13.11,67.12],[12.72,67.01],[12.84,66.83],[12.46,66.73],[12.59,66.55],[12.21,66.45],[12.34,66.27],[11.97,66.17],[12.1,66.0],[11.74,65.89],[11.86,65.72],[11.51,65.62],[11.64,65.45],[11.29,65.34],[11.42,65.18],[11.08,65.07],[10.61,65.14],[10.28,65.03],[10.41,64.87],[10.13,64.7],[10.41,64.53],[10.29,64.37],[9.88,64.36],[9.77,64.2],[9.36,64.19],[9.24,64.02],[8.84,64.01],[8.72,63.84],[8.32,63.83],[8.2,63.66],[7.8,63.65],[7.69,63.48],[7.29,63.47],[7.18,63.29],[6.77,63.28],[6.67,63.1],[6.27,63.08],[6.16,62.91],[5.76,62.89],[5.66,62.71],[5.96,62.55],[5.86,62.37],[5.46,62.35],[5.37,62.17],[4.97,62.14],[4.87,61.96],[4.48,61.94],[4.39,61.75],[4.69,61.59],[4.59,61.41],[4.2,61.38],[4.11,61.2],[4.41,61.04],[4.32,60.85],[4.62,60.69],[4.53,60.5],[4.82,60.34],[4.73,60.15],[5.02,59.98],[4.93,59.79],[5.21,59.63],[5.12,59.44],[4.75,59.41],[4.66,59.22],[4.94,59.06],[5.31,59.09],[5.59,58.92],[5.5,58.73],[5.77,58.56],[5.68,58.37],[5.95,58.2],[6.31,58.23],[6.58,58.06],[6.96,58.14],[7.26,58.03],[7.64,58.11],[7.93,57.99],[8.32,58.07],[8.42,58.26],[8.81,58.33],[8.91,58.52],[9.31,58.6],[9.41,58.79],[9.81,58.86],[10.11,58.74],[10.51,58.81],[10.8,58.69],[10.69,58.5],[10.98,58.38],[10.87,58.19],[11.16,58.06],[11.56,58.13],[11.84,58.01],[11.73,57.81],[12.02,57.69],[11.9,57.5],[12.19,57.37],[12.07,57.17],[12.36,57.05],[12.24,56.85],[12.52,56.72],[12.41,56.53],[12.69,56.39],[12.58,56.2],[12.85,56.06],[12.74,55.87],[13.01,55.73],[13.4,55.79],[13.67,55.66],[13.56,55.46],[13.83,55.32],[14.22,55.38],[14.34,55.58],[14.06,55.72],[14.18,55.91],[14.57,55.97],[14.69,56.17],[15.08,56.23],[15.36,56.09],[15.75,56.14],[15.88,56.34],[16.27,56.39],[16.4,56.58],[16.8,56.63],[16.93,56.82],[17.33,56.87],[17.46,57.06],[17.19,57.2],[17.32,57.39],[17.04,57.53],[17.18,57.72],[16.9,57.86],[17.03,58.05],[17.44,58.1],[17.58,58.28],[17.3,58.42],[17.43,58.61],[17.85,58.65],[17.99,58.84],[18.4,58.88],[18.54,59.06],[18.97,59.11],[19.11,59.29],[19.53,59.33],[19.68,59.51],[19.4,59.65],[19.54,59.82],[19.97,59.86],[20.25,59.72],[20.68,59.76],[20.96,59.62],[21.39,59.65],[21.66,59.51],[22.09,59.54],[22.37,59.4],[22.79,59.43],[23.07,59.28],[22.91,59.1],[22.48,59.07],[22.21,59.22],[21.79,59.19],[21.64,59.01],[21.91,58.86],[21.76,58.69],[21.33,58.65],[21.19,58.47],[21.46,58.32],[21.88,58.36],[22.14,58.21],[21.99,58.03],[22.26,57.88],[22.11,57.7],[21.7,57.66],[21.55,57.48],[21.14,57.44],[20.99,57.26],[21.26,57.11],[21.11,56.92],[20.71,56.88],[20.56,56.7],[20.83,56.55],[20.69,56.36],[20.95,56.2],[20.81,56.01],[21.07,55.86],[20.93,55.67],[20.53,55.63],[20.39,55.44],[20.65,55.29],[20.51,55.09],[20.12,55.05],[19.98,54.86],[19.59,54.82],[19.45,54.62],[19.06,54.58],[18.8,54.73],[18.41,54.68],[18.28,54.48],[17.9,54.44],[17.77,54.24],[18.03,54.09],[18.41,54.13],[18.54,54.33],[18.93,54.38],[19.19,54.22],[19.58,54.27],[19.71,54.47],[20.1,54.51],[20.24,54.7],[20.63,54.74],[20.89,54.59],[21.28,54.62],[21.53,54.47],[21.92,54.5],[22.18,54.34],[22.03,54.15],[22.28,53.99],[22.67,54.02],[22.92,53.86],[23.31,53.89],[23.46,54.08],[23.85,54.11],[24.09,53.95],[23.95,53.75],[24.19,53.59],[24.58,53.62],[24.82,53.45],[25.21,53.47],[25.45,53.31],[25.3,53.11],[25.53,52.94],[25.92,52.96],[26.15,52.79],[26.54,52.81],[26.69,53.01],[27.07,53.03],[27.23,53.22],[27.61,53.24],[27.84,53.06],[28.23,53.08],[28.38,53.27],[28.77,53.28],[28.93,53.47],[29.31,53.49],[29.54,53.31],[29.93,53.32],[30.09,53.51],[30.47,53.52],[30.64,53.7],[31.02,53.71],[31.19,53.89],[31.57,53.9],[31.8,53.72],[32.14,53.75],[32.36,53.57],[32.71,53.61],[32.84,53.82],[33.19,53.85],[33.41,53.67],[33.76,53.7],[33.98,53.52],[34.33,53.55],[34.54,53.36],[34.4,53.14],[34.61,52.96],[34.47,52.74],[34.68,52.55],[34.54,52.34],[34.75,52.15],[35.09,52.17],[35.24,52.39],[35.59,52.41],[35.79,52.22],[36.14,52.24],[36.29,52.46],[36.65,52.48],[36.8,52.69],[37.16,52.71],[37.36,52.52],[37.72,52.54],[37.88,52.75],[38.24,52.77],[38.44,52.57],[38.81,52.58],[38.97,52.8],[39.34,52.81],[39.51,53.02],[39.88,53.04],[40.06,53.25],[40.43,53.26],[40.63,53.06],[41.0,53.07],[41.19,53.28],[41.56,53.29],[41.76,53.08],[42.13,53.09],[42.32,52.88],[42.7,52.88],[42.89,52.67],[43.27,52.67],[43.45,52.46],[43.83,52.46],[44.01,52.25],[44.39,52.25],[44.59,52.46],[44.97,52.45],[45.15,52.24],[45.53,52.23],[45.7,52.02],[46.08,52.01],[46.29,52.22],[46.67,52.21],[46.89,52.41],[47.27,52.4],[47.44,52.18],[47.83,52.17],[48.05,52.37],[48.43,52.36],[48.66,52.56],[49.05,52.54],[49.21,52.32],[49.6,52.3],[49.83,52.5],[50.23,52.48],[50.38,52.26],[50.78,52.23],[51.01,52.43],[51.41,52.41],[51.56,52.18],[51.95,52.15],[52.2,52.35],[52.59,52.32],[52.74,52.09],[53.13,52.06],[53.38,52.26],[53.78,52.22],[53.92,51.99],[54.31,51.96],[54.57,52.15],[54.97,52.11],[55.22,52.31],[55.62,52.27],[55.76,52.03],[56.15,51.99],[56.42,52.18],[56.82,52.14],[56.95,51.9],[56.68,51.71],[56.81,51.47],[57.2,51.42],[57.33,51.19],[57.72,51.14],[57.98,51.33],[58.38,51.28],[58.65,51.46],[58.53,51.7],[58.8,51.89],[59.2,51.84],[59.32,51.6],[59.71,51.54],[59.82,51.3],[60.22,51.24],[60.5,51.43],[60.89,51.37],[61.17,51.55],[61.06,51.8],[61.35,51.98],[61.75,51.92],[62.04,52.1],[62.44,52.03],[62.73,52.21],[63.13,52.15],[63.43,52.33],[63.83,52.26],[64.13,52.43],[64.03,52.68],[64.34,52.86],[64.74,52.78],[64.83,52.54],[65.23,52.46],[65.32,52.22],[65.72,52.14],[66.03,52.31],[66.43,52.23],[66.51,51.99],[66.9,51.91],[66.98,51.66],[67.37,51.58],[67.69,51.74],[68.08,51.66],[68.39,51.83],[68.78,51.74],[69.1,51.9],[69.49,51.82],[69.56,51.56],[69.94,51.47],[70.01,51.22],[70.39,51.13],[70.71,51.29],[71.09,51.2],[71.41,51.35],[71.79,51.26],[71.85,51.01],[71.53,50.85],[71.58,50.59],[71.96,50.5],[72.01,50.24],[72.38,50.15],[72.43,49.89],[72.8,49.79],[73.12,49.95],[73.49,49.84],[73.53,49.59],[73.22,49.44],[73.26,49.18],[73.62,49.08],[73.67,48.82],[74.02,48.72],[74.07,48.46],[74.42,48.36],[74.74,48.51],[75.09,48.4],[75.41,48.55],[75.76,48.44],[76.08,48.59],[76.43,48.48],[76.75,48.62],[77.09,48.51],[77.42,48.65],[77.76,48.54],[78.09,48.68],[78.43,48.56],[78.76,48.7],[79.1,48.58],[79.12,48.32],[79.46,48.2],[79.78,48.34],[79.77,48.6],[79.43,48.72],[79.41,48.97],[79.07,49.09],[78.74,48.95],[78.39,49.07],[78.37,49.33],[78.02,49.44],[78.0,49.7],[78.33,49.84],[78.31,50.1],[77.95,50.21],[77.93,50.47],[77.57,50.58],[77.23,50.44],[76.87,50.55],[76.54,50.41],[76.17,50.52],[76.14,50.78],[75.77,50.89],[75.74,51.14],[75.37,51.25],[75.33,51.51],[74.96,51.61],[74.62,51.46],[74.24,51.57],[74.2,51.82],[73.82,51.93],[73.78,52.18],[73.39,52.28],[73.06,52.13],[72.67,52.23],[72.62,52.48],[72.96,52.64],[72.9,52.89],[73.24,53.04],[73.63,52.94],[73.98,53.09],[74.36,52.99],[74.71,53.13],[75.1,53.03],[75.14,52.77],[75.52,52.67],[75.87,52.81],[76.25,52.7],[76.6,52.84],[76.98,52.73],[77.32,52.87],[77.7,52.76],[77.73,52.5],[78.1,52.39],[78.45,52.52],[78.82,52.41],[79.18,52.54],[79.55,52.42],[79.56,52.17],[79.93,52.05],[79.94,51.79],[80.3,51.67],[80.31,51.42],[80.67,51.29],[80.68,51.04],[80.34,50.91],[80.35,50.65],[80.7,50.53],[80.71,50.27],[81.06,50.15],[81.07,49.89],[81.41,49.77],[81.42,49.51],[81.76,49.39],[82.09,49.51],[82.43,49.39],[82.43,49.13],[82.76,49.0],[83.1,49.13],[83.43,49.0],[83.77,49.12],[83.77,49.37],[84.11,49.5],[84.12,49.75],[84.46,49.87],[84.79,49.74],[84.78,49.48],[84.44,49.36],[84.43,49.11],[84.1,48.99],[84.09,48.73],[84.42,48.6],[84.75,48.72],[85.07,48.59],[85.41,48.7],[85.73,48.57],[86.06,48.68],[86.38,48.55],[86.36,48.29],[86.68,48.15],[87.01,48.27],[87.32,48.13],[87.66,48.24],[87.68,48.49],[87.37,48.63],[87.39,48.89],[87.08,49.03],[86.74,48.91],[86.42,49.05],[86.44,49.31],[86.78,49.42],[86.8,49.67],[86.48,49.81],[86.5,50.06],[86.84,50.18],[87.17,50.04],[87.51,50.15],[87.54,50.4],[87.89,50.51],[88.21,50.36],[88.56,50.47],[88.59,50.72],[88.94,50.83],[88.97,51.08],[88.65,51.22],[88.68,51.47],[89.04,51.58],[89.36,51.43],[89.33,51.18],[89.65,51.03],[89.61,50.78],[89.93,50.63],[90.28,50.74],[90.59,50.59],[90.94,50.68],[91.25,50.53],[91.21,50.29],[91.52,50.13],[91.47,49.89],[91.77,49.74],[92.12,49.83],[92.17,50.08],[92.52,50.17],[92.56,50.42],[92.91,50.51],[93.21,50.36],[93.56,50.45],[93.86,50.29],[94.21,50.38],[94.5,50.22],[94.85,50.31],[95.14,50.15],[95.48,50.23],[95.55,50.48],[95.9,50.56],[95.96,50.8],[96.31,50.88],[96.6,50.72],[96.95,50.8],[97.23,50.64],[97.58,50.72],[97.65,50.96],[97.37,51.12],[97.44,51.36],[97.16,51.52],[96.81,51.45],[96.52,51.61],[96.59,51.85],[96.95,51.93],[97.23,51.76],[97.59,51.84],[97.67,52.08],[98.03,52.15],[98.11,52.39],[98.47,52.46],[98.55,52.7],[98.26,52.87],[98.34,53.1],[98.05,53.27],[97.69,53.2],[97.39,53.36],[97.02,53.29],[96.72,53.45],[96.8,53.69],[96.5,53.86],[96.57,54.1],[96.95,54.17],[97.25,54.01],[97.62,54.08],[97.92,53.91],[97.84,53.67],[98.13,53.51],[98.51,53.58],[98.79,53.41],[99.16,53.48],[99.45,53.31],[99.81,53.38],[100.09,53.21],[100.01,52.97],[100.28,52.8],[100.64,52.86],[100.92,52.69],[100.82,52.46],[101.09,52.29],[101.45,52.35],[101.71,52.18],[102.07,52.24],[102.33,52.07],[102.23,51.83],[101.88,51.77],[101.79,51.54],[102.04,51.37],[102.39,51.43],[102.65,51.26],[102.99,51.32],[103.09,51.55],[103.44,51.6],[103.69,51.43],[104.04,51.49],[104.28,51.31],[104.62,51.36],[104.86,51.19],[105.21,51.24],[105.44,51.06],[105.34,50.84],[105.0,50.79],[104.76,50.96],[104.42,50.91],[104.32,50.68],[103.98,50.62],[103.88,50.39],[104.11,50.22],[104.45,50.28],[104.69,50.1],[105.02,50.16],[105.13,50.38],[105.46,50.44],[105.57,50.66],[105.91,50.71],[106.13,50.54],[106.47,50.59],[106.58,50.81],[106.92,50.86],[107.14,50.68],[107.47,50.72],[107.59,50.95],[107.92,50.99],[108.04,51.21],[108.38,51.25],[108.59,51.07],[108.92,51.11],[109.05,51.33],[109.38,51.37],[109.5,51.59],[109.84,51.63],[110.05,51.45],[110.38,51.48],[110.51,51.7],[110.84,51.73],[110.97,51.94],[111.3,51.98],[111.43,52.19],[111.81,52.19],[111.98,52.36],[111.78,52.55],[111.95,52.73],[112.33,52.72],[112.51,52.9],[112.31,53.09],[111.92,53.1],[111.75,52.92],[111.37,52.92],[111.19,52.74],[110.82,52.74],[110.68,52.52],[110.35,52.49],[110.13,52.67],[109.79,52.64],[109.57,52.82],[109.23,52.79],[109.1,52.57],[108.76,52.53],[108.64,52.31],[108.29,52.27],[108.07,52.45],[108.19,52.67],[108.54,52.71],[108.66,52.93],[109.01,52.97],[109.13,53.19],[109.48,53.22],[109.61,53.44],[109.96,53.47],[110.13,53.66],[110.52,53.66],[110.69,53.84],[110.47,54.03],[110.65,54.22],[111.04,54.22],[111.22,54.4],[111.0,54.59],[110.6,54.59],[110.42,54.4],[110.03,54.4],[109.8,54.59],[109.97,54.78],[109.75,54.96],[109.92,55.15],[109.69,55.34],[109.86,55.53],[110.28,55.53],[110.46,55.73],[110.22,55.91],[109.81,55.91],[109.63,55.72],[109.22,55.71],[109.04,55.52],[109.28,55.33],[109.11,55.14],[108.7,55.14],[108.47,55.32],[108.63,55.51],[108.39,55.7],[108.56,55.89],[108.32,56.08],[108.49,56.27],[108.91,56.28],[109.08,56.48],[108.84,56.66],[109.02,56.86],[109.44,56.87],[109.63,57.06],[109.38,57.26],[109.57,57.45],[110.0,57.46],[110.25,57.27],[110.69,57.27],[110.88,57.46],[111.32,57.47],[111.56,57.27],[111.36,57.08],[111.6,56.88],[112.03,56.88],[112.23,57.07],[112.67,57.07],[112.88,57.26],[112.65,57.46],[112.86,57.65],[113.3,57.65],[113.53,57.45],[113.97,57.44],[114.19,57.63],[114.64,57.62],[114.87,57.81],[114.64,58.02],[114.19,58.03],[113.96,58.23],[113.51,58.24],[113.27,58.44],[113.49,58.63],[113.26,58.84],[113.48,59.03],[113.24,59.24],[113.47,59.43],[113.94,59.43],[114.18,59.62],[114.65,59.61],[114.9,59.81],[114.66,60.02],[114.9,60.22],[114.66,60.42],[114.17,60.43],[113.92,60.64],[113.42,60.65],[113.17,60.85],[113.41,61.05],[113.15,61.26],[112.64,61.26],[112.38,61.47],[112.62,61.67],[112.34,61.88],[111.83,61.88],[111.55,62.08],[111.79,62.29],[111.5,62.5],[110.97,62.49],[110.68,62.7],[110.92,62.91],[110.62,63.11],[110.86,63.32],[110.56,63.53],[110.8,63.74],[110.49,63.94],[110.74,64.16],[110.43,64.36],[109.86,64.35],[109.54,64.55],[109.78,64.77],[109.45,64.97],[108.88,64.96],[108.54,65.16],[108.78,65.38],[108.43,65.58],[107.84,65.56],[107.49,65.76],[106.89,65.74],[106.53,65.94],[106.76,66.16],[106.38,66.36],[105.78,66.33],[105.39,66.53],[105.62,66.75],[106.23,66.78],[106.62,66.58],[107.23,66.61],[107.47,66.83],[108.1,66.85],[108.35,67.07],[108.98,67.09],[109.25,67.31],[108.88,67.51],[109.15,67.73],[108.77,67.94],[108.11,67.92],[107.72,68.12],[107.99,68.35],[107.58,68.55],[107.85,68.78],[107.44,68.98],[106.76,68.95],[106.33,69.15],[105.64,69.12],[105.21,69.32],[104.52,69.29],[104.06,69.48],[104.31,69.71],[103.84,69.91],[104.09,70.14],[104.8,70.17],[105.06,70.41],[104.59,70.6],[103.86,70.56],[103.37,70.76],[103.62,70.99],[103.12,71.18],[103.37,71.42],[104.13,71.46],[104.4,71.69],[103.89,71.89],[103.1,71.84],[102.57,72.03],[102.83,72.27],[102.28,72.46],[101.48,72.41],[100.92,72.6],[101.16,72.84],[100.58,73.02],[100.82,73.26],[100.22,73.45],[99.38,73.39],[98.76,73.57],[98.98,73.81],[98.35,73.99],[98.57,74.23],[97.91,74.41],[97.03,74.34],[96.83,74.09],[95.98,74.02],[95.3,74.19],[95.48,74.44],[96.35,74.51],[96.55,74.75],[95.84,74.93],[96.04,75.17],[95.31,75.34],[94.39,75.26],[93.64,75.42],[93.8,75.67],[93.03,75.83],[92.1,75.74],[91.97,75.5],[91.07,75.4],[90.28,75.55],[89.39,75.46],[89.3,75.21],[88.44,75.11],[87.65,75.25],[86.8,75.14],[86.76,74.9],[85.94,74.78],[85.92,74.54],[86.69,74.4],[86.65,74.16],[87.4,74.02],[87.35,73.77],[86.59,73.66],[85.85,73.8],[85.09,73.69],[84.35,73.82],[83.6,73.7],[83.62,73.46],[82.9,73.34],[82.15,73.46],[81.44,73.34],[81.49,73.1],[80.8,72.97],[80.85,72.73],[81.57,72.61],[81.61,72.37],[82.31,72.25],[82.34,72.0],[83.02,71.88],[83.04,71.64],[83.71,71.51],[83.72,71.27],[83.08,71.16],[83.1,70.92],[82.48,70.8],[81.83,70.92],[81.8,71.16],[82.43,71.28],[82.4,71.52],[81.73,71.64],[81.69,71.88],[81.0,72.0],[80.36,71.88]],[[38.94,65.53],[39.22,65.36],[38.99,65.15],[38.48,65.11],[38.2,65.29],[37.69,65.26],[37.4,65.43],[36.9,65.39],[36.61,65.56],[36.1,65.52],[35.89,65.31],[35.39,65.27],[35.1,65.44],[35.3,65.65],[35.01,65.81],[35.21,66.03],[35.72,66.07],[35.94,66.28],[36.46,66.32],[36.76,66.15],[37.28,66.19],[37.57,66.02],[38.09,66.06],[38.38,65.88],[38.9,65.92],[39.14,66.13],[39.67,66.16],[39.95,65.98],[39.71,65.77],[39.18,65.74],[38.94,65.53]],[[26.8,59.88],[26.42,59.82],[26.15,59.98],[26.26,60.2],[26.64,60.26],[26.91,60.1],[26.8,59.88]],[[21.3,61.46],[21.22,61.25],[20.86,61.17],[20.79,60.95],[20.44,60.88],[20.29,60.7],[19.85,60.67],[19.7,60.49],[19.27,60.45],[18.98,60.59],[18.55,60.55],[18.26,60.68],[18.4,60.85],[18.11,60.99],[17.67,60.94],[17.38,61.07],[17.52,61.25],[17.96,61.29],[18.1,61.46],[17.81,61.59],[17.95,61.77],[17.66,61.89],[17.8,62.07],[18.15,62.15],[18.21,62.36],[18.56,62.45],[18.62,62.66],[18.98,62.74],[19.04,62.96],[19.41,63.04],[19.48,63.25],[19.85,63.34],[19.92,63.55],[20.3,63.63],[20.62,63.5],[20.54,63.29],[20.16,63.21],[20.09,62.99],[20.4,62.86],[20.33,62.65],[20.63,62.51],[20.56,62.3],[20.86,62.16],[20.78,61.95],[21.08,61.81],[21.01,61.6],[21.3,61.46]],[[92.71,51.16],[92.66,50.91],[92.31,50.82],[92.0,50.97],[92.05,51.22],[92.41,51.31],[92.71,51.16]],[[109.91,53.84],[109.52,53.84],[109.3,54.02],[109.46,54.21],[109.86,54.21],[110.08,54.03],[109.91,53.84]],[[76.94,69.09],[77.54,68.98],[77.62,68.75],[78.21,68.64],[78.28,68.41],[77.78,68.28],[77.19,68.39],[77.11,68.62],[76.51,68.72],[76.42,68.96],[76.94,69.09]],[[23.26,65.4],[23.59,65.26],[24.02,65.34],[24.34,65.2],[24.23,64.99],[23.81,64.91],[23.7,64.7],[23.28,64.62],[23.18,64.41],[22.77,64.33],[22.68,64.11],[22.27,64.04],[22.19,63.82],[21.79,63.74],[21.7,63.53],[21.31,63.45],[21.0,63.58],[21.08,63.8],[21.47,63.88],[21.56,64.09],[21.96,64.17],[22.05,64.39],[21.73,64.52],[21.81,64.73],[21.49,64.87],[21.57,65.08],[21.99,65.16],[22.32,65.03],[22.74,65.11],[22.83,65.32],[23.26,65.4]],[[97.46,70.1],[98.15,70.16],[98.66,69.98],[98.49,69.75],[98.99,69.57],[98.81,69.33],[99.31,69.16],[99.13,68.92],[99.61,68.74],[100.26,68.79],[100.73,68.61],[100.54,68.38],[99.9,68.33],[99.72,68.09],[99.09,68.04],[98.63,68.22],[97.99,68.16],[97.84,67.93],[98.31,67.75],[98.93,67.81],[99.38,67.63],[99.22,67.4],[98.61,67.34],[98.15,67.52],[97.55,67.46],[97.08,67.63],[97.22,67.87],[96.75,68.04],[96.13,67.97],[95.65,68.14],[95.03,68.07],[94.54,68.24],[94.65,68.47],[94.15,68.64],[93.53,68.56],[93.01,68.72],[92.39,68.64],[91.87,68.8],[91.96,69.04],[91.42,69.19],[91.5,69.43],[90.95,69.58],[91.03,69.82],[91.68,69.91],[91.77,70.15],[92.43,70.23],[92.99,70.07],[93.66,70.15],[94.21,69.99],[94.09,69.75],[94.62,69.59],[95.28,69.66],[95.42,69.9],[96.09,69.97],[96.62,69.8],[97.29,69.86],[97.46,70.1]],[[22.79,57.58],[22.94,57.76],[22.68,57.91],[22.83,58.09],[23.25,58.12],[23.4,58.3],[23.82,58.33],[24.08,58.18],[23.93,58.0],[24.19,57.84],[24.03,57.66],[24.29,57.51],[24.14,57.33],[23.72,57.3],[23.46,57.45],[23.05,57.42],[22.79,57.58]],[[100.55,69.91],[101.04,69.73],[100.84,69.5],[100.16,69.44],[99.67,69.63],[99.86,69.86],[100.55,69.91]],[[107.76,54.28],[108.12,54.32],[108.35,54.13],[108.23,53.91],[107.87,53.88],[107.63,54.06],[107.76,54.28]],[[25.13,60.01],[25.5,60.07],[25.77,59.92],[25.67,59.7],[25.3,59.64],[25.03,59.79],[25.13,60.01]],[[101.68,70.43],[101.18,70.62],[101.39,70.85],[102.13,70.9],[102.63,70.71],[102.4,70.48],[101.68,70.43]]],[[[84.69,47.19],[84.36,47.07],[84.35,46.82],[84.67,46.69],[84.99,46.81],[85.0,47.06],[85.33,47.18],[85.64,47.04],[85.97,47.16],[85.98,47.42],[85.67,47.55],[85.34,47.43],[85.03,47.57],[84.7,47.45],[84.69,47.19]]],[[[14.84,77.67],[15.05,77.45],[16.04,77.36],[16.85,77.49],[16.67,77.71],[15.65,77.8],[14.84,77.67]]],[[[-5.49,56.59],[-5.54,56.38],[-5.21,56.23],[-5.26,56.01],[-4.94,55.86],[-4.58,55.93],[-4.53,56.14],[-4.17,56.2],[-4.12,56.42],[-3.75,56.48],[-3.44,56.33],[-3.07,56.38],[-3.02,56.59],[-2.65,56.65],[-2.59,56.86],[-2.22,56.92],[-2.17,57.12],[-2.48,57.28],[-2.42,57.48],[-2.73,57.64],[-3.11,57.58],[-3.43,57.73],[-3.8,57.68],[-4.13,57.83],[-4.07,58.03],[-3.7,58.09],[-3.64,58.3],[-3.26,58.35],[-3.2,58.56],[-3.53,58.71],[-3.91,58.65],[-3.97,58.45],[-4.35,58.39],[-4.68,58.54],[-5.07,58.48],[-5.11,58.27],[-5.5,58.21],[-5.54,58.0],[-5.21,57.85],[-5.26,57.64],[-5.64,57.58],[-5.68,57.37],[-6.06,57.31],[-6.1,57.09],[-5.77,56.95],[-5.82,56.74],[-5.49,56.59]]],[[[23.18,46.31],[23.53,46.35],[23.66,46.56],[23.44,46.74],[23.09,46.71],[22.86,46.89],[22.51,46.85],[22.38,46.64],[22.61,46.46],[22.96,46.49],[23.18,46.31]]],[[[20.85,42.08],[20.52,42.03],[20.41,41.8],[20.62,41.62],[20.95,41.66],[21.07,41.89],[20.85,42.08]]],[[[3.16,44.27],[3.09,44.04],[3.33,43.9],[3.63,43.99],[3.7,44.22],[4.0,44.31],[4.07,44.54],[4.37,44.63],[4.44,44.86],[4.75,44.94],[4.82,45.17],[4.58,45.31],[4.27,45.22],[4.03,45.36],[4.1,45.59],[3.85,45.73],[3.55,45.64],[3.48,45.41],[3.72,45.28],[3.65,45.05],[3.35,44.96],[3.11,45.1],[3.17,45.32],[2.93,45.46],[3.0,45.69],[2.76,45.82],[2.45,45.73],[2.39,45.5],[2.63,45.37],[2.57,45.14],[2.81,45.01],[2.74,44.78],[2.98,44.64],[2.92,44.41],[3.16,44.27]]],[[[49.62,69.67],[48.98,69.67],[48.61,69.48],[47.98,69.47],[47.62,69.28],[47.9,69.1],[47.54,68.91],[47.81,68.72],[48.43,68.72],[48.69,68.53],[49.3,68.53],[49.66,68.72],[49.4,68.91],[49.77,69.1],[50.4,69.1],[50.78,69.29],[50.52,69.48],[49.89,69.48],[49.62,69.67]]],[[[22.42,45.0],[22.76,45.04],[22.89,45.26],[23.24,45.29],[23.45,45.11],[23.8,45.14],[23.93,45.36],[24.28,45.39],[24.49,45.21],[24.84,45.24],[25.05,45.05],[25.4,45.08],[25.53,45.3],[25.88,45.32],[26.01,45.54],[26.36,45.57],[26.5,45.78],[26.85,45.81],[26.98,46.02],[26.77,46.21],[26.42,46.18],[26.21,46.37],[26.35,46.58],[26.13,46.77],[26.27,46.98],[26.05,47.17],[26.19,47.38],[25.97,47.56],[26.11,47.77],[25.89,47.96],[25.53,47.93],[25.31,48.11],[25.45,48.32],[25.23,48.5],[24.87,48.48],[24.64,48.66],[24.78,48.86],[24.55,49.04],[24.19,49.01],[23.96,49.19],[23.6,49.16],[23.37,49.33],[23.0,49.3],[22.77,49.48],[22.41,49.44],[22.17,49.61],[21.81,49.58],[21.57,49.75],[21.21,49.71],[20.97,49.88],[20.6,49.84],[20.37,50.0],[20.0,49.96],[19.87,49.75],[19.51,49.71],[19.27,49.87],[18.91,49.83],[18.78,49.61],[18.42,49.57],[18.18,49.73],[17.82,49.68],[17.7,49.47],[17.94,49.3],[17.82,49.09],[18.06,48.92],[18.42,48.97],[18.66,48.81],[18.54,48.59],[18.78,48.42],[19.14,48.47],[19.37,48.3],[19.73,48.35],[19.85,48.56],[20.21,48.61],[20.45,48.43],[20.8,48.48],[20.93,48.69],[21.29,48.73],[21.42,48.94],[21.19,49.11],[21.31,49.33],[21.68,49.37],[21.91,49.19],[22.27,49.23],[22.51,49.06],[22.38,48.85],[22.61,48.67],[22.97,48.71],[23.2,48.53],[23.06,48.32],[23.29,48.14],[23.65,48.17],[23.88,47.99],[23.74,47.78],[23.97,47.6],[24.32,47.63],[24.55,47.45],[24.41,47.24],[24.63,47.06],[24.5,46.84],[24.72,46.66],[25.07,46.69],[25.29,46.5],[25.15,46.29],[25.37,46.1],[25.72,46.13],[25.94,45.94],[25.8,45.73],[25.45,45.7],[25.24,45.89],[24.89,45.86],[24.76,45.64],[24.41,45.61],[24.19,45.8],[23.84,45.76],[23.62,45.95],[23.27,45.91],[23.14,45.69],[22.8,45.66],[22.67,45.44],[22.32,45.4],[22.2,45.18],[22.42,45.0]]],[[[114.8,52.48],[115.18,52.46],[115.37,52.64],[115.75,52.62],[115.93,52.43],[116.31,52.41],[116.51,52.58],[116.9,52.56],[117.1,52.74],[116.92,52.93],[116.54,52.95],[116.36,53.15],[116.56,53.32],[116.95,53.3],[117.16,53.48],[116.98,53.68],[116.59,53.7],[116.38,53.52],[115.99,53.54],[115.78,53.36],[115.39,53.38],[115.19,53.2],[115.38,53.01],[115.19,52.83],[114.8,52.84],[114.61,52.67],[114.8,52.48]]],[[[124.62,54.97],[124.76,54.75],[125.17,54.71],[125.3,54.49],[125.71,54.44],[125.98,54.61],[126.38,54.56],[126.66,54.72],[126.53,54.93],[126.81,55.1],[127.21,55.04],[127.5,55.2],[127.91,55.14],[128.2,55.3],[128.08,55.52],[127.66,55.58],[127.37,55.42],[126.96,55.47],[126.68,55.31],[126.26,55.36],[125.98,55.2],[125.57,55.25],[125.43,55.47],[125.02,55.52],[124.74,55.35],[124.33,55.39],[124.06,55.23],[124.21,55.01],[124.62,54.97]]],[[[41.68,43.68],[41.37,43.69],[41.21,43.9],[40.89,43.91],[40.73,44.12],[40.4,44.14],[40.24,43.94],[40.41,43.73],[40.25,43.54],[40.41,43.33],[40.73,43.31],[40.89,43.1],[41.21,43.09],[41.37,43.28],[41.68,43.26],[41.84,43.05],[42.15,43.04],[42.3,42.83],[42.61,42.82],[42.77,42.61],[43.08,42.6],[43.23,42.8],[43.55,42.78],[43.7,42.57],[44.01,42.55],[44.16,42.34],[44.47,42.32],[44.63,42.52],[44.95,42.5],[45.09,42.29],[45.4,42.27],[45.57,42.47],[45.43,42.69],[45.11,42.7],[44.97,42.92],[44.65,42.94],[44.48,42.74],[44.17,42.76],[44.02,42.97],[43.71,42.99],[43.56,43.2],[43.24,43.21],[43.09,43.43],[43.25,43.63],[43.1,43.84],[42.78,43.86],[42.62,44.07],[42.31,44.08],[42.15,43.87],[41.83,43.88],[41.68,43.68]]],[[[-3.0,42.38],[-3.28,42.29],[-3.33,42.05],[-3.08,41.9],[-3.13,41.66],[-3.41,41.57],[-3.45,41.33],[-3.74,41.25],[-3.78,41.01],[-4.06,40.92],[-4.31,41.07],[-4.6,40.98],[-4.63,40.74],[-4.39,40.59],[-4.1,40.68],[-3.86,40.53],[-3.58,40.61],[-3.54,40.85],[-3.25,40.94],[-3.21,41.18],[-2.93,41.27],[-2.88,41.5],[-2.6,41.59],[-2.55,41.83],[-2.27,41.91],[-2.22,42.15],[-2.46,42.3],[-2.75,42.22],[-3.0,42.38]]],[[[-4.79,43.21],[-5.05,43.37],[-5.35,43.28],[-5.61,43.43],[-5.9,43.34],[-6.16,43.49],[-6.46,43.4],[-6.49,43.16],[-6.79,43.07],[-7.05,43.22],[-7.35,43.12],[-7.38,42.88],[-7.12,42.73],[-7.15,42.49],[-7.44,42.39],[-7.47,42.15],[-7.21,42.0],[-6.92,42.09],[-6.66,41.95],[-6.37,42.04],[-6.33,42.28],[-6.04,42.37],[-6.01,42.62],[-5.71,42.71],[-5.46,42.56],[-5.16,42.65],[-4.91,42.49],[-4.62,42.58],[-4.58,42.82],[-4.28,42.91],[-4.03,42.76],[-3.74,42.84],[-3.7,43.08],[-3.95,43.23],[-4.24,43.15],[-4.5,43.3],[-4.79,43.21]]],[[[20.2,42.63],[20.32,42.86],[20.1,43.04],[20.21,43.27],[19.99,43.45],[19.66,43.4],[19.44,43.58],[19.1,43.53],[18.88,43.71],[18.99,43.94],[18.77,44.12],[18.43,44.07],[18.32,43.84],[17.98,43.79],[17.75,43.97],[17.87,44.19],[17.64,44.37],[17.3,44.32],[17.07,44.49],[16.74,44.44],[16.51,44.61],[16.17,44.55],[15.94,44.72],[15.6,44.66],[15.5,44.44],[15.73,44.27],[16.06,44.32],[16.29,44.15],[16.19,43.92],[16.42,43.75],[16.75,43.81],[16.98,43.63],[17.31,43.69],[17.54,43.51],[17.87,43.56],[18.09,43.39],[17.98,43.16],[18.21,42.98],[18.54,43.03],[18.76,42.85],[19.1,42.9],[19.32,42.72],[19.2,42.49],[19.42,42.31],[19.75,42.35],[19.87,42.58],[20.2,42.63]]],[[[67.64,76.18],[68.32,76.35],[68.03,76.59],[68.74,76.76],[68.45,76.99],[67.41,77.06],[66.71,76.88],[67.03,76.65],[66.35,76.48],[65.35,76.54],[64.7,76.36],[63.71,76.41],[63.09,76.23],[62.11,76.27],[61.52,76.09],[60.55,76.13],[59.99,75.94],[59.02,75.98],[58.49,75.79],[58.91,75.57],[58.4,75.38],[57.48,75.41],[56.99,75.22],[56.08,75.24],[55.62,75.05],[56.06,74.83],[55.61,74.64],[56.04,74.43],[55.6,74.24],[54.75,74.26],[54.33,74.07],[54.76,73.86],[54.36,73.67],[54.78,73.46],[54.38,73.27],[53.58,73.29],[53.21,73.09],[53.63,72.89],[53.26,72.7],[52.49,72.71],[52.15,72.52],[52.56,72.32],[52.22,72.13],[51.48,72.14],[51.16,71.94],[51.57,71.75],[51.25,71.56],[51.65,71.36],[52.36,71.36],[52.74,71.16],[53.44,71.15],[53.81,70.95],[53.48,70.77],[53.84,70.57],[54.52,70.55],[54.86,70.73],[55.54,70.71],[55.88,70.51],[56.56,70.49],[56.92,70.67],[56.59,70.87],[56.95,71.05],[56.62,71.26],[55.91,71.28],[55.55,71.49],[55.92,71.67],[55.56,71.87],[55.93,72.06],[55.57,72.27],[55.95,72.45],[55.57,72.66],[55.96,72.84],[55.58,73.05],[55.98,73.24],[56.78,73.22],[57.2,73.4],[56.82,73.61],[57.25,73.8],[56.86,74.01],[57.3,74.2],[58.15,74.17],[58.62,74.36],[58.23,74.57],[58.72,74.76],[59.6,74.73],[60.11,74.91],[59.72,75.13],[60.24,75.32],[61.16,75.28],[61.71,75.46],[62.64,75.42],[63.22,75.6],[62.86,75.82],[63.46,76.0],[64.42,75.95],[65.04,76.13],[66.01,76.07],[66.67,76.25],[67.64,76.18]]],[[[23.15,77.86],[23.09,78.08],[22.09,78.19],[21.17,78.08],[21.26,77.86],[22.25,77.75],[23.15,77.86]]],[[[19.23,57.43],[18.95,57.58],[19.09,57.76],[19.51,57.81],[19.65,57.99],[19.37,58.13],[18.96,58.09],[18.82,57.91],[18.41,57.86],[18.27,57.68],[17.86,57.63],[17.73,57.44],[18.0,57.3],[17.87,57.11],[18.14,56.97],[18.54,57.01],[18.68,57.2],[19.09,57.25],[19.23,57.43]]],[[[25.96,79.51],[25.96,79.74],[27.1,79.84],[27.12,80.07],[25.95,80.2],[24.78,80.09],[23.57,80.21],[22.43,80.1],[22.52,79.88],[21.43,79.76],[21.53,79.54],[22.68,79.42],[23.75,79.53],[24.87,79.41],[25.96,79.51]]],[[[11.48,50.78],[11.13,50.71],[10.87,50.85],[10.52,50.78],[10.42,50.57],[10.68,50.42],[11.03,50.5],[11.28,50.35],[11.64,50.42],[11.74,50.63],[11.48,50.78]]],[[[-4.72,55.28],[-4.41,55.13],[-4.05,55.2],[-3.75,55.05],[-3.39,55.11],[-3.09,54.95],[-3.14,54.74],[-3.49,54.68],[-3.55,54.46],[-3.25,54.31],[-2.89,54.37],[-2.6,54.21],[-2.65,54.0],[-2.36,53.84],[-2.01,53.9],[-1.96,54.12],[-1.61,54.18],[-1.55,54.39],[-1.84,54.55],[-1.79,54.76],[-2.08,54.92],[-2.02,55.13],[-1.67,55.19],[-1.61,55.4],[-1.91,55.56],[-2.27,55.5],[-2.57,55.65],[-2.51,55.87],[-2.82,56.02],[-3.18,55.96],[-3.49,56.11],[-3.85,56.05],[-3.9,55.84],[-4.27,55.78],[-4.31,55.56],[-4.68,55.5],[-4.72,55.28]]],[[[123.38,55.1],[123.65,55.27],[123.5,55.48],[123.08,55.52],[122.92,55.74],[122.5,55.78],[122.24,55.6],[121.82,55.64],[121.57,55.47],[121.73,55.26],[121.48,55.09],[121.07,55.12],[120.9,55.33],[121.15,55.5],[120.98,55.71],[120.56,55.75],[120.31,55.57],[119.89,55.6],[119.65,55.42],[119.82,55.22],[120.24,55.19],[120.41,54.98],[120.17,54.8],[119.76,54.84],[119.52,54.66],[119.69,54.46],[120.1,54.42],[120.34,54.6],[120.74,54.57],[120.99,54.74],[121.39,54.7],[121.64,54.88],[122.05,54.84],[122.3,55.01],[122.71,54.97],[122.97,55.14],[123.38,55.1]]],[[[-5.24,40.32],[-4.95,40.41],[-4.92,40.65],[-5.17,40.8],[-5.45,40.71],[-5.49,40.47],[-5.24,40.32]]],[[[82.76,47.22],[83.08,47.09],[83.4,47.21],[83.41,47.47],[83.08,47.6],[82.76,47.47],[82.43,47.6],[82.11,47.47],[81.78,47.6],[81.78,47.85],[81.45,47.98],[81.12,47.85],[81.13,47.59],[81.46,47.47],[81.47,47.21],[81.79,47.09],[82.11,47.22],[82.44,47.09],[82.76,47.22]]],[[[-1.45,43.25],[-1.75,43.17],[-1.79,42.94],[-1.55,42.78],[-1.26,42.86],[-1.02,42.7],[-1.07,42.46],[-0.84,42.31],[-0.55,42.38],[-0.32,42.22],[-0.03,42.3],[0.02,42.53],[0.3,42.61],[0.53,42.45],[0.48,42.21],[0.71,42.06],[0.99,42.13],[1.22,41.97],[1.5,42.06],[1.73,41.92],[2.02,42.01],[2.08,42.24],[2.37,42.34],[2.43,42.57],[2.2,42.71],[2.26,42.94],[2.02,43.08],[1.73,42.99],[1.5,43.12],[1.21,43.05],[0.98,43.22],[0.7,43.14],[0.47,43.31],[0.18,43.23],[0.12,43.0],[-0.16,42.93],[-0.4,43.09],[-0.69,43.01],[-0.92,43.17],[-1.21,43.09],[-1.45,43.25]]],[[[79.05,44.34],[79.35,44.48],[79.34,44.73],[79.02,44.85],[78.72,44.71],[78.73,44.46],[79.05,44.34]]],[[[114.62,54.15],[114.82,54.34],[115.22,54.32],[115.43,54.5],[115.23,54.7],[114.82,54.71],[114.62,54.53],[114.22,54.54],[114.02,54.36],[114.22,54.17],[114.02,53.98],[114.22,53.79],[114.62,53.78],[114.82,53.96],[114.62,54.15]]],[[[118.95,53.56],[118.78,53.76],[118.38,53.78],[118.16,53.61],[118.34,53.41],[118.12,53.24],[117.73,53.26],[117.52,53.09],[117.69,52.89],[118.08,52.86],[118.29,53.04],[118.68,53.01],[118.9,53.18],[119.29,53.16],[119.51,53.33],[119.9,53.3],[120.13,53.47],[120.52,53.44],[120.76,53.61],[121.15,53.57],[121.39,53.74],[121.78,53.71],[122.02,53.88],[122.42,53.84],[122.67,54.01],[123.07,53.96],[123.32,54.13],[123.72,54.09],[123.97,54.26],[124.37,54.21],[124.64,54.38],[124.49,54.59],[124.09,54.63],[123.94,54.85],[123.53,54.89],[123.28,54.72],[122.87,54.76],[122.61,54.59],[122.77,54.38],[122.52,54.21],[122.11,54.25],[121.87,54.08],[121.47,54.12],[121.31,54.33],[120.91,54.36],[120.67,54.19],[120.27,54.22],[120.03,54.05],[119.63,54.08],[119.4,53.9],[119.57,53.7],[119.34,53.53],[118.95,53.56]]],[[[81.19,45.29],[80.88,45.16],[80.89,44.9],[81.2,44.78],[81.51,44.91],[81.51,45.16],[81.19,45.29]]],[[[6.55,50.29],[6.63,50.5],[6.37,50.64],[6.04,50.55],[5.96,50.34],[6.21,50.2],[6.55,50.29]]],[[[16.98,78.49],[16.1,78.36],[16.3,78.14],[17.34,78.05],[18.21,78.17],[18.05,78.39],[18.96,78.51],[18.81,78.74],[17.71,78.83],[16.79,78.71],[16.98,78.49]]],[[[-1.55,60.31],[-1.22,60.16],[-0.83,60.2],[-0.76,60.4],[-1.09,60.55],[-1.48,60.51],[-1.55,60.31]]],[[[117.11,55.19],[116.69,55.21],[116.47,55.03],[116.67,54.83],[116.45,54.65],[116.04,54.67],[115.83,54.49],[116.02,54.29],[116.43,54.27],[116.64,54.45],[117.04,54.43],[117.26,54.61],[117.07,54.81],[117.3,54.99],[117.11,55.19]]],[[[6.59,47.9],[6.84,47.76],[7.17,47.84],[7.25,48.07],[7.0,48.21],[6.67,48.12],[6.59,47.9]]],[[[115.28,56.62],[114.85,56.63],[114.63,56.45],[114.84,56.25],[115.27,56.23],[115.49,56.42],[115.28,56.62]]],[[[13.1,50.11],[13.46,50.17],[13.56,50.38],[13.31,50.54],[13.42,50.75],[13.16,50.9],[12.81,50.83],[12.7,50.62],[12.35,50.55],[12.24,50.34],[11.89,50.27],[11.79,50.06],[12.04,49.91],[11.94,49.69],[12.19,49.54],[12.55,49.61],[12.65,49.83],[13.0,49.89],[13.1,50.11]]],[[[110.83,56.11],[111.06,55.92],[111.48,55.92],[111.7,55.72],[112.12,55.72],[112.32,55.91],[112.09,56.11],[112.29,56.3],[112.06,56.49],[111.63,56.49],[111.44,56.3],[111.02,56.3],[110.83,56.11]]],[[[-1.46,40.57],[-1.69,40.73],[-1.97,40.65],[-2.02,40.41],[-1.78,40.25],[-1.5,40.33],[-1.46,40.57]]],[[[-6.56,58.43],[-6.94,58.37],[-6.98,58.16],[-6.64,58.02],[-6.26,58.08],[-6.22,58.29],[-6.56,58.43]]],[[[23.4,42.17],[23.61,41.98],[23.94,42.01],[24.06,42.24],[23.85,42.43],[23.52,42.39],[23.4,42.17]]],[[[10.52,44.08],[10.85,44.15],[10.94,44.38],[10.7,44.54],[10.38,44.47],[10.14,44.63],[9.82,44.55],[9.58,44.71],[9.26,44.63],[9.17,44.4],[9.41,44.25],[9.73,44.32],[9.97,44.17],[10.29,44.24],[10.52,44.08]]],[[[8.44,51.12],[8.53,51.33],[8.26,51.47],[7.92,51.39],[7.83,51.17],[8.09,51.04],[8.44,51.12]]]]}}]}