{"type":"FeatureCollection","features":[{"type":"Feature","properties":{},"geometry":{"type":"MultiPolygon","coordinates":[[[[71.26,37.99],[71.51,38.15],[71.47,38.4],[71.17,38.49],[71.12,38.74],[71.59,39.31],[71.19,39.91],[71.45,40.07],[72.11,39.62],[72.6,40.18],[73.26,39.73],[73.76,40.29],[74.07,40.19],[74.34,40.34],[74.54,41.0],[74.82,41.15],[75.13,41.04],[76.58,41.27],[76.22,41.89],[76.5,42.03],[78.0,41.99],[78.56,42.52],[81.26,42.48],[81.85,43.0],[82.74,42.88],[83.35,43.39],[83.65,43.26],[83.95,43.39],[83.66,44.02],[83.97,44.15],[84.27,44.02],[85.18,44.13],[85.75,43.61],[86.66,43.71],[86.95,43.58],[86.93,43.33],[87.8,43.17],[87.45,42.55],[85.99,42.47],[85.7,42.6],[85.09,42.11],[84.22,42.24],[83.33,42.12],[82.74,42.62],[82.15,42.11],[81.26,42.22],[80.69,41.7],[79.21,41.78],[78.92,41.64],[78.93,41.39],[78.65,41.25],[78.35,41.36],[78.06,41.22],[78.08,40.97],[77.22,40.8],[77.24,40.54],[76.96,40.4],[75.5,40.43],[75.22,40.28],[75.25,40.03],[74.41,39.83],[74.44,39.58],[74.74,39.48],[75.11,38.87],[75.97,38.8],[76.0,38.55],[76.29,38.45],[76.08,37.8],[76.37,37.69],[76.7,37.08],[76.99,36.98],[78.35,37.18],[79.22,36.35],[80.03,36.51],[80.59,36.03],[80.85,36.17],[81.66,36.07],[82.19,36.58],[83.53,36.48],[83.8,36.6],[83.81,36.85],[84.62,36.98],[84.62,37.22],[84.9,37.35],[85.7,37.22],[86.26,37.71],[86.28,37.95],[86.56,38.07],[86.82,37.94],[87.1,38.06],[87.12,38.31],[87.4,38.43],[87.66,38.3],[87.94,38.41],[87.96,38.66],[88.24,38.77],[88.5,38.64],[89.09,39.11],[89.89,38.95],[90.18,39.06],[90.21,39.31],[91.03,39.38],[90.85,40.01],[91.68,40.08],[91.72,40.33],[91.24,40.86],[91.28,41.1],[91.02,41.25],[91.05,41.49],[90.23,41.67],[90.26,41.92],[91.13,41.99],[91.5,42.59],[91.8,42.69],[92.29,42.15],[93.14,42.21],[93.19,42.45],[92.71,42.99],[89.55,43.09],[89.27,43.23],[88.97,43.12],[88.44,43.65],[88.13,43.53],[87.85,43.67],[87.87,43.92],[88.18,44.04],[88.46,43.9],[90.53,43.91],[90.57,44.16],[91.23,44.61],[91.27,44.86],[89.8,45.09],[90.18,45.69],[89.9,45.84],[89.93,46.09],[90.25,46.19],[90.29,46.44],[90.0,46.59],[90.03,46.84],[89.12,47.02],[88.88,47.67],[87.94,47.85],[87.68,48.49],[86.72,48.66],[86.74,48.91],[86.12,49.44],[86.13,49.7],[85.81,49.83],[85.82,50.09],[86.17,50.2],[86.5,50.06],[87.21,50.54],[87.24,50.79],[86.6,51.32],[86.62,51.58],[86.97,51.69],[87.61,51.15],[87.97,51.26],[88.0,51.51],[87.67,51.65],[87.69,51.9],[88.74,51.97],[89.17,52.57],[89.54,52.67],[90.56,52.47],[90.93,52.57],[90.97,52.82],[91.34,52.91],[91.66,52.76],[92.45,53.19],[92.77,53.03],[93.82,53.05],[93.88,53.3],[93.57,53.45],[93.62,53.7],[94.0,53.78],[94.06,54.02],[93.04,54.25],[93.1,54.5],[92.77,54.65],[91.67,54.63],[91.34,54.78],[91.38,55.03],[91.77,55.12],[92.11,54.96],[92.49,55.05],[92.55,55.29],[92.21,55.45],[91.82,55.36],[91.48,55.52],[91.53,55.76],[91.92,55.85],[91.98,56.09],[92.37,56.18],[92.71,56.02],[92.66,55.78],[92.99,55.62],[93.84,56.03],[94.17,55.87],[94.11,55.63],[95.15,55.39],[95.08,55.15],[95.4,54.99],[96.25,55.38],[96.32,55.62],[96.0,55.78],[96.08,56.02],[97.18,56.0],[97.74,56.54],[97.43,56.7],[97.03,56.64],[96.95,56.4],[96.55,56.33],[95.98,56.89],[96.05,57.13],[94.98,57.38],[95.05,57.62],[94.71,57.78],[94.3,57.7],[93.95,57.86],[94.02,58.1],[93.67,58.26],[93.25,58.18],[92.89,58.34],[92.96,58.57],[92.59,58.73],[92.17,58.65],[91.8,58.8],[90.91,58.39],[90.54,58.54],[90.12,58.45],[89.74,58.6],[89.79,58.84],[88.6,59.04],[88.63,59.28],[88.24,59.43],[85.33,59.44],[84.52,59.95],[84.09,59.85],[83.67,59.98],[83.68,60.22],[82.39,60.36],[82.39,60.61],[81.95,60.73],[81.95,60.97],[80.62,61.1],[80.61,61.34],[80.16,61.46],[79.27,61.46],[79.24,61.69],[78.78,61.81],[77.44,61.67],[76.97,61.78],[76.94,62.02],[75.55,62.1],[75.5,62.33],[75.02,62.43],[73.67,62.26],[73.18,62.35],[73.12,62.59],[71.7,62.63],[71.62,62.86],[71.12,62.95],[68.85,62.67],[68.35,62.75],[68.25,62.98],[66.82,62.97],[66.71,63.2],[66.19,63.27],[66.08,63.5],[66.49,63.66],[66.38,63.89],[65.85,63.95],[64.91,63.86],[64.51,63.69],[64.63,63.47],[64.23,63.3],[63.05,63.65],[62.66,63.48],[62.13,63.53],[61.99,63.76],[60.55,63.68],[60.17,63.51],[60.32,63.29],[59.95,63.11],[60.1,62.89],[59.73,62.71],[59.88,62.49],[59.52,62.31],[59.67,62.08],[59.32,61.9],[59.47,61.68],[59.12,61.5],[58.62,61.54],[58.47,61.77],[58.81,61.95],[58.66,62.17],[59.01,62.35],[58.86,62.57],[56.98,63.13],[56.81,63.35],[56.29,63.38],[55.94,63.2],[56.12,62.98],[54.92,62.64],[54.41,62.66],[54.23,62.88],[53.71,62.9],[53.39,62.71],[52.88,62.73],[52.69,62.94],[52.17,62.96],[51.86,62.77],[50.63,63.0],[50.33,62.81],[48.23,62.43],[46.57,63.04],[45.3,62.82],[45.07,63.02],[44.57,63.01],[42.85,63.56],[43.11,63.77],[43.61,63.79],[43.86,63.59],[44.36,63.61],[45.42,64.02],[44.42,64.4],[44.69,64.6],[44.44,64.8],[43.14,64.96],[42.88,64.75],[43.13,64.56],[42.87,64.36],[42.36,64.34],[42.1,64.52],[40.82,64.66],[40.55,64.85],[40.8,65.05],[40.53,65.24],[40.01,65.21],[39.74,65.39],[42.37,66.29],[44.53,65.97],[44.82,66.17],[44.56,66.36],[44.86,66.56],[44.6,66.75],[44.9,66.95],[46.29,66.78],[46.54,66.59],[48.0,66.8],[48.33,67.0],[48.08,67.19],[48.41,67.38],[48.16,67.58],[47.57,67.57],[47.25,67.38],[47.5,67.19],[47.18,66.99],[46.6,66.98],[45.51,67.35],[46.73,67.75],[46.46,67.94],[46.79,68.14],[46.53,68.32],[45.93,68.31],[45.6,68.12],[45.87,67.93],[45.55,67.73],[44.97,67.72],[44.7,67.9],[45.01,68.1],[44.73,68.29],[44.14,68.27],[43.83,68.07],[44.11,67.89],[43.81,67.69],[44.93,67.34],[44.63,67.14],[44.06,67.12],[43.77,66.92],[44.04,66.73],[43.75,66.53],[43.19,66.51],[42.92,66.7],[43.21,66.9],[42.93,67.08],[42.37,67.06],[42.09,66.86],[42.37,66.68],[41.28,66.24],[40.74,66.22],[39.64,66.54],[38.33,66.27],[35.55,66.82],[32.52,67.11],[31.64,66.63],[32.78,66.37],[32.59,66.15],[32.9,65.99],[32.04,65.52],[32.34,65.36],[32.17,65.14],[30.13,65.29],[29.97,65.07],[30.28,64.92],[30.12,64.7],[29.66,64.64],[28.14,64.83],[27.83,64.98],[27.97,65.19],[27.65,65.34],[27.79,65.55],[26.69,65.78],[26.82,65.99],[26.5,66.14],[25.71,66.21],[25.83,66.42],[25.5,66.56],[23.9,66.68],[23.45,66.6],[23.34,66.39],[22.56,66.44],[22.12,66.36],[22.02,66.15],[20.83,66.11],[20.75,65.9],[20.33,65.81],[20.25,65.6],[20.58,65.47],[20.03,64.96],[18.18,64.95],[18.13,64.74],[18.45,64.61],[17.96,64.1],[15.89,64.19],[15.53,64.1],[15.49,63.89],[14.47,63.82],[14.44,63.61],[13.97,63.34],[14.46,62.94],[13.88,62.72],[13.75,62.55],[14.06,62.43],[13.93,62.26],[12.92,61.97],[12.8,61.79],[13.1,61.67],[12.98,61.5],[11.81,61.49],[11.51,61.6],[11.63,61.78],[10.89,61.83],[10.77,61.65],[11.08,61.54],[10.96,61.36],[9.81,61.34],[9.7,61.16],[10.01,61.05],[9.37,60.62],[9.68,60.5],[9.57,60.32],[8.14,59.73],[7.05,59.02],[6.69,58.99],[6.41,59.16],[6.51,59.35],[6.88,59.37],[6.97,59.56],[6.05,59.87],[6.62,60.27],[6.15,60.78],[6.25,60.97],[5.96,61.13],[6.06,61.31],[5.77,61.48],[5.86,61.66],[6.74,61.88],[6.84,62.06],[6.55,62.22],[6.66,62.4],[7.05,62.42],[8.67,63.16],[10.54,63.03],[12.24,63.73],[12.37,63.9],[12.05,64.01],[12.51,64.28],[12.53,64.48],[11.87,64.9],[11.88,65.11],[12.46,65.48],[12.34,65.65],[12.7,65.76],[12.58,65.93],[12.95,66.03],[12.83,66.2],[13.2,66.31],[13.08,66.48],[13.46,66.59],[13.35,66.76],[13.73,66.87],[13.62,67.04],[13.11,67.12],[12.72,67.01],[12.84,66.83],[11.59,66.69],[12.34,66.27],[11.74,65.89],[11.86,65.72],[11.51,65.62],[11.64,65.45],[11.29,65.34],[11.42,65.18],[10.28,65.03],[10.41,64.87],[10.13,64.7],[10.41,64.53],[10.29,64.37],[9.36,64.19],[8.66,64.35],[8.54,64.18],[8.13,64.17],[8.02,64.0],[8.32,63.83],[8.2,63.66],[7.8,63.65],[6.16,62.91],[5.76,62.89],[5.66,62.71],[5.26,62.69],[5.16,62.51],[4.76,62.49],[4.67,62.31],[4.97,62.14],[4.87,61.96],[4.48,61.94],[4.39,61.75],[4.69,61.59],[4.11,61.2],[4.41,61.04],[4.32,60.85],[4.62,60.69],[4.53,60.5],[5.02,59.98],[4.46,59.58],[4.94,59.06],[4.85,58.86],[5.13,58.7],[5.05,58.51],[6.31,58.23],[6.58,58.06],[6.49,57.87],[6.78,57.76],[7.84,57.8],[7.93,57.99],[8.32,58.07],[9.0,58.03],[9.6,58.48],[9.31,58.6],[9.41,58.79],[10.8,58.69],[10.69,58.5],[11.16,58.06],[11.05,57.87],[9.97,57.86],[9.37,57.4],[8.7,57.45],[7.84,57.1],[7.74,56.9],[8.02,56.79],[7.46,56.31],[7.74,56.19],[7.65,55.99],[7.93,55.87],[7.83,55.67],[6.54,55.75],[5.72,55.39],[5.1,55.47],[5.02,55.27],[4.67,55.23],[4.07,55.36],[3.99,55.16],[3.65,55.12],[0.87,55.76],[0.1,55.45],[-0.54,55.56],[-0.61,55.35],[-0.96,55.3],[-1.25,55.46],[-1.43,56.03],[-2.4,56.29],[-1.92,56.76],[-1.55,56.81],[-1.49,57.02],[-1.8,57.18],[-1.74,57.38],[-1.37,57.43],[-1.3,57.64],[-3.0,58.0],[-2.5,58.46],[-2.82,58.61],[-2.76,58.81],[-1.49,59.37],[-1.42,59.57],[-1.03,59.61],[-0.97,59.81],[-0.58,59.85],[-0.51,60.05],[-0.83,60.2],[-0.76,60.4],[-0.37,60.44],[-0.3,60.64],[-0.88,61.14],[-2.67,60.37],[-2.74,60.17],[-1.68,59.92],[-2.2,59.47],[-2.92,59.57],[-3.75,59.26],[-4.48,59.36],[-4.53,59.15],[-3.48,58.91],[-3.53,58.71],[-4.97,58.89],[-5.79,58.56],[-6.51,58.64],[-6.56,58.43],[-6.94,58.37],[-7.67,58.44],[-7.71,58.23],[-7.36,58.09],[-7.4,57.88],[-7.78,57.81],[-7.82,57.6],[-7.48,57.46],[-7.52,57.25],[-7.89,57.17],[-8.34,56.67],[-7.3,56.46],[-7.33,56.25],[-6.72,55.74],[-6.76,55.52],[-8.5,55.59],[-8.54,55.37],[-9.29,54.99],[-9.32,54.77],[-8.99,54.63],[-9.02,54.41],[-10.75,54.44],[-10.77,54.21],[-10.44,54.08],[-10.84,53.54],[-10.21,53.03],[-10.24,52.81],[-10.95,52.4],[-10.97,52.17],[-10.65,52.03],[-10.38,51.43],[-8.77,51.18],[-8.07,51.58],[-8.03,51.81],[-7.39,51.74],[-7.05,51.82],[-7.01,52.05],[-6.37,51.98],[-5.65,52.35],[-5.87,52.95],[-5.52,53.02],[-5.48,53.25],[-6.05,53.77],[-6.01,53.99],[-5.66,54.06],[-5.62,54.28],[-4.95,54.2],[-5.0,53.98],[-4.7,53.83],[-4.74,53.61],[-5.09,53.54],[-5.13,53.32],[-4.83,53.17],[-4.88,52.94],[-5.22,52.87],[-5.01,52.28],[-5.35,52.2],[-5.77,51.68],[-5.14,51.6],[-4.85,51.45],[-4.89,51.22],[-5.97,50.54],[-6.01,50.31],[-6.7,49.92],[-6.74,49.69],[-6.45,49.54],[-6.12,49.62],[-6.09,49.85],[-5.14,49.86],[-4.62,49.32],[-3.42,49.16],[-3.47,48.93],[-4.06,49.01],[-4.75,48.63],[-5.35,48.7],[-5.39,48.47],[-5.11,48.32],[-4.91,47.7],[-3.74,47.55],[-3.47,47.39],[-3.52,47.16],[-2.94,47.08],[-2.68,46.92],[-2.73,46.69],[-1.91,46.45],[-1.96,46.22],[-1.3,45.28],[-1.35,45.05],[-1.65,44.97],[-1.7,44.74],[-1.45,44.58],[-1.5,44.35],[-1.8,44.27],[-1.65,43.64],[-1.94,43.57],[-3.82,43.95],[-4.46,43.54],[-8.1,44.05],[-8.73,43.61],[-9.0,43.76],[-9.3,43.66],[-9.33,43.42],[-9.63,43.32],[-9.65,43.07],[-8.88,42.14],[-9.22,41.55],[-8.72,41.01],[-8.74,40.77],[-9.34,40.31],[-9.13,39.67],[-9.96,39.61],[-9.98,39.36],[-9.72,39.21],[-9.74,38.97],[-9.01,38.04],[-9.33,37.43],[-8.85,36.9],[-7.02,36.88],[-6.77,36.74],[-6.8,36.49],[-6.15,35.56],[-6.18,35.32],[-7.32,34.16],[-7.35,33.91],[-7.61,33.81],[-7.85,33.95],[-8.4,33.48],[-8.64,33.62],[-8.9,33.51],[-8.93,33.26],[-10.03,32.07],[-10.05,31.82],[-9.81,31.68],[-10.1,31.07],[-9.87,30.93],[-9.61,31.05],[-9.16,30.53],[-8.42,30.61],[-7.99,30.09],[-7.74,30.2],[-7.71,30.45],[-7.94,30.59],[-7.92,30.83],[-8.63,31.0],[-8.33,31.61],[-8.08,31.71],[-7.84,31.58],[-7.87,31.33],[-7.64,31.19],[-7.38,31.3],[-7.36,31.55],[-7.59,31.68],[-7.56,31.93],[-7.3,32.04],[-7.07,31.9],[-7.1,31.65],[-6.87,31.51],[-5.76,32.67],[-4.58,32.44],[-4.61,32.2],[-4.86,32.1],[-4.9,31.85],[-4.68,31.71],[-4.42,31.81],[-4.39,32.06],[-3.66,32.11],[-3.63,32.35],[-3.37,32.45],[-2.69,32.26],[-2.14,32.69],[-1.76,32.15],[-1.51,32.25],[-1.47,32.49],[-1.22,32.58],[-1.01,32.43],[-0.46,32.85],[-0.26,32.7],[-0.0,32.78],[0.04,33.02],[0.3,33.11],[0.51,32.95],[0.76,33.04],[0.81,33.28],[1.07,33.37],[1.75,33.14],[2.01,33.22],[2.38,33.79],[3.12,33.8],[3.18,34.04],[3.45,34.12],[3.66,33.96],[3.93,34.04],[4.32,34.61],[4.59,34.69],[4.96,34.12],[5.72,34.12],[6.42,33.87],[7.39,34.58],[8.1,34.32],[8.74,34.7],[8.96,34.53],[9.24,34.6],[9.32,34.85],[10.11,34.82],[10.32,34.64],[10.24,34.4],[9.95,34.33],[10.01,33.67],[10.72,33.39],[11.0,33.45],[11.34,32.86],[12.12,32.81],[12.82,32.51],[13.49,32.88],[14.19,32.57],[14.48,32.63],[14.57,32.87],[14.37,33.06],[14.07,33.0],[13.37,33.3],[12.7,32.93],[11.5,33.34],[11.45,34.01],[10.74,34.29],[10.82,34.54],[11.62,34.49],[11.7,34.74],[11.23,35.75],[11.31,35.99],[11.1,36.17],[11.56,36.72],[11.34,36.89],[11.43,37.13],[9.14,37.7],[8.11,37.0],[6.37,37.42],[5.73,37.02],[4.0,37.4],[3.72,37.32],[3.66,37.08],[2.89,37.06],[2.83,36.82],[2.56,36.73],[1.36,37.01],[1.09,36.92],[1.04,36.68],[0.29,36.65],[-0.07,36.09],[-0.33,36.0],[-0.55,36.16],[-1.12,35.74],[-1.33,35.9],[-1.6,35.81],[-1.64,35.57],[-2.2,35.15],[-2.91,35.35],[-2.87,35.6],[-3.09,35.75],[-3.66,35.32],[-4.38,35.52],[-4.65,35.42],[-5.08,35.96],[-5.04,36.2],[-4.77,36.3],[-4.54,36.15],[-3.97,36.59],[-2.26,36.26],[-1.37,37.01],[-1.33,37.25],[-0.58,37.26],[-0.21,37.82],[-0.43,37.97],[-0.38,38.21],[0.2,38.61],[0.25,38.85],[-0.14,39.4],[-0.09,39.63],[0.84,40.34],[1.23,40.9],[2.02,40.94],[2.42,41.49],[3.23,41.53],[3.29,41.76],[3.59,41.85],[3.48,42.46],[3.25,42.6],[3.67,43.16],[5.04,43.13],[6.35,42.85],[7.05,43.24],[7.12,43.48],[7.98,43.48],[8.46,44.02],[8.77,44.1],[10.12,43.78],[9.23,42.94],[8.37,42.94],[8.29,42.71],[8.52,42.55],[8.05,42.01],[8.43,41.46],[8.74,41.53],[8.97,41.37],[8.89,41.14],[8.05,41.14],[7.6,40.59],[8.35,40.35],[8.27,40.12],[7.97,40.04],[7.9,39.8],[8.12,39.64],[7.67,39.09],[8.42,38.84],[8.34,38.6],[8.56,38.44],[9.24,38.82],[9.31,39.06],[10.14,39.04],[10.08,39.68],[9.86,39.85],[10.33,40.4],[9.96,40.96],[10.05,41.2],[9.82,41.36],[9.9,41.59],[9.67,41.76],[9.76,41.99],[10.61,41.97],[10.7,42.21],[11.02,42.28],[11.24,42.11],[11.56,42.18],[11.79,42.02],[11.7,41.78],[12.47,41.52],[12.38,41.28],[12.74,40.71],[14.67,40.44],[14.89,40.27],[14.8,40.03],[15.55,39.73],[15.57,39.08],[15.26,39.02],[15.16,38.79],[14.32,38.84],[14.35,38.19],[13.52,38.24],[13.17,38.83],[12.46,38.46],[11.98,37.92],[12.33,37.33],[14.19,37.05],[14.53,36.45],[15.35,36.39],[15.44,36.63],[15.23,36.81],[15.73,37.35],[15.52,37.53],[15.61,37.77],[16.45,37.7],[16.96,38.23],[16.75,38.41],[16.85,38.65],[17.58,39.0],[17.58,39.65],[16.83,39.96],[16.93,40.19],[17.25,40.25],[17.47,40.07],[17.79,40.12],[18.11,39.52],[18.86,39.85],[19.07,39.67],[19.4,39.72],[19.61,39.53],[19.5,39.3],[20.24,38.97],[20.13,38.73],[20.34,38.54],[19.8,38.02],[20.53,37.69],[20.42,37.45],[20.63,37.26],[20.94,37.31],[21.24,36.68],[22.07,36.57],[22.35,35.95],[23.18,35.83],[23.37,35.63],[23.34,34.96],[24.04,34.6],[24.77,34.9],[24.96,34.7],[25.77,34.57],[26.75,35.33],[27.55,35.18],[27.62,35.85],[28.42,35.69],[28.49,36.36],[30.29,35.83],[30.86,36.3],[30.68,36.51],[30.81,36.73],[31.12,36.75],[31.3,36.54],[32.1,36.36],[32.32,35.72],[33.07,35.97],[33.24,35.76],[33.11,35.54],[32.36,35.29],[31.79,34.82],[31.96,34.61],[33.21,34.23],[33.35,34.46],[34.09,34.7],[34.19,35.36],[34.5,35.37],[35.08,35.82],[34.91,36.03],[34.6,36.02],[34.02,35.57],[33.72,35.56],[33.55,35.77],[33.68,35.99],[34.88,36.46],[35.52,36.04],[35.38,35.83],[35.54,35.61],[35.41,35.39],[35.62,34.31],[35.48,34.09],[35.18,34.08],[35.05,33.86],[35.21,33.65],[34.64,33.19],[34.83,32.54],[34.7,32.32],[34.41,32.31],[34.3,31.65],[33.59,31.39],[33.42,31.6],[33.13,31.59],[33.0,31.36],[32.71,31.35],[31.61,31.94],[30.89,31.67],[30.72,31.88],[30.42,31.86],[29.46,31.12],[28.69,31.28],[28.57,31.04],[28.74,30.84],[29.51,30.68],[30.05,31.17],[30.77,31.44],[30.94,31.23],[33.07,30.48],[33.23,30.27],[33.94,30.53],[35.44,29.72],[35.73,29.73],[36.27,30.19],[36.56,30.19],[36.71,29.98],[37.41,30.22],[37.99,29.8],[38.28,29.8],[38.41,30.02],[38.69,30.03],[38.84,29.81],[39.12,29.82],[39.25,30.03],[39.53,30.04],[39.67,29.82],[39.95,29.82],[40.09,30.04],[40.37,30.04],[40.51,29.83],[41.2,30.04],[41.74,29.61],[42.42,29.82],[42.96,29.38],[43.64,29.59],[44.16,29.15],[44.83,29.35],[45.33,28.91],[46.0,29.1],[46.86,28.44],[47.51,28.62],[47.63,28.41],[48.6,27.95],[48.68,27.32],[49.07,27.51],[49.66,27.28],[49.8,27.47],[49.7,27.68],[48.74,28.15],[48.66,28.77],[48.41,28.78],[48.3,29.0],[48.84,29.38],[48.72,29.59],[48.87,29.79],[49.51,29.96],[49.62,29.74],[49.87,29.73],[49.94,29.11],[50.91,28.58],[50.96,27.99],[51.67,27.47],[52.34,27.54],[53.74,26.49],[54.32,26.76],[54.23,26.97],[53.56,26.91],[52.05,28.18],[51.37,28.11],[51.27,28.32],[51.43,28.48],[50.97,28.96],[51.13,29.12],[51.02,29.34],[50.39,29.64],[50.34,30.24],[49.97,30.5],[50.13,30.67],[49.64,31.14],[50.07,31.27],[51.56,30.23],[51.61,29.63],[52.7,28.84],[53.82,29.02],[53.99,29.19],[53.53,29.68],[53.7,29.84],[53.6,30.06],[53.23,30.33],[52.8,30.21],[52.16,30.53],[51.73,30.4],[51.68,31.01],[51.85,31.18],[51.37,31.67],[51.53,31.84],[54.04,30.18],[54.14,29.96],[53.96,29.79],[54.33,29.52],[55.38,29.91],[54.93,30.41],[54.66,30.47],[54.56,30.69],[54.74,30.86],[55.01,30.8],[55.47,30.3],[56.19,30.36],[56.46,30.92],[56.01,31.43],[56.19,31.6],[56.47,31.54],[56.56,31.32],[56.83,31.26],[57.02,31.43],[56.93,31.66],[56.65,31.71],[56.56,31.94],[57.22,32.22],[57.5,32.17],[57.79,32.74],[58.81,32.09],[58.79,31.47],[59.06,31.4],[59.26,31.57],[59.9,31.21],[60.09,31.38],[60.37,31.31],[60.81,32.27],[60.37,32.81],[60.7,33.38],[60.25,33.92],[60.46,34.09],[61.11,33.72],[61.19,33.48],[60.99,33.31],[61.43,32.77],[62.7,32.9],[62.63,32.26],[63.41,32.28],[63.48,32.04],[63.76,31.97],[64.46,32.22],[64.74,32.15],[65.15,31.6],[65.92,31.6],[65.98,31.36],[66.59,30.97],[66.97,31.52],[67.25,31.44],[67.47,31.59],[68.07,31.19],[68.3,31.35],[68.57,31.26],[68.62,31.02],[68.4,30.87],[68.45,30.64],[68.72,30.55],[69.93,30.84],[70.07,31.46],[70.29,31.61],[69.93,32.18],[70.53,33.12],[70.48,33.36],[71.24,33.58],[71.39,34.22],[71.63,34.37],[72.96,34.39],[73.63,33.46],[73.9,33.36],[74.15,33.51],[74.42,33.41],[74.45,33.17],[75.24,33.12],[75.86,32.19],[76.13,32.09],[76.37,32.23],[75.76,33.16],[75.19,33.6],[75.38,34.24],[74.57,34.29],[74.54,34.54],[74.26,34.64],[74.02,34.49],[73.73,34.59],[73.7,34.83],[73.42,34.93],[73.38,35.18],[73.63,35.33],[73.91,35.23],[74.17,35.38],[74.13,35.63],[73.85,35.72],[73.6,35.58],[73.31,35.67],[72.85,35.13],[72.03,35.17],[71.99,35.41],[71.7,35.51],[71.46,35.35],[69.04,35.18],[68.63,34.62],[68.32,33.58],[67.58,33.34],[67.64,33.1],[67.41,32.95],[67.13,33.03],[66.74,32.47],[66.46,32.55],[66.73,33.59],[66.95,33.75],[66.89,33.99],[65.9,34.72],[65.84,34.96],[66.59,35.21],[66.53,35.45],[66.76,35.61],[67.06,35.53],[67.29,35.69],[67.58,35.61],[67.64,35.36],[67.41,35.2],[67.47,34.96],[67.76,34.88],[68.52,35.11],[68.46,35.35],[68.7,35.51],[69.52,35.5],[70.15,36.46],[70.99,36.43],[71.24,36.59],[70.85,37.18],[71.1,37.34],[71.05,37.59],[70.75,37.68],[70.7,37.93],[70.96,38.09],[71.26,37.99]],[[22.09,59.54],[22.37,59.4],[21.79,59.19],[21.64,59.01],[21.91,58.86],[21.19,58.47],[21.46,58.32],[21.31,58.14],[21.7,57.66],[21.14,57.44],[20.99,57.26],[21.26,57.11],[20.56,56.7],[20.83,56.55],[20.69,56.36],[21.07,55.86],[20.93,55.67],[20.53,55.63],[20.39,55.44],[20.65,55.29],[20.51,55.09],[19.46,55.16],[19.33,54.97],[19.59,54.82],[19.45,54.62],[19.06,54.58],[18.67,55.08],[18.02,55.18],[17.11,54.88],[15.8,55.07],[15.39,55.55],[14.72,55.64],[14.84,55.83],[15.24,55.89],[15.9,55.8],[16.54,56.25],[16.94,56.3],[17.07,56.49],[16.8,56.63],[16.93,56.82],[17.46,57.06],[17.87,57.11],[18.28,56.63],[18.68,56.68],[18.81,56.87],[18.54,57.01],[19.23,57.43],[18.95,57.58],[19.09,57.76],[19.65,57.99],[19.37,58.13],[19.51,58.32],[18.82,58.42],[18.27,58.19],[18.13,58.0],[18.41,57.86],[18.27,57.68],[17.32,57.39],[16.9,57.86],[17.58,58.28],[17.3,58.42],[17.43,58.61],[18.54,58.56],[19.25,58.97],[18.97,59.11],[19.11,59.29],[20.25,59.72],[22.09,59.54]],[[79.64,44.87],[79.63,45.13],[79.94,45.26],[80.88,45.16],[80.89,44.9],[80.29,44.37],[79.64,44.87]],[[25.23,38.7],[24.51,39.06],[24.63,39.29],[25.48,39.15],[25.68,38.96],[25.56,38.73],[25.23,38.7]],[[36.1,65.52],[35.89,65.31],[35.39,65.27],[35.1,65.44],[35.3,65.65],[35.01,65.81],[35.94,66.28],[37.28,66.19],[38.38,65.88],[38.9,65.92],[39.14,66.13],[39.67,66.16],[39.95,65.98],[39.71,65.77],[39.18,65.74],[38.94,65.53],[39.22,65.36],[38.99,65.15],[36.1,65.52]],[[15.24,42.49],[15.14,42.25],[14.81,42.19],[14.59,42.37],[14.69,42.6],[14.33,43.17],[14.43,43.4],[13.64,43.67],[13.74,43.9],[13.51,44.07],[13.18,44.01],[12.95,44.17],[13.04,44.4],[12.67,44.95],[12.77,45.18],[13.1,45.25],[13.33,45.08],[13.24,44.86],[13.47,44.69],[13.8,44.76],[14.04,44.59],[13.94,44.36],[14.17,44.2],[14.5,44.26],[14.73,44.09],[14.63,43.86],[15.42,43.58],[15.44,42.95],[16.22,42.66],[16.12,42.43],[15.24,42.49]],[[88.94,53.46],[88.98,53.71],[88.32,54.25],[88.35,54.5],[88.0,54.64],[88.03,54.89],[87.68,55.04],[87.7,55.28],[88.09,55.39],[89.19,55.19],[89.15,54.95],[89.5,54.8],[89.46,54.55],[89.8,54.4],[90.19,54.5],[90.82,53.95],[90.77,53.71],[90.4,53.61],[90.36,53.37],[89.58,52.92],[88.94,53.46]],[[33.79,44.25],[33.98,44.04],[34.31,44.05],[35.44,44.66],[36.76,45.05],[36.93,44.85],[37.78,44.63],[37.96,44.02],[38.78,44.2],[38.96,43.58],[41.21,42.68],[41.36,42.47],[41.21,42.27],[41.36,41.65],[40.27,41.08],[39.49,41.31],[39.33,41.11],[39.02,41.12],[38.86,41.33],[38.07,41.14],[36.43,41.99],[35.64,41.78],[35.43,42.4],[34.15,41.98],[33.46,42.38],[33.13,42.38],[31.57,41.49],[31.24,41.48],[31.1,41.26],[30.26,41.43],[30.12,41.21],[29.79,41.2],[29.07,41.58],[28.74,41.56],[28.48,42.18],[28.15,42.15],[27.95,42.35],[28.02,42.99],[28.36,43.01],[28.97,43.46],[28.71,44.07],[28.85,44.29],[29.19,44.3],[29.33,44.52],[30.21,44.35],[30.41,44.16],[30.75,44.17],[30.99,43.56],[31.33,43.57],[31.48,43.78],[32.34,43.6],[32.97,44.03],[33.79,44.25]],[[69.84,39.37],[69.89,39.11],[69.64,38.95],[69.33,39.04],[69.27,39.29],[69.53,39.46],[69.84,39.37]],[[37.87,46.43],[37.71,46.23],[37.88,46.03],[37.23,45.65],[36.37,45.86],[36.22,45.66],[35.88,45.67],[35.17,46.07],[36.32,46.66],[36.67,46.65],[36.85,46.45],[37.69,46.63],[37.87,46.43]],[[-2.51,49.15],[-2.24,48.99],[-2.29,48.76],[-2.88,48.85],[-2.83,49.08],[-2.51,49.15]],[[24.62,35.77],[23.8,35.9],[23.6,36.1],[23.64,36.77],[23.95,36.8],[24.15,36.61],[24.97,36.48],[25.24,35.84],[25.55,35.87],[25.67,36.11],[25.99,36.14],[26.18,35.94],[26.06,35.7],[25.32,35.41],[24.62,35.77]],[[18.21,42.34],[18.98,42.03],[18.87,41.8],[19.09,41.62],[18.98,41.39],[19.19,41.2],[19.19,40.55],[17.78,40.77],[17.45,41.36],[17.13,41.31],[16.36,41.61],[16.34,42.25],[16.67,42.31],[16.78,42.54],[18.21,42.34]],[[30.53,45.8],[31.18,46.22],[31.52,46.23],[31.72,46.04],[31.08,45.61],[30.73,45.6],[30.53,45.8]],[[21.3,61.46],[20.79,60.95],[19.7,60.49],[18.55,60.55],[18.11,60.99],[17.38,61.07],[18.1,61.46],[17.66,61.89],[17.8,62.07],[19.41,63.04],[19.48,63.25],[19.85,63.34],[19.92,63.55],[20.3,63.63],[20.62,63.5],[20.09,62.99],[20.4,62.86],[20.33,62.65],[20.63,62.51],[20.56,62.3],[20.86,62.16],[20.78,61.95],[21.3,61.46]],[[11.01,57.17],[11.4,57.24],[11.68,57.11],[11.57,56.92],[10.69,56.58],[10.4,56.71],[11.01,57.17]],[[23.18,64.41],[22.27,64.04],[21.7,63.53],[21.0,63.58],[21.08,63.8],[21.96,64.17],[22.05,64.39],[21.49,64.87],[21.57,65.08],[22.74,65.11],[22.83,65.32],[23.26,65.4],[24.02,65.34],[24.34,65.2],[24.23,64.99],[23.81,64.91],[23.18,64.41]],[[-4.95,33.22],[-4.99,32.97],[-5.25,32.87],[-5.47,33.02],[-5.44,33.26],[-5.18,33.36],[-4.95,33.22]],[[12.53,46.79],[11.95,46.88],[12.05,47.1],[12.39,47.17],[12.63,47.01],[12.53,46.79]],[[49.84,32.71],[50.0,32.89],[50.27,32.85],[50.39,32.63],[50.22,32.45],[49.84,32.71]],[[24.29,57.51],[23.72,57.3],[23.36,57.79],[23.93,58.0],[24.29,57.51]],[[53.9,31.63],[54.07,31.8],[54.35,31.75],[54.45,31.53],[54.27,31.36],[54.0,31.41],[53.9,31.63]],[[10.95,46.67],[10.19,46.3],[9.95,46.45],[10.46,46.98],[10.8,47.05],[11.04,46.89],[10.95,46.67]],[[77.34,42.72],[77.03,42.84],[77.0,43.09],[77.29,43.24],[77.61,43.12],[77.63,42.87],[77.34,42.72]],[[49.47,31.96],[49.74,31.92],[49.85,31.71],[49.69,31.53],[49.31,31.79],[49.47,31.96]],[[70.1,39.53],[70.04,39.78],[70.3,39.94],[70.62,39.84],[70.67,39.59],[70.41,39.43],[70.1,39.53]],[[8.07,46.22],[7.99,46.0],[7.42,46.06],[7.5,46.29],[7.83,46.37],[8.07,46.22]],[[25.83,38.1],[26.15,38.13],[26.34,37.93],[26.22,37.7],[25.9,37.67],[24.67,38.2],[24.79,38.43],[25.11,38.47],[25.83,38.1]],[[94.03,56.75],[94.1,56.99],[94.5,57.07],[94.84,56.91],[94.77,56.67],[95.1,56.51],[95.03,56.27],[94.64,56.19],[94.03,56.75]],[[24.55,47.45],[24.23,48.03],[24.37,48.24],[24.73,48.27],[25.04,47.69],[24.9,47.48],[24.55,47.45]],[[55.36,31.76],[55.64,31.71],[55.73,31.48],[55.55,31.31],[55.27,31.37],[55.18,31.59],[55.36,31.76]],[[39.07,64.37],[39.33,64.19],[39.1,63.98],[38.61,63.95],[38.34,64.13],[38.57,64.34],[39.07,64.37]],[[25.0,39.97],[24.88,39.75],[24.56,39.71],[24.35,39.91],[24.48,40.14],[24.8,40.17],[25.0,39.97]],[[37.74,64.87],[37.52,64.66],[37.03,64.62],[36.75,64.8],[36.96,65.01],[37.46,65.04],[37.74,64.87]],[[12.52,56.72],[12.41,56.53],[11.74,56.59],[11.85,56.79],[12.24,56.85],[12.52,56.72]],[[81.82,45.3],[81.51,45.16],[81.19,45.29],[81.18,45.54],[81.5,45.68],[81.81,45.55],[81.82,45.3]],[[25.53,39.81],[25.86,39.84],[26.06,39.64],[25.93,39.41],[25.61,39.38],[25.41,39.58],[25.53,39.81]],[[7.02,45.76],[7.26,45.61],[7.19,45.38],[6.63,45.45],[6.7,45.68],[7.02,45.76]],[[74.33,42.53],[74.61,42.68],[74.93,42.57],[74.96,42.32],[74.68,42.17],[74.36,42.27],[74.33,42.53]]],[[[90.99,50.93],[91.34,51.03],[91.39,51.28],[91.07,51.43],[90.71,51.33],[90.67,51.08],[90.99,50.93]]],[[[22.94,32.9],[22.25,33.25],[21.45,33.37],[21.34,33.13],[19.83,32.23],[19.73,31.98],[19.92,31.79],[20.22,31.83],[21.13,32.65],[21.84,32.97],[22.53,32.62],[22.83,32.66],[23.1,32.02],[23.4,32.06],[24.08,31.69],[24.79,32.0],[25.05,31.36],[25.35,31.39],[25.39,32.07],[25.21,32.27],[24.42,32.41],[24.3,32.17],[24.0,32.13],[23.32,32.5],[23.43,32.73],[23.24,32.93],[22.94,32.9]]],[[[116.1,-32.39],[115.98,-32.21],[116.13,-32.05],[115.75,-31.85],[115.57,-32.34],[115.69,-32.52],[116.1,-32.39]]],[[[30.95,69.59],[31.51,69.65],[31.57,69.85],[30.48,69.92],[30.43,69.72],[30.95,69.59]]],[[[49.77,27.07],[49.63,26.87],[49.73,26.66],[49.98,26.65],[50.11,26.84],[50.01,27.05],[49.77,27.07]]],[[[32.59,69.58],[33.5,69.1],[34.06,69.15],[34.15,69.35],[33.24,69.83],[32.66,69.77],[32.59,69.58]]],[[[-8.74,29.76],[-8.49,29.87],[-8.47,30.12],[-8.7,30.25],[-8.95,30.14],[-8.97,29.9],[-8.74,29.76]]],[[[39.49,68.06],[39.8,67.89],[40.36,67.92],[40.64,68.12],[39.45,68.44],[38.88,68.4],[38.57,68.57],[37.99,68.53],[37.74,68.33],[39.49,68.06]]],[[[-16.64,28.13],[-16.39,28.01],[-15.9,28.52],[-15.9,28.77],[-16.14,28.9],[-16.39,28.77],[-16.39,28.51],[-17.14,28.38],[-17.9,29.25],[-18.39,28.73],[-18.38,28.47],[-18.13,28.35],[-17.89,28.49],[-17.38,27.99],[-16.64,28.13]]],[[[105.18,51.87],[104.8,52.45],[104.91,52.68],[104.67,52.85],[103.08,53.05],[102.82,53.22],[102.46,53.16],[102.36,52.93],[102.62,52.76],[102.98,52.82],[103.39,52.24],[103.74,52.29],[104.59,51.99],[104.49,51.77],[104.14,51.71],[104.04,51.49],[104.28,51.31],[105.07,51.64],[105.18,51.87]]],[[[4.25,40.32],[3.96,40.23],[3.73,40.38],[3.44,40.3],[3.38,40.06],[2.58,40.03],[2.53,39.8],[2.24,39.71],[2.35,39.09],[3.08,38.88],[3.71,39.29],[3.77,39.52],[4.57,39.54],[4.47,40.17],[4.25,40.32]]],[[[-7.43,61.64],[-6.74,61.16],[-6.33,61.22],[-6.28,61.42],[-6.65,61.56],[-6.6,61.76],[-5.72,62.07],[-5.67,62.26],[-6.04,62.4],[-5.99,62.6],[-6.79,62.68],[-6.84,62.49],[-7.72,62.17],[-7.76,61.97],[-7.39,61.84],[-7.43,61.64]]],[[[-15.41,28.02],[-15.16,28.15],[-15.16,28.4],[-15.4,28.52],[-15.65,28.4],[-15.9,27.76],[-15.66,27.64],[-15.41,27.77],[-15.41,28.02]]],[[[41.26,67.01],[41.53,67.22],[41.24,67.39],[41.52,67.6],[41.23,67.77],[40.66,67.75],[40.39,67.54],[40.68,67.37],[40.41,67.16],[40.7,66.98],[40.44,66.78],[40.72,66.6],[41.27,66.63],[41.54,66.83],[41.26,67.01]]],[[[-16.38,63.83],[-15.94,63.91],[-15.84,64.14],[-16.19,64.27],[-17.18,63.87],[-17.98,63.92],[-18.07,63.69],[-18.51,63.6],[-20.13,63.67],[-20.82,64.15],[-22.51,64.2],[-22.95,64.09],[-23.0,63.86],[-21.33,63.82],[-20.63,63.34],[-19.39,63.41],[-18.23,63.24],[-17.8,63.33],[-17.71,63.56],[-16.48,63.6],[-16.38,63.83]]],[[[36.78,68.82],[37.67,68.7],[37.93,68.9],[36.7,69.19],[36.12,69.14],[35.87,68.94],[36.78,68.82]]],[[[-5.75,30.81],[-5.72,31.06],[-5.94,31.2],[-6.67,31.13],[-6.9,31.27],[-7.16,31.16],[-7.46,30.56],[-6.76,30.39],[-6.51,30.5],[-6.48,30.74],[-5.75,30.81]]],[[[16.88,68.88],[16.43,68.78],[16.53,68.59],[17.07,68.51],[17.89,68.89],[17.81,69.08],[17.25,69.17],[16.78,69.07],[16.88,68.88]]],[[[-8.09,58.16],[-8.82,58.23],[-9.27,57.73],[-8.54,57.67],[-8.09,58.16]]],[[[-13.18,28.89],[-13.4,29.52],[-13.65,29.65],[-13.9,29.53],[-14.67,28.15],[-13.94,28.02],[-13.18,28.89]]],[[[56.63,26.85],[57.23,27.11],[56.89,27.38],[55.85,27.02],[55.94,26.8],[56.63,26.85]]],[[[15.54,68.58],[15.43,68.76],[14.87,68.84],[14.44,68.74],[14.56,68.55],[14.13,68.44],[14.9,68.0],[14.48,67.9],[14.59,67.71],[13.9,67.33],[14.01,67.15],[14.92,67.17],[14.81,67.35],[15.53,67.74],[15.43,67.92],[16.19,68.31],[16.08,68.49],[15.54,68.58]]],[[[-12.48,28.01],[-13.21,28.14],[-13.45,28.02],[-13.46,27.77],[-12.74,27.64],[-12.5,27.76],[-12.48,28.01]]],[[[15.68,32.18],[15.47,32.37],[15.18,32.31],[15.09,32.07],[15.29,31.88],[15.59,31.94],[15.68,32.18]]],[[[-14.24,64.82],[-14.71,64.75],[-15.38,64.22],[-14.59,64.16],[-13.9,64.68],[-13.44,64.76],[-13.32,64.98],[-13.66,65.12],[-14.13,65.05],[-14.24,64.82]]],[[[106.57,52.06],[107.61,52.81],[107.38,52.99],[107.03,52.95],[105.99,52.19],[105.64,52.14],[105.53,51.92],[105.77,51.74],[106.57,52.06]]],[[[1.19,38.49],[1.41,38.35],[2.02,38.76],[1.91,39.38],[1.68,39.53],[1.07,39.11],[1.19,38.49]]],[[[-12.24,28.13],[-11.52,27.99],[-11.01,28.48],[-10.99,28.73],[-10.26,28.83],[-9.98,29.44],[-9.46,29.92],[-9.65,30.55],[-9.89,30.68],[-10.14,30.57],[-9.94,29.94],[-10.19,29.82],[-10.48,29.21],[-11.21,29.11],[-11.49,28.49],[-11.74,28.37],[-11.98,28.5],[-12.22,28.38],[-12.24,28.13]]],[[[26.24,31.49],[26.9,31.11],[27.2,31.14],[27.32,31.38],[26.18,31.93],[25.88,31.9],[25.76,31.66],[25.94,31.46],[26.24,31.49]]],[[[42.97,68.61],[43.26,68.43],[43.86,68.45],[44.17,68.65],[43.88,68.83],[43.28,68.81],[42.97,68.61]]],[[[55.34,26.54],[55.51,26.7],[55.42,26.91],[55.17,26.97],[54.58,26.7],[54.67,26.49],[55.34,26.54]]],[[[84.52,42.62],[84.53,42.87],[84.24,43.0],[83.94,42.88],[83.93,42.62],[84.22,42.49],[84.52,42.62]]],[[[48.69,68.53],[49.66,68.72],[49.4,68.91],[48.78,68.91],[48.43,68.72],[48.69,68.53]]],[[[13.29,68.23],[12.87,68.12],[13.0,67.94],[13.95,67.97],[13.83,68.15],[13.29,68.23]]],[[[-13.99,26.28],[-13.98,26.52],[-14.22,26.65],[-14.46,26.52],[-14.47,26.27],[-14.23,26.15],[-13.99,26.28]]],[[[94.14,51.52],[94.44,51.36],[94.8,51.44],[94.86,51.69],[94.56,51.85],[94.2,51.76],[94.14,51.52]]],[[[12.75,35.42],[13.23,35.96],[13.02,36.14],[12.33,35.77],[12.25,35.53],[12.46,35.35],[12.75,35.42]]],[[[-5.44,31.41],[-5.18,31.51],[-5.15,31.75],[-5.37,31.89],[-5.63,31.79],[-5.66,31.55],[-5.44,31.41]]],[[[12.46,36.91],[12.25,37.09],[11.94,37.02],[11.86,36.78],[12.07,36.61],[12.37,36.67],[12.46,36.91]]],[[[-18.37,27.97],[-18.37,27.72],[-18.12,27.6],[-17.87,27.73],[-17.88,27.98],[-18.13,28.1],[-18.37,27.97]]],[[[51.14,68.52],[50.16,68.34],[50.4,68.15],[51.01,68.14],[51.38,68.33],[51.14,68.52]]],[[[71.89,66.5],[71.41,66.36],[71.5,66.14],[72.52,66.19],[72.45,66.41],[71.89,66.5]]],[[[-16.39,32.32],[-16.65,32.96],[-16.92,33.09],[-17.18,32.96],[-16.91,32.32],[-16.65,32.19],[-16.39,32.32]]],[[[-6.08,58.91],[-5.69,58.97],[-5.65,59.18],[-6.38,59.26],[-6.43,59.06],[-6.08,58.91]]],[[[14.25,35.73],[14.56,35.79],[14.65,36.03],[14.44,36.21],[14.13,36.15],[14.04,35.91],[14.25,35.73]]],[[[69.82,66.38],[70.85,66.44],[70.76,66.67],[70.19,66.75],[69.72,66.6],[69.82,66.38]]]]}}]}