{"type":"FeatureCollection","features":[{"type":"Feature","properties":{},"geometry":{"type":"MultiPolygon","coordinates":[[[[-180.0,24.98],[-177.5,24.24],[-176.03,24.52],[-175.5,24.13],[-173.27,24.42],[-172.38,23.82],[-171.73,24.04],[-172.14,23.42],[-172.03,22.81],[-170.33,22.01],[-168.9,19.24],[-167.57,18.55],[-166.81,17.01],[-165.81,16.95],[-164.25,15.76],[-163.6,15.93],[-163.13,15.45],[-159.0,15.08],[-157.22,15.56],[-156.59,15.27],[-155.59,15.83],[-154.96,15.53],[-151.53,16.91],[-151.3,17.55],[-148.87,18.34],[-148.63,18.98],[-140.77,21.65],[-140.15,21.31],[-139.12,21.76],[-138.51,21.41],[-136.72,21.68],[-133.89,20.82],[-133.31,21.11],[-131.3,20.39],[-130.74,20.67],[-130.19,20.31],[-129.62,20.59],[-128.67,20.34],[-127.27,19.3],[-125.16,18.91],[-124.79,18.36],[-123.39,18.16],[-123.03,17.6],[-120.89,17.14],[-120.53,16.58],[-115.87,14.99],[-115.53,14.41],[-112.66,13.59],[-112.33,13.01],[-111.65,12.98],[-111.33,12.4],[-109.65,11.76],[-109.34,11.18],[-106.99,10.25],[-106.43,9.35],[-105.76,9.31],[-105.22,8.41],[-104.56,8.37],[-103.31,6.74],[-103.32,4.77],[-102.35,3.53],[-101.73,3.49],[-101.29,2.61],[-100.69,2.54],[-100.06,1.3],[-99.45,1.23],[-98.81,0.2],[-98.99,-0.42],[-97.24,-3.24],[-96.6,-3.32],[-96.37,-3.93],[-93.08,-5.36],[-92.83,-5.98],[-89.88,-7.46],[-88.08,-7.61],[-87.6,-8.09],[-86.93,-7.92],[-86.45,-8.4],[-85.78,-8.23],[-85.3,-8.71],[-83.28,-8.43],[-82.79,-8.91],[-81.68,-8.7],[-80.73,-9.14],[-80.45,-9.76],[-79.77,-9.83],[-79.23,-10.81],[-78.54,-10.88],[-77.5,-12.33],[-77.12,-11.52],[-78.14,-10.33],[-77.98,-9.67],[-79.5,-7.74],[-79.59,-6.72],[-80.27,-6.65],[-80.78,-5.92],[-80.61,-5.26],[-81.12,-4.53],[-79.72,-2.76],[-80.66,-2.07],[-80.75,-1.07],[-80.38,-0.29],[-79.73,-0.11],[-79.82,0.88],[-78.75,1.08],[-78.38,1.85],[-78.65,2.45],[-77.59,2.65],[-77.05,3.78],[-77.39,5.09],[-77.02,5.59],[-77.11,6.53],[-78.32,7.99],[-78.16,8.58],[-79.07,9.22],[-78.23,9.27],[-77.96,8.71],[-77.07,8.29],[-77.23,7.7],[-76.58,7.62],[-76.65,8.32],[-76.13,9.38],[-75.35,9.87],[-75.61,10.42],[-74.83,10.91],[-74.37,10.48],[-74.04,11.16],[-73.22,11.19],[-72.86,11.64],[-72.24,11.55],[-71.76,10.9],[-72.22,9.66],[-71.52,8.9],[-70.77,9.38],[-71.49,10.36],[-71.36,10.92],[-70.55,10.94],[-70.21,11.39],[-69.02,11.41],[-68.1,10.34],[-66.36,10.48],[-64.93,9.79],[-63.97,11.15],[-63.88,10.5],[-62.54,10.71],[-62.42,9.83],[-61.2,9.66],[-60.71,9.08],[-60.83,8.47],[-58.68,7.76],[-58.55,6.83],[-57.93,6.84],[-57.38,5.98],[-56.57,6.15],[-56.08,5.75],[-54.66,6.16],[-56.0,7.96],[-56.63,7.95],[-56.92,8.49],[-57.55,8.47],[-58.74,9.52],[-60.88,10.2],[-61.65,10.01],[-61.36,10.77],[-60.91,10.42],[-60.19,11.04],[-60.47,11.55],[-62.16,10.81],[-62.6,11.15],[-63.36,10.96],[-63.83,11.52],[-64.57,11.33],[-64.06,11.79],[-64.29,12.07],[-65.17,11.51],[-65.86,12.41],[-66.06,13.87],[-65.74,14.28],[-66.2,14.89],[-66.09,15.4],[-67.24,16.91],[-68.77,16.93],[-70.3,18.22],[-70.87,18.13],[-71.18,17.53],[-71.79,17.63],[-72.26,18.22],[-74.25,18.21],[-74.32,18.8],[-73.47,18.41],[-72.49,18.52],[-73.13,18.81],[-72.99,19.3],[-73.46,19.87],[-73.14,20.44],[-73.87,20.88],[-73.63,21.4],[-73.88,22.09],[-74.62,21.93],[-74.42,23.47],[-74.78,23.5],[-74.67,22.93],[-75.39,23.0],[-75.8,22.58],[-75.72,23.25],[-76.26,23.41],[-76.38,23.99],[-77.08,24.5],[-76.86,24.82],[-76.33,24.43],[-76.45,25.01],[-77.01,25.18],[-76.55,25.82],[-74.72,23.94],[-75.14,24.99],[-74.94,26.55],[-74.05,27.56],[-73.93,28.43],[-74.53,29.64],[-74.31,30.45],[-76.45,31.62],[-79.27,30.48],[-79.88,30.67],[-81.01,29.96],[-79.94,27.76],[-80.19,27.19],[-79.83,26.7],[-80.58,25.0],[-81.95,25.91],[-82.49,27.25],[-83.12,27.41],[-83.03,28.83],[-83.9,28.89],[-85.04,28.11],[-90.5,28.29],[-90.97,28.79],[-93.35,28.79],[-93.82,28.29],[-96.49,28.35],[-97.66,27.42],[-97.33,26.04],[-98.0,25.11],[-97.68,23.73],[-98.12,23.2],[-98.06,22.18],[-97.56,21.7],[-97.75,21.06],[-96.02,18.52],[-95.12,18.57],[-94.65,18.1],[-92.89,18.19],[-92.45,18.71],[-91.57,18.25],[-91.14,19.0],[-90.49,19.15],[-90.71,19.75],[-89.83,21.25],[-87.88,21.39],[-87.03,20.91],[-87.68,20.54],[-87.5,19.22],[-88.35,18.72],[-88.38,17.03],[-89.02,15.93],[-88.2,15.49],[-87.78,15.98],[-87.38,15.52],[-86.17,15.56],[-85.75,16.04],[-85.37,15.58],[-84.37,15.72],[-83.61,15.28],[-83.33,14.1],[-83.9,13.31],[-83.64,12.78],[-84.14,11.07],[-82.94,9.44],[-82.29,9.37],[-82.23,8.68],[-80.53,8.79],[-79.32,9.55],[-79.47,8.97],[-80.71,8.43],[-80.22,7.76],[-80.4,7.4],[-81.05,7.47],[-81.78,8.48],[-83.06,8.39],[-83.81,9.61],[-85.54,9.95],[-85.8,10.5],[-85.43,11.2],[-86.31,11.59],[-87.03,12.75],[-87.65,12.82],[-87.63,13.52],[-89.05,13.33],[-90.49,14.07],[-91.12,13.92],[-94.16,16.4],[-95.92,16.29],[-96.34,15.76],[-97.25,16.19],[-97.91,16.01],[-98.4,16.72],[-99.31,16.65],[-103.14,18.33],[-103.43,18.94],[-104.89,19.3],[-105.44,20.01],[-104.87,21.23],[-105.73,22.31],[-105.56,22.97],[-106.3,23.02],[-108.11,25.41],[-109.17,25.8],[-109.02,26.47],[-109.64,27.17],[-110.4,27.2],[-110.26,27.87],[-110.58,28.22],[-111.35,28.24],[-112.63,29.61],[-112.49,30.28],[-113.1,30.7],[-112.97,31.36],[-114.93,31.95],[-115.33,31.37],[-114.99,31.04],[-115.11,30.38],[-112.89,28.28],[-113.01,27.61],[-111.48,26.14],[-111.62,25.47],[-110.73,24.68],[-111.18,24.36],[-112.1,25.4],[-111.97,26.07],[-112.6,26.76],[-113.68,27.11],[-113.7,28.54],[-114.68,29.55],[-115.78,29.88],[-115.67,30.54],[-116.28,30.95],[-116.16,31.61],[-117.12,32.34],[-117.01,33.0],[-118.39,34.26],[-120.03,34.43],[-120.73,35.04],[-120.64,35.69],[-121.64,36.34],[-121.58,35.23],[-120.95,34.87],[-121.03,34.22],[-120.34,33.61],[-119.55,33.64],[-120.02,32.4],[-124.37,31.41],[-124.98,31.76],[-127.03,31.09],[-127.63,31.43],[-127.94,30.84],[-130.41,30.24],[-131.21,29.11],[-134.09,28.04],[-135.3,26.89],[-135.49,26.1],[-136.61,25.94],[-137.39,24.84],[-139.13,24.36],[-140.18,24.57],[-140.46,25.91],[-141.09,26.25],[-141.46,27.17],[-142.18,27.09],[-142.64,27.6],[-143.73,27.79],[-145.64,27.47],[-146.29,27.79],[-146.92,27.46],[-147.57,27.77],[-148.2,27.43],[-148.86,27.74],[-149.49,27.39],[-150.15,27.69],[-150.78,27.35],[-151.44,27.64],[-152.07,27.28],[-156.08,27.89],[-156.69,27.51],[-160.66,27.98],[-161.26,27.59],[-162.73,27.86],[-163.31,27.47],[-163.96,27.69],[-164.53,27.29],[-165.18,27.51],[-167.2,26.93],[-170.35,28.42],[-174.69,28.39],[-175.25,28.8],[-178.05,28.7],[-178.6,28.24],[-179.72,28.18],[-180.0,27.95],[-180.0,24.98]]],[[[180.0,27.95],[179.01,27.88],[177.67,26.91],[178.33,25.66],[180.0,24.98],[180.0,27.95]]],[[[-54.45,33.71],[-45.36,36.43],[-45.03,37.03],[-39.9,38.18],[-36.53,37.11],[-34.31,37.2],[-33.66,36.78],[-32.32,37.09],[-31.67,36.65],[-29.22,37.06],[-28.59,36.61],[-25.56,37.0],[-24.95,36.52],[-24.45,37.07],[-22.49,37.05],[-21.97,37.59],[-18.89,37.55],[-18.34,38.06],[-16.94,37.94],[-16.39,38.45],[-14.44,38.29],[-13.03,39.13],[-11.37,39.06],[-9.52,41.45],[-10.8,43.15],[-10.46,43.75],[-10.99,44.52],[-10.66,44.87],[-11.75,46.4],[-12.95,46.95],[-13.59,46.5],[-17.32,46.36],[-19.47,45.5],[-20.41,45.61],[-21.0,45.1],[-22.56,45.18],[-23.13,44.66],[-24.07,44.74],[-24.63,44.21],[-26.17,44.24],[-26.71,43.69],[-30.05,43.52],[-30.55,42.96],[-32.65,42.84],[-33.13,42.27],[-34.03,42.27],[-35.06,41.61],[-37.48,39.67],[-38.34,39.64],[-38.9,38.63],[-39.97,38.42],[-41.18,38.69],[-41.64,39.24],[-42.47,39.19],[-43.71,40.32],[-44.54,40.25],[-45.42,41.06],[-47.15,41.11],[-48.05,41.89],[-53.45,42.5],[-54.44,42.13],[-55.35,42.52],[-58.07,42.3],[-59.18,42.86],[-60.0,42.63],[-60.65,43.0],[-64.88,42.34],[-69.23,43.33],[-70.56,43.17],[-70.46,42.77],[-71.02,42.29],[-70.28,41.98],[-70.3,41.37],[-72.1,41.32],[-72.1,40.72],[-72.94,40.79],[-73.76,40.26],[-73.74,39.66],[-74.44,39.34],[-74.94,37.48],[-75.69,36.96],[-74.98,34.81],[-73.29,34.0],[-73.45,33.06],[-72.02,33.48],[-70.51,32.99],[-66.24,33.9],[-65.65,33.61],[-64.17,33.93],[-63.18,33.49],[-62.52,33.72],[-61.55,33.28],[-60.04,33.6],[-59.45,33.34],[-58.93,33.68],[-56.45,33.37],[-54.45,33.71]]],[[[-180.0,-39.66],[-179.1,-39.49],[-178.98,-38.87],[-177.43,-37.84],[-176.63,-35.88],[-177.02,-35.31],[-176.5,-34.36],[-176.88,-33.8],[-176.51,-33.24],[-176.84,-32.92],[-176.74,-32.27],[-178.55,-30.58],[-178.45,-29.95],[-179.15,-29.94],[-179.74,-29.3],[-180.0,-29.44],[-180.0,-39.66]]],[[[180.0,-29.44],[177.92,-28.91],[176.27,-26.88],[176.13,-25.93],[177.0,-25.87],[177.36,-25.37],[180.0,-24.99],[179.83,-12.76],[178.7,-13.07],[178.25,-12.75],[176.97,-13.21],[176.55,-12.89],[171.75,-13.05],[170.3,-12.27],[169.31,-12.35],[168.89,-11.91],[168.51,-12.32],[166.07,-12.23],[165.65,-11.78],[163.81,-11.8],[163.4,-11.35],[162.78,-11.42],[162.78,-10.78],[162.38,-10.12],[161.77,-9.97],[161.99,-9.46],[161.59,-9.02],[160.73,-10.65],[160.55,-9.9],[159.71,-10.27],[159.54,-9.51],[158.7,-9.88],[158.38,-9.4],[157.62,-9.31],[157.88,-8.99],[160.76,-9.59],[160.98,-9.08],[160.63,-8.62],[160.92,-8.08],[160.64,-7.58],[159.43,-8.94],[158.68,-8.85],[158.39,-8.35],[157.92,-8.76],[157.89,-7.93],[157.03,-8.29],[156.9,-8.98],[156.34,-8.8],[156.48,-8.1],[156.0,-8.52],[154.29,-7.94],[152.24,-5.7],[152.55,-5.13],[153.18,-5.1],[154.04,-3.88],[153.32,-3.27],[152.65,-3.53],[152.96,-2.96],[152.65,-2.41],[151.74,-2.76],[151.01,-2.13],[150.36,-2.15],[149.89,-1.18],[149.24,-1.2],[149.34,-1.85],[149.94,-2.08],[149.62,-2.66],[150.45,-2.8],[150.78,-3.35],[151.83,-3.4],[151.69,-4.13],[152.28,-4.34],[152.37,-4.98],[150.64,-6.32],[148.56,-6.01],[148.65,-5.52],[151.01,-5.51],[151.6,-4.61],[151.19,-4.55],[150.64,-5.21],[149.76,-4.2],[148.13,-3.68],[147.42,-2.8],[148.41,-2.2],[147.56,-2.06],[147.23,-1.49],[146.28,-1.85],[145.5,-0.04],[146.68,1.56],[147.35,1.57],[148.8,3.5],[149.74,3.83],[150.35,3.59],[151.55,4.25],[152.15,4.01],[153.34,4.66],[153.93,4.41],[154.43,4.82],[155.81,4.41],[156.3,4.81],[158.43,4.23],[158.9,4.63],[161.7,3.9],[162.15,4.28],[163.4,3.88],[163.84,4.25],[165.29,4.16],[167.2,4.86],[167.77,5.58],[168.36,5.5],[168.38,6.02],[168.99,6.45],[168.97,8.42],[167.08,10.17],[165.52,10.69],[164.98,10.41],[162.55,10.96],[162.04,10.66],[159.62,11.42],[159.14,11.06],[157.8,11.52],[157.32,11.15],[154.09,11.92],[153.69,13.13],[152.95,13.8],[151.32,14.42],[150.99,14.99],[150.33,15.02],[149.99,15.59],[148.9,15.71],[148.56,16.27],[140.6,17.82],[140.06,17.42],[139.7,17.98],[134.95,18.59],[134.59,19.14],[132.55,19.29],[132.19,19.82],[131.05,19.84],[129.64,20.83],[127.91,21.25],[126.52,22.19],[126.4,22.78],[124.58,23.72],[124.73,24.61],[125.6,24.55],[125.88,24.87],[124.81,25.05],[124.3,24.63],[124.14,24.98],[124.65,25.4],[126.16,25.19],[126.67,25.6],[128.0,25.5],[128.56,26.13],[129.46,26.05],[128.97,27.09],[129.1,27.74],[130.12,28.31],[129.96,28.65],[129.26,28.59],[128.4,27.68],[128.28,27.03],[127.76,27.84],[128.32,28.45],[128.16,28.78],[125.75,27.85],[124.88,27.89],[125.44,27.33],[124.06,26.96],[123.9,26.1],[122.28,25.4],[121.93,25.85],[121.43,25.44],[122.01,25.08],[121.86,24.2],[120.74,22.46],[120.09,23.61],[121.13,24.9],[120.98,25.23],[120.45,24.59],[119.15,24.28],[118.87,23.77],[117.58,23.6],[117.29,23.08],[115.73,22.59],[113.58,22.76],[113.48,22.06],[110.99,21.65],[110.37,20.29],[109.73,20.51],[110.03,21.08],[109.64,21.62],[108.31,21.82],[107.5,20.83],[106.81,20.8],[105.45,18.87],[106.3,18.26],[106.64,17.22],[107.29,17.01],[107.44,16.36],[108.09,16.15],[108.24,15.5],[108.88,15.29],[109.49,12.95],[109.37,11.95],[108.86,11.26],[108.2,11.21],[107.68,10.51],[106.81,10.6],[106.7,9.59],[105.08,8.87],[104.79,10.43],[103.9,10.52],[103.06,11.12],[102.9,11.78],[102.24,11.97],[101.86,12.78],[100.96,12.86],[101.03,13.62],[99.88,13.6],[99.98,12.17],[99.23,11.34],[99.4,10.68],[98.88,9.94],[99.27,9.14],[99.93,8.95],[100.31,8.15],[100.03,7.52],[103.38,5.18],[103.21,3.42],[104.14,1.7],[103.88,1.34],[101.39,2.8],[100.27,5.19],[100.55,5.81],[99.98,7.01],[99.33,7.2],[99.16,7.85],[98.3,8.44],[98.52,11.01],[99.03,11.74],[98.17,12.33],[98.91,12.91],[97.71,15.07],[97.99,15.68],[97.39,16.88],[96.21,16.59],[95.69,15.86],[94.09,16.09],[94.6,16.82],[94.68,17.83],[94.27,18.62],[93.58,18.78],[92.78,20.58],[92.09,20.74],[91.67,21.5],[91.17,21.03],[90.02,21.19],[89.53,20.71],[88.14,20.75],[87.93,21.12],[88.85,21.1],[89.11,21.47],[87.5,21.62],[87.01,21.14],[86.96,20.16],[85.13,19.69],[84.4,18.34],[82.14,17.11],[82.34,16.49],[81.47,16.5],[79.94,15.64],[79.89,13.91],[80.31,13.41],[79.64,12.31],[79.82,10.94],[78.96,9.48],[78.33,9.37],[77.91,8.4],[77.29,8.3],[75.91,10.64],[76.12,11.24],[75.73,11.97],[74.93,12.46],[75.13,13.06],[74.54,13.89],[74.74,14.5],[73.36,16.71],[73.56,17.31],[72.77,19.14],[73.17,20.79],[72.61,22.05],[72.18,22.0],[71.68,20.98],[70.59,20.95],[69.01,22.26],[70.52,22.57],[70.2,23.08],[69.08,23.04],[68.46,23.85],[67.77,23.86],[66.21,25.56],[64.42,25.27],[63.85,25.63],[61.45,25.08],[60.11,25.62],[58.06,25.53],[57.05,26.36],[56.71,27.22],[56.02,27.18],[55.77,26.64],[55.17,26.97],[54.58,26.7],[53.56,26.91],[52.41,27.91],[51.37,28.11],[50.66,29.6],[49.66,30.15],[49.23,29.56],[48.9,30.2],[48.11,29.84],[47.91,28.81],[48.35,27.96],[49.66,27.28],[50.31,25.0],[50.88,24.78],[50.99,25.98],[51.37,26.16],[51.21,24.56],[51.59,23.74],[54.48,24.24],[56.45,26.1],[56.2,25.0],[56.53,24.16],[57.43,23.56],[58.26,23.74],[59.53,22.66],[59.31,21.41],[58.74,21.19],[58.56,20.5],[57.85,20.68],[57.58,19.14],[56.81,18.98],[56.51,18.19],[55.53,18.09],[54.94,17.08],[53.51,17.09],[50.67,14.97],[49.17,14.92],[48.68,14.14],[48.15,14.31],[47.0,13.49],[45.79,13.61],[44.63,12.77],[43.72,12.7],[43.28,13.45],[43.41,14.05],[42.95,14.42],[43.11,16.63],[42.64,17.42],[42.04,17.59],[40.81,20.02],[39.8,20.39],[39.27,21.21],[39.38,22.71],[38.43,24.17],[37.2,24.77],[37.31,25.42],[34.95,28.38],[35.02,29.48],[34.58,29.68],[34.64,28.8],[33.81,28.32],[32.73,29.36],[32.65,30.24],[32.24,29.99],[32.31,29.11],[33.4,28.07],[33.31,27.4],[33.91,27.0],[33.81,26.33],[35.32,24.23],[35.25,23.14],[36.07,22.75],[37.06,21.3],[37.02,18.96],[38.19,18.4],[39.1,17.0],[38.99,15.96],[39.49,15.18],[40.1,15.43],[40.22,14.83],[41.18,14.5],[41.3,13.91],[43.27,12.67],[43.25,11.89],[42.57,11.84],[43.9,10.8],[44.0,10.24],[44.55,10.1],[45.99,10.78],[46.84,10.47],[46.98,11.03],[49.73,11.22],[50.5,11.81],[51.09,11.48],[50.72,9.3],[49.79,8.32],[49.63,7.2],[48.68,6.16],[48.69,5.59],[47.92,5.12],[47.93,4.54],[46.86,3.82],[46.87,3.23],[45.41,2.04],[44.81,2.16],[43.6,1.18],[43.6,0.56],[39.99,-2.71],[39.74,-4.05],[39.17,-4.35],[38.58,-5.98],[39.23,-6.76],[39.46,-8.04],[39.04,-8.56],[39.62,-8.9],[39.69,-10.0],[40.26,-10.35],[40.67,-12.5],[40.25,-13.02],[40.74,-14.94],[40.4,-15.89],[39.03,-17.04],[37.22,-17.37],[36.85,-18.33],[34.79,-19.79],[35.46,-24.29],[34.73,-24.85],[34.01,-24.75],[33.53,-25.25],[32.81,-25.15],[32.41,-26.07],[32.73,-27.09],[32.25,-27.58],[32.4,-28.4],[30.97,-29.23],[30.62,-30.52],[29.95,-30.8],[29.91,-31.42],[28.45,-32.2],[28.41,-32.8],[26.93,-33.55],[26.99,-33.93],[28.19,-33.22],[30.19,-33.0],[30.84,-33.32],[32.37,-32.92],[34.34,-33.23],[36.32,-32.92],[37.42,-33.32],[38.08,-33.0],[38.72,-33.28],[39.37,-32.95],[41.29,-33.16],[42.73,-32.64],[43.36,-32.89],[45.98,-32.31],[46.4,-31.83],[48.6,-31.69],[49.02,-31.19],[49.9,-31.46],[54.11,-30.63],[55.65,-29.62],[60.43,-28.64],[60.82,-28.07],[63.51,-27.29],[64.21,-27.54],[70.91,-25.29],[72.74,-22.91],[73.47,-22.87],[74.37,-21.54],[76.13,-20.82],[78.32,-17.7],[79.02,-17.64],[78.36,-17.2],[78.65,-16.59],[78.24,-16.05],[78.37,-14.56],[79.71,-14.69],[80.76,-15.66],[81.44,-15.59],[82.3,-16.16],[83.52,-18.74],[85.07,-19.71],[85.27,-20.34],[89.51,-22.1],[90.62,-23.47],[92.18,-24.32],[93.11,-26.01],[93.78,-26.11],[94.25,-27.06],[95.59,-27.48],[96.75,-28.73],[101.61,-30.84],[102.21,-30.65],[103.31,-31.31],[103.89,-31.11],[104.5,-31.62],[105.98,-31.72],[108.69,-32.87],[111.81,-33.13],[113.26,-32.61],[115.54,-32.68],[115.6,-32.0],[116.16,-31.72],[115.0,-30.27],[115.25,-29.16],[114.17,-27.77],[114.29,-26.85],[114.76,-26.55],[114.77,-25.14],[114.38,-24.85],[114.5,-22.76],[115.26,-21.56],[115.82,-21.63],[116.53,-20.77],[118.09,-20.81],[119.21,-20.0],[120.83,-20.01],[122.56,-18.24],[122.3,-17.32],[123.02,-16.73],[123.32,-17.45],[123.72,-17.54],[124.01,-17.06],[123.71,-16.34],[124.34,-16.37],[124.48,-15.51],[126.45,-13.9],[127.51,-14.0],[128.42,-14.99],[129.34,-14.71],[129.22,-14.11],[130.85,-12.31],[132.64,-12.17],[132.52,-11.55],[131.9,-11.31],[132.18,-11.0],[132.95,-11.63],[134.05,-11.7],[134.39,-12.24],[136.05,-11.68],[136.67,-11.91],[136.98,-12.68],[136.38,-13.53],[137.0,-13.75],[137.11,-14.36],[135.86,-13.92],[135.84,-15.2],[137.13,-15.41],[138.21,-16.72],[139.58,-16.47],[139.98,-17.57],[140.4,-17.64],[141.27,-16.72],[141.59,-15.15],[141.23,-13.58],[141.84,-12.72],[141.54,-11.96],[142.34,-11.23],[142.47,-10.52],[142.92,-11.68],[143.53,-11.89],[143.21,-12.44],[143.8,-13.94],[145.4,-14.62],[145.69,-15.35],[145.37,-15.89],[145.66,-16.63],[146.44,-17.2],[146.11,-17.75],[146.42,-18.51],[147.06,-18.71],[147.17,-19.33],[147.99,-19.91],[149.35,-20.07],[149.69,-20.84],[149.37,-21.42],[150.51,-21.67],[151.39,-23.88],[152.09,-24.08],[152.67,-25.26],[153.44,-24.96],[152.95,-27.07],[153.59,-28.02],[153.18,-29.39],[153.39,-29.8],[152.81,-30.26],[152.9,-31.69],[151.04,-33.59],[151.21,-34.25],[150.27,-35.06],[150.43,-35.73],[149.8,-36.18],[149.97,-36.85],[149.63,-37.2],[149.84,-37.61],[148.43,-37.57],[148.64,-37.99],[149.75,-38.12],[150.95,-37.73],[151.43,-38.29],[152.86,-38.29],[153.36,-38.85],[154.23,-38.79],[154.74,-39.34],[156.19,-39.3],[156.72,-39.84],[158.74,-39.79],[159.29,-40.32],[163.04,-40.23],[163.61,-40.73],[165.04,-40.58],[165.63,-41.07],[170.42,-40.71],[171.02,-41.16],[172.67,-41.02],[173.31,-41.7],[174.08,-41.25],[173.89,-41.89],[174.18,-41.98],[174.66,-41.44],[175.81,-41.8],[176.22,-41.01],[177.19,-40.39],[179.51,-40.18],[180.0,-39.66],[180.0,-29.44]]],[[[-180.0,-24.99],[-175.09,-24.0],[-174.77,-23.42],[-174.21,-23.79],[-171.81,-23.07],[-171.23,-23.43],[-168.35,-22.52],[-167.75,-22.88],[-166.67,-22.43],[-166.06,-22.78],[-164.25,-22.24],[-163.97,-21.62],[-162.8,-21.38],[-161.99,-20.19],[-161.28,-20.75],[-159.77,-20.78],[-160.3,-21.36],[-159.93,-21.65],[-159.23,-20.86],[-154.89,-21.49],[-154.85,-22.16],[-153.97,-21.83],[-152.38,-22.46],[-148.82,-22.82],[-148.24,-22.43],[-146.76,-22.77],[-145.78,-22.19],[-145.12,-22.46],[-143.08,-21.51],[-142.92,-20.88],[-141.48,-20.32],[-141.34,-19.7],[-140.32,-19.75],[-140.69,-19.1],[-139.8,-18.11],[-139.92,-17.48],[-139.06,-16.51],[-139.06,-15.69],[-139.78,-15.24],[-139.89,-14.62],[-142.75,-12.77],[-144.46,-12.6],[-146.01,-11.84],[-147.73,-11.65],[-148.26,-12.0],[-149.6,-11.64],[-150.14,-11.98],[-151.83,-11.36],[-152.03,-11.95],[-152.63,-11.67],[-153.59,-12.17],[-154.18,-11.88],[-154.74,-12.22],[-155.34,-11.93],[-157.13,-12.72],[-157.73,-12.42],[-160.21,-13.3],[-160.46,-13.9],[-161.55,-14.15],[-162.31,-15.31],[-162.99,-15.41],[-163.34,-16.43],[-166.35,-17.39],[-167.36,-17.19],[-167.75,-16.68],[-168.43,-16.76],[-169.44,-15.69],[-170.1,-15.76],[-170.77,-14.97],[-171.42,-15.05],[-172.07,-14.27],[-171.37,-14.42],[-171.25,-14.02],[-172.13,-13.2],[-172.94,-13.45],[-172.36,-13.99],[-172.48,-14.39],[-173.06,-13.84],[-175.73,-13.44],[-176.05,-12.95],[-177.23,-13.29],[-179.37,-12.76],[-180.0,-13.01],[-180.0,-24.99]]],[[[155.35,-6.64],[155.05,-6.11],[154.78,-6.44],[155.48,-7.02],[155.35,-7.72],[155.96,-7.68],[156.48,-7.03],[156.52,-7.87],[158.15,-7.61],[159.31,-8.58],[159.77,-8.17],[159.65,-7.81],[159.02,-8.08],[159.16,-7.39],[157.43,-7.28],[157.0,-6.39],[156.01,-6.37],[155.88,-7.07],[155.35,-6.64]]],[[[167.01,11.11],[167.64,11.01],[168.05,11.45],[167.5,11.75],[166.54,11.61],[166.15,11.17],[166.7,10.87],[167.01,11.11]]],[[[25.94,31.46],[26.9,31.11],[27.62,31.4],[29.21,30.65],[30.47,31.42],[31.65,31.5],[31.86,30.85],[33.49,30.73],[34.89,31.67],[34.78,33.42],[32.74,34.43],[32.0,34.17],[30.87,34.77],[26.88,34.45],[26.2,34.83],[24.04,34.6],[23.34,34.96],[21.18,34.67],[20.66,34.15],[19.85,34.25],[20.04,33.39],[21.54,32.93],[22.25,33.25],[23.24,32.93],[23.51,32.3],[25.94,31.46]]],[[[170.06,10.42],[169.59,10.35],[170.35,10.09],[170.06,10.42]]],[[[-169.44,16.51],[-169.17,16.92],[-169.76,17.16],[-169.81,16.32],[-169.44,16.51]]],[[[-16.16,23.65],[-17.32,21.79],[-16.86,21.8],[-15.93,23.29],[-16.16,23.65]]],[[[11.92,-16.65],[11.97,-15.58],[11.59,-15.39],[11.54,-16.46],[11.92,-16.65]]],[[[15.47,-27.29],[15.01,-26.69],[14.98,-24.82],[14.42,-24.41],[14.31,-23.15],[14.79,-22.71],[13.77,-21.27],[13.15,-21.5],[12.74,-22.78],[12.0,-23.22],[10.08,-22.62],[8.34,-22.61],[7.6,-23.0],[7.11,-23.81],[7.14,-25.05],[8.1,-26.53],[8.02,-28.0],[9.03,-29.48],[9.72,-29.68],[11.24,-32.18],[11.94,-32.36],[12.61,-33.6],[13.74,-33.95],[13.95,-34.56],[16.5,-35.19],[19.77,-34.96],[18.71,-34.41],[18.73,-33.44],[18.12,-33.07],[18.63,-32.66],[18.54,-31.87],[17.46,-30.9],[17.53,-30.3],[16.94,-29.91],[16.97,-28.89],[16.12,-28.51],[15.47,-27.29]]],[[[13.24,-7.54],[12.76,-7.59],[12.92,-8.21],[13.24,-7.54]]],[[[11.68,-18.59],[12.91,-20.02],[12.99,-19.38],[12.01,-17.93],[11.68,-18.59]]],[[[13.34,-20.65],[13.05,-20.23],[12.97,-20.87],[13.37,-21.07],[13.34,-20.65]]],[[[159.09,-5.73],[160.05,-5.75],[159.97,-5.15],[159.22,-5.04],[159.09,-5.73]]],[[[176.67,-1.27],[176.22,-1.02],[175.87,-1.31],[176.68,-1.62],[176.67,-1.27]]],[[[171.6,-41.36],[171.36,-41.75],[171.65,-41.85],[171.92,-41.71],[171.6,-41.36]]],[[[142.31,26.3],[142.61,26.59],[142.25,27.1],[141.95,26.81],[142.31,26.3]]],[[[-136.18,-21.37],[-136.93,-21.35],[-136.41,-22.2],[-136.04,-22.0],[-136.18,-21.37]]],[[[-61.82,12.58],[-61.94,11.99],[-61.17,12.18],[-60.62,13.87],[-61.54,13.32],[-61.82,12.58]]],[[[12.64,-9.31],[13.32,-10.32],[13.54,-8.36],[12.61,-8.88],[12.64,-9.31]]],[[[-138.43,-21.31],[-138.31,-20.68],[-138.69,-20.46],[-138.81,-21.08],[-138.43,-21.31]]],[[[129.92,29.61],[130.25,30.12],[131.24,30.46],[131.41,31.28],[130.96,31.32],[130.04,30.24],[129.35,30.18],[129.47,29.65],[128.61,28.75],[129.79,28.98],[129.92,29.61]]],[[[174.28,-0.32],[173.99,-0.51],[175.09,-1.68],[174.74,-0.56],[174.28,-0.32]]],[[[-73.19,-32.03],[-73.11,-32.67],[-72.39,-32.67],[-72.55,-33.24],[-71.99,-33.79],[-71.52,-33.72],[-71.83,-33.23],[-71.24,-32.38],[-71.72,-30.59],[-71.14,-29.71],[-71.72,-28.9],[-70.98,-27.41],[-71.44,-27.48],[-71.78,-28.45],[-72.45,-28.67],[-73.21,-30.14],[-72.81,-31.31],[-73.19,-32.03]]],[[[-136.62,-18.27],[-136.25,-18.89],[-136.14,-18.28],[-136.62,-18.27]]],[[[127.49,-32.57],[126.91,-32.26],[126.55,-32.52],[127.14,-32.84],[127.49,-32.57]]],[[[168.56,4.5],[169.0,4.56],[168.79,5.04],[168.56,4.5]]],[[[-52.6,5.44],[-52.87,5.76],[-53.02,5.36],[-52.53,4.96],[-52.6,5.44]]],[[[-48.26,-26.06],[-48.38,-25.4],[-48.71,-26.11],[-48.26,-26.06]]],[[[-50.36,-30.48],[-51.1,-30.21],[-51.59,-31.18],[-52.24,-31.32],[-51.91,-31.81],[-52.73,-33.35],[-52.28,-33.33],[-51.67,-31.9],[-50.4,-31.41],[-50.12,-30.56],[-49.46,-30.41],[-49.63,-29.58],[-48.81,-29.08],[-48.94,-28.45],[-49.76,-28.95],[-50.36,-30.48]]],[[[-157.4,1.67],[-156.9,1.6],[-157.35,2.09],[-157.75,1.93],[-157.4,1.67]]],[[[-138.81,-18.99],[-138.81,-18.58],[-139.43,-18.34],[-139.06,-18.98],[-139.44,-19.59],[-138.44,-19.63],[-138.81,-18.99]]],[[[-59.56,13.57],[-59.89,13.05],[-59.64,12.77],[-59.07,13.01],[-59.56,13.57]]],[[[169.86,9.46],[169.84,8.9],[170.22,8.77],[170.56,9.56],[170.03,9.85],[169.86,9.46]]],[[[-53.22,-34.25],[-52.89,-33.65],[-53.17,-33.37],[-53.86,-34.37],[-53.58,-34.65],[-53.22,-34.25]]],[[[145.53,18.26],[145.79,17.22],[146.23,17.13],[145.98,18.17],[145.53,18.26]]],[[[-15.45,24.78],[-15.92,24.27],[-15.69,23.91],[-15.21,24.41],[-15.45,24.78]]],[[[7.81,2.36],[7.41,1.53],[8.18,1.45],[8.1,0.85],[8.93,-0.01],[8.5,-0.47],[8.85,-0.62],[9.55,0.87],[9.08,1.2],[9.83,1.9],[9.74,3.44],[9.25,4.13],[8.25,4.53],[7.39,4.38],[7.81,2.36]],[[9.06,3.71],[8.98,3.12],[8.3,3.4],[8.72,3.85],[9.06,3.71]]],[[[-134.9,-23.05],[-135.27,-22.84],[-135.26,-23.25],[-134.25,-23.67],[-134.27,-23.26],[-134.9,-23.05]]],[[[172.48,3.2],[172.66,2.74],[173.27,3.14],[173.09,3.61],[172.48,3.2]]],[[[145.22,20.15],[145.33,19.52],[145.77,19.43],[145.66,20.06],[145.22,20.15]]],[[[172.35,6.39],[171.76,6.48],[171.36,6.08],[172.45,5.71],[172.35,6.39]]],[[[-171.8,-8.77],[-172.08,-9.32],[-171.8,-9.58],[-171.52,-9.03],[-171.8,-8.77]]],[[[167.59,-9.76],[166.99,-9.63],[166.8,-9.93],[167.4,-10.06],[167.59,-9.76]]],[[[12.4,-5.93],[12.01,-5.34],[12.09,-6.6],[12.4,-5.93]]],[[[-139.77,-8.76],[-140.46,-8.69],[-140.43,-9.65],[-139.5,-9.35],[-139.39,-8.6],[-139.77,-8.76]]],[[[-46.59,-23.94],[-46.3,-24.25],[-45.19,-23.99],[-45.48,-23.68],[-46.59,-23.94]]],[[[-71.33,-17.33],[-71.74,-17.63],[-70.98,-18.4],[-70.8,-18.0],[-71.33,-17.33]]],[[[-73.89,-16.53],[-73.71,-16.13],[-74.21,-15.68],[-74.39,-16.08],[-73.89,-16.53]]],[[[13.58,-12.23],[13.93,-11.99],[13.7,-10.5],[13.35,-10.74],[13.58,-12.23]]],[[[-24.59,16.93],[-25.08,17.36],[-25.73,17.19],[-25.45,16.63],[-24.53,16.23],[-23.89,16.63],[-24.59,16.93]]],[[[-14.67,28.4],[-14.92,28.02],[-16.14,28.9],[-17.14,28.38],[-17.9,29.25],[-18.39,28.73],[-17.13,27.62],[-16.39,27.76],[-16.64,28.38],[-16.39,28.51],[-15.17,27.65],[-14.19,27.65],[-13.18,28.89],[-13.65,29.65],[-14.67,28.4]]],[[[173.49,1.57],[173.61,2.22],[172.75,2.11],[172.98,0.57],[173.49,1.57]]],[[[-169.35,-14.42],[-169.72,-13.92],[-170.13,-14.05],[-169.76,-14.55],[-169.35,-14.42]]],[[[-60.96,14.78],[-60.86,14.15],[-60.57,14.88],[-61.02,15.2],[-61.58,14.95],[-60.96,14.78]]],[[[-140.54,-7.91],[-141.01,-7.86],[-140.62,-8.29],[-140.23,-8.13],[-140.54,-7.91]]],[[[168.88,10.25],[168.56,10.02],[169.33,9.75],[168.88,10.25]]],[[[-140.6,-21.43],[-141.0,-22.05],[-140.35,-21.87],[-140.6,-21.43]]],[[[173.62,0.66],[173.36,0.16],[174.29,0.44],[173.62,0.66]]],[[[-159.25,4.29],[-159.8,3.92],[-159.1,3.4],[-158.9,4.02],[-159.25,4.29]]],[[[-161.22,-10.64],[-160.81,-10.49],[-160.82,-9.88],[-161.22,-10.02],[-161.22,-10.64]]],[[[-72.0,-17.29],[-72.29,-16.7],[-72.74,-16.76],[-72.45,-17.35],[-72.0,-17.29]]],[[[12.8,-13.37],[12.77,-12.95],[12.18,-13.21],[12.24,-14.06],[12.8,-13.37]]],[[[-48.33,-26.85],[-48.78,-26.9],[-48.53,-28.19],[-48.0,-27.37],[-48.33,-26.85]]],[[[166.67,-11.93],[167.28,-11.85],[166.66,-11.5],[166.64,-10.87],[166.25,-11.49],[166.67,-11.93]]],[[[-170.7,-3.37],[-171.36,-3.26],[-170.72,-3.75],[-170.7,-3.37]]],[[[131.09,26.24],[130.8,25.93],[131.17,25.44],[131.74,26.06],[131.09,26.24]]],[[[-16.91,32.58],[-16.39,32.32],[-15.87,33.34],[-17.7,32.95],[-16.91,32.58]]],[[[-76.37,-14.52],[-76.08,-15.13],[-75.64,-15.08],[-76.42,-14.02],[-76.5,-13.26],[-76.87,-14.06],[-76.37,-14.52]]],[[[-23.15,15.64],[-23.82,15.71],[-25.07,14.91],[-24.59,14.49],[-23.29,14.59],[-22.89,15.08],[-23.15,15.64]]],[[[91.01,22.14],[91.22,21.77],[91.93,21.86],[91.72,22.24],[91.01,22.14]]],[[[169.36,6.33],[169.42,5.99],[170.01,5.9],[169.95,6.24],[169.36,6.33]]],[[[171.4,8.03],[171.38,8.93],[170.62,9.2],[171.06,8.71],[170.65,8.29],[171.4,8.03]]],[[[-76.6,-12.24],[-77.02,-12.54],[-76.53,-13.0],[-76.6,-12.24]]],[[[154.53,-3.46],[154.97,-3.29],[154.67,-2.74],[154.53,-3.46]]],[[[-154.76,-4.35],[-154.71,-3.94],[-155.29,-3.66],[-155.34,-4.06],[-154.76,-4.35]]],[[[-56.83,-34.98],[-56.94,-34.42],[-57.81,-34.42],[-57.23,-35.17],[-56.55,-35.26],[-56.39,-34.98],[-56.83,-34.98]]],[[[-22.57,16.73],[-23.26,17.03],[-23.19,16.1],[-22.71,15.67],[-22.31,16.16],[-22.57,16.73]]],[[[175.7,-1.96],[175.88,-1.65],[175.44,-1.75],[175.44,-2.09],[175.7,-1.96]]],[[[-157.67,-9.13],[-157.61,-8.74],[-158.4,-9.03],[-157.67,-9.13]]],[[[90.27,21.55],[90.75,21.78],[90.06,21.93],[89.81,21.57],[90.27,21.55]]],[[[168.85,14.5],[169.34,14.57],[168.78,14.89],[168.44,14.64],[168.85,14.5]]],[[[-170.87,-11.39],[-170.76,-11.0],[-171.28,-10.69],[-171.39,-11.08],[-170.87,-11.39]]],[[[-70.68,-22.64],[-71.07,-23.18],[-70.8,-23.5],[-70.24,-22.57],[-70.5,-22.25],[-70.68,-22.64]]],[[[128.89,-32.12],[128.2,-32.03],[127.92,-32.71],[128.97,-32.52],[130.02,-32.97],[131.9,-32.61],[132.54,-32.91],[133.25,-32.33],[131.99,-32.37],[131.26,-31.66],[128.89,-32.12]]],[[[176.08,-5.71],[176.45,-5.79],[176.03,-5.34],[176.08,-5.71]]],[[[-47.98,-25.13],[-47.48,-25.3],[-47.36,-24.72],[-47.98,-25.13]]],[[[141.28,24.77],[141.39,24.17],[141.84,24.1],[141.42,25.43],[140.92,25.29],[141.28,24.77]]],[[[165.42,-10.6],[165.84,-11.25],[165.83,-10.62],[166.43,-10.54],[166.61,-10.03],[166.02,-10.31],[165.41,-9.97],[165.42,-10.6]]],[[[171.28,7.3],[170.91,7.43],[171.02,6.73],[172.33,7.26],[171.83,7.55],[171.28,7.3]]],[[[-162.49,5.77],[-161.75,5.68],[-162.17,6.59],[-162.56,6.42],[-162.49,5.77]]],[[[-65.22,32.26],[-64.31,32.52],[-64.73,32.66],[-65.22,32.26]]],[[[-60.51,44.01],[-60.5,43.61],[-60.0,43.83],[-60.51,44.01]]],[[[-66.55,43.61],[-66.49,43.21],[-65.49,43.3],[-66.55,43.61]]],[[[154.57,-5.43],[154.7,-5.82],[155.31,-5.79],[154.66,-4.96],[154.57,-5.43]]],[[[177.28,-12.69],[177.02,-12.22],[176.66,-12.32],[176.91,-12.79],[177.28,-12.69]]],[[[162.04,12.03],[162.06,11.46],[162.46,11.33],[162.44,11.9],[162.04,12.03]]],[[[139.75,33.16],[139.29,32.97],[140.18,32.89],[139.75,33.16]]],[[[-139.51,-10.12],[-138.82,-10.18],[-138.82,-9.42],[-139.39,-9.56],[-139.51,-10.12]]],[[[-163.38,-13.63],[-162.96,-13.49],[-162.96,-12.85],[-163.37,-12.99],[-163.38,-13.63]]],[[[165.28,11.8],[165.75,11.29],[165.59,12.04],[165.28,11.8]]],[[[175.88,-2.34],[176.02,-2.88],[176.23,-2.4],[175.88,-2.34]]],[[[-149.83,-10.19],[-150.28,-9.73],[-150.67,-9.88],[-150.22,-10.34],[-149.83,-10.19]]],[[[180.0,-9.03],[179.68,-9.73],[180.0,-9.67],[180.0,-9.03]]],[[[-138.3,-22.36],[-139.07,-21.49],[-139.07,-22.34],[-138.3,-22.36]]]]}}]}