{"type":"FeatureCollection","features":[{"type":"Feature","properties":{},"geometry":{"type":"MultiPolygon","coordinates":[[[[-13.43,28.77],[-13.18,28.89],[-13.17,29.14],[-13.41,29.27],[-13.4,29.52],[-13.65,29.65],[-13.9,29.53],[-13.9,29.28],[-14.92,28.02],[-15.16,28.15],[-15.16,28.4],[-15.9,28.52],[-15.9,28.77],[-16.14,28.9],[-16.39,28.77],[-16.64,28.89],[-17.14,28.38],[-17.9,29.25],[-18.39,28.73],[-18.38,28.47],[-18.13,28.35],[-18.37,27.72],[-17.86,27.22],[-17.62,27.36],[-17.62,27.61],[-17.87,27.73],[-17.88,27.98],[-17.63,28.11],[-17.13,27.62],[-16.39,27.76],[-16.39,28.01],[-16.15,28.14],[-15.66,27.64],[-14.92,27.77],[-14.19,27.65],[-13.44,28.52],[-13.43,28.77]]],[[[5.68,58.37],[6.31,58.23],[6.58,58.06],[6.49,57.87],[6.78,57.76],[7.45,57.72],[8.32,58.07],[9.0,58.03],[9.1,58.22],[8.81,58.33],[8.91,58.52],[9.81,58.86],[10.8,58.69],[10.69,58.5],[11.16,58.06],[11.05,57.87],[9.97,57.86],[9.37,57.4],[8.7,57.45],[7.84,57.1],[7.74,56.9],[8.02,56.79],[7.46,56.31],[7.93,55.87],[7.37,55.39],[8.02,55.35],[8.29,55.23],[8.2,55.02],[7.56,55.07],[7.19,54.99],[7.1,54.79],[6.1,54.75],[6.02,54.54],[5.22,54.17],[4.61,54.25],[3.71,53.55],[3.38,53.5],[3.31,53.29],[2.98,53.25],[2.9,53.04],[2.57,52.99],[2.5,52.78],[2.17,52.73],[1.71,53.27],[0.49,53.49],[0.56,53.71],[0.06,54.24],[0.13,54.45],[-0.79,54.72],[-0.73,54.93],[-1.25,55.46],[-1.19,55.67],[-2.15,55.92],[-2.09,56.13],[-2.4,56.29],[-2.34,56.5],[-3.02,56.59],[-3.07,56.38],[-3.44,56.33],[-3.49,56.11],[-2.82,56.02],[-2.51,55.87],[-2.57,55.65],[-1.61,55.4],[-2.08,54.92],[-1.55,54.39],[-2.01,53.9],[-1.72,53.75],[-1.55,53.15],[-2.18,53.25],[-2.12,53.47],[-2.65,54.0],[-2.6,54.21],[-3.25,54.31],[-3.05,53.72],[-3.8,53.37],[-4.44,53.46],[-4.49,53.24],[-4.83,53.17],[-4.88,52.94],[-4.33,52.42],[-4.37,52.19],[-5.35,52.2],[-5.39,51.98],[-5.73,51.9],[-5.77,51.68],[-4.85,51.45],[-4.64,50.84],[-5.35,50.47],[-5.97,50.54],[-6.01,50.31],[-6.7,49.92],[-6.74,49.69],[-6.45,49.54],[-5.76,49.93],[-4.86,49.7],[-4.53,49.78],[-4.49,50.01],[-3.56,50.0],[-3.13,50.52],[-2.81,50.59],[-1.34,50.25],[-0.63,50.6],[0.54,50.4],[0.8,50.24],[0.74,50.02],[-0.16,50.06],[-0.22,49.84],[0.04,49.67],[-0.02,49.45],[-0.33,49.39],[-1.18,49.65],[-1.12,49.87],[-1.39,50.03],[-2.31,50.05],[-2.36,49.83],[-3.42,49.16],[-3.47,48.93],[-4.06,49.01],[-4.75,48.63],[-5.35,48.7],[-5.39,48.47],[-4.87,47.93],[-4.91,47.7],[-3.47,47.39],[-3.52,47.16],[-4.18,46.77],[-4.0,46.15],[-5.0,45.43],[-5.04,45.19],[-4.78,45.04],[-5.16,44.48],[-4.34,44.26],[-4.72,43.69],[-8.1,44.05],[-8.73,43.61],[-9.0,43.76],[-9.3,43.66],[-9.33,43.42],[-9.63,43.32],[-9.65,43.07],[-8.88,42.14],[-9.22,41.55],[-8.72,41.01],[-8.74,40.77],[-9.34,40.31],[-9.13,39.67],[-9.96,39.61],[-9.98,39.36],[-9.72,39.21],[-9.74,38.97],[-9.01,38.04],[-9.33,37.43],[-9.08,37.29],[-9.1,37.04],[-8.85,36.9],[-8.58,37.01],[-8.33,36.86],[-8.35,36.61],[-7.59,36.43],[-7.62,36.18],[-7.37,36.04],[-7.1,36.14],[-6.35,35.95],[-6.18,35.32],[-6.74,34.86],[-7.35,33.91],[-7.61,33.81],[-7.85,33.95],[-8.4,33.48],[-8.64,33.62],[-8.9,33.51],[-8.93,33.26],[-10.03,32.07],[-10.05,31.82],[-9.81,31.68],[-9.83,31.43],[-10.08,31.32],[-10.1,31.07],[-9.87,30.93],[-9.89,30.68],[-10.14,30.57],[-9.94,29.94],[-10.19,29.82],[-10.48,29.21],[-11.21,29.11],[-11.49,28.49],[-12.22,28.38],[-12.46,28.51],[-12.97,28.02],[-13.21,28.14],[-13.45,28.02],[-13.46,27.77],[-13.71,27.65],[-13.49,27.02],[-14.21,26.9],[-14.22,26.65],[-15.2,25.4],[-14.97,24.78],[-15.68,24.65],[-15.69,24.4],[-15.92,24.27],[-15.92,24.03],[-17.32,22.03],[-17.08,21.43],[-17.31,21.3],[-17.54,20.69],[-17.31,20.58],[-17.08,20.71],[-16.62,20.24],[-16.85,19.64],[-16.17,18.83],[-16.17,18.59],[-16.4,18.47],[-16.18,17.89],[-16.62,17.41],[-16.62,17.17],[-16.4,17.07],[-16.4,16.83],[-16.83,16.35],[-16.61,15.79],[-17.04,15.09],[-17.47,15.07],[-17.68,14.72],[-16.82,13.64],[-17.03,13.29],[-17.03,13.07],[-16.82,12.97],[-17.02,12.41],[-16.81,12.09],[-16.19,12.02],[-16.6,11.13],[-16.19,11.15],[-15.79,10.75],[-15.58,11.08],[-15.18,11.1],[-14.78,10.27],[-14.18,10.2],[-13.81,9.38],[-13.22,9.31],[-13.43,8.99],[-13.24,8.69],[-13.45,8.17],[-12.87,8.1],[-13.09,7.59],[-12.7,7.61],[-12.52,7.32],[-12.14,7.34],[-11.96,7.06],[-11.4,6.99],[-11.24,6.51],[-10.86,6.53],[-10.53,5.97],[-9.98,5.91],[-9.66,5.17],[-9.3,5.19],[-9.14,4.92],[-8.78,4.94],[-8.62,4.67],[-8.26,4.69],[-7.94,4.34],[-7.23,4.38],[-6.84,4.77],[-6.32,4.71],[-5.92,5.09],[-4.87,5.15],[-4.72,5.0],[-4.33,5.26],[-3.51,4.9],[-3.11,5.16],[-1.93,4.68],[-1.53,4.95],[-1.18,4.83],[-0.92,5.25],[-0.38,5.17],[-0.12,5.59],[0.43,5.52],[0.67,5.75],[1.02,5.64],[1.3,6.06],[1.86,5.99],[2.1,6.22],[2.47,6.11],[2.71,6.34],[3.24,6.07],[3.7,6.35],[4.81,5.99],[5.27,4.57],[6.44,4.03],[6.96,4.31],[7.29,4.18],[7.6,4.42],[7.93,4.29],[8.25,4.53],[8.7,4.23],[9.23,4.5],[9.25,4.13],[8.3,3.4],[8.98,3.12],[9.06,3.71],[9.62,3.61],[9.8,2.28],[9.38,1.83],[9.41,1.44],[9.08,1.2],[9.27,-0.16],[8.52,-0.86],[8.99,-1.2],[8.91,-1.81],[9.38,-2.15],[9.4,-2.56],[9.75,-2.72],[9.78,-3.12],[10.36,-3.25],[10.51,-3.85],[11.1,-3.99],[11.25,-4.59],[11.49,-4.57],[11.62,-4.76],[11.64,-5.17],[11.88,-5.15],[12.01,-5.34],[11.93,-5.98],[12.43,-6.35],[12.36,-6.99],[12.86,-7.36],[12.79,-8.01],[13.3,-8.38],[12.85,-8.86],[13.01,-9.48],[12.91,-9.71],[13.42,-10.09],[13.32,-10.32],[13.45,-10.52],[13.7,-10.5],[13.84,-10.7],[13.76,-11.35],[13.9,-11.56],[14.53,-11.72],[14.64,-11.49],[14.5,-11.29],[14.61,-11.06],[14.08,-10.68],[14.19,-10.45],[14.82,-10.61],[15.28,-10.13],[15.91,-10.29],[16.02,-10.06],[16.27,-10.03],[16.45,-10.67],[17.88,-11.18],[17.95,-10.52],[17.8,-10.31],[17.55,-10.34],[17.41,-10.13],[17.51,-9.9],[18.56,-10.23],[18.71,-10.44],[18.96,-10.41],[19.02,-9.74],[19.27,-9.72],[19.42,-9.92],[19.32,-10.15],[19.47,-10.36],[19.0,-10.85],[19.15,-11.05],[19.05,-11.28],[18.39,-11.13],[18.33,-11.8],[17.71,-12.08],[17.61,-12.31],[17.75,-12.52],[17.29,-13.0],[17.44,-13.21],[17.33,-13.44],[17.07,-13.46],[16.89,-12.82],[17.0,-12.59],[17.25,-12.56],[17.31,-11.9],[16.77,-11.51],[16.17,-11.79],[15.99,-11.15],[15.74,-11.17],[15.67,-11.83],[16.2,-12.22],[16.1,-12.45],[15.06,-12.11],[15.03,-13.2],[14.78,-13.22],[14.31,-13.69],[14.46,-13.9],[14.7,-13.88],[14.81,-13.65],[15.06,-13.63],[15.6,-14.02],[15.85,-14.0],[16.03,-14.64],[16.65,-14.37],[17.19,-14.77],[17.81,-14.49],[18.37,-14.88],[18.62,-14.86],[18.82,-15.51],[18.71,-15.74],[18.09,-16.01],[17.53,-15.62],[17.27,-15.64],[17.17,-15.87],[16.51,-15.7],[16.4,-15.93],[16.15,-15.95],[15.6,-15.55],[15.35,-15.57],[15.24,-15.8],[15.78,-16.19],[15.67,-16.42],[15.82,-16.62],[16.08,-16.61],[16.22,-16.81],[16.15,-17.47],[16.7,-17.87],[16.6,-18.1],[16.74,-18.3],[17.82,-18.66],[17.97,-18.87],[17.91,-19.53],[18.06,-19.74],[18.69,-19.47],[21.8,-20.97],[22.45,-20.69],[23.04,-21.08],[23.31,-21.05],[23.52,-21.69],[23.79,-21.67],[23.96,-21.87],[23.9,-22.53],[24.5,-22.91],[24.4,-23.14],[24.56,-23.34],[24.83,-23.31],[25.0,-23.51],[24.89,-23.74],[25.06,-23.94],[24.57,-24.42],[24.73,-24.62],[24.62,-24.85],[25.23,-25.22],[25.24,-26.29],[25.47,-26.9],[25.36,-27.13],[25.98,-27.49],[25.93,-28.13],[25.65,-28.15],[25.54,-28.37],[25.78,-28.98],[25.67,-29.19],[24.99,-29.46],[24.94,-30.09],[24.27,-30.35],[24.21,-30.96],[23.93,-30.98],[21.84,-32.33],[21.39,-32.15],[20.71,-32.38],[20.26,-32.21],[20.05,-31.62],[20.56,-31.19],[20.34,-30.6],[21.24,-29.94],[20.63,-29.56],[21.14,-29.12],[20.97,-28.93],[21.09,-28.71],[20.48,-28.33],[20.5,-27.29],[20.34,-27.09],[19.63,-26.92],[19.13,-27.37],[19.29,-27.57],[19.18,-27.78],[18.9,-27.79],[18.79,-28.0],[18.09,-27.83],[17.88,-27.21],[18.38,-26.78],[18.65,-26.76],[18.77,-26.55],[18.61,-26.35],[18.34,-26.36],[18.22,-26.57],[17.53,-26.4],[17.03,-26.83],[16.38,-27.06],[16.23,-26.86],[16.26,-25.82],[15.69,-25.42],[15.81,-25.21],[15.65,-25.0],[16.14,-24.56],[15.58,-24.16],[15.69,-23.95],[15.5,-23.32],[15.24,-23.33],[15.13,-23.55],[15.35,-24.59],[15.24,-24.81],[14.98,-24.82],[14.83,-24.61],[14.76,-22.29],[14.61,-22.08],[14.35,-22.09],[14.42,-24.41],[14.64,-25.45],[14.53,-25.66],[14.94,-25.86],[15.01,-25.23],[15.28,-25.22],[15.43,-25.43],[15.35,-26.06],[15.51,-26.26],[15.01,-26.69],[15.2,-27.3],[15.09,-27.51],[15.51,-27.71],[15.62,-27.5],[15.89,-27.49],[16.46,-27.89],[16.35,-28.09],[16.08,-28.1],[15.66,-27.91],[15.55,-28.11],[15.7,-28.32],[16.39,-28.5],[16.51,-28.29],[16.78,-28.29],[16.93,-28.49],[16.43,-28.91],[17.02,-29.3],[16.99,-30.31],[17.58,-30.7],[17.5,-31.3],[18.1,-31.68],[18.03,-32.28],[18.19,-32.47],[17.68,-32.88],[17.93,-33.85],[17.82,-34.04],[19.77,-34.96],[20.45,-34.74],[20.57,-34.55],[21.02,-34.72],[21.71,-34.5],[22.17,-34.67],[22.23,-34.08],[23.14,-34.42],[23.83,-34.18],[24.46,-34.53],[25.15,-34.28],[25.27,-34.08],[25.73,-34.24],[26.42,-33.99],[26.88,-34.14],[28.58,-32.98],[28.87,-32.95],[28.91,-32.35],[30.37,-31.57],[30.41,-30.95],[31.08,-30.66],[31.18,-30.44],[31.01,-30.26],[31.5,-29.78],[31.32,-29.6],[31.42,-29.38],[32.85,-28.55],[32.95,-28.32],[32.7,-27.73],[33.18,-27.23],[32.93,-26.63],[33.03,-26.4],[33.31,-26.36],[33.34,-25.71],[33.98,-25.4],[34.45,-24.89],[34.73,-24.85],[34.9,-25.03],[35.54,-24.71],[35.64,-24.48],[35.46,-24.29],[35.93,-23.78],[35.6,-22.74],[35.69,-22.51],[35.44,-21.89],[35.38,-20.8],[35.21,-20.61],[34.95,-20.65],[34.77,-20.46],[34.87,-20.22],[36.93,-18.76],[36.94,-18.09],[37.2,-18.04],[37.65,-17.52],[37.9,-17.47],[38.07,-17.66],[38.68,-17.33],[38.77,-17.09],[38.6,-16.9],[38.34,-16.94],[38.25,-17.18],[37.99,-17.23],[37.83,-17.04],[37.92,-16.8],[38.17,-16.75],[38.18,-16.08],[39.13,-15.46],[39.14,-14.79],[39.73,-14.46],[39.74,-13.79],[40.41,-13.89],[40.66,-14.51],[40.57,-14.75],[40.74,-14.94],[40.99,-14.89],[41.08,-14.65],[40.42,-11.88],[40.84,-11.36],[40.67,-11.17],[40.6,-10.07],[39.61,-9.57],[40.03,-9.06],[39.86,-8.86],[39.62,-8.9],[39.37,-8.28],[39.46,-8.04],[39.71,-8.0],[39.87,-8.2],[40.11,-8.16],[40.2,-7.92],[39.63,-7.57],[39.71,-7.34],[39.47,-6.72],[39.56,-6.48],[39.8,-6.44],[39.88,-6.21],[39.72,-6.02],[40.13,-5.51],[39.82,-4.47],[39.9,-4.24],[40.14,-4.2],[40.22,-3.97],[40.06,-3.78],[40.15,-3.55],[40.39,-3.51],[40.39,-2.87],[41.9,-1.78],[41.9,-1.15],[43.68,0.16],[43.68,0.78],[43.91,0.81],[44.89,1.76],[45.49,1.64],[46.96,2.84],[46.94,3.44],[48.3,4.38],[48.28,4.97],[49.05,5.44],[48.97,5.81],[49.24,6.03],[49.23,6.59],[49.71,6.83],[49.63,7.2],[49.9,7.41],[49.88,7.96],[50.62,8.39],[50.6,8.93],[51.06,9.15],[50.87,10.21],[50.99,10.4],[51.28,10.24],[51.59,10.43],[51.23,10.77],[51.33,11.85],[50.74,12.19],[50.54,12.18],[50.39,11.62],[49.88,11.77],[49.44,11.38],[49.13,11.55],[48.59,11.33],[48.29,11.49],[47.96,11.29],[47.65,11.45],[47.31,11.24],[47.0,11.41],[46.86,10.84],[46.55,11.0],[45.99,10.78],[45.67,10.94],[45.22,10.53],[44.67,10.67],[44.34,10.46],[43.9,10.8],[43.91,11.18],[43.58,11.34],[43.71,12.32],[44.06,12.53],[44.62,12.38],[46.11,13.44],[46.44,13.26],[47.0,13.49],[47.32,13.31],[48.12,13.93],[48.65,13.76],[49.11,14.16],[49.14,14.54],[49.48,14.74],[50.0,14.57],[50.46,14.97],[50.98,14.79],[52.31,15.57],[52.47,16.14],[53.8,16.9],[54.08,16.71],[54.61,16.9],[54.89,16.71],[55.34,17.08],[55.31,17.63],[55.46,17.77],[56.43,17.87],[56.51,18.19],[57.04,18.4],[57.12,18.73],[57.89,18.88],[58.07,20.08],[59.03,20.38],[59.14,21.27],[59.72,21.49],[59.85,22.39],[60.02,22.54],[58.35,24.1],[57.52,23.92],[56.94,24.25],[56.95,24.82],[56.62,25.09],[56.78,25.25],[56.7,25.46],[56.37,25.73],[56.54,25.89],[57.21,25.93],[57.63,25.44],[58.31,25.47],[58.64,25.2],[59.25,25.44],[59.83,25.1],[60.26,25.19],[60.58,24.91],[61.02,24.99],[61.34,24.71],[63.28,25.18],[63.84,24.82],[66.52,25.26],[66.43,24.68],[67.12,24.67],[67.03,24.09],[67.33,23.8],[68.01,23.78],[68.31,23.49],[68.88,22.9],[68.77,22.34],[69.57,21.68],[70.44,20.61],[71.09,20.59],[71.45,21.05],[72.11,21.03],[72.48,21.5],[72.71,21.41],[72.74,21.2],[72.54,21.07],[72.77,20.53],[72.57,20.17],[72.77,19.84],[72.57,19.48],[72.97,19.04],[72.77,18.45],[73.17,18.0],[73.37,18.36],[73.17,18.7],[73.57,19.19],[72.97,20.2],[73.57,21.28],[73.31,21.8],[73.95,21.98],[74.47,23.23],[74.86,23.71],[74.57,24.24],[74.97,24.73],[74.95,24.95],[75.62,25.12],[75.86,25.03],[75.88,24.81],[76.58,24.76],[76.99,25.24],[76.98,25.47],[77.66,25.63],[78.15,25.22],[78.83,25.38],[79.31,24.96],[79.74,25.44],[80.19,25.0],[81.75,25.18],[83.32,25.1],[83.79,25.58],[84.25,25.59],[84.5,26.18],[84.28,26.29],[84.29,26.52],[84.53,26.64],[84.54,26.87],[84.31,26.99],[84.11,27.56],[83.17,27.53],[82.71,27.97],[82.0,27.83],[81.28,28.6],[81.28,28.84],[81.51,28.96],[81.76,28.86],[81.76,28.62],[82.47,28.54],[82.47,28.31],[82.71,28.2],[83.65,28.23],[83.89,28.35],[83.89,28.58],[82.95,28.55],[82.47,29.0],[81.99,28.98],[82.23,29.57],[81.26,29.54],[80.76,29.98],[80.76,30.22],[79.78,30.17],[79.26,30.62],[78.77,30.59],[78.21,31.51],[77.44,31.58],[77.43,31.82],[76.3,32.96],[76.27,33.2],[76.0,33.3],[75.98,33.54],[75.71,33.65],[75.68,33.89],[75.4,33.99],[75.38,34.24],[75.1,34.34],[75.07,34.58],[74.79,34.68],[74.76,34.93],[73.42,34.93],[73.38,35.18],[73.63,35.33],[74.45,35.28],[74.7,35.42],[74.67,35.67],[73.31,35.67],[72.85,35.13],[71.91,35.91],[71.46,35.35],[69.57,35.25],[69.52,35.5],[69.96,36.06],[69.91,36.3],[70.69,36.53],[70.99,36.43],[71.44,36.99],[70.7,37.93],[71.17,38.49],[71.12,38.74],[70.46,39.18],[67.96,38.73],[67.65,38.82],[67.59,39.07],[68.4,39.31],[69.27,39.29],[69.73,39.87],[70.04,39.78],[70.3,39.94],[70.97,39.5],[71.45,40.07],[73.49,40.14],[73.99,40.7],[73.96,40.95],[74.23,41.1],[74.54,41.0],[75.99,41.23],[75.96,41.49],[75.65,41.59],[74.78,41.4],[74.12,41.87],[73.61,41.31],[73.29,41.41],[73.49,42.07],[73.17,42.17],[72.3,41.96],[71.98,42.06],[71.48,41.49],[70.79,41.93],[70.52,41.77],[70.2,41.87],[70.15,42.12],[70.42,42.28],[70.74,42.19],[71.01,42.35],[71.34,42.25],[71.61,42.41],[71.93,42.31],[72.21,42.47],[72.53,42.37],[72.81,42.53],[73.13,42.43],[75.82,42.76],[76.13,42.65],[76.5,42.03],[77.41,41.96],[77.96,42.5],[78.27,42.38],[78.56,42.52],[78.54,42.78],[77.63,42.87],[76.74,42.69],[76.42,42.8],[76.39,43.06],[76.68,43.2],[77.0,43.09],[78.51,43.29],[79.15,42.8],[79.72,43.33],[80.64,43.23],[81.23,43.75],[81.53,43.63],[81.25,42.99],[82.15,42.87],[82.75,43.39],[83.05,43.26],[83.35,43.39],[83.35,43.64],[82.44,43.77],[82.44,44.02],[82.14,44.15],[81.83,44.02],[81.53,44.14],[81.52,44.4],[81.21,44.52],[79.05,44.34],[78.73,44.46],[79.0,45.11],[80.56,45.28],[80.86,45.92],[81.17,46.06],[81.81,45.55],[81.82,45.3],[81.51,45.16],[81.83,44.53],[82.14,44.4],[83.67,44.53],[84.27,44.02],[87.58,44.06],[87.94,44.68],[87.38,45.21],[87.4,45.46],[87.72,45.57],[87.74,45.83],[86.83,45.99],[86.85,46.24],[86.54,46.38],[84.34,46.31],[84.03,46.44],[84.03,46.7],[83.08,46.83],[83.08,47.09],[82.76,47.22],[81.79,47.09],[81.47,47.21],[81.12,47.85],[81.45,47.98],[82.11,47.47],[83.73,47.59],[85.34,47.43],[86.01,47.92],[86.03,48.18],[85.71,48.31],[84.73,48.21],[84.41,48.35],[84.42,48.6],[83.43,48.74],[83.43,49.0],[83.1,49.13],[82.1,49.0],[81.76,49.13],[81.76,49.39],[82.09,49.51],[82.43,49.39],[83.11,49.89],[83.11,50.15],[82.77,50.28],[82.77,50.53],[83.12,50.65],[83.12,50.91],[82.42,51.42],[82.07,51.3],[82.08,51.04],[81.39,50.53],[81.04,50.66],[77.93,50.47],[77.57,50.58],[77.23,50.44],[77.26,50.19],[76.24,50.01],[76.27,49.76],[75.94,49.61],[72.85,49.54],[69.83,49.13],[69.03,49.56],[68.72,49.39],[67.68,49.4],[67.6,49.65],[67.9,49.82],[67.83,50.07],[66.77,50.06],[66.69,50.32],[67.0,50.49],[66.92,50.74],[66.53,50.82],[66.23,50.65],[66.31,50.39],[66.01,50.22],[65.16,50.63],[65.08,50.87],[64.69,50.95],[64.6,51.2],[63.52,51.16],[62.93,51.72],[62.54,51.79],[62.25,51.61],[61.35,51.98],[61.06,51.8],[60.67,51.86],[60.04,52.4],[60.33,52.58],[60.21,52.82],[59.81,52.88],[59.69,53.12],[59.98,53.31],[59.86,53.55],[59.45,53.6],[59.32,53.84],[58.91,53.89],[58.62,53.7],[58.75,53.47],[58.47,53.28],[58.59,53.04],[58.31,52.85],[58.43,52.61],[58.16,52.42],[57.76,52.47],[57.63,52.71],[57.91,52.9],[57.78,53.14],[56.83,53.47],[56.7,53.7],[57.67,54.04],[57.54,54.28],[57.82,54.46],[57.13,54.98],[57.42,55.17],[57.28,55.4],[56.86,55.45],[56.72,55.68],[57.01,55.87],[56.87,56.1],[57.16,56.29],[56.43,56.8],[55.99,56.84],[55.84,57.07],[56.14,57.26],[55.99,57.49],[55.54,57.52],[55.39,57.75],[53.47,57.46],[53.3,57.68],[53.59,57.88],[53.42,58.1],[52.97,58.13],[52.8,58.35],[52.35,58.37],[52.07,58.17],[50.99,58.43],[50.81,58.65],[51.08,58.85],[50.9,59.07],[49.72,58.9],[49.53,59.11],[49.07,59.12],[47.57,59.77],[46.39,59.57],[44.85,60.18],[43.03,60.55],[42.8,60.75],[43.04,60.96],[42.81,61.16],[40.98,60.69],[40.05,61.05],[40.26,61.26],[40.02,61.45],[39.56,61.42],[39.32,61.61],[38.86,61.58],[38.0,61.13],[36.86,61.25],[36.6,61.43],[36.8,61.64],[36.54,61.82],[36.73,62.04],[35.75,62.35],[35.95,62.57],[35.68,62.74],[35.22,62.7],[34.95,62.88],[34.49,62.84],[34.31,62.62],[34.58,62.45],[33.78,61.97],[33.34,61.93],[33.07,62.1],[32.04,61.79],[31.77,61.96],[30.64,62.02],[30.36,62.18],[30.51,62.4],[30.23,62.56],[26.66,63.03],[26.25,62.97],[25.61,62.47],[23.83,62.55],[23.32,63.05],[23.42,63.27],[23.11,63.41],[23.71,63.91],[24.65,64.27],[24.76,64.49],[24.44,64.63],[24.02,64.56],[23.4,64.05],[22.27,64.04],[21.7,63.53],[21.0,63.58],[21.56,64.09],[21.24,64.22],[20.84,64.14],[20.77,63.93],[19.67,63.89],[19.61,63.68],[18.79,63.3],[18.73,63.09],[19.04,62.96],[20.3,63.63],[20.62,63.5],[20.54,63.29],[21.08,62.81],[20.56,62.3],[21.08,61.81],[21.01,61.6],[21.3,61.46],[21.22,61.25],[19.7,60.49],[18.55,60.55],[18.11,60.99],[17.38,61.07],[17.52,61.25],[17.23,61.38],[17.37,61.55],[17.95,61.77],[17.66,61.89],[17.8,62.07],[17.06,62.15],[16.91,61.98],[17.21,61.85],[16.49,61.46],[16.79,61.33],[16.65,61.15],[16.94,61.03],[16.8,60.85],[15.81,60.57],[14.56,59.92],[12.42,60.12],[11.89,59.87],[10.77,59.86],[8.13,58.38],[7.06,58.34],[6.14,58.59],[5.77,58.56],[5.68,58.37]],[[11.93,41.62],[12.25,41.68],[12.47,41.52],[12.38,41.28],[12.74,40.71],[14.67,40.44],[14.89,40.27],[14.8,40.03],[15.55,39.73],[15.57,39.08],[15.26,39.02],[15.16,38.79],[14.32,38.84],[14.35,38.19],[13.52,38.24],[13.17,38.83],[12.46,38.46],[11.98,37.92],[12.33,37.33],[14.19,37.05],[14.53,36.45],[15.35,36.39],[15.44,36.63],[15.23,36.81],[15.73,37.35],[15.52,37.53],[15.61,37.77],[16.45,37.7],[16.96,38.23],[16.75,38.41],[16.85,38.65],[17.58,39.0],[17.58,39.65],[16.83,39.96],[16.93,40.19],[17.25,40.25],[17.47,40.07],[17.79,40.12],[18.11,39.52],[18.86,39.85],[19.07,39.67],[19.4,39.72],[19.61,39.53],[19.5,39.3],[20.24,38.97],[20.13,38.73],[20.34,38.54],[19.8,38.02],[20.53,37.69],[20.42,37.45],[20.63,37.26],[20.94,37.31],[21.24,36.68],[22.07,36.57],[22.35,35.95],[23.18,35.83],[23.37,35.63],[23.26,35.39],[23.53,34.76],[23.84,34.8],[24.04,34.6],[24.77,34.9],[24.96,34.7],[25.77,34.57],[26.75,35.33],[27.55,35.18],[27.62,35.85],[28.42,35.69],[28.49,36.36],[30.29,35.83],[30.86,36.3],[30.68,36.51],[30.81,36.73],[31.12,36.75],[31.3,36.54],[32.1,36.36],[32.32,35.72],[32.63,35.73],[32.76,35.96],[33.07,35.97],[33.24,35.76],[31.79,34.82],[32.91,34.22],[32.78,33.99],[32.48,33.98],[31.83,34.38],[31.09,34.12],[30.44,34.52],[29.7,34.25],[29.03,34.64],[28.29,34.36],[28.11,34.56],[27.8,34.54],[27.68,34.31],[27.37,34.28],[26.69,34.66],[26.38,34.63],[25.84,34.13],[25.53,34.1],[25.34,34.3],[24.61,33.99],[24.42,34.2],[24.11,34.16],[24.0,33.92],[23.69,33.89],[23.58,33.65],[23.77,33.45],[25.55,32.98],[27.68,32.08],[28.4,32.37],[28.58,32.16],[29.83,31.82],[30.0,31.61],[29.88,31.38],[29.16,31.1],[27.56,31.85],[26.84,31.55],[26.18,31.93],[25.46,31.63],[25.21,32.27],[24.42,32.41],[24.23,32.61],[23.51,32.3],[23.24,32.93],[22.94,32.9],[21.75,33.41],[21.45,33.37],[21.34,33.13],[19.83,32.23],[19.73,31.98],[19.92,31.79],[19.91,31.11],[18.83,30.48],[18.54,31.11],[18.24,31.06],[16.08,31.81],[15.79,31.75],[15.36,32.8],[15.07,32.74],[13.37,33.3],[12.7,32.93],[11.5,33.34],[11.45,34.01],[10.74,34.29],[10.82,34.54],[11.62,34.49],[11.7,34.74],[11.23,35.75],[11.31,35.99],[11.1,36.17],[11.56,36.72],[11.21,37.3],[10.91,37.23],[9.14,37.7],[8.11,37.0],[6.37,37.42],[5.73,37.02],[4.0,37.4],[3.72,37.32],[3.66,37.08],[2.89,37.06],[2.83,36.82],[2.56,36.73],[1.36,37.01],[1.09,36.92],[1.04,36.68],[0.29,36.65],[-0.07,36.09],[-0.33,36.0],[-0.55,36.16],[-1.12,35.74],[-1.33,35.9],[-1.6,35.81],[-1.64,35.57],[-2.2,35.15],[-2.91,35.35],[-2.87,35.6],[-3.09,35.75],[-3.66,35.32],[-4.38,35.52],[-4.65,35.42],[-4.88,35.57],[-4.84,35.81],[-4.58,35.91],[-4.34,35.76],[-3.77,36.19],[-3.05,35.99],[-2.48,36.41],[-2.26,36.26],[-1.51,36.29],[-1.15,36.85],[-1.37,37.01],[-1.33,37.25],[-0.58,37.26],[-0.21,37.82],[-0.43,37.97],[-0.38,38.21],[0.2,38.61],[-0.09,39.63],[0.84,40.34],[1.23,40.9],[2.02,40.94],[2.42,41.49],[3.23,41.53],[3.29,41.76],[3.59,41.85],[3.48,42.46],[3.25,42.6],[3.67,43.16],[5.04,43.13],[6.35,42.85],[7.05,43.24],[7.12,43.48],[7.98,43.48],[8.46,44.02],[9.33,44.02],[10.12,43.78],[9.23,42.94],[8.37,42.94],[8.29,42.71],[8.52,42.55],[8.05,42.01],[8.43,41.46],[8.74,41.53],[8.97,41.37],[8.89,41.14],[8.05,41.14],[7.6,40.59],[8.35,40.35],[8.27,40.12],[7.97,40.04],[7.9,39.8],[8.12,39.64],[7.67,39.09],[8.42,38.84],[8.34,38.6],[8.56,38.44],[9.24,38.82],[9.31,39.06],[10.14,39.04],[10.22,39.28],[9.86,39.85],[10.33,40.4],[9.96,40.96],[10.05,41.2],[9.82,41.36],[9.9,41.59],[9.67,41.76],[9.76,41.99],[10.61,41.97],[10.7,42.21],[11.02,42.28],[11.24,42.11],[11.56,42.18],[11.93,41.62]],[[34.16,27.45],[34.28,27.68],[34.56,27.7],[34.72,27.48],[35.43,27.3],[35.58,27.09],[35.46,26.86],[35.61,26.65],[35.88,26.67],[36.03,26.45],[35.91,26.23],[36.05,26.02],[36.33,26.03],[36.48,25.82],[36.35,25.6],[36.91,25.19],[36.79,24.96],[36.95,24.32],[38.03,23.94],[38.17,23.73],[38.04,23.51],[38.18,23.3],[38.45,23.31],[38.58,23.1],[38.46,22.88],[38.99,22.48],[38.87,22.26],[38.6,22.24],[38.49,21.6],[38.62,21.39],[38.88,21.4],[39.02,21.2],[38.89,20.98],[39.02,20.77],[39.28,20.79],[39.41,20.58],[39.29,20.36],[39.8,19.97],[39.68,19.33],[40.94,18.56],[40.57,18.34],[40.45,18.12],[40.57,17.92],[41.19,18.16],[41.31,17.96],[41.92,17.79],[42.04,17.59],[41.92,17.38],[41.19,16.93],[41.31,16.73],[41.55,16.75],[41.67,16.14],[41.91,16.16],[42.38,15.78],[42.38,15.38],[41.9,14.95],[42.02,14.75],[42.61,14.99],[42.59,13.8],[41.66,14.13],[41.54,14.72],[40.95,14.88],[40.94,15.29],[41.3,15.51],[40.82,15.89],[40.94,16.1],[40.82,16.29],[40.58,16.28],[40.46,16.48],[40.58,16.69],[40.45,16.89],[39.84,16.64],[39.72,16.84],[39.47,16.82],[39.34,17.02],[39.46,17.23],[38.96,17.62],[39.08,17.83],[38.95,18.03],[38.7,18.02],[38.57,18.22],[39.06,18.67],[38.55,19.06],[38.67,19.27],[38.54,19.48],[37.91,19.23],[37.38,19.62],[37.45,21.54],[36.91,21.94],[37.03,22.16],[36.89,22.37],[36.62,22.35],[36.48,22.56],[36.61,22.78],[36.46,22.99],[35.79,23.17],[35.64,23.38],[35.76,23.6],[36.45,23.43],[36.57,23.65],[36.01,24.05],[35.74,24.04],[35.57,24.68],[35.3,24.67],[35.15,24.88],[35.28,25.1],[34.7,25.51],[34.8,26.17],[35.08,26.19],[35.2,26.41],[35.05,26.62],[34.77,26.61],[34.65,26.38],[34.37,26.36],[34.16,27.45]],[[19.3,40.79],[19.19,40.55],[18.86,40.51],[18.65,40.69],[17.78,40.77],[17.45,41.36],[17.13,41.31],[16.36,41.61],[16.34,42.25],[17.11,42.59],[18.43,42.16],[18.76,42.21],[18.98,42.03],[18.87,41.8],[19.09,41.62],[18.98,41.39],[19.3,40.79]],[[13.18,44.01],[12.81,44.56],[12.9,44.79],[12.67,44.95],[12.77,45.18],[13.1,45.25],[13.33,45.08],[13.24,44.86],[13.47,44.69],[13.8,44.76],[14.04,44.59],[13.94,44.36],[14.17,44.2],[14.5,44.26],[14.73,44.09],[14.63,43.86],[15.42,43.58],[15.44,42.95],[15.67,42.78],[16.0,42.83],[16.22,42.66],[16.12,42.43],[15.79,42.37],[15.57,42.54],[14.81,42.19],[14.46,42.77],[14.56,43.0],[14.33,43.17],[14.43,43.4],[13.64,43.67],[13.74,43.9],[13.51,44.07],[13.18,44.01]],[[-8.61,6.84],[-8.63,6.64],[-8.09,6.58],[-8.31,6.09],[-7.83,5.46],[-8.04,5.16],[-8.66,6.26],[-9.58,6.31],[-9.56,6.5],[-9.0,6.63],[-8.98,6.82],[-8.61,6.84]],[[-8.95,7.21],[-9.11,7.49],[-9.31,7.39],[-9.72,6.78],[-9.89,7.07],[-9.47,7.67],[-9.85,7.66],[-10.27,7.05],[-10.62,7.42],[-10.39,7.93],[-10.56,8.22],[-9.73,9.26],[-8.96,9.29],[-8.8,8.99],[-8.24,8.91],[-8.1,8.42],[-7.55,8.35],[-7.24,7.77],[-7.66,7.17],[-8.95,7.21]],[[37.37,46.24],[37.19,46.45],[37.35,46.64],[37.69,46.63],[37.88,46.03],[37.72,45.84],[37.39,45.84],[37.21,46.05],[37.37,46.24]],[[25.67,59.7],[25.03,59.79],[25.13,60.01],[25.5,60.07],[25.77,59.92],[25.67,59.7]],[[55.69,26.27],[55.77,26.06],[55.35,25.96],[55.27,26.17],[55.43,26.33],[55.69,26.27]],[[20.68,59.76],[22.37,59.4],[21.79,59.19],[21.64,59.01],[21.91,58.86],[21.19,58.47],[21.46,58.32],[21.31,58.14],[21.7,57.66],[21.14,57.44],[20.99,57.26],[21.26,57.11],[21.11,56.92],[20.44,57.03],[19.49,56.76],[18.54,57.01],[19.23,57.43],[18.95,57.58],[19.09,57.76],[19.65,57.99],[19.24,58.46],[18.27,58.19],[18.13,58.0],[18.41,57.86],[17.73,57.44],[17.04,57.53],[17.18,57.72],[16.9,57.86],[17.58,58.28],[17.3,58.42],[17.43,58.61],[18.54,58.56],[19.25,58.97],[18.97,59.11],[19.11,59.29],[20.68,59.76]],[[37.42,41.56],[36.6,41.78],[36.43,41.99],[35.64,41.78],[35.43,42.4],[34.15,41.98],[33.94,42.6],[35.04,43.23],[35.88,43.02],[36.03,43.23],[36.36,43.23],[38.45,44.21],[38.78,44.2],[38.96,43.58],[40.25,43.13],[41.36,42.47],[41.21,42.27],[41.36,41.65],[40.27,41.08],[39.49,41.31],[39.33,41.11],[39.02,41.12],[38.86,41.33],[38.07,41.14],[37.42,41.56]],[[13.58,-2.43],[13.14,-2.9],[12.18,-2.61],[12.02,-2.01],[11.79,-2.04],[10.94,-1.54],[11.27,-1.29],[11.35,-0.67],[11.71,-0.83],[11.73,-1.23],[13.05,-1.67],[13.21,-2.27],[13.45,-2.24],[13.58,-2.43]],[[49.98,29.51],[49.83,29.32],[49.94,29.11],[50.91,28.58],[50.96,27.99],[51.67,27.47],[52.34,27.54],[54.52,25.75],[55.19,25.8],[55.2,25.22],[54.37,25.02],[54.36,25.59],[54.11,25.65],[53.88,25.12],[54.21,24.86],[54.3,24.66],[54.14,24.5],[53.49,24.45],[53.07,24.92],[53.22,25.07],[53.13,25.28],[52.88,25.33],[52.48,25.22],[52.33,25.07],[52.42,24.86],[52.04,24.72],[51.98,25.32],[51.66,25.54],[51.85,26.1],[51.75,26.31],[51.41,26.57],[50.8,26.4],[50.35,26.83],[50.11,26.84],[50.08,27.87],[49.45,27.7],[48.99,28.13],[48.74,28.15],[48.66,28.77],[48.41,28.78],[48.3,29.0],[48.84,29.38],[48.72,29.59],[48.87,29.79],[49.26,29.97],[49.51,29.96],[49.98,29.51]],[[9.95,46.45],[9.88,47.05],[11.04,46.89],[10.52,46.37],[9.95,46.45]],[[83.69,45.3],[83.37,45.17],[83.06,45.3],[82.75,45.94],[83.7,46.06],[84.64,45.92],[84.63,45.67],[83.69,45.55],[83.69,45.3]],[[10.87,1.46],[11.22,1.32],[11.12,1.1],[10.57,0.82],[10.54,1.22],[10.07,1.54],[10.4,1.79],[10.87,1.46]],[[24.56,39.71],[24.35,39.91],[24.48,40.14],[24.8,40.17],[25.0,39.97],[24.88,39.75],[24.56,39.71]],[[72.18,22.0],[72.38,22.13],[72.65,21.84],[72.21,21.79],[72.18,22.0]],[[35.54,35.61],[35.41,35.39],[35.57,35.18],[35.43,34.96],[35.59,34.75],[35.48,34.09],[34.75,33.85],[34.59,34.07],[34.29,34.06],[34.15,33.83],[33.85,33.82],[33.21,34.23],[33.35,34.46],[34.09,34.7],[34.19,35.36],[34.5,35.37],[35.08,35.82],[34.91,36.03],[34.6,36.02],[34.02,35.57],[33.72,35.56],[33.55,35.77],[33.68,35.99],[34.88,36.46],[35.05,36.25],[35.35,36.26],[35.54,35.61]],[[28.48,42.18],[28.15,42.15],[27.95,42.35],[28.02,42.99],[28.89,42.83],[29.09,42.63],[28.95,42.42],[29.15,42.22],[29.48,42.23],[29.68,42.03],[29.54,41.82],[30.26,41.43],[30.12,41.21],[29.79,41.2],[29.07,41.58],[28.74,41.56],[28.48,42.18]],[[25.93,39.41],[25.61,39.38],[25.41,39.58],[25.53,39.81],[25.86,39.84],[26.06,39.64],[25.93,39.41]],[[43.05,13.44],[42.7,13.22],[42.59,13.4],[42.71,13.61],[43.05,13.44]],[[14.35,-3.17],[14.22,-2.98],[13.98,-3.01],[13.82,-2.4],[14.49,-1.9],[14.69,-2.92],[14.35,-3.17]],[[11.01,57.17],[11.4,57.24],[11.68,57.11],[11.57,56.92],[10.69,56.58],[10.4,56.71],[11.01,57.17]],[[68.99,35.43],[69.04,35.18],[68.81,35.02],[68.52,35.11],[68.46,35.35],[68.7,35.51],[68.99,35.43]],[[18.14,56.97],[18.01,56.78],[17.33,56.87],[17.46,57.06],[17.87,57.11],[18.14,56.97]],[[-4.19,53.08],[-2.92,52.91],[-2.97,52.69],[-3.31,52.62],[-3.12,52.02],[-3.75,52.11],[-3.7,52.33],[-4.24,52.86],[-4.19,53.08]],[[75.66,49.21],[75.98,49.36],[76.33,49.24],[76.36,48.99],[76.04,48.84],[75.69,48.95],[75.66,49.21]],[[23.62,57.63],[23.36,57.79],[23.51,57.97],[24.19,57.84],[23.62,57.63]],[[56.71,26.63],[56.97,26.57],[57.05,26.36],[56.88,26.2],[56.54,26.47],[56.71,26.63]],[[23.6,36.1],[23.64,36.77],[23.95,36.8],[24.15,36.61],[24.97,36.48],[25.24,35.84],[25.55,35.87],[25.67,36.11],[25.99,36.14],[26.18,35.94],[26.06,35.7],[25.32,35.41],[23.6,36.1]],[[12.52,56.72],[12.41,56.53],[11.74,56.59],[11.85,56.79],[12.24,56.85],[12.52,56.72]],[[12.39,47.17],[12.63,47.01],[12.53,46.79],[11.95,46.88],[12.05,47.1],[12.39,47.17]],[[26.64,60.26],[26.91,60.1],[26.8,59.88],[26.15,59.98],[26.26,60.2],[26.64,60.26]],[[25.56,38.73],[24.71,38.86],[24.51,39.06],[24.63,39.29],[24.96,39.32],[25.16,39.12],[25.48,39.15],[25.68,38.96],[25.56,38.73]],[[24.67,38.2],[24.79,38.43],[25.11,38.47],[26.34,37.93],[26.22,37.7],[25.9,37.67],[24.67,38.2]],[[-11.1,8.9],[-10.88,9.21],[-10.31,9.13],[-10.74,8.51],[-11.1,8.9]],[[8.23,46.67],[8.48,46.53],[8.39,46.3],[7.66,45.92],[7.42,46.06],[7.91,46.6],[8.23,46.67]],[[34.75,61.67],[34.58,61.45],[34.14,61.41],[33.88,61.59],[34.05,61.8],[34.49,61.84],[34.75,61.67]],[[6.7,45.68],[7.26,45.61],[7.19,45.38],[6.87,45.3],[6.63,45.45],[6.7,45.68]],[[-2.83,49.08],[-2.51,49.15],[-2.24,48.99],[-2.29,48.76],[-2.88,48.85],[-2.83,49.08]]],[[[39.88,-16.66],[40.14,-16.61],[40.23,-16.37],[40.06,-16.18],[39.46,-16.52],[39.37,-16.76],[39.54,-16.95],[39.8,-16.9],[39.88,-16.66]]],[[[76.52,11.0],[76.72,10.87],[76.93,10.99],[77.35,11.96],[77.15,12.09],[76.94,11.72],[76.33,11.61],[76.52,11.0]]],[[[52.29,12.44],[52.09,12.43],[52.06,12.07],[52.38,12.27],[52.29,12.44]]],[[[2.58,40.03],[2.19,39.47],[2.58,38.94],[2.86,39.03],[3.08,38.88],[3.71,39.29],[3.77,39.52],[4.57,39.54],[4.63,39.78],[4.41,39.93],[4.47,40.17],[3.73,40.38],[3.44,40.3],[3.38,40.06],[2.58,40.03]]],[[[79.8,41.8],[79.51,41.67],[79.52,41.41],[78.65,41.25],[78.66,41.0],[78.12,40.46],[76.66,40.51],[76.13,39.96],[75.25,40.03],[74.98,39.88],[74.78,39.22],[75.08,39.12],[75.11,38.87],[75.97,38.8],[76.0,38.55],[76.29,38.45],[76.08,37.8],[76.37,37.69],[76.7,37.08],[76.99,36.98],[78.35,37.18],[79.22,36.35],[80.03,36.51],[80.02,36.76],[80.29,36.89],[81.12,36.05],[81.65,36.56],[83.0,36.47],[83.27,36.6],[83.27,36.84],[84.08,36.97],[84.08,37.22],[84.36,37.35],[85.16,37.22],[85.73,37.71],[85.99,37.59],[86.26,37.71],[86.57,38.32],[86.85,38.44],[87.12,38.31],[87.94,38.41],[87.72,39.04],[88.31,39.51],[88.09,40.15],[88.38,40.26],[88.41,40.51],[87.89,41.03],[87.92,41.28],[87.07,41.43],[87.41,42.05],[86.55,42.2],[86.57,42.45],[86.29,42.59],[85.99,42.47],[85.97,42.22],[86.25,42.08],[86.24,41.83],[85.94,41.71],[85.39,42.23],[82.15,42.11],[81.86,42.23],[81.27,41.71],[79.8,41.8]]],[[[54.16,12.34],[54.48,12.53],[54.13,12.87],[53.61,12.68],[53.34,12.85],[53.3,12.49],[52.86,12.11],[53.14,11.94],[53.57,12.32],[53.85,12.15],[54.16,12.34]]],[[[18.18,-26.16],[18.29,-25.94],[18.14,-25.74],[17.87,-25.75],[17.75,-25.97],[17.91,-26.17],[18.18,-26.16]]],[[[12.46,36.91],[12.25,37.09],[11.94,37.02],[11.86,36.78],[12.07,36.61],[12.37,36.67],[12.46,36.91]]],[[[121.86,24.2],[121.9,24.43],[121.48,24.44],[121.44,24.22],[121.64,24.1],[121.86,24.2]]],[[[-25.41,38.17],[-25.68,38.02],[-25.65,37.76],[-25.35,37.66],[-25.09,37.8],[-25.12,38.06],[-25.41,38.17]]],[[[11.54,-16.46],[11.76,-17.94],[11.65,-18.16],[11.79,-18.37],[12.04,-18.36],[12.0,-16.01],[11.86,-15.8],[11.62,-15.81],[11.54,-16.46]]],[[[52.45,25.8],[52.2,25.85],[52.04,25.69],[52.14,25.48],[52.54,25.59],[52.45,25.8]]],[[[35.1,65.44],[35.3,65.65],[35.01,65.81],[34.5,65.77],[34.3,65.56],[34.6,65.39],[34.4,65.18],[34.7,65.01],[34.5,64.8],[34.79,64.63],[34.59,64.42],[34.88,64.25],[36.12,64.16],[36.4,63.99],[36.2,63.77],[36.47,63.6],[37.64,63.88],[37.91,63.71],[38.39,63.74],[38.61,63.95],[38.34,64.13],[38.57,64.34],[38.3,64.52],[37.8,64.48],[36.75,64.8],[37.69,65.26],[37.4,65.43],[36.18,65.14],[35.1,65.44]],[[36.25,64.76],[36.05,64.54],[35.56,64.5],[35.27,64.67],[35.48,64.89],[35.97,64.93],[36.25,64.76]]],[[[-8.68,51.87],[-8.71,51.64],[-8.4,51.49],[-7.69,51.89],[-7.66,52.12],[-8.31,52.18],[-8.34,51.95],[-8.68,51.87]]],[[[88.97,43.12],[88.69,43.26],[88.38,43.14],[88.61,42.5],[88.88,42.37],[90.33,42.41],[90.13,43.05],[89.85,43.19],[88.97,43.12]]],[[[12.24,-14.06],[12.16,-14.71],[12.29,-14.92],[12.54,-14.9],[12.62,-14.25],[12.48,-14.04],[12.24,-14.06]]],[[[75.34,13.42],[75.93,12.09],[76.13,11.97],[76.33,12.09],[76.14,12.7],[76.75,12.82],[76.75,13.06],[76.55,13.19],[76.35,13.06],[75.94,13.55],[75.34,13.42]]],[[[92.15,43.04],[91.84,42.94],[91.8,42.69],[92.07,42.54],[92.93,42.6],[92.97,42.84],[92.71,42.99],[92.41,42.89],[92.15,43.04]]],[[[74.74,13.54],[74.54,13.17],[74.93,12.7],[75.13,13.06],[74.74,13.54]]],[[[73.36,16.95],[73.56,17.31],[73.36,17.42],[73.16,17.3],[73.36,16.95]]],[[[5.4,59.28],[5.31,59.09],[5.59,58.92],[5.96,58.95],[6.05,59.14],[5.4,59.28]]],[[[84.63,53.91],[83.53,54.06],[83.15,53.94],[83.15,53.69],[83.52,53.56],[83.51,53.31],[83.15,53.19],[83.14,52.93],[83.5,52.8],[83.5,52.55],[84.19,52.03],[85.96,52.11],[85.98,52.36],[86.34,52.47],[86.36,52.72],[84.58,52.91],[84.59,53.16],[85.68,53.25],[85.7,53.5],[85.34,53.64],[85.36,53.89],[85.0,54.02],[84.63,53.91]]],[[[73.36,16.24],[74.34,14.25],[74.74,14.26],[73.56,16.6],[73.16,16.59],[73.36,16.24]]],[[[85.28,27.93],[85.52,28.04],[85.53,28.27],[85.3,28.38],[85.06,28.27],[85.05,28.04],[85.28,27.93]]],[[[115.48,-34.61],[115.92,-34.47],[115.52,-34.25],[115.36,-34.42],[115.48,-34.61]]],[[[75.52,11.37],[75.91,10.64],[76.11,10.52],[76.31,10.64],[75.73,11.97],[75.53,12.09],[75.32,11.97],[75.52,11.37]]],[[[7.51,1.74],[7.4,1.91],[7.08,1.67],[7.41,1.53],[7.51,1.74]]],[[[40.48,-15.65],[40.74,-15.61],[40.82,-15.37],[40.65,-15.18],[40.06,-15.51],[39.98,-15.75],[40.14,-15.94],[40.4,-15.89],[40.48,-15.65]]],[[[-8.91,52.69],[-8.88,52.92],[-9.2,53.06],[-9.54,52.98],[-9.57,52.75],[-8.91,52.69]]],[[[-24.78,16.56],[-24.57,16.7],[-24.59,16.93],[-25.08,17.36],[-25.29,17.23],[-25.45,16.63],[-24.78,16.56]]],[[[-122.9,45.38],[-123.14,45.21],[-123.06,45.0],[-122.75,44.96],[-122.35,45.5],[-122.43,45.71],[-122.75,45.76],[-122.98,45.59],[-122.9,45.38]]],[[[-16.39,33.34],[-16.39,33.09],[-16.65,32.96],[-17.44,33.08],[-17.7,32.95],[-17.7,32.69],[-17.43,32.57],[-17.17,32.7],[-16.65,32.19],[-15.87,33.09],[-15.87,33.34],[-16.13,33.47],[-16.39,33.34]]],[[[12.43,-18.55],[12.18,-18.56],[12.07,-18.78],[12.21,-18.99],[12.46,-18.98],[12.57,-18.76],[12.43,-18.55]]],[[[-122.17,47.45],[-121.93,47.61],[-122.01,47.81],[-122.33,47.86],[-122.41,48.06],[-122.98,47.94],[-122.9,47.73],[-122.57,47.69],[-122.66,47.12],[-122.1,47.24],[-122.17,47.45]]],[[[120.09,23.61],[120.5,23.6],[120.8,24.14],[120.38,24.15],[120.09,23.61]]],[[[12.91,-13.15],[13.51,-12.89],[13.61,-12.66],[13.47,-12.46],[12.88,-12.72],[12.77,-12.95],[12.91,-13.15]]],[[[121.49,23.22],[121.53,23.44],[121.11,23.46],[121.07,23.24],[121.26,23.11],[121.49,23.22]]],[[[-23.78,15.25],[-23.76,15.02],[-23.33,15.05],[-23.35,15.28],[-23.57,15.38],[-23.78,15.25]]],[[[-3.75,55.05],[-3.8,54.83],[-3.14,54.74],[-3.09,54.95],[-3.39,55.11],[-3.75,55.05]]],[[[-24.2,14.98],[-24.22,15.21],[-24.44,15.31],[-24.65,15.18],[-24.63,14.95],[-24.2,14.98]]],[[[6.8,0.66],[6.27,0.39],[6.29,0.0],[6.84,-0.11],[6.8,0.66]]],[[[17.0,-22.4],[17.15,-22.6],[17.41,-22.59],[17.52,-22.37],[17.37,-22.16],[17.11,-22.18],[17.0,-22.4]]],[[[115.86,-33.58],[116.07,-32.73],[115.69,-32.52],[115.47,-33.37],[115.86,-33.58]]],[[[41.9,15.75],[41.66,15.74],[41.66,15.33],[42.02,15.56],[41.9,15.75]]],[[[-9.94,52.44],[-10.29,52.35],[-10.31,52.12],[-9.65,52.07],[-9.62,52.3],[-9.94,52.44]]],[[[83.77,49.12],[84.1,48.99],[84.43,49.11],[84.44,49.36],[83.79,49.88],[83.44,49.76],[83.77,49.12]]],[[[-28.34,38.7],[-28.6,38.55],[-28.57,38.29],[-28.26,38.19],[-28.0,38.35],[-28.04,38.6],[-28.34,38.7]]],[[[11.94,-15.15],[11.83,-15.37],[11.97,-15.58],[12.22,-15.57],[12.32,-15.34],[12.19,-15.14],[11.94,-15.15]]],[[[25.54,65.21],[25.66,65.42],[25.34,65.56],[25.46,65.78],[25.13,65.92],[24.35,65.98],[23.91,65.91],[23.8,65.69],[24.89,65.49],[24.78,65.28],[24.34,65.2],[24.23,64.99],[24.55,64.85],[25.74,64.85],[25.86,65.06],[25.54,65.21]]],[[[1.85,39.15],[1.91,39.38],[1.68,39.53],[1.4,39.44],[1.35,39.2],[1.07,39.11],[1.19,38.49],[1.41,38.35],[2.02,38.76],[2.07,39.0],[1.85,39.15]]],[[[12.84,35.66],[13.14,35.72],[13.23,35.96],[13.02,36.14],[12.72,36.08],[12.25,35.53],[12.46,35.35],[12.75,35.42],[12.84,35.66]]],[[[91.27,42.98],[91.01,43.12],[90.7,43.02],[90.67,42.77],[90.93,42.62],[91.24,42.73],[91.27,42.98]]],[[[12.45,-13.62],[12.59,-13.82],[12.83,-13.8],[12.94,-13.58],[12.8,-13.37],[12.56,-13.39],[12.45,-13.62]]],[[[73.34,6.97],[73.14,7.09],[72.76,6.63],[73.14,5.91],[73.33,6.02],[73.14,6.62],[73.34,6.97]]],[[[12.6,-19.19],[12.49,-19.4],[12.63,-19.61],[12.88,-19.6],[12.99,-19.38],[12.85,-19.17],[12.6,-19.19]]],[[[77.12,10.14],[77.32,9.76],[77.53,10.13],[77.13,10.62],[76.92,10.5],[77.12,10.14]]],[[[-5.99,52.28],[-6.94,52.5],[-7.28,52.42],[-7.32,52.2],[-6.37,51.98],[-6.03,52.05],[-5.99,52.28]]],[[[14.17,-21.46],[13.92,-21.47],[13.8,-21.69],[13.95,-21.9],[14.21,-21.89],[14.32,-21.67],[14.17,-21.46]]],[[[-9.05,51.55],[-9.7,51.61],[-9.73,51.38],[-9.42,51.24],[-9.08,51.32],[-9.05,51.55]]],[[[-5.87,52.95],[-6.52,53.03],[-6.56,52.8],[-6.25,52.65],[-5.91,52.73],[-5.87,52.95]]],[[[13.79,-11.78],[13.55,-11.8],[13.44,-12.03],[13.58,-12.23],[13.83,-12.21],[13.93,-11.99],[13.79,-11.78]]],[[[13.34,-20.65],[13.42,-20.0],[13.27,-19.8],[13.02,-19.81],[12.94,-20.45],[13.09,-20.66],[13.34,-20.65]]],[[[-22.99,16.47],[-23.2,16.33],[-23.19,16.1],[-22.96,16.0],[-22.75,16.13],[-22.76,16.37],[-22.99,16.47]]],[[[21.81,64.73],[21.49,64.87],[21.08,64.78],[21.0,64.57],[21.73,64.52],[21.81,64.73]]],[[[14.44,36.21],[14.13,36.15],[14.04,35.91],[14.25,35.73],[14.56,35.79],[14.65,36.03],[14.44,36.21]]],[[[13.37,-21.07],[13.52,-21.28],[13.77,-21.27],[13.88,-21.05],[13.74,-20.84],[13.48,-20.85],[13.37,-21.07]]],[[[-123.06,48.9],[-123.38,48.94],[-123.63,48.78],[-123.54,48.58],[-122.98,48.7],[-123.06,48.9]]],[[[-24.34,16.6],[-24.32,16.37],[-23.87,16.4],[-23.89,16.63],[-24.12,16.73],[-24.34,16.6]]]]}}]}