{"type":"FeatureCollection","features":[{"type":"Feature","properties":{},"geometry":{"type":"MultiPolygon","coordinates":[[[[108.34,12.46],[107.23,12.46],[107.56,11.41],[107.76,11.26],[107.99,11.36],[108.2,11.21],[108.17,10.96],[107.94,10.86],[107.73,11.01],[107.24,10.55],[107.04,10.7],[106.81,10.6],[106.26,9.64],[106.03,9.54],[106.0,9.28],[106.21,9.13],[106.44,9.24],[106.98,10.2],[107.22,10.3],[107.42,10.15],[107.91,10.61],[108.11,10.46],[108.34,10.56],[108.63,11.16],[108.43,11.31],[108.45,11.56],[108.68,11.66],[108.71,11.91],[108.94,12.01],[109.14,11.86],[109.12,11.61],[108.89,11.51],[108.86,11.26],[109.06,11.11],[109.55,11.55],[109.4,12.2],[109.63,12.3],[109.66,12.55],[109.46,12.7],[108.97,12.26],[108.42,13.21],[108.19,13.11],[108.34,12.46]]],[[[19.64,74.2],[20.31,74.3],[20.22,74.51],[19.45,74.61],[19.35,74.82],[17.87,74.81],[18.0,74.6],[19.64,74.2]]],[[[-14.22,66.45],[-16.35,66.72],[-17.45,66.32],[-17.85,66.46],[-17.75,66.69],[-18.15,66.83],[-18.66,66.74],[-18.74,66.51],[-19.81,66.09],[-21.13,66.26],[-21.06,66.49],[-21.49,66.62],[-23.36,66.67],[-24.38,66.22],[-24.41,65.99],[-25.38,65.52],[-25.41,65.29],[-24.08,65.16],[-24.11,64.92],[-24.57,64.81],[-24.6,64.58],[-22.46,64.43],[-22.51,64.2],[-22.95,64.09],[-23.0,63.86],[-21.33,63.82],[-20.94,63.69],[-21.0,63.46],[-20.32,62.98],[-19.39,63.41],[-18.23,63.24],[-17.8,63.33],[-17.71,63.56],[-16.48,63.6],[-15.84,64.14],[-14.59,64.16],[-13.9,64.68],[-12.85,65.05],[-12.72,65.27],[-13.06,65.42],[-12.93,65.64],[-14.11,65.86],[-13.98,66.08],[-14.34,66.22],[-14.22,66.45]]],[[[-66.94,70.04],[-67.38,70.24],[-68.12,70.21],[-68.4,69.98],[-67.96,69.78],[-68.24,69.55],[-67.8,69.35],[-68.08,69.12],[-67.65,68.92],[-66.95,68.94],[-66.66,69.17],[-67.09,69.38],[-66.8,69.61],[-67.23,69.81],[-66.94,70.04]]],[[[44.02,15.47],[43.79,15.46],[43.78,15.06],[44.13,15.28],[44.02,15.47]]],[[[141.53,24.84],[141.42,25.43],[140.97,25.51],[141.39,24.17],[141.84,24.1],[141.73,24.69],[141.53,24.84]]],[[[-52.49,71.65],[-54.37,71.94],[-54.71,72.17],[-55.51,72.19],[-55.95,71.99],[-55.6,71.77],[-56.03,71.57],[-54.59,71.09],[-55.02,70.89],[-54.7,70.66],[-55.11,70.46],[-54.8,70.24],[-55.21,70.04],[-54.89,69.81],[-55.29,69.61],[-53.99,69.12],[-53.31,69.09],[-52.9,69.29],[-52.21,69.26],[-51.94,69.03],[-54.49,68.49],[-54.2,68.26],[-54.58,68.06],[-54.3,67.83],[-54.67,67.63],[-54.39,67.4],[-54.76,67.19],[-53.59,66.71],[-53.95,66.51],[-53.7,66.28],[-54.05,66.07],[-53.8,65.84],[-54.14,65.64],[-53.89,65.41],[-52.48,65.12],[-52.24,64.89],[-52.59,64.69],[-52.36,64.46],[-52.7,64.25],[-52.47,64.02],[-51.91,63.99],[-51.7,63.76],[-52.03,63.56],[-51.82,63.33],[-51.27,63.29],[-51.07,63.06],[-51.4,62.86],[-50.47,62.36],[-50.79,62.16],[-50.6,61.93],[-49.39,61.62],[-49.21,61.39],[-49.53,61.19],[-49.35,60.96],[-48.86,60.92],[-48.04,60.41],[-46.75,60.51],[-46.6,60.28],[-45.51,59.94],[-45.37,59.71],[-44.91,59.65],[-44.58,59.84],[-43.54,59.49],[-42.42,59.79],[-43.12,60.32],[-41.96,60.61],[-42.67,61.15],[-41.49,61.43],[-41.6,61.67],[-42.08,61.73],[-42.2,61.97],[-41.83,62.15],[-41.95,62.38],[-41.58,62.56],[-41.7,62.8],[-40.45,63.07],[-40.56,63.31],[-40.17,63.47],[-40.28,63.71],[-39.89,63.88],[-39.99,64.12],[-39.59,64.28],[-39.7,64.52],[-40.22,64.6],[-40.34,64.84],[-38.98,65.09],[-39.09,65.33],[-38.66,65.49],[-36.22,65.55],[-35.78,65.7],[-35.86,65.94],[-35.41,66.09],[-34.89,66.0],[-34.43,66.15],[-34.5,66.39],[-33.05,66.58],[-33.1,66.82],[-32.19,67.34],[-32.24,67.58],[-31.28,68.09],[-28.68,68.01],[-27.64,68.49],[-26.09,68.37],[-25.0,68.83],[-24.97,69.07],[-23.37,69.16],[-23.32,69.39],[-22.13,69.83],[-22.07,70.07],[-20.82,70.49],[-20.74,70.72],[-21.26,70.86],[-21.18,71.1],[-20.57,71.19],[-20.48,71.42],[-21.02,71.57],[-20.93,71.8],[-21.48,71.94],[-21.4,72.17],[-21.97,72.31],[-21.89,72.55],[-20.47,72.96],[-20.38,73.2],[-19.69,73.28],[-19.58,73.52],[-20.17,73.66],[-20.06,73.89],[-18.49,74.29],[-18.36,74.52],[-17.61,74.6],[-17.46,74.83],[-16.7,74.9],[-16.53,75.13],[-17.15,75.28],[-16.98,75.51],[-17.62,75.67],[-19.09,75.74],[-18.95,75.97],[-18.13,76.05],[-17.97,76.28],[-18.66,76.43],[-18.5,76.66],[-17.64,76.73],[-17.47,76.96],[-18.18,77.12],[-18.01,77.35],[-18.76,77.5],[-18.59,77.73],[-19.37,77.88],[-19.21,78.11],[-21.83,78.33],[-24.63,78.29],[-24.69,78.06],[-22.89,78.01],[-22.05,77.87],[-22.16,77.64],[-19.67,77.42],[-19.81,77.19],[-20.7,77.11],[-23.15,77.32],[-23.07,77.55],[-23.9,77.69],[-24.8,77.59],[-24.86,77.36],[-24.04,77.22],[-24.1,76.99],[-23.32,76.85],[-23.39,76.62],[-25.11,76.19],[-25.15,75.96],[-22.88,75.78],[-21.17,76.19],[-20.46,76.04],[-20.57,75.81],[-19.89,75.66],[-20.01,75.43],[-20.8,75.35],[-20.9,75.11],[-20.25,74.97],[-20.36,74.74],[-21.11,74.65],[-21.2,74.42],[-23.32,74.37],[-23.38,74.14],[-21.39,73.95],[-21.48,73.72],[-24.84,73.7],[-24.89,73.47],[-24.25,73.33],[-24.3,73.1],[-25.66,72.65],[-25.69,72.41],[-23.84,72.25],[-23.89,72.02],[-23.32,71.88],[-23.37,71.65],[-22.81,71.51],[-22.87,71.28],[-23.48,71.18],[-24.04,71.31],[-23.99,71.54],[-24.57,71.68],[-26.39,71.59],[-26.41,71.35],[-25.82,71.22],[-25.85,70.99],[-26.44,70.88],[-26.46,70.64],[-27.62,70.17],[-27.62,69.93],[-27.07,69.81],[-25.92,70.27],[-23.69,70.23],[-23.16,70.1],[-23.21,69.86],[-24.38,69.42],[-25.46,69.43],[-25.49,69.2],[-26.59,68.73],[-28.17,68.85],[-29.21,68.37],[-31.87,68.44],[-32.37,68.3],[-32.33,68.06],[-32.83,67.92],[-32.77,67.68],[-34.29,67.5],[-34.23,67.26],[-34.7,67.11],[-34.63,66.87],[-35.1,66.72],[-35.03,66.48],[-37.99,66.29],[-38.43,66.13],[-38.33,65.89],[-38.76,65.73],[-40.27,65.73],[-40.7,65.56],[-40.57,65.32],[-40.99,65.15],[-40.86,64.91],[-41.27,64.75],[-41.15,64.51],[-41.55,64.34],[-41.42,64.1],[-41.81,63.93],[-41.69,63.69],[-42.07,63.51],[-41.95,63.27],[-43.21,62.99],[-43.07,62.75],[-43.44,62.58],[-43.31,62.34],[-42.81,62.27],[-42.68,62.04],[-43.89,61.74],[-43.75,61.51],[-44.1,61.33],[-43.97,61.09],[-44.31,60.91],[-44.79,60.96],[-44.93,61.2],[-44.59,61.38],[-44.73,61.62],[-46.05,61.54],[-47.22,61.22],[-48.38,61.54],[-48.55,61.78],[-48.22,61.97],[-48.4,62.2],[-49.61,62.52],[-49.8,62.75],[-49.47,62.95],[-49.66,63.18],[-50.94,63.49],[-51.15,63.73],[-50.8,63.92],[-51.01,64.16],[-50.67,64.35],[-50.11,64.32],[-49.75,64.51],[-49.96,64.75],[-52.12,65.32],[-52.36,65.55],[-52.95,65.58],[-53.19,65.82],[-52.84,66.02],[-53.09,66.25],[-52.72,66.45],[-52.97,66.68],[-52.6,66.88],[-53.75,67.37],[-52.35,67.74],[-50.83,67.44],[-50.43,67.63],[-51.57,68.14],[-51.16,68.33],[-51.42,68.56],[-49.92,68.91],[-51.1,69.42],[-50.67,69.61],[-50.94,69.84],[-50.5,70.03],[-50.76,70.26],[-50.32,70.45],[-51.6,70.96],[-51.14,71.15],[-51.43,71.38],[-52.19,71.42],[-52.49,71.65]],[[-53.88,69.55],[-54.18,69.78],[-53.77,69.98],[-53.06,69.95],[-52.77,69.72],[-53.18,69.52],[-53.88,69.55]],[[-51.48,70.3],[-51.92,70.11],[-52.63,70.15],[-53.96,70.64],[-53.53,70.83],[-53.84,71.06],[-53.4,71.26],[-52.64,71.23],[-52.34,71.0],[-52.79,70.8],[-51.48,70.3]],[[-23.01,73.06],[-22.41,72.92],[-22.48,72.69],[-23.74,72.72],[-23.68,72.96],[-23.01,73.06]]],[[[-152.14,60.84],[-152.15,60.62],[-152.56,60.5],[-152.57,60.28],[-153.36,59.83],[-153.37,59.61],[-152.98,59.52],[-152.19,59.98],[-151.41,60.0],[-151.4,60.21],[-150.12,60.99],[-150.09,61.2],[-151.29,61.29],[-152.14,60.84]]],[[[-122.41,48.06],[-122.98,47.94],[-122.9,47.73],[-123.3,47.2],[-123.22,47.0],[-122.1,47.24],[-122.01,47.81],[-122.33,47.86],[-122.41,48.06]]],[[[74.65,79.9],[74.89,79.66],[76.14,79.56],[76.33,79.32],[77.53,79.22],[78.58,79.36],[78.44,79.61],[77.2,79.71],[77.02,79.96],[75.73,80.06],[74.65,79.9]]],[[[-175.9,52.48],[-176.86,52.31],[-177.62,51.92],[-178.6,52.14],[-178.78,51.94],[-179.17,51.94],[-179.35,51.74],[-179.14,51.53],[-179.32,51.33],[-179.12,51.13],[-178.73,51.13],[-177.42,51.72],[-176.45,51.49],[-175.12,52.05],[-174.74,52.04],[-174.55,51.83],[-173.6,51.99],[-173.42,51.78],[-173.04,51.75],[-172.84,51.94],[-172.47,51.92],[-169.97,52.73],[-169.06,52.45],[-168.28,52.77],[-168.44,52.98],[-168.23,53.16],[-166.12,53.51],[-165.84,54.06],[-164.96,53.76],[-164.68,54.3],[-164.09,54.41],[-163.51,54.52],[-163.15,54.47],[-163.01,54.26],[-162.07,54.3],[-161.85,54.46],[-161.98,54.67],[-161.1,54.91],[-161.15,55.11],[-160.84,55.25],[-161.3,55.71],[-160.98,55.86],[-160.21,55.53],[-158.86,55.67],[-158.53,55.81],[-158.57,56.01],[-160.3,55.93],[-160.35,56.14],[-160.02,56.28],[-160.07,56.48],[-160.44,56.55],[-161.04,56.06],[-162.1,56.03],[-162.41,55.89],[-162.35,55.69],[-163.33,55.45],[-163.27,55.25],[-163.57,55.1],[-165.12,54.93],[-165.41,54.39],[-168.72,53.79],[-168.98,53.23],[-170.51,52.97],[-171.87,52.48],[-172.81,52.74],[-173.01,52.55],[-172.83,52.34],[-173.03,52.15],[-173.97,52.4],[-174.16,52.61],[-175.12,52.45],[-175.32,52.26],[-175.7,52.28],[-175.9,52.48]],[[-162.84,55.0],[-162.9,55.2],[-162.6,55.34],[-162.23,55.28],[-162.17,55.08],[-162.84,55.0]]],[[[-169.64,62.79],[-169.13,62.75],[-168.76,62.92],[-168.9,63.15],[-168.53,63.32],[-168.66,63.54],[-169.86,63.86],[-170.01,64.08],[-171.46,63.99],[-172.72,63.65],[-171.85,63.18],[-170.45,63.28],[-170.3,63.06],[-170.66,62.88],[-170.5,62.66],[-169.64,62.79]]],[[[72.96,11.97],[72.57,11.96],[72.77,11.37],[72.19,11.25],[72.0,10.66],[72.19,10.54],[72.57,11.02],[72.96,11.02],[73.15,11.61],[72.96,11.97]]],[[[45.56,10.74],[45.34,10.72],[45.32,10.35],[45.99,10.78],[46.63,10.45],[46.96,10.66],[46.23,11.17],[45.56,10.74]]],[[[94.03,12.11],[94.27,12.23],[94.29,12.48],[94.07,12.63],[93.83,12.51],[93.16,12.68],[93.43,13.31],[93.21,13.45],[93.23,13.71],[93.98,14.56],[93.79,15.21],[93.57,15.35],[93.33,15.24],[93.52,14.59],[92.27,12.99],[92.25,12.74],[92.47,12.6],[92.45,12.34],[91.97,11.85],[91.95,11.6],[92.37,11.06],[92.1,10.43],[92.32,10.29],[92.55,10.4],[93.58,12.14],[93.82,12.26],[94.03,12.11]]],[[[-69.53,62.35],[-69.19,62.15],[-68.64,62.19],[-68.31,61.98],[-67.77,62.01],[-67.44,61.81],[-66.9,61.84],[-66.58,61.63],[-64.37,61.28],[-64.14,61.51],[-64.44,61.72],[-64.2,61.95],[-64.51,62.16],[-64.27,62.39],[-64.58,62.61],[-64.34,62.84],[-64.65,63.05],[-63.59,63.52],[-63.9,63.74],[-63.65,63.96],[-63.97,64.18],[-64.55,64.16],[-64.8,63.93],[-64.48,63.72],[-65.54,63.24],[-67.91,63.57],[-68.26,63.78],[-68.84,63.75],[-69.05,63.51],[-68.7,63.31],[-68.13,63.34],[-67.79,63.13],[-68.01,62.9],[-66.79,62.51],[-67.01,62.28],[-67.55,62.25],[-67.89,62.46],[-70.23,62.75],[-70.59,62.95],[-71.14,62.91],[-71.34,62.67],[-70.98,62.47],[-69.53,62.35]],[[-66.23,62.54],[-66.01,62.77],[-65.45,62.8],[-65.13,62.59],[-65.37,62.35],[-65.91,62.33],[-66.23,62.54]]],[[[84.3,35.13],[84.55,35.01],[85.34,35.13],[85.1,35.74],[84.84,35.87],[84.05,35.74],[83.79,35.86],[83.52,35.74],[83.52,35.49],[82.73,35.35],[82.72,35.11],[82.99,34.99],[84.3,35.13]]],[[[116.69,-35.25],[116.97,-35.27],[117.12,-35.11],[116.99,-34.92],[116.28,-35.04],[115.88,-34.82],[115.73,-34.99],[116.25,-35.39],[116.69,-35.25]]],[[[175.83,52.47],[176.06,52.27],[176.46,52.28],[176.62,52.49],[176.4,52.69],[176.0,52.67],[175.83,52.47]]],[[[99.92,6.25],[100.15,6.35],[100.17,6.61],[99.77,7.16],[99.54,7.05],[99.26,6.43],[99.92,6.25]]],[[[115.47,-33.37],[114.62,-33.63],[114.7,-34.17],[114.97,-34.2],[115.16,-33.69],[115.86,-33.58],[116.01,-33.42],[115.92,-32.89],[115.5,-33.02],[115.62,-33.21],[115.47,-33.37]]],[[[89.37,34.34],[89.39,34.58],[89.16,34.71],[88.89,34.6],[88.87,34.36],[89.37,34.34]]],[[[174.07,52.18],[174.24,52.4],[174.0,52.59],[174.16,52.8],[173.92,52.99],[172.87,53.13],[172.62,53.32],[172.22,53.29],[172.06,53.08],[172.31,52.89],[172.15,52.68],[172.4,52.49],[174.07,52.18]]],[[[-116.5,31.94],[-116.78,32.01],[-116.84,32.26],[-117.12,32.34],[-117.34,32.17],[-117.28,31.92],[-116.33,31.2],[-116.11,31.37],[-116.16,31.61],[-116.44,31.69],[-116.5,31.94]]],[[[122.4,19.6],[122.05,20.09],[122.35,20.65],[122.01,21.14],[121.52,20.71],[121.63,20.12],[121.83,19.99],[121.53,19.43],[122.14,19.26],[122.4,19.6]]],[[[51.0,11.65],[50.96,10.04],[51.59,10.43],[51.23,10.77],[51.36,12.22],[50.83,12.01],[50.54,12.18],[49.44,11.38],[49.73,11.22],[50.5,11.81],[51.0,11.65]]],[[[-177.33,28.09],[-177.19,28.31],[-177.34,28.52],[-177.62,28.51],[-177.75,28.28],[-177.61,28.08],[-177.33,28.09]]],[[[47.21,15.23],[47.09,15.03],[47.41,14.85],[47.43,15.24],[47.21,15.23]]],[[[-154.93,18.88],[-154.65,19.96],[-154.76,20.19],[-155.03,20.22],[-155.13,20.46],[-155.83,20.31],[-155.89,20.97],[-156.16,21.0],[-156.64,21.49],[-157.34,21.33],[-157.83,21.81],[-157.67,22.02],[-157.78,22.25],[-158.05,22.27],[-158.21,22.06],[-158.1,21.84],[-158.68,21.45],[-158.58,21.22],[-157.93,20.95],[-157.77,21.15],[-157.5,21.13],[-157.39,20.9],[-157.13,20.87],[-157.07,20.21],[-156.37,20.36],[-156.27,20.13],[-156.48,19.49],[-156.37,19.26],[-156.11,19.23],[-156.06,18.56],[-154.93,18.88]],[[-155.14,19.35],[-155.3,19.15],[-155.57,19.17],[-156.05,19.67],[-155.46,20.05],[-155.19,20.02],[-155.14,19.35]]],[[[28.37,80.39],[27.17,80.53],[23.51,80.44],[20.8,80.9],[19.62,80.78],[19.78,80.55],[18.65,80.43],[18.83,80.2],[16.49,80.17],[15.46,80.04],[15.7,79.82],[14.72,79.68],[14.97,79.46],[17.14,79.5],[19.63,79.08],[19.76,78.86],[18.81,78.74],[18.96,78.51],[18.05,78.39],[18.21,78.17],[16.3,78.14],[16.1,78.36],[16.98,78.49],[16.79,78.71],[15.68,78.8],[10.85,78.55],[11.15,78.33],[13.57,77.97],[13.81,77.75],[13.03,77.62],[13.27,77.4],[15.44,77.02],[15.63,76.81],[14.88,76.68],[15.08,76.47],[17.64,76.41],[18.41,76.53],[18.27,76.74],[17.34,76.84],[17.18,77.06],[17.98,77.18],[17.83,77.39],[18.66,77.51],[18.52,77.73],[20.38,77.75],[20.49,77.53],[22.46,77.09],[24.16,77.52],[24.12,77.74],[25.05,77.84],[25.02,78.06],[22.97,78.52],[22.9,78.75],[21.83,78.86],[21.74,79.09],[25.97,79.06],[25.98,78.83],[24.95,78.73],[24.98,78.51],[25.98,78.38],[26.99,78.48],[27.0,78.7],[30.11,78.75],[30.19,78.97],[31.29,79.06],[31.41,79.28],[30.37,79.43],[28.09,79.02],[27.04,79.16],[27.06,79.38],[28.17,79.48],[28.22,79.7],[27.1,79.84],[24.81,79.87],[23.69,79.76],[23.75,79.53],[22.68,79.42],[20.23,79.87],[20.09,80.1],[23.57,80.21],[27.12,80.07],[28.32,80.16],[28.37,80.39]],[[15.05,77.45],[14.84,77.67],[15.65,77.8],[16.67,77.71],[16.85,77.49],[15.05,77.45]]],[[[146.06,71.71],[146.07,71.96],[145.35,72.09],[144.63,71.96],[144.64,71.71],[145.35,71.58],[146.06,71.71]]],[[[114.21,56.07],[115.27,56.23],[115.48,56.03],[115.26,55.85],[115.46,55.65],[115.88,55.63],[116.1,55.82],[115.9,56.02],[116.12,56.2],[116.55,56.18],[116.78,56.37],[115.94,56.79],[115.5,56.81],[115.28,56.62],[114.2,56.46],[113.99,56.27],[114.21,56.07]]],[[[128.44,26.69],[129.26,27.4],[129.14,27.95],[129.83,28.01],[130.16,28.52],[129.26,28.59],[128.4,27.68],[128.53,27.13],[128.28,27.03],[127.92,27.5],[127.68,27.41],[127.8,26.85],[127.35,26.88],[127.07,26.57],[126.39,26.51],[126.35,26.29],[126.99,26.13],[127.11,25.57],[127.76,25.41],[128.04,25.72],[127.84,25.85],[127.88,26.07],[128.44,26.69]]],[[[54.28,81.24],[53.54,81.04],[49.61,81.23],[49.0,81.02],[45.5,80.75],[45.01,80.53],[45.93,80.34],[45.45,80.12],[50.54,79.57],[53.76,79.78],[54.41,79.99],[57.76,79.74],[60.63,80.11],[62.01,80.07],[62.85,80.26],[62.31,80.49],[65.61,80.81],[65.1,81.05],[66.11,81.23],[65.59,81.47],[64.0,81.52],[63.4,81.75],[59.34,82.04],[58.4,81.84],[54.22,81.67],[53.45,81.46],[54.28,81.24]]],[[[166.88,54.44],[167.97,54.36],[168.67,54.82],[168.41,55.0],[166.61,55.22],[166.34,55.39],[166.48,55.6],[166.21,55.77],[165.23,55.46],[165.09,55.24],[165.78,55.12],[166.06,54.96],[165.92,54.74],[166.88,54.44]]],[[[93.52,7.89],[93.75,8.0],[93.77,8.26],[93.55,8.4],[93.32,8.29],[93.3,8.03],[93.52,7.89]]],[[[-65.24,67.68],[-64.57,67.7],[-64.28,67.92],[-64.66,68.13],[-65.34,68.12],[-65.73,68.32],[-66.41,68.3],[-66.69,68.07],[-65.24,67.68]]],[[[-122.78,38.3],[-122.85,38.53],[-123.51,38.86],[-123.58,39.09],[-123.36,39.26],[-123.8,39.76],[-123.58,39.94],[-123.66,40.16],[-124.7,40.75],[-124.91,40.57],[-124.84,40.35],[-124.17,40.04],[-124.1,39.81],[-124.32,39.64],[-123.87,39.14],[-124.09,38.97],[-124.02,38.74],[-123.36,38.41],[-123.43,37.78],[-122.64,37.85],[-122.71,37.21],[-122.06,36.87],[-122.14,36.23],[-120.8,35.28],[-120.58,35.45],[-120.64,35.69],[-121.64,36.34],[-121.56,36.98],[-122.2,37.33],[-122.13,37.96],[-122.78,38.3]]],[[[146.82,72.35],[146.8,72.09],[147.51,71.95],[148.25,72.07],[148.95,71.93],[148.9,71.68],[149.57,71.53],[151.13,72.01],[151.22,72.26],[149.05,72.45],[148.29,72.33],[147.57,72.47],[147.61,72.72],[146.87,72.86],[143.1,72.73],[143.13,72.47],[143.88,72.35],[144.61,72.48],[146.82,72.35]]],[[[-146.62,60.67],[-146.56,60.88],[-146.93,60.99],[-147.72,61.0],[-148.14,60.89],[-148.19,60.68],[-147.51,60.26],[-146.62,60.67]]],[[[3.44,40.3],[3.38,40.06],[3.09,39.97],[2.87,40.12],[2.24,39.71],[2.35,39.09],[3.08,38.88],[3.71,39.29],[3.77,39.52],[4.57,39.54],[4.47,40.17],[4.25,40.32],[3.44,40.3]]],[[[86.62,35.0],[86.37,35.13],[86.11,35.01],[86.1,34.77],[86.86,34.64],[87.41,35.11],[87.42,35.36],[87.17,35.48],[86.91,35.37],[86.89,35.12],[86.62,35.0]]],[[[-180.0,70.79],[-179.57,70.56],[-177.63,70.73],[-177.18,70.94],[-177.49,71.17],[-177.03,71.37],[-178.46,71.85],[-179.27,71.87],[-180.0,71.66],[-180.0,70.79]],[[-179.47,71.0],[-179.81,71.22],[-179.37,71.43],[-178.59,71.41],[-178.26,71.19],[-178.71,70.98],[-179.47,71.0]]],[[[180.0,71.66],[178.26,71.46],[177.85,71.24],[178.22,71.02],[177.81,70.81],[178.17,70.59],[180.0,70.79],[180.0,71.66]]],[[[-117.18,32.58],[-116.95,32.75],[-117.01,33.0],[-118.32,34.02],[-118.39,34.26],[-118.67,34.33],[-118.89,34.16],[-119.53,34.54],[-119.75,34.37],[-120.03,34.43],[-120.44,34.97],[-120.73,35.04],[-120.95,34.87],[-120.18,34.02],[-119.9,33.95],[-119.84,33.71],[-118.55,33.85],[-118.8,32.78],[-118.52,32.71],[-118.14,33.29],[-117.18,32.58]]],[[[-23.78,15.25],[-23.76,15.02],[-23.33,15.05],[-23.35,15.28],[-23.57,15.38],[-23.78,15.25]]],[[[80.12,5.98],[80.33,6.09],[80.34,6.34],[79.73,7.23],[79.52,7.12],[79.52,6.87],[80.12,5.98]]],[[[-6.33,61.22],[-6.28,61.42],[-6.65,61.56],[-6.6,61.76],[-5.72,62.07],[-5.67,62.26],[-6.04,62.4],[-5.99,62.6],[-6.79,62.68],[-6.84,62.49],[-7.72,62.17],[-7.76,61.97],[-7.06,61.5],[-7.1,61.3],[-6.33,61.22]]],[[[33.18,80.27],[32.06,80.42],[30.79,80.34],[30.68,80.11],[35.32,79.96],[35.55,80.19],[34.47,80.34],[33.18,80.27]]],[[[44.78,13.74],[45.12,13.96],[45.68,13.8],[46.15,14.21],[45.49,14.57],[45.4,15.15],[45.06,15.33],[44.71,15.11],[44.78,13.74]]],[[[153.64,71.14],[152.91,71.04],[152.27,71.19],[152.37,71.45],[151.72,71.6],[150.97,71.5],[150.9,71.24],[151.54,71.09],[151.46,70.84],[153.42,70.63],[154.14,70.73],[154.26,70.98],[153.64,71.14]]],[[[47.51,10.89],[47.62,11.08],[48.14,10.93],[48.59,11.33],[48.5,11.51],[47.96,11.29],[47.65,11.45],[47.31,11.24],[47.0,11.41],[46.88,11.21],[47.19,11.05],[47.27,10.5],[47.6,10.71],[47.51,10.89]]],[[[-67.23,66.51],[-67.86,66.48],[-68.11,66.24],[-67.73,66.04],[-67.97,65.8],[-67.6,65.6],[-67.84,65.37],[-67.47,65.16],[-66.86,65.19],[-66.62,65.42],[-66.98,65.63],[-66.73,65.86],[-67.1,66.07],[-66.85,66.3],[-67.23,66.51]]],[[[141.62,76.19],[140.64,76.3],[139.75,76.15],[139.85,75.9],[142.62,75.82],[143.52,75.95],[143.49,76.21],[142.53,76.33],[141.62,76.19]]],[[[-171.95,60.11],[-171.64,60.29],[-171.78,60.5],[-173.53,61.02],[-173.85,60.84],[-173.05,60.39],[-174.13,60.05],[-173.97,59.84],[-173.5,59.81],[-172.42,60.14],[-171.95,60.11]]],[[[-68.76,70.84],[-69.52,70.81],[-69.8,70.58],[-69.32,70.38],[-68.58,70.41],[-68.29,70.64],[-68.76,70.84]]],[[[-55.78,72.84],[-55.32,73.04],[-55.69,73.26],[-55.22,73.46],[-55.6,73.68],[-56.47,73.7],[-56.94,73.5],[-56.54,73.28],[-57.0,73.08],[-56.62,72.86],[-55.78,72.84]]],[[[84.33,76.29],[83.43,76.41],[82.56,76.29],[82.59,76.04],[81.74,75.92],[81.79,75.67],[80.98,75.54],[81.04,75.3],[82.74,74.81],[83.53,74.93],[83.52,75.18],[82.68,75.3],[82.65,75.55],[83.49,75.67],[83.47,75.92],[84.33,76.04],[84.33,76.29]]],[[[-12.35,-36.99],[-12.56,-37.19],[-12.45,-37.43],[-12.13,-37.47],[-11.92,-37.27],[-12.04,-37.03],[-12.35,-36.99]]],[[[-23.19,16.1],[-22.96,16.0],[-22.94,15.77],[-22.5,15.8],[-22.76,16.37],[-22.55,16.5],[-22.57,16.73],[-23.04,17.17],[-23.26,17.03],[-23.24,16.8],[-23.01,16.7],[-23.19,16.1]]],[[[-11.9,63.24],[-12.34,63.17],[-12.46,62.95],[-11.73,62.89],[-11.6,63.1],[-11.9,63.24]]],[[[-61.2,66.86],[-62.53,67.29],[-64.2,67.49],[-64.49,67.26],[-64.12,67.05],[-62.48,66.85],[-62.14,66.64],[-62.43,66.42],[-62.1,66.2],[-62.39,65.98],[-64.79,65.49],[-65.14,65.7],[-64.87,65.93],[-65.23,66.14],[-65.85,66.12],[-66.11,65.88],[-65.75,65.68],[-66.01,65.44],[-65.66,65.24],[-63.18,64.86],[-62.9,65.09],[-63.23,65.3],[-62.95,65.53],[-61.44,65.77],[-61.15,65.99],[-61.47,66.2],[-61.17,66.43],[-61.5,66.64],[-61.2,66.86]]],[[[73.52,3.77],[73.71,4.12],[73.52,4.24],[73.33,4.13],[73.52,3.77]]],[[[87.17,77.13],[89.96,76.95],[90.95,77.04],[91.08,77.29],[88.23,77.49],[87.22,77.38],[87.17,77.13]]],[[[-66.51,64.98],[-66.75,64.75],[-66.4,64.54],[-64.88,64.37],[-64.63,64.6],[-65.91,65.0],[-66.51,64.98]]],[[[-23.87,16.4],[-23.89,16.63],[-24.12,16.73],[-24.34,16.6],[-24.32,16.37],[-23.87,16.4]]],[[[-13.65,29.65],[-13.9,29.53],[-13.9,29.28],[-14.92,28.02],[-15.16,28.15],[-15.16,28.4],[-15.9,28.52],[-15.9,28.77],[-16.14,28.9],[-16.39,28.77],[-16.64,28.89],[-17.14,28.38],[-17.9,29.25],[-18.39,28.73],[-18.38,28.47],[-18.13,28.35],[-18.37,27.72],[-17.86,27.22],[-17.62,27.36],[-17.62,27.61],[-17.87,27.73],[-17.88,27.98],[-17.63,28.11],[-17.13,27.62],[-16.39,27.76],[-16.39,28.01],[-16.15,28.14],[-15.66,27.64],[-14.92,27.77],[-14.19,27.65],[-13.18,28.89],[-13.4,29.52],[-13.65,29.65]]],[[[43.91,0.81],[43.98,1.03],[45.11,1.79],[45.03,2.19],[43.6,1.18],[43.68,0.78],[43.91,0.81]]],[[[-146.37,70.37],[-148.15,70.52],[-148.8,70.41],[-148.86,70.17],[-147.1,70.03],[-146.46,70.13],[-146.37,70.37]]],[[[26.01,76.83],[23.42,76.75],[23.47,76.54],[26.01,76.39],[26.86,76.48],[26.87,76.7],[26.01,76.83]]],[[[-9.28,71.05],[-9.89,71.0],[-10.09,70.78],[-9.69,70.62],[-9.09,70.67],[-8.88,70.89],[-7.28,70.82],[-7.05,71.03],[-7.43,71.2],[-7.2,71.41],[-7.59,71.58],[-8.22,71.53],[-9.28,71.05]]],[[[72.0,9.95],[72.38,9.95],[72.38,10.19],[72.19,10.31],[72.0,9.95]]],[[[-26.21,37.72],[-25.59,37.25],[-25.24,36.63],[-24.95,36.52],[-24.69,36.67],[-25.03,37.29],[-24.77,37.44],[-24.79,37.69],[-25.09,37.8],[-25.12,38.06],[-25.98,38.13],[-26.24,37.98],[-26.21,37.72]]],[[[145.57,14.9],[145.52,14.66],[145.72,14.49],[145.96,14.57],[145.85,15.22],[146.1,15.29],[146.14,15.53],[145.95,15.7],[145.42,15.3],[145.37,15.06],[145.57,14.9]]],[[[50.06,8.53],[49.73,8.13],[49.88,7.96],[50.62,8.39],[50.6,8.93],[51.12,9.33],[50.9,9.86],[50.63,9.66],[50.72,9.3],[50.25,9.09],[50.27,8.55],[50.06,8.53]]],[[[145.68,17.86],[145.64,17.62],[145.84,17.46],[146.08,17.54],[145.98,18.17],[145.78,18.33],[145.53,18.26],[145.49,18.02],[145.68,17.86]]],[[[77.53,10.13],[77.74,10.49],[77.53,10.62],[76.92,10.5],[77.32,9.76],[77.53,10.13]]],[[[49.5,6.81],[49.77,7.02],[49.42,7.18],[49.08,6.77],[49.23,6.59],[49.5,6.81]]],[[[113.89,75.44],[114.9,75.44],[115.41,75.66],[114.91,75.88],[115.45,76.1],[113.3,76.55],[113.83,76.77],[113.26,76.99],[112.14,76.98],[111.63,76.76],[112.21,76.54],[111.72,76.31],[113.87,75.89],[113.37,75.66],[113.89,75.44]]],[[[73.73,9.82],[73.93,10.18],[73.73,10.3],[73.54,10.18],[73.73,9.82]]],[[[47.62,69.28],[47.9,69.1],[47.54,68.91],[47.81,68.72],[49.3,68.53],[50.65,68.91],[50.4,69.1],[50.78,69.29],[48.71,69.85],[48.07,69.85],[47.71,69.66],[47.98,69.47],[47.62,69.28]]],[[[152.22,46.65],[153.36,47.39],[153.24,48.01],[153.58,48.1],[153.65,48.34],[153.38,48.49],[153.04,48.4],[152.97,48.16],[152.63,48.08],[152.56,47.84],[151.43,47.09],[151.37,46.85],[152.22,46.65]]],[[[94.52,80.37],[94.78,80.62],[93.61,80.78],[92.18,80.69],[91.98,80.44],[90.62,80.34],[90.47,80.09],[91.6,79.94],[91.43,79.69],[92.51,79.54],[92.33,79.29],[93.36,79.13],[96.12,79.54],[96.4,79.79],[95.35,79.96],[95.63,80.21],[94.52,80.37]]],[[[-27.89,39.52],[-28.15,39.36],[-28.12,39.11],[-28.95,38.9],[-29.13,38.24],[-27.14,38.29],[-26.87,38.44],[-26.67,39.1],[-27.55,39.16],[-27.58,39.41],[-27.89,39.52]]],[[[-25.29,17.23],[-25.45,16.63],[-24.57,16.7],[-24.84,17.27],[-25.29,17.23]]],[[[-160.24,22.01],[-160.93,21.84],[-161.09,21.63],[-160.98,21.41],[-160.29,21.58],[-160.13,21.78],[-159.49,21.51],[-158.9,21.9],[-159.39,22.38],[-159.66,22.4],[-160.24,22.01]]],[[[52.86,12.11],[52.94,11.93],[53.26,12.13],[53.73,11.97],[54.16,12.34],[54.63,12.18],[54.79,12.72],[54.52,12.89],[54.2,12.7],[53.65,13.04],[52.86,12.11]],[[53.89,12.51],[53.57,12.32],[53.49,12.49],[53.61,12.68],[53.89,12.51]]],[[[48.28,4.97],[48.77,5.21],[48.69,5.59],[47.92,5.12],[47.93,4.54],[46.86,3.82],[46.94,3.44],[48.3,4.38],[48.28,4.97]]],[[[46.45,2.57],[46.96,2.84],[46.87,3.23],[46.65,3.2],[45.41,2.04],[45.79,1.88],[46.45,2.57]]],[[[98.32,8.7],[98.56,8.81],[98.58,9.06],[98.37,9.21],[97.87,8.73],[97.66,8.88],[97.42,8.77],[97.4,8.51],[98.07,8.33],[98.24,7.67],[98.45,7.52],[98.69,7.63],[99.09,7.09],[99.33,7.2],[99.6,7.82],[98.94,8.0],[98.97,8.26],[98.75,8.4],[98.52,8.29],[98.3,8.44],[98.32,8.7]]],[[[48.73,14.91],[48.76,15.29],[48.2,15.08],[47.88,15.26],[47.75,15.06],[48.49,14.51],[48.83,14.72],[48.73,14.91]]],[[[-28.77,70.65],[-28.19,70.53],[-27.61,70.65],[-27.61,70.88],[-28.2,71.01],[-28.78,70.89],[-28.77,70.65]]],[[[-153.75,59.28],[-153.75,59.49],[-154.14,59.58],[-154.52,59.45],[-154.51,59.24],[-153.75,58.86],[-153.38,58.98],[-153.37,59.19],[-153.75,59.28]]],[[[142.45,26.95],[142.0,27.03],[141.95,26.81],[142.31,26.3],[142.56,26.37],[142.45,26.95]]],[[[-71.84,66.69],[-72.06,66.45],[-71.64,66.25],[-69.99,66.14],[-69.76,66.38],[-70.16,66.58],[-69.93,66.81],[-70.34,67.01],[-71.84,66.69]]],[[[-124.35,42.96],[-124.29,43.56],[-124.59,43.61],[-124.96,43.05],[-124.88,42.83],[-124.58,42.79],[-124.35,42.96]]],[[[14.13,36.15],[14.04,35.91],[14.25,35.73],[14.56,35.79],[14.65,36.03],[14.44,36.21],[14.13,36.15]]],[[[145.0,13.11],[145.24,13.19],[145.14,13.85],[145.38,13.93],[145.43,14.17],[145.23,14.33],[144.41,13.61],[144.36,13.36],[145.0,13.11]]],[[[73.54,10.9],[73.73,10.54],[73.93,10.66],[73.93,10.9],[73.54,10.9]]],[[[44.88,10.31],[44.9,10.69],[44.34,10.46],[44.01,10.62],[43.89,10.42],[44.32,10.08],[44.88,10.31]]],[[[-157.55,71.03],[-159.51,71.07],[-160.11,70.92],[-160.03,70.68],[-159.37,70.59],[-157.51,70.79],[-157.55,71.03]]],[[[-16.13,33.47],[-16.65,32.96],[-17.44,33.08],[-17.7,32.95],[-17.7,32.69],[-17.43,32.57],[-17.17,32.7],[-16.65,32.19],[-15.87,33.09],[-15.87,33.34],[-16.13,33.47]]],[[[-13.75,57.61],[-13.37,57.69],[-13.35,57.91],[-14.1,57.95],[-14.11,57.73],[-13.75,57.61]]],[[[112.67,15.88],[112.9,15.97],[112.93,16.21],[112.73,16.36],[112.5,16.27],[112.47,16.03],[112.67,15.88]]],[[[-23.89,60.74],[-24.28,60.63],[-24.31,60.4],[-23.57,60.4],[-23.53,60.63],[-23.89,60.74]]],[[[-8.44,58.3],[-8.82,58.23],[-9.27,57.73],[-8.92,57.6],[-8.13,57.95],[-8.09,58.16],[-8.44,58.3]]],[[[162.37,11.7],[162.13,11.66],[162.23,11.29],[162.53,11.54],[162.37,11.7]]],[[[-5.99,59.32],[-6.38,59.26],[-6.43,59.06],[-5.69,58.97],[-5.65,59.18],[-5.99,59.32]]],[[[131.49,24.73],[131.28,24.86],[131.04,24.77],[131.0,24.55],[131.45,24.5],[131.49,24.73]]],[[[139.51,32.83],[140.18,32.89],[140.19,33.13],[139.53,33.3],[139.31,33.2],[139.29,32.97],[139.51,32.83]]],[[[119.5,-34.39],[118.25,-34.84],[118.66,-35.04],[119.91,-34.59],[120.01,-34.38],[119.88,-34.2],[119.5,-34.39]]],[[[48.76,5.79],[49.24,6.03],[49.16,6.4],[48.68,6.16],[48.76,5.79]]],[[[44.09,13.7],[44.44,13.92],[44.34,14.5],[43.99,14.28],[44.09,13.7]]],[[[-26.97,71.95],[-27.59,72.08],[-28.21,71.96],[-28.21,71.72],[-27.6,71.6],[-26.99,71.72],[-26.97,71.95]]],[[[150.58,75.13],[150.67,75.38],[149.83,75.53],[148.91,75.42],[148.85,75.16],[149.68,75.02],[149.61,74.76],[150.41,74.61],[151.3,74.72],[151.4,74.98],[150.58,75.13]]],[[[129.05,26.31],[129.01,26.09],[129.21,25.96],[129.46,26.05],[129.5,26.27],[129.05,26.31]]],[[[140.13,32.19],[140.15,32.43],[139.71,32.47],[139.69,32.23],[139.91,32.1],[140.13,32.19]]],[[[168.94,14.71],[168.85,14.5],[169.25,14.36],[169.34,14.57],[169.18,14.75],[168.94,14.71]]],[[[153.71,-29.18],[153.48,-29.04],[153.21,-29.14],[153.18,-29.39],[153.42,-29.54],[153.69,-29.44],[153.71,-29.18]]],[[[40.71,-2.6],[41.9,-1.78],[41.82,-1.37],[40.63,-2.19],[40.55,-2.41],[40.71,-2.6]]],[[[72.95,7.46],[72.57,6.99],[72.95,6.27],[72.76,5.93],[72.95,5.56],[72.76,4.98],[72.95,4.86],[73.52,5.9],[73.14,6.38],[73.34,6.97],[72.95,7.46]]],[[[-71.55,61.06],[-71.21,60.87],[-70.69,60.91],[-70.5,61.15],[-70.84,61.35],[-71.37,61.31],[-71.55,61.06]]],[[[112.4,17.15],[111.91,16.73],[111.88,16.49],[112.08,16.34],[112.31,16.43],[112.34,16.67],[112.99,16.69],[113.02,16.93],[112.82,17.09],[112.6,17.0],[112.4,17.15]]],[[[125.68,25.0],[124.81,25.05],[124.3,24.63],[123.25,24.8],[122.71,24.16],[124.19,23.97],[124.97,24.71],[125.84,24.65],[125.88,24.87],[125.68,25.0]]],[[[-180.0,51.53],[-179.74,51.74],[-179.95,51.94],[-179.77,52.14],[-179.99,52.35],[-180.0,51.53]]],[[[180.0,52.34],[179.05,52.14],[178.83,52.34],[178.44,52.33],[178.26,52.13],[177.87,52.12],[177.64,52.32],[177.25,52.31],[177.08,52.1],[177.3,51.9],[177.13,51.69],[177.36,51.5],[178.31,51.72],[178.53,51.52],[179.52,51.33],[180.0,51.53],[180.0,52.34]]],[[[-31.45,39.91],[-31.71,39.75],[-31.66,39.5],[-30.99,39.07],[-30.73,39.22],[-31.14,39.82],[-31.45,39.91]]],[[[31.57,23.07],[31.69,23.31],[31.53,23.51],[31.25,23.49],[30.75,23.0],[30.91,22.79],[31.57,23.07]]],[[[135.78,73.68],[136.5,73.85],[136.36,74.1],[137.1,74.26],[136.97,74.51],[136.07,74.61],[135.32,74.45],[135.48,74.19],[134.76,74.03],[134.92,73.77],[135.78,73.68]]],[[[-153.7,71.12],[-154.35,71.23],[-154.99,71.1],[-154.97,70.86],[-153.7,70.88],[-152.47,70.42],[-151.85,70.54],[-151.82,70.78],[-152.44,70.9],[-152.42,71.14],[-153.06,71.25],[-153.7,71.12]]],[[[93.01,33.82],[93.97,33.75],[93.84,34.35],[94.1,34.45],[94.14,34.69],[93.66,34.72],[93.61,34.49],[93.35,34.39],[92.38,34.45],[92.04,33.87],[93.01,33.82]]],[[[49.96,7.6],[49.61,7.75],[49.54,7.56],[49.69,7.39],[49.96,7.6]]],[[[106.36,8.48],[106.56,8.33],[106.79,8.44],[106.82,8.69],[106.62,8.84],[106.39,8.73],[106.36,8.48]]],[[[115.19,-32.13],[115.69,-32.52],[116.1,-32.39],[116.01,-31.87],[115.19,-32.13]]],[[[-74.62,64.64],[-74.79,64.4],[-74.38,64.21],[-73.81,64.26],[-73.63,64.51],[-74.03,64.7],[-74.62,64.64]]],[[[102.76,5.62],[102.74,5.37],[102.94,5.22],[103.17,5.33],[103.2,5.58],[102.99,5.73],[102.76,5.62]]],[[[-71.72,61.5],[-71.54,61.74],[-71.89,61.94],[-72.43,61.89],[-72.6,61.65],[-72.25,61.45],[-71.72,61.5]]],[[[-73.59,63.83],[-73.2,63.64],[-72.64,63.69],[-72.45,63.93],[-72.84,64.13],[-73.41,64.07],[-73.59,63.83]]],[[[-171.91,26.11],[-172.05,25.9],[-171.93,25.7],[-171.67,25.7],[-171.53,25.91],[-171.65,26.12],[-171.91,26.11]]],[[[-78.21,61.22],[-77.83,61.04],[-77.32,61.11],[-77.18,61.36],[-77.56,61.54],[-78.08,61.47],[-78.21,61.22]]],[[[116.74,20.73],[116.52,20.66],[116.67,20.27],[116.89,20.35],[116.93,20.58],[116.74,20.73]]],[[[-74.95,68.01],[-74.49,67.83],[-73.83,67.88],[-73.62,68.12],[-72.95,68.18],[-72.73,68.41],[-73.19,68.6],[-74.76,68.26],[-75.23,68.44],[-75.91,68.38],[-76.09,68.14],[-75.62,67.95],[-74.95,68.01]]],[[[1.74,38.67],[2.02,38.76],[2.07,39.0],[1.68,39.53],[1.4,39.44],[1.02,38.87],[1.41,38.35],[1.68,38.44],[1.74,38.67]]],[[[-73.7,62.22],[-73.33,62.03],[-72.79,62.09],[-72.61,62.33],[-73.9,62.66],[-74.45,62.6],[-74.61,62.36],[-74.24,62.17],[-73.7,62.22]]],[[[-63.4,59.75],[-63.9,59.74],[-64.13,59.51],[-63.85,59.29],[-63.35,59.31],[-63.13,59.54],[-63.4,59.75]]],[[[131.7,25.84],[131.74,26.06],[131.54,26.2],[130.84,26.15],[130.96,25.58],[131.17,25.44],[131.7,25.84]]],[[[41.9,-1.15],[43.07,-0.35],[42.99,0.06],[41.82,-0.74],[41.9,-1.15]]],[[[12.25,37.09],[11.94,37.02],[11.86,36.78],[12.07,36.61],[12.37,36.67],[12.46,36.91],[12.25,37.09]]],[[[165.36,11.42],[165.75,11.29],[165.83,11.5],[165.67,11.67],[165.36,11.42]]],[[[-124.64,42.19],[-124.12,42.31],[-124.2,42.53],[-124.5,42.58],[-124.72,42.4],[-124.64,42.19]]],[[[27.9,26.95],[28.64,26.8],[28.71,27.48],[28.54,27.69],[27.85,27.39],[27.73,27.16],[27.9,26.95]]],[[[-24.63,14.95],[-24.2,14.98],[-24.22,15.21],[-24.44,15.31],[-24.65,15.18],[-24.63,14.95]]],[[[72.76,10.66],[72.57,10.54],[72.76,10.19],[72.96,10.54],[72.76,10.66]]],[[[52.34,11.9],[52.66,12.1],[52.58,12.28],[52.09,12.43],[51.97,12.25],[52.34,11.9]]],[[[100.55,5.81],[100.34,5.95],[100.11,5.84],[100.08,5.59],[100.3,5.44],[100.53,5.55],[100.55,5.81]]],[[[49.54,15.51],[49.42,15.31],[49.73,15.13],[49.76,15.52],[49.54,15.51]]],[[[49.11,11.18],[49.13,11.55],[48.92,11.53],[48.8,11.34],[49.11,11.18]]],[[[-169.32,56.54],[-169.43,56.75],[-169.84,56.78],[-170.13,56.62],[-170.01,56.41],[-169.32,56.54]]],[[[-62.55,58.67],[-63.04,58.65],[-63.26,58.43],[-62.99,58.21],[-62.51,58.23],[-62.29,58.45],[-62.55,58.67]]],[[[138.62,59.17],[138.23,59.02],[138.29,58.79],[139.11,58.83],[139.06,59.07],[138.62,59.17]]],[[[-72.25,63.5],[-72.44,63.25],[-72.07,63.06],[-71.51,63.11],[-71.32,63.35],[-71.69,63.54],[-72.25,63.5]]],[[[169.03,10.08],[168.94,9.89],[169.33,9.75],[169.26,10.12],[169.03,10.08]]],[[[77.43,81.1],[77.63,80.85],[79.01,80.75],[80.26,80.89],[80.15,81.14],[78.71,81.25],[77.43,81.1]]],[[[97.35,80.53],[98.81,80.6],[99.2,80.85],[98.07,81.02],[96.55,80.95],[96.23,80.7],[97.35,80.53]]],[[[-66.33,59.18],[-66.04,58.98],[-65.55,59.0],[-65.34,59.23],[-65.63,59.44],[-66.13,59.42],[-66.33,59.18]]],[[[78.73,74.9],[77.99,74.76],[78.09,74.52],[78.91,74.41],[79.64,74.55],[79.56,74.79],[78.73,74.9]]],[[[-63.96,60.18],[-64.25,60.39],[-64.02,60.62],[-64.31,60.83],[-64.83,60.82],[-65.05,60.58],[-64.76,60.37],[-65.71,59.89],[-65.42,59.68],[-64.91,59.7],[-63.96,60.18]]],[[[-173.63,26.29],[-173.9,26.28],[-174.03,26.07],[-173.9,25.86],[-173.64,25.87],[-173.5,26.08],[-173.63,26.29]]],[[[-122.9,45.38],[-122.35,45.5],[-122.43,45.71],[-122.75,45.76],[-122.98,45.59],[-122.9,45.38]]],[[[166.7,10.87],[167.01,11.11],[166.86,11.27],[166.62,11.24],[166.7,10.87]]],[[[12.84,35.66],[13.14,35.72],[13.23,35.96],[13.02,36.14],[12.72,36.08],[12.25,35.53],[12.46,35.35],[12.75,35.42],[12.84,35.66]]],[[[-155.57,57.81],[-155.94,57.89],[-156.29,57.76],[-156.28,57.55],[-155.56,57.6],[-155.57,57.81]]],[[[101.95,6.46],[102.11,5.81],[102.32,5.66],[102.55,5.77],[102.39,6.42],[102.18,6.57],[101.95,6.46]]],[[[145.36,16.19],[145.55,16.03],[145.8,16.1],[145.84,16.34],[145.65,16.51],[145.4,16.43],[145.36,16.19]]],[[[-123.74,41.22],[-124.04,41.27],[-124.11,41.49],[-123.89,41.66],[-123.97,41.88],[-124.49,41.75],[-124.41,41.53],[-124.63,41.36],[-124.18,40.88],[-123.66,41.0],[-123.74,41.22]]],[[[-124.16,46.34],[-124.08,46.13],[-123.77,46.09],[-123.53,46.26],[-123.61,46.46],[-124.16,46.34]]],[[[-155.07,63.04],[-155.51,63.13],[-155.95,62.99],[-155.93,62.77],[-155.05,62.81],[-155.07,63.04]]],[[[101.55,7.01],[101.32,6.9],[101.11,7.05],[100.88,6.94],[100.85,6.68],[101.06,6.54],[101.74,6.61],[101.76,6.86],[101.55,7.01]]],[[[153.3,-28.38],[153.27,-28.63],[153.51,-28.78],[153.77,-28.68],[153.8,-28.42],[153.56,-28.27],[153.3,-28.38]]],[[[-74.5,65.56],[-74.08,65.38],[-73.47,65.43],[-73.28,65.67],[-73.7,65.86],[-73.51,66.11],[-73.94,66.3],[-74.56,66.24],[-74.74,66.0],[-74.31,65.81],[-74.5,65.56]]],[[[81.17,6.3],[80.97,6.43],[80.75,6.32],[80.75,6.07],[80.95,5.94],[81.16,6.05],[81.17,6.3]]],[[[-169.96,56.99],[-169.66,57.16],[-169.78,57.36],[-170.49,57.23],[-170.37,57.02],[-169.96,56.99]]],[[[41.18,12.91],[41.3,12.72],[41.65,12.94],[41.3,13.11],[41.18,12.91]]],[[[-160.43,54.99],[-159.77,55.07],[-159.81,55.27],[-160.17,55.33],[-160.48,55.19],[-160.43,54.99]]],[[[81.61,6.78],[81.81,6.64],[82.03,6.76],[82.04,7.01],[81.83,7.14],[81.61,7.03],[81.61,6.78]]],[[[145.77,19.43],[145.82,19.67],[145.62,19.83],[145.37,19.75],[145.33,19.52],[145.77,19.43]]],[[[-69.43,59.43],[-69.24,59.67],[-69.56,59.87],[-70.07,59.83],[-70.25,59.59],[-69.93,59.39],[-69.43,59.43]]],[[[94.6,13.62],[94.38,13.76],[94.14,13.65],[94.12,13.4],[94.34,13.25],[94.58,13.36],[94.6,13.62]]],[[[-169.92,16.53],[-169.81,16.32],[-169.57,16.3],[-169.06,16.7],[-169.17,16.92],[-169.76,17.16],[-169.92,16.53]]],[[[141.04,26.96],[141.09,27.18],[140.63,27.25],[140.59,27.04],[140.79,26.89],[141.04,26.96]]],[[[-77.67,63.15],[-77.53,63.4],[-77.94,63.58],[-78.5,63.51],[-78.63,63.26],[-78.22,63.08],[-77.67,63.15]]],[[[117.53,-35.32],[117.96,-35.17],[117.55,-34.96],[117.4,-35.13],[117.53,-35.32]]],[[[145.83,18.57],[146.07,18.64],[146.12,18.88],[145.92,19.04],[145.67,18.97],[145.63,18.73],[145.83,18.57]]],[[[111.19,16.22],[110.96,16.13],[110.93,15.89],[111.13,15.73],[111.36,15.83],[111.39,16.07],[111.19,16.22]]],[[[52.04,25.69],[52.39,25.43],[52.54,25.59],[52.45,25.8],[52.04,25.69]]],[[[-156.93,71.17],[-156.27,71.07],[-155.64,71.21],[-155.66,71.45],[-156.34,71.55],[-156.97,71.41],[-156.93,71.17]]],[[[115.52,-34.25],[115.36,-34.42],[115.48,-34.61],[115.92,-34.47],[115.52,-34.25]]],[[[-124.23,44.96],[-124.15,44.75],[-123.84,44.71],[-123.61,44.88],[-123.68,45.09],[-124.23,44.96]]]]}}]}