{"type":"FeatureCollection","features":[{"type":"Feature","properties":{},"geometry":{"type":"MultiPolygon","coordinates":[[[[-136.18,69.58],[-137.65,69.22],[-138.38,69.75],[-141.28,69.81],[-142.14,70.33],[-148.15,70.52],[-148.86,70.17],[-142.93,70.01],[-142.06,69.5],[-139.2,69.45],[-138.46,68.92],[-136.35,68.76],[-135.52,69.04],[-135.95,69.2],[-135.74,69.42],[-132.99,69.27],[-130.93,70.01],[-128.33,69.66],[-128.04,69.87],[-128.38,70.07],[-130.39,70.44],[-133.16,69.65],[-134.23,69.76],[-134.0,69.98],[-134.43,70.14],[-136.18,69.58]]],[[[81.71,80.52],[80.15,81.14],[77.43,81.1],[79.16,80.5],[81.71,80.52]]],[[[-61.76,82.67],[-64.58,82.47],[-63.72,82.28],[-64.49,82.09],[-63.54,81.9],[-65.93,81.69],[-66.6,81.49],[-65.67,81.3],[-66.32,81.1],[-69.95,80.85],[-70.48,80.64],[-69.55,80.46],[-70.07,80.24],[-76.74,79.41],[-77.08,79.19],[-75.63,78.63],[-77.45,78.12],[-73.15,78.12],[-73.52,77.89],[-72.36,77.32],[-74.12,76.82],[-70.61,76.54],[-69.66,75.95],[-65.45,75.63],[-62.55,76.07],[-59.03,75.43],[-59.52,75.23],[-59.05,75.01],[-59.52,74.81],[-57.71,74.36],[-58.22,73.74],[-56.54,73.28],[-57.0,73.08],[-56.62,72.86],[-57.12,72.23],[-55.95,71.99],[-55.6,71.77],[-56.03,71.57],[-54.59,71.09],[-55.02,70.89],[-54.7,70.66],[-55.11,70.46],[-54.8,70.24],[-55.29,69.61],[-53.99,69.12],[-54.39,68.92],[-54.1,68.69],[-54.49,68.49],[-54.2,68.26],[-54.58,68.06],[-54.3,67.83],[-54.76,67.19],[-53.59,66.71],[-54.14,65.64],[-53.06,65.15],[-53.4,64.95],[-52.59,64.69],[-52.47,64.02],[-51.91,63.99],[-51.7,63.76],[-52.03,63.56],[-51.27,63.29],[-51.07,63.06],[-51.4,62.86],[-50.47,62.36],[-50.79,62.16],[-50.6,61.93],[-49.39,61.62],[-49.35,60.96],[-48.04,60.41],[-46.75,60.51],[-45.37,59.71],[-43.54,59.49],[-42.42,59.79],[-43.12,60.32],[-41.96,60.61],[-42.67,61.15],[-41.49,61.43],[-41.24,61.84],[-41.95,62.38],[-41.7,62.8],[-40.45,63.07],[-39.59,64.28],[-40.34,64.84],[-38.98,65.09],[-38.66,65.49],[-36.22,65.55],[-34.04,66.53],[-32.06,66.61],[-32.68,67.2],[-31.78,67.95],[-25.56,68.48],[-24.97,69.07],[-23.37,69.16],[-20.82,70.49],[-21.18,71.1],[-20.48,71.42],[-21.89,72.55],[-19.69,73.28],[-20.06,73.89],[-16.53,75.13],[-18.66,76.43],[-17.47,76.96],[-18.18,77.12],[-18.01,77.35],[-15.76,77.94],[-18.25,78.18],[-16.86,78.71],[-17.68,78.86],[-17.47,79.09],[-15.89,79.33],[-17.24,79.85],[-13.72,80.32],[-13.23,80.52],[-14.14,80.69],[-13.64,80.89],[-11.6,81.11],[-12.55,81.29],[-9.73,81.7],[-13.44,82.04],[-17.27,81.77],[-19.19,82.3],[-18.71,82.51],[-20.02,82.67],[-19.55,82.89],[-24.32,83.13],[-23.96,83.35],[-25.58,83.5],[-25.24,83.72],[-26.98,83.86],[-38.71,83.9],[-45.6,83.35],[-43.37,83.05],[-36.64,83.57],[-27.52,83.41],[-27.77,83.19],[-26.18,83.06],[-26.45,82.84],[-23.2,82.77],[-21.8,82.62],[-22.19,82.4],[-30.06,82.45],[-33.36,81.59],[-28.94,81.88],[-27.6,81.75],[-29.25,81.45],[-29.39,81.23],[-28.14,81.11],[-23.23,81.76],[-22.01,81.61],[-24.11,81.12],[-22.16,80.62],[-20.44,80.89],[-21.53,81.04],[-21.19,81.25],[-16.09,81.03],[-17.97,80.78],[-18.37,80.58],[-17.39,80.42],[-17.78,80.21],[-21.43,80.27],[-21.73,80.06],[-20.75,79.91],[-21.05,79.71],[-24.2,79.68],[-21.33,79.25],[-24.63,78.29],[-23.82,77.92],[-24.86,77.36],[-23.32,76.85],[-25.15,75.96],[-22.88,75.78],[-21.17,76.19],[-19.89,75.66],[-21.67,75.03],[-21.2,74.42],[-23.32,74.37],[-23.38,74.14],[-21.39,73.95],[-21.48,73.72],[-24.84,73.7],[-24.3,73.1],[-25.69,72.41],[-23.84,72.25],[-23.37,71.65],[-26.39,71.59],[-25.85,70.99],[-27.62,69.93],[-25.92,70.27],[-23.69,70.23],[-23.21,69.86],[-25.46,69.43],[-26.59,68.73],[-31.87,68.44],[-33.21,67.3],[-34.7,67.11],[-35.03,66.48],[-36.02,66.43],[-36.83,65.88],[-37.99,66.29],[-38.33,65.89],[-40.99,65.15],[-43.36,60.79],[-44.52,60.49],[-45.75,61.07],[-47.06,60.98],[-49.06,61.82],[-49.24,62.05],[-48.91,62.24],[-49.8,62.75],[-49.47,62.95],[-49.66,63.18],[-51.15,63.73],[-50.67,64.35],[-49.75,64.51],[-49.96,64.75],[-53.19,65.82],[-52.6,66.88],[-53.75,67.37],[-50.83,67.44],[-50.27,68.06],[-51.42,68.56],[-49.92,68.91],[-51.1,69.42],[-50.5,70.03],[-50.76,70.26],[-50.32,70.45],[-51.6,70.96],[-51.14,71.15],[-51.43,71.38],[-52.49,71.65],[-52.03,71.84],[-52.34,72.07],[-54.37,71.94],[-54.71,72.17],[-54.26,72.36],[-54.6,72.59],[-55.78,72.84],[-55.22,73.46],[-55.6,73.68],[-55.11,73.88],[-55.5,74.1],[-55.0,74.3],[-56.73,74.76],[-56.22,74.96],[-56.65,75.18],[-58.06,75.41],[-57.54,75.61],[-58.01,75.83],[-59.5,76.06],[-62.63,76.48],[-68.26,76.2],[-69.16,76.8],[-70.92,76.95],[-70.54,77.17],[-65.66,77.49],[-71.98,78.16],[-62.74,79.53],[-63.46,79.73],[-62.85,79.93],[-63.6,80.13],[-65.82,80.31],[-65.21,80.51],[-66.06,80.71],[-65.43,80.91],[-60.85,80.52],[-58.65,80.7],[-61.69,81.11],[-60.94,81.31],[-61.77,81.51],[-58.51,81.87],[-59.33,82.08],[-58.45,82.26],[-61.76,82.67]],[[-71.97,78.78],[-74.42,78.69],[-72.39,79.17],[-73.26,79.35],[-72.84,79.56],[-71.05,79.82],[-67.8,80.09],[-64.81,79.72],[-71.97,78.78]],[[-52.21,69.26],[-51.94,69.03],[-52.35,68.83],[-53.31,69.09],[-52.21,69.26]],[[-52.92,70.38],[-53.96,70.64],[-52.79,70.8],[-51.48,70.3],[-52.92,70.38]],[[-53.77,69.98],[-52.77,69.72],[-53.88,69.55],[-54.18,69.78],[-53.77,69.98]]],[[[119.23,-34.37],[118.39,-34.67],[118.23,-35.19],[115.73,-34.99],[116.66,-35.61],[115.62,-36.06],[115.48,-37.53],[116.0,-38.33],[116.73,-38.58],[116.84,-39.15],[117.61,-39.02],[118.65,-39.65],[119.41,-39.5],[121.4,-40.16],[123.06,-40.01],[123.7,-40.4],[126.12,-40.05],[126.76,-40.4],[128.78,-40.17],[129.28,-39.69],[130.05,-39.79],[129.96,-39.38],[130.44,-38.88],[129.69,-38.14],[120.43,-34.93],[120.23,-33.97],[119.23,-34.37]]],[[[-82.67,75.81],[-80.2,75.58],[-80.41,75.35],[-79.68,75.18],[-79.89,74.95],[-81.88,74.55],[-85.85,74.82],[-86.82,74.48],[-82.05,74.31],[-81.36,74.16],[-81.53,73.92],[-87.76,74.13],[-89.46,73.67],[-90.9,74.17],[-91.7,74.06],[-90.99,73.69],[-91.82,73.08],[-93.3,73.08],[-94.75,72.57],[-95.48,72.69],[-94.78,73.31],[-95.56,73.66],[-94.82,74.04],[-91.64,74.54],[-88.43,74.51],[-88.35,74.75],[-89.12,74.89],[-92.41,74.9],[-91.49,75.51],[-94.04,75.62],[-91.37,76.23],[-94.05,76.34],[-95.77,75.84],[-97.61,76.28],[-98.45,76.14],[-97.44,75.56],[-98.97,75.04],[-100.89,75.7],[-102.56,75.63],[-100.5,74.75],[-98.07,74.7],[-98.01,74.46],[-100.31,74.27],[-100.23,74.03],[-97.9,73.98],[-99.14,72.96],[-96.95,72.9],[-97.6,72.52],[-96.8,71.92],[-98.83,71.74],[-101.15,72.52],[-100.67,73.15],[-99.98,73.3],[-100.94,73.88],[-102.44,73.81],[-101.44,73.24],[-103.53,73.01],[-99.34,71.1],[-96.73,71.43],[-97.34,71.04],[-96.61,70.44],[-99.57,69.48],[-100.28,69.82],[-99.22,70.61],[-99.96,70.96],[-101.25,70.9],[-101.17,70.66],[-101.76,70.5],[-104.04,71.25],[-103.68,71.89],[-104.53,72.21],[-103.92,72.37],[-104.04,72.61],[-104.94,72.93],[-103.79,73.49],[-104.87,74.04],[-107.17,74.02],[-108.66,73.03],[-110.44,73.38],[-112.36,73.07],[-114.45,73.6],[-116.59,73.48],[-117.1,73.29],[-116.81,73.06],[-114.73,73.19],[-114.47,72.96],[-114.99,72.78],[-114.73,72.55],[-112.13,72.84],[-109.05,72.62],[-108.87,72.39],[-109.43,72.21],[-109.25,71.98],[-107.61,71.61],[-106.62,72.19],[-107.7,72.73],[-107.1,72.9],[-107.27,73.14],[-106.65,73.31],[-106.82,73.55],[-105.38,73.64],[-105.23,73.41],[-106.33,72.84],[-105.42,72.53],[-105.28,72.29],[-105.88,72.12],[-105.0,71.81],[-105.32,71.16],[-102.25,70.1],[-102.16,69.86],[-103.92,69.63],[-101.98,69.36],[-101.89,69.12],[-102.44,68.96],[-106.94,69.53],[-107.81,68.95],[-112.85,68.53],[-112.79,69.19],[-115.39,69.36],[-116.51,69.86],[-113.82,70.35],[-112.26,70.02],[-111.49,70.62],[-111.69,70.85],[-114.5,71.03],[-116.81,70.73],[-116.88,71.37],[-118.87,71.87],[-118.26,72.48],[-117.02,72.65],[-117.3,72.87],[-119.31,72.72],[-119.77,72.52],[-119.46,72.3],[-121.07,71.92],[-120.76,71.71],[-121.17,71.5],[-124.38,71.33],[-122.35,70.9],[-119.03,71.45],[-118.89,70.81],[-117.0,70.31],[-118.1,70.14],[-118.51,69.95],[-118.25,69.73],[-116.7,69.44],[-116.64,68.79],[-114.95,68.9],[-114.74,68.67],[-115.36,68.07],[-114.34,67.56],[-111.94,67.36],[-110.46,67.66],[-107.32,67.08],[-106.86,67.25],[-106.99,67.5],[-107.73,67.81],[-106.15,68.07],[-106.28,68.32],[-105.78,68.48],[-103.62,67.5],[-99.17,67.73],[-96.84,67.3],[-95.67,66.57],[-95.14,66.95],[-95.72,67.32],[-93.43,68.6],[-94.03,69.23],[-93.41,69.61],[-95.93,70.08],[-95.34,70.71],[-96.02,71.07],[-95.39,71.46],[-94.03,71.47],[-93.37,71.1],[-92.1,70.36],[-92.78,69.73],[-91.58,69.23],[-90.5,68.21],[-88.77,68.05],[-87.33,66.86],[-85.35,67.67],[-85.72,68.32],[-84.33,68.77],[-85.16,69.82],[-82.65,69.7],[-82.77,69.45],[-81.81,68.88],[-82.72,68.29],[-81.8,67.72],[-81.55,67.05],[-84.68,66.35],[-85.19,66.51],[-85.1,66.76],[-86.21,66.81],[-86.87,66.46],[-86.51,65.8],[-87.7,65.34],[-89.12,66.28],[-90.29,65.79],[-89.85,65.15],[-88.31,64.97],[-87.93,64.32],[-89.96,64.38],[-91.03,63.89],[-92.52,64.04],[-93.01,64.42],[-96.53,64.27],[-93.05,63.15],[-92.05,63.65],[-90.58,63.5],[-91.13,62.87],[-92.59,62.76],[-95.35,60.47],[-94.9,60.09],[-95.31,59.45],[-94.44,58.69],[-93.6,58.68],[-92.77,58.17],[-93.2,57.79],[-92.81,57.15],[-89.58,57.06],[-89.94,57.46],[-92.39,57.52],[-91.94,58.15],[-92.34,58.54],[-91.91,58.66],[-87.29,58.36],[-86.34,58.82],[-80.91,58.23],[-79.04,58.54],[-78.79,58.11],[-77.62,57.83],[-77.3,56.72],[-78.09,56.83],[-78.2,57.51],[-79.37,57.79],[-79.62,58.21],[-80.08,58.13],[-79.83,57.71],[-80.38,57.38],[-80.13,56.96],[-80.77,56.37],[-79.94,55.36],[-78.97,55.76],[-77.23,55.12],[-77.32,55.79],[-76.19,56.42],[-76.94,57.46],[-76.22,58.03],[-77.85,58.26],[-78.45,58.86],[-77.1,59.75],[-77.96,60.79],[-77.18,61.36],[-77.82,61.97],[-77.68,62.22],[-74.93,61.86],[-72.79,62.09],[-72.43,61.89],[-72.6,61.65],[-70.35,60.71],[-70.11,59.15],[-68.5,58.82],[-68.09,58.18],[-66.16,58.3],[-65.96,58.54],[-66.25,58.74],[-65.34,59.23],[-65.63,59.44],[-65.42,59.68],[-64.19,59.95],[-63.9,59.74],[-64.07,59.06],[-63.3,58.87],[-63.04,58.65],[-63.26,58.43],[-61.51,57.37],[-61.68,56.26],[-60.99,56.06],[-60.75,55.4],[-57.71,54.55],[-57.53,53.9],[-55.9,53.45],[-55.84,51.95],[-57.28,51.32],[-55.54,51.09],[-55.27,51.72],[-54.66,51.92],[-55.4,52.37],[-55.25,53.65],[-56.89,54.11],[-57.05,54.76],[-59.42,55.42],[-59.64,56.07],[-60.32,56.29],[-60.1,56.95],[-61.04,57.38],[-60.83,58.04],[-62.29,58.45],[-62.59,59.11],[-63.35,59.31],[-63.17,59.98],[-64.25,60.39],[-64.02,60.62],[-64.31,60.83],[-65.57,60.56],[-65.79,60.33],[-65.49,60.12],[-67.03,58.92],[-68.31,59.06],[-68.74,59.71],[-69.56,59.87],[-68.04,59.98],[-67.12,60.48],[-69.12,61.03],[-68.19,61.54],[-68.52,61.74],[-68.31,61.98],[-64.37,61.28],[-64.2,61.95],[-64.51,62.16],[-63.47,62.64],[-64.65,63.05],[-63.59,63.52],[-63.97,64.18],[-63.71,64.41],[-64.96,64.81],[-61.42,65.32],[-61.15,65.99],[-61.47,66.2],[-60.23,66.65],[-61.53,67.08],[-61.22,67.3],[-61.56,67.52],[-65.34,68.12],[-65.84,68.76],[-66.95,68.94],[-65.66,69.42],[-66.07,69.63],[-65.77,69.85],[-68.76,70.84],[-68.46,71.07],[-68.94,71.27],[-71.0,71.39],[-71.76,72.01],[-73.91,72.1],[-74.8,72.7],[-76.21,72.82],[-74.89,73.35],[-76.98,73.64],[-76.75,73.88],[-77.39,74.05],[-78.48,73.74],[-77.84,73.57],[-78.05,73.34],[-77.43,73.17],[-77.64,72.93],[-81.03,73.52],[-79.81,74.07],[-80.49,74.24],[-80.29,74.47],[-78.28,74.86],[-78.05,75.09],[-78.75,75.26],[-78.52,75.49],[-79.25,75.65],[-77.79,76.19],[-78.54,76.35],[-78.29,76.59],[-76.99,76.88],[-77.77,77.05],[-77.49,77.28],[-76.11,77.56],[-79.39,77.37],[-79.63,77.14],[-78.82,76.98],[-79.07,76.75],[-88.57,76.56],[-89.45,76.69],[-89.37,76.93],[-86.5,77.01],[-86.37,77.24],[-87.27,77.38],[-87.15,77.61],[-83.42,77.29],[-83.24,77.52],[-84.13,77.67],[-83.95,77.9],[-85.66,78.41],[-91.96,78.47],[-92.96,79.05],[-91.79,79.4],[-94.06,79.39],[-96.14,78.43],[-87.98,77.98],[-91.1,77.65],[-93.13,76.7],[-91.29,76.7],[-89.59,76.22],[-84.26,76.11],[-85.35,75.78],[-89.66,75.98],[-90.62,75.62],[-84.7,75.4],[-82.67,75.81]],[[-80.75,68.55],[-81.0,69.21],[-79.79,69.12],[-79.94,68.87],[-79.42,68.7],[-80.38,68.13],[-78.07,67.94],[-76.98,66.91],[-73.14,67.26],[-74.81,66.67],[-74.99,66.43],[-74.56,66.24],[-74.5,65.56],[-77.62,65.93],[-78.23,65.85],[-78.38,65.61],[-77.93,65.43],[-78.8,64.86],[-81.2,65.47],[-82.47,65.05],[-82.94,65.21],[-82.14,65.8],[-82.62,65.97],[-82.51,66.22],[-80.3,67.22],[-81.54,68.22],[-80.75,68.55]],[[-87.47,70.66],[-86.68,71.01],[-87.31,71.16],[-87.23,71.4],[-89.24,71.57],[-89.18,71.82],[-89.85,71.96],[-89.0,72.56],[-90.44,72.58],[-91.21,72.22],[-89.95,71.46],[-90.69,71.1],[-90.14,70.47],[-90.81,70.35],[-94.03,72.21],[-91.1,72.95],[-88.87,73.05],[-87.12,73.75],[-86.4,73.61],[-87.3,73.27],[-87.39,73.02],[-86.7,72.88],[-87.64,72.29],[-86.97,72.14],[-86.51,71.51],[-84.52,71.31],[-83.66,71.65],[-85.67,71.85],[-84.69,72.44],[-85.35,72.59],[-85.24,72.83],[-82.54,73.59],[-80.9,72.64],[-81.85,72.31],[-82.0,72.07],[-81.38,71.91],[-77.25,72.52],[-75.28,72.23],[-75.51,71.99],[-74.63,71.39],[-71.27,71.16],[-70.77,70.97],[-71.03,70.73],[-67.96,69.78],[-69.22,69.29],[-67.65,68.92],[-68.88,68.42],[-66.82,68.51],[-66.29,67.87],[-64.57,67.7],[-64.12,67.05],[-62.48,66.85],[-62.1,66.2],[-64.79,65.49],[-65.23,66.14],[-69.93,66.81],[-70.53,67.45],[-71.61,67.6],[-71.39,67.84],[-72.95,68.18],[-72.97,68.84],[-75.32,69.11],[-76.13,69.71],[-77.36,69.83],[-77.52,70.49],[-78.06,70.66],[-80.09,70.68],[-81.82,70.03],[-86.94,70.27],[-87.54,70.41],[-87.47,70.66]],[[-70.59,62.95],[-71.51,63.11],[-71.49,63.78],[-72.84,64.13],[-72.65,64.37],[-73.04,64.56],[-72.26,64.85],[-70.3,64.55],[-70.26,65.23],[-70.65,65.42],[-69.59,65.94],[-67.97,65.8],[-67.6,65.6],[-67.84,65.37],[-66.51,64.98],[-66.75,64.75],[-66.4,64.54],[-64.88,64.37],[-64.48,63.72],[-66.1,63.22],[-68.84,63.75],[-69.05,63.51],[-66.79,62.51],[-67.01,62.28],[-70.59,62.95]],[[-101.65,68.38],[-100.96,68.03],[-102.09,67.97],[-101.65,68.38]],[[-86.9,68.37],[-88.42,69.56],[-90.27,69.72],[-90.23,69.97],[-88.84,70.44],[-88.22,70.3],[-87.76,69.66],[-85.93,69.48],[-86.67,69.12],[-86.27,68.47],[-86.9,68.37]],[[-94.04,74.9],[-95.67,74.88],[-96.58,75.46],[-94.89,75.49],[-94.04,74.9]],[[-82.78,64.29],[-83.79,64.36],[-85.05,63.66],[-86.3,64.63],[-85.6,65.24],[-83.98,65.28],[-83.51,65.12],[-83.6,64.87],[-82.12,64.63],[-81.88,63.96],[-82.88,64.04],[-82.78,64.29]],[[-97.76,69.66],[-96.44,68.94],[-98.83,68.88],[-97.76,69.66]],[[-88.65,68.55],[-89.85,68.58],[-89.18,68.94],[-88.65,68.55]],[[-108.01,68.29],[-108.15,68.53],[-107.66,68.71],[-106.9,68.39],[-108.01,68.29]],[[-78.4,68.36],[-78.58,69.02],[-77.9,69.09],[-77.07,68.5],[-78.4,68.36]],[[-82.5,62.44],[-83.45,62.51],[-82.83,62.86],[-82.5,62.44]]],[[[75.21,35.72],[75.54,35.12],[76.08,35.16],[75.74,35.76],[75.21,35.72]]],[[[70.13,-49.83],[69.96,-49.45],[69.02,-49.45],[68.87,-49.07],[70.64,-49.29],[71.07,-48.98],[69.3,-48.77],[68.58,-48.32],[68.63,-48.92],[68.19,-49.22],[68.49,-49.98],[70.13,-49.83]]],[[[-113.23,75.25],[-114.72,75.1],[-114.43,74.88],[-115.01,74.69],[-114.72,74.47],[-112.77,74.16],[-110.72,74.48],[-113.29,74.62],[-113.56,74.84],[-112.95,75.03],[-113.23,75.25]]],[[[-175.12,52.05],[-173.04,51.75],[-169.97,52.73],[-168.48,52.6],[-168.23,53.16],[-166.12,53.51],[-165.84,54.06],[-164.96,53.76],[-164.68,54.3],[-162.07,54.3],[-161.76,54.83],[-159.03,54.74],[-158.75,55.07],[-159.53,55.6],[-157.85,55.87],[-157.58,56.41],[-156.55,56.6],[-155.56,57.6],[-154.46,56.95],[-154.79,56.42],[-154.1,56.46],[-153.76,56.99],[-154.47,57.56],[-151.92,58.41],[-153.01,58.68],[-153.37,59.19],[-152.6,59.64],[-152.22,59.55],[-152.62,59.01],[-151.12,59.06],[-151.81,59.88],[-150.99,60.33],[-151.34,60.86],[-150.09,61.2],[-151.71,61.17],[-153.37,59.61],[-154.89,59.11],[-153.75,58.86],[-154.12,58.31],[-155.94,57.89],[-156.35,58.39],[-156.01,58.73],[-156.41,59.02],[-154.92,59.75],[-156.09,59.79],[-156.95,60.39],[-160.45,59.77],[-160.19,60.35],[-160.68,60.64],[-159.14,61.22],[-159.68,61.74],[-159.33,62.1],[-160.3,62.48],[-161.04,61.96],[-162.1,62.54],[-163.45,62.52],[-162.33,63.22],[-161.02,63.45],[-160.29,64.2],[-160.93,64.74],[-160.55,65.12],[-162.48,64.96],[-162.4,64.73],[-163.77,64.49],[-163.68,64.26],[-161.3,64.36],[-161.58,63.75],[-163.08,63.96],[-163.49,63.8],[-162.9,63.51],[-163.23,63.13],[-164.31,63.48],[-165.6,63.22],[-166.67,61.67],[-165.43,60.9],[-168.2,60.4],[-166.52,59.61],[-165.14,60.25],[-164.69,60.2],[-164.87,59.61],[-162.09,59.83],[-162.86,58.52],[-157.83,58.27],[-158.74,57.03],[-160.16,56.89],[-160.72,56.2],[-162.1,56.03],[-163.57,55.1],[-165.12,54.93],[-165.41,54.39],[-167.17,54.02],[-168.09,54.31],[-168.98,53.23],[-171.87,52.48],[-172.81,52.74],[-173.03,52.15],[-174.54,52.63],[-175.32,52.26],[-176.28,52.49],[-177.62,51.92],[-178.6,52.14],[-179.35,51.74],[-179.12,51.13],[-177.99,51.52],[-177.02,51.3],[-175.12,52.05]],[[-159.25,55.94],[-160.35,56.14],[-159.33,56.35],[-158.96,56.28],[-159.25,55.94]],[[-157.34,57.36],[-156.29,57.76],[-156.93,56.88],[-158.34,56.76],[-157.34,57.36]]],[[[80.42,77.52],[82.45,77.03],[84.31,77.78],[81.3,77.9],[80.34,77.77],[80.42,77.52]]],[[[-180.0,65.83],[-179.54,65.61],[-179.88,65.4],[-179.62,65.19],[-176.36,65.31],[-176.26,64.67],[-173.44,63.91],[-172.17,64.25],[-171.95,65.29],[-171.57,65.47],[-169.05,65.7],[-168.33,65.42],[-168.45,64.79],[-166.96,64.86],[-165.65,64.29],[-164.29,64.55],[-164.4,64.78],[-166.54,65.03],[-166.37,65.65],[-167.07,65.94],[-166.63,66.11],[-164.61,66.32],[-163.39,65.95],[-159.88,66.34],[-161.79,67.29],[-163.33,67.05],[-162.66,66.74],[-163.03,66.35],[-164.96,67.02],[-165.75,66.45],[-167.35,66.4],[-168.06,65.82],[-172.71,67.48],[-175.25,67.61],[-175.65,67.41],[-174.78,67.16],[-174.72,66.51],[-172.92,67.06],[-170.36,66.02],[-172.71,65.55],[-172.53,65.33],[-173.27,64.32],[-175.35,64.85],[-175.41,65.48],[-176.22,65.73],[-178.61,65.8],[-178.77,66.44],[-180.0,66.25],[-180.0,65.83]]],[[[180.0,66.25],[179.32,66.05],[180.0,65.83],[180.0,66.25]]],[[[47.68,29.24],[48.33,29.41],[48.9,30.2],[49.92,30.11],[50.71,29.0],[51.18,29.51],[50.07,30.28],[49.35,32.18],[48.58,32.69],[47.11,32.6],[45.93,33.3],[45.43,34.16],[46.0,34.55],[46.04,35.38],[45.22,35.85],[44.7,37.13],[43.11,37.01],[41.2,38.55],[39.99,38.59],[38.18,37.77],[38.2,37.35],[39.11,37.34],[38.51,36.92],[37.75,37.14],[37.61,36.92],[38.22,36.5],[37.78,36.28],[37.8,35.85],[38.7,35.42],[39.44,35.63],[39.6,34.56],[40.91,33.9],[41.63,34.1],[41.62,33.25],[42.59,31.74],[43.28,31.93],[45.79,30.37],[46.46,30.55],[47.59,29.86],[47.68,29.24]],[[39.86,37.54],[39.4,37.76],[39.55,37.97],[39.85,37.96],[39.86,37.54]]],[[[26.3,-71.12],[26.94,-71.25],[27.56,-70.9],[25.03,-70.86],[23.82,-70.34],[21.35,-70.25],[19.97,-70.68],[18.9,-70.13],[17.46,-70.54],[16.04,-69.57],[15.25,-69.88],[15.79,-70.05],[15.66,-70.29],[12.53,-70.14],[11.46,-70.68],[13.58,-70.49],[20.49,-71.07],[21.89,-70.64],[23.07,-71.17],[26.3,-71.12]]],[[[69.53,30.3],[68.77,30.32],[68.38,29.78],[67.79,30.18],[67.26,29.25],[67.63,28.71],[67.26,28.18],[67.63,27.64],[67.27,27.12],[67.47,26.21],[68.03,25.83],[67.93,25.24],[67.02,25.11],[66.56,26.08],[66.21,25.56],[68.6,23.2],[68.95,23.69],[69.48,23.32],[71.18,23.98],[71.48,24.91],[70.41,24.44],[70.12,24.75],[70.66,25.61],[70.33,26.14],[70.88,27.03],[71.61,27.0],[73.81,28.41],[75.51,28.45],[76.12,29.57],[77.78,30.52],[79.06,29.77],[80.28,29.96],[78.77,30.59],[78.48,31.17],[77.72,31.24],[77.14,32.16],[76.15,31.85],[76.57,32.85],[75.78,32.92],[75.98,33.54],[75.07,34.58],[74.02,34.49],[73.42,34.93],[74.92,35.82],[73.74,36.47],[73.49,36.32],[73.85,35.72],[72.85,35.13],[71.7,35.51],[68.81,35.02],[70.39,33.85],[69.45,33.23],[69.83,32.66],[69.29,31.48],[70.11,31.22],[69.71,30.68],[70.07,30.13],[69.53,30.3]],[[69.67,29.59],[69.33,28.83],[68.75,29.23],[68.92,29.61],[69.67,29.59]]],[[[78.44,79.61],[74.65,79.9],[77.53,79.22],[78.58,79.36],[78.44,79.61]]],[[[-81.43,66.14],[-81.55,65.89],[-81.08,65.72],[-80.35,66.05],[-81.43,66.14]]],[[[132.48,-66.32],[132.68,-66.08],[132.29,-65.89],[131.5,-66.18],[132.48,-66.32]]],[[[-8.72,41.01],[-9.34,40.31],[-9.13,39.67],[-9.72,39.21],[-9.24,38.43],[-8.94,38.79],[-9.17,39.18],[-8.58,39.63],[-8.79,40.27],[-8.17,40.97],[-8.64,41.75],[-9.2,41.8],[-8.72,41.01]]],[[[-36.09,-53.99],[-38.21,-53.94],[-38.61,-54.27],[-36.14,-55.12],[-35.39,-54.67],[-36.09,-53.99]]],[[[167.05,69.87],[166.79,69.63],[168.4,69.27],[171.46,70.06],[173.74,69.68],[174.81,69.92],[172.11,70.52],[167.05,69.87]]],[[[79.04,-68.03],[79.51,-68.43],[80.18,-68.08],[79.04,-68.03]]],[[[-173.5,59.81],[-171.64,60.29],[-173.53,61.02],[-173.85,60.84],[-173.05,60.39],[-174.13,60.05],[-173.5,59.81]]],[[[94.91,29.59],[94.12,28.83],[94.33,28.47],[94.85,28.9],[95.29,28.42],[95.81,28.85],[96.94,27.96],[97.46,28.39],[96.08,29.18],[95.45,30.25],[94.72,30.17],[94.91,29.59]]],[[[-86.51,56.12],[-87.3,56.17],[-87.58,56.83],[-88.77,57.02],[-89.23,56.66],[-88.05,56.47],[-87.76,55.82],[-86.2,55.71],[-85.54,55.15],[-82.83,55.03],[-82.48,54.87],[-82.98,54.53],[-82.71,54.12],[-81.73,54.79],[-82.33,55.37],[-85.06,55.5],[-85.72,56.06],[-86.51,56.12]]],[[[121.71,28.32],[121.98,28.63],[121.55,28.64],[120.99,27.81],[121.41,27.8],[121.71,28.32]]],[[[108.29,37.37],[108.78,36.91],[108.64,37.64],[108.29,37.37]]],[[[-125.45,70.3],[-125.13,70.09],[-126.11,69.88],[-126.45,70.5],[-128.43,70.48],[-126.1,69.47],[-123.56,69.45],[-122.2,69.85],[-124.16,69.88],[-124.44,70.5],[-125.45,70.3]]],[[[-55.34,-63.22],[-58.63,-63.47],[-56.84,-63.77],[-55.17,-63.64],[-54.98,-63.41],[-55.34,-63.22]]],[[[-164.74,68.76],[-163.08,69.02],[-162.32,70.05],[-160.53,70.28],[-160.62,70.53],[-162.54,70.54],[-163.54,69.97],[-163.83,69.33],[-166.66,68.96],[-166.85,68.32],[-164.61,67.42],[-163.54,67.51],[-165.74,68.43],[-165.88,68.66],[-165.38,68.83],[-164.74,68.76]]],[[[-79.32,52.93],[-78.81,53.25],[-79.34,53.84],[-80.26,53.44],[-80.35,53.2],[-79.32,52.93]]],[[[104.57,43.55],[103.43,44.14],[102.67,43.55],[103.56,43.75],[104.51,42.71],[104.89,43.0],[104.57,43.55]]],[[[52.43,79.78],[55.77,79.98],[59.66,79.49],[60.41,79.69],[59.84,79.91],[62.85,80.26],[62.31,80.49],[63.2,80.68],[68.1,80.94],[65.59,81.47],[66.67,81.65],[66.14,81.88],[59.34,82.04],[54.22,81.67],[53.45,81.46],[54.28,81.24],[53.54,81.04],[51.16,81.24],[51.86,81.46],[50.95,81.66],[49.32,81.65],[48.68,81.43],[49.61,81.23],[49.0,81.02],[45.03,81.16],[42.64,80.68],[45.01,80.53],[46.32,79.93],[50.54,79.57],[52.43,79.78]]],[[[165.94,-50.83],[165.63,-51.2],[166.29,-51.17],[166.59,-50.57],[165.94,-50.83]]],[[[31.85,-70.52],[32.34,-70.16],[29.94,-70.18],[31.85,-70.52]]],[[[149.32,76.96],[148.36,77.1],[147.31,76.73],[149.1,76.19],[150.08,76.3],[150.17,76.56],[149.25,76.7],[149.32,76.96]]],[[[80.83,-67.73],[81.32,-68.13],[81.96,-67.77],[80.83,-67.73]]],[[[171.26,69.4],[169.26,68.88],[171.36,68.96],[171.66,69.19],[171.26,69.4]]],[[[-158.84,70.98],[-159.51,71.07],[-160.11,70.92],[-160.03,70.68],[-157.51,70.79],[-158.84,70.98]]],[[[-61.31,-62.56],[-59.61,-62.89],[-57.19,-61.89],[-58.02,-61.74],[-59.71,-62.48],[-61.31,-62.56]]],[[[135.23,-66.28],[141.7,-67.02],[142.36,-66.69],[135.97,-65.97],[135.23,-66.28]]],[[[-178.13,71.62],[-179.72,71.66],[-178.26,71.19],[-179.9,70.78],[-178.82,70.55],[-177.18,70.94],[-177.49,71.17],[-177.03,71.37],[-177.34,71.6],[-178.13,71.62]]],[[[-66.44,82.85],[-63.51,83.06],[-66.49,83.24],[-67.44,83.04],[-66.44,82.85]]],[[[-143.69,60.19],[-144.79,60.32],[-145.27,60.02],[-144.66,59.59],[-143.69,60.19]]],[[[35.55,80.19],[33.55,80.73],[30.68,80.11],[34.08,79.89],[35.55,80.19]]],[[[9.21,-70.18],[9.0,-70.42],[9.5,-70.6],[10.42,-70.32],[9.21,-70.18]]],[[[-180.0,51.53],[-179.74,51.74],[-179.99,52.35],[-180.0,51.53]]],[[[180.0,52.34],[177.25,52.31],[176.52,51.88],[179.52,51.33],[180.0,51.53],[180.0,52.34]]],[[[16.48,41.2],[17.13,41.31],[16.36,41.61],[16.24,42.02],[14.81,42.19],[14.69,42.6],[14.13,42.71],[14.39,41.9],[16.48,41.2]]],[[[178.26,71.46],[177.81,70.81],[179.34,70.8],[179.05,71.45],[178.26,71.46]]],[[[-104.08,76.64],[-101.91,76.02],[-100.39,76.56],[-97.66,76.52],[-95.92,77.03],[-94.05,77.05],[-93.07,77.65],[-98.21,78.39],[-99.19,78.25],[-96.98,77.6],[-97.79,76.99],[-104.08,76.64]]],[[[90.44,-66.92],[89.82,-66.56],[85.43,-66.58],[84.28,-67.32],[85.97,-67.47],[87.09,-66.96],[90.44,-66.92]]],[[[110.07,-66.81],[113.27,-65.86],[112.4,-65.6],[110.41,-65.94],[109.84,-66.58],[110.07,-66.81]]],[[[17.78,40.77],[17.24,40.9],[16.29,40.08],[18.33,39.99],[18.32,40.64],[17.78,40.77]]],[[[-180.0,68.89],[-176.13,67.86],[-175.08,68.03],[-179.14,69.25],[-180.0,69.38],[-180.0,68.89]]],[[[180.0,69.38],[176.65,70.15],[175.54,69.93],[180.0,68.89],[180.0,69.38]]],[[[-124.1,74.64],[-125.41,74.41],[-124.97,74.22],[-125.39,74.01],[-124.96,73.82],[-125.38,73.2],[-123.84,73.2],[-124.16,73.82],[-123.73,74.03],[-124.12,74.24],[-123.68,74.44],[-124.1,74.64]]],[[[-48.65,82.24],[-46.13,81.75],[-47.19,81.59],[-46.7,81.37],[-45.2,81.3],[-43.46,81.83],[-45.65,82.33],[-41.34,82.75],[-48.6,83.04],[-50.82,82.51],[-55.58,82.42],[-56.71,82.24],[-55.93,82.03],[-56.84,81.85],[-51.93,81.75],[-51.31,81.54],[-52.26,81.37],[-50.16,81.1],[-48.74,81.65],[-51.57,82.13],[-48.65,82.24]]],[[[-92.74,81.11],[-91.54,80.55],[-89.02,80.54],[-86.82,80.06],[-78.71,80.56],[-88.9,80.77],[-90.15,80.89],[-90.06,81.12],[-88.52,81.45],[-89.8,81.57],[-92.74,81.11]]],[[[115.5,56.81],[114.63,56.45],[115.27,56.23],[115.46,55.65],[116.78,56.37],[115.5,56.81]]],[[[107.73,33.52],[107.82,34.14],[106.88,34.28],[107.73,33.52]]],[[[-145.55,60.34],[-146.93,60.99],[-148.19,60.68],[-147.2,59.94],[-145.55,60.34]]],[[[-142.28,59.93],[-142.52,60.25],[-143.02,59.96],[-142.28,59.93]]],[[[29.39,-70.54],[28.15,-70.54],[28.82,-70.9],[29.39,-70.54]]],[[[77.99,74.76],[78.91,74.41],[81.2,74.56],[80.32,74.92],[77.99,74.76]]],[[[162.44,69.99],[162.23,69.74],[162.73,69.56],[165.12,69.3],[166.07,69.58],[162.44,69.99]]],[[[100.25,-66.13],[101.0,-66.45],[101.77,-65.85],[100.3,-65.21],[99.85,-65.38],[99.98,-65.63],[100.71,-65.96],[100.25,-66.13]]],[[[115.16,-33.69],[116.01,-33.42],[116.13,-32.05],[115.64,-31.67],[115.23,-31.8],[115.16,-32.47],[115.62,-33.21],[114.62,-33.63],[114.7,-34.17],[115.16,-33.69]]],[[[-170.3,63.06],[-170.66,62.88],[-170.0,62.62],[-168.76,62.92],[-168.53,63.32],[-170.01,64.08],[-172.72,63.65],[-171.85,63.18],[-170.3,63.06]]],[[[62.2,25.68],[61.43,25.88],[60.37,25.56],[61.45,25.08],[62.52,25.39],[62.2,25.68]]],[[[107.09,-66.83],[107.73,-66.88],[108.16,-66.69],[107.94,-66.45],[106.06,-66.3],[107.09,-66.83]]],[[[122.3,-66.62],[119.77,-66.65],[118.47,-67.08],[120.41,-67.52],[122.33,-67.06],[122.63,-66.83],[122.3,-66.62]]],[[[99.49,51.56],[99.06,51.25],[99.52,50.68],[99.86,50.75],[99.49,51.56]]],[[[66.85,-73.11],[66.6,-73.34],[67.16,-73.52],[67.96,-73.48],[68.19,-73.25],[67.64,-73.07],[67.87,-72.84],[71.66,-71.68],[70.39,-71.57],[66.56,-72.7],[66.31,-72.92],[66.85,-73.11]]],[[[126.91,-66.25],[125.34,-66.1],[124.18,-66.57],[127.03,-66.68],[127.28,-66.45],[126.91,-66.25]]],[[[-54.94,-61.48],[-54.43,-61.43],[-54.26,-61.2],[-54.6,-61.02],[-56.11,-61.16],[-54.94,-61.48]]],[[[7.79,-70.27],[4.88,-70.42],[3.57,-70.91],[7.06,-70.97],[8.04,-70.7],[8.27,-70.46],[7.79,-70.27]]],[[[-45.19,-60.37],[-46.14,-60.53],[-45.47,-61.08],[-44.98,-61.0],[-45.19,-60.37]]],[[[73.44,-69.94],[75.42,-69.71],[73.06,-69.53],[72.1,-70.08],[73.44,-69.94]]],[[[51.65,-46.39],[52.09,-46.73],[52.57,-46.3],[51.65,-46.39]]],[[[-122.33,47.86],[-122.66,47.12],[-121.93,47.61],[-122.33,47.86]]],[[[122.64,-34.3],[122.24,-34.14],[121.78,-34.6],[122.17,-34.75],[122.64,-34.3]]],[[[83.69,-67.69],[83.16,-67.3],[82.55,-67.66],[83.69,-67.69]]],[[[176.4,52.69],[175.83,52.47],[176.46,52.28],[176.4,52.69]]],[[[130.42,56.19],[130.62,56.57],[129.88,56.48],[130.42,56.19]]],[[[124.36,-33.67],[124.06,-33.3],[124.01,-33.92],[122.89,-34.27],[123.7,-34.57],[124.42,-34.07],[124.36,-33.67]]],[[[39.37,-69.89],[37.94,-69.5],[35.67,-69.59],[33.54,-68.6],[31.92,-68.75],[33.71,-69.07],[35.26,-69.96],[37.58,-69.87],[39.03,-70.27],[39.53,-70.12],[39.37,-69.89]]],[[[-83.55,79.65],[-86.04,79.47],[-84.16,78.97],[-82.97,79.05],[-82.74,79.28],[-83.76,79.42],[-83.55,79.65]]],[[[13.18,44.01],[12.52,43.88],[13.31,43.61],[13.35,42.98],[13.91,42.88],[13.74,43.9],[13.18,44.01]]],[[[106.46,40.49],[105.74,39.92],[105.84,39.54],[107.19,40.45],[107.1,40.83],[106.46,40.49]]],[[[145.09,-67.84],[144.68,-67.45],[144.04,-67.78],[145.09,-67.84]]],[[[52.03,-65.95],[50.36,-66.35],[51.99,-66.36],[53.11,-65.95],[52.03,-65.95]]],[[[93.13,-66.46],[92.67,-66.86],[93.27,-66.96],[98.21,-66.55],[100.05,-66.8],[99.17,-66.22],[96.79,-65.88],[95.91,-66.45],[93.13,-66.46]]],[[[39.7,-68.69],[39.23,-68.84],[39.38,-69.07],[40.47,-69.0],[39.7,-68.69]]],[[[74.26,-53.19],[74.04,-52.8],[72.91,-53.06],[73.43,-53.61],[74.26,-53.19]]],[[[151.95,76.26],[153.97,76.46],[153.09,76.61],[151.95,76.26]]],[[[-105.84,75.46],[-104.63,74.92],[-103.05,75.0],[-104.21,75.55],[-105.84,75.46]]],[[[-106.39,76.15],[-108.06,76.05],[-106.93,75.75],[-106.2,75.92],[-106.39,76.15]]],[[[168.64,54.22],[168.41,55.0],[166.61,55.22],[166.21,55.77],[165.09,55.24],[165.78,55.12],[166.2,54.57],[168.64,54.22]]],[[[100.98,29.71],[101.26,30.02],[101.05,30.38],[100.57,30.43],[100.98,29.71]]],[[[144.29,-67.06],[143.9,-66.67],[143.27,-67.0],[144.29,-67.06]]],[[[-119.69,69.36],[-118.54,68.89],[-117.51,69.05],[-120.5,70.02],[-121.54,69.83],[-119.69,69.36]]],[[[172.31,52.89],[172.4,52.49],[173.68,52.16],[174.8,52.63],[172.62,53.32],[172.22,53.29],[172.31,52.89]]],[[[47.79,-66.9],[48.79,-67.34],[49.67,-67.15],[48.66,-66.72],[47.79,-66.9]]],[[[69.2,-70.56],[69.39,-70.33],[68.9,-70.15],[69.92,-69.62],[69.44,-69.44],[66.86,-70.3],[68.51,-70.62],[68.31,-70.85],[68.82,-71.03],[69.52,-70.98],[69.71,-70.74],[69.2,-70.56]]],[[[105.58,38.87],[105.68,38.5],[106.39,39.07],[105.58,38.87]]],[[[10.73,43.07],[10.52,44.08],[9.41,44.25],[10.12,43.78],[10.18,43.16],[10.73,43.07]]],[[[8.06,43.71],[8.85,44.33],[8.3,44.4],[7.9,44.1],[8.06,43.71]]],[[[2.25,41.87],[1.91,41.55],[2.08,41.17],[2.77,41.82],[2.25,41.87]]],[[[129.93,-66.07],[128.87,-66.58],[130.69,-66.46],[130.91,-66.22],[129.93,-66.07]]],[[[-153.7,71.12],[-154.97,70.86],[-153.7,70.88],[-152.47,70.42],[-150.02,70.42],[-149.32,70.77],[-153.7,71.12]]],[[[-0.69,43.01],[-0.35,43.32],[-0.58,43.48],[-0.87,43.4],[-0.69,43.01]]],[[[78.11,-69.12],[78.74,-69.02],[78.27,-68.62],[76.83,-69.3],[78.11,-69.12]]],[[[12.11,42.09],[11.97,42.48],[11.65,42.42],[11.56,42.18],[12.11,42.09]]],[[[-169.43,56.75],[-170.13,56.62],[-169.61,56.38],[-169.43,56.75]]],[[[43.9,-67.79],[44.69,-68.07],[46.07,-67.82],[45.28,-67.55],[43.9,-67.79]]],[[[64.42,25.27],[64.3,25.71],[62.77,25.32],[63.09,25.03],[64.42,25.27]]],[[[-82.46,53.7],[-82.21,53.29],[-81.72,53.62],[-82.46,53.7]]],[[[-141.23,59.77],[-141.01,59.45],[-139.77,59.69],[-141.23,59.77]]],[[[111.44,56.3],[111.02,56.3],[111.06,55.92],[112.32,55.91],[112.06,56.49],[111.44,56.3]]],[[[-170.66,56.85],[-169.66,57.16],[-170.75,57.64],[-171.2,57.09],[-170.66,56.85]]],[[[56.16,-66.54],[56.51,-67.16],[58.25,-67.11],[57.35,-66.93],[56.99,-66.31],[55.58,-66.13],[55.31,-66.35],[55.6,-66.55],[56.16,-66.54]]],[[[147.63,-68.3],[147.23,-67.68],[146.19,-67.64],[146.57,-68.26],[147.63,-68.3]]],[[[106.33,43.92],[106.04,43.86],[106.14,43.47],[106.53,43.75],[106.33,43.92]]],[[[-148.77,59.73],[-147.96,59.94],[-149.09,60.04],[-149.53,59.72],[-148.77,59.73]]],[[[-50.59,67.2],[-51.98,66.85],[-50.13,66.74],[-49.74,66.93],[-49.97,67.16],[-50.59,67.2]]],[[[12.34,41.92],[12.25,41.68],[12.79,41.58],[12.66,41.99],[12.34,41.92]]],[[[54.47,-66.15],[54.74,-65.94],[54.47,-65.74],[53.65,-65.95],[54.47,-66.15]]],[[[151.62,65.09],[151.19,65.49],[150.58,65.13],[151.49,64.59],[152.1,64.94],[151.62,65.09]]],[[[2.37,-70.73],[0.19,-71.22],[1.41,-71.41],[2.51,-71.17],[2.82,-70.94],[2.37,-70.73]]],[[[-73.74,83.33],[-76.43,83.07],[-73.27,82.95],[-72.51,83.16],[-73.74,83.33]]],[[[-78.91,82.78],[-78.35,83.01],[-79.7,83.16],[-82.08,82.86],[-78.91,82.78]]],[[[-59.65,53.9],[-60.07,53.89],[-60.07,53.46],[-58.8,53.9],[-59.65,53.9]]],[[[71.29,-71.27],[72.16,-70.97],[70.93,-70.86],[70.75,-71.09],[71.29,-71.27]]],[[[105.56,43.35],[105.27,43.29],[105.38,42.9],[105.76,43.18],[105.56,43.35]]],[[[88.08,76.99],[90.95,77.04],[92.27,77.64],[87.22,77.38],[87.17,77.13],[88.08,76.99]]],[[[-125.41,71.96],[-125.05,72.17],[-125.4,72.37],[-126.5,72.16],[-125.41,71.96]]],[[[10.96,42.91],[10.87,42.67],[11.42,42.58],[11.28,42.98],[10.96,42.91]]],[[[-107.25,75.12],[-107.93,74.95],[-107.73,74.72],[-106.19,74.82],[-107.25,75.12]]],[[[39.83,39.22],[38.45,39.04],[39.38,38.6],[39.99,39.01],[39.83,39.22]]],[[[-78.74,55.33],[-79.8,54.69],[-78.52,54.91],[-78.74,55.33]]],[[[104.48,41.25],[104.85,41.54],[104.65,41.7],[103.88,41.73],[104.48,41.25]]],[[[114.68,-66.57],[114.95,-66.8],[113.55,-67.2],[113.82,-67.43],[115.88,-67.05],[115.67,-66.38],[114.15,-66.12],[113.78,-66.32],[114.04,-66.55],[114.68,-66.57]]],[[[48.37,-67.94],[48.7,-67.74],[48.47,-67.53],[46.79,-67.47],[48.37,-67.94]]],[[[130.29,57.25],[130.5,57.64],[130.06,57.7],[128.98,57.44],[130.29,57.25]]],[[[-152.68,57.76],[-153.41,57.11],[-152.34,57.46],[-152.68,57.76]]],[[[128.15,-67.28],[128.4,-67.05],[128.02,-66.85],[127.14,-67.11],[128.15,-67.28]]],[[[65.87,-67.98],[67.71,-67.83],[65.66,-67.56],[65.46,-67.79],[65.87,-67.98]]],[[[153.57,63.12],[152.1,63.07],[151.48,62.48],[154.27,62.33],[154.01,62.96],[154.61,63.3],[153.57,63.12]]],[[[131.27,57.72],[131.5,58.11],[130.72,58.02],[131.27,57.72]]],[[[26.91,-70.53],[27.51,-70.18],[26.29,-70.16],[26.91,-70.53]]],[[[135.32,74.45],[135.48,74.19],[134.76,74.03],[134.92,73.77],[135.78,73.68],[137.1,74.26],[136.07,74.61],[135.32,74.45]]],[[[59.76,-67.26],[58.92,-67.51],[59.86,-67.68],[60.1,-67.46],[59.76,-67.26]]],[[[-156.86,56.26],[-157.17,55.93],[-156.49,55.99],[-156.86,56.26]]],[[[32.19,-69.69],[33.36,-69.66],[32.66,-69.32],[32.19,-69.69]]],[[[61.89,-67.38],[61.66,-67.6],[62.03,-67.79],[62.86,-67.54],[61.89,-67.38]]],[[[-27.59,72.08],[-28.21,71.72],[-26.99,71.72],[-27.59,72.08]]]]}}]}