{"type":"FeatureCollection","features":[{"type":"Feature","properties":{},"geometry":{"type":"MultiPolygon","coordinates":[[[[44.73,68.29],[44.14,68.27],[43.83,68.07],[44.11,67.89],[43.81,67.69],[44.09,67.5],[43.79,67.3],[44.9,66.95],[43.75,66.53],[42.37,66.68],[42.09,66.47],[39.95,65.98],[39.71,65.77],[39.98,65.6],[39.74,65.39],[40.01,65.21],[39.77,65.0],[40.04,64.82],[39.8,64.61],[39.3,64.58],[38.25,64.9],[38.48,65.11],[38.2,65.29],[37.69,65.26],[37.4,65.43],[36.9,65.39],[36.68,65.18],[35.39,65.27],[35.1,65.44],[35.3,65.65],[35.01,65.81],[35.94,66.28],[36.46,66.32],[38.9,65.92],[39.92,66.37],[41.27,66.63],[41.54,66.83],[41.26,67.01],[41.53,67.22],[41.24,67.39],[41.52,67.6],[40.36,67.92],[40.64,68.12],[40.34,68.3],[37.99,68.53],[37.67,68.7],[37.93,68.9],[37.61,69.07],[34.15,69.35],[33.24,69.83],[31.05,69.99],[31.11,70.19],[31.7,70.25],[31.76,70.45],[30.09,70.65],[30.13,70.85],[29.57,70.99],[24.89,71.17],[24.31,71.08],[24.33,70.88],[23.18,70.91],[22.62,70.82],[22.67,70.62],[21.0,70.54],[21.06,70.34],[20.53,70.25],[18.84,70.35],[18.33,70.24],[18.42,70.05],[17.93,69.95],[18.02,69.76],[16.96,69.74],[16.48,69.64],[16.58,69.45],[15.09,69.32],[15.2,69.14],[14.44,68.74],[14.56,68.55],[13.58,68.52],[12.87,68.12],[13.0,67.94],[13.54,67.87],[14.25,68.26],[14.79,68.18],[14.9,68.0],[14.48,67.9],[14.59,67.71],[14.18,67.61],[14.3,67.43],[12.98,67.29],[13.11,67.12],[12.72,67.01],[12.84,66.83],[11.59,66.69],[12.34,66.27],[11.74,65.89],[11.86,65.72],[11.51,65.62],[11.64,65.45],[11.29,65.34],[11.42,65.18],[10.28,65.03],[10.41,64.87],[10.13,64.7],[10.41,64.53],[10.29,64.37],[9.36,64.19],[9.24,64.02],[8.13,64.17],[8.02,64.0],[8.32,63.83],[8.2,63.66],[7.8,63.65],[6.16,62.91],[5.76,62.89],[5.66,62.71],[5.26,62.69],[5.16,62.51],[4.76,62.49],[4.67,62.31],[4.97,62.14],[4.87,61.96],[4.48,61.94],[4.39,61.75],[4.69,61.59],[4.11,61.2],[4.41,61.04],[4.32,60.85],[4.62,60.69],[4.53,60.5],[5.02,59.98],[4.46,59.58],[4.94,59.06],[4.85,58.86],[5.13,58.7],[5.05,58.51],[6.31,58.23],[6.58,58.06],[6.49,57.87],[6.78,57.76],[7.45,57.72],[7.84,57.8],[7.93,57.99],[9.0,58.03],[9.1,58.22],[9.5,58.29],[9.6,58.48],[9.31,58.6],[9.41,58.79],[10.51,58.81],[10.8,58.69],[10.69,58.5],[11.16,58.06],[11.05,57.87],[9.97,57.86],[9.37,57.4],[8.7,57.45],[7.84,57.1],[7.74,56.9],[8.02,56.79],[7.46,56.31],[7.93,55.87],[7.37,55.39],[8.29,55.23],[7.74,54.74],[8.02,54.62],[7.92,54.41],[8.2,54.29],[8.1,54.08],[7.47,54.13],[7.11,54.05],[7.02,53.84],[6.39,53.89],[6.04,53.81],[5.95,53.6],[4.98,53.55],[4.48,53.05],[4.15,53.01],[4.25,52.42],[3.13,51.86],[2.28,51.11],[1.96,51.06],[1.51,51.61],[1.97,52.09],[1.7,52.25],[1.77,52.47],[2.1,52.52],[2.17,52.73],[1.91,52.89],[1.98,53.11],[0.49,53.49],[0.56,53.71],[0.06,54.24],[0.13,54.45],[-0.79,54.72],[-0.73,54.93],[-1.25,55.46],[-1.19,55.67],[-1.49,55.82],[-1.43,56.03],[-2.4,56.29],[-1.92,56.76],[-1.55,56.81],[-1.49,57.02],[-1.8,57.18],[-1.74,57.38],[-1.37,57.43],[-1.3,57.64],[-3.0,58.0],[-2.5,58.46],[-2.82,58.61],[-2.76,58.81],[-1.49,59.37],[-1.42,59.57],[-1.03,59.61],[-0.97,59.81],[-0.58,59.85],[-0.51,60.05],[-0.83,60.2],[-0.76,60.4],[-0.37,60.44],[-0.3,60.64],[-0.62,60.79],[-0.55,60.99],[-1.28,61.1],[-1.35,60.9],[-2.67,60.37],[-2.74,60.17],[-1.68,59.92],[-2.2,59.47],[-2.92,59.57],[-3.75,59.26],[-4.48,59.36],[-4.53,59.15],[-3.48,58.91],[-3.53,58.71],[-4.97,58.89],[-5.79,58.56],[-6.51,58.64],[-6.56,58.43],[-6.94,58.37],[-7.67,58.44],[-7.71,58.23],[-7.36,58.09],[-7.4,57.88],[-7.78,57.81],[-7.82,57.6],[-7.48,57.46],[-7.52,57.25],[-7.89,57.17],[-8.34,56.67],[-7.3,56.46],[-7.33,56.25],[-6.72,55.74],[-6.76,55.52],[-8.5,55.59],[-8.54,55.37],[-9.29,54.99],[-9.32,54.77],[-8.99,54.63],[-9.02,54.41],[-10.75,54.44],[-10.77,54.21],[-10.44,54.08],[-10.84,53.54],[-10.21,53.03],[-10.24,52.81],[-10.95,52.4],[-10.97,52.17],[-10.65,52.03],[-10.38,51.43],[-8.77,51.18],[-8.07,51.58],[-8.03,51.81],[-7.39,51.74],[-6.67,52.13],[-6.03,52.05],[-5.61,52.58],[-5.91,52.73],[-5.87,52.95],[-5.52,53.02],[-5.48,53.25],[-6.05,53.77],[-6.01,53.99],[-5.26,54.35],[-4.7,53.83],[-4.74,53.61],[-5.09,53.54],[-5.13,53.32],[-4.83,53.17],[-4.88,52.94],[-5.22,52.87],[-5.01,52.28],[-5.35,52.2],[-5.77,51.68],[-4.85,51.45],[-4.64,50.84],[-5.6,50.85],[-5.64,50.62],[-6.7,49.92],[-6.74,49.69],[-6.45,49.54],[-5.76,49.93],[-4.86,49.7],[-4.53,49.78],[-4.49,50.01],[-3.56,50.0],[-3.13,50.52],[-2.81,50.59],[-1.34,50.25],[-0.63,50.6],[0.22,50.34],[0.93,50.68],[0.99,50.9],[1.57,50.79],[1.5,50.57],[1.18,50.52],[1.12,50.3],[0.8,50.24],[0.74,50.02],[-0.33,49.39],[-1.18,49.65],[-1.12,49.87],[-1.39,50.03],[-2.31,50.05],[-2.73,49.53],[-2.46,49.38],[-2.29,48.76],[-2.61,48.69],[-3.1,49.23],[-3.79,48.86],[-4.39,48.94],[-4.43,48.71],[-4.75,48.63],[-5.35,48.7],[-5.39,48.47],[-5.11,48.32],[-5.15,48.09],[-4.64,47.55],[-3.74,47.55],[-3.25,47.0],[-2.94,47.08],[-2.9,47.31],[-2.33,47.23],[-2.37,47.0],[-2.11,46.84],[-2.16,46.61],[-1.91,46.45],[-1.96,46.22],[-1.3,45.28],[-1.35,45.05],[-1.65,44.97],[-1.7,44.74],[-1.45,44.58],[-1.5,44.35],[-1.8,44.27],[-1.65,43.64],[-3.82,43.95],[-4.46,43.54],[-8.1,44.05],[-8.73,43.61],[-9.0,43.76],[-9.3,43.66],[-9.33,43.42],[-9.63,43.32],[-9.65,43.07],[-8.88,42.14],[-9.22,41.55],[-8.72,41.01],[-8.74,40.77],[-9.34,40.31],[-9.13,39.67],[-9.41,39.57],[-9.67,39.71],[-9.96,39.61],[-9.98,39.36],[-9.72,39.21],[-9.74,38.97],[-9.48,38.82],[-9.5,38.57],[-8.78,37.65],[-8.8,37.4],[-9.08,37.29],[-9.1,37.04],[-8.85,36.9],[-7.53,36.93],[-7.73,37.57],[-8.5,37.75],[-8.71,38.39],[-7.9,38.46],[-8.1,39.1],[-7.28,39.15],[-6.94,39.74],[-6.12,39.79],[-5.66,39.25],[-5.38,39.34],[-4.61,39.13],[-4.33,39.23],[-4.3,39.47],[-4.02,39.56],[-3.78,39.41],[-3.18,39.83],[-1.41,39.46],[-0.82,39.87],[-0.41,39.32],[0.84,40.34],[1.23,40.9],[2.02,40.94],[2.42,41.49],[3.23,41.53],[3.29,41.76],[3.59,41.85],[3.48,42.46],[3.25,42.6],[3.67,43.16],[5.04,43.13],[6.35,42.85],[7.05,43.24],[7.12,43.48],[7.98,43.48],[8.46,44.02],[8.77,44.1],[10.12,43.78],[10.03,43.55],[10.41,43.0],[10.32,42.76],[10.01,42.69],[9.92,42.46],[10.15,42.3],[10.87,42.67],[11.24,42.11],[12.11,42.09],[12.47,41.52],[14.42,41.26],[14.65,41.09],[14.55,40.85],[14.77,40.68],[15.09,40.74],[15.31,40.56],[15.21,40.33],[15.97,40.03],[15.87,39.79],[16.09,39.61],[16.1,38.96],[16.32,38.78],[16.64,38.83],[17.16,39.36],[16.41,39.67],[16.39,40.32],[17.14,40.66],[17.35,40.48],[17.68,40.54],[18.0,39.94],[18.33,39.99],[18.32,40.64],[18.11,40.82],[17.24,40.9],[17.02,41.08],[17.13,41.31],[16.36,41.61],[16.46,41.84],[16.24,42.02],[14.81,42.19],[14.46,42.77],[14.13,42.71],[13.91,42.88],[14.0,43.11],[13.64,43.67],[13.74,43.9],[12.39,44.27],[12.9,44.79],[12.67,44.95],[12.77,45.18],[13.1,45.25],[13.33,45.08],[13.24,44.86],[13.47,44.69],[13.8,44.76],[14.04,44.59],[13.94,44.36],[14.73,44.09],[14.63,43.86],[14.86,43.69],[15.75,43.64],[15.98,43.47],[15.87,43.24],[15.54,43.18],[15.44,42.95],[15.67,42.78],[18.76,42.21],[19.09,41.62],[18.98,41.39],[19.19,41.2],[19.19,40.55],[19.94,40.23],[19.93,39.58],[20.67,39.25],[20.99,39.29],[21.3,38.67],[23.71,38.1],[23.83,38.33],[23.63,38.52],[23.31,38.49],[22.58,38.84],[22.61,39.5],[22.4,39.69],[22.52,39.92],[22.31,40.11],[22.43,40.34],[23.82,40.07],[23.86,40.72],[24.19,40.75],[24.39,40.56],[24.72,40.59],[24.85,40.82],[25.18,40.85],[25.38,40.66],[26.16,40.94],[26.44,40.32],[25.86,39.84],[27.1,39.3],[26.97,39.07],[27.16,38.87],[27.1,38.21],[27.81,37.84],[27.68,37.61],[27.87,37.4],[28.19,37.43],[28.43,36.79],[29.25,36.63],[29.93,36.24],[30.24,36.26],[30.37,36.49],[30.19,36.7],[30.32,36.92],[31.08,37.18],[32.72,36.39],[33.03,36.4],[33.17,36.63],[33.96,36.44],[34.54,36.89],[34.37,37.1],[34.51,37.32],[34.82,37.32],[35.41,37.76],[35.72,37.77],[36.36,37.35],[37.12,37.56],[37.3,36.92],[38.05,37.14],[38.21,36.92],[38.51,36.92],[38.66,37.13],[39.42,36.91],[39.56,37.12],[40.31,37.32],[40.46,37.1],[40.76,37.09],[40.9,37.3],[41.2,37.29],[41.35,37.08],[42.09,37.26],[43.1,36.59],[43.83,36.76],[43.97,36.54],[45.09,36.06],[45.19,35.01],[45.46,35.0],[45.63,35.61],[45.91,35.59],[46.04,35.38],[45.89,35.18],[45.95,33.71],[46.23,33.7],[46.74,33.25],[47.43,33.41],[47.93,32.96],[48.62,33.09],[49.79,32.32],[49.9,32.1],[49.74,31.92],[50.23,31.45],[50.07,31.27],[50.18,31.06],[50.87,31.14],[50.92,30.54],[51.62,30.62],[51.73,30.4],[51.56,30.23],[52.03,29.75],[52.46,29.87],[52.36,30.09],[52.53,30.26],[53.16,29.94],[53.6,30.06],[53.96,29.79],[54.14,29.96],[54.12,30.57],[53.47,30.89],[53.38,31.11],[53.55,31.29],[54.93,30.41],[56.46,29.08],[57.17,29.13],[57.53,28.85],[57.91,29.79],[57.46,30.3],[57.65,30.46],[57.56,30.69],[56.56,31.32],[56.56,31.94],[55.91,32.28],[55.91,32.91],[54.86,33.53],[54.85,34.16],[54.56,34.21],[54.29,33.63],[53.54,33.55],[53.05,34.05],[52.77,34.1],[52.73,34.73],[52.44,34.78],[52.33,35.0],[52.51,35.18],[53.59,34.59],[54.25,34.9],[54.15,35.12],[54.34,35.3],[55.02,34.97],[55.7,35.28],[55.6,35.51],[55.79,35.69],[56.09,35.63],[56.96,34.82],[56.77,34.65],[56.86,34.41],[56.19,34.12],[56.09,33.08],[56.38,33.03],[56.57,33.2],[56.57,33.83],[56.76,34.01],[57.05,33.95],[57.04,33.32],[57.7,32.97],[57.9,33.14],[58.18,33.08],[58.27,32.85],[58.92,32.49],[58.9,31.86],[59.54,31.51],[60.69,31.88],[60.25,32.41],[60.58,32.98],[60.13,33.51],[60.33,33.68],[59.88,34.22],[60.58,34.49],[60.87,34.43],[61.21,35.01],[61.51,34.94],[61.59,34.7],[61.24,34.12],[61.32,33.89],[61.61,33.82],[61.56,33.18],[61.84,33.11],[62.05,33.27],[62.7,32.9],[62.91,33.06],[63.19,32.99],[63.13,32.35],[63.9,32.37],[63.97,32.13],[64.25,32.06],[64.61,32.62],[64.9,32.54],[65.3,31.99],[66.58,32.07],[66.64,31.84],[67.25,31.44],[67.14,30.81],[67.74,30.41],[68.13,30.95],[68.4,30.87],[68.62,31.02],[68.92,32.05],[70.16,32.33],[70.29,32.97],[70.01,33.06],[69.97,33.3],[71.24,33.58],[70.53,34.49],[71.83,34.77],[72.11,34.67],[72.15,34.43],[72.96,34.39],[73.31,33.8],[74.11,33.76],[74.45,33.17],[74.73,33.07],[74.97,33.22],[75.24,33.12],[75.27,32.87],[76.05,32.81],[76.66,31.89],[77.43,31.82],[78.0,30.9],[78.5,30.93],[78.75,30.82],[78.77,30.59],[79.52,30.51],[79.79,29.93],[80.28,29.96],[80.52,29.85],[80.53,29.62],[81.02,29.64],[81.26,29.54],[81.27,29.3],[81.75,29.32],[81.99,29.22],[81.99,28.98],[82.71,28.89],[82.95,28.32],[84.83,28.37],[85.28,27.93],[85.74,27.93],[85.73,27.7],[85.96,27.59],[86.42,27.59],[86.41,27.36],[86.64,27.25],[87.13,27.71],[87.57,27.25],[89.23,27.35],[89.67,26.87],[90.18,27.33],[92.31,27.15],[93.08,27.94],[93.1,28.17],[94.06,28.13],[94.85,28.9],[95.29,28.42],[96.25,28.36],[96.23,28.13],[96.87,27.26],[97.39,27.7],[97.42,27.93],[98.15,27.99],[98.58,27.49],[98.28,26.92],[98.71,26.42],[98.69,26.18],[98.17,25.74],[98.15,25.51],[98.38,25.37],[98.9,25.8],[99.84,25.72],[100.41,26.62],[101.13,26.67],[101.98,27.88],[102.46,27.82],[102.43,27.59],[102.65,27.45],[103.45,28.18],[103.28,28.77],[102.58,28.97],[102.61,29.2],[102.39,29.33],[102.69,29.87],[102.46,30.01],[102.49,30.23],[102.74,30.32],[103.32,31.15],[104.05,31.18],[103.88,31.75],[104.69,32.43],[104.52,32.99],[105.06,33.36],[104.89,33.92],[105.14,33.99],[105.45,34.48],[104.75,34.68],[104.77,34.89],[105.88,35.79],[106.1,35.65],[106.27,35.11],[106.74,35.04],[106.58,35.59],[106.16,36.06],[106.24,36.28],[105.64,36.51],[105.72,36.72],[105.54,36.87],[105.1,36.96],[104.84,36.89],[104.87,36.3],[104.43,36.37],[103.83,36.01],[103.39,36.08],[103.2,36.23],[103.28,36.45],[103.99,36.45],[104.4,36.97],[103.77,37.19],[103.84,37.42],[103.66,37.57],[102.93,37.57],[102.62,38.1],[102.15,38.17],[102.1,38.78],[101.9,38.93],[100.94,39.08],[100.31,38.69],[99.96,39.22],[99.19,39.21],[98.82,39.74],[98.03,39.72],[97.64,40.26],[96.83,40.23],[96.6,40.38],[95.97,39.96],[94.69,40.21],[94.06,39.77],[93.62,40.31],[92.8,40.25],[92.55,40.39],[92.59,40.64],[92.88,40.74],[94.2,40.5],[94.84,40.93],[95.61,40.73],[96.25,41.16],[96.48,41.01],[97.3,41.03],[97.71,41.6],[97.31,42.14],[97.37,42.38],[97.13,42.53],[96.83,42.45],[96.59,42.6],[95.93,42.18],[95.69,42.33],[95.39,42.24],[95.34,42.0],[95.04,41.9],[94.79,42.05],[94.5,41.96],[94.45,41.72],[94.15,41.62],[94.3,40.99],[94.01,40.89],[93.22,41.08],[93.05,41.72],[92.24,41.91],[92.29,42.15],[92.03,42.3],[88.88,42.37],[88.36,42.89],[88.38,43.14],[89.85,43.19],[91.27,42.98],[91.92,43.43],[92.19,43.28],[93.63,43.29],[94.09,42.74],[94.4,42.84],[95.2,42.63],[95.5,42.72],[95.55,42.97],[94.75,43.18],[94.8,43.42],[94.55,43.57],[94.24,43.48],[93.98,43.63],[94.03,43.87],[93.77,44.02],[93.46,43.93],[93.2,44.07],[93.25,44.32],[92.98,44.47],[92.67,44.37],[92.4,44.52],[92.44,44.77],[92.76,44.87],[93.03,44.72],[93.92,44.76],[94.34,45.34],[94.66,45.43],[94.92,45.28],[94.86,45.04],[94.55,44.95],[94.5,44.7],[94.76,44.55],[96.2,44.51],[96.07,45.15],[96.38,45.24],[97.2,45.01],[97.14,44.77],[96.82,44.68],[96.76,44.44],[97.01,44.29],[97.69,44.7],[100.12,44.22],[100.43,44.3],[100.5,44.53],[101.34,44.52],[101.81,45.06],[101.58,45.22],[101.27,45.15],[101.19,44.91],[100.88,44.84],[100.5,45.4],[99.08,45.5],[98.84,45.66],[98.91,45.9],[99.23,45.97],[101.66,45.45],[101.97,45.52],[102.06,45.76],[102.37,45.83],[102.59,45.66],[103.3,46.02],[104.05,45.75],[104.76,46.1],[106.52,45.6],[106.82,45.66],[106.92,45.88],[107.72,45.82],[108.23,46.31],[109.52,46.11],[110.04,46.59],[109.36,46.89],[109.89,47.37],[109.7,47.55],[109.81,47.77],[110.62,47.67],[110.74,47.89],[110.04,48.2],[110.08,48.81],[112.6,50.1],[112.67,50.7],[113.16,50.9],[112.97,51.08],[112.16,50.85],[111.96,51.03],[112.59,51.45],[112.4,51.63],[113.12,51.98],[112.92,52.17],[113.1,52.34],[114.04,52.5],[114.61,52.3],[114.8,52.48],[114.61,52.67],[114.8,52.84],[115.38,53.01],[114.61,53.41],[114.22,53.42],[114.03,53.24],[114.23,53.05],[114.04,52.87],[112.87,53.27],[113.64,53.62],[113.43,53.81],[113.63,53.99],[113.42,54.19],[113.62,54.37],[114.62,54.53],[114.82,54.71],[114.62,54.91],[114.83,55.09],[115.24,55.08],[115.45,55.26],[115.25,55.46],[115.46,55.65],[115.26,55.85],[115.48,56.03],[115.27,56.23],[114.21,56.07],[113.99,56.27],[114.85,56.63],[115.94,56.79],[116.78,56.37],[116.55,56.18],[116.75,55.98],[116.52,55.8],[116.72,55.6],[117.75,55.35],[118.63,55.69],[119.05,55.66],[119.29,55.84],[119.11,56.05],[119.35,56.23],[120.46,56.34],[120.72,56.52],[120.54,56.73],[120.1,56.76],[119.92,56.98],[120.88,57.3],[120.7,57.52],[120.25,57.55],[119.99,57.37],[119.55,57.4],[119.29,57.22],[119.48,57.01],[119.23,56.82],[118.11,56.69],[117.92,56.9],[118.16,57.08],[118.6,57.06],[118.85,57.24],[118.01,57.69],[117.56,57.71],[117.36,57.92],[117.61,58.11],[117.4,58.32],[116.94,58.34],[116.0,57.97],[116.87,57.54],[116.63,57.36],[116.84,57.15],[116.61,56.96],[114.86,57.42],[114.64,57.23],[114.85,57.03],[114.63,56.84],[113.54,57.06],[113.33,56.86],[112.9,56.87],[112.67,57.07],[111.6,56.88],[111.36,57.08],[111.56,57.27],[111.32,57.47],[110.88,57.46],[110.69,57.27],[109.57,57.45],[109.38,57.26],[108.95,57.25],[108.77,57.05],[109.02,56.86],[108.24,56.46],[108.49,56.27],[108.32,56.08],[108.56,55.89],[108.39,55.7],[108.63,55.51],[107.53,55.08],[107.16,55.67],[107.32,55.86],[107.07,56.04],[107.23,56.24],[106.3,56.59],[106.46,56.79],[106.2,56.97],[105.51,57.14],[105.66,57.34],[105.39,57.52],[104.68,57.68],[104.83,57.88],[104.55,58.06],[103.83,58.22],[103.98,58.42],[103.69,58.6],[102.69,58.32],[102.2,58.9],[101.05,58.97],[100.53,59.54],[99.77,59.66],[99.88,59.89],[99.55,60.06],[99.65,60.29],[99.31,60.46],[99.44,60.67],[99.1,60.84],[99.22,61.06],[98.05,61.35],[98.17,61.57],[97.81,61.74],[97.92,61.96],[97.56,62.13],[98.29,62.62],[97.91,62.79],[98.04,63.01],[97.66,63.18],[97.78,63.41],[95.57,63.79],[95.68,64.02],[96.19,64.08],[99.84,63.61],[99.99,63.83],[99.61,64.01],[99.75,64.23],[99.36,64.41],[99.51,64.63],[99.11,64.81],[99.26,65.03],[99.81,65.08],[99.96,65.31],[99.56,65.49],[99.71,65.72],[99.3,65.89],[99.45,66.12],[100.03,66.17],[100.19,66.4],[99.77,66.58],[99.93,66.81],[99.5,66.99],[99.66,67.22],[99.22,67.4],[99.38,67.63],[98.93,67.81],[99.09,68.04],[98.63,68.22],[98.79,68.45],[98.31,68.63],[98.48,68.86],[97.99,69.04],[98.15,69.28],[97.65,69.45],[97.81,69.69],[96.09,69.97],[96.24,70.2],[95.7,70.37],[90.7,70.7],[90.03,70.61],[89.96,70.37],[89.31,70.27],[89.25,70.03],[87.94,69.6],[87.37,69.74],[87.4,69.98],[86.81,70.12],[86.19,70.02],[86.17,69.78],[86.75,69.64],[86.72,69.41],[86.13,69.3],[86.11,69.07],[86.67,68.93],[86.65,68.69],[86.07,68.59],[84.95,69.09],[82.64,69.13],[82.62,69.37],[83.2,69.48],[83.18,69.72],[82.58,69.84],[81.46,69.37],[80.19,69.84],[79.63,69.72],[79.69,69.49],[79.14,69.36],[77.83,69.81],[77.75,70.05],[78.31,70.18],[78.23,70.41],[77.02,70.39],[75.6,70.82],[75.05,70.69],[75.17,70.45],[74.63,70.31],[74.75,70.08],[74.23,69.94],[74.35,69.71],[73.84,69.57],[73.97,69.34],[76.85,69.32],[76.94,69.09],[78.67,69.0],[78.74,68.77],[78.21,68.64],[78.28,68.41],[79.96,68.31],[80.01,68.08],[78.42,67.95],[78.49,67.71],[80.62,67.73],[81.75,67.26],[82.26,67.37],[82.8,67.25],[82.82,67.02],[83.34,66.89],[83.35,66.66],[84.38,66.64],[85.39,66.15],[86.91,66.21],[86.94,66.44],[86.44,66.57],[86.46,66.81],[87.5,66.77],[87.47,66.53],[88.41,66.02],[88.37,65.79],[87.85,65.7],[87.82,65.47],[88.29,65.33],[88.25,65.1],[87.75,65.01],[87.72,64.78],[88.18,64.64],[88.14,64.41],[87.64,64.32],[87.61,64.09],[88.06,63.95],[88.02,63.72],[87.54,63.63],[87.5,63.4],[87.95,63.26],[87.91,63.02],[87.44,62.93],[86.58,63.44],[86.61,63.67],[86.15,63.81],[86.18,64.04],[86.67,64.14],[86.69,64.37],[85.79,64.87],[85.81,65.1],[85.33,65.23],[85.35,65.46],[83.86,65.62],[83.36,65.52],[83.35,65.29],[81.87,65.2],[80.85,65.67],[80.83,65.9],[80.31,66.01],[80.3,66.24],[78.23,66.23],[77.12,66.67],[76.07,66.65],[76.02,66.88],[76.52,67.0],[76.48,67.23],[74.34,67.17],[74.4,66.95],[73.91,66.81],[73.97,66.59],[72.93,66.55],[72.05,66.05],[70.85,66.44],[68.79,66.31],[68.68,66.53],[69.15,66.68],[69.05,66.9],[69.52,67.05],[70.76,66.67],[71.24,66.81],[71.15,67.03],[71.64,67.17],[71.55,67.39],[72.05,67.53],[71.96,67.75],[71.37,67.83],[71.28,68.05],[72.9,68.24],[72.77,68.46],[72.16,68.55],[72.02,68.78],[72.5,68.92],[72.36,69.15],[71.74,69.23],[71.59,69.46],[72.07,69.6],[71.93,69.83],[72.42,69.98],[72.28,70.21],[70.79,70.6],[70.61,70.83],[71.13,70.98],[70.96,71.21],[70.26,71.29],[69.74,71.14],[69.93,70.91],[68.26,70.67],[68.46,70.45],[67.98,70.29],[68.18,70.07],[67.72,69.91],[67.91,69.69],[68.56,69.62],[68.74,69.39],[68.29,69.24],[69.27,68.72],[68.77,68.58],[68.88,68.36],[69.49,68.29],[69.59,68.07],[69.1,67.93],[67.05,68.57],[66.92,68.79],[66.3,68.85],[66.16,69.06],[64.42,69.03],[64.26,69.24],[63.63,69.29],[63.39,69.51],[61.83,69.82],[60.41,69.53],[61.41,69.07],[60.95,68.91],[61.13,68.7],[60.68,68.53],[60.85,68.33],[60.41,68.16],[58.75,68.07],[58.56,68.27],[58.99,68.44],[58.8,68.65],[58.18,68.68],[54.66,68.06],[54.05,68.08],[53.83,68.28],[52.83,68.11],[51.38,68.33],[49.44,67.96],[49.09,67.77],[49.34,67.58],[48.41,67.38],[48.08,67.19],[48.33,67.0],[47.11,66.6],[45.72,66.78],[45.46,66.96],[45.77,67.16],[45.51,67.35],[44.93,67.34],[44.66,67.52],[45.87,67.93],[45.6,68.12],[45.93,68.31],[45.65,68.5],[45.05,68.48],[44.73,68.29]],[[18.97,59.11],[19.68,59.51],[20.68,59.76],[22.37,59.4],[21.79,59.19],[21.64,59.01],[21.91,58.86],[21.19,58.47],[21.46,58.32],[21.31,58.14],[21.7,57.66],[21.14,57.44],[20.99,57.26],[21.26,57.11],[20.56,56.7],[20.83,56.55],[20.69,56.36],[21.07,55.86],[20.93,55.67],[20.53,55.63],[20.39,55.44],[20.65,55.29],[20.51,55.09],[19.46,55.16],[19.33,54.97],[19.59,54.82],[19.45,54.62],[19.06,54.58],[18.67,55.08],[17.63,55.13],[16.47,54.44],[16.74,54.29],[16.61,54.09],[17.01,53.59],[18.41,54.13],[18.54,54.33],[19.19,54.22],[20.1,54.51],[22.28,53.99],[22.67,54.02],[22.82,54.21],[23.46,54.08],[24.39,54.33],[25.26,54.03],[26.2,54.26],[27.07,53.95],[28.0,54.17],[28.16,54.36],[27.93,54.53],[28.09,54.71],[28.64,54.91],[28.33,55.44],[27.05,55.74],[26.09,55.52],[25.75,56.03],[24.69,56.14],[24.34,56.65],[23.68,56.78],[24.96,57.38],[24.61,57.87],[24.76,58.05],[24.5,58.2],[24.66,58.38],[23.71,58.66],[23.87,58.83],[23.6,58.98],[24.21,59.44],[25.47,59.27],[26.31,59.61],[27.86,59.25],[28.74,59.58],[30.3,59.19],[31.22,59.5],[32.13,59.2],[33.09,59.51],[33.34,59.33],[33.75,59.37],[34.49,59.85],[34.9,59.88],[35.82,59.56],[36.84,59.84],[37.75,59.5],[38.18,59.53],[38.37,59.74],[38.81,59.77],[39.04,59.58],[38.84,59.36],[39.08,59.17],[38.88,58.96],[39.11,58.77],[38.92,58.56],[38.5,58.53],[38.27,58.72],[38.46,58.94],[38.22,59.13],[37.8,59.1],[37.61,58.88],[37.85,58.7],[37.66,58.48],[37.89,58.29],[37.71,58.08],[37.3,58.05],[37.12,57.83],[37.35,57.65],[37.17,57.43],[36.2,57.16],[35.48,56.7],[35.71,56.51],[35.55,56.29],[35.77,56.11],[35.61,55.89],[35.83,55.7],[35.68,55.49],[35.9,55.3],[35.74,55.08],[36.54,54.73],[36.92,54.76],[37.18,54.15],[38.13,54.0],[38.3,54.21],[38.09,54.41],[38.82,54.86],[38.61,55.05],[38.78,55.27],[39.77,55.11],[40.53,55.55],[41.53,55.37],[41.73,55.58],[42.13,55.59],[42.33,55.39],[42.73,55.39],[42.93,55.6],[43.34,55.61],[44.13,55.2],[45.16,55.41],[45.38,55.62],[46.39,55.39],[46.57,55.18],[46.98,55.17],[47.21,55.38],[48.22,55.14],[48.45,55.35],[48.87,55.33],[49.04,55.11],[49.46,55.1],[49.7,55.3],[50.12,55.28],[50.29,55.06],[50.71,55.04],[50.87,54.82],[51.29,54.8],[51.45,54.57],[51.86,54.55],[52.02,54.32],[52.43,54.29],[52.59,54.06],[54.11,53.51],[54.26,53.28],[54.66,53.24],[54.81,53.01],[55.21,52.97],[55.35,52.74],[55.75,52.7],[55.89,52.46],[56.29,52.42],[56.42,52.18],[57.86,51.57],[58.28,52.18],[58.68,52.13],[58.96,52.32],[59.87,51.97],[60.16,52.16],[60.55,52.1],[61.02,52.71],[60.91,52.95],[61.2,53.13],[61.09,53.38],[62.1,53.68],[61.99,53.92],[62.29,54.1],[62.18,54.34],[63.22,54.64],[64.38,54.68],[64.7,54.85],[64.6,55.09],[64.92,55.27],[65.86,54.88],[66.19,55.05],[66.1,55.29],[66.43,55.46],[69.15,55.63],[69.49,55.79],[70.41,55.37],[70.76,55.52],[76.18,55.86],[77.03,55.39],[78.17,55.55],[78.98,55.06],[80.12,55.2],[80.91,54.71],[80.91,54.46],[80.54,54.33],[80.56,54.08],[80.93,53.95],[81.3,54.08],[82.05,53.57],[82.05,53.32],[81.33,52.82],[81.34,52.57],[81.7,52.44],[81.71,52.19],[82.78,52.05],[82.78,51.8],[81.72,51.68],[81.72,51.42],[81.37,51.3],[81.38,51.04],[80.34,50.91],[80.35,50.65],[81.39,50.53],[81.4,50.28],[81.06,50.15],[81.07,49.89],[80.73,49.76],[80.02,50.26],[79.68,50.13],[79.7,49.87],[78.68,49.72],[77.95,50.21],[77.62,50.07],[77.26,50.19],[77.23,50.44],[76.17,50.52],[76.14,50.78],[75.07,50.85],[75.03,51.1],[74.66,51.21],[74.33,51.06],[73.96,51.17],[73.49,51.78],[73.11,51.88],[72.78,51.72],[72.83,51.47],[72.5,51.32],[72.55,51.06],[72.23,50.91],[72.28,50.65],[71.69,50.09],[72.17,49.48],[71.18,49.26],[71.24,49.01],[72.01,48.56],[72.07,48.3],[71.1,48.08],[71.15,47.83],[70.85,47.67],[70.91,47.41],[71.26,47.32],[71.32,47.06],[71.67,46.97],[71.72,46.71],[72.46,46.26],[72.76,46.41],[72.71,46.67],[73.66,46.88],[73.62,47.13],[73.92,47.29],[74.27,47.18],[75.89,47.42],[76.6,46.94],[77.56,47.11],[78.55,47.02],[79.17,47.55],[79.5,47.43],[79.82,47.57],[80.16,47.45],[80.17,47.19],[80.5,47.07],[80.82,47.2],[81.14,47.08],[81.15,46.82],[82.12,46.7],[82.12,46.45],[81.49,45.93],[81.17,46.06],[81.16,46.31],[80.2,46.42],[80.19,46.68],[79.86,46.8],[79.25,46.27],[79.6,45.64],[78.03,45.46],[78.05,45.2],[77.12,45.03],[77.15,44.77],[76.58,44.23],[75.63,44.3],[75.34,44.15],[74.65,44.62],[74.36,44.47],[74.03,44.57],[73.74,44.42],[74.14,43.8],[72.02,43.49],[71.69,43.59],[71.19,43.01],[70.48,43.46],[70.42,43.71],[69.48,43.73],[69.42,43.99],[69.08,44.08],[68.81,43.91],[68.47,44.0],[68.41,44.25],[68.07,44.34],[67.8,44.17],[67.86,43.92],[68.6,43.49],[68.66,43.24],[69.6,43.23],[69.65,42.97],[69.38,42.81],[69.44,42.56],[68.96,41.98],[69.02,41.72],[69.34,41.63],[69.4,41.38],[69.14,41.22],[69.2,40.97],[69.51,40.88],[69.36,40.21],[68.54,39.97],[67.84,40.4],[67.59,40.23],[67.27,40.32],[66.82,40.9],[66.5,40.98],[65.11,40.63],[65.18,40.38],[65.5,40.31],[65.4,39.64],[66.09,39.23],[66.16,38.98],[65.75,38.4],[65.81,38.15],[66.86,37.41],[67.28,37.99],[68.31,37.24],[68.55,37.4],[68.5,37.65],[68.74,37.81],[69.05,37.72],[69.46,37.14],[69.02,36.57],[68.18,36.58],[68.13,36.83],[67.83,36.92],[67.59,36.75],[66.75,36.76],[66.51,36.59],[66.21,36.67],[65.81,36.1],[65.14,36.5],[64.75,35.92],[64.46,36.0],[64.39,36.24],[64.61,36.41],[64.54,36.65],[63.19,36.54],[62.96,36.37],[63.04,36.13],[63.34,36.05],[63.56,36.22],[63.86,36.15],[63.93,35.91],[63.71,35.74],[63.41,35.81],[63.04,35.23],[61.72,35.11],[61.78,35.76],[60.97,35.72],[61.02,36.37],[59.55,37.35],[59.46,37.59],[59.15,37.66],[59.06,37.9],[58.23,37.84],[56.91,38.96],[56.08,38.89],[55.55,39.41],[55.24,39.46],[55.23,40.12],[55.44,40.31],[56.18,39.97],[56.39,40.15],[55.86,40.68],[55.54,40.73],[55.53,41.39],[54.32,42.01],[54.11,41.82],[54.23,41.58],[54.55,41.54],[55.1,41.02],[52.81,40.26],[52.93,40.02],[53.76,40.12],[53.87,39.89],[55.03,39.28],[55.05,38.62],[55.36,38.57],[55.87,38.05],[55.67,37.87],[55.68,37.21],[55.48,37.03],[52.25,36.27],[51.73,36.77],[50.96,36.67],[50.43,37.16],[49.66,37.05],[49.13,37.53],[49.3,37.72],[49.18,37.94],[48.88,37.98],[48.75,38.2],[48.97,38.81],[48.85,39.03],[49.02,39.22],[49.76,38.93],[50.43,39.27],[51.23,39.39],[51.48,40.0],[51.36,40.23],[51.55,40.42],[51.43,40.65],[51.11,40.69],[50.55,41.18],[50.23,41.22],[50.1,41.45],[49.78,41.48],[49.65,41.71],[49.34,41.74],[49.2,41.96],[48.88,42.0],[48.75,42.22],[48.43,42.25],[48.29,42.47],[47.97,42.5],[46.44,43.47],[43.75,44.66],[43.61,45.29],[43.28,45.3],[43.12,45.52],[42.8,45.53],[42.63,45.32],[41.82,45.55],[40.71,44.94],[39.9,45.16],[39.25,44.79],[38.92,44.8],[38.75,45.0],[37.93,44.83],[37.76,45.03],[37.43,45.04],[37.23,45.65],[36.4,45.46],[36.22,45.66],[35.88,45.67],[35.72,45.47],[35.38,45.47],[35.2,45.67],[34.86,45.67],[34.74,45.07],[33.15,45.66],[32.31,45.44],[32.16,45.24],[32.35,45.04],[32.7,45.05],[32.93,44.44],[33.27,44.44],[33.98,44.04],[34.31,44.05],[34.46,44.25],[34.8,44.25],[36.42,45.06],[37.78,44.63],[37.96,44.02],[38.78,44.2],[38.96,43.58],[40.25,43.13],[41.36,42.47],[41.21,42.27],[41.36,41.65],[40.27,41.08],[39.96,41.09],[39.8,41.3],[39.02,41.12],[38.86,41.33],[38.54,41.34],[38.39,41.13],[37.59,41.35],[37.44,41.15],[37.12,41.15],[36.93,41.78],[36.11,41.99],[35.96,41.78],[35.64,41.78],[35.43,42.4],[34.15,41.98],[33.46,42.38],[33.13,42.38],[31.57,41.49],[31.24,41.48],[31.1,41.26],[30.26,41.43],[30.12,41.21],[29.79,41.2],[29.07,41.58],[28.21,41.74],[27.95,42.35],[28.08,42.57],[27.88,42.77],[28.02,42.99],[28.83,43.25],[28.91,43.88],[28.71,44.07],[28.85,44.29],[29.67,44.53],[29.81,44.75],[29.61,44.94],[28.3,44.46],[28.23,43.84],[27.89,43.81],[27.68,44.01],[26.87,43.74],[26.66,43.94],[26.32,43.91],[25.71,43.44],[24.83,43.57],[24.7,43.35],[24.36,43.32],[23.59,43.66],[22.7,43.78],[22.39,44.37],[22.51,44.59],[22.86,44.63],[23.07,44.45],[23.89,44.74],[24.66,44.39],[25.0,44.43],[26.09,45.14],[26.92,45.4],[26.98,46.02],[26.77,46.21],[26.91,46.42],[26.7,46.61],[26.84,46.82],[26.55,47.4],[26.69,47.61],[26.47,47.8],[26.61,48.01],[25.81,48.35],[26.45,48.79],[27.03,48.63],[27.9,48.87],[28.48,48.71],[28.56,49.3],[28.34,49.48],[28.49,49.68],[27.1,50.19],[26.21,49.95],[25.39,50.28],[24.51,50.02],[23.68,50.34],[23.82,50.54],[23.58,50.72],[22.98,50.85],[22.6,50.82],[22.47,50.61],[22.71,50.44],[22.57,50.24],[21.6,50.33],[21.47,50.13],[21.1,50.09],[20.86,50.26],[21.49,50.71],[21.25,50.88],[21.38,51.08],[20.53,51.38],[20.15,51.33],[19.53,50.88],[18.54,50.95],[18.42,50.74],[17.57,50.43],[17.19,50.96],[16.21,51.01],[15.82,51.53],[14.58,51.72],[14.69,51.93],[14.29,52.43],[14.4,52.64],[13.99,53.14],[14.1,53.34],[13.84,53.49],[13.95,53.69],[14.33,53.75],[14.97,53.67],[15.58,54.13],[14.94,54.22],[14.82,54.01],[14.44,53.95],[14.03,54.44],[14.14,54.64],[13.22,54.86],[12.84,54.8],[12.24,54.33],[11.6,54.4],[12.68,55.14],[13.72,55.12],[13.83,55.32],[14.22,55.38],[14.64,54.9],[15.53,55.21],[15.65,55.41],[14.72,55.64],[14.84,55.83],[15.9,55.8],[16.54,56.25],[16.94,56.3],[17.07,56.49],[16.8,56.63],[16.93,56.82],[17.46,57.06],[17.04,57.53],[17.18,57.72],[16.9,57.86],[17.58,58.28],[17.3,58.42],[17.99,58.84],[19.1,58.78],[19.25,58.97],[18.97,59.11]],[[1.01,47.74],[2.11,47.54],[1.32,46.74],[1.02,46.68],[0.96,46.45],[0.66,46.39],[-0.13,46.64],[-0.08,46.87],[-0.33,47.03],[-1.45,47.21],[-1.4,47.44],[-0.72,47.81],[-0.67,48.04],[0.21,48.01],[0.65,47.46],[0.95,47.52],[1.01,47.74]],[[21.93,47.0],[21.81,46.78],[22.03,46.6],[21.91,46.38],[22.23,45.8],[22.1,45.58],[21.76,45.54],[21.63,45.32],[21.85,45.14],[21.27,44.66],[20.36,44.75],[20.24,44.53],[19.9,44.48],[19.67,44.66],[18.77,44.75],[18.43,45.32],[18.54,45.54],[17.74,45.84],[17.85,46.06],[18.77,45.99],[18.89,46.21],[18.54,46.78],[17.96,46.9],[18.07,47.12],[18.89,47.43],[19.48,47.31],[19.6,47.53],[21.4,48.34],[21.52,48.56],[22.47,48.46],[23.29,48.14],[23.25,47.53],[21.93,47.0]],[[111.44,56.3],[112.26,56.68],[112.69,56.68],[112.92,56.48],[112.71,56.29],[112.94,56.1],[112.74,55.91],[111.7,55.72],[110.83,56.11],[111.02,56.3],[111.44,56.3]],[[10.95,54.47],[10.31,54.53],[10.41,54.73],[10.79,54.8],[11.06,54.67],[10.95,54.47]],[[57.53,34.07],[57.25,34.13],[57.15,34.36],[57.35,34.53],[57.64,34.47],[57.73,34.24],[57.53,34.07]],[[23.93,58.0],[24.19,57.84],[24.03,57.66],[24.29,57.51],[24.14,57.33],[23.05,57.42],[22.9,57.24],[23.16,57.09],[22.6,56.87],[21.67,57.14],[22.79,57.58],[22.94,57.76],[22.68,57.91],[22.83,58.09],[23.82,58.33],[24.08,58.18],[23.93,58.0]],[[111.0,54.59],[111.22,54.4],[111.04,54.22],[110.42,54.4],[110.6,54.59],[111.0,54.59]],[[-3.65,54.03],[-3.7,53.81],[-3.4,53.65],[-3.45,53.44],[-3.8,53.37],[-4.35,53.9],[-4.3,54.11],[-3.65,54.03]],[[55.19,30.97],[55.18,31.59],[54.9,31.65],[54.8,31.87],[55.07,32.44],[54.97,32.67],[53.77,32.47],[53.29,32.97],[53.47,33.15],[54.13,32.82],[54.39,33.4],[54.68,33.35],[54.78,33.12],[55.44,32.79],[55.53,32.56],[55.26,31.99],[55.36,31.76],[55.64,31.71],[55.73,31.48],[55.55,31.31],[56.01,30.81],[55.74,30.25],[55.47,30.3],[55.38,30.53],[55.56,30.7],[55.46,30.92],[55.19,30.97]],[[95.66,62.95],[95.27,63.12],[95.37,63.34],[96.26,63.24],[96.15,63.01],[95.66,62.95]],[[25.5,60.07],[25.77,59.92],[25.67,59.7],[25.03,59.79],[25.13,60.01],[25.5,60.07]],[[24.02,65.34],[24.34,65.2],[24.23,64.99],[22.77,64.33],[22.68,64.11],[21.79,63.74],[21.7,63.53],[21.0,63.58],[21.08,63.8],[21.96,64.17],[22.05,64.39],[21.49,64.87],[21.57,65.08],[22.74,65.11],[22.83,65.32],[23.26,65.4],[24.02,65.34]],[[55.88,53.12],[55.48,53.17],[55.34,53.4],[55.6,53.59],[55.46,53.83],[55.05,53.86],[54.91,54.1],[55.18,54.29],[55.59,54.25],[55.74,54.02],[56.15,53.98],[56.29,53.75],[56.01,53.55],[56.15,53.32],[55.88,53.12]],[[17.81,61.59],[17.95,61.77],[17.66,61.89],[17.8,62.07],[19.41,63.04],[19.48,63.25],[19.85,63.34],[19.92,63.55],[20.3,63.63],[20.62,63.5],[20.09,62.99],[20.4,62.86],[20.33,62.65],[20.63,62.51],[20.56,62.3],[20.86,62.16],[20.78,61.95],[21.3,61.46],[20.79,60.95],[19.27,60.45],[18.26,60.68],[18.4,60.85],[18.11,60.99],[17.38,61.07],[18.1,61.46],[17.81,61.59]],[[95.41,46.1],[95.08,46.01],[94.82,46.17],[94.87,46.41],[95.2,46.5],[96.05,46.28],[95.99,46.04],[95.67,45.95],[95.41,46.1]],[[54.07,31.8],[53.97,32.03],[54.15,32.2],[54.43,32.15],[54.53,31.92],[54.35,31.75],[54.07,31.8]],[[83.99,45.17],[84.92,45.28],[85.26,45.91],[85.58,46.03],[85.89,45.89],[86.54,46.38],[86.85,46.24],[86.83,45.99],[87.13,45.85],[87.11,45.6],[87.67,45.07],[89.2,45.12],[89.73,44.59],[90.05,44.69],[90.08,44.94],[90.4,45.05],[90.68,44.9],[90.29,44.3],[88.8,44.26],[88.51,44.4],[87.87,43.92],[86.98,44.08],[87.0,44.34],[86.71,44.47],[83.97,44.4],[83.37,44.92],[83.37,45.17],[83.69,45.3],[83.99,45.17]],[[109.69,55.34],[109.92,55.15],[109.75,54.96],[109.97,54.78],[109.8,54.59],[110.03,54.4],[109.86,54.21],[108.61,54.57],[109.34,54.96],[109.11,55.14],[109.28,55.33],[109.04,55.52],[109.22,55.71],[110.22,55.91],[110.46,55.73],[109.69,55.34]],[[-1.4,46.13],[-1.55,46.75],[-1.25,46.83],[-0.69,46.74],[-0.24,46.19],[0.06,46.25],[0.49,45.7],[0.43,45.47],[0.85,44.92],[0.8,44.69],[0.16,44.32],[-1.16,44.66],[-0.76,45.19],[-1.4,46.13]],[[109.52,53.84],[109.91,53.84],[110.08,54.03],[110.69,53.84],[109.61,53.44],[109.39,53.62],[109.52,53.84]],[[52.26,34.59],[52.37,34.37],[52.2,34.19],[51.45,34.1],[51.34,34.32],[51.58,34.91],[52.26,34.59]],[[26.42,59.82],[26.15,59.98],[26.26,60.2],[26.91,60.1],[26.8,59.88],[26.42,59.82]],[[105.93,49.46],[105.59,50.03],[105.69,50.26],[106.47,50.59],[106.58,50.81],[107.47,50.72],[107.69,50.55],[107.58,50.32],[108.34,50.01],[107.78,49.53],[107.46,49.48],[107.24,49.66],[107.35,49.88],[107.14,50.06],[105.93,49.46]],[[52.62,33.29],[52.52,33.52],[52.69,33.69],[52.98,33.65],[53.08,33.42],[52.91,33.25],[52.62,33.29]],[[12.02,56.46],[11.74,56.59],[11.85,56.79],[12.52,56.72],[12.41,56.53],[12.02,56.46]],[[28.34,40.89],[28.67,40.92],[28.86,40.72],[28.73,40.49],[28.4,40.47],[28.21,40.67],[28.34,40.89]],[[82.75,44.41],[82.44,44.53],[82.44,44.79],[82.75,44.92],[83.06,44.79],[83.06,44.53],[82.75,44.41]],[[0.32,41.51],[0.55,41.35],[0.5,41.12],[-0.52,41.28],[-0.14,41.83],[0.15,41.91],[0.37,41.75],[0.32,41.51]],[[10.9,56.98],[11.01,57.17],[11.4,57.24],[11.68,57.11],[11.57,56.92],[10.69,56.58],[10.4,56.71],[10.51,56.91],[10.9,56.98]],[[70.83,40.26],[70.51,40.35],[70.46,40.6],[70.73,40.76],[71.62,40.73],[71.67,40.48],[70.83,40.26]],[[22.56,58.24],[21.88,58.36],[22.45,58.57],[22.72,58.42],[22.56,58.24]]],[[[5.76,35.25],[7.96,34.73],[8.25,34.8],[8.68,35.36],[9.33,35.75],[9.41,35.99],[9.19,36.16],[8.54,35.77],[8.18,36.35],[7.89,36.27],[5.66,36.78],[5.03,36.37],[4.66,36.93],[4.04,36.53],[3.33,36.75],[2.72,36.34],[1.53,36.62],[1.26,36.54],[1.37,35.91],[0.79,35.49],[0.43,34.93],[-0.31,34.9],[-0.99,35.12],[-1.55,34.7],[-1.77,34.85],[-2.03,34.76],[-2.37,34.18],[-3.11,34.14],[-3.14,33.9],[-3.4,33.81],[-4.59,34.05],[-5.15,33.61],[-5.38,33.75],[-5.64,33.65],[-5.67,33.41],[-5.93,33.3],[-5.76,32.67],[-6.02,32.57],[-6.33,31.97],[-7.07,31.9],[-7.1,31.65],[-7.36,31.55],[-7.59,31.68],[-8.12,31.22],[-8.84,31.38],[-9.1,31.27],[-9.12,31.02],[-8.68,30.5],[-8.15,30.97],[-7.92,30.83],[-8.22,30.23],[-7.51,30.07],[-6.98,30.53],[-7.16,31.16],[-6.42,31.23],[-6.0,30.71],[-4.9,31.85],[-4.86,32.1],[-4.61,32.2],[-4.39,32.06],[-4.13,32.16],[-4.1,32.4],[-3.84,32.5],[-3.63,32.35],[-3.08,32.79],[-2.86,32.64],[-2.14,32.69],[-1.81,33.26],[-2.02,33.41],[-2.57,32.98],[-2.79,33.13],[-2.15,34.04],[-1.89,34.13],[-1.21,33.92],[-0.65,34.34],[-0.44,34.19],[0.12,34.6],[0.33,34.45],[0.59,34.54],[1.27,34.32],[0.91,33.76],[1.59,33.54],[2.17,33.95],[2.22,34.19],[2.97,34.2],[3.02,34.44],[3.29,34.52],[3.5,34.36],[3.78,34.44],[3.83,34.69],[4.11,34.77],[3.86,35.81],[5.12,35.73],[5.49,35.17],[5.76,35.25]],[[2.65,34.99],[2.87,34.83],[2.81,34.59],[2.54,34.51],[2.33,34.67],[2.39,34.91],[2.65,34.99]],[[-3.7,33.47],[-3.44,33.56],[-3.22,33.42],[-3.26,33.18],[-3.81,32.74],[-4.03,32.88],[-3.99,33.13],[-3.74,33.23],[-3.7,33.47]]],[[[21.89,37.43],[22.09,37.24],[22.41,37.28],[22.52,37.52],[23.36,37.4],[23.47,37.63],[22.23,38.14],[21.91,38.1],[21.89,37.43]]],[[[-8.86,58.02],[-9.24,57.95],[-9.27,57.73],[-8.54,57.67],[-8.51,57.88],[-8.86,58.02]]],[[[37.4,34.34],[37.26,34.13],[36.97,34.12],[36.35,34.55],[36.06,34.54],[35.92,34.32],[36.08,34.11],[35.51,33.66],[35.67,33.44],[35.53,33.22],[35.69,33.01],[35.99,33.02],[36.56,33.46],[37.72,33.92],[37.85,34.13],[37.7,34.35],[37.4,34.34]]],[[[114.65,59.21],[114.18,59.22],[113.95,59.02],[114.18,58.82],[115.35,58.99],[115.59,59.19],[115.37,59.39],[114.89,59.41],[114.65,59.21]]],[[[59.02,75.98],[58.49,75.79],[58.91,75.57],[56.99,75.22],[57.42,75.0],[56.94,74.81],[57.36,74.6],[56.9,74.41],[56.04,74.43],[55.6,74.24],[56.02,74.03],[55.59,73.84],[54.76,73.86],[54.36,73.67],[54.78,73.46],[53.21,73.09],[53.63,72.89],[53.26,72.7],[53.67,72.5],[53.31,72.31],[52.56,72.32],[52.22,72.13],[52.62,71.93],[52.29,71.74],[52.68,71.55],[53.4,71.53],[53.78,71.34],[53.44,71.15],[53.81,70.95],[55.54,70.71],[55.89,70.9],[55.55,71.1],[55.91,71.28],[54.47,71.71],[54.83,71.89],[54.45,72.1],[54.81,72.28],[54.43,72.49],[55.96,72.84],[55.58,73.05],[55.98,73.24],[55.59,73.45],[57.25,73.8],[56.86,74.01],[57.3,74.2],[58.15,74.17],[58.62,74.36],[58.23,74.57],[58.72,74.76],[59.6,74.73],[60.11,74.91],[59.72,75.13],[60.24,75.32],[61.16,75.28],[61.71,75.46],[61.34,75.69],[61.91,75.87],[64.42,75.95],[65.04,76.13],[64.7,76.36],[63.71,76.41],[63.09,76.23],[59.02,75.98]]],[[[-6.14,62.01],[-5.72,62.07],[-5.67,62.26],[-6.37,62.74],[-7.26,62.43],[-7.76,61.97],[-7.39,61.84],[-7.43,61.64],[-6.74,61.16],[-6.33,61.22],[-6.28,61.42],[-6.65,61.56],[-6.6,61.76],[-6.19,61.82],[-6.14,62.01]]],[[[67.45,52.49],[67.13,52.32],[67.21,52.08],[69.03,52.15],[69.35,52.32],[69.74,52.23],[69.81,51.98],[70.91,51.95],[70.97,51.7],[71.35,51.61],[71.95,52.17],[71.9,52.43],[71.05,52.87],[70.99,53.12],[70.6,53.21],[70.53,53.46],[70.13,53.55],[69.07,53.32],[68.18,53.74],[67.85,53.57],[67.93,53.33],[66.89,53.07],[67.45,52.49]]],[[[8.82,41.77],[8.74,41.53],[8.97,41.37],[9.67,41.76],[9.61,42.38],[9.38,42.54],[9.86,43.08],[9.63,43.24],[8.52,42.55],[8.44,42.32],[8.82,41.77]]],[[[9.72,40.25],[9.65,40.89],[9.43,41.05],[9.12,40.98],[8.65,40.43],[8.88,40.27],[8.8,40.03],[9.17,39.47],[9.47,39.54],[9.55,39.78],[9.33,39.94],[9.41,40.18],[9.72,40.25]]],[[[-6.15,35.56],[-6.18,35.32],[-5.94,35.17],[-5.68,35.27],[-5.24,34.73],[-4.49,34.78],[-4.07,34.25],[-3.81,34.34],[-3.47,34.92],[-4.19,35.12],[-4.95,35.08],[-5.38,35.62],[-5.34,35.86],[-4.77,36.3],[-4.74,36.54],[-4.47,36.64],[-4.24,36.49],[-3.66,36.92],[-3.43,36.77],[-2.17,36.74],[-1.82,37.31],[-2.23,37.86],[-2.18,38.1],[-2.41,38.25],[-2.69,38.16],[-2.73,37.92],[-3.31,37.5],[-4.05,37.71],[-4.32,37.62],[-4.67,37.03],[-5.45,36.99],[-5.48,36.74],[-6.05,36.3],[-6.08,36.05],[-5.85,35.91],[-5.88,35.66],[-6.15,35.56]]],[[[111.41,41.1],[110.82,41.38],[110.44,41.12],[111.04,40.84],[111.41,41.1]]],[[[-17.18,63.87],[-16.38,63.83],[-15.38,64.22],[-14.59,64.16],[-13.9,64.68],[-13.44,64.76],[-13.32,64.98],[-13.66,65.12],[-13.53,65.34],[-13.88,65.49],[-13.75,65.71],[-14.95,65.92],[-14.83,66.15],[-15.21,66.29],[-16.57,66.27],[-16.67,66.04],[-17.16,65.96],[-19.32,66.19],[-19.81,66.09],[-19.88,65.86],[-20.9,65.43],[-21.67,65.93],[-21.61,66.16],[-22.04,66.29],[-23.45,66.21],[-23.49,65.97],[-22.68,65.49],[-22.73,65.25],[-23.19,65.14],[-23.23,64.91],[-22.36,64.89],[-21.61,64.41],[-21.66,64.18],[-22.95,64.09],[-23.0,63.86],[-20.5,63.79],[-19.82,63.31],[-18.23,63.24],[-17.27,63.65],[-17.18,63.87]],[[-17.45,65.28],[-17.54,65.05],[-16.34,64.86],[-16.44,64.64],[-16.08,64.5],[-16.19,64.27],[-17.45,64.24],[-18.09,64.73],[-18.93,64.77],[-18.3,65.32],[-17.45,65.28]]],[[[130.22,55.81],[130.32,55.59],[131.04,55.68],[130.94,55.9],[130.53,55.97],[130.22,55.81]]],[[[2.24,39.71],[2.19,39.47],[2.92,39.26],[3.54,39.67],[3.61,39.91],[2.87,40.12],[2.24,39.71]]],[[[37.47,32.61],[36.87,33.04],[36.58,33.03],[36.44,32.81],[36.62,32.16],[36.91,32.17],[37.47,32.61]]],[[[-5.69,58.97],[-5.65,59.18],[-5.99,59.32],[-6.38,59.26],[-6.43,59.06],[-5.69,58.97]]],[[[18.68,56.68],[18.81,56.87],[18.54,57.01],[18.68,57.2],[19.23,57.43],[18.95,57.58],[19.65,57.99],[19.24,58.46],[18.27,58.19],[18.13,58.0],[18.41,57.86],[17.73,57.44],[18.0,57.3],[17.87,57.11],[18.14,56.97],[18.01,56.78],[18.68,56.68]]],[[[66.29,48.3],[66.37,48.04],[66.73,47.96],[67.23,48.55],[67.6,48.47],[67.9,48.64],[67.82,48.89],[68.35,49.48],[68.28,49.73],[67.9,49.82],[66.93,49.56],[67.01,49.31],[66.71,49.14],[66.79,48.89],[66.29,48.3]]],[[[82.15,73.46],[81.44,73.34],[81.49,73.1],[80.8,72.97],[80.85,72.73],[83.65,72.73],[83.64,72.97],[82.92,73.1],[82.9,73.34],[82.15,73.46]]],[[[85.59,70.16],[85.6,70.4],[84.99,70.53],[85.0,70.77],[84.36,70.9],[83.74,70.79],[83.74,70.55],[84.37,70.42],[84.37,70.18],[85.59,70.16]]],[[[112.67,40.75],[113.04,41.01],[112.84,41.54],[112.16,41.62],[111.78,41.36],[111.68,41.15],[111.84,40.99],[112.67,40.75]]],[[[100.73,43.51],[100.43,43.43],[100.36,43.2],[100.58,43.04],[100.88,43.11],[100.95,43.35],[100.73,43.51]]],[[[77.11,68.62],[74.92,68.56],[75.03,68.33],[76.29,67.9],[76.78,68.03],[76.69,68.26],[77.19,68.39],[77.11,68.62]]],[[[121.22,24.12],[121.48,24.44],[121.29,24.56],[121.06,24.46],[121.02,24.24],[121.22,24.12]]],[[[73.03,44.88],[73.36,44.78],[73.65,44.93],[73.61,45.19],[73.28,45.29],[72.99,45.14],[73.03,44.88]]],[[[103.56,43.75],[103.77,43.59],[103.69,43.36],[103.89,43.19],[104.19,43.26],[104.16,43.88],[103.43,44.14],[103.13,44.08],[102.67,43.55],[102.88,43.38],[103.56,43.75]]],[[[35.72,32.57],[35.61,31.91],[35.76,31.7],[36.5,31.5],[36.64,31.73],[36.48,31.94],[36.19,31.93],[36.03,32.15],[36.17,32.37],[36.01,32.58],[35.72,32.57]]],[[[101.95,44.66],[101.87,44.43],[102.09,44.26],[102.4,44.33],[102.48,44.57],[102.26,44.73],[101.95,44.66]]],[[[-8.95,30.14],[-8.97,29.9],[-8.74,29.76],[-8.49,29.87],[-8.47,30.12],[-8.7,30.25],[-8.95,30.14]]],[[[-6.99,37.13],[-6.71,37.23],[-6.68,37.48],[-6.93,37.62],[-7.2,37.52],[-7.23,37.28],[-6.99,37.13]]],[[[13.12,37.94],[13.03,37.7],[13.24,37.52],[14.07,37.47],[14.29,37.29],[15.0,37.65],[15.09,37.89],[14.88,38.07],[14.57,38.01],[14.47,37.77],[14.16,37.71],[13.95,37.89],[13.12,37.94]]],[[[49.77,69.1],[49.51,69.29],[48.52,69.1],[48.78,68.91],[49.4,68.91],[49.77,69.1]]],[[[112.44,38.46],[112.49,39.03],[112.34,39.19],[111.63,38.67],[112.44,38.46]]],[[[106.92,41.6],[106.64,41.54],[106.55,41.31],[106.74,41.15],[107.11,41.43],[106.92,41.6]]],[[[123.3,56.3],[124.0,56.42],[123.85,56.64],[123.41,56.68],[123.14,56.51],[123.3,56.3]]],[[[113.54,38.85],[113.65,39.06],[113.5,39.22],[113.25,39.17],[113.15,38.97],[113.54,38.85]]],[[[37.83,34.99],[37.68,34.78],[37.84,34.56],[38.14,34.56],[38.28,34.78],[38.12,35.0],[37.83,34.99]]],[[[111.74,37.95],[111.49,37.89],[111.39,37.69],[111.54,37.53],[111.89,37.79],[111.74,37.95]]],[[[-2.1,38.58],[-2.05,38.82],[-2.28,38.97],[-2.56,38.88],[-2.6,38.64],[-2.37,38.49],[-2.1,38.58]]],[[[64.15,41.78],[63.91,41.61],[63.99,41.36],[64.31,41.28],[64.56,41.46],[64.48,41.71],[64.15,41.78]]]]}}]}