{"type":"FeatureCollection","features":[{"type":"Feature","properties":{},"geometry":{"type":"MultiPolygon","coordinates":[[[[180.0,69.38],[176.65,70.15],[175.54,69.93],[177.71,69.5],[178.01,68.85],[180.0,68.4],[180.0,69.38]]],[[[-180.0,-44.43],[-177.2,-43.95],[-176.48,-44.59],[-175.93,-44.54],[-175.76,-44.17],[-176.2,-43.62],[-175.26,-43.04],[-174.51,-40.89],[-173.76,-40.67],[-173.67,-40.04],[-172.93,-39.8],[-172.7,-38.77],[-171.96,-38.52],[-171.38,-36.9],[-171.82,-36.35],[-171.32,-35.36],[-172.18,-33.34],[-171.03,-30.25],[-171.44,-29.7],[-171.05,-28.44],[-170.11,-28.22],[-169.78,-27.61],[-169.17,-27.98],[-163.8,-26.39],[-163.15,-26.73],[-161.28,-26.16],[-161.0,-25.52],[-160.07,-25.22],[-159.9,-24.35],[-156.27,-24.88],[-154.99,-25.95],[-152.16,-26.27],[-151.64,-26.77],[-148.8,-27.03],[-148.19,-26.63],[-147.5,-26.9],[-146.47,-26.31],[-145.79,-26.58],[-144.77,-25.97],[-144.09,-26.23],[-142.69,-25.42],[-142.02,-25.67],[-140.26,-24.65],[-139.6,-24.88],[-134.93,-22.22],[-134.31,-22.43],[-134.21,-21.81],[-133.51,-21.4],[-133.66,-20.79],[-132.9,-19.38],[-133.07,-18.38],[-132.64,-17.99],[-132.87,-15.81],[-134.29,-14.58],[-134.85,-14.74],[-136.25,-13.88],[-136.38,-13.28],[-137.66,-12.6],[-137.78,-12.01],[-141.24,-9.76],[-141.83,-9.89],[-142.97,-9.0],[-145.68,-8.5],[-146.08,-8.07],[-147.43,-8.1],[-149.22,-7.09],[-151.64,-6.78],[-152.18,-7.11],[-153.48,-6.74],[-155.12,-7.11],[-157.14,-6.62],[-157.67,-6.94],[-162.17,-6.27],[-164.9,-6.62],[-167.88,-6.13],[-169.45,-4.72],[-167.82,-2.45],[-169.46,-1.22],[-169.73,-0.18],[-169.03,0.12],[-167.79,-0.26],[-166.94,0.23],[-166.37,-0.05],[-164.39,0.92],[-163.81,0.63],[-159.19,2.55],[-159.0,3.17],[-158.35,3.3],[-158.16,5.02],[-157.16,5.99],[-157.16,7.09],[-156.6,7.46],[-157.67,9.37],[-155.66,12.03],[-154.56,12.35],[-153.87,13.61],[-150.63,14.76],[-150.4,15.41],[-147.98,16.19],[-147.74,16.83],[-147.04,16.95],[-146.8,17.58],[-146.11,17.7],[-144.92,19.07],[-139.46,20.73],[-139.2,21.34],[-138.51,21.41],[-137.83,22.14],[-138.43,23.78],[-139.74,24.7],[-139.85,26.85],[-142.76,29.08],[-144.69,29.42],[-145.17,29.91],[-153.92,31.01],[-154.54,30.66],[-158.21,30.92],[-160.1,30.41],[-161.6,30.68],[-163.44,30.12],[-166.91,30.21],[-167.4,30.65],[-170.09,30.74],[-170.61,31.17],[-175.11,31.18],[-175.68,30.74],[-180.0,30.56],[-180.0,-44.43]]],[[[180.0,63.14],[179.01,63.52],[179.36,64.15],[179.11,64.36],[180.0,64.57],[180.0,68.4],[179.63,68.19],[179.85,67.54],[178.51,67.12],[176.6,67.55],[174.97,67.32],[174.6,67.96],[173.93,67.95],[167.56,66.15],[167.16,66.34],[167.39,66.58],[165.95,66.91],[166.18,67.15],[165.76,67.34],[163.19,67.13],[162.48,67.74],[160.84,67.12],[159.11,67.15],[156.51,66.59],[154.32,66.73],[154.22,66.48],[155.8,66.25],[155.1,65.92],[153.54,66.14],[153.63,66.39],[153.13,66.54],[150.34,66.53],[149.11,65.8],[150.03,65.02],[148.88,64.31],[149.33,63.92],[148.78,63.56],[149.18,62.93],[145.82,62.86],[146.72,61.87],[144.44,61.02],[143.51,61.5],[142.6,61.49],[141.76,60.98],[140.79,61.44],[138.74,60.5],[138.21,60.84],[138.93,61.61],[137.47,61.9],[138.19,62.68],[136.42,63.7],[134.48,63.57],[131.64,64.21],[128.74,63.9],[125.57,65.32],[121.73,64.73],[116.78,65.16],[113.84,64.37],[112.4,64.59],[111.3,64.16],[109.54,64.55],[103.93,64.33],[100.76,64.95],[98.83,64.36],[95.06,64.8],[94.3,65.35],[91.59,64.76],[89.22,65.04],[88.84,65.64],[89.41,65.96],[87.92,66.16],[86.99,66.9],[84.89,66.51],[83.86,67.0],[81.27,66.92],[80.15,67.38],[78.06,67.36],[78.42,67.95],[77.78,68.28],[78.21,68.64],[77.62,68.75],[76.38,67.67],[75.29,67.65],[75.62,68.23],[74.92,68.56],[75.31,68.92],[74.7,69.02],[72.38,68.1],[70.19,67.99],[68.88,68.36],[69.1,68.95],[66.59,69.22],[66.3,68.85],[68.5,68.0],[66.94,67.77],[67.77,67.27],[65.67,67.1],[64.91,66.57],[64.19,66.84],[64.63,67.0],[64.5,67.22],[62.4,67.81],[61.68,67.27],[58.51,67.69],[55.5,67.25],[54.49,67.68],[55.06,68.24],[58.18,68.68],[58.8,68.65],[58.75,68.07],[60.85,68.33],[61.23,69.28],[59.24,68.82],[59.31,69.4],[58.66,69.43],[57.98,68.89],[56.29,68.77],[54.59,69.22],[48.25,67.96],[46.79,68.14],[46.59,68.7],[45.7,68.88],[43.28,68.81],[42.97,68.61],[43.86,68.45],[44.11,67.89],[42.37,67.06],[41.24,67.39],[41.51,67.98],[41.21,68.15],[38.88,68.4],[38.51,68.94],[37.02,69.03],[36.48,69.55],[35.2,69.26],[31.7,70.25],[30.74,70.92],[28.97,70.91],[27.85,71.37],[26.65,71.01],[24.27,71.49],[23.18,70.91],[18.76,70.54],[18.02,69.76],[13.75,69.0],[13.29,68.23],[11.93,68.08],[11.56,67.33],[12.73,67.65],[13.38,67.4],[11.83,66.97],[10.9,65.85],[11.64,65.45],[10.48,65.3],[10.41,64.87],[9.6,64.53],[9.77,64.2],[8.13,64.17],[8.2,63.66],[3.28,61.86],[3.42,61.33],[2.07,60.86],[2.21,60.32],[0.82,59.63],[-0.26,59.7],[-2.12,58.51],[-2.82,58.61],[-0.58,59.85],[-0.76,60.4],[-0.3,60.64],[-1.28,61.1],[-2.67,60.37],[-1.68,59.92],[-2.2,59.47],[-4.48,59.36],[-3.53,58.71],[-4.97,58.89],[-7.67,58.44],[-7.36,58.09],[-7.78,57.81],[-7.52,57.25],[-8.34,56.67],[-7.3,56.46],[-6.76,55.52],[-8.5,55.59],[-9.29,54.99],[-9.02,54.41],[-10.75,54.44],[-10.44,54.08],[-10.84,53.54],[-10.21,53.03],[-10.97,52.17],[-11.98,52.12],[-12.36,51.57],[-13.36,51.5],[-13.72,50.94],[-14.72,50.86],[-15.4,49.94],[-17.68,49.15],[-18.31,48.19],[-20.51,47.33],[-21.48,47.43],[-22.08,46.93],[-23.68,46.99],[-24.26,46.47],[-25.22,46.54],[-26.42,45.97],[-26.93,45.19],[-28.49,45.18],[-29.02,44.63],[-30.24,44.51],[-30.65,43.46],[-31.52,43.23],[-31.9,42.17],[-32.75,41.93],[-33.37,40.7],[-33.77,39.87],[-33.4,39.53],[-33.38,38.11],[-31.67,36.65],[-31.83,35.98],[-30.99,35.96],[-28.0,32.51],[-27.2,32.46],[-26.55,31.48],[-25.76,31.42],[-25.16,30.69],[-25.35,30.03],[-23.64,28.1],[-23.84,27.45],[-23.3,26.98],[-23.5,26.33],[-22.7,25.5],[-22.9,24.86],[-21.9,24.42],[-20.85,22.74],[-18.26,22.73],[-17.8,23.24],[-16.4,23.53],[-17.32,22.03],[-17.08,21.43],[-17.54,20.93],[-16.85,20.59],[-16.85,19.64],[-16.17,18.83],[-16.18,17.89],[-16.62,17.41],[-16.4,16.83],[-16.83,16.12],[-19.4,14.85],[-20.61,12.75],[-20.56,11.87],[-19.46,10.32],[-18.85,10.25],[-17.81,9.16],[-16.0,8.54],[-14.84,7.19],[-12.57,6.34],[-11.24,6.51],[-10.9,5.95],[-9.81,5.63],[-9.5,4.9],[-7.79,4.08],[-5.22,5.13],[-4.92,4.78],[-4.0,5.16],[-2.83,4.68],[-2.43,4.94],[-2.15,4.46],[-1.4,4.61],[0.47,5.71],[1.02,5.64],[1.3,6.06],[2.71,6.34],[5.2,5.12],[5.27,4.57],[6.13,3.79],[5.73,3.35],[5.79,1.85],[6.57,1.01],[6.19,-0.21],[6.52,-0.35],[7.15,0.13],[8.5,-0.47],[8.54,-1.26],[9.78,-3.12],[11.1,-3.99],[12.01,-5.34],[11.96,-6.4],[13.3,-8.38],[12.5,-9.1],[13.45,-10.52],[13.58,-12.23],[12.85,-12.29],[12.77,-12.95],[12.07,-13.43],[12.27,-14.49],[11.48,-15.61],[11.7,-17.09],[11.24,-17.54],[13.05,-20.23],[12.97,-20.87],[14.39,-22.52],[13.91,-22.96],[14.46,-23.36],[12.61,-24.46],[10.11,-23.04],[9.11,-23.04],[8.58,-22.21],[5.28,-20.46],[3.31,-17.13],[3.47,-14.62],[3.01,-13.82],[-0.12,-11.83],[-0.72,-11.95],[-1.85,-11.08],[-2.45,-11.19],[-3.94,-10.46],[-5.25,-10.48],[-5.68,-10.06],[-7.0,-10.07],[-7.42,-9.65],[-10.14,-9.46],[-10.54,-9.03],[-13.55,-8.6],[-14.16,-8.14],[-14.16,-7.6],[-14.91,-7.84],[-15.71,-7.58],[-16.19,-6.99],[-16.12,-6.38],[-17.6,-4.58],[-19.41,-4.14],[-19.71,-3.59],[-21.58,-3.13],[-22.8,-2.01],[-25.0,-1.19],[-25.58,-1.42],[-26.08,-1.01],[-27.07,-1.32],[-27.57,-0.91],[-29.41,-1.37],[-30.62,-0.69],[-31.66,-1.01],[-34.02,-0.13],[-35.07,-0.45],[-36.03,-0.1],[-36.36,0.49],[-38.48,1.04],[-38.8,1.63],[-41.93,2.77],[-43.0,2.46],[-43.52,2.89],[-45.03,2.5],[-47.42,3.36],[-48.05,3.12],[-49.55,5.51],[-51.18,6.08],[-51.76,6.97],[-52.41,6.96],[-52.72,7.52],[-54.31,8.06],[-55.14,7.89],[-56.21,9.35],[-55.06,10.07],[-54.76,10.84],[-55.79,12.03],[-55.94,12.92],[-54.7,15.69],[-54.96,17.19],[-55.44,17.52],[-55.43,18.7],[-55.91,19.02],[-55.71,21.46],[-56.23,21.77],[-56.86,23.23],[-56.29,24.25],[-56.7,24.72],[-56.62,25.47],[-53.63,28.05],[-53.06,31.63],[-53.77,32.16],[-53.8,32.78],[-54.77,33.34],[-55.48,34.87],[-55.27,35.46],[-55.74,35.93],[-55.47,36.92],[-55.95,37.38],[-55.36,37.73],[-55.84,38.19],[-54.22,39.67],[-53.96,41.3],[-54.89,42.32],[-54.81,43.1],[-53.8,43.48],[-53.55,44.07],[-52.71,44.25],[-52.38,45.23],[-53.47,45.87],[-58.97,45.88],[-60.2,46.88],[-58.94,47.53],[-56.42,47.55],[-56.83,46.72],[-55.97,46.52],[-54.89,46.91],[-53.41,46.27],[-52.66,46.65],[-52.73,47.27],[-51.96,47.64],[-53.48,49.36],[-53.42,49.77],[-54.91,49.81],[-56.18,50.47],[-54.81,50.65],[-55.54,51.09],[-54.71,51.5],[-54.66,51.92],[-55.4,52.37],[-55.25,53.65],[-56.89,54.11],[-57.05,54.76],[-59.42,55.42],[-59.64,56.07],[-60.32,56.29],[-60.1,56.95],[-61.78,58.02],[-61.55,58.25],[-61.81,58.46],[-62.55,58.67],[-62.32,58.89],[-62.59,59.11],[-63.08,59.1],[-63.26,58.43],[-61.51,57.37],[-61.68,56.26],[-60.76,55.84],[-60.75,55.4],[-61.61,54.95],[-61.55,53.64],[-63.2,53.15],[-63.35,52.49],[-64.64,52.86],[-66.31,52.76],[-67.06,52.27],[-70.19,52.2],[-72.36,51.74],[-72.5,52.16],[-71.95,52.45],[-72.23,52.64],[-73.18,52.3],[-73.61,52.92],[-75.73,53.3],[-76.1,54.15],[-78.31,54.49],[-77.23,55.12],[-77.32,55.79],[-76.19,56.42],[-77.03,58.14],[-78.21,58.43],[-78.45,58.86],[-77.23,59.5],[-77.47,59.93],[-79.29,58.97],[-78.79,58.11],[-77.62,57.83],[-77.3,56.72],[-78.09,56.83],[-78.55,57.68],[-80.08,58.13],[-79.83,57.71],[-80.38,57.38],[-80.13,56.96],[-80.77,56.37],[-80.27,55.53],[-79.17,55.26],[-80.97,54.7],[-82.06,54.96],[-82.33,55.37],[-83.52,55.36],[-84.15,55.94],[-86.14,55.97],[-87.96,56.98],[-89.19,56.91],[-90.73,57.74],[-91.96,57.9],[-92.75,58.93],[-94.02,59.07],[-94.45,59.71],[-94.02,60.09],[-94.46,60.47],[-92.15,62.12],[-92.6,62.51],[-95.35,60.47],[-94.9,60.09],[-95.32,59.7],[-94.88,59.32],[-95.28,58.68],[-94.43,58.18],[-94.84,57.8],[-94.42,57.16],[-96.45,57.53],[-97.21,57.01],[-98.06,57.5],[-101.29,57.62],[-102.99,58.03],[-104.52,59.05],[-104.3,59.7],[-107.51,60.3],[-107.36,60.95],[-109.02,61.67],[-108.51,62.49],[-109.26,63.05],[-111.53,62.9],[-115.11,64.59],[-116.53,64.49],[-118.75,65.28],[-118.97,65.51],[-118.63,65.7],[-117.73,65.86],[-117.81,66.51],[-119.3,66.37],[-120.92,66.87],[-125.25,66.35],[-127.78,66.98],[-128.16,68.01],[-127.88,68.22],[-129.12,68.61],[-129.72,68.6],[-129.98,68.39],[-129.65,68.19],[-130.73,67.76],[-132.2,67.92],[-132.67,68.52],[-132.44,68.73],[-130.13,69.21],[-129.94,69.83],[-128.04,69.87],[-130.39,70.44],[-133.16,69.65],[-135.97,69.8],[-137.65,69.22],[-138.38,69.75],[-141.28,69.81],[-142.14,70.33],[-148.8,70.41],[-149.92,70.9],[-151.24,70.42],[-152.42,71.14],[-154.99,71.1],[-156.34,71.55],[-157.55,71.03],[-162.54,70.54],[-163.54,69.97],[-163.83,69.33],[-166.66,68.96],[-166.85,68.32],[-162.56,66.51],[-163.59,66.42],[-164.96,67.02],[-165.75,66.45],[-167.35,66.4],[-168.06,65.82],[-172.71,67.48],[-175.25,67.61],[-175.32,68.26],[-177.05,68.11],[-177.18,68.76],[-180.0,69.38],[-180.0,64.57],[-179.62,65.19],[-178.7,65.38],[-176.36,65.31],[-176.26,64.67],[-173.44,63.91],[-171.04,64.8],[-171.95,65.29],[-169.62,65.75],[-168.33,65.42],[-168.45,64.79],[-166.96,64.86],[-165.65,64.29],[-164.29,64.55],[-162.23,64.28],[-161.58,63.75],[-163.08,63.96],[-163.49,63.8],[-162.9,63.51],[-163.23,63.13],[-164.31,63.48],[-165.6,63.22],[-166.67,61.67],[-165.43,60.9],[-167.86,60.56],[-168.08,60.18],[-166.52,59.61],[-165.14,60.25],[-164.69,60.2],[-164.87,59.61],[-162.09,59.83],[-162.86,58.52],[-160.15,58.49],[-159.31,58.14],[-158.22,58.35],[-157.8,58.06],[-158.74,57.03],[-160.16,56.89],[-163.57,55.1],[-165.12,54.93],[-165.41,54.39],[-167.17,54.02],[-168.09,54.31],[-168.98,53.23],[-170.48,53.36],[-170.72,52.79],[-171.87,52.48],[-172.81,52.74],[-173.03,52.15],[-174.54,52.63],[-175.32,52.26],[-176.28,52.49],[-177.62,51.92],[-178.6,52.14],[-179.35,51.74],[-179.12,51.13],[-177.99,51.52],[-177.02,51.3],[-175.12,52.05],[-173.04,51.75],[-169.97,52.73],[-169.06,52.45],[-167.91,52.74],[-167.65,53.3],[-166.12,53.51],[-165.84,54.06],[-164.96,53.76],[-164.68,54.3],[-163.51,54.52],[-162.65,54.2],[-161.85,54.46],[-161.76,54.83],[-159.03,54.74],[-158.75,55.07],[-159.53,55.6],[-157.85,55.87],[-157.58,56.41],[-156.55,56.6],[-155.91,57.47],[-155.19,57.52],[-154.46,56.95],[-155.49,56.57],[-154.78,56.01],[-151.63,57.49],[-151.95,57.99],[-151.56,58.32],[-151.9,58.62],[-151.51,58.94],[-148.01,59.73],[-146.9,59.62],[-146.33,59.0],[-145.2,59.08],[-142.73,58.0],[-141.65,58.05],[-141.04,57.13],[-135.64,55.78],[-135.3,55.22],[-133.24,54.69],[-133.02,54.5],[-133.64,54.13],[-133.47,53.39],[-131.02,51.7],[-130.55,51.87],[-130.6,52.24],[-131.32,52.63],[-131.55,54.12],[-131.06,54.29],[-130.94,53.54],[-130.16,52.78],[-129.29,52.56],[-128.01,51.2],[-129.62,50.92],[-128.12,50.29],[-128.08,49.74],[-127.12,49.67],[-127.77,48.42],[-127.28,48.0],[-128.04,46.36],[-127.56,45.93],[-128.55,43.48],[-128.09,43.03],[-128.79,41.31],[-128.33,40.84],[-129.75,39.59],[-130.3,37.6],[-129.86,37.13],[-130.38,35.74],[-129.95,35.26],[-130.24,34.67],[-129.34,32.83],[-131.16,31.01],[-131.47,29.15],[-132.06,28.84],[-131.65,28.34],[-131.84,27.52],[-129.88,26.47],[-129.9,25.83],[-128.8,24.49],[-128.61,23.14],[-126.11,20.72],[-123.64,20.01],[-122.96,19.14],[-119.0,17.88],[-118.36,18.13],[-115.87,17.28],[-115.22,17.52],[-109.93,15.11],[-109.27,15.32],[-107.29,14.31],[-106.63,14.52],[-106.09,13.83],[-104.69,13.49],[-104.4,12.9],[-103.02,12.56],[-102.74,11.97],[-101.37,11.62],[-100.86,10.71],[-100.2,10.65],[-97.61,7.02],[-98.54,4.97],[-99.73,4.39],[-100.12,3.65],[-100.06,1.3],[-99.22,0.17],[-99.58,-1.55],[-98.47,-4.05],[-97.84,-4.14],[-97.61,-4.75],[-95.44,-5.88],[-94.58,-5.83],[-94.33,-6.45],[-92.77,-7.25],[-90.99,-7.4],[-88.0,-8.89],[-87.73,-9.52],[-87.05,-9.6],[-86.53,-10.6],[-85.13,-11.02],[-83.83,-13.13],[-83.14,-13.2],[-82.07,-14.92],[-81.38,-14.99],[-80.04,-17.05],[-79.34,-17.11],[-77.47,-19.57],[-77.3,-21.3],[-76.52,-22.07],[-76.68,-22.71],[-75.9,-23.47],[-75.79,-24.42],[-76.78,-26.09],[-76.4,-27.34],[-76.94,-28.92],[-76.48,-30.79],[-76.9,-31.29],[-76.52,-32.46],[-76.94,-32.95],[-76.55,-34.09],[-76.98,-34.57],[-76.67,-35.06],[-77.46,-35.63],[-77.63,-36.59],[-78.28,-36.81],[-78.66,-37.94],[-78.25,-38.47],[-78.58,-39.01],[-78.16,-39.54],[-78.29,-39.92],[-75.46,-42.09],[-75.49,-42.71],[-74.73,-43.29],[-75.43,-43.55],[-74.56,-44.36],[-75.79,-44.73],[-74.91,-45.54],[-75.64,-45.81],[-76.02,-47.01],[-74.98,-47.41],[-75.74,-47.7],[-76.28,-49.3],[-75.75,-49.82],[-76.02,-50.62],[-75.14,-51.19],[-75.96,-51.49],[-75.41,-51.99],[-75.55,-52.4],[-74.73,-52.73],[-74.76,-53.35],[-73.92,-53.67],[-73.94,-54.3],[-72.48,-54.46],[-71.46,-54.94],[-71.37,-55.51],[-70.31,-55.34],[-67.71,-56.3],[-66.64,-56.09],[-66.41,-55.51],[-63.33,-54.83],[-64.78,-54.32],[-65.78,-54.54],[-66.97,-54.19],[-66.96,-53.82],[-68.25,-52.92],[-67.99,-52.0],[-69.01,-50.94],[-68.74,-50.36],[-67.22,-49.92],[-67.06,-48.74],[-65.63,-48.3],[-65.48,-46.76],[-64.78,-47.02],[-62.08,-46.36],[-61.97,-45.85],[-60.32,-45.22],[-60.24,-44.72],[-59.51,-44.49],[-58.06,-41.96],[-57.01,-41.52],[-56.97,-41.06],[-50.99,-38.14],[-50.51,-37.28],[-49.89,-37.19],[-49.65,-36.64],[-49.03,-36.54],[-48.79,-35.99],[-47.95,-35.55],[-45.86,-35.3],[-45.43,-34.84],[-43.06,-34.86],[-42.63,-34.37],[-42.18,-34.81],[-40.39,-34.7],[-39.96,-34.2],[-39.06,-34.12],[-38.26,-32.63],[-38.54,-32.06],[-39.46,-31.69],[-39.52,-30.76],[-38.76,-29.27],[-37.5,-28.64],[-37.34,-28.03],[-36.53,-27.45],[-35.43,-27.4],[-35.06,-26.86],[-34.39,-26.87],[-33.58,-26.26],[-33.24,-24.2],[-31.93,-23.92],[-29.98,-22.33],[-28.69,-22.04],[-28.17,-22.39],[-27.11,-22.02],[-25.39,-22.46],[-24.76,-22.18],[-23.45,-22.7],[-21.6,-22.47],[-21.02,-22.81],[-20.39,-22.51],[-16.98,-23.18],[-15.09,-22.87],[-14.47,-23.19],[-13.4,-22.71],[-12.77,-23.03],[-11.7,-22.55],[-11.07,-22.86],[-10.45,-22.51],[-7.75,-22.87],[-7.26,-23.36],[-5.74,-23.33],[-4.97,-23.84],[-4.38,-23.47],[-3.72,-23.75],[-1.03,-22.51],[-0.38,-22.77],[0.44,-22.41],[0.93,-23.29],[0.35,-24.1],[0.46,-24.74],[1.92,-25.48],[2.04,-26.12],[3.53,-26.84],[3.66,-27.48],[4.48,-27.94],[5.17,-27.75],[11.84,-31.1],[12.03,-31.73],[13.14,-32.09],[13.34,-32.71],[14.46,-33.06],[15.15,-34.26],[17.3,-35.11],[17.93,-34.83],[19.87,-35.72],[22.74,-35.6],[23.37,-35.95],[25.4,-35.81],[27.19,-35.09],[28.82,-35.12],[29.33,-34.68],[30.08,-34.79],[30.98,-34.1],[32.6,-34.08],[34.34,-33.23],[35.09,-33.32],[35.57,-32.84],[36.32,-32.92],[37.82,-31.85],[37.84,-31.24],[39.68,-29.86],[40.4,-29.92],[41.56,-28.85],[45.74,-27.88],[46.82,-26.78],[47.49,-26.81],[47.89,-26.3],[55.31,-24.78],[56.92,-23.22],[57.36,-21.52],[57.1,-20.69],[57.79,-20.71],[58.16,-20.15],[57.84,-19.57],[56.98,-20.28],[56.73,-19.46],[55.99,-18.79],[53.78,-17.91],[53.56,-17.11],[53.93,-16.56],[53.65,-16.0],[54.01,-15.46],[53.11,-12.56],[53.46,-12.03],[52.91,-11.79],[52.21,-9.92],[51.46,-9.67],[49.92,-7.87],[50.27,-7.38],[50.03,-6.79],[50.29,-5.9],[49.22,-4.62],[48.09,-4.19],[47.57,-4.49],[46.27,-3.86],[45.74,-4.16],[45.19,-3.83],[42.85,-4.21],[40.31,-3.09],[42.22,-1.53],[42.22,-0.89],[43.68,0.16],[43.68,0.78],[44.89,1.76],[45.49,1.64],[47.53,3.31],[47.52,3.9],[48.58,4.61],[48.56,5.19],[49.05,5.44],[49.69,7.39],[50.43,7.83],[50.6,8.93],[51.12,9.33],[50.96,10.04],[51.59,10.43],[51.23,10.77],[51.36,12.22],[50.54,12.18],[49.44,11.38],[47.0,11.41],[44.34,10.46],[44.24,11.02],[43.58,11.34],[43.71,12.32],[44.62,12.38],[46.11,13.44],[46.98,13.1],[48.12,13.93],[48.65,13.76],[51.77,15.38],[52.27,15.2],[52.47,16.14],[53.47,16.71],[53.96,16.53],[56.65,17.3],[56.73,17.62],[56.06,17.79],[56.96,18.08],[57.12,18.73],[58.27,18.96],[57.9,19.41],[58.07,20.08],[58.77,19.9],[59.43,20.46],[59.05,20.92],[59.62,21.14],[60.23,20.61],[60.87,20.63],[61.54,19.89],[62.18,19.9],[65.03,17.26],[65.39,15.92],[65.91,15.85],[66.28,14.98],[66.81,14.9],[67.73,13.25],[67.56,12.67],[68.29,11.55],[68.12,10.98],[66.39,9.82],[65.74,8.25],[64.59,7.48],[64.08,6.31],[65.23,3.53],[65.79,3.36],[65.89,2.84],[69.12,0.79],[70.14,0.77],[70.47,0.31],[72.86,-0.2],[72.96,-0.97],[73.58,-0.94],[73.67,-0.3],[83.24,-1.09],[83.64,-1.6],[88.52,-1.87],[88.92,-2.39],[90.44,-2.39],[90.84,-2.91],[91.93,-2.87],[93.39,-3.84],[95.1,-4.21],[95.48,-4.96],[96.74,-5.54],[97.09,-6.52],[99.74,-8.23],[100.39,-8.15],[101.79,-9.04],[102.3,-10.32],[102.92,-10.47],[103.24,-11.38],[103.85,-11.52],[104.51,-13.08],[107.56,-14.87],[108.45,-17.33],[108.11,-18.42],[109.36,-20.71],[110.08,-21.06],[109.83,-21.53],[110.28,-22.33],[109.53,-23.13],[108.69,-23.13],[107.96,-23.98],[106.44,-24.49],[105.43,-26.5],[107.23,-28.7],[107.06,-29.34],[107.89,-31.17],[109.84,-32.69],[109.86,-33.22],[111.35,-34.14],[112.06,-34.05],[115.38,-35.68],[116.1,-35.56],[118.73,-37.03],[119.46,-36.89],[121.33,-37.53],[122.05,-37.38],[122.62,-37.73],[123.25,-37.47],[123.84,-37.81],[124.48,-37.54],[125.08,-37.89],[125.73,-37.61],[126.34,-37.95],[127.0,-37.66],[130.44,-38.88],[131.12,-38.57],[133.79,-39.44],[134.48,-39.1],[137.67,-39.6],[138.36,-39.24],[140.2,-39.75],[140.88,-39.37],[141.28,-39.96],[144.62,-40.53],[144.18,-41.1],[144.95,-42.76],[146.2,-43.83],[147.72,-43.9],[148.48,-43.23],[148.26,-42.82],[148.63,-42.49],[148.62,-41.08],[154.19,-41.47],[154.72,-42.02],[156.22,-41.98],[156.77,-42.51],[157.67,-42.42],[159.11,-43.35],[160.02,-43.24],[161.5,-44.13],[162.41,-44.01],[163.01,-44.5],[163.92,-44.36],[164.53,-44.84],[165.43,-44.69],[166.65,-45.14],[166.09,-46.15],[167.71,-47.65],[169.19,-46.71],[170.11,-46.76],[171.26,-46.18],[170.9,-45.6],[172.01,-45.02],[173.74,-44.84],[174.39,-45.26],[179.92,-44.48],[180.0,30.56],[177.95,30.44],[176.12,29.63],[174.48,29.7],[173.96,29.21],[173.2,29.35],[172.28,28.58],[171.52,28.71],[168.78,26.78],[168.17,24.71],[166.79,23.83],[166.79,23.18],[165.8,22.58],[165.8,21.93],[165.1,21.38],[165.37,20.14],[167.19,19.17],[167.86,18.44],[167.85,17.81],[168.43,17.48],[168.72,15.89],[168.3,15.42],[166.56,15.15],[165.99,15.47],[165.41,15.17],[164.83,15.48],[164.26,15.18],[162.44,15.88],[161.88,15.57],[159.73,15.98],[159.19,15.67],[156.29,16.5],[156.57,19.27],[158.05,20.45],[158.32,21.36],[157.69,21.66],[157.38,23.11],[156.74,23.4],[156.67,24.05],[155.3,25.26],[154.39,25.48],[154.17,26.53],[152.89,27.31],[152.59,28.13],[153.13,29.41],[152.61,30.4],[152.99,30.96],[151.49,32.12],[151.37,32.78],[151.7,33.1],[149.48,34.72],[148.99,36.16],[146.88,37.29],[146.34,38.71],[144.68,39.71],[144.3,40.71],[142.6,41.66],[143.41,41.97],[143.75,42.56],[144.87,42.97],[145.66,42.8],[146.31,43.49],[147.16,43.55],[146.99,44.17],[147.68,44.85],[148.55,44.9],[149.27,45.57],[150.42,45.47],[151.18,46.14],[150.78,46.91],[149.64,45.91],[147.82,45.57],[147.42,44.99],[146.22,44.58],[145.42,44.75],[144.8,44.3],[143.71,44.36],[142.69,44.87],[142.23,45.59],[142.86,46.28],[143.35,45.8],[143.97,46.25],[142.83,48.28],[143.8,49.08],[144.27,48.36],[144.85,48.35],[145.24,48.92],[144.53,49.99],[146.79,50.74],[148.0,51.97],[148.98,52.04],[150.55,53.32],[150.28,53.89],[150.69,54.21],[150.39,54.57],[150.81,54.89],[150.5,55.25],[150.93,55.57],[149.63,57.02],[148.11,57.53],[144.14,57.55],[143.38,57.08],[140.63,57.12],[139.93,56.62],[138.71,56.92],[139.85,57.09],[140.14,57.69],[141.32,57.85],[142.02,58.82],[143.65,59.33],[145.33,59.34],[146.16,58.86],[147.02,59.33],[147.82,58.84],[152.76,58.64],[153.71,59.07],[155.35,58.95],[155.97,59.5],[154.76,59.72],[154.84,59.95],[158.21,61.64],[159.48,61.39],[160.2,60.19],[161.65,60.39],[157.5,58.04],[156.27,58.03],[156.45,57.42],[155.51,57.03],[155.78,56.65],[155.29,56.34],[155.55,55.97],[155.0,55.43],[155.58,54.92],[155.05,54.39],[156.4,52.39],[155.85,51.85],[156.32,51.32],[155.23,51.08],[155.09,49.77],[154.11,49.75],[154.22,49.13],[153.26,49.11],[153.19,48.87],[154.07,48.66],[158.93,51.84],[158.86,52.46],[160.22,53.12],[160.05,53.5],[160.67,54.01],[160.49,54.39],[161.86,54.2],[162.79,54.54],[162.75,55.14],[161.76,55.4],[161.88,55.62],[163.54,55.85],[164.23,56.34],[163.78,56.89],[163.05,57.0],[163.76,57.51],[163.28,58.07],[162.51,58.17],[162.65,58.4],[163.87,58.35],[165.09,58.9],[165.09,59.52],[166.36,59.44],[168.53,60.46],[169.02,60.5],[169.42,59.91],[170.67,59.79],[170.8,60.41],[177.58,62.48],[179.64,62.07],[180.0,63.14]],[[43.77,66.92],[44.04,66.73],[43.75,66.53],[42.92,66.7],[43.77,66.92]]],[[[-6.84,62.49],[-7.76,61.97],[-7.1,61.3],[-6.33,61.22],[-6.6,61.76],[-5.67,62.26],[-6.37,62.74],[-6.84,62.49]]],[[[-79.61,-26.39],[-80.36,-26.1],[-80.06,-26.67],[-79.61,-26.39]]],[[[-12.16,62.81],[-11.6,63.1],[-12.34,63.17],[-12.16,62.81]]],[[[-58.77,-53.0],[-58.85,-52.63],[-57.94,-52.35],[-58.02,-51.99],[-57.37,-51.55],[-57.68,-51.03],[-58.56,-51.3],[-59.94,-50.88],[-61.39,-50.99],[-61.51,-51.54],[-62.04,-51.76],[-61.25,-52.08],[-61.2,-52.44],[-59.62,-52.69],[-59.32,-53.23],[-58.77,-53.0]]],[[[55.16,-4.16],[54.89,-4.46],[55.15,-4.95],[56.03,-4.63],[55.71,-3.58],[55.12,-3.6],[55.6,-4.01],[55.16,-4.16]]],[[[59.76,69.56],[61.83,69.82],[58.9,70.19],[58.53,70.02],[59.76,69.56]]],[[[180.0,52.34],[177.25,52.31],[176.52,51.88],[179.52,51.33],[180.0,51.53],[180.0,52.34]]],[[[-180.0,51.53],[-179.74,51.74],[-179.99,52.35],[-180.0,51.53]]],[[[-135.03,-22.84],[-135.26,-23.25],[-134.25,-23.67],[-134.27,-23.26],[-135.03,-22.84]]],[[[-43.36,60.79],[-43.58,60.38],[-44.71,60.07],[-46.57,60.93],[-49.53,61.19],[-48.04,60.41],[-46.75,60.51],[-45.37,59.71],[-43.54,59.49],[-42.77,60.5],[-43.36,60.79]]],[[[97.24,-12.39],[96.87,-11.7],[96.41,-12.12],[96.6,-12.46],[97.24,-12.39]]],[[[-22.08,19.73],[-22.29,19.36],[-21.6,19.28],[-20.97,20.41],[-21.67,20.49],[-22.08,19.73]]],[[[166.34,55.39],[166.21,55.77],[165.79,55.72],[165.09,55.24],[165.78,55.12],[166.2,54.57],[168.23,54.18],[168.79,54.43],[168.41,55.0],[166.34,55.39]]],[[[-156.82,55.86],[-156.51,56.19],[-157.2,56.13],[-156.82,55.86]]],[[[-14.59,64.16],[-12.72,65.27],[-13.27,65.78],[-14.11,65.86],[-14.59,66.59],[-21.13,66.26],[-22.68,65.49],[-23.97,65.86],[-22.58,65.95],[-21.98,66.52],[-23.36,66.67],[-24.89,65.87],[-24.08,65.16],[-24.6,64.58],[-22.46,64.43],[-23.0,63.86],[-21.33,63.82],[-20.63,63.34],[-18.23,63.24],[-16.48,63.6],[-15.84,64.14],[-14.59,64.16]],[[-17.16,65.96],[-15.7,66.21],[-14.82,64.52],[-19.31,63.63],[-19.61,63.99],[-19.09,64.32],[-22.36,64.89],[-21.79,65.46],[-20.36,65.77],[-17.74,65.64],[-17.16,65.96]]],[[[173.92,52.99],[172.62,53.32],[172.06,53.08],[172.4,52.49],[173.68,52.16],[174.8,52.63],[173.92,52.99]]],[[[53.26,12.13],[54.63,12.18],[54.71,12.89],[53.65,13.04],[52.86,12.11],[53.26,12.13]]],[[[170.49,68.27],[169.54,68.01],[170.98,67.64],[172.9,68.14],[172.45,68.78],[170.49,68.27]]],[[[169.26,68.88],[171.36,68.96],[171.56,69.63],[171.15,69.83],[171.46,70.06],[170.29,70.24],[169.99,70.01],[170.42,69.81],[170.25,69.14],[168.24,69.71],[168.13,69.04],[169.26,68.88]]],[[[-9.66,-40.03],[-10.2,-40.2],[-10.07,-40.43],[-9.74,-40.47],[-9.66,-40.03]]],[[[166.47,-47.95],[166.17,-48.33],[166.49,-48.43],[166.8,-48.3],[166.47,-47.95]]],[[[-140.85,-7.68],[-140.93,-8.06],[-140.39,-8.31],[-140.31,-7.93],[-140.85,-7.68]]],[[[-24.12,16.73],[-25.08,17.36],[-25.73,17.19],[-25.45,16.63],[-24.53,16.23],[-23.87,16.4],[-24.12,16.73]]],[[[-114.33,68.21],[-115.36,68.07],[-114.34,67.56],[-112.29,67.83],[-113.28,68.35],[-112.85,68.53],[-113.04,68.77],[-114.11,68.63],[-113.91,68.4],[-114.33,68.21]]],[[[-23.26,17.03],[-23.19,16.1],[-22.71,15.67],[-22.32,16.4],[-22.81,17.06],[-23.26,17.03]]],[[[178.29,-49.96],[179.2,-49.93],[179.41,-49.55],[178.5,-49.58],[178.29,-49.96]]],[[[152.62,46.97],[153.36,47.39],[153.24,48.01],[153.65,48.34],[153.04,48.4],[151.43,47.09],[152.22,46.65],[152.62,46.97]]],[[[-139.39,-9.94],[-139.39,-10.32],[-138.82,-10.18],[-138.82,-9.42],[-139.39,-9.56],[-139.39,-9.94]]],[[[78.07,-38.12],[77.87,-37.5],[77.33,-37.47],[77.53,-38.09],[78.07,-38.12]]],[[[52.54,11.91],[52.58,12.28],[52.09,12.43],[52.06,12.07],[52.54,11.91]]],[[[63.23,-19.44],[63.12,-19.94],[63.83,-19.93],[63.23,-19.44]]],[[[-36.45,-54.09],[-38.21,-53.94],[-38.61,-54.27],[-36.14,-55.12],[-35.39,-54.44],[-36.45,-54.09]]],[[[-69.93,59.39],[-69.24,59.67],[-69.69,60.31],[-70.39,60.03],[-69.93,59.39]]],[[[5.58,-1.07],[5.38,-1.49],[5.92,-1.61],[5.58,-1.07]]],[[[53.49,-5.28],[53.14,-5.14],[53.17,-5.76],[53.89,-5.99],[53.49,-5.28]]],[[[52.35,-46.13],[51.56,-46.59],[52.49,-46.5],[52.35,-46.13]]],[[[-122.49,70.06],[-123.51,69.87],[-122.56,69.65],[-122.2,69.85],[-122.49,70.06]]],[[[-174.13,60.05],[-173.5,59.81],[-171.64,60.29],[-173.53,61.02],[-173.85,60.84],[-173.05,60.39],[-174.13,60.05]]],[[[-172.72,63.65],[-171.85,63.18],[-170.45,63.28],[-170.66,62.88],[-170.0,62.62],[-168.76,62.92],[-168.53,63.32],[-170.55,64.13],[-172.72,63.65]]],[[[-12.88,-37.14],[-12.98,-37.58],[-12.66,-37.62],[-11.92,-37.27],[-12.88,-37.14]]],[[[165.28,-50.86],[166.29,-51.17],[166.9,-50.2],[165.28,-50.86]]],[[[-65.55,59.0],[-65.34,59.23],[-65.63,59.44],[-66.13,59.42],[-68.39,58.38],[-67.61,58.21],[-65.55,59.0]]],[[[37.15,-47.02],[38.26,-47.0],[37.97,-46.58],[37.15,-47.02]]],[[[71.77,-6.5],[71.45,-5.76],[70.96,-6.16],[71.28,-6.91],[71.77,-6.5]]],[[[-42.68,62.04],[-41.83,62.15],[-41.7,62.8],[-42.57,62.69],[-42.68,62.04]]],[[[-154.76,-4.35],[-154.71,-3.94],[-155.29,-3.66],[-155.34,-4.06],[-154.76,-4.35]]],[[[180.0,71.66],[179.05,71.45],[179.41,71.23],[178.99,71.02],[180.0,70.79],[180.0,71.66]]],[[[-180.0,70.79],[-179.47,71.0],[-179.81,71.22],[-179.37,71.43],[-179.72,71.66],[-180.0,71.66],[-180.0,70.79]]],[[[-24.03,15.57],[-24.22,15.21],[-25.09,15.14],[-24.82,14.59],[-23.09,14.72],[-23.15,15.64],[-24.03,15.57]]],[[[-117.91,68.86],[-117.51,69.05],[-117.75,69.28],[-118.65,69.53],[-119.69,69.36],[-117.91,68.86]]],[[[176.0,52.67],[176.06,52.27],[176.62,52.49],[176.0,52.67]]],[[[-140.38,-8.89],[-140.54,-9.44],[-140.19,-9.67],[-139.5,-9.35],[-139.31,-8.8],[-140.31,-8.51],[-140.38,-8.89]]],[[[72.53,-7.3],[72.13,-7.02],[72.46,-7.77],[72.53,-7.3]]],[[[-127.06,69.67],[-126.11,69.88],[-127.09,70.09],[-127.4,69.88],[-127.06,69.67]]],[[[-6.08,58.91],[-5.65,59.18],[-6.38,59.26],[-6.08,58.91]]],[[[47.62,69.28],[47.81,68.72],[49.3,68.53],[50.65,68.91],[50.4,69.1],[50.78,69.29],[49.62,69.67],[47.62,69.28]]],[[[-80.75,-33.97],[-80.51,-33.85],[-80.79,-33.54],[-81.0,-33.89],[-80.75,-33.97]]],[[[70.21,-49.6],[70.64,-49.29],[69.06,-48.62],[68.34,-49.6],[69.78,-49.91],[70.21,-49.6]]],[[[-157.6,2.13],[-157.65,1.7],[-157.05,1.41],[-157.0,1.83],[-157.6,2.13]]],[[[169.09,-52.86],[169.39,-52.49],[168.72,-52.54],[169.09,-52.86]]],[[[72.58,-5.32],[71.55,-5.07],[71.29,-5.39],[72.32,-5.63],[72.58,-5.32]]],[[[67.91,69.69],[67.46,69.53],[67.66,69.31],[68.74,69.39],[67.91,69.69]]],[[[-78.85,-33.37],[-79.05,-33.71],[-78.8,-33.8],[-78.57,-33.67],[-78.85,-33.37]]],[[[-178.26,71.19],[-177.03,71.37],[-178.13,71.62],[-178.59,71.41],[-178.26,71.19]]],[[[-170.75,57.64],[-171.07,56.89],[-169.66,57.16],[-170.75,57.64]]],[[[-63.9,59.74],[-64.13,59.51],[-63.85,59.29],[-63.13,59.54],[-63.9,59.74]]],[[[-64.19,59.95],[-63.96,60.18],[-64.25,60.39],[-64.76,60.37],[-65.71,59.89],[-64.19,59.95]]],[[[-80.89,59.41],[-80.99,59.15],[-80.13,59.06],[-80.3,59.74],[-79.7,60.07],[-80.58,60.16],[-81.17,59.83],[-80.89,59.41]]],[[[-80.91,58.23],[-80.34,58.56],[-81.18,58.65],[-80.91,58.23]]],[[[-169.84,56.78],[-170.01,56.41],[-169.32,56.54],[-169.84,56.78]]],[[[-116.64,68.79],[-115.59,68.95],[-116.46,69.21],[-116.87,69.02],[-116.64,68.79]]],[[[-8.13,57.95],[-8.82,58.23],[-9.27,57.73],[-8.13,57.95]]]]}}]}