{"type":"FeatureCollection","features":[{"type":"Feature","properties":{},"geometry":{"type":"MultiPolygon","coordinates":[[[[73.43,71.34],[73.57,71.11],[75.05,70.69],[75.17,70.45],[74.63,70.31],[74.75,70.08],[74.23,69.94],[74.35,69.71],[73.84,69.57],[73.97,69.34],[76.23,69.42],[77.54,68.98],[78.67,69.0],[78.74,68.77],[78.21,68.64],[78.28,68.41],[78.86,68.3],[78.93,68.07],[80.11,67.61],[82.24,67.61],[83.28,68.06],[83.83,67.94],[83.84,67.7],[84.91,67.21],[86.0,67.65],[87.08,67.61],[87.6,67.47],[87.56,67.23],[89.13,67.04],[89.08,66.81],[88.54,66.72],[88.49,66.48],[88.98,66.34],[88.93,66.11],[90.42,65.9],[90.36,65.67],[91.21,65.14],[92.33,65.52],[92.41,65.75],[90.95,65.98],[91.02,66.21],[92.58,66.22],[93.04,66.06],[92.95,65.83],[93.41,65.67],[94.6,66.04],[94.71,66.27],[96.29,66.24],[96.41,66.47],[96.99,66.53],[97.43,66.36],[98.01,66.42],[98.16,66.65],[97.71,66.82],[97.86,67.05],[99.5,66.99],[99.66,67.22],[99.22,67.4],[99.38,67.63],[98.93,67.81],[99.09,68.04],[99.72,68.09],[99.9,68.33],[100.54,68.38],[100.73,68.61],[100.26,68.79],[100.45,69.03],[99.97,69.21],[100.16,69.44],[100.84,69.5],[101.04,69.73],[100.55,69.91],[100.75,70.15],[100.25,70.33],[100.45,70.57],[99.94,70.75],[98.32,70.4],[95.29,70.78],[95.43,71.02],[97.03,71.4],[97.2,71.64],[96.63,71.81],[96.8,72.05],[96.2,72.23],[96.37,72.47],[97.15,72.54],[97.34,72.78],[95.3,73.05],[95.46,73.29],[96.27,73.37],[96.45,73.61],[95.8,73.78],[95.98,74.02],[96.83,74.09],[97.03,74.34],[96.35,74.51],[96.55,74.75],[95.84,74.93],[94.95,74.85],[94.23,75.01],[94.39,75.26],[93.64,75.42],[93.8,75.67],[93.03,75.83],[92.1,75.74],[91.97,75.5],[89.39,75.46],[89.3,75.21],[88.44,75.11],[88.38,74.86],[86.69,74.4],[86.65,74.16],[87.4,74.02],[87.35,73.77],[84.35,73.82],[83.6,73.7],[83.62,73.46],[81.44,73.34],[81.49,73.1],[80.8,72.97],[80.85,72.73],[81.57,72.61],[81.61,72.37],[83.68,72.24],[83.69,72.0],[84.36,71.87],[84.36,71.63],[83.71,71.51],[83.72,71.27],[84.36,71.14],[84.36,70.9],[83.74,70.79],[83.74,70.55],[83.13,70.44],[81.83,70.92],[81.8,71.16],[82.43,71.28],[82.4,71.52],[80.42,71.64],[80.36,71.88],[79.67,71.99],[79.6,72.23],[78.89,72.34],[78.26,72.21],[78.34,71.97],[76.42,71.81],[76.53,71.57],[78.5,71.49],[78.58,71.26],[79.25,71.15],[79.32,70.91],[78.73,70.78],[77.32,71.23],[74.81,71.16],[74.68,71.39],[75.25,71.53],[75.13,71.77],[74.42,71.86],[73.84,71.72],[73.98,71.48],[73.43,71.34]]],[[[-180.0,64.57],[-179.69,64.77],[-179.95,64.98],[-179.62,65.19],[-179.03,65.18],[-178.7,65.38],[-178.11,65.37],[-177.87,65.15],[-176.36,65.31],[-176.13,65.09],[-176.49,64.89],[-176.26,64.67],[-175.7,64.65],[-175.49,64.43],[-173.44,63.91],[-172.17,64.25],[-172.35,64.47],[-171.98,64.65],[-172.16,64.88],[-171.77,65.06],[-171.95,65.29],[-169.62,65.75],[-168.33,65.42],[-168.19,65.19],[-168.59,65.02],[-168.45,64.79],[-166.96,64.86],[-166.83,64.63],[-165.65,64.29],[-164.29,64.55],[-163.77,64.49],[-163.68,64.26],[-162.23,64.28],[-162.15,64.05],[-161.65,63.98],[-161.58,63.75],[-162.0,63.6],[-163.08,63.96],[-163.49,63.8],[-163.4,63.58],[-162.9,63.51],[-162.82,63.29],[-163.23,63.13],[-164.31,63.48],[-165.6,63.22],[-165.5,63.0],[-165.88,62.83],[-165.77,62.61],[-166.15,62.44],[-166.04,62.22],[-166.42,62.06],[-166.31,61.84],[-166.67,61.67],[-166.56,61.45],[-165.52,61.12],[-165.43,60.9],[-167.86,60.56],[-168.2,60.4],[-168.08,60.18],[-166.52,59.61],[-165.39,59.88],[-165.49,60.09],[-165.14,60.25],[-164.69,60.2],[-164.61,59.98],[-164.96,59.82],[-164.87,59.61],[-162.09,59.83],[-162.02,59.61],[-162.38,59.46],[-162.31,59.25],[-162.93,58.73],[-162.86,58.52],[-162.11,58.61],[-161.24,58.27],[-160.15,58.49],[-159.31,58.14],[-158.22,58.35],[-157.83,58.27],[-157.8,58.06],[-158.47,57.58],[-158.44,57.38],[-158.78,57.24],[-158.74,57.03],[-160.16,56.89],[-160.49,56.75],[-160.44,56.55],[-160.76,56.4],[-160.72,56.2],[-162.1,56.03],[-162.41,55.89],[-162.35,55.69],[-163.33,55.45],[-163.27,55.25],[-163.57,55.1],[-165.12,54.93],[-165.41,54.39],[-168.72,53.79],[-168.98,53.23],[-170.51,52.97],[-171.87,52.48],[-172.81,52.74],[-173.01,52.55],[-172.83,52.34],[-173.03,52.15],[-174.54,52.63],[-175.32,52.26],[-176.28,52.49],[-177.62,51.92],[-178.6,52.14],[-179.35,51.74],[-179.14,51.53],[-179.32,51.33],[-179.12,51.13],[-178.73,51.13],[-177.42,51.72],[-176.45,51.49],[-175.12,52.05],[-174.74,52.04],[-174.55,51.83],[-173.6,51.99],[-173.42,51.78],[-173.04,51.75],[-172.84,51.94],[-172.47,51.92],[-169.97,52.73],[-169.06,52.45],[-168.28,52.77],[-168.44,52.98],[-168.23,53.16],[-166.12,53.51],[-165.84,54.06],[-164.96,53.76],[-164.68,54.3],[-163.51,54.52],[-162.65,54.2],[-161.85,54.46],[-161.98,54.67],[-161.76,54.83],[-160.43,54.99],[-160.08,54.93],[-160.04,54.73],[-159.03,54.74],[-158.72,54.87],[-158.75,55.07],[-159.49,55.4],[-159.53,55.6],[-157.85,55.87],[-157.58,56.41],[-156.55,56.6],[-156.57,56.8],[-155.89,57.27],[-155.91,57.47],[-155.19,57.52],[-155.18,57.31],[-154.46,56.95],[-154.79,56.42],[-153.76,56.38],[-153.06,56.82],[-153.06,57.02],[-152.0,57.17],[-151.99,57.38],[-151.63,57.49],[-151.61,57.7],[-151.96,57.79],[-151.95,57.99],[-151.58,58.11],[-151.56,58.32],[-151.92,58.41],[-151.9,58.62],[-151.52,58.73],[-151.51,58.94],[-150.38,59.08],[-150.35,59.29],[-149.96,59.4],[-149.2,59.41],[-149.17,59.62],[-148.77,59.73],[-147.65,59.63],[-147.25,59.73],[-147.2,59.94],[-146.03,60.03],[-145.97,60.24],[-145.55,60.34],[-145.21,60.23],[-145.27,60.02],[-144.66,59.59],[-143.77,59.98],[-141.54,59.89],[-141.01,59.45],[-139.88,59.49],[-139.58,59.37],[-139.68,59.17],[-139.41,59.0],[-138.39,58.87],[-137.97,58.32],[-136.96,58.18],[-136.71,58.0],[-136.83,57.81],[-136.21,57.64],[-135.96,57.46],[-136.09,57.27],[-135.24,56.92],[-135.37,56.72],[-135.13,56.54],[-134.26,56.75],[-133.94,56.18],[-132.98,56.0],[-132.84,56.19],[-132.47,56.2],[-130.71,55.61],[-130.5,55.42],[-130.65,55.23],[-129.88,54.83],[-130.04,54.65],[-129.79,54.08],[-128.88,53.85],[-128.69,53.66],[-128.85,53.48],[-128.12,53.07],[-128.28,52.89],[-128.1,52.69],[-127.05,52.25],[-127.21,52.08],[-127.03,51.88],[-127.2,51.7],[-127.01,51.13],[-124.69,50.2],[-124.53,50.0],[-124.7,49.83],[-124.61,49.63],[-124.29,49.6],[-124.2,49.4],[-124.44,49.24],[-124.36,49.05],[-123.63,48.78],[-123.54,48.58],[-123.79,48.41],[-124.11,48.45],[-125.01,49.11],[-125.57,48.98],[-125.48,48.78],[-125.16,48.75],[-125.08,48.55],[-125.31,48.39],[-125.23,48.19],[-124.91,48.16],[-124.82,47.96],[-125.06,47.79],[-124.57,47.35],[-124.81,47.19],[-124.72,46.99],[-124.41,46.95],[-124.33,46.75],[-124.56,46.58],[-124.08,46.13],[-124.47,45.59],[-124.39,45.38],[-124.08,45.34],[-123.53,46.26],[-124.01,46.71],[-123.77,46.87],[-123.86,47.08],[-124.17,47.12],[-124.25,47.32],[-124.02,47.48],[-124.1,47.69],[-124.42,47.72],[-124.5,47.92],[-123.38,48.18],[-123.46,47.61],[-122.57,47.69],[-122.5,47.49],[-122.17,47.45],[-121.93,47.61],[-122.01,47.81],[-122.73,48.1],[-122.65,48.66],[-122.4,48.82],[-122.48,49.02],[-123.22,49.3],[-123.3,49.5],[-123.06,49.66],[-122.32,49.38],[-121.73,49.5],[-121.66,49.3],[-122.08,48.78],[-122.0,48.58],[-121.67,48.54],[-121.59,48.34],[-121.84,48.18],[-121.36,47.73],[-121.61,47.57],[-121.53,47.36],[-122.11,46.46],[-121.64,45.99],[-121.08,46.11],[-121.15,46.32],[-120.56,47.22],[-120.64,47.43],[-120.39,47.59],[-120.46,47.79],[-120.21,47.95],[-120.29,48.16],[-120.03,48.31],[-120.11,48.52],[-119.85,48.68],[-119.93,48.88],[-119.34,48.99],[-119.45,48.42],[-118.54,48.48],[-118.28,48.63],[-118.35,48.83],[-118.68,48.89],[-118.75,49.09],[-118.55,49.25],[-117.35,48.67],[-116.76,48.77],[-116.45,49.3],[-116.12,49.25],[-116.0,49.03],[-116.21,48.87],[-116.1,48.65],[-115.76,48.59],[-115.44,49.13],[-115.56,49.35],[-115.0,49.44],[-114.99,48.85],[-114.22,48.5],[-113.66,48.59],[-113.55,48.37],[-113.99,47.86],[-113.93,47.65],[-113.6,47.58],[-113.15,47.08],[-112.56,47.16],[-113.0,47.65],[-112.56,48.16],[-113.09,48.68],[-112.86,48.83],[-112.96,49.05],[-113.87,49.03],[-113.98,49.25],[-113.62,49.79],[-114.19,50.3],[-113.95,50.46],[-114.06,50.68],[-114.42,50.75],[-114.53,50.97],[-114.17,51.52],[-114.29,51.74],[-115.62,52.37],[-115.75,52.6],[-115.51,52.76],[-115.63,52.99],[-116.51,53.32],[-116.65,53.55],[-116.41,53.72],[-116.54,53.94],[-117.45,54.27],[-117.59,54.49],[-117.98,54.54],[-118.21,54.37],[-119.13,54.68],[-119.36,54.5],[-119.75,54.54],[-120.45,55.02],[-120.22,55.2],[-120.38,55.42],[-120.78,55.46],[-120.94,55.67],[-121.95,55.56],[-122.12,55.78],[-121.9,55.96],[-122.08,56.17],[-122.47,56.21],[-122.65,56.42],[-121.8,56.76],[-121.98,56.97],[-121.75,57.16],[-121.34,57.12],[-121.11,57.31],[-120.11,57.02],[-119.37,56.54],[-118.96,56.49],[-118.72,56.67],[-118.88,56.9],[-118.63,57.08],[-117.08,56.49],[-116.82,56.67],[-116.97,56.89],[-116.7,57.07],[-115.73,56.74],[-115.03,56.23],[-113.94,56.28],[-113.66,56.45],[-112.71,56.1],[-112.43,56.26],[-112.02,56.2],[-111.9,55.96],[-112.19,55.8],[-112.07,55.56],[-110.97,55.59],[-110.86,55.35],[-109.96,54.97],[-106.84,55.45],[-105.96,55.03],[-105.64,55.18],[-105.24,55.09],[-104.7,54.51],[-103.6,54.47],[-103.27,54.62],[-102.44,54.17],[-102.11,54.32],[-101.72,54.21],[-101.67,53.97],[-101.29,53.86],[-100.96,54.0],[-100.16,53.54],[-99.82,53.68],[-99.45,53.57],[-99.01,52.96],[-97.93,52.87],[-97.52,52.25],[-96.47,52.14],[-96.45,51.89],[-95.74,51.4],[-95.73,51.16],[-94.7,51.03],[-94.69,50.78],[-94.01,50.28],[-94.01,50.03],[-93.01,49.89],[-92.7,49.27],[-92.38,49.13],[-92.04,49.25],[-91.41,48.73],[-90.43,48.81],[-90.11,48.67],[-90.13,48.42],[-89.54,47.9],[-88.56,47.96],[-87.99,47.43],[-86.39,47.42],[-84.83,47.14],[-84.49,47.23],[-84.67,47.87],[-84.33,47.95],[-84.27,48.2],[-83.27,48.21],[-82.98,48.05],[-82.21,48.46],[-81.28,48.21],[-80.48,48.61],[-80.2,48.44],[-79.84,48.51],[-79.75,48.75],[-78.93,49.14],[-78.84,49.38],[-77.82,49.35],[-77.72,49.59],[-76.87,49.96],[-76.76,50.2],[-75.39,50.87],[-75.27,51.11],[-74.88,51.17],[-74.76,51.41],[-74.36,51.47],[-74.24,51.71],[-73.84,51.77],[-73.71,52.01],[-73.31,52.06],[-73.18,52.3],[-72.77,52.35],[-72.64,52.59],[-71.54,52.5],[-71.4,52.74],[-69.85,53.35],[-69.69,53.58],[-68.09,54.17],[-67.92,54.4],[-67.49,54.44],[-67.31,54.67],[-66.87,54.7],[-66.7,54.94],[-66.26,54.96],[-66.07,55.2],[-65.63,55.22],[-65.44,55.45],[-64.99,55.48],[-64.8,55.71],[-63.04,56.22],[-62.84,56.45],[-62.38,56.46],[-62.16,56.69],[-61.01,56.5],[-60.79,56.72],[-61.73,57.14],[-61.51,57.37],[-61.75,57.58],[-61.53,57.81],[-61.78,58.02],[-62.99,58.21],[-63.26,58.43],[-63.04,58.65],[-63.3,58.87],[-63.08,59.1],[-64.13,59.51],[-63.9,59.74],[-64.19,59.95],[-63.96,60.18],[-64.25,60.39],[-65.49,60.12],[-65.71,59.89],[-65.42,59.68],[-65.63,59.44],[-65.34,59.23],[-65.55,59.0],[-67.42,58.45],[-69.3,58.99],[-69.12,59.23],[-69.43,59.43],[-69.24,59.67],[-69.56,59.87],[-69.37,60.11],[-69.69,60.31],[-69.51,60.55],[-69.83,60.75],[-69.64,60.99],[-70.84,61.35],[-71.37,61.31],[-71.72,61.5],[-71.54,61.74],[-72.79,62.09],[-72.61,62.33],[-72.98,62.52],[-74.45,62.6],[-74.61,62.36],[-75.15,62.3],[-77.41,62.72],[-78.62,62.33],[-79.02,62.51],[-80.5,62.52],[-80.61,62.27],[-80.2,62.1],[-80.31,61.85],[-79.91,61.68],[-79.39,61.75],[-79.27,62.0],[-78.74,62.08],[-78.35,61.9],[-78.48,61.65],[-78.08,61.47],[-78.21,61.22],[-78.73,61.15],[-78.85,60.9],[-77.58,60.61],[-77.71,60.36],[-78.21,60.29],[-78.33,60.04],[-77.96,59.86],[-78.09,59.61],[-78.58,59.54],[-78.69,59.29],[-79.18,59.22],[-79.29,58.97],[-78.92,58.79],[-79.04,58.54],[-78.68,58.36],[-78.21,58.43],[-77.85,58.26],[-77.97,58.01],[-76.82,57.71],[-76.94,57.46],[-77.4,57.4],[-77.52,57.15],[-77.18,56.97],[-77.87,56.4],[-77.54,56.22],[-77.09,56.29],[-76.76,56.11],[-76.88,55.86],[-77.32,55.79],[-77.98,55.23],[-78.42,55.16],[-78.74,55.33],[-79.7,54.94],[-79.8,54.69],[-79.47,54.51],[-79.57,54.27],[-79.25,54.09],[-79.34,53.84],[-80.26,53.44],[-80.35,53.2],[-79.32,52.93],[-79.41,52.68],[-79.81,52.61],[-79.9,52.36],[-79.38,51.77],[-79.47,51.53],[-79.86,51.45],[-80.39,52.04],[-80.78,51.96],[-81.09,52.13],[-80.52,52.7],[-80.84,52.87],[-80.76,53.12],[-81.8,53.37],[-81.72,53.62],[-82.05,53.79],[-81.97,54.04],[-82.3,54.2],[-81.73,54.79],[-82.06,54.96],[-81.98,55.21],[-83.1,55.45],[-85.06,55.5],[-85.72,56.06],[-86.93,56.02],[-87.63,56.58],[-87.58,56.83],[-87.96,56.98],[-89.19,56.91],[-89.94,57.46],[-90.36,57.34],[-92.39,57.52],[-92.38,57.78],[-91.96,57.9],[-91.94,58.15],[-92.76,58.68],[-92.75,58.93],[-94.02,59.07],[-94.02,59.32],[-94.45,59.45],[-94.45,59.71],[-94.02,59.83],[-94.02,60.09],[-94.46,60.22],[-94.46,60.47],[-93.57,60.98],[-93.57,61.24],[-93.11,61.36],[-93.1,61.62],[-91.71,61.73],[-91.69,61.98],[-92.15,62.12],[-92.13,62.37],[-90.69,62.48],[-90.67,62.73],[-89.63,63.22],[-89.59,63.48],[-89.08,63.59],[-89.03,63.84],[-88.51,63.95],[-88.04,63.81],[-88.09,63.55],[-87.62,63.41],[-86.11,63.46],[-85.66,63.31],[-85.73,63.05],[-85.28,62.9],[-84.15,63.34],[-84.06,63.6],[-83.52,63.69],[-81.12,63.37],[-79.9,63.78],[-79.77,64.03],[-80.21,64.21],[-80.77,64.13],[-81.21,64.29],[-81.1,64.55],[-81.55,64.71],[-81.43,64.97],[-83.98,65.28],[-83.89,65.53],[-82.62,65.97],[-82.51,66.22],[-81.18,66.64],[-81.05,66.89],[-81.55,67.05],[-81.42,67.3],[-80.79,67.39],[-80.66,67.64],[-81.16,67.8],[-81.03,68.05],[-81.54,68.22],[-81.41,68.47],[-80.75,68.55],[-80.61,68.8],[-81.14,68.96],[-81.0,69.21],[-81.54,69.37],[-81.4,69.62],[-79.47,69.61],[-78.94,69.44],[-79.1,69.2],[-79.79,69.12],[-79.94,68.87],[-79.42,68.7],[-79.57,68.46],[-79.07,68.29],[-78.4,68.36],[-78.24,68.6],[-78.75,68.78],[-78.58,69.02],[-77.9,69.09],[-77.72,69.34],[-77.02,69.41],[-76.51,69.23],[-76.7,68.98],[-75.03,68.68],[-75.23,68.44],[-75.91,68.38],[-76.39,68.56],[-77.91,68.18],[-78.07,67.94],[-77.59,67.76],[-77.75,67.52],[-77.28,67.34],[-77.44,67.09],[-76.98,66.91],[-75.52,67.28],[-75.34,67.53],[-74.69,67.59],[-74.49,67.83],[-73.83,67.88],[-72.27,67.55],[-72.49,67.31],[-73.14,67.26],[-73.34,67.02],[-72.91,66.83],[-73.11,66.59],[-74.56,66.24],[-74.74,66.0],[-74.31,65.81],[-74.5,65.56],[-76.13,65.63],[-76.57,65.81],[-77.18,65.75],[-77.33,65.5],[-78.66,65.11],[-78.8,64.86],[-78.37,64.68],[-78.51,64.43],[-78.08,64.26],[-78.22,64.01],[-77.8,63.83],[-77.94,63.58],[-78.5,63.51],[-78.63,63.26],[-78.22,63.08],[-76.97,63.47],[-76.57,63.29],[-76.01,63.35],[-75.86,63.6],[-77.24,63.9],[-77.09,64.15],[-75.53,64.09],[-75.37,64.34],[-74.79,64.4],[-74.38,64.21],[-73.81,64.26],[-73.41,64.07],[-73.59,63.83],[-73.2,63.64],[-72.64,63.69],[-72.25,63.5],[-72.44,63.25],[-71.14,62.91],[-71.34,62.67],[-70.98,62.47],[-69.68,62.79],[-69.33,62.59],[-69.53,62.35],[-69.19,62.15],[-68.64,62.19],[-68.31,61.98],[-67.01,62.28],[-66.68,62.07],[-66.14,62.1],[-65.91,62.33],[-66.23,62.54],[-66.79,62.51],[-67.12,62.72],[-66.89,62.96],[-66.33,62.98],[-66.01,62.77],[-64.65,63.05],[-64.41,63.28],[-64.73,63.49],[-64.48,63.72],[-64.8,63.93],[-64.55,64.16],[-64.88,64.37],[-64.63,64.6],[-64.96,64.81],[-66.51,64.98],[-66.86,65.19],[-66.62,65.42],[-66.98,65.63],[-66.73,65.86],[-67.1,66.07],[-66.85,66.3],[-66.22,66.32],[-65.85,66.12],[-66.11,65.88],[-65.75,65.68],[-65.14,65.7],[-64.79,65.49],[-65.05,65.26],[-64.71,65.04],[-62.34,65.54],[-62.06,65.76],[-62.39,65.98],[-63.97,66.17],[-64.33,66.38],[-65.96,66.55],[-66.33,66.76],[-66.06,66.99],[-66.45,67.2],[-67.1,67.18],[-67.49,67.38],[-66.29,67.87],[-64.57,67.7],[-64.28,67.92],[-64.66,68.13],[-67.5,68.48],[-67.92,68.69],[-67.65,68.92],[-68.08,69.12],[-66.8,69.61],[-67.23,69.81],[-66.94,70.04],[-68.58,70.41],[-68.29,70.64],[-68.76,70.84],[-70.77,70.97],[-71.27,71.16],[-71.0,71.39],[-71.51,71.58],[-73.61,71.68],[-74.16,71.86],[-73.91,72.1],[-74.47,72.28],[-75.28,72.23],[-75.85,72.4],[-75.62,72.64],[-76.21,72.82],[-75.98,73.05],[-76.59,73.23],[-76.36,73.47],[-76.98,73.64],[-87.76,74.13],[-89.46,73.67],[-90.19,73.8],[-90.14,74.05],[-90.9,74.17],[-91.7,74.06],[-92.47,74.18],[-92.45,74.42],[-91.64,74.54],[-83.63,74.38],[-82.92,74.23],[-80.99,74.63],[-80.29,74.47],[-79.4,74.55],[-79.19,74.79],[-79.89,74.95],[-79.68,75.18],[-78.75,75.26],[-78.52,75.49],[-80.95,75.74],[-80.75,75.98],[-78.54,76.35],[-78.29,76.59],[-77.26,76.65],[-76.99,76.88],[-79.63,77.14],[-79.39,77.37],[-80.22,77.53],[-82.17,77.6],[-81.96,77.84],[-82.85,77.98],[-82.65,78.22],[-81.51,78.3],[-81.28,78.53],[-82.22,78.68],[-81.99,78.91],[-80.78,78.98],[-80.52,79.21],[-83.76,79.42],[-83.55,79.65],[-79.97,79.66],[-79.67,79.89],[-80.71,80.04],[-80.42,80.26],[-79.04,80.33],[-78.71,80.56],[-84.93,80.84],[-84.72,81.06],[-85.95,81.19],[-85.75,81.42],[-87.05,81.55],[-86.81,81.78],[-85.25,81.87],[-84.94,82.1],[-83.31,82.18],[-82.92,82.41],[-84.26,82.55],[-85.97,82.46],[-86.27,82.23],[-90.86,82.15],[-90.99,81.92],[-92.49,81.81],[-92.58,81.58],[-93.99,81.45],[-94.03,81.22],[-95.36,81.1],[-95.37,80.87],[-96.63,80.74],[-96.57,80.51],[-100.21,80.32],[-100.08,80.09],[-101.18,79.95],[-101.04,79.72],[-99.83,79.64],[-98.74,79.78],[-98.84,80.01],[-97.69,80.15],[-96.46,80.05],[-96.41,79.82],[-97.54,79.69],[-97.47,79.46],[-96.31,79.36],[-96.27,79.13],[-95.15,79.03],[-95.13,78.8],[-96.18,78.67],[-98.46,79.09],[-100.62,79.03],[-100.76,79.26],[-101.93,79.34],[-102.09,79.57],[-103.3,79.64],[-106.49,79.39],[-106.25,79.16],[-105.07,79.1],[-104.86,78.87],[-105.79,78.71],[-105.57,78.48],[-104.46,78.42],[-104.27,78.19],[-103.2,78.12],[-103.03,77.89],[-103.91,77.73],[-106.23,78.09],[-107.08,77.93],[-106.85,77.7],[-105.81,77.64],[-105.61,77.41],[-106.42,77.24],[-106.22,77.01],[-105.22,76.95],[-105.04,76.71],[-105.83,76.55],[-105.64,76.32],[-106.39,76.15],[-107.34,76.22],[-107.55,76.45],[-106.79,76.62],[-107.0,76.85],[-107.99,76.9],[-108.22,77.13],[-109.23,77.19],[-109.98,77.01],[-109.73,76.79],[-110.45,76.61],[-110.19,76.38],[-110.89,76.2],[-111.84,76.25],[-112.12,76.47],[-113.09,76.51],[-113.39,76.74],[-112.7,76.92],[-113.01,77.14],[-115.71,77.02],[-116.06,77.24],[-115.39,77.43],[-115.77,77.64],[-116.85,77.66],[-117.51,77.47],[-120.26,77.29],[-120.86,77.08],[-120.4,76.88],[-120.98,76.68],[-121.99,76.67],[-124.03,76.25],[-123.56,76.05],[-122.59,76.06],[-122.15,75.86],[-121.2,75.87],[-119.5,75.44],[-118.61,75.42],[-118.26,75.21],[-117.37,75.19],[-117.05,74.97],[-116.17,74.94],[-115.87,74.72],[-115.01,74.69],[-114.72,74.47],[-112.77,74.16],[-110.72,74.48],[-109.88,74.43],[-109.24,74.6],[-109.46,74.83],[-108.8,75.01],[-106.87,74.65],[-104.63,74.92],[-103.77,74.84],[-103.05,75.0],[-103.18,75.24],[-102.44,75.39],[-101.56,75.31],[-101.45,75.07],[-99.66,74.65],[-99.58,74.41],[-100.31,74.27],[-100.23,74.03],[-102.44,73.81],[-102.32,73.57],[-103.0,73.41],[-102.88,73.17],[-103.53,73.01],[-103.41,72.77],[-102.65,72.69],[-102.54,72.45],[-100.98,72.03],[-100.89,71.79],[-99.41,71.35],[-99.34,71.1],[-98.66,71.0],[-98.03,71.15],[-98.07,71.39],[-97.43,71.54],[-96.73,71.43],[-96.7,71.18],[-97.34,71.04],[-97.31,70.8],[-96.64,70.69],[-96.61,70.44],[-97.23,70.3],[-97.19,70.05],[-99.04,69.87],[-98.99,69.62],[-99.57,69.48],[-100.21,69.57],[-100.28,69.82],[-99.69,69.97],[-99.76,70.22],[-99.16,70.37],[-99.22,70.61],[-99.89,70.71],[-99.96,70.96],[-100.65,71.05],[-101.25,70.9],[-101.17,70.66],[-101.76,70.5],[-103.23,70.92],[-103.33,71.16],[-104.04,71.25],[-104.16,71.49],[-103.56,71.65],[-103.68,71.89],[-104.41,71.97],[-104.53,72.21],[-103.92,72.37],[-104.04,72.61],[-104.8,72.69],[-104.94,72.93],[-104.31,73.09],[-104.44,73.33],[-103.79,73.49],[-103.92,73.73],[-104.72,73.81],[-104.87,74.04],[-108.63,73.91],[-109.24,73.73],[-109.04,73.5],[-109.64,73.32],[-110.44,73.38],[-112.36,73.07],[-114.19,73.38],[-114.45,73.6],[-115.26,73.64],[-115.54,73.86],[-116.36,73.89],[-116.66,74.12],[-116.12,74.31],[-116.42,74.53],[-118.65,74.38],[-120.19,74.83],[-121.05,74.84],[-121.53,74.64],[-123.65,74.84],[-125.41,74.41],[-124.97,74.22],[-125.39,74.01],[-124.96,73.82],[-125.37,73.61],[-124.98,73.41],[-125.38,73.2],[-125.01,72.99],[-125.39,72.79],[-126.14,72.78],[-126.51,72.57],[-126.14,72.37],[-126.5,72.16],[-125.06,71.75],[-124.35,71.75],[-124.01,71.54],[-124.38,71.33],[-123.04,70.91],[-119.03,71.45],[-118.74,71.23],[-119.17,71.03],[-118.89,70.81],[-118.2,70.79],[-117.0,70.31],[-118.51,69.95],[-118.25,69.73],[-116.7,69.44],[-116.46,69.21],[-116.87,69.02],[-119.31,69.56],[-119.57,69.78],[-120.23,69.8],[-120.5,70.02],[-121.17,70.04],[-121.54,69.83],[-123.16,70.07],[-123.51,69.87],[-124.16,69.88],[-124.47,70.09],[-124.13,70.29],[-124.44,70.5],[-125.11,70.51],[-125.45,70.3],[-125.13,70.09],[-125.46,69.88],[-126.11,69.88],[-126.44,70.09],[-126.11,70.3],[-126.45,70.5],[-127.11,70.5],[-128.48,70.89],[-129.15,70.88],[-129.45,70.67],[-129.09,70.47],[-128.43,70.48],[-128.08,70.28],[-128.38,70.07],[-129.02,70.06],[-130.39,70.44],[-131.07,70.4],[-131.34,70.18],[-133.81,69.6],[-134.23,69.76],[-134.0,69.98],[-134.43,70.14],[-135.1,70.08],[-135.32,69.86],[-137.65,69.22],[-138.1,69.37],[-137.92,69.6],[-138.38,69.75],[-141.28,69.81],[-141.78,69.96],[-141.63,70.19],[-142.14,70.33],[-147.58,70.39],[-148.15,70.52],[-148.08,70.76],[-148.67,70.89],[-151.82,70.78],[-152.44,70.9],[-152.42,71.14],[-154.35,71.23],[-154.35,71.47],[-155.02,71.58],[-157.66,71.51],[-158.28,71.37],[-158.22,71.12],[-160.11,70.92],[-160.03,70.68],[-160.62,70.53],[-162.54,70.54],[-163.11,70.37],[-162.99,70.13],[-163.54,69.97],[-163.42,69.73],[-163.96,69.57],[-163.83,69.33],[-164.36,69.17],[-166.16,69.13],[-166.66,68.96],[-166.51,68.73],[-167.0,68.55],[-166.85,68.32],[-166.22,68.26],[-166.08,68.02],[-164.73,67.65],[-164.61,67.42],[-164.02,67.35],[-163.91,67.12],[-162.66,66.74],[-162.56,66.51],[-163.59,66.42],[-163.69,66.65],[-164.27,66.72],[-164.38,66.95],[-164.96,67.02],[-165.42,66.85],[-165.3,66.62],[-165.75,66.45],[-167.35,66.4],[-167.78,66.23],[-167.64,66.0],[-168.06,65.82],[-169.37,66.16],[-169.53,66.39],[-170.12,66.43],[-170.29,66.66],[-170.89,66.71],[-171.08,66.94],[-171.69,66.98],[-171.88,67.21],[-172.5,67.25],[-172.71,67.48],[-174.38,67.35],[-174.61,67.58],[-175.25,67.61],[-175.49,67.84],[-175.08,68.03],[-175.32,68.26],[-175.98,68.29],[-176.24,68.51],[-176.91,68.54],[-177.18,68.76],[-177.86,68.78],[-178.15,69.01],[-180.0,69.38],[-180.0,64.57]],[[-152.6,59.64],[-152.22,59.55],[-152.23,59.34],[-152.99,59.31],[-152.98,59.52],[-152.6,59.64]]],[[[180.0,63.14],[179.01,63.52],[179.31,63.73],[179.06,63.94],[179.36,64.15],[179.11,64.36],[179.42,64.57],[180.0,64.57],[180.0,69.38],[179.85,69.48],[177.01,69.94],[176.65,70.15],[174.81,69.92],[173.28,70.33],[171.46,70.06],[171.04,70.27],[170.29,70.24],[169.99,70.01],[169.25,69.98],[168.8,70.18],[168.06,70.14],[167.78,69.91],[167.05,69.87],[166.79,69.63],[167.25,69.43],[167.96,69.47],[168.4,69.27],[168.13,69.04],[166.49,68.72],[166.04,68.91],[165.35,68.87],[165.11,68.63],[165.57,68.44],[165.34,68.2],[166.87,67.86],[166.64,67.62],[165.98,67.58],[165.76,67.34],[166.18,67.15],[165.95,66.91],[164.48,66.58],[164.28,66.34],[163.67,66.28],[163.48,66.04],[161.84,66.1],[161.67,65.86],[161.07,65.8],[160.91,65.55],[162.34,65.27],[162.18,65.03],[161.6,64.96],[161.44,64.72],[160.87,64.66],[160.71,64.42],[158.18,64.54],[158.06,64.29],[157.5,64.21],[157.39,63.97],[157.81,63.81],[157.7,63.57],[156.52,63.16],[156.42,62.92],[156.83,62.76],[156.73,62.52],[156.21,62.44],[155.8,62.59],[155.9,62.83],[155.47,62.99],[154.96,62.9],[154.87,62.66],[155.29,62.51],[155.2,62.26],[154.12,61.84],[154.04,61.6],[153.55,61.51],[153.48,61.27],[152.1,61.22],[152.05,60.98],[151.57,60.88],[151.52,60.64],[152.28,60.12],[153.27,60.55],[155.39,60.28],[156.43,60.69],[156.53,60.92],[157.01,61.0],[157.11,61.24],[155.83,61.47],[155.92,61.71],[156.42,61.8],[157.71,61.56],[158.84,61.95],[160.11,61.69],[159.36,61.15],[159.73,60.99],[159.6,60.75],[159.97,60.59],[161.3,60.55],[161.44,60.79],[161.93,60.85],[162.07,61.08],[161.72,61.25],[161.86,61.49],[162.37,61.55],[163.58,61.26],[163.42,61.03],[162.92,60.97],[162.77,60.74],[162.28,60.68],[162.14,60.45],[161.65,60.39],[161.52,60.15],[161.04,60.09],[160.91,59.86],[159.26,59.19],[159.15,58.96],[159.5,58.8],[158.83,58.26],[157.59,58.27],[157.5,58.04],[156.53,57.65],[156.45,57.42],[156.79,57.27],[156.7,57.04],[155.29,56.34],[155.21,56.11],[155.55,55.97],[155.0,55.43],[155.33,55.29],[155.26,55.06],[155.83,54.56],[155.3,54.03],[155.61,53.89],[155.52,53.66],[155.82,53.52],[155.73,53.29],[156.01,53.15],[155.92,52.92],[156.21,52.77],[156.12,52.54],[156.4,52.39],[156.31,52.16],[156.59,52.01],[156.5,51.78],[156.97,51.25],[157.8,51.63],[158.46,51.54],[158.55,51.77],[158.28,51.93],[158.38,52.16],[158.75,52.23],[158.86,52.46],[158.58,52.61],[159.17,53.14],[160.22,53.12],[160.33,53.34],[159.88,53.88],[159.99,54.1],[160.89,54.46],[161.58,54.36],[162.22,54.86],[162.63,54.92],[162.75,55.14],[161.76,55.4],[161.88,55.62],[162.83,55.96],[163.54,55.85],[163.67,56.07],[163.38,56.23],[163.51,56.45],[163.22,56.62],[163.35,56.84],[163.05,57.0],[163.76,57.51],[163.45,57.67],[163.59,57.9],[162.51,58.17],[162.65,58.4],[162.32,58.57],[163.06,59.08],[163.53,59.14],[163.85,58.97],[163.1,58.46],[163.42,58.29],[163.87,58.35],[164.02,58.57],[165.09,58.9],[165.25,59.12],[164.15,59.42],[163.67,59.37],[163.35,59.54],[163.49,59.76],[163.97,59.82],[164.3,59.65],[165.42,59.98],[165.73,59.8],[167.01,59.71],[167.18,59.94],[166.87,60.12],[167.05,60.34],[167.54,60.38],[167.85,60.2],[169.02,60.5],[169.32,60.31],[169.13,60.09],[169.42,59.91],[170.67,59.79],[170.88,60.0],[170.59,60.19],[170.8,60.41],[177.58,62.48],[179.64,62.07],[179.92,62.27],[179.69,62.48],[179.98,62.68],[179.75,62.89],[180.0,63.14]],[[163.03,61.84],[163.18,62.08],[163.7,62.13],[164.06,61.96],[163.9,61.72],[163.38,61.67],[163.03,61.84]]],[[[-122.42,37.16],[-122.2,37.33],[-122.27,37.56],[-122.56,37.62],[-122.78,37.44],[-122.71,37.21],[-122.42,37.16]]],[[[57.2,73.4],[56.82,73.61],[57.25,73.8],[56.86,74.01],[58.62,74.36],[58.23,74.57],[58.72,74.76],[59.6,74.73],[60.11,74.91],[59.72,75.13],[60.24,75.32],[62.64,75.42],[63.22,75.6],[62.86,75.82],[63.46,76.0],[67.64,76.18],[68.32,76.35],[68.03,76.59],[68.74,76.76],[68.45,76.99],[67.41,77.06],[66.71,76.88],[67.03,76.65],[66.35,76.48],[65.35,76.54],[59.02,75.98],[58.49,75.79],[58.91,75.57],[58.4,75.38],[57.48,75.41],[55.62,75.05],[57.36,74.6],[56.9,74.41],[56.04,74.43],[55.6,74.24],[56.02,74.03],[55.59,73.84],[54.76,73.86],[54.36,73.67],[54.78,73.46],[53.21,73.09],[53.63,72.89],[53.26,72.7],[53.67,72.5],[52.22,72.13],[52.62,71.93],[52.29,71.74],[52.68,71.55],[52.36,71.36],[56.56,70.49],[56.92,70.67],[56.59,70.87],[55.89,70.9],[55.55,71.1],[55.91,71.28],[55.55,71.49],[55.92,71.67],[54.45,72.1],[54.81,72.28],[54.43,72.49],[55.96,72.84],[55.58,73.05],[55.98,73.24],[56.78,73.22],[57.2,73.4]]],[[[63.18,64.26],[62.64,64.32],[62.25,64.15],[62.39,63.93],[64.25,64.14],[64.12,64.37],[63.18,64.26]]],[[[155.14,59.57],[154.76,59.72],[154.84,59.95],[154.45,60.1],[153.99,60.01],[153.92,59.78],[154.3,59.63],[154.23,59.39],[153.39,59.45],[152.94,59.35],[152.88,59.12],[154.53,59.01],[154.61,59.24],[155.06,59.33],[155.14,59.57]]],[[[91.83,46.45],[92.11,46.3],[93.04,46.35],[93.54,45.8],[93.86,45.89],[93.91,46.14],[93.41,46.69],[93.09,46.6],[92.81,46.75],[92.85,46.99],[91.96,47.2],[91.76,47.85],[91.22,48.39],[91.26,48.64],[91.6,48.74],[91.89,48.59],[92.23,48.69],[92.03,49.34],[92.37,49.43],[92.42,49.68],[91.86,50.23],[91.91,50.48],[92.26,50.57],[92.31,50.82],[93.32,50.85],[93.37,51.09],[92.41,51.31],[91.65,50.88],[91.34,51.03],[90.99,50.93],[90.67,51.08],[90.71,51.33],[91.07,51.43],[91.12,51.68],[92.15,51.71],[92.61,52.3],[90.93,52.57],[90.16,52.13],[89.54,52.67],[88.78,52.22],[88.44,52.37],[88.08,52.26],[88.05,52.01],[87.31,51.54],[84.89,51.76],[84.17,51.27],[83.12,51.42],[82.77,51.29],[82.77,51.04],[83.46,50.52],[83.45,50.27],[83.11,50.15],[83.11,49.89],[84.79,49.74],[84.78,49.48],[84.1,48.99],[84.09,48.73],[84.42,48.6],[86.06,48.68],[86.68,48.15],[87.66,48.24],[88.25,47.7],[88.58,47.81],[89.51,47.63],[89.74,46.98],[90.03,46.84],[90.36,46.94],[90.9,46.4],[91.83,46.45]]],[[[-121.29,43.31],[-121.2,43.91],[-121.9,44.22],[-122.45,43.29],[-122.38,43.07],[-122.07,43.02],[-121.29,43.31]]],[[[14.86,59.8],[15.41,60.03],[15.12,60.16],[15.25,60.34],[16.8,60.85],[16.94,61.03],[16.65,61.15],[16.79,61.33],[16.49,61.46],[17.21,61.85],[16.91,61.98],[17.06,62.15],[17.5,62.19],[17.55,62.4],[18.73,63.09],[18.79,63.3],[19.17,63.38],[19.23,63.6],[20.3,63.63],[20.84,64.14],[21.24,64.22],[21.32,64.44],[21.0,64.57],[21.08,64.78],[23.03,65.75],[24.89,65.49],[24.78,65.28],[24.34,65.2],[24.23,64.99],[24.55,64.85],[24.44,64.63],[23.5,64.27],[23.4,64.05],[22.5,63.68],[22.41,63.47],[21.7,63.53],[20.85,63.15],[20.78,62.94],[21.08,62.81],[21.0,62.59],[21.3,62.46],[21.23,62.24],[21.74,61.75],[21.22,61.25],[21.72,60.75],[21.64,60.54],[21.14,60.29],[21.42,60.15],[22.28,60.47],[22.76,59.96],[23.39,59.89],[24.21,60.24],[24.86,60.16],[24.95,60.37],[25.98,60.35],[26.09,60.57],[27.41,60.38],[28.32,60.71],[29.92,60.34],[30.32,60.39],[30.46,60.61],[30.19,60.77],[30.33,60.99],[30.75,61.04],[30.89,61.26],[32.0,61.19],[32.16,61.4],[32.58,61.45],[33.97,61.2],[34.23,61.02],[34.06,60.81],[34.32,60.63],[35.43,60.53],[35.61,60.75],[35.35,60.93],[34.92,60.89],[34.66,61.06],[34.84,61.28],[34.58,61.45],[34.75,61.67],[34.49,61.84],[34.67,62.06],[36.54,61.82],[36.8,61.64],[36.6,61.43],[36.86,61.25],[38.0,61.13],[38.2,61.34],[37.95,61.52],[38.15,61.74],[39.29,62.01],[39.5,62.22],[39.25,62.4],[39.47,62.62],[41.39,62.31],[41.63,62.52],[41.38,62.71],[41.62,62.92],[41.37,63.11],[41.61,63.32],[41.36,63.51],[41.61,63.71],[42.1,63.73],[42.35,63.55],[42.11,63.34],[42.35,63.15],[45.04,62.62],[46.69,62.03],[48.73,62.43],[49.02,62.63],[50.23,62.4],[50.53,62.6],[50.33,62.81],[50.63,63.0],[51.15,62.99],[52.05,62.56],[53.39,62.71],[53.58,62.5],[54.08,62.47],[54.41,62.66],[55.61,62.39],[55.95,62.58],[55.77,62.79],[56.12,62.98],[57.5,63.1],[57.67,62.88],[58.19,62.84],[58.35,62.62],[57.99,62.43],[58.81,61.95],[58.47,61.77],[58.62,61.54],[58.27,61.36],[59.07,60.87],[58.73,60.68],[58.87,60.46],[58.54,60.27],[58.69,60.05],[58.36,59.86],[58.5,59.63],[58.98,59.59],[59.31,59.77],[59.16,60.0],[59.5,60.18],[59.36,60.41],[59.7,60.59],[59.56,60.82],[59.9,61.0],[59.76,61.23],[60.11,61.41],[59.97,61.63],[60.32,61.81],[59.52,62.31],[59.88,62.49],[59.73,62.71],[60.1,62.89],[59.95,63.11],[60.32,63.29],[60.17,63.51],[60.55,63.68],[60.4,63.9],[60.78,64.08],[60.63,64.3],[61.96,64.59],[63.45,64.65],[63.86,64.82],[63.73,65.04],[64.15,65.2],[65.12,65.3],[64.99,65.52],[64.44,65.59],[64.3,65.81],[64.73,65.97],[68.33,66.16],[68.79,66.31],[68.68,66.53],[69.15,66.68],[69.05,66.9],[70.58,67.11],[70.48,67.33],[70.97,67.47],[72.05,67.53],[71.96,67.75],[71.37,67.83],[71.28,68.05],[72.9,68.24],[72.77,68.46],[72.16,68.55],[72.02,68.78],[72.5,68.92],[72.36,69.15],[71.74,69.23],[71.59,69.46],[72.07,69.6],[71.93,69.83],[72.42,69.98],[72.28,70.21],[72.79,70.35],[72.64,70.58],[71.97,70.67],[71.81,70.9],[72.34,71.05],[72.19,71.28],[71.49,71.36],[71.32,71.59],[71.86,71.74],[71.69,71.98],[72.25,72.13],[72.08,72.36],[72.66,72.51],[72.49,72.75],[71.73,72.83],[71.15,72.68],[70.39,72.75],[69.83,72.6],[70.03,72.37],[69.49,72.21],[69.69,71.98],[69.16,71.82],[69.36,71.6],[67.63,71.35],[67.85,71.12],[67.36,70.97],[67.57,70.74],[67.1,70.58],[67.31,70.36],[67.98,70.29],[68.18,70.07],[67.72,69.91],[67.91,69.69],[68.56,69.62],[68.74,69.39],[68.29,69.24],[69.27,68.72],[68.77,68.58],[68.88,68.36],[68.39,68.22],[66.3,68.85],[66.16,69.06],[64.42,69.03],[64.26,69.24],[63.63,69.29],[63.39,69.51],[61.83,69.82],[60.41,69.53],[61.41,69.07],[60.95,68.91],[61.13,68.7],[60.68,68.53],[60.85,68.33],[60.41,68.16],[58.99,68.44],[58.8,68.65],[59.24,68.82],[59.05,69.03],[58.42,69.06],[57.98,68.89],[58.18,68.68],[56.71,68.37],[55.25,68.62],[54.85,68.44],[55.06,68.24],[54.66,68.06],[54.05,68.08],[53.83,68.28],[54.23,68.46],[54.01,68.66],[53.38,68.68],[48.5,67.77],[48.16,67.58],[48.41,67.38],[48.08,67.19],[45.72,66.78],[45.46,66.96],[45.77,67.16],[45.51,67.35],[44.93,67.34],[44.66,67.52],[46.79,68.14],[45.65,68.5],[44.17,68.65],[43.86,68.45],[44.14,68.27],[43.83,68.07],[44.11,67.89],[43.81,67.69],[44.09,67.5],[43.79,67.3],[44.06,67.12],[44.63,67.14],[44.9,66.95],[44.6,66.75],[44.04,66.73],[43.75,66.53],[42.37,66.68],[42.09,66.47],[39.95,65.98],[39.71,65.77],[39.98,65.6],[39.74,65.39],[40.01,65.21],[39.77,65.0],[40.04,64.82],[39.8,64.61],[37.74,64.87],[37.46,65.04],[37.69,65.26],[37.4,65.43],[36.9,65.39],[36.68,65.18],[36.96,65.01],[36.75,64.8],[37.03,64.62],[36.82,64.41],[38.61,63.95],[38.39,63.74],[37.91,63.71],[37.64,63.88],[36.4,63.99],[36.12,64.16],[36.33,64.37],[36.05,64.54],[35.56,64.5],[35.27,64.67],[36.18,65.14],[35.1,65.44],[35.3,65.65],[35.01,65.81],[35.21,66.03],[34.1,66.31],[34.3,66.52],[34.82,66.57],[38.9,65.92],[39.92,66.37],[41.27,66.63],[41.54,66.83],[41.26,67.01],[41.53,67.22],[41.24,67.39],[41.52,67.6],[40.36,67.92],[38.93,68.03],[38.62,68.2],[38.88,68.4],[38.57,68.57],[37.1,68.66],[36.78,68.82],[37.02,69.03],[36.7,69.19],[33.09,69.44],[32.15,69.91],[30.95,69.59],[29.95,70.05],[30.0,70.25],[30.58,70.32],[30.63,70.52],[27.79,70.77],[26.63,70.41],[23.8,70.6],[23.25,70.51],[23.28,70.31],[21.64,70.24],[21.69,70.04],[21.17,69.95],[21.23,69.76],[19.08,69.76],[18.59,69.66],[18.67,69.47],[17.15,69.36],[17.25,69.17],[17.81,69.08],[17.89,68.89],[17.43,68.8],[17.52,68.61],[17.07,68.51],[15.88,68.87],[15.43,68.76],[16.19,68.31],[15.43,67.92],[15.53,67.74],[14.81,67.35],[14.92,67.17],[13.62,67.04],[13.73,66.87],[13.35,66.76],[13.46,66.59],[13.08,66.48],[13.2,66.31],[12.83,66.2],[12.95,66.03],[12.58,65.93],[12.7,65.76],[12.34,65.65],[12.46,65.48],[12.11,65.38],[12.23,65.21],[11.88,65.11],[11.53,64.6],[10.05,64.03],[9.93,63.86],[10.25,63.76],[11.27,64.05],[11.6,63.95],[11.47,63.78],[10.34,63.31],[9.18,63.34],[7.55,62.61],[7.16,62.6],[7.05,62.42],[6.66,62.4],[6.55,62.22],[6.16,62.21],[6.06,62.02],[6.35,61.86],[6.25,61.68],[5.86,61.66],[5.77,61.48],[6.06,61.31],[5.48,60.92],[5.77,60.76],[5.67,60.57],[5.96,60.41],[5.86,60.22],[6.15,60.06],[6.05,59.87],[6.51,59.35],[6.41,59.16],[6.05,59.14],[5.96,58.95],[6.23,58.78],[6.14,58.59],[7.06,58.34],[7.94,58.68],[8.62,58.64],[8.72,58.83],[8.43,58.95],[8.53,59.13],[9.44,59.47],[10.14,59.42],[10.25,59.61],[9.95,59.72],[10.06,59.91],[11.11,60.41],[11.52,60.48],[11.82,60.36],[11.71,60.17],[12.72,60.0],[13.68,60.3],[13.98,60.17],[13.85,59.99],[14.86,59.8]],[[44.56,66.36],[44.82,66.17],[44.53,65.97],[43.99,65.96],[43.73,66.14],[44.01,66.35],[44.56,66.36]]],[[[84.03,46.44],[84.34,46.31],[84.99,46.81],[85.93,46.66],[86.26,46.77],[86.27,47.03],[85.67,47.55],[85.34,47.43],[85.03,47.57],[84.36,47.07],[84.03,46.44]]],[[[83.33,42.12],[84.22,42.24],[84.22,42.49],[84.52,42.62],[84.81,42.49],[85.11,42.61],[85.44,43.24],[85.74,43.36],[86.62,43.21],[86.93,43.33],[86.95,43.58],[86.06,43.73],[86.08,43.98],[85.78,44.12],[84.27,44.02],[83.67,44.53],[83.36,44.41],[83.06,44.53],[82.75,44.41],[82.75,44.15],[83.05,44.02],[83.05,43.77],[83.95,43.64],[83.95,43.39],[82.45,43.26],[82.45,43.0],[83.34,42.88],[83.34,42.62],[82.45,42.49],[82.45,42.24],[83.33,42.12]]],[[[-110.67,45.69],[-111.85,45.56],[-112.11,45.41],[-112.06,45.19],[-112.9,44.97],[-113.22,45.04],[-113.28,45.26],[-112.43,45.49],[-112.49,45.71],[-112.01,46.22],[-112.07,46.43],[-113.57,46.36],[-114.04,45.84],[-114.36,45.91],[-114.42,46.13],[-114.16,46.28],[-114.22,46.49],[-114.54,46.56],[-114.8,46.41],[-114.94,45.83],[-116.35,45.5],[-116.29,45.28],[-115.97,45.21],[-116.1,44.62],[-115.4,44.27],[-115.34,44.05],[-115.6,43.89],[-115.16,43.38],[-113.71,43.47],[-113.46,43.62],[-113.51,43.85],[-112.68,44.08],[-112.74,44.3],[-112.48,44.45],[-111.32,44.59],[-111.0,44.51],[-111.16,43.92],[-110.85,43.84],[-110.8,43.61],[-109.41,42.59],[-109.15,42.73],[-109.19,42.96],[-109.5,43.05],[-109.55,43.28],[-109.07,43.79],[-109.47,44.33],[-109.21,44.47],[-109.25,44.7],[-109.57,44.78],[-109.62,45.0],[-109.35,45.14],[-109.4,45.37],[-109.72,45.45],[-109.76,45.67],[-110.67,45.69]]],[[[-157.17,55.93],[-156.49,55.99],[-156.51,56.19],[-156.86,56.26],[-157.2,56.13],[-157.17,55.93]]],[[[69.45,66.01],[70.47,66.08],[70.38,66.3],[69.82,66.38],[69.35,66.24],[69.45,66.01]]],[[[95.94,48.3],[96.22,48.14],[96.15,47.9],[96.42,47.74],[96.75,47.82],[97.01,47.66],[96.95,47.42],[97.8,47.18],[97.73,46.94],[97.98,46.78],[98.3,46.86],[98.38,47.1],[98.7,47.18],[98.95,47.01],[99.68,47.4],[100.09,46.84],[100.41,46.91],[101.21,46.65],[101.53,46.72],[101.61,46.95],[100.81,47.22],[100.89,47.45],[100.65,47.62],[100.33,47.55],[100.08,47.71],[100.16,47.95],[99.91,48.11],[99.58,48.04],[99.33,48.21],[99.4,48.44],[99.15,48.61],[98.41,48.22],[97.55,48.46],[97.22,48.39],[96.75,48.95],[96.41,48.87],[96.13,49.03],[95.79,48.94],[95.94,48.3]]],[[[166.06,54.96],[165.92,54.74],[166.2,54.57],[166.61,54.62],[166.75,54.83],[166.47,55.0],[166.61,55.22],[166.34,55.39],[165.92,55.34],[165.78,55.12],[166.06,54.96]]],[[[-180.0,70.79],[-179.57,70.56],[-177.63,70.73],[-177.18,70.94],[-177.49,71.17],[-177.03,71.37],[-178.46,71.85],[-179.27,71.87],[-180.0,71.66],[-180.0,70.79]]],[[[180.0,71.66],[178.26,71.46],[177.85,71.24],[178.22,71.02],[177.81,70.81],[178.17,70.59],[180.0,70.79],[180.0,71.66]]],[[[-123.95,39.37],[-124.02,38.74],[-123.36,38.41],[-122.93,37.9],[-122.42,38.02],[-122.85,38.53],[-123.51,38.86],[-123.58,39.09],[-123.36,39.26],[-123.8,39.76],[-123.58,39.94],[-123.66,40.16],[-123.95,40.21],[-124.4,40.7],[-123.66,41.0],[-124.11,41.49],[-123.89,41.66],[-123.97,41.88],[-124.27,41.93],[-124.34,42.14],[-124.12,42.31],[-124.2,42.53],[-124.5,42.58],[-124.58,42.79],[-124.06,43.73],[-124.14,43.95],[-123.91,44.12],[-123.99,44.33],[-123.76,44.5],[-123.84,44.71],[-123.61,44.88],[-123.68,45.09],[-124.0,45.13],[-124.23,44.96],[-124.15,44.75],[-124.38,44.58],[-124.3,44.37],[-124.52,44.2],[-124.44,43.99],[-124.67,43.82],[-124.59,43.61],[-125.1,42.66],[-125.02,42.45],[-124.72,42.4],[-124.64,42.19],[-124.87,42.01],[-124.41,41.53],[-124.77,40.97],[-124.84,40.35],[-124.17,40.04],[-124.1,39.81],[-124.32,39.64],[-124.24,39.42],[-123.95,39.37]]],[[[98.28,50.87],[98.2,50.63],[98.47,50.46],[98.82,50.53],[98.71,51.18],[98.43,51.34],[98.08,51.27],[98.0,51.03],[98.28,50.87]]],[[[94.27,49.24],[95.18,49.02],[95.52,49.1],[95.58,49.35],[94.04,49.64],[93.7,49.55],[93.64,49.31],[93.93,49.15],[94.27,49.24]]],[[[-126.56,49.81],[-125.83,49.56],[-125.74,49.37],[-125.18,49.5],[-126.17,50.14],[-126.49,50.17],[-126.65,50.0],[-126.56,49.81]]],[[[-155.81,56.04],[-156.14,55.91],[-156.12,55.71],[-155.45,55.76],[-155.46,55.96],[-155.81,56.04]]],[[[-110.46,40.69],[-110.21,40.84],[-110.26,41.07],[-110.56,41.16],[-110.82,41.01],[-110.77,40.77],[-110.46,40.69]]],[[[-75.97,78.41],[-77.15,78.35],[-77.45,78.12],[-75.47,78.02],[-75.13,78.24],[-75.97,78.41]]],[[[-112.3,77.33],[-108.71,77.59],[-108.96,77.81],[-108.15,77.98],[-108.4,78.21],[-107.56,78.38],[-107.81,78.6],[-108.94,78.66],[-109.22,78.88],[-112.4,78.79],[-113.2,78.6],[-112.84,78.39],[-115.46,78.04],[-115.07,77.83],[-112.6,77.55],[-112.3,77.33]]],[[[89.67,64.89],[90.18,64.98],[90.24,65.21],[89.78,65.35],[89.83,65.58],[88.84,65.64],[88.8,65.41],[89.67,64.89]]],[[[167.43,54.7],[167.29,54.49],[167.56,54.31],[168.53,54.61],[168.67,54.82],[167.72,55.13],[167.3,55.09],[167.16,54.88],[167.43,54.7]]],[[[-121.34,40.81],[-121.57,40.64],[-121.5,40.42],[-121.2,40.36],[-120.97,40.53],[-121.04,40.76],[-121.34,40.81]]],[[[95.28,52.01],[95.64,52.09],[95.71,52.34],[95.41,52.5],[95.05,52.42],[94.98,52.17],[95.28,52.01]]],[[[-80.08,60.24],[-81.17,59.83],[-81.27,59.58],[-80.89,59.41],[-80.99,59.15],[-80.61,58.98],[-80.13,59.06],[-80.03,59.31],[-80.4,59.49],[-80.3,59.74],[-79.81,59.82],[-79.7,60.07],[-80.08,60.24]]],[[[-81.87,62.78],[-81.77,63.03],[-82.2,63.2],[-82.73,63.11],[-83.17,63.28],[-83.7,63.18],[-83.79,62.93],[-84.32,62.84],[-84.4,62.58],[-83.97,62.42],[-84.05,62.17],[-82.69,61.93],[-81.55,62.36],[-81.45,62.61],[-81.87,62.78]]],[[[81.83,44.02],[82.14,44.15],[82.14,44.4],[81.51,44.91],[81.81,45.55],[81.5,45.68],[81.18,45.54],[80.87,45.67],[80.26,45.14],[79.31,45.25],[78.72,44.71],[78.73,44.46],[79.05,44.34],[81.21,44.52],[81.83,44.02]]],[[[80.06,42.45],[80.96,42.6],[81.85,42.49],[82.15,42.62],[82.15,42.87],[81.85,43.0],[80.95,42.85],[80.33,43.35],[80.03,43.22],[79.72,43.33],[79.15,42.8],[78.51,43.29],[77.61,43.12],[77.63,42.87],[77.94,42.75],[78.23,42.9],[78.87,42.41],[79.16,42.55],[80.06,42.45]]],[[[-172.73,59.96],[-171.64,60.29],[-171.78,60.5],[-172.89,60.78],[-173.05,60.99],[-173.53,61.02],[-173.85,60.84],[-173.68,60.63],[-173.21,60.6],[-173.05,60.39],[-173.36,60.2],[-173.2,59.99],[-172.73,59.96]]],[[[-79.37,57.79],[-79.83,57.71],[-79.93,57.46],[-78.77,57.18],[-78.88,56.93],[-80.13,56.96],[-80.23,56.71],[-79.88,56.53],[-79.98,56.28],[-80.42,56.2],[-80.52,55.95],[-80.18,55.78],[-80.27,55.53],[-79.94,55.36],[-78.97,55.76],[-78.86,56.01],[-78.42,56.08],[-78.31,56.33],[-78.65,56.51],[-78.54,56.76],[-78.09,56.83],[-77.98,57.08],[-78.32,57.26],[-78.2,57.51],[-78.55,57.68],[-79.01,57.61],[-79.37,57.79]]],[[[165.6,69.78],[164.88,69.73],[164.39,69.92],[163.67,69.86],[163.44,69.62],[163.93,69.43],[165.82,69.34],[166.07,69.58],[165.6,69.78]]],[[[174.07,52.18],[174.24,52.4],[174.0,52.59],[174.16,52.8],[173.92,52.99],[172.87,53.13],[172.62,53.32],[172.22,53.29],[172.06,53.08],[172.31,52.89],[172.15,52.68],[172.4,52.49],[174.07,52.18]]],[[[-119.62,49.99],[-119.42,50.15],[-119.56,50.37],[-120.1,50.25],[-119.62,49.99]]],[[[176.46,52.28],[176.62,52.49],[176.4,52.69],[176.0,52.67],[175.83,52.47],[176.06,52.27],[176.46,52.28]]],[[[87.78,42.92],[87.8,43.17],[87.52,43.31],[87.21,43.19],[87.19,42.94],[87.47,42.8],[87.78,42.92]]],[[[-122.04,45.46],[-121.96,45.24],[-121.65,45.2],[-121.41,45.36],[-121.48,45.57],[-122.04,45.46]]],[[[99.36,53.07],[98.55,52.7],[98.03,52.15],[98.31,51.99],[99.93,51.86],[100.02,52.1],[99.75,52.26],[99.39,52.2],[99.11,52.36],[99.64,52.9],[99.36,53.07]]],[[[-120.06,38.41],[-119.99,38.18],[-119.7,38.12],[-119.47,38.29],[-119.9,38.81],[-119.67,38.98],[-119.73,39.21],[-120.4,39.56],[-120.3,40.19],[-120.6,40.25],[-120.99,39.68],[-120.56,39.16],[-120.26,39.11],[-120.19,38.87],[-120.42,38.7],[-120.35,38.47],[-120.06,38.41]]],[[[77.19,68.39],[77.11,68.62],[76.51,68.72],[74.92,68.56],[75.03,68.33],[76.29,67.9],[76.78,68.03],[76.69,68.26],[77.19,68.39]]],[[[83.08,47.6],[82.11,47.47],[81.78,47.6],[81.46,47.47],[81.47,47.21],[81.79,47.09],[82.76,47.22],[83.4,46.7],[83.72,46.83],[83.72,47.08],[83.08,47.6]]],[[[-118.64,45.1],[-118.57,44.89],[-118.25,44.83],[-118.0,44.99],[-118.07,45.21],[-118.64,45.1]]],[[[97.78,50.31],[96.81,50.32],[96.31,50.88],[95.96,50.8],[95.9,50.56],[96.39,50.0],[96.74,50.08],[97.64,49.83],[97.98,49.91],[98.05,50.15],[97.78,50.31]]],[[[-69.31,77.83],[-70.05,78.01],[-71.21,77.98],[-71.6,77.76],[-70.86,77.58],[-69.73,77.61],[-69.31,77.83]]],[[[-110.06,46.99],[-111.26,46.86],[-111.2,46.64],[-110.88,46.57],[-110.01,46.77],[-110.06,46.99]]],[[[48.78,68.91],[49.77,69.1],[49.51,69.29],[48.88,69.29],[48.52,69.1],[48.78,68.91]]],[[[88.18,44.04],[87.87,43.92],[87.85,43.67],[88.13,43.53],[89.02,43.62],[89.05,43.87],[88.77,44.01],[88.46,43.9],[88.18,44.04]]],[[[149.65,59.99],[149.2,59.88],[149.17,59.64],[147.88,59.55],[147.86,59.31],[149.54,59.27],[149.58,59.51],[150.02,59.61],[150.06,59.85],[149.65,59.99]]],[[[-169.66,57.16],[-169.78,57.36],[-170.2,57.4],[-170.49,57.23],[-170.37,57.02],[-169.66,57.16]]],[[[-170.92,63.95],[-172.36,63.84],[-172.72,63.65],[-171.85,63.18],[-170.45,63.28],[-170.3,63.06],[-169.13,62.75],[-168.76,62.92],[-168.9,63.15],[-168.53,63.32],[-168.66,63.54],[-169.86,63.86],[-170.01,64.08],[-170.55,64.13],[-170.92,63.95]]],[[[82.43,49.39],[82.43,49.13],[82.76,49.0],[83.1,49.13],[83.1,49.38],[82.77,49.51],[82.43,49.39]]],[[[96.72,53.45],[97.02,53.29],[97.39,53.36],[97.47,53.6],[97.17,53.77],[97.25,54.01],[96.95,54.17],[96.57,54.1],[96.5,53.86],[96.8,53.69],[96.72,53.45]]],[[[-180.0,51.94],[-179.77,52.14],[-179.99,52.35],[-180.0,51.94]]],[[[180.0,52.34],[179.05,52.14],[178.83,52.34],[178.44,52.33],[178.26,52.13],[177.87,52.12],[177.64,52.32],[177.25,52.31],[177.08,52.1],[177.3,51.9],[177.13,51.69],[177.36,51.5],[178.31,51.72],[178.53,51.52],[179.52,51.33],[179.69,51.53],[179.48,51.73],[179.66,51.94],[180.0,51.94],[180.0,52.34]]],[[[-146.9,59.62],[-146.95,59.42],[-146.61,59.31],[-146.21,59.41],[-146.15,59.62],[-146.9,59.62]]],[[[86.6,42.96],[86.3,42.84],[86.02,42.97],[85.71,42.85],[85.7,42.6],[85.99,42.47],[86.87,42.57],[86.89,42.82],[86.6,42.96]]],[[[81.56,42.1],[81.26,42.22],[80.97,42.09],[80.98,41.84],[81.27,41.71],[81.57,41.85],[81.56,42.1]]],[[[-115.03,54.97],[-115.42,55.02],[-116.32,54.73],[-116.18,54.51],[-115.15,54.57],[-114.89,54.74],[-115.03,54.97]]],[[[-64.2,67.49],[-64.49,67.26],[-64.12,67.05],[-64.41,66.82],[-64.05,66.61],[-62.48,66.85],[-62.18,67.08],[-63.54,67.5],[-64.2,67.49]]],[[[-107.46,44.63],[-107.73,44.49],[-107.68,44.27],[-107.1,44.31],[-107.14,44.54],[-107.46,44.63]]],[[[99.44,50.44],[99.7,50.27],[100.04,50.34],[100.13,50.58],[99.86,50.75],[99.52,50.68],[99.44,50.44]]],[[[-169.84,56.78],[-170.13,56.62],[-170.01,56.41],[-169.32,56.54],[-169.43,56.75],[-169.84,56.78]]],[[[78.27,42.38],[77.96,42.5],[77.67,42.36],[77.69,42.1],[78.0,41.99],[78.29,42.13],[78.27,42.38]]],[[[83.06,45.3],[83.37,45.17],[83.69,45.3],[84.01,45.93],[83.07,46.07],[82.75,45.94],[83.06,45.3]]],[[[-117.25,45.46],[-117.5,45.31],[-117.43,45.09],[-116.86,45.18],[-116.93,45.4],[-117.25,45.46]]],[[[152.11,59.4],[151.71,59.54],[151.27,59.44],[151.22,59.2],[151.94,58.69],[152.38,58.79],[152.44,59.02],[152.05,59.16],[152.11,59.4]]],[[[76.39,43.06],[76.42,42.8],[76.74,42.69],[77.03,42.84],[77.0,43.09],[76.68,43.2],[76.39,43.06]]],[[[-76.51,78.8],[-74.42,78.69],[-74.05,78.91],[-74.92,79.08],[-74.54,79.3],[-75.45,79.47],[-76.74,79.41],[-77.08,79.19],[-76.17,79.02],[-76.51,78.8]]],[[[-110.29,42.61],[-110.34,42.84],[-110.91,42.78],[-110.86,42.55],[-110.55,42.47],[-110.29,42.61]]],[[[-120.41,51.64],[-120.77,51.69],[-120.97,51.52],[-120.87,50.92],[-120.33,51.05],[-120.41,51.64]]]]}}]}