{"type":"FeatureCollection","features":[{"type":"Feature","properties":{},"geometry":{"type":"MultiPolygon","coordinates":[[[[144.43,-7.12],[143.91,-7.54],[143.14,-6.92],[142.62,-7.34],[142.32,-6.54],[141.55,-5.91],[140.87,-5.93],[140.53,-5.36],[139.86,-5.38],[139.51,-4.81],[134.04,-4.0],[134.2,-4.41],[136.17,-4.63],[136.52,-5.19],[137.2,-5.18],[137.98,-5.82],[138.44,-7.04],[137.72,-7.29],[137.47,-8.74],[138.33,-8.89],[139.57,-8.22],[141.51,-9.77],[142.22,-9.51],[141.66,-10.16],[141.95,-10.93],[141.22,-12.51],[141.57,-14.1],[140.69,-17.33],[139.86,-17.2],[140.2,-16.68],[139.85,-16.17],[139.19,-16.19],[138.63,-16.79],[137.13,-15.41],[136.27,-15.27],[136.01,-14.29],[136.83,-14.66],[137.28,-13.44],[136.65,-13.22],[137.26,-12.37],[136.76,-11.44],[137.08,-10.89],[134.24,-11.85],[133.16,-10.45],[131.94,-11.08],[129.96,-11.07],[129.81,-12.0],[130.42,-12.23],[129.61,-13.14],[129.34,-14.71],[128.27,-14.61],[127.78,-13.71],[126.94,-13.54],[124.7,-14.21],[124.81,-14.8],[124.18,-14.77],[124.04,-15.64],[123.01,-15.51],[123.13,-16.09],[122.62,-16.63],[122.01,-16.6],[122.16,-18.14],[120.68,-19.66],[119.84,-19.86],[118.69,-19.56],[118.8,-20.1],[118.21,-20.04],[117.74,-20.51],[116.62,-20.2],[115.94,-20.89],[115.29,-20.11],[115.32,-21.2],[113.74,-21.68],[113.85,-22.18],[113.41,-22.61],[113.62,-23.6],[113.32,-24.5],[112.82,-24.72],[112.64,-25.89],[113.97,-27.43],[113.79,-27.88],[114.86,-29.27],[114.6,-30.39],[115.41,-31.31],[115.16,-32.47],[115.62,-33.21],[114.62,-33.63],[114.7,-34.17],[116.54,-35.42],[117.12,-35.11],[117.81,-35.34],[120.01,-34.38],[119.61,-33.84],[119.5,-34.39],[118.25,-34.84],[117.14,-34.75],[116.34,-34.33],[116.4,-33.63],[115.89,-33.23],[116.13,-32.05],[117.32,-31.99],[117.22,-31.48],[116.19,-31.38],[115.4,-30.14],[115.58,-27.87],[116.31,-27.23],[115.88,-26.57],[116.87,-24.27],[120.11,-25.52],[120.64,-25.24],[121.11,-25.53],[122.31,-25.11],[123.0,-24.02],[125.49,-24.45],[126.04,-24.13],[127.55,-24.58],[127.51,-25.79],[129.01,-26.48],[129.24,-27.04],[130.48,-27.39],[131.07,-27.04],[133.1,-27.19],[133.08,-26.56],[133.74,-25.96],[133.12,-25.07],[135.19,-24.3],[135.48,-24.86],[135.19,-25.8],[135.81,-26.06],[135.96,-27.11],[136.59,-27.37],[136.95,-28.6],[137.88,-27.9],[137.83,-27.25],[138.55,-27.27],[138.82,-26.31],[138.25,-24.94],[138.83,-23.68],[137.95,-23.51],[137.22,-22.87],[137.53,-22.56],[138.83,-22.81],[138.28,-22.34],[138.72,-20.71],[138.37,-19.56],[139.33,-19.25],[140.06,-19.85],[140.31,-20.62],[141.62,-20.84],[142.6,-20.51],[142.41,-18.43],[143.52,-17.4],[145.0,-17.73],[144.67,-18.28],[145.74,-18.54],[145.4,-19.1],[145.71,-19.86],[147.12,-20.9],[147.83,-20.87],[148.66,-21.46],[149.61,-22.94],[151.13,-23.98],[151.48,-25.02],[152.19,-25.22],[152.78,-26.42],[152.16,-27.38],[152.56,-28.18],[153.3,-28.38],[152.69,-31.28],[152.9,-31.69],[151.32,-33.49],[150.51,-33.53],[150.88,-34.61],[149.93,-35.41],[149.97,-36.85],[149.63,-37.2],[150.18,-37.26],[150.52,-36.91],[150.35,-36.24],[151.31,-35.43],[151.13,-34.76],[151.75,-34.31],[151.57,-33.64],[153.42,-31.74],[153.33,-30.31],[153.9,-29.84],[153.69,-29.44],[154.09,-28.06],[153.65,-27.51],[153.97,-26.9],[153.24,-26.71],[153.72,-24.6],[153.02,-24.41],[152.66,-23.38],[151.77,-22.79],[151.02,-23.09],[151.34,-22.5],[149.97,-20.51],[147.02,-18.94],[146.28,-16.83],[145.51,-16.26],[145.82,-14.67],[144.5,-13.69],[143.8,-13.94],[144.12,-13.4],[142.9,-10.59],[143.61,-10.33],[143.74,-9.62],[144.32,-10.07],[144.22,-9.44],[143.6,-9.23],[144.16,-8.57],[144.06,-7.94],[146.0,-8.11],[146.43,-9.28],[147.19,-9.87],[147.46,-9.54],[146.71,-8.95],[146.28,-7.78],[145.62,-7.8],[145.28,-7.25],[144.43,-7.12]],[[143.4,-12.59],[143.69,-13.34],[143.28,-14.34],[142.65,-13.08],[142.97,-12.53],[143.4,-12.59]],[[113.46,-25.1],[113.14,-24.91],[113.5,-24.81],[113.46,-25.1]]],[[[124.01,-32.91],[123.6,-33.77],[120.34,-33.76],[120.75,-34.31],[121.74,-34.2],[121.92,-34.78],[122.89,-34.27],[123.7,-34.57],[124.42,-34.07],[124.41,-33.05],[125.07,-33.16],[125.88,-32.42],[126.71,-32.7],[128.27,-32.44],[130.03,-31.69],[130.64,-32.0],[131.71,-31.78],[132.44,-32.5],[133.06,-32.15],[132.81,-32.85],[133.63,-32.68],[134.4,-33.39],[133.96,-33.93],[134.15,-34.1],[134.99,-33.93],[135.02,-34.58],[134.66,-34.88],[135.63,-35.12],[136.58,-36.25],[137.88,-36.42],[138.62,-35.8],[139.35,-36.08],[140.1,-38.18],[140.94,-38.21],[141.33,-38.8],[141.87,-38.9],[142.55,-38.51],[142.96,-39.1],[143.51,-39.19],[144.55,-38.45],[145.84,-39.04],[145.65,-38.62],[146.07,-38.03],[145.63,-37.45],[144.25,-37.37],[143.83,-37.95],[144.0,-38.37],[143.33,-38.77],[142.92,-38.18],[140.25,-37.69],[139.86,-36.18],[141.3,-34.91],[140.99,-34.07],[139.84,-33.45],[139.55,-32.62],[138.85,-32.35],[139.27,-31.79],[138.93,-31.2],[139.27,-30.88],[139.14,-30.47],[138.52,-30.86],[138.37,-32.24],[137.38,-32.94],[137.05,-32.34],[135.11,-32.8],[132.96,-31.74],[132.34,-32.08],[132.06,-31.5],[131.17,-31.25],[130.56,-31.59],[129.95,-31.28],[128.9,-31.48],[128.46,-31.99],[126.65,-32.3],[125.82,-32.02],[125.02,-32.76],[123.96,-32.51],[124.01,-32.91]],[[137.21,-34.32],[137.34,-34.74],[137.06,-34.8],[136.36,-34.51],[137.08,-33.9],[137.21,-34.32]]],[[[126.7,-1.55],[126.02,-1.8],[123.93,-1.42],[123.63,-0.62],[122.8,-0.47],[122.47,0.09],[122.72,0.42],[124.15,0.04],[125.59,1.06],[125.97,3.54],[125.62,4.11],[125.93,4.7],[125.08,4.83],[125.39,4.02],[125.13,2.28],[124.33,1.27],[123.43,0.93],[121.79,1.21],[121.05,1.83],[119.68,0.83],[119.69,-0.52],[118.98,-1.25],[119.1,-1.88],[118.64,-2.27],[118.51,-3.21],[119.37,-4.23],[118.74,-4.46],[119.27,-4.93],[119.0,-5.47],[119.72,-6.1],[120.36,-5.88],[120.08,-6.42],[120.37,-7.2],[121.32,-7.76],[121.45,-6.83],[120.57,-5.8],[120.86,-5.26],[120.53,-4.71],[120.66,-3.76],[121.06,-3.84],[121.63,-5.66],[122.43,-5.82],[122.77,-6.38],[122.87,-5.67],[123.51,-5.67],[123.84,-6.23],[124.59,-5.52],[124.44,-5.12],[123.76,-5.36],[123.61,-3.6],[122.45,-2.89],[122.15,-2.09],[122.44,-1.52],[122.85,-1.6],[123.15,-2.4],[123.97,-2.55],[125.56,-1.97],[125.9,-2.54],[126.82,-2.2],[126.7,-1.55]],[[120.49,-0.67],[120.12,-0.36],[120.62,0.29],[121.43,0.15],[121.55,-0.49],[121.04,-1.14],[120.49,-0.67]]],[[[167.52,8.57],[168.15,9.03],[167.54,9.68],[166.61,9.54],[167.52,8.57]]],[[[45.77,-15.67],[44.07,-16.04],[44.16,-17.12],[43.5,-17.7],[44.11,-19.98],[42.86,-22.21],[43.03,-23.03],[43.63,-23.33],[43.21,-23.85],[43.38,-24.67],[44.08,-25.36],[44.76,-25.41],[45.02,-25.97],[46.79,-25.54],[47.44,-24.95],[47.43,-24.32],[48.07,-23.74],[47.81,-23.17],[48.99,-19.46],[49.53,-19.11],[49.81,-18.18],[49.63,-17.37],[50.73,-15.81],[50.0,-12.55],[49.37,-11.84],[48.45,-12.04],[48.47,-12.68],[47.63,-13.3],[47.43,-14.65],[46.49,-15.51],[45.77,-15.67]],[[46.09,-24.24],[45.09,-24.48],[44.73,-23.5],[43.88,-23.27],[43.71,-22.45],[44.38,-21.87],[44.37,-21.22],[44.95,-20.87],[44.94,-20.22],[45.6,-20.29],[45.59,-19.64],[45.01,-19.34],[45.42,-18.81],[45.07,-17.8],[45.72,-17.22],[46.29,-17.52],[45.65,-18.1],[45.66,-18.76],[46.24,-19.06],[46.42,-19.88],[47.65,-20.23],[47.42,-20.93],[47.98,-20.57],[47.87,-19.53],[48.68,-19.75],[48.38,-20.68],[47.83,-21.04],[47.07,-23.36],[47.26,-24.16],[46.68,-24.51],[46.42,-23.94],[46.09,-24.24]]],[[[37.97,-46.58],[37.15,-47.02],[38.15,-47.17],[37.97,-46.58]]],[[[157.43,-7.28],[157.0,-6.39],[156.01,-6.37],[154.43,-5.05],[154.91,-6.82],[155.48,-7.02],[155.17,-7.57],[156.65,-7.18],[156.39,-8.57],[156.86,-8.16],[157.28,-9.03],[158.26,-9.03],[158.56,-8.49],[157.12,-7.83],[157.38,-7.51],[158.15,-7.61],[158.44,-8.12],[160.05,-8.67],[159.55,-9.3],[159.73,-9.84],[160.75,-10.02],[160.98,-9.29],[161.55,-10.92],[162.78,-10.99],[162.17,-10.64],[162.38,-10.12],[161.77,-9.97],[161.99,-9.46],[161.19,-8.99],[160.64,-7.58],[160.42,-8.71],[159.16,-7.39],[157.43,-7.28]]],[[[166.98,-14.9],[166.34,-14.55],[166.37,-15.45],[167.46,-16.27],[167.43,-15.59],[167.85,-15.6],[168.35,-17.2],[167.96,-17.88],[168.82,-17.89],[168.73,-16.29],[168.28,-15.83],[168.46,-15.28],[168.02,-14.82],[167.63,-15.26],[166.98,-14.9]]],[[[169.58,6.36],[169.27,6.14],[170.01,5.9],[169.58,6.36]]],[[[-24.59,14.49],[-23.29,14.59],[-22.91,15.31],[-23.38,15.74],[-24.22,15.21],[-24.88,15.28],[-25.07,14.91],[-24.59,14.49]]],[[[72.96,11.02],[73.15,11.61],[72.77,12.08],[72.77,11.37],[72.19,11.25],[72.0,10.66],[72.96,11.02]]],[[[-126.14,72.37],[-126.5,72.16],[-126.13,71.95],[-125.05,72.17],[-126.14,72.37]]],[[[-124.16,69.88],[-124.44,70.5],[-125.11,70.51],[-125.46,69.88],[-127.4,69.88],[-125.47,69.47],[-124.16,69.88]]],[[[150.22,-17.28],[150.73,-16.86],[150.56,-16.49],[150.05,-16.91],[150.22,-17.28]]],[[[173.53,0.49],[173.24,0.3],[173.7,0.06],[174.29,0.44],[173.53,0.49]]],[[[-158.95,3.6],[-159.0,4.25],[-159.8,3.92],[-159.34,3.43],[-158.95,3.6]]],[[[-14.54,-8.26],[-14.16,-8.14],[-14.16,-7.6],[-14.54,-7.72],[-14.54,-8.26]]],[[[160.3,-81.3],[162.03,-80.78],[159.9,-80.32],[160.89,-80.17],[160.54,-79.96],[161.47,-79.81],[161.13,-79.6],[158.95,-79.71],[159.25,-79.91],[158.27,-80.06],[158.57,-80.27],[157.54,-80.41],[159.56,-80.89],[158.47,-81.04],[158.81,-81.25],[160.3,-81.3]]],[[[144.56,13.2],[145.24,13.19],[145.23,14.33],[144.41,13.61],[144.56,13.2]]],[[[-13.9,29.28],[-14.92,28.02],[-16.14,28.9],[-17.14,28.38],[-17.9,29.25],[-18.39,28.73],[-18.13,28.35],[-18.37,27.72],[-17.86,27.22],[-17.63,28.11],[-17.13,27.62],[-16.15,28.14],[-15.66,27.64],[-14.19,27.65],[-13.18,28.89],[-13.4,29.52],[-13.9,29.28]]],[[[132.15,-3.28],[132.58,-3.36],[132.85,-4.43],[133.48,-4.66],[133.89,-3.59],[133.58,-2.77],[134.1,-2.34],[135.47,-3.48],[136.43,-3.13],[136.32,-2.47],[137.28,-2.12],[137.92,-2.36],[138.44,-1.93],[139.32,-2.08],[139.66,-2.66],[141.84,-3.03],[142.13,-2.69],[140.82,-2.47],[140.47,-1.89],[139.95,-2.32],[139.6,-1.74],[138.48,-1.68],[138.13,-1.1],[137.17,-1.46],[136.23,-0.39],[135.35,-0.24],[134.55,-1.0],[134.19,-0.43],[131.34,-0.06],[131.55,1.19],[130.88,1.18],[130.71,0.18],[130.13,0.66],[129.18,0.31],[128.8,2.05],[129.11,2.64],[128.49,2.87],[127.28,2.17],[127.28,0.77],[126.74,0.1],[127.24,-0.88],[126.93,-1.46],[127.28,-2.03],[128.13,-2.18],[129.34,-1.51],[130.11,-2.16],[130.23,-2.81],[129.65,-2.33],[129.14,-2.75],[128.09,-2.43],[127.32,-3.17],[126.06,-2.94],[125.75,-3.51],[126.86,-3.34],[127.01,-3.75],[126.32,-3.99],[126.94,-4.23],[127.7,-3.5],[128.05,-4.06],[129.25,-3.4],[130.11,-3.55],[130.46,-4.12],[131.32,-4.28],[131.74,-5.74],[132.95,-6.46],[133.64,-5.07],[132.49,-5.25],[132.18,-4.43],[130.97,-3.71],[131.29,-3.13],[130.66,-2.89],[131.49,-1.89],[131.52,-3.04],[132.15,-3.28]],[[129.14,0.06],[129.49,-0.51],[128.95,-1.18],[129.07,-0.44],[128.21,-0.29],[128.05,0.12],[129.14,0.06]],[[135.32,-3.07],[135.45,-2.32],[134.81,-2.08],[135.1,-1.75],[136.17,-2.06],[135.32,-3.07]],[[131.61,-1.14],[132.17,-0.46],[133.91,-0.77],[134.26,-1.34],[133.7,-2.02],[131.61,-1.14]]],[[[146.25,-4.39],[145.59,-4.41],[144.82,-3.78],[144.53,-2.96],[143.67,-2.82],[142.23,-3.35],[143.53,-3.56],[143.68,-3.97],[141.51,-3.61],[141.23,-3.95],[142.01,-4.59],[142.53,-4.16],[143.31,-4.8],[144.6,-5.01],[144.97,-4.18],[146.6,-6.08],[147.86,-6.28],[147.59,-6.61],[146.74,-6.48],[146.98,-7.51],[148.15,-8.18],[148.39,-9.19],[149.55,-9.83],[149.27,-10.15],[147.84,-9.84],[147.56,-10.16],[149.64,-10.44],[149.97,-10.96],[151.2,-11.12],[152.1,-10.76],[152.14,-11.59],[152.64,-11.17],[153.35,-11.73],[154.39,-11.72],[154.5,-11.04],[153.61,-11.41],[153.17,-10.53],[152.14,-10.52],[151.42,-9.96],[151.15,-8.11],[150.51,-8.14],[150.74,-9.15],[149.82,-9.5],[149.5,-8.98],[148.67,-8.86],[148.43,-7.85],[147.26,-7.18],[147.96,-6.91],[148.38,-5.86],[148.7,-6.4],[150.37,-6.65],[151.28,-6.29],[151.6,-5.72],[152.24,-5.7],[152.42,-4.74],[153.18,-5.1],[154.04,-3.88],[153.19,-3.99],[153.32,-3.27],[152.65,-3.53],[152.83,-2.56],[152.24,-2.34],[151.74,-2.76],[150.91,-2.62],[150.17,-1.99],[150.08,-1.34],[149.48,-1.11],[149.34,-1.85],[149.94,-2.08],[149.62,-2.66],[150.45,-2.8],[150.78,-3.35],[151.28,-2.93],[152.01,-3.55],[151.46,-4.21],[151.56,-4.85],[150.64,-5.21],[150.32,-4.66],[149.54,-5.41],[147.25,-4.93],[146.73,-5.35],[146.12,-5.13],[146.25,-4.39]],[[150.46,-6.17],[149.81,-6.2],[149.68,-5.8],[151.46,-5.33],[150.46,-6.17]]],[[[90.4,-66.67],[85.43,-66.58],[84.3,-67.07],[83.19,-67.05],[82.55,-67.66],[79.7,-67.69],[76.83,-69.3],[73.06,-69.53],[71.43,-70.14],[71.62,-70.79],[70.75,-71.09],[71.29,-71.27],[71.11,-71.51],[68.52,-72.14],[67.99,-71.96],[68.94,-71.68],[69.14,-71.44],[68.62,-71.26],[69.71,-70.74],[68.9,-70.15],[70.58,-69.56],[70.75,-69.32],[70.26,-69.14],[71.22,-68.6],[69.66,-68.31],[70.59,-67.77],[69.1,-67.48],[67.71,-67.83],[64.27,-67.23],[62.86,-67.54],[60.58,-67.02],[59.17,-67.29],[58.25,-67.11],[57.86,-66.49],[53.66,-65.54],[48.11,-66.7],[47.79,-66.9],[48.01,-67.11],[48.79,-67.34],[48.47,-67.53],[46.37,-67.05],[45.86,-67.61],[41.04,-68.25],[40.31,-68.77],[39.23,-68.84],[39.06,-69.44],[38.57,-69.58],[35.67,-69.59],[34.14,-68.7],[32.44,-68.62],[31.92,-68.75],[32.66,-69.32],[32.19,-69.69],[32.9,-70.03],[29.31,-70.07],[28.15,-70.54],[25.68,-70.03],[25.06,-70.38],[26.91,-70.53],[26.3,-70.88],[21.35,-70.25],[19.97,-70.68],[18.9,-70.13],[17.46,-70.54],[16.04,-69.57],[15.25,-69.88],[15.79,-70.05],[15.66,-70.29],[12.53,-70.14],[10.53,-70.97],[14.53,-71.08],[16.08,-70.69],[18.61,-70.85],[19.72,-71.4],[27.62,-71.62],[32.42,-70.39],[34.28,-70.47],[35.26,-69.96],[39.86,-70.58],[40.67,-70.05],[40.5,-69.82],[40.97,-69.67],[41.09,-69.07],[43.23,-68.91],[43.88,-68.38],[48.16,-68.75],[50.02,-68.39],[50.35,-68.19],[50.09,-67.98],[51.31,-67.59],[53.62,-67.6],[55.71,-68.21],[58.06,-67.74],[61.32,-68.47],[62.79,-68.18],[63.36,-68.79],[65.47,-69.09],[65.48,-69.74],[65.93,-69.93],[65.71,-70.16],[66.18,-70.35],[65.96,-70.58],[66.69,-71.18],[64.78,-71.72],[64.53,-71.94],[65.02,-72.13],[64.77,-72.36],[63.74,-72.62],[64.48,-73.23],[64.21,-73.45],[64.74,-73.64],[64.46,-73.86],[65.0,-74.05],[64.72,-74.28],[66.13,-74.43],[69.35,-73.61],[69.56,-73.38],[68.99,-73.2],[69.2,-72.97],[71.34,-73.03],[73.22,-72.43],[73.38,-72.19],[72.8,-72.02],[73.68,-71.72],[73.41,-71.07],[75.06,-70.44],[76.98,-70.43],[77.84,-69.86],[79.72,-69.82],[81.17,-68.88],[82.98,-68.81],[85.39,-68.09],[88.32,-68.22],[91.08,-67.29],[97.84,-66.97],[100.33,-67.3],[100.82,-67.12],[100.67,-66.88],[102.24,-66.6],[102.08,-66.35],[102.53,-66.17],[105.19,-66.67],[106.89,-66.59],[108.82,-67.4],[111.45,-67.55],[111.85,-67.35],[111.6,-67.12],[112.27,-66.04],[114.04,-66.55],[113.55,-67.2],[112.51,-67.38],[113.71,-67.87],[115.8,-67.49],[119.42,-67.74],[121.69,-67.07],[126.14,-66.94],[128.54,-67.48],[130.03,-67.16],[130.26,-66.93],[129.87,-66.74],[130.91,-66.22],[130.52,-66.03],[129.1,-66.35],[129.02,-67.01],[127.4,-66.88],[127.03,-66.68],[127.28,-66.45],[125.95,-66.07],[124.18,-66.57],[122.59,-66.4],[121.36,-66.85],[119.77,-66.65],[118.47,-67.08],[115.88,-67.05],[115.67,-66.38],[112.4,-65.6],[110.41,-65.94],[109.84,-66.58],[108.16,-66.69],[107.11,-66.16],[105.44,-66.24],[103.87,-65.63],[103.7,-65.38],[104.13,-65.2],[103.38,-64.89],[100.3,-65.21],[99.17,-66.22],[96.79,-65.88],[95.91,-66.45],[90.4,-66.67]],[[102.38,-65.93],[101.62,-65.61],[102.67,-65.5],[102.82,-65.75],[102.38,-65.93]],[[54.48,-66.56],[54.78,-67.18],[54.49,-67.39],[53.63,-67.19],[53.92,-66.98],[53.64,-66.78],[54.48,-66.56]]],[[[-145.72,-15.15],[-145.89,-15.76],[-146.59,-14.86],[-148.36,-14.67],[-148.91,-15.04],[-148.47,-15.93],[-148.03,-15.34],[-147.01,-15.44],[-146.57,-16.33],[-145.55,-16.43],[-145.46,-17.07],[-145.88,-17.66],[-145.23,-17.51],[-145.06,-16.89],[-144.32,-17.37],[-143.91,-16.78],[-142.92,-17.28],[-142.75,-16.25],[-142.01,-16.3],[-142.36,-15.66],[-143.12,-16.01],[-143.27,-16.62],[-144.01,-16.14],[-144.65,-16.3],[-144.35,-15.49],[-144.99,-15.64],[-145.72,-15.15]]],[[[139.83,38.22],[139.89,39.16],[140.64,39.48],[139.96,40.34],[139.45,39.89],[139.65,39.29],[139.13,38.6],[138.42,38.51],[137.93,37.83],[138.14,37.24],[138.82,37.09],[139.83,38.22]]],[[[133.97,-7.02],[134.56,-7.5],[135.08,-7.09],[135.25,-6.11],[134.74,-5.14],[134.07,-5.15],[133.97,-7.02]]],[[[15.46,80.04],[8.74,79.83],[10.72,79.34],[9.38,78.83],[10.85,78.55],[11.15,78.33],[10.36,78.19],[10.66,77.98],[13.57,77.97],[13.81,77.75],[13.03,77.62],[13.27,77.4],[15.44,77.02],[15.63,76.81],[14.88,76.68],[15.99,76.38],[18.41,76.53],[17.18,77.06],[19.38,77.85],[22.46,77.09],[25.11,77.17],[24.12,77.74],[25.02,78.06],[21.74,79.09],[25.97,79.06],[24.95,78.73],[25.98,78.38],[30.11,78.75],[31.41,79.28],[27.04,79.16],[29.46,80.02],[23.36,80.9],[19.62,80.78],[19.78,80.55],[17.34,80.53],[15.46,80.04]]],[[[-21.86,70.77],[-23.53,70.94],[-24.18,70.6],[-22.52,70.44],[-21.86,70.77]]],[[[162.9,-77.42],[163.61,-77.26],[163.42,-77.03],[161.82,-77.12],[162.9,-77.42]]],[[[-96.47,69.19],[-95.89,69.58],[-97.12,69.55],[-96.47,69.19]]],[[[127.82,-5.52],[127.9,-5.04],[127.4,-5.44],[127.55,-5.84],[127.82,-5.52]]],[[[-13.32,64.98],[-13.53,65.34],[-12.93,65.64],[-14.11,65.86],[-14.59,66.59],[-16.35,66.72],[-21.25,65.8],[-22.42,66.65],[-23.49,65.97],[-22.15,65.82],[-23.19,65.14],[-22.46,64.43],[-23.0,63.86],[-21.33,63.82],[-20.63,63.34],[-18.23,63.24],[-16.48,63.6],[-15.84,64.14],[-14.59,64.16],[-13.32,64.98]],[[-19.09,64.32],[-21.15,64.51],[-19.0,65.82],[-16.6,65.23],[-16.08,64.5],[-16.64,64.19],[-18.26,64.28],[-19.31,63.63],[-19.61,63.99],[-19.09,64.32]]],[[[94.34,6.8],[94.16,7.46],[93.5,7.63],[94.02,8.63],[93.32,8.29],[92.9,8.83],[93.17,9.46],[92.72,9.49],[92.45,8.86],[93.64,6.46],[94.34,6.8]]],[[[142.4,26.73],[142.0,27.03],[142.31,26.3],[142.4,26.73]]],[[[174.16,52.8],[172.62,53.32],[172.06,53.08],[172.4,52.49],[173.68,52.16],[174.24,52.4],[174.16,52.8]]],[[[51.03,-9.76],[51.37,-9.26],[50.63,-9.0],[50.65,-9.63],[51.03,-9.76]]],[[[52.09,12.43],[52.06,12.07],[52.54,11.91],[52.58,12.28],[52.09,12.43]]],[[[169.67,10.55],[169.73,10.18],[170.35,10.09],[170.29,10.45],[169.67,10.55]]],[[[148.2,-41.67],[147.83,-42.01],[148.04,-42.42],[146.59,-43.5],[145.53,-42.84],[144.75,-41.19],[145.75,-40.7],[143.69,-39.61],[143.81,-40.27],[144.62,-40.53],[144.18,-41.1],[145.15,-43.17],[146.2,-43.83],[147.72,-43.9],[148.48,-43.23],[148.26,-42.82],[148.68,-42.24],[148.2,-41.67]]],[[[146.08,17.54],[145.98,18.17],[145.53,18.26],[145.79,17.22],[146.23,17.13],[146.08,17.54]]],[[[180.0,-16.11],[178.64,-16.35],[178.36,-17.11],[177.8,-17.36],[177.49,-16.64],[176.82,-17.48],[177.27,-17.83],[178.43,-17.55],[178.72,-18.06],[179.58,-18.32],[179.61,-17.26],[178.82,-17.46],[178.57,-17.17],[178.89,-16.64],[180.0,-17.17],[180.0,-16.11]]],[[[-180.0,-17.17],[-179.42,-16.9],[-180.0,-16.11],[-180.0,-17.17]]],[[[166.69,-82.63],[163.74,-82.18],[157.81,-82.4],[166.69,-82.63]]],[[[-151.75,-17.27],[-150.66,-16.97],[-150.62,-16.54],[-152.43,-16.33],[-152.49,-16.75],[-151.81,-16.62],[-151.75,-17.27]]],[[[-138.82,-9.42],[-139.5,-9.74],[-139.39,-10.32],[-138.82,-10.18],[-138.82,-9.42]]],[[[152.34,-22.1],[153.0,-22.54],[152.61,-21.76],[152.34,-22.1]]],[[[134.43,7.74],[133.91,7.3],[134.22,6.47],[135.03,7.25],[135.2,8.26],[134.76,8.33],[134.43,7.74]]],[[[-118.32,34.02],[-120.03,34.43],[-120.44,34.97],[-120.95,34.87],[-119.84,33.71],[-118.55,33.85],[-118.8,32.78],[-118.14,33.29],[-117.46,32.66],[-116.95,32.75],[-118.32,34.02]]],[[[161.17,10.17],[160.75,10.04],[161.03,9.49],[161.17,10.17]]],[[[168.58,8.0],[168.13,8.48],[167.89,7.9],[169.09,7.17],[169.1,7.71],[168.58,8.0]]],[[[77.56,-37.85],[78.07,-38.12],[77.61,-37.37],[77.3,-37.72],[77.56,-37.85]]],[[[-89.73,65.91],[-90.32,65.54],[-89.26,65.51],[-89.73,65.91]]],[[[172.75,2.11],[172.85,0.71],[173.19,0.6],[173.44,1.88],[172.75,2.11]]],[[[169.87,-73.18],[169.65,-72.97],[170.1,-72.8],[169.21,-72.53],[168.49,-73.08],[169.87,-73.18]]],[[[-146.45,-14.66],[-145.81,-14.52],[-145.78,-14.11],[-146.42,-14.25],[-146.45,-14.66]]],[[[130.52,-7.77],[130.59,-8.64],[131.53,-8.32],[132.36,-7.36],[132.25,-6.71],[131.38,-6.56],[130.52,-7.77]]],[[[88.38,28.97],[89.33,28.97],[89.59,29.31],[87.94,29.43],[87.68,29.09],[88.38,28.97]]],[[[170.52,-83.65],[171.74,-83.46],[170.86,-83.26],[167.58,-83.43],[170.52,-83.65]]],[[[-171.55,-13.75],[-172.13,-13.2],[-172.94,-13.45],[-172.31,-14.22],[-171.6,-14.37],[-171.19,-14.25],[-171.55,-13.75]]],[[[43.13,-11.38],[43.38,-12.65],[44.35,-12.46],[45.01,-13.21],[45.56,-12.87],[44.59,-11.75],[44.03,-12.08],[43.13,-11.38]]],[[[-89.47,64.24],[-89.03,63.84],[-88.46,64.21],[-89.47,64.24]]],[[[53.45,12.13],[54.63,12.18],[54.71,12.89],[53.34,12.85],[52.86,12.11],[53.45,12.13]]],[[[159.35,-69.42],[158.3,-69.46],[158.94,-69.79],[159.35,-69.42]]],[[[51.27,-10.34],[51.4,-9.89],[50.83,-10.44],[51.27,-10.34]]],[[[153.07,6.62],[152.94,7.02],[152.11,7.2],[151.83,8.02],[151.32,7.62],[152.02,6.71],[153.07,6.62]]],[[[180.0,71.66],[178.26,71.46],[177.81,70.81],[180.0,70.79],[180.0,71.66]]],[[[-180.0,70.79],[-177.63,70.73],[-177.03,71.37],[-179.27,71.87],[-180.0,71.66],[-180.0,70.79]]],[[[80.42,77.52],[82.45,77.03],[84.31,77.78],[81.3,77.9],[80.34,77.77],[80.42,77.52]]],[[[68.91,-48.25],[68.19,-49.22],[68.49,-49.98],[70.73,-49.9],[70.56,-49.52],[71.07,-48.98],[69.3,-48.77],[68.91,-48.25]]],[[[-157.18,20.44],[-156.37,20.36],[-156.48,19.49],[-156.06,18.56],[-154.77,19.09],[-154.76,20.19],[-155.83,20.31],[-155.89,20.97],[-156.64,21.49],[-157.72,21.59],[-157.78,22.25],[-158.68,21.45],[-158.2,20.97],[-157.5,21.13],[-157.18,20.44]],[[-155.68,19.41],[-155.89,19.87],[-155.19,20.02],[-155.3,19.15],[-155.68,19.41]]],[[[73.67,-0.3],[73.88,0.25],[73.32,1.1],[72.73,0.35],[73.29,-0.04],[72.77,-0.84],[73.58,-0.94],[73.67,-0.3]]],[[[136.36,74.1],[137.1,74.26],[136.97,74.51],[136.07,74.61],[134.76,74.03],[135.78,73.68],[136.5,73.85],[136.36,74.1]]],[[[-121.79,35.93],[-120.8,35.28],[-120.64,35.69],[-121.64,36.34],[-121.56,36.98],[-122.2,37.33],[-122.13,37.96],[-123.51,38.86],[-123.44,39.49],[-123.73,39.54],[-124.02,38.74],[-123.36,38.41],[-123.43,37.78],[-122.64,37.85],[-122.71,37.21],[-122.06,36.87],[-122.21,36.46],[-121.79,35.93]]],[[[72.72,-7.45],[72.13,-7.02],[72.46,-7.77],[72.72,-7.45]]],[[[-117.5,72.45],[-117.02,72.65],[-117.3,72.87],[-118.08,72.9],[-119.77,72.52],[-117.5,72.45]]],[[[126.32,1.57],[126.2,0.83],[126.74,1.5],[126.32,1.57]]],[[[146.38,-2.5],[146.29,-3.0],[148.41,-2.2],[147.56,-2.06],[147.23,-1.49],[146.28,-1.85],[146.38,-2.5]]],[[[-112.04,68.25],[-109.25,68.43],[-109.1,68.19],[-109.56,68.01],[-112.29,67.83],[-113.28,68.35],[-112.6,68.95],[-112.79,69.19],[-114.3,69.51],[-114.95,68.9],[-113.91,68.4],[-115.36,68.07],[-114.34,67.56],[-111.94,67.36],[-110.46,67.66],[-107.32,67.08],[-106.86,67.25],[-106.99,67.5],[-107.73,67.81],[-107.25,67.98],[-104.82,67.67],[-103.21,67.91],[-104.65,68.57],[-104.35,69.22],[-106.94,69.53],[-107.81,68.95],[-111.77,68.66],[-112.22,68.48],[-112.04,68.25]]],[[[141.22,25.58],[140.92,25.29],[141.39,24.17],[141.84,24.1],[141.22,25.58]]],[[[-25.35,37.66],[-25.12,38.06],[-25.41,38.17],[-25.68,38.02],[-25.35,37.66]]],[[[-36.46,-54.32],[-36.8,-53.98],[-37.87,-54.06],[-36.49,-54.77],[-36.12,-54.66],[-36.46,-54.32]]],[[[129.55,-8.32],[130.25,-8.08],[130.13,-7.45],[129.51,-7.21],[130.33,-6.24],[130.18,-5.84],[129.13,-6.89],[129.55,-8.32]]],[[[-17.7,32.69],[-16.65,32.19],[-15.87,33.34],[-16.65,32.96],[-17.44,33.08],[-17.7,32.69]]],[[[72.99,-52.82],[73.43,-53.61],[74.34,-52.95],[72.99,-52.82]]],[[[5.71,-1.64],[6.02,-1.4],[5.37,-1.1],[5.71,-1.64]]],[[[-170.99,-10.95],[-171.45,-10.86],[-170.87,-11.39],[-170.99,-10.95]]],[[[-87.7,65.34],[-87.27,64.93],[-86.65,65.29],[-87.7,65.34]]],[[[-162.1,5.94],[-162.41,6.62],[-162.59,6.0],[-161.9,5.48],[-162.1,5.94]]],[[[-122.65,48.66],[-122.48,49.02],[-123.63,49.53],[-124.03,49.01],[-123.54,48.58],[-124.35,48.29],[-122.98,47.94],[-122.34,47.08],[-121.93,47.61],[-122.73,48.1],[-122.65,48.66]]],[[[93.33,15.24],[93.52,14.59],[92.27,12.99],[92.45,12.34],[91.97,11.85],[91.9,10.83],[92.32,10.29],[93.0,10.37],[92.82,11.03],[93.58,12.14],[94.27,12.23],[94.07,12.63],[93.16,12.68],[93.23,13.71],[93.99,14.82],[93.33,15.24]]],[[[-119.9,72.11],[-120.64,72.12],[-121.17,71.5],[-124.38,71.33],[-123.04,70.91],[-120.16,71.27],[-119.6,71.89],[-119.9,72.11]]],[[[166.52,-13.56],[166.92,-13.13],[166.7,-12.8],[166.3,-13.22],[166.52,-13.56]]],[[[-83.89,65.53],[-83.21,65.88],[-83.69,66.04],[-85.44,65.75],[-83.89,65.53]]],[[[171.06,8.71],[170.65,8.29],[171.4,8.03],[171.38,8.93],[170.62,9.2],[171.06,8.71]]],[[[112.74,-5.29],[112.29,-5.73],[112.44,-6.09],[113.05,-6.0],[112.74,-5.29]]],[[[70.96,-6.16],[71.09,-6.77],[71.51,-6.82],[71.64,-5.9],[70.96,-6.16]]],[[[33.55,80.73],[30.68,80.11],[35.32,79.96],[35.55,80.19],[34.47,80.34],[34.68,80.57],[33.55,80.73]]],[[[160.07,-11.8],[160.69,-11.95],[160.91,-11.64],[160.09,-11.15],[160.07,-11.8]]],[[[152.02,8.99],[151.88,8.26],[152.43,8.9],[152.02,8.99]]],[[[118.75,-5.78],[118.46,-5.0],[117.3,-4.76],[116.86,-5.14],[117.0,-5.52],[117.45,-5.15],[117.77,-5.69],[118.22,-5.31],[118.75,-5.78]]],[[[121.34,-10.35],[121.89,-10.82],[122.39,-10.23],[121.34,-10.35]]],[[[-124.98,73.41],[-125.38,73.2],[-125.01,72.99],[-123.84,73.2],[-124.16,73.82],[-123.73,74.03],[-124.12,74.24],[-123.68,74.44],[-125.41,74.41],[-124.97,74.22],[-125.39,74.01],[-124.96,73.82],[-125.37,73.61],[-124.98,73.41]]],[[[-8.51,57.88],[-8.09,58.16],[-8.82,58.23],[-9.27,57.73],[-8.51,57.88]]],[[[18.89,74.3],[20.31,74.3],[18.55,74.92],[17.87,74.81],[18.89,74.3]]],[[[149.25,-4.62],[148.79,-4.79],[149.4,-5.01],[149.67,-4.68],[149.25,-4.62]]],[[[145.33,19.52],[145.77,19.43],[145.47,20.22],[145.33,19.52]]],[[[144.13,7.22],[144.57,7.14],[144.42,7.56],[143.74,7.55],[144.13,7.22]]],[[[169.33,9.75],[169.26,10.12],[168.64,10.22],[168.71,9.85],[169.33,9.75]]],[[[140.13,10.29],[139.44,10.28],[139.75,9.44],[140.73,9.79],[140.13,10.29]]],[[[-103.17,69.3],[-102.62,69.45],[-102.72,69.7],[-103.92,69.63],[-103.17,69.3]]],[[[-140.62,-7.7],[-141.01,-7.86],[-140.39,-8.31],[-140.62,-7.7]]],[[[158.8,-9.21],[159.43,-8.94],[158.68,-8.85],[158.8,-9.21]]],[[[155.52,7.23],[155.83,7.78],[155.03,7.96],[155.11,7.31],[155.52,7.23]]],[[[152.62,46.97],[153.36,47.39],[153.24,48.01],[153.65,48.34],[153.04,48.4],[151.43,47.09],[152.22,46.65],[152.62,46.97]]],[[[-22.31,16.16],[-22.81,17.06],[-23.26,17.03],[-22.94,15.77],[-22.31,16.16]]],[[[142.5,-1.85],[142.94,-1.92],[143.26,-1.33],[142.83,-1.26],[142.5,-1.85]]],[[[149.59,7.72],[148.88,7.47],[149.5,7.22],[149.59,7.72]]],[[[167.91,-21.52],[168.37,-21.76],[167.89,-21.04],[167.91,-21.52]]],[[[52.43,79.78],[55.77,79.98],[59.66,79.49],[60.41,79.69],[59.84,79.91],[60.63,80.11],[64.24,80.21],[65.61,80.81],[68.1,80.94],[65.59,81.47],[66.67,81.65],[66.14,81.88],[59.34,82.04],[54.22,81.67],[53.45,81.46],[54.28,81.24],[53.54,81.04],[51.16,81.24],[51.86,81.46],[50.95,81.66],[49.32,81.65],[48.68,81.43],[49.61,81.23],[49.0,81.02],[45.03,81.16],[42.64,80.68],[45.01,80.53],[46.32,79.93],[50.54,79.57],[52.43,79.78]]],[[[153.97,76.46],[153.09,76.61],[151.95,76.26],[153.97,76.46]]],[[[158.03,7.41],[157.89,6.7],[158.67,6.52],[158.59,7.16],[158.03,7.41]]],[[[165.28,11.8],[165.75,11.29],[165.59,12.04],[165.28,11.8]]],[[[-159.66,22.4],[-160.93,21.84],[-160.98,21.41],[-160.13,21.78],[-159.06,21.7],[-159.01,22.13],[-159.66,22.4]]],[[[-142.81,-17.91],[-142.45,-18.57],[-141.83,-18.82],[-142.17,-17.75],[-142.8,-17.49],[-143.32,-17.87],[-142.81,-17.91]]],[[[53.95,-5.77],[53.14,-5.14],[53.31,-5.93],[53.95,-5.77]]],[[[55.71,-3.58],[55.12,-3.6],[55.6,-4.01],[54.95,-4.24],[55.15,-4.95],[56.03,-4.63],[55.71,-3.58]]],[[[166.54,11.61],[166.15,11.17],[166.7,10.87],[167.64,11.01],[168.05,11.45],[167.5,11.75],[166.54,11.61]]],[[[149.25,76.7],[149.32,76.96],[148.36,77.1],[147.31,76.73],[149.1,76.19],[150.17,76.56],[149.25,76.7]]],[[[102.61,-5.09],[101.95,-5.17],[102.31,-5.91],[102.78,-5.46],[102.61,-5.09]]],[[[-80.89,63.87],[-80.77,64.13],[-81.21,64.29],[-81.88,63.96],[-80.89,63.87]]],[[[113.81,-28.67],[113.77,-28.99],[114.16,-28.87],[113.81,-28.67]]],[[[146.57,-68.26],[147.53,-68.78],[150.23,-68.72],[151.83,-69.09],[150.79,-68.37],[148.13,-68.44],[147.17,-67.92],[146.57,-68.26]]],[[[-122.75,44.96],[-122.43,45.71],[-122.98,45.59],[-123.22,44.62],[-122.75,44.96]]],[[[162.53,11.54],[162.04,12.03],[162.06,11.46],[162.53,11.54]]],[[[-170.0,62.62],[-168.76,62.92],[-168.53,63.32],[-170.01,64.08],[-172.72,63.65],[-171.85,63.18],[-170.45,63.28],[-170.66,62.88],[-170.0,62.62]]],[[[162.06,-70.7],[160.97,-70.76],[161.68,-71.08],[162.18,-70.93],[162.06,-70.7]]],[[[-102.52,67.57],[-95.17,67.71],[-94.61,68.09],[-96.99,68.56],[-98.08,68.02],[-102.09,67.97],[-102.52,67.57]]],[[[-140.92,-17.83],[-141.43,-18.22],[-140.68,-18.68],[-140.54,-17.65],[-140.91,-17.42],[-140.92,-17.83]]],[[[71.97,-5.12],[71.9,-5.58],[72.55,-5.55],[71.97,-5.12]]],[[[146.26,-41.03],[145.89,-41.36],[146.15,-41.53],[146.46,-41.44],[146.26,-41.03]]],[[[-28.04,38.6],[-27.81,39.01],[-28.38,38.95],[-28.57,38.29],[-28.04,38.6]]],[[[-171.24,-3.09],[-171.26,-3.47],[-170.72,-3.75],[-170.7,-3.37],[-171.24,-3.09]]],[[[180.0,52.34],[177.25,52.31],[177.13,51.69],[179.52,51.33],[180.0,52.34]]],[[[164.53,-73.75],[164.31,-74.36],[165.61,-74.27],[165.42,-74.04],[165.96,-73.89],[164.53,-73.75]]],[[[-8.44,71.32],[-9.28,71.05],[-8.27,70.94],[-8.05,71.15],[-8.44,71.32]]],[[[165.19,-21.01],[165.44,-21.86],[165.88,-21.14],[165.41,-20.65],[165.19,-21.01]]],[[[-116.08,70.05],[-113.82,70.35],[-113.79,70.99],[-116.81,70.73],[-116.88,71.37],[-119.03,71.45],[-118.89,70.81],[-117.0,70.31],[-117.59,69.7],[-116.7,69.44],[-116.64,68.79],[-116.01,68.76],[-115.39,69.36],[-116.51,69.86],[-116.08,70.05]]],[[[85.94,31.89],[88.38,31.87],[88.82,31.39],[89.38,32.08],[86.94,32.12],[85.98,32.6],[85.72,32.48],[85.94,31.89]]],[[[-140.18,62.58],[-139.95,62.24],[-139.37,62.53],[-140.18,62.58]]],[[[-180.0,-84.62],[-173.18,-84.92],[-169.81,-84.63],[-179.34,-84.21],[-180.0,-84.22],[-180.0,-84.62]]],[[[180.0,-84.22],[177.13,-84.44],[180.0,-84.62],[180.0,-84.22]]],[[[84.82,35.13],[84.32,35.87],[83.52,35.74],[83.77,35.12],[84.82,35.13]]],[[[-139.85,-9.51],[-139.39,-9.18],[-139.39,-8.6],[-140.31,-8.51],[-140.54,-9.44],[-139.85,-9.51]]],[[[91.85,-65.74],[92.92,-65.7],[92.3,-65.34],[91.85,-65.74]]],[[[-123.52,76.46],[-124.03,76.25],[-123.56,76.05],[-122.07,76.27],[-123.52,76.46]]],[[[-118.65,69.53],[-119.31,69.56],[-119.69,69.36],[-119.43,69.14],[-117.51,69.05],[-118.65,69.53]]],[[[-124.03,40.43],[-124.54,40.31],[-123.8,39.76],[-123.66,40.16],[-124.03,40.43]]],[[[147.2,-40.77],[146.84,-41.11],[147.1,-41.27],[147.41,-41.18],[147.2,-40.77]]],[[[-150.67,-9.88],[-150.22,-10.34],[-149.83,-10.19],[-150.28,-9.73],[-150.67,-9.88]]],[[[-144.33,-15.07],[-144.65,-14.01],[-145.28,-14.16],[-145.33,-14.98],[-144.33,-15.07]]],[[[139.34,-3.25],[139.18,-2.83],[138.07,-2.77],[138.22,-3.18],[139.34,-3.25]]],[[[80.32,74.92],[77.99,74.76],[80.45,74.43],[81.2,74.56],[81.15,74.81],[80.32,74.92]]],[[[128.82,-7.45],[128.51,-6.65],[128.01,-7.04],[128.16,-7.44],[128.82,-7.45]]],[[[-105.32,71.16],[-104.04,71.25],[-104.87,71.57],[-105.46,71.4],[-105.32,71.16]]],[[[-86.44,66.05],[-85.78,66.41],[-86.87,66.46],[-86.44,66.05]]],[[[172.53,2.88],[173.18,2.97],[173.09,3.61],[172.57,3.38],[172.53,2.88]]],[[[-141.6,63.1],[-142.17,62.8],[-141.35,62.76],[-141.6,63.1]]],[[[146.3,7.98],[145.58,7.73],[146.36,7.06],[146.64,7.4],[146.3,7.98]]],[[[168.89,-19.05],[169.51,-18.7],[168.65,-18.7],[168.89,-19.05]]],[[[131.41,25.53],[131.74,26.06],[130.84,26.15],[130.96,25.58],[131.41,25.53]]],[[[126.31,4.38],[126.62,3.56],[127.05,3.49],[126.93,4.15],[127.47,4.84],[126.31,4.38]]],[[[-40.57,65.32],[-40.99,65.15],[-40.86,64.91],[-39.92,65.01],[-40.57,65.32]]],[[[-146.5,59.72],[-146.95,59.42],[-146.21,59.41],[-146.5,59.72]]],[[[-150.18,-17.45],[-150.23,-17.88],[-149.03,-17.79],[-149.47,-16.88],[-150.18,-17.45]]],[[[-77.94,63.58],[-78.63,63.26],[-77.67,63.15],[-77.53,63.4],[-77.94,63.58]]],[[[139.36,-66.45],[135.97,-65.97],[134.65,-66.33],[132.29,-65.89],[131.5,-66.18],[134.89,-66.75],[136.22,-66.39],[141.7,-67.02],[142.26,-66.93],[141.91,-66.53],[139.36,-66.45]]],[[[169.98,8.74],[170.56,9.56],[170.03,9.85],[169.71,9.62],[169.98,8.74]]],[[[168.53,54.61],[168.41,55.0],[166.61,55.22],[166.21,55.77],[165.09,55.24],[165.78,55.12],[166.2,54.57],[167.56,54.31],[168.53,54.61]]],[[[159.72,-5.47],[159.43,-4.95],[158.93,-5.59],[159.47,-5.79],[159.72,-5.47]]],[[[-174.5,-19.73],[-174.87,-20.07],[-174.2,-20.03],[-174.08,-19.62],[-174.5,-19.73]]],[[[-116.44,31.69],[-116.84,32.26],[-117.34,32.17],[-116.95,31.6],[-116.44,31.69]]],[[[-107.53,72.5],[-109.43,72.21],[-107.2,72.02],[-106.62,72.19],[-106.78,72.43],[-107.53,72.5]]],[[[51.65,-46.39],[52.09,-46.73],[52.57,-46.3],[51.65,-46.39]]],[[[-154.63,-16.91],[-154.35,-15.87],[-154.71,-15.6],[-154.99,-16.64],[-154.63,-16.91]]],[[[94.65,78.06],[94.87,78.31],[93.93,78.47],[92.6,78.13],[94.65,78.06]]],[[[4.28,39.46],[4.63,39.78],[4.47,40.17],[3.73,40.38],[2.58,40.03],[2.19,39.47],[3.08,38.88],[3.77,39.52],[4.28,39.46]]],[[[153.07,5.48],[153.66,5.23],[153.94,5.55],[153.21,6.21],[153.07,5.48]]],[[[145.95,15.7],[145.42,15.3],[145.72,14.49],[145.95,15.7]]],[[[-134.89,59.03],[-135.42,58.82],[-134.78,58.65],[-134.89,59.03]]],[[[46.68,-9.37],[46.37,-9.0],[45.98,-9.51],[46.54,-9.84],[46.68,-9.37]]],[[[-24.12,16.73],[-25.08,17.36],[-25.73,17.19],[-25.45,16.63],[-24.53,16.23],[-23.87,16.4],[-24.12,16.73]]],[[[-81.14,68.96],[-81.0,69.21],[-81.54,69.37],[-82.35,69.04],[-81.14,68.96]]],[[[110.66,-5.89],[110.5,-5.53],[109.88,-5.62],[110.04,-5.98],[110.66,-5.89]]],[[[153.91,-68.37],[152.9,-69.09],[153.97,-69.08],[154.46,-68.72],[153.91,-68.37]]],[[[-169.44,16.51],[-169.17,16.92],[-169.76,17.16],[-169.81,16.32],[-169.44,16.51]]],[[[-178.91,-18.54],[-179.05,-18.93],[-178.55,-19.29],[-178.28,-18.5],[-178.77,-18.15],[-178.91,-18.54]]],[[[114.78,-4.7],[114.1,-5.47],[114.25,-5.82],[114.84,-5.73],[114.78,-4.7]]],[[[-89.81,68.83],[-89.12,69.19],[-90.35,69.22],[-89.81,68.83]]],[[[144.43,-19.44],[143.94,-19.62],[144.28,-20.15],[144.43,-19.44]]],[[[152.01,-9.07],[153.18,-9.46],[152.91,-8.71],[151.87,-8.69],[152.01,-9.07]]],[[[-112.93,70.07],[-112.26,70.02],[-111.49,70.62],[-112.88,70.72],[-112.93,70.07]]],[[[170.82,7.24],[171.02,6.73],[172.33,7.26],[171.83,7.55],[170.82,7.24]]],[[[-141.71,-14.28],[-141.35,-14.51],[-140.85,-14.14],[-141.21,-13.91],[-141.71,-14.28]]],[[[144.7,-0.81],[144.27,-0.73],[143.65,-1.66],[145.23,-1.54],[144.7,-0.81]]],[[[-162.96,-13.49],[-163.2,-12.81],[-163.38,-13.63],[-162.96,-13.49]]],[[[57.84,-19.57],[56.98,-20.28],[57.1,-20.69],[58.1,-20.39],[57.84,-19.57]]],[[[159.95,-81.88],[162.73,-81.77],[160.7,-81.51],[159.55,-81.67],[159.95,-81.88]]],[[[165.6,10.32],[165.84,9.8],[166.46,10.27],[165.91,10.56],[165.6,10.32]]],[[[96.6,-12.46],[97.24,-12.39],[96.87,-11.7],[96.41,-12.12],[96.6,-12.46]]],[[[-157.6,2.13],[-157.65,1.7],[-157.05,1.41],[-157.0,1.83],[-157.6,2.13]]],[[[-123.21,69.66],[-122.2,69.85],[-123.16,70.07],[-123.51,69.87],[-123.21,69.66]]],[[[-93.41,69.61],[-94.03,69.73],[-94.64,69.35],[-93.41,69.36],[-93.41,69.61]]],[[[105.46,-10.13],[105.21,-10.46],[105.58,-10.92],[106.06,-10.27],[105.46,-10.13]]],[[[157.74,-69.36],[155.0,-68.83],[155.62,-69.42],[157.74,-69.36]]],[[[145.99,15.94],[146.28,16.25],[145.94,16.82],[145.36,16.19],[145.99,15.94]]],[[[-142.44,63.14],[-142.71,63.48],[-143.28,63.17],[-142.44,63.14]]],[[[-173.21,60.6],[-173.05,60.39],[-174.13,60.05],[-173.97,59.84],[-171.64,60.29],[-173.05,60.99],[-173.85,60.84],[-173.21,60.6]]],[[[55.92,-20.81],[55.06,-20.62],[55.41,-21.85],[55.98,-21.47],[55.92,-20.81]]],[[[-96.61,70.44],[-95.32,70.46],[-95.34,70.71],[-96.0,70.82],[-96.61,70.44]]],[[[144.44,-68.17],[146.19,-67.64],[144.68,-67.45],[144.36,-66.82],[143.36,-66.76],[144.12,-67.54],[143.38,-68.12],[144.44,-68.17]]],[[[-92.69,71.23],[-93.35,71.6],[-94.03,71.47],[-94.03,71.22],[-92.69,71.23]]],[[[-158.25,-8.85],[-158.07,-9.28],[-157.52,-8.96],[-158.25,-8.85]]],[[[98.76,31.71],[98.51,31.62],[98.72,31.27],[98.99,31.58],[98.76,31.71]]],[[[47.71,-10.25],[48.01,-9.97],[47.77,-9.37],[47.16,-9.93],[47.71,-10.25]]],[[[-169.76,-14.55],[-169.35,-14.42],[-169.96,-13.87],[-169.76,-14.55]]],[[[-161.3,-10.42],[-160.97,-10.67],[-160.82,-9.88],[-161.3,-10.42]]],[[[77.53,79.22],[78.58,79.36],[78.44,79.61],[77.02,79.96],[74.65,79.9],[77.53,79.22]]],[[[154.84,-2.89],[154.44,-2.83],[154.71,-3.61],[154.84,-2.89]]],[[[91.56,29.95],[91.08,29.96],[90.79,29.4],[91.27,29.39],[91.56,29.95]]],[[[13.02,36.14],[12.25,35.53],[13.14,35.72],[13.02,36.14]]],[[[-22.81,71.51],[-22.33,71.14],[-21.64,71.47],[-22.81,71.51]]],[[[-178.94,-17.25],[-179.34,-17.35],[-179.44,-17.96],[-178.63,-17.76],[-178.94,-17.25]]],[[[-124.27,41.93],[-124.49,41.75],[-124.11,41.49],[-123.97,41.88],[-124.27,41.93]]],[[[50.61,-46.09],[50.0,-46.14],[50.34,-46.68],[50.64,-46.66],[50.61,-46.09]]],[[[113.51,-28.16],[113.46,-28.47],[113.85,-28.36],[113.51,-28.16]]],[[[175.17,-1.53],[175.02,-1.11],[174.48,-1.03],[174.89,-1.71],[175.17,-1.53]]],[[[165.27,-70.49],[163.15,-70.64],[163.88,-70.94],[164.96,-70.87],[165.42,-70.71],[165.27,-70.49]]],[[[177.79,-18.63],[178.18,-18.54],[177.9,-18.03],[177.12,-18.21],[177.79,-18.63]]],[[[165.22,9.33],[165.3,8.97],[166.3,8.76],[166.22,9.11],[165.22,9.33]]],[[[171.44,6.27],[171.5,5.93],[172.53,5.89],[171.98,6.51],[171.44,6.27]]],[[[90.95,77.04],[92.27,77.64],[91.36,77.79],[87.17,77.13],[90.95,77.04]]],[[[-171.8,-9.58],[-171.52,-9.03],[-171.8,-8.77],[-172.08,-9.32],[-171.8,-9.58]]],[[[-169.78,57.36],[-170.49,57.23],[-169.96,56.99],[-169.78,57.36]]],[[[1.19,38.49],[2.02,38.76],[1.68,39.53],[1.07,39.11],[1.19,38.49]]],[[[25.15,76.73],[23.47,76.54],[26.86,76.48],[25.15,76.73]]],[[[-6.6,61.76],[-5.67,62.26],[-6.37,62.74],[-7.72,62.17],[-6.74,61.16],[-6.28,61.42],[-6.6,61.76]]],[[[168.44,14.64],[169.01,14.33],[169.34,14.57],[168.78,14.89],[168.44,14.64]]],[[[78.71,81.25],[77.43,81.1],[77.63,80.85],[80.48,80.39],[82.93,80.91],[81.47,81.27],[78.71,81.25]]],[[[9.5,-70.6],[10.42,-70.32],[9.21,-70.18],[9.0,-70.42],[9.5,-70.6]]],[[[176.0,52.67],[176.06,52.27],[176.62,52.49],[176.0,52.67]]],[[[164.97,-21.37],[164.73,-20.04],[163.83,-20.02],[164.52,-21.36],[164.97,-21.37]]],[[[122.73,-12.05],[122.88,-12.43],[123.51,-12.46],[123.36,-12.08],[122.73,-12.05]]],[[[178.04,-18.92],[178.11,-19.37],[178.69,-19.12],[178.04,-18.92]]],[[[-83.24,64.45],[-85.13,63.41],[-84.15,63.34],[-82.88,64.04],[-82.78,64.29],[-83.24,64.45]]],[[[12.37,36.67],[12.25,37.09],[11.94,37.02],[11.86,36.78],[12.37,36.67]]],[[[140.18,32.89],[139.98,33.26],[139.31,33.2],[139.51,32.83],[140.18,32.89]]],[[[-136.07,58.99],[-136.59,58.77],[-135.95,58.61],[-136.07,58.99]]],[[[-100.71,69.18],[-101.18,68.78],[-100.01,68.83],[-100.71,69.18]]],[[[-128.12,70.69],[-128.43,70.48],[-128.08,70.28],[-127.11,70.5],[-128.12,70.69]]],[[[-37.18,65.48],[-36.83,65.88],[-37.8,65.81],[-37.18,65.48]]],[[[-86.51,67.72],[-87.19,67.36],[-86.05,67.32],[-85.97,67.57],[-86.51,67.72]]]]}}]}