{"type":"FeatureCollection","features":[{"type":"Feature","properties":{},"geometry":{"type":"MultiPolygon","coordinates":[[[[51.32,37.04],[51.44,36.81],[51.73,36.77],[51.85,36.54],[52.14,36.5],[52.32,36.68],[52.62,36.64],[52.81,36.82],[53.1,36.78],[53.29,36.96],[53.59,36.92],[53.78,37.1],[54.08,37.05],[54.27,37.23],[54.17,37.47],[54.36,37.65],[54.25,37.88],[54.45,38.07],[54.34,38.3],[54.54,38.49],[54.43,38.72],[54.63,38.91],[54.94,38.86],[55.14,39.04],[55.03,39.28],[54.72,39.33],[54.61,39.56],[54.3,39.61],[54.19,39.84],[53.87,39.89],[53.76,40.12],[53.96,40.31],[53.84,40.55],[54.05,40.73],[54.37,40.69],[54.57,40.88],[54.46,41.11],[54.14,41.16],[54.02,41.39],[54.23,41.58],[54.11,41.82],[53.79,41.86],[53.67,42.1],[53.35,42.14],[53.14,41.95],[52.81,41.99],[52.69,42.23],[52.9,42.42],[52.77,42.65],[52.45,42.69],[52.32,42.93],[51.99,42.96],[51.87,43.2],[51.54,43.23],[51.41,43.46],[51.08,43.5],[50.88,43.3],[50.55,43.34],[50.41,43.57],[50.08,43.6],[49.95,43.83],[49.62,43.86],[49.48,44.09],[49.15,44.12],[49.01,44.34],[48.68,44.37],[48.54,44.6],[48.2,44.62],[48.06,44.85],[47.73,44.87],[47.58,45.09],[47.25,45.12],[47.1,45.34],[46.77,45.36],[46.62,45.58],[46.28,45.6],[46.13,45.82],[46.31,46.02],[46.16,46.25],[45.82,46.26],[45.67,46.48],[45.33,46.5],[45.17,46.71],[44.83,46.73],[44.65,46.52],[44.81,46.3],[44.63,46.1],[44.3,46.11],[44.14,46.33],[43.8,46.34],[43.64,46.55],[43.31,46.56],[43.15,46.78],[42.81,46.78],[42.65,47.0],[42.82,47.2],[42.65,47.42],[42.31,47.42],[42.14,47.63],[41.81,47.63],[41.64,47.84],[41.3,47.85],[41.13,47.64],[40.8,47.64],[40.64,47.43],[40.31,47.43],[40.13,47.63],[39.8,47.63],[39.63,47.83],[39.29,47.83],[39.14,47.62],[38.81,47.61],[38.63,47.82],[38.31,47.81],[38.16,47.6],[37.82,47.61],[37.65,47.42],[37.31,47.43],[37.15,47.24],[36.8,47.24],[36.62,47.44],[36.78,47.64],[36.6,47.84],[36.76,48.03],[36.57,48.23],[36.74,48.42],[36.55,48.62],[36.2,48.62],[36.01,48.82],[35.65,48.83],[35.46,49.02],[35.62,49.21],[35.43,49.41],[35.07,49.41],[34.88,49.61],[34.52,49.61],[34.32,49.8],[33.96,49.8],[33.76,49.99],[33.92,50.19],[33.72,50.38],[33.35,50.38],[33.15,50.57],[32.78,50.56],[32.57,50.75],[32.21,50.75],[32.0,50.94],[32.16,51.13],[31.95,51.31],[31.57,51.31],[31.41,51.12],[31.04,51.11],[30.89,50.92],[30.51,50.91],[30.36,50.71],[29.99,50.7],[29.83,50.51],[30.05,50.32],[29.9,50.12],[29.53,50.11],[29.38,49.91],[29.59,49.73],[29.44,49.53],[29.65,49.34],[29.5,49.14],[29.72,48.95],[29.57,48.75],[29.2,48.74],[29.06,48.54],[29.27,48.35],[29.12,48.14],[28.76,48.13],[28.55,48.32],[28.19,48.3],[28.04,48.09],[27.69,48.07],[27.47,48.26],[27.11,48.24],[26.89,48.42],[27.03,48.63],[26.82,48.81],[26.45,48.79],[26.23,48.97],[25.87,48.95],[25.65,49.13],[25.28,49.1],[25.06,49.28],[25.2,49.49],[24.97,49.66],[25.11,49.87],[24.88,50.05],[25.02,50.25],[24.79,50.43],[24.42,50.4],[24.19,50.57],[23.82,50.54],[23.68,50.34],[23.31,50.3],[23.08,50.48],[23.21,50.68],[22.98,50.85],[22.6,50.82],[22.47,50.61],[22.1,50.58],[21.86,50.75],[21.49,50.71],[21.36,50.5],[20.99,50.46],[20.75,50.63],[20.38,50.59],[20.14,50.76],[19.77,50.71],[19.53,50.88],[19.16,50.83],[18.91,50.99],[19.04,51.2],[18.79,51.36],[18.91,51.57],[18.67,51.73],[18.79,51.94],[19.17,51.98],[19.29,52.19],[19.04,52.35],[19.17,52.55],[18.92,52.71],[18.54,52.66],[18.29,52.82],[17.91,52.77],[17.79,52.57],[17.41,52.52],[17.16,52.67],[17.28,52.88],[17.02,53.03],[16.65,52.98],[16.39,53.13],[16.01,53.07],[15.75,53.22],[15.38,53.17],[15.11,53.31],[15.23,53.52],[14.97,53.67],[15.09,53.87],[15.47,53.92],[15.58,54.13],[15.97,54.18],[16.09,54.38],[16.47,54.44],[16.74,54.29],[17.12,54.34],[17.25,54.54],[17.63,54.59],[17.76,54.79],[18.15,54.83],[18.41,54.68],[18.28,54.48],[18.54,54.33],[18.93,54.38],[19.19,54.22],[19.58,54.27],[19.71,54.47],[20.1,54.51],[20.36,54.35],[20.75,54.39],[21.0,54.23],[21.39,54.27],[21.53,54.47],[21.92,54.5],[22.07,54.7],[22.46,54.73],[22.71,54.57],[23.1,54.6],[23.35,54.44],[23.75,54.47],[23.89,54.66],[24.29,54.69],[24.44,54.88],[24.19,55.04],[23.79,55.01],[23.64,54.82],[23.25,54.79],[23.0,54.95],[22.6,54.92],[22.35,55.08],[21.95,55.05],[21.7,55.2],[21.84,55.4],[21.58,55.55],[21.73,55.74],[21.47,55.9],[21.61,56.09],[21.35,56.24],[21.5,56.43],[21.23,56.58],[21.38,56.77],[21.79,56.8],[21.93,56.99],[21.67,57.14],[21.81,57.33],[22.23,57.36],[22.38,57.54],[22.79,57.58],[23.05,57.42],[22.9,57.24],[23.16,57.09],[23.01,56.9],[23.27,56.75],[23.68,56.78],[23.83,56.96],[24.24,56.99],[24.39,57.17],[24.81,57.19],[24.96,57.38],[24.71,57.53],[24.86,57.71],[24.61,57.87],[24.76,58.05],[24.5,58.2],[24.66,58.38],[24.4,58.53],[23.98,58.51],[23.71,58.66],[23.87,58.83],[23.6,58.98],[23.76,59.16],[24.12,59.23],[24.21,59.44],[24.57,59.51],[24.84,59.36],[25.2,59.42],[25.3,59.64],[25.03,59.79],[25.13,60.01],[25.5,60.07],[25.77,59.92],[25.67,59.7],[25.94,59.55],[26.31,59.61],[26.58,59.45],[26.95,59.51],[27.22,59.35],[27.6,59.41],[27.86,59.25],[28.24,59.31],[28.36,59.52],[28.74,59.58],[28.87,59.79],[29.26,59.85],[29.39,60.07],[29.78,60.12],[29.92,60.34],[29.65,60.5],[29.25,60.45],[28.98,60.61],[28.59,60.55],[28.32,60.71],[27.92,60.65],[27.8,60.44],[27.41,60.38],[27.14,60.53],[26.75,60.47],[26.48,60.63],[26.09,60.57],[25.98,60.35],[25.61,60.29],[25.33,60.44],[24.95,60.37],[24.86,60.16],[24.49,60.09],[24.21,60.24],[23.84,60.17],[23.57,60.32],[23.2,60.25],[22.92,60.4],[22.56,60.32],[22.28,60.47],[21.93,60.4],[21.64,60.54],[21.72,60.75],[21.44,60.89],[21.51,61.11],[21.87,61.18],[21.95,61.4],[21.66,61.54],[21.74,61.75],[21.45,61.89],[21.08,61.81],[21.01,61.6],[21.3,61.46],[21.22,61.25],[20.86,61.17],[20.79,60.95],[21.08,60.82],[21.01,60.6],[20.57,60.57],[20.29,60.7],[19.85,60.67],[19.7,60.49],[19.27,60.45],[18.98,60.59],[18.55,60.55],[18.26,60.68],[17.82,60.63],[17.68,60.46],[17.97,60.32],[18.4,60.37],[18.69,60.23],[18.55,60.06],[18.83,59.92],[18.69,59.74],[18.97,59.6],[18.83,59.43],[18.4,59.38],[18.26,59.2],[17.84,59.16],[17.7,58.97],[17.29,58.93],[17.15,58.74],[16.74,58.69],[16.6,58.51],[16.88,58.37],[16.75,58.19],[16.34,58.14],[16.21,57.95],[16.49,57.81],[16.36,57.62],[16.64,57.48],[16.51,57.29],[16.1,57.24],[15.98,57.05],[16.25,56.91],[16.13,56.72],[15.73,56.67],[15.6,56.47],[15.88,56.34],[15.75,56.14],[15.36,56.09],[15.08,56.23],[14.69,56.17],[14.42,56.31],[14.02,56.25],[13.91,56.05],[14.18,55.91],[14.06,55.72],[13.67,55.66],[13.4,55.79],[13.52,55.99],[13.24,56.13],[13.36,56.32],[13.08,56.46],[13.19,56.65],[12.92,56.78],[13.03,56.98],[12.75,57.11],[12.36,57.05],[12.07,57.17],[12.19,57.37],[11.9,57.5],[12.02,57.69],[11.73,57.81],[11.84,58.01],[11.56,58.13],[11.67,58.32],[11.38,58.44],[11.49,58.63],[11.2,58.76],[11.31,58.94],[11.02,59.06],[11.13,59.25],[10.84,59.37],[10.43,59.3],[10.32,59.12],[9.92,59.05],[9.81,58.86],[10.11,58.74],[10.51,58.81],[10.8,58.69],[10.69,58.5],[10.98,58.38],[10.87,58.19],[11.16,58.06],[11.05,57.87],[10.65,57.8],[10.36,57.93],[9.97,57.86],[9.87,57.67],[9.48,57.59],[9.37,57.4],[8.99,57.33],[8.7,57.45],[8.31,57.37],[8.22,57.18],[7.84,57.1],[7.74,56.9],[8.02,56.79],[7.93,56.59],[7.55,56.51],[7.46,56.31],[7.74,56.19],[7.65,55.99],[7.93,55.87],[7.83,55.67],[7.46,55.59],[7.37,55.39],[7.0,55.31],[6.91,55.11],[6.55,55.03],[6.27,55.15],[5.91,55.07],[5.63,55.19],[5.27,55.1],[5.19,54.9],[4.85,54.86],[4.59,55.03],[4.25,54.99],[4.17,54.79],[3.83,54.75],[3.76,54.54],[3.42,54.5],[3.15,54.67],[2.81,54.62],[2.74,54.42],[2.4,54.37],[2.13,54.53],[1.78,54.49],[1.71,54.28],[1.37,54.23],[1.1,54.39],[0.75,54.34],[0.69,54.13],[0.34,54.08],[0.06,54.24],[0.13,54.45],[-0.16,54.61],[-0.51,54.56],[-0.79,54.72],[-0.73,54.93],[-1.02,55.09],[-0.96,55.3],[-1.25,55.46],[-1.19,55.67],[-1.49,55.82],[-1.43,56.03],[-1.73,56.19],[-2.09,56.13],[-2.4,56.29],[-2.34,56.5],[-1.98,56.55],[-1.92,56.76],[-1.55,56.81],[-1.49,57.02],[-1.8,57.18],[-1.74,57.38],[-1.37,57.43],[-1.3,57.64],[-1.61,57.79],[-1.99,57.74],[-2.3,57.9],[-2.68,57.84],[-3.0,58.0],[-2.94,58.2],[-3.26,58.35],[-3.64,58.3],[-3.7,58.09],[-4.07,58.03],[-4.13,57.83],[-3.8,57.68],[-3.43,57.73],[-3.11,57.58],[-2.73,57.64],[-2.42,57.48],[-2.48,57.28],[-2.17,57.12],[-2.22,56.92],[-2.59,56.86],[-2.65,56.65],[-3.02,56.59],[-3.33,56.75],[-3.7,56.69],[-3.75,56.48],[-4.12,56.42],[-4.17,56.2],[-4.53,56.14],[-4.58,55.93],[-4.94,55.86],[-5.26,56.01],[-5.21,56.23],[-5.54,56.38],[-5.9,56.31],[-6.23,56.46],[-6.19,56.67],[-5.82,56.74],[-5.77,56.95],[-6.1,57.09],[-6.06,57.31],[-5.68,57.37],[-5.64,57.58],[-5.26,57.64],[-5.21,57.85],[-5.54,58.0],[-5.92,57.94],[-6.26,58.08],[-6.64,58.02],[-6.68,57.81],[-7.06,57.74],[-7.4,57.88],[-7.78,57.81],[-7.82,57.6],[-7.48,57.46],[-7.52,57.25],[-7.89,57.17],[-7.93,56.96],[-7.59,56.82],[-7.63,56.6],[-7.3,56.46],[-7.33,56.25],[-7.01,56.1],[-7.04,55.89],[-6.72,55.74],[-6.76,55.52],[-7.12,55.45],[-7.45,55.6],[-7.81,55.52],[-8.14,55.67],[-8.5,55.59],[-8.54,55.37],[-8.9,55.29],[-8.93,55.07],[-9.29,54.99],[-9.32,54.77],[-8.99,54.63],[-9.02,54.41],[-9.38,54.33],[-9.71,54.47],[-10.06,54.38],[-10.39,54.52],[-10.75,54.44],[-10.77,54.21],[-10.44,54.08],[-10.47,53.85],[-10.82,53.76],[-10.84,53.54],[-10.51,53.4],[-10.54,53.17],[-10.21,53.03],[-10.24,52.81],[-10.58,52.72],[-10.61,52.49],[-10.95,52.4],[-10.97,52.17],[-10.65,52.03],[-10.67,51.8],[-10.36,51.66],[-10.38,51.43],[-10.07,51.29],[-9.73,51.38],[-9.42,51.24],[-9.44,51.01],[-9.78,50.92],[-10.09,51.06],[-10.43,50.97],[-10.45,50.74],[-10.78,50.64],[-10.81,50.41],[-11.14,50.32],[-11.45,50.45],[-11.78,50.36],[-11.8,50.12],[-12.13,50.03],[-12.45,50.16],[-12.78,50.06],[-12.79,49.83],[-13.12,49.73],[-13.14,49.49],[-13.46,49.39],[-13.78,49.52],[-14.11,49.42],[-14.12,49.18],[-14.44,49.07],[-14.76,49.2],[-15.09,49.09],[-15.09,48.85],[-15.42,48.75],[-15.74,48.87],[-16.06,48.76],[-16.06,48.52],[-16.38,48.41],[-16.7,48.54],[-17.03,48.42],[-17.02,48.18],[-17.34,48.06],[-17.67,48.19],[-17.98,48.07],[-17.98,47.83],[-18.29,47.71],[-18.62,47.83],[-18.93,47.71],[-18.92,47.46],[-19.24,47.34],[-19.56,47.46],[-19.88,47.34],[-20.2,47.46],[-20.51,47.33],[-20.84,47.45],[-21.15,47.32],[-21.13,47.07],[-21.44,46.94],[-21.77,47.06],[-22.08,46.93],[-22.41,47.04],[-22.71,46.91],[-22.69,46.66],[-23.0,46.53],[-23.33,46.64],[-23.63,46.5],[-23.96,46.61],[-24.26,46.47],[-24.59,46.58],[-24.89,46.44],[-24.86,46.19],[-25.16,46.05],[-25.49,46.15],[-25.79,46.01],[-25.75,45.77],[-26.05,45.62],[-26.38,45.72],[-26.67,45.58],[-27.0,45.68],[-27.3,45.53],[-27.26,45.29],[-27.55,45.14],[-27.88,45.24],[-28.16,45.09],[-28.49,45.18],[-28.78,45.03],[-29.11,45.13],[-29.39,44.97],[-29.72,45.07],[-30.01,44.91],[-29.96,44.67],[-30.24,44.51],[-30.57,44.6],[-30.85,44.45],[-31.18,44.54],[-31.45,44.38],[-31.4,44.13],[-31.68,43.97],[-32.0,44.06],[-32.28,43.9],[-32.6,43.99],[-32.87,43.83],[-32.82,43.58],[-33.09,43.42],[-33.41,43.5],[-33.68,43.34],[-33.62,43.09],[-33.88,42.93],[-34.21,43.01],[-34.47,42.84],[-34.79,42.92],[-35.05,42.76],[-34.99,42.51],[-35.25,42.35],[-35.57,42.42],[-35.82,42.26],[-35.76,42.01],[-36.01,41.84],[-36.33,41.92],[-36.58,41.75],[-36.52,41.5],[-36.77,41.33],[-37.08,41.41],[-37.33,41.24],[-37.26,40.99],[-37.51,40.82],[-37.82,40.89],[-38.07,40.72],[-38.38,40.79],[-38.62,40.62],[-38.55,40.38],[-38.79,40.2],[-39.1,40.27],[-39.33,40.1],[-39.64,40.17],[-39.88,39.99],[-40.19,40.06],[-40.42,39.88],[-40.73,39.95],[-40.96,39.77],[-41.26,39.84],[-41.49,39.66],[-41.8,39.72],[-42.02,39.54],[-42.33,39.6],[-42.55,39.43],[-42.85,39.49],[-43.07,39.31],[-43.38,39.37],[-43.59,39.19],[-43.9,39.24],[-44.11,39.06],[-44.41,39.12],[-44.5,39.36],[-44.8,39.41],[-45.01,39.23],[-45.31,39.28],[-45.52,39.1],[-45.82,39.15],[-45.91,39.39],[-46.21,39.44],[-46.41,39.25],[-46.71,39.3],[-46.8,39.54],[-47.1,39.59],[-47.3,39.4],[-47.6,39.45],[-47.69,39.68],[-47.99,39.73],[-48.19,39.54],[-48.48,39.58],[-48.68,39.4],[-48.97,39.44],[-49.07,39.67],[-49.36,39.71],[-49.56,39.53],[-49.85,39.57],[-49.95,39.79],[-50.24,39.83],[-50.43,39.65],[-50.72,39.69],[-50.91,39.5],[-51.2,39.54],[-51.3,39.76],[-51.59,39.8],[-51.77,39.61],[-52.06,39.64],[-52.16,39.87],[-52.45,39.9],[-52.56,40.12],[-52.84,40.15],[-53.02,39.96],[-53.31,39.99],[-53.41,40.21],[-53.7,40.24],[-53.88,40.05],[-54.16,40.08],[-54.27,40.3],[-54.55,40.33],[-54.72,40.14],[-55.0,40.16],[-55.17,39.97],[-55.45,40.0],[-55.62,39.81],[-55.9,39.83],[-56.06,39.64],[-56.36,39.64],[-56.5,39.83],[-56.8,39.82],[-56.96,39.63],[-57.26,39.62],[-57.42,39.43],[-57.72,39.42],[-57.88,39.23],[-58.18,39.22],[-58.33,39.03],[-58.63,39.02],[-58.78,38.83],[-58.64,38.65],[-58.79,38.45],[-59.09,38.44],[-59.24,38.25],[-59.09,38.07],[-58.8,38.08],[-58.66,37.9],[-58.81,37.71],[-58.67,37.53],[-58.38,37.55],[-58.24,37.37],[-58.39,37.18],[-58.25,37.0],[-57.99,36.98],[-57.88,36.77],[-57.62,36.74],[-57.51,36.53],[-57.66,36.34],[-57.56,36.13],[-57.3,36.1],[-57.19,35.89],[-56.93,35.86],[-56.83,35.65],[-56.57,35.62],[-56.46,35.4],[-56.2,35.37],[-56.1,35.16],[-56.25,34.97],[-56.15,34.75],[-56.3,34.57],[-56.2,34.35],[-55.94,34.32],[-55.84,34.1],[-55.99,33.92],[-55.89,33.7],[-55.64,33.67],[-55.54,33.45],[-55.69,33.27],[-55.59,33.05],[-55.33,33.02],[-55.18,33.2],[-54.93,33.16],[-54.83,32.94],[-54.98,32.76],[-54.88,32.54],[-54.63,32.5],[-54.53,32.28],[-54.28,32.24],[-54.18,32.02],[-53.92,31.98],[-53.77,32.16],[-53.51,32.12],[-53.41,31.9],[-53.16,31.85],[-53.06,31.63],[-52.81,31.58],[-52.71,31.36],[-52.46,31.32],[-52.37,31.09],[-52.11,31.04],[-52.02,30.82],[-51.76,30.77],[-51.67,30.55],[-51.41,30.5],[-51.25,30.68],[-50.99,30.63],[-50.9,30.4],[-50.64,30.35],[-50.48,30.52],[-50.22,30.47],[-50.05,30.65],[-49.79,30.6],[-49.62,30.77],[-49.7,31.0],[-49.53,31.18],[-49.27,31.13],[-49.09,31.31],[-49.18,31.54],[-49.0,31.71],[-49.09,31.95],[-48.91,32.12],[-49.0,32.36],[-48.82,32.53],[-48.91,32.77],[-49.18,32.82],[-49.27,33.05],[-49.09,33.23],[-49.18,33.46],[-49.0,33.64],[-49.09,33.87],[-48.9,34.05],[-48.99,34.28],[-48.81,34.47],[-48.53,34.41],[-48.35,34.6],[-48.44,34.83],[-48.25,35.01],[-47.97,34.96],[-47.78,35.14],[-47.5,35.09],[-47.31,35.27],[-47.03,35.22],[-46.84,35.4],[-46.56,35.34],[-46.47,35.11],[-46.19,35.05],[-45.99,35.23],[-45.71,35.17],[-45.51,35.35],[-45.22,35.3],[-45.14,35.06],[-44.86,35.0],[-44.78,34.76],[-44.49,34.7],[-44.29,34.88],[-44.01,34.82],[-43.8,35.0],[-43.52,34.93],[-43.44,34.69],[-43.15,34.63],[-42.94,34.8],[-42.66,34.74],[-42.45,34.92],[-42.16,34.85],[-41.95,35.03],[-41.66,34.96],[-41.59,34.72],[-41.3,34.65],[-41.09,34.82],[-40.8,34.75],[-40.73,34.51],[-40.44,34.44],[-40.22,34.61],[-39.94,34.54],[-39.87,34.29],[-39.58,34.22],[-39.51,33.97],[-39.73,33.8],[-39.66,33.55],[-39.38,33.48],[-39.31,33.23],[-39.02,33.16],[-38.96,32.91],[-38.68,32.83],[-38.46,33.0],[-38.17,32.93],[-38.11,32.68],[-37.83,32.6],[-37.76,32.35],[-37.48,32.27],[-37.42,32.02],[-37.14,31.94],[-37.08,31.69],[-36.8,31.61],[-36.58,31.78],[-36.3,31.69],[-36.24,31.44],[-35.96,31.36],[-35.91,31.11],[-35.63,31.02],[-35.57,30.77],[-35.29,30.69],[-35.24,30.44],[-34.96,30.35],[-34.74,30.52],[-34.46,30.43],[-34.41,30.18],[-34.14,30.09],[-34.09,29.84],[-33.81,29.75],[-33.76,29.5],[-33.49,29.41],[-33.44,29.16],[-33.17,29.06],[-32.94,29.22],[-32.67,29.13],[-32.62,28.88],[-32.35,28.79],[-32.31,28.54],[-32.04,28.44],[-31.99,28.19],[-31.72,28.1],[-31.68,27.85],[-31.41,27.75],[-31.37,27.5],[-31.1,27.4],[-31.06,27.15],[-30.8,27.06],[-30.76,26.81],[-30.98,26.65],[-30.94,26.4],[-30.68,26.31],[-30.64,26.06],[-30.86,25.9],[-30.82,25.65],[-30.56,25.56],[-30.52,25.31],[-30.74,25.16],[-30.7,24.91],[-30.92,24.76],[-30.88,24.51],[-31.1,24.36],[-31.06,24.11],[-31.27,23.96],[-31.23,23.71],[-31.45,23.56],[-31.41,23.32],[-31.62,23.17],[-31.58,22.92],[-31.79,22.77],[-31.75,22.53],[-31.96,22.38],[-31.92,22.13],[-32.13,21.98],[-32.09,21.74],[-32.3,21.59],[-32.26,21.35],[-32.01,21.26],[-31.97,21.02],[-32.17,20.87],[-32.13,20.63],[-31.89,20.54],[-31.85,20.3],[-31.6,20.2],[-31.56,19.97],[-31.31,19.87],[-31.28,19.63],[-31.48,19.49],[-31.44,19.25],[-31.2,19.16],[-31.16,18.92],[-30.92,18.83],[-30.88,18.59],[-30.64,18.5],[-30.6,18.26],[-30.36,18.17],[-30.33,17.94],[-30.09,17.84],[-29.88,17.98],[-29.64,17.89],[-29.61,17.65],[-29.37,17.56],[-29.17,17.7],[-28.93,17.61],[-28.9,17.37],[-28.66,17.28],[-28.45,17.42],[-28.22,17.32],[-28.19,17.09],[-27.95,16.99],[-27.74,17.13],[-27.51,17.03],[-27.48,16.8],[-27.24,16.7],[-27.04,16.84],[-26.8,16.74],[-26.78,16.51],[-26.54,16.41],[-26.33,16.55],[-26.1,16.45],[-26.08,16.22],[-25.85,16.12],[-25.82,15.89],[-25.59,15.8],[-25.57,15.57],[-25.34,15.47],[-25.32,15.24],[-25.09,15.14],[-25.07,14.91],[-24.84,14.82],[-24.82,14.59],[-24.59,14.49],[-24.38,14.63],[-24.16,14.53],[-23.95,14.66],[-23.73,14.56],[-23.52,14.69],[-23.29,14.59],[-23.09,14.72],[-23.1,14.95],[-22.89,15.08],[-22.91,15.31],[-22.7,15.44],[-22.71,15.67],[-22.5,15.8],[-22.28,15.7],[-22.07,15.83],[-21.84,15.73],[-21.63,15.86],[-21.64,16.09],[-21.43,16.22],[-21.2,16.12],[-20.99,16.25],[-21.0,16.48],[-20.79,16.61],[-20.56,16.51],[-20.34,16.64],[-20.35,16.87],[-20.14,17.0],[-19.91,16.9],[-19.7,17.03],[-19.47,16.92],[-19.26,17.05],[-19.26,17.28],[-19.04,17.41],[-18.82,17.31],[-18.6,17.43],[-18.38,17.33],[-18.16,17.46],[-17.94,17.35],[-17.72,17.48],[-17.72,17.71],[-17.5,17.84],[-17.28,17.73],[-17.06,17.85],[-16.84,17.75],[-16.62,17.87],[-16.62,18.11],[-16.4,18.23],[-16.18,18.12],[-16.18,17.89],[-16.4,17.76],[-16.4,17.53],[-16.62,17.41],[-16.62,17.17],[-16.4,17.07],[-16.4,16.83],[-16.62,16.71],[-16.61,16.48],[-16.83,16.35],[-16.83,16.12],[-16.61,16.02],[-16.4,16.14],[-16.4,16.37],[-16.18,16.5],[-16.18,16.73],[-15.96,16.85],[-15.96,17.08],[-16.18,17.19],[-16.18,17.42],[-15.96,17.55],[-15.96,17.78],[-15.74,17.9],[-15.73,18.14],[-15.95,18.25],[-15.95,18.48],[-15.73,18.61],[-15.73,18.84],[-15.51,18.97],[-15.5,19.2],[-15.73,19.32],[-15.72,19.55],[-15.5,19.68],[-15.5,19.92],[-15.27,20.04],[-15.27,20.28],[-15.04,20.41],[-15.04,20.64],[-14.81,20.77],[-14.59,20.65],[-14.36,20.78],[-14.35,21.02],[-14.12,21.14],[-13.9,21.03],[-13.67,21.15],[-13.67,21.39],[-13.44,21.51],[-13.43,21.75],[-13.2,21.87],[-13.19,22.12],[-12.96,22.24],[-12.95,22.48],[-12.72,22.6],[-12.71,22.84],[-12.47,22.96],[-12.25,22.84],[-12.02,22.96],[-11.79,22.84],[-11.81,22.6],[-11.59,22.48],[-11.35,22.6],[-11.34,22.84],[-11.11,22.96],[-10.89,22.84],[-10.66,22.96],[-10.44,22.83],[-10.21,22.95],[-9.99,22.83],[-9.76,22.94],[-9.74,23.18],[-9.51,23.3],[-9.29,23.17],[-9.06,23.29],[-9.04,23.53],[-8.81,23.64],[-8.79,23.88],[-8.55,24.0],[-8.53,24.24],[-8.29,24.35],[-8.27,24.59],[-8.49,24.72],[-8.47,24.96],[-8.23,25.07],[-8.01,24.95],[-7.78,25.06],[-7.56,24.93],[-7.33,25.04],[-7.3,25.28],[-7.06,25.39],[-7.04,25.63],[-6.8,25.74],[-6.78,25.98],[-6.54,26.09],[-6.32,25.96],[-6.35,25.72],[-6.14,25.59],[-5.9,25.7],[-5.88,25.94],[-5.64,26.04],[-5.61,26.28],[-5.37,26.39],[-5.34,26.63],[-5.1,26.74],[-5.07,26.98],[-4.83,27.08],[-4.62,26.95],[-4.38,27.05],[-4.35,27.29],[-4.11,27.39],[-3.9,27.26],[-3.66,27.36],[-3.63,27.6],[-3.39,27.7],[-3.19,27.56],[-2.95,27.66],[-2.74,27.52],[-2.78,27.29],[-2.58,27.15],[-2.34,27.25],[-2.3,27.49],[-2.07,27.58],[-1.87,27.45],[-1.63,27.54],[-1.44,27.39],[-1.2,27.47],[-1.0,27.32],[-0.77,27.4],[-0.57,27.24],[-0.61,27.0],[-0.42,26.85],[-0.18,26.92],[-0.14,27.16],[-0.33,27.32],[-0.29,27.56],[-0.49,27.71],[-0.45,27.95],[-0.2,28.03],[-0.16,28.27],[0.08,28.35],[0.13,28.59],[0.37,28.67],[0.42,28.9],[0.66,28.99],[0.86,28.83],[1.11,28.91],[1.16,29.15],[1.4,29.23],[1.45,29.47],[1.7,29.55],[1.75,29.79],[2.01,29.87],[2.06,30.11],[1.85,30.27],[1.6,30.19],[1.4,30.34],[1.15,30.26],[1.1,30.02],[0.85,29.94],[0.65,30.1],[0.4,30.02],[0.2,30.17],[-0.05,30.09],[-0.25,30.24],[-0.5,30.16],[-0.54,29.92],[-0.78,29.84],[-0.98,29.99],[-1.23,29.91],[-1.43,30.05],[-1.67,29.96],[-1.88,30.1],[-1.84,30.34],[-2.04,30.48],[-2.0,30.72],[-2.21,30.86],[-2.17,31.1],[-1.92,31.2],[-1.72,31.05],[-1.47,31.15],[-1.43,31.38],[-1.18,31.48],[-1.14,31.72],[-0.89,31.81],[-0.84,32.05],[-0.6,32.13],[-0.39,31.98],[-0.14,32.07],[-0.09,32.31],[0.16,32.39],[0.36,32.24],[0.62,32.32],[0.82,32.17],[1.08,32.25],[1.13,32.49],[1.39,32.58],[1.59,32.42],[1.85,32.5],[2.06,32.35],[2.32,32.43],[2.37,32.67],[2.64,32.75],[2.84,32.59],[3.11,32.68],[3.16,32.92],[3.43,33.0],[3.64,32.84],[3.58,32.6],[3.79,32.43],[3.73,32.19],[3.47,32.11],[3.41,31.87],[3.62,31.71],[3.56,31.47],[3.3,31.39],[3.24,31.15],[3.45,30.99],[3.39,30.74],[3.13,30.67],[2.93,30.83],[2.67,30.75],[2.62,30.51],[2.82,30.34],[2.77,30.1],[2.97,29.94],[3.23,30.02],[3.43,29.86],[3.38,29.62],[3.58,29.45],[3.84,29.53],[3.89,29.77],[4.15,29.85],[4.35,29.68],[4.61,29.76],[4.82,29.59],[5.08,29.67],[5.14,29.91],[5.4,29.98],[5.61,29.81],[5.87,29.89],[6.07,29.72],[6.34,29.79],[6.4,30.03],[6.67,30.11],[6.87,29.94],[7.14,30.01],[7.21,30.25],[7.48,30.32],[7.68,30.15],[7.95,30.22],[8.02,30.46],[8.29,30.53],[8.5,30.36],[8.77,30.43],[8.84,30.67],[9.12,30.74],[9.19,30.99],[9.47,31.06],[9.54,31.3],[9.82,31.37],[9.89,31.61],[9.69,31.79],[9.76,32.03],[9.56,32.21],[9.63,32.45],[9.91,32.52],[9.99,32.76],[10.27,32.83],[10.48,32.66],[10.4,32.41],[10.61,32.23],[10.9,32.3],[11.1,32.12],[11.39,32.19],[11.59,32.01],[11.88,32.07],[12.08,31.89],[12.37,31.96],[12.45,32.2],[12.74,32.26],[12.82,32.51],[13.11,32.57],[13.32,32.39],[13.61,32.45],[13.69,32.69],[13.99,32.75],[14.19,32.57],[14.1,32.32],[14.31,32.14],[14.22,31.9],[14.42,31.71],[14.71,31.77],[14.91,31.58],[15.2,31.64],[15.4,31.45],[15.31,31.21],[15.51,31.02],[15.8,31.08],[16.0,30.89],[16.29,30.94],[16.39,31.19],[16.68,31.24],[16.88,31.05],[17.17,31.1],[17.37,30.91],[17.66,30.96],[17.86,30.77],[18.15,30.82],[18.34,30.63],[18.25,30.38],[18.44,30.19],[18.73,30.24],[18.93,30.05],[19.22,30.09],[19.32,30.34],[19.61,30.38],[19.8,30.19],[19.7,29.95],[19.89,29.75],[20.19,29.79],[20.29,30.04],[20.1,30.23],[20.2,30.48],[20.0,30.67],[20.11,30.91],[20.4,30.96],[20.5,31.2],[20.31,31.4],[20.41,31.64],[20.22,31.83],[20.32,32.08],[20.62,32.12],[20.73,32.36],[21.02,32.41],[21.13,32.65],[21.43,32.69],[21.63,32.49],[21.93,32.53],[22.03,32.77],[22.34,32.82],[22.53,32.62],[22.83,32.66],[23.02,32.46],[22.91,32.22],[23.1,32.02],[23.4,32.06],[23.59,31.86],[23.89,31.89],[24.08,31.69],[24.38,31.73],[24.49,31.97],[24.79,32.0],[24.98,31.8],[24.86,31.56],[25.05,31.36],[25.35,31.39],[25.53,31.19],[25.83,31.22],[25.94,31.46],[26.24,31.49],[26.42,31.28],[26.72,31.32],[26.9,31.11],[27.2,31.14],[27.38,30.93],[27.68,30.96],[27.8,31.2],[28.09,31.23],[28.27,31.02],[28.57,31.04],[28.74,30.84],[29.04,30.86],[29.21,30.65],[29.51,30.68],[29.68,30.47],[29.97,30.49],[30.15,30.29],[30.44,30.31],[30.61,30.1],[30.9,30.12],[31.07,29.91],[31.36,29.93],[31.49,30.16],[31.78,30.18],[31.9,30.41],[32.2,30.43],[32.36,30.22],[32.24,29.99],[32.4,29.78],[32.27,29.55],[32.44,29.34],[32.31,29.11],[32.47,28.9],[32.76,28.92],[32.92,28.7],[32.8,28.48],[32.96,28.26],[33.24,28.28],[33.4,28.07],[33.28,27.84],[33.43,27.63],[33.31,27.4],[33.47,27.19],[33.75,27.21],[33.91,27.0],[33.78,26.77],[33.94,26.56],[33.81,26.33],[33.97,26.12],[34.24,26.14],[34.4,25.93],[34.27,25.7],[34.42,25.49],[34.7,25.51],[34.83,25.73],[34.67,25.94],[34.8,26.17],[35.08,26.19],[35.2,26.41],[35.05,26.62],[34.77,26.61],[34.65,26.38],[34.37,26.36],[34.21,26.58],[34.34,26.8],[34.62,26.82],[34.75,27.05],[35.03,27.06],[35.15,27.29],[35.43,27.3],[35.58,27.09],[35.46,26.86],[35.61,26.65],[35.88,26.67],[36.03,26.45],[35.91,26.23],[36.05,26.02],[36.33,26.03],[36.48,25.82],[36.35,25.6],[36.49,25.38],[36.77,25.4],[36.89,25.62],[36.75,25.83],[36.88,26.06],[36.73,26.27],[36.46,26.26],[36.31,26.47],[36.44,26.69],[36.29,26.9],[36.01,26.89],[35.86,27.1],[35.99,27.33],[35.84,27.54],[35.56,27.53],[35.41,27.74],[35.54,27.96],[35.38,28.18],[35.1,28.16],[34.95,28.38],[35.08,28.6],[34.92,28.81],[35.05,29.04],[34.89,29.25],[35.02,29.48],[34.87,29.69],[34.58,29.68],[34.45,29.45],[34.61,29.24],[34.48,29.01],[34.64,28.8],[34.51,28.57],[34.22,28.56],[34.1,28.33],[34.25,28.12],[34.13,27.89],[33.84,27.88],[33.69,28.09],[33.81,28.32],[33.65,28.53],[33.37,28.51],[33.21,28.72],[33.34,28.95],[33.18,29.16],[32.89,29.14],[32.73,29.36],[32.85,29.59],[32.69,29.8],[32.82,30.03],[32.65,30.24],[32.78,30.47],[33.07,30.48],[33.2,30.71],[33.49,30.73],[33.65,30.51],[33.94,30.53],[34.1,30.32],[34.39,30.33],[34.52,30.56],[34.81,30.57],[34.97,30.36],[35.26,30.37],[35.39,30.59],[35.68,30.6],[35.81,30.83],[35.66,31.04],[35.79,31.26],[36.08,31.27],[36.23,31.06],[36.52,31.07],[36.65,31.29],[36.94,31.3],[37.1,31.08],[37.38,31.09],[37.52,31.31],[37.8,31.31],[37.94,31.53],[37.79,31.75],[37.93,31.97],[37.77,32.18],[37.91,32.4],[37.76,32.62],[37.9,32.83],[37.75,33.05],[37.88,33.27],[37.73,33.48],[37.87,33.7],[37.72,33.92],[37.42,33.91],[37.26,34.13],[37.4,34.34],[37.25,34.56],[37.39,34.78],[37.23,34.99],[37.37,35.21],[37.67,35.21],[37.81,35.42],[38.11,35.43],[38.25,35.64],[38.55,35.64],[38.7,35.42],[39.0,35.42],[39.14,35.64],[39.44,35.63],[39.58,35.84],[39.43,36.06],[39.58,36.27],[39.42,36.49],[39.57,36.7],[39.42,36.91],[39.12,36.91],[38.96,37.13],[38.66,37.13],[38.5,37.35],[38.65,37.56],[38.95,37.55],[39.1,37.76],[38.94,37.98],[38.64,37.98],[38.49,37.77],[38.18,37.77],[38.04,37.56],[37.73,37.56],[37.59,37.35],[37.75,37.14],[37.61,36.92],[37.3,36.92],[37.14,37.14],[37.28,37.35],[37.12,37.56],[36.81,37.56],[36.65,37.78],[36.34,37.77],[36.2,37.56],[35.89,37.56],[35.72,37.77],[35.41,37.76],[35.27,37.55],[34.96,37.54],[34.82,37.32],[34.51,37.32],[34.37,37.1],[34.54,36.89],[34.4,36.67],[34.1,36.66],[33.92,36.87],[33.61,36.86],[33.44,37.07],[33.58,37.29],[33.89,37.3],[34.03,37.52],[34.34,37.53],[34.48,37.75],[34.31,37.96],[34.45,38.17],[34.28,38.38],[34.42,38.6],[34.73,38.61],[34.87,38.82],[35.19,38.83],[35.33,39.04],[35.16,39.25],[35.3,39.47],[35.13,39.68],[34.81,39.67],[34.64,39.88],[34.78,40.1],[35.1,40.1],[35.28,39.89],[35.59,39.89],[35.74,40.11],[36.06,40.11],[36.2,40.32],[36.52,40.32],[36.67,40.53],[36.99,40.53],[37.14,40.73],[37.45,40.73],[37.62,40.52],[37.94,40.52],[38.09,40.72],[38.4,40.72],[38.55,40.92],[38.87,40.92],[39.03,40.7],[39.34,40.7],[39.5,40.9],[39.81,40.89],[39.97,40.68],[40.28,40.67],[40.43,40.87],[40.74,40.86],[40.9,41.06],[41.21,41.04],[41.36,41.24],[41.67,41.23],[41.83,41.43],[42.14,41.41],[42.29,41.61],[42.14,41.82],[42.3,42.01],[42.61,41.99],[42.76,41.78],[43.06,41.77],[43.22,41.97],[43.53,41.95],[43.67,41.74],[43.98,41.72],[44.14,41.92],[44.45,41.91],[44.6,41.69],[44.43,41.49],[44.58,41.27],[44.88,41.25],[45.03,41.04],[45.33,41.02],[45.47,40.8],[45.78,40.78],[45.92,40.56],[46.23,40.53],[46.39,40.73],[46.7,40.7],[46.84,40.48],[46.67,40.29],[46.8,40.07],[47.11,40.04],[47.24,39.82],[47.07,39.63],[47.21,39.4],[47.51,39.38],[47.68,39.57],[47.98,39.54],[48.11,39.32],[48.42,39.29],[48.54,39.06],[48.85,39.03],[48.97,38.81],[48.8,38.62],[48.93,38.39],[48.75,38.2],[48.88,37.98],[49.18,37.94],[49.3,37.72],[49.13,37.53],[49.25,37.31],[49.54,37.27],[49.72,37.46],[50.01,37.42],[50.13,37.2],[50.43,37.16],[50.55,36.93],[50.84,36.89],[51.02,37.08],[51.32,37.04]],[[-2.27,55.5],[-1.91,55.56],[-1.61,55.4],[-1.67,55.19],[-2.02,55.13],[-2.08,54.92],[-1.79,54.76],[-1.84,54.55],[-1.55,54.39],[-1.61,54.18],[-1.96,54.12],[-2.01,53.9],[-2.36,53.84],[-2.65,54.0],[-2.6,54.21],[-2.89,54.37],[-3.25,54.31],[-3.55,54.46],[-3.49,54.68],[-3.14,54.74],[-3.09,54.95],[-3.39,55.11],[-3.75,55.05],[-3.8,54.83],[-4.15,54.77],[-4.46,54.92],[-4.82,54.85],[-5.13,55.0],[-5.08,55.22],[-4.72,55.28],[-4.68,55.5],[-4.31,55.56],[-4.27,55.78],[-3.9,55.84],[-3.59,55.69],[-3.23,55.75],[-3.18,55.96],[-2.82,56.02],[-2.51,55.87],[-2.57,55.65],[-2.27,55.5]],[[17.85,58.65],[18.13,58.51],[18.54,58.56],[18.68,58.74],[19.1,58.78],[19.25,58.97],[18.97,59.11],[19.11,59.29],[19.53,59.33],[19.68,59.51],[19.4,59.65],[19.54,59.82],[19.97,59.86],[20.25,59.72],[20.68,59.76],[20.96,59.62],[21.39,59.65],[21.66,59.51],[22.09,59.54],[22.37,59.4],[22.21,59.22],[21.79,59.19],[21.64,59.01],[21.91,58.86],[21.76,58.69],[21.33,58.65],[21.19,58.47],[21.46,58.32],[21.31,58.14],[20.89,58.11],[20.75,57.92],[20.33,57.88],[20.06,58.03],[19.65,57.99],[19.37,58.13],[19.51,58.32],[19.24,58.46],[18.82,58.42],[18.68,58.23],[18.27,58.19],[18.13,58.0],[18.41,57.86],[18.27,57.68],[17.86,57.63],[17.59,57.77],[17.18,57.72],[16.9,57.86],[17.03,58.05],[17.44,58.1],[17.58,58.28],[17.3,58.42],[17.43,58.61],[17.85,58.65]],[[12.39,47.17],[12.63,47.01],[12.53,46.79],[12.2,46.72],[11.95,46.88],[12.05,47.1],[12.39,47.17]],[[45.09,42.29],[44.93,42.09],[44.61,42.11],[44.47,42.32],[44.16,42.34],[43.99,42.14],[43.69,42.15],[43.54,42.37],[43.23,42.38],[43.08,42.6],[42.77,42.61],[42.61,42.82],[42.3,42.83],[42.15,43.04],[41.84,43.05],[41.68,43.26],[41.37,43.28],[41.21,43.09],[40.89,43.1],[40.73,43.31],[40.41,43.33],[40.25,43.54],[40.41,43.73],[40.24,43.94],[40.4,44.14],[40.73,44.12],[40.89,43.91],[41.21,43.9],[41.37,43.69],[41.68,43.68],[41.83,43.88],[42.15,43.87],[42.31,44.08],[42.62,44.07],[42.78,43.86],[43.1,43.84],[43.25,43.63],[43.57,43.62],[43.72,43.4],[43.56,43.2],[43.71,42.99],[44.02,42.97],[44.19,43.17],[44.5,43.16],[44.65,42.94],[44.97,42.92],[45.14,43.12],[45.45,43.1],[45.6,42.89],[45.92,42.87],[46.09,43.07],[46.41,43.04],[46.59,43.24],[46.91,43.22],[47.05,43.0],[47.37,42.98],[47.51,42.75],[47.83,42.73],[47.97,42.5],[47.79,42.3],[47.93,42.08],[48.25,42.05],[48.38,41.83],[48.2,41.63],[48.34,41.41],[48.65,41.38],[48.78,41.15],[49.1,41.12],[49.23,40.9],[49.05,40.7],[49.18,40.48],[49.0,40.28],[48.69,40.31],[48.55,40.54],[48.24,40.57],[48.11,40.79],[47.8,40.82],[47.67,41.04],[47.36,41.07],[47.22,41.29],[46.91,41.32],[46.77,41.54],[46.46,41.56],[46.32,41.78],[46.0,41.81],[45.86,42.03],[45.55,42.05],[45.4,42.27],[45.09,42.29]],[[-9.76,54.02],[-9.4,54.1],[-9.08,53.96],[-9.11,53.74],[-9.46,53.66],[-9.79,53.8],[-9.76,54.02]],[[-9.28,52.38],[-8.97,52.24],[-8.99,52.01],[-9.34,51.93],[-9.65,52.07],[-9.62,52.3],[-9.28,52.38]],[[25.12,47.3],[24.9,47.48],[24.55,47.45],[24.32,47.63],[24.46,47.84],[24.23,48.03],[23.88,47.99],[23.65,48.17],[23.78,48.38],[23.56,48.56],[23.2,48.53],[22.97,48.71],[22.61,48.67],[22.38,48.85],[22.51,49.06],[22.27,49.23],[22.41,49.44],[22.77,49.48],[23.0,49.3],[23.37,49.33],[23.6,49.16],[23.96,49.19],[24.19,49.01],[24.05,48.8],[24.28,48.63],[24.64,48.66],[24.87,48.48],[25.23,48.5],[25.45,48.32],[25.31,48.11],[25.53,47.93],[25.89,47.96],[26.11,47.77],[25.97,47.56],[26.19,47.38],[26.05,47.17],[26.27,46.98],[26.13,46.77],[25.78,46.74],[25.56,46.93],[25.21,46.9],[24.99,47.09],[25.12,47.3]],[[32.68,36.82],[32.55,36.6],[32.24,36.59],[32.06,36.8],[32.2,37.02],[32.51,37.03],[32.68,36.82]],[[-4.19,53.08],[-3.84,53.15],[-3.55,53.0],[-3.21,53.06],[-2.92,52.91],[-2.97,52.69],[-2.68,52.53],[-2.73,52.31],[-3.07,52.24],[-3.12,52.02],[-2.83,51.87],[-2.89,51.64],[-3.22,51.58],[-3.51,51.73],[-3.84,51.66],[-4.13,51.82],[-4.08,52.04],[-3.75,52.11],[-3.7,52.33],[-3.99,52.49],[-3.94,52.71],[-4.24,52.86],[-4.19,53.08]],[[-4.35,53.9],[-4.3,54.11],[-3.95,54.18],[-3.65,54.03],[-3.7,53.81],[-3.4,53.65],[-3.45,53.44],[-3.8,53.37],[-4.09,53.52],[-4.04,53.74],[-4.35,53.9]],[[-2.15,39.69],[-2.11,39.93],[-2.34,40.08],[-2.3,40.32],[-2.02,40.41],[-1.78,40.25],[-1.5,40.33],[-1.46,40.57],[-1.18,40.65],[-0.95,40.5],[-1.0,40.26],[-0.77,40.1],[-0.82,39.87],[-1.09,39.78],[-1.32,39.94],[-1.6,39.86],[-1.64,39.62],[-1.92,39.54],[-2.15,39.69]],[[32.78,40.9],[33.11,40.91],[33.29,40.7],[33.14,40.48],[32.82,40.48],[32.64,40.68],[32.78,40.9]],[[-6.17,53.1],[-6.52,53.03],[-6.83,53.17],[-6.79,53.4],[-6.44,53.47],[-6.13,53.32],[-6.17,53.1]],[[-6.84,55.09],[-6.48,55.16],[-6.16,55.01],[-6.2,54.79],[-6.56,54.72],[-6.6,54.5],[-6.28,54.36],[-6.32,54.14],[-6.67,54.06],[-6.71,53.84],[-7.06,53.77],[-7.38,53.91],[-7.73,53.83],[-8.05,53.98],[-8.4,53.9],[-8.73,54.04],[-8.69,54.27],[-8.34,54.35],[-8.31,54.57],[-8.63,54.71],[-8.6,54.93],[-8.24,55.01],[-8.21,55.23],[-7.85,55.3],[-7.52,55.16],[-7.16,55.23],[-6.84,55.09]],[[10.69,56.58],[10.4,56.71],[10.51,56.91],[10.9,56.98],[11.01,57.17],[11.4,57.24],[11.68,57.11],[11.57,56.92],[11.18,56.85],[11.07,56.65],[10.69,56.58]],[[-2.69,29.33],[-2.9,29.47],[-2.86,29.71],[-3.07,29.85],[-3.03,30.09],[-2.78,30.19],[-2.58,30.05],[-2.61,29.81],[-2.41,29.67],[-2.44,29.43],[-2.69,29.33]],[[7.42,46.06],[7.5,46.29],[7.83,46.37],[7.91,46.6],[8.23,46.67],[8.48,46.53],[8.39,46.3],[8.07,46.22],[7.99,46.0],[7.66,45.92],[7.42,46.06]],[[10.52,46.37],[10.19,46.3],[9.95,46.45],[10.04,46.68],[9.8,46.83],[9.88,47.05],[10.22,47.13],[10.46,46.98],[10.8,47.05],[11.04,46.89],[10.95,46.67],[10.61,46.6],[10.52,46.37]],[[-3.19,38.23],[-2.92,38.31],[-2.88,38.56],[-3.11,38.71],[-3.07,38.95],[-2.79,39.04],[-2.56,38.88],[-2.28,38.97],[-2.05,38.82],[-2.1,38.58],[-1.87,38.42],[-1.91,38.18],[-2.18,38.1],[-2.41,38.25],[-2.69,38.16],[-2.73,37.92],[-3.0,37.83],[-3.23,37.98],[-3.19,38.23]],[[-3.38,38.62],[-3.42,38.38],[-3.7,38.29],[-3.93,38.44],[-4.21,38.35],[-4.45,38.5],[-4.41,38.74],[-4.13,38.83],[-3.9,38.68],[-3.62,38.77],[-3.38,38.62]],[[-6.01,53.99],[-5.66,54.06],[-5.62,54.28],[-5.26,54.35],[-4.95,54.2],[-5.0,53.98],[-4.7,53.83],[-4.74,53.61],[-5.09,53.54],[-5.13,53.32],[-4.83,53.17],[-4.88,52.94],[-5.22,52.87],[-5.52,53.02],[-5.48,53.25],[-5.78,53.4],[-5.74,53.62],[-6.05,53.77],[-6.01,53.99]],[[-3.61,48.24],[-3.56,48.47],[-3.24,48.55],[-2.97,48.39],[-3.02,48.16],[-3.34,48.09],[-3.61,48.24]],[[22.03,58.54],[22.45,58.57],[22.72,58.42],[22.56,58.24],[22.14,58.21],[21.88,58.36],[22.03,58.54]],[[-1.79,29.24],[-2.0,29.38],[-1.96,29.62],[-1.71,29.72],[-1.51,29.58],[-1.55,29.34],[-1.79,29.24]],[[-7.56,52.79],[-7.59,52.57],[-7.94,52.49],[-8.25,52.63],[-8.21,52.86],[-7.87,52.94],[-7.83,53.16],[-7.49,53.24],[-7.17,53.1],[-7.21,52.87],[-7.56,52.79]],[[26.26,60.2],[26.64,60.26],[26.91,60.1],[26.8,59.88],[26.42,59.82],[26.15,59.98],[26.26,60.2]],[[24.19,57.84],[24.03,57.66],[23.62,57.63],[23.36,57.79],[23.51,57.97],[23.93,58.0],[24.19,57.84]],[[13.31,50.54],[12.96,50.47],[12.7,50.62],[12.81,50.83],[13.16,50.9],[13.42,50.75],[13.31,50.54]],[[12.41,56.53],[12.02,56.46],[11.74,56.59],[11.85,56.79],[12.24,56.85],[12.52,56.72],[12.41,56.53]],[[-8.07,51.58],[-8.03,51.81],[-7.69,51.89],[-7.39,51.74],[-7.42,51.51],[-7.76,51.43],[-8.07,51.58]]],[[[26.56,29.28],[26.74,29.07],[27.03,29.1],[27.21,28.9],[27.5,28.93],[27.62,29.16],[27.91,29.19],[28.03,29.43],[27.85,29.64],[27.97,29.87],[28.26,29.9],[28.38,30.13],[28.21,30.34],[27.91,30.31],[27.73,30.52],[27.44,30.49],[27.32,30.26],[27.03,30.23],[26.91,29.99],[26.62,29.96],[26.5,29.72],[26.68,29.52],[26.56,29.28]]],[[[44.53,40.03],[44.39,40.25],[44.09,40.27],[43.93,40.07],[44.07,39.86],[44.37,39.84],[44.53,40.03]]],[[[-62.92,17.27],[-62.72,17.22],[-62.69,17.01],[-62.48,16.96],[-62.31,17.12],[-62.34,17.32],[-62.54,17.37],[-62.58,17.57],[-62.78,17.62],[-62.95,17.47],[-62.92,17.27]]],[[[6.49,57.87],[6.78,57.76],[7.16,57.84],[7.45,57.72],[7.84,57.8],[7.93,57.99],[8.32,58.07],[8.61,57.95],[9.0,58.03],[9.1,58.22],[8.81,58.33],[8.42,58.26],[8.13,58.38],[7.74,58.3],[7.64,58.11],[7.26,58.03],[6.96,58.14],[6.58,58.06],[6.49,57.87]]],[[[-62.87,18.21],[-62.9,18.41],[-63.1,18.46],[-63.27,18.31],[-63.24,18.11],[-63.04,18.06],[-63.01,17.86],[-62.81,17.82],[-62.64,17.97],[-62.67,18.17],[-62.87,18.21]]],[[[-62.02,17.82],[-62.2,17.67],[-62.17,17.47],[-61.96,17.42],[-61.93,17.22],[-62.1,17.06],[-62.07,16.86],[-61.87,16.81],[-61.69,16.96],[-61.72,17.16],[-61.55,17.32],[-61.58,17.52],[-61.41,17.67],[-61.44,17.87],[-61.64,17.92],[-61.82,17.77],[-62.02,17.82]]],[[[18.87,-34.6],[19.15,-34.59],[19.32,-34.78],[19.6,-34.77],[19.72,-34.58],[19.55,-34.39],[19.27,-34.4],[19.1,-34.21],[18.82,-34.22],[18.66,-34.03],[18.77,-33.83],[18.61,-33.64],[18.73,-33.44],[18.56,-33.25],[18.28,-33.26],[18.12,-33.07],[17.84,-33.07],[17.73,-33.27],[17.89,-33.46],[17.77,-33.66],[17.93,-33.85],[17.82,-34.04],[17.98,-34.23],[18.26,-34.23],[18.42,-34.42],[18.71,-34.41],[18.87,-34.6]]],[[[50.76,29.38],[50.66,29.6],[50.39,29.64],[50.29,29.85],[50.45,30.02],[50.34,30.24],[50.07,30.28],[49.92,30.11],[49.66,30.15],[49.55,30.37],[49.29,30.38],[49.15,30.19],[48.9,30.2],[48.76,30.01],[48.5,30.02],[48.39,30.24],[48.13,30.25],[47.99,30.05],[48.11,29.84],[47.96,29.64],[47.71,29.65],[47.57,29.45],[47.68,29.24],[47.94,29.22],[48.05,29.01],[48.3,29.0],[48.44,29.2],[48.69,29.18],[48.84,29.38],[48.72,29.59],[48.87,29.79],[49.12,29.78],[49.26,29.97],[49.51,29.96],[49.62,29.74],[49.87,29.73],[49.98,29.51],[49.83,29.32],[49.94,29.11],[50.19,29.09],[50.29,28.88],[50.55,28.83],[50.66,28.62],[50.91,28.58],[51.02,28.36],[50.86,28.2],[50.96,27.99],[51.22,27.94],[51.32,27.73],[51.57,27.68],[51.67,27.47],[51.93,27.42],[52.09,27.59],[51.99,27.8],[51.73,27.85],[51.63,28.06],[51.37,28.11],[51.27,28.32],[51.43,28.48],[51.33,28.7],[51.07,28.74],[50.97,28.96],[50.71,29.0],[50.6,29.21],[50.76,29.38]]],[[[54.92,26.44],[54.67,26.49],[54.58,26.7],[54.32,26.76],[54.16,26.6],[53.9,26.65],[53.74,26.49],[53.83,26.28],[54.09,26.23],[54.18,26.01],[54.43,25.96],[54.59,26.12],[54.85,26.06],[55.01,26.22],[55.27,26.17],[55.43,26.33],[55.69,26.27],[55.86,26.43],[56.11,26.37],[56.28,26.53],[56.54,26.47],[56.71,26.63],[56.63,26.85],[56.37,26.9],[56.2,26.75],[55.94,26.8],[55.77,26.64],[55.51,26.7],[55.34,26.54],[55.09,26.59],[54.92,26.44]]],[[[-29.16,-20.84],[-28.97,-20.68],[-29.02,-20.45],[-29.25,-20.39],[-29.45,-20.55],[-29.4,-20.78],[-29.16,-20.84]]],[[[37.97,55.64],[38.15,55.85],[37.93,56.05],[37.54,56.02],[37.37,55.81],[37.58,55.62],[37.97,55.64]]],[[[-17.68,14.72],[-17.46,14.61],[-17.46,14.39],[-17.25,14.29],[-17.25,14.06],[-17.03,13.96],[-17.03,13.74],[-16.82,13.64],[-16.82,13.41],[-17.03,13.29],[-17.03,13.07],[-16.82,12.97],[-16.61,13.09],[-16.61,13.31],[-16.4,13.43],[-16.4,13.66],[-16.61,13.76],[-16.61,13.98],[-16.82,14.08],[-16.82,14.31],[-17.04,14.41],[-17.04,14.63],[-16.82,14.76],[-16.83,14.98],[-16.61,15.11],[-16.61,15.33],[-16.4,15.46],[-16.4,15.68],[-16.61,15.79],[-16.83,15.67],[-16.83,15.44],[-17.04,15.31],[-17.04,15.09],[-17.25,14.96],[-17.47,15.07],[-17.68,14.94],[-17.68,14.72]]],[[[55.13,39.7],[55.24,39.46],[55.55,39.41],[55.76,39.6],[56.07,39.54],[56.28,39.73],[56.18,39.97],[55.86,40.02],[55.65,39.83],[55.34,39.88],[55.13,39.7]]],[[[-61.84,16.61],[-62.01,16.45],[-61.98,16.25],[-61.77,16.2],[-61.74,15.99],[-61.53,15.94],[-61.5,15.73],[-61.68,15.58],[-61.65,15.37],[-61.44,15.31],[-61.41,15.1],[-61.2,15.05],[-61.02,15.2],[-61.06,15.41],[-61.26,15.47],[-61.3,15.67],[-61.12,15.83],[-61.15,16.03],[-60.98,16.19],[-61.01,16.39],[-61.22,16.45],[-61.25,16.65],[-61.45,16.71],[-61.63,16.55],[-61.84,16.61]]],[[[-61.25,14.05],[-61.22,13.84],[-61.01,13.78],[-60.83,13.93],[-60.86,14.15],[-61.07,14.2],[-61.25,14.05]]],[[[49.77,27.07],[50.01,27.05],[50.15,27.25],[50.05,27.46],[50.18,27.66],[50.08,27.87],[49.84,27.88],[49.7,27.68],[49.45,27.7],[49.35,27.91],[49.1,27.92],[48.99,28.13],[48.74,28.15],[48.6,27.95],[48.71,27.74],[48.96,27.72],[49.07,27.51],[49.31,27.5],[49.42,27.29],[49.66,27.28],[49.77,27.07]]],[[[-64.67,18.63],[-64.84,18.48],[-64.81,18.28],[-64.61,18.24],[-64.44,18.39],[-64.47,18.58],[-64.67,18.63]]],[[[36.93,24.75],[37.2,24.77],[37.33,24.99],[37.18,25.2],[36.91,25.19],[36.79,24.96],[36.93,24.75]]],[[[19.92,52.07],[20.3,52.11],[20.43,52.32],[20.18,52.48],[19.8,52.44],[19.67,52.23],[19.92,52.07]]],[[[-64.31,32.52],[-64.46,32.68],[-64.73,32.66],[-64.84,32.47],[-65.11,32.44],[-65.22,32.26],[-65.07,32.11],[-64.81,32.13],[-64.69,32.31],[-64.43,32.34],[-64.31,32.52]]],[[[-65.92,18.16],[-66.11,18.2],[-66.28,18.05],[-66.25,17.86],[-66.06,17.82],[-65.89,17.97],[-65.92,18.16]]],[[[5.77,58.56],[5.68,58.37],[5.95,58.2],[6.31,58.23],[6.41,58.42],[6.14,58.59],[5.77,58.56]]],[[[50.42,26.22],[50.66,26.2],[50.8,26.4],[50.69,26.61],[50.46,26.62],[50.32,26.42],[50.42,26.22]]],[[[-42.15,-22.87],[-42.35,-23.02],[-42.31,-23.25],[-42.06,-23.33],[-41.85,-23.18],[-41.9,-22.95],[-42.15,-22.87]]],[[[48.27,28.58],[48.38,28.37],[48.63,28.36],[48.77,28.56],[48.66,28.77],[48.41,28.78],[48.27,28.58]]],[[[34.88,24.86],[35.15,24.88],[35.28,25.1],[35.13,25.31],[34.85,25.3],[34.73,25.07],[34.88,24.86]]],[[[30.53,29.42],[30.7,29.21],[30.99,29.24],[31.11,29.47],[30.95,29.68],[30.65,29.66],[30.53,29.42]]],[[[51.5,26.36],[51.41,26.57],[51.17,26.58],[51.03,26.39],[51.13,26.18],[51.37,26.16],[51.46,25.96],[51.7,25.94],[51.85,26.1],[51.75,26.31],[51.5,26.36]]],[[[20.58,30.08],[20.77,29.88],[21.06,29.93],[21.17,30.17],[20.98,30.37],[20.68,30.32],[20.58,30.08]]],[[[15.13,-26.48],[14.98,-26.27],[15.09,-26.06],[14.94,-25.86],[15.05,-25.65],[14.9,-25.44],[15.01,-25.23],[14.86,-25.03],[14.98,-24.82],[14.83,-24.61],[14.57,-24.62],[14.45,-24.83],[14.6,-25.04],[14.49,-25.25],[14.64,-25.45],[14.53,-25.66],[14.68,-25.87],[14.56,-26.08],[14.71,-26.28],[14.6,-26.49],[14.75,-26.69],[15.01,-26.69],[15.13,-26.48]]],[[[35.32,24.23],[35.59,24.25],[35.72,24.47],[35.57,24.68],[35.3,24.67],[35.18,24.44],[35.32,24.23]]],[[[-16.81,12.09],[-16.61,12.0],[-16.4,12.12],[-16.4,12.33],[-16.61,12.43],[-16.61,12.65],[-16.82,12.75],[-17.02,12.63],[-17.02,12.41],[-16.81,12.31],[-16.81,12.09]]],[[[-61.34,14.68],[-61.31,14.47],[-61.1,14.42],[-60.93,14.57],[-60.96,14.78],[-61.17,14.84],[-61.34,14.68]]]]}}]}