{"type":"Feature","properties":{"source":"OSRM (router.project-osrm.org), OpenStreetMap data (ODbL)","profile":"driving","tolerance":0.0005,"waypoints":[[55.5980171,13.0220953],[57.174311,17.035819]],"fetched":"2026-10-06"},"geometry":{"type":"LineString","coordinates":[[13.02241,55.59858],[13.02383,55.59974],[13.02528,55.59937],[13.02946,55.60536],[13.02954,55.60625],[13.02681,55.60826],[13.0303,55.61034],[13.04351,55.61585],[13.07673,55.62704],[13.1194,55.64801],[13.1564,55.66398],[13.18653,55.68065],[13.19981,55.68643],[13.20321,55.68904],[13.21317,55.69409],[13.21638,55.69682],[13.21871,55.70052],[13.2226,55.71508],[13.225,55.719],[13.22578,55.72331],[13.22987,55.72779],[13.25324,55.742],[13.28044,55.75476],[13.3023,55.76661],[13.31497,55.77012],[13.34056,55.77261],[13.36777,55.77717],[13.38282,55.77828],[13.39791,55.78237],[13.41081,55.78381],[13.43043,55.78769],[13.44228,55.79171],[13.45088,55.8003],[13.45665,55.80341],[13.49029,55.81247],[13.51178,55.82165],[13.53787,55.82629],[13.55459,55.83366],[13.59981,55.84806],[13.60781,55.85129],[13.63154,55.85534],[13.65183,55.86463],[13.65866,55.86588],[13.68026,55.86379],[13.69232,55.8657],[13.69815,55.86827],[13.70993,55.87587],[13.72391,55.89699],[13.72894,55.90139],[13.74126,55.90502],[13.75401,55.90986],[13.77013,55.91288],[13.79445,55.92412],[13.80658,55.92596],[13.82589,55.9257],[13.83445,55.92691],[13.84369,55.93082],[13.85282,55.93897],[13.86236,55.94265],[13.87233,55.94504],[13.88883,55.94627],[13.90076,55.94973],[13.91423,55.95201],[13.92787,55.95687],[13.9351,55.95863],[13.95536,55.96084],[13.99818,55.96174],[14.01345,55.9641],[14.03783,55.97032],[14.04639,55.97096],[14.06267,55.9705],[14.0727,55.97218],[14.07923,55.97481],[14.08404,55.97825],[14.09854,55.99828],[14.11362,56.01253],[14.11646,56.01667],[14.11826,56.01748],[14.1355,56.01641],[14.16445,56.01833],[14.2043,56.02345],[14.22707,56.02968],[14.27664,56.03491],[14.31261,56.04144],[14.3335,56.04037],[14.34831,56.04052],[14.37826,56.03664],[14.38278,56.03708],[14.40186,56.04192],[14.4214,56.04192],[14.43172,56.04495],[14.45032,56.05734],[14.45975,56.06103],[14.47154,56.06274],[14.48817,56.06172],[14.49999,56.06263],[14.512,56.06488],[14.53184,56.0706],[14.54081,56.06993],[14.55062,56.06529],[14.55692,56.06414],[14.57399,56.06601],[14.58753,56.06515],[14.6136,56.06531],[14.62279,56.06635],[14.63102,56.06832],[14.63908,56.07299],[14.64282,56.07659],[14.64441,56.08055],[14.64381,56.087],[14.64517,56.09176],[14.65638,56.10428],[14.65872,56.1081],[14.65945,56.11135],[14.66039,56.13602],[14.66536,56.15454],[14.66741,56.15929],[14.6708,56.16409],[14.67663,56.16906],[14.68188,56.17182],[14.68903,56.17399],[14.69807,56.17515],[14.72193,56.17568],[14.73971,56.17868],[14.75833,56.17839],[14.77911,56.18489],[14.78819,56.18879],[14.79504,56.19002],[14.80121,56.18977],[14.81492,56.18735],[14.83538,56.18664],[14.86236,56.1898],[14.87044,56.19145],[14.88755,56.19287],[14.893,56.19227],[14.90237,56.18842],[14.90941,56.1872],[14.94866,56.18978],[14.96018,56.19163],[14.98148,56.20029],[14.99622,56.20352],[15.02745,56.20445],[15.04825,56.20838],[15.06602,56.20722],[15.0739,56.20756],[15.09366,56.21173],[15.12423,56.21961],[15.1344,56.22099],[15.14827,56.22089],[15.17775,56.21787],[15.19382,56.21755],[15.20932,56.22094],[15.23408,56.2285],[15.24856,56.23037],[15.25817,56.23001],[15.26688,56.22849],[15.29199,56.21642],[15.3153,56.21294],[15.32691,56.20728],[15.33136,56.20588],[15.376,56.19954],[15.40531,56.19936],[15.44549,56.196],[15.46782,56.1977],[15.4852,56.19809],[15.50341,56.2017],[15.51572,56.20282],[15.52854,56.20721],[15.54847,56.20995],[15.56334,56.20997],[15.58013,56.21315],[15.58897,56.21345],[15.61704,56.20872],[15.62641,56.20631],[15.64182,56.20611],[15.65657,56.20321],[15.67066,56.20197],[15.6825,56.19872],[15.69533,56.19636],[15.70491,56.19051],[15.72358,56.1838],[15.73164,56.18266],[15.75515,56.18408],[15.77803,56.18741],[15.78594,56.18961],[15.81646,56.2014],[15.8389,56.20794],[15.85253,56.2103],[15.87512,56.21147],[15.88246,56.2132],[15.91091,56.22682],[15.93306,56.24445],[15.94859,56.2595],[15.95204,56.26455],[15.97566,56.27943],[16.00627,56.30232],[16.01639,56.3126],[16.03231,56.32178],[16.04772,56.3347],[16.04852,56.33793],[16.04758,56.3435],[16.04867,56.34952],[16.05069,56.35177],[16.05835,56.35553],[16.06158,56.35827],[16.06284,56.36618],[16.06817,56.37207],[16.07026,56.37911],[16.06696,56.38853],[16.06656,56.3925],[16.06715,56.39774],[16.06903,56.4011],[16.07006,56.41021],[16.06774,56.41775],[16.07073,56.42304],[16.07686,56.42853],[16.07771,56.43033],[16.07587,56.43582],[16.07913,56.44483],[16.07879,56.46595],[16.08178,56.48094],[16.08585,56.49583],[16.08642,56.50902],[16.08376,56.53855],[16.08479,56.54768],[16.08799,56.5613],[16.08992,56.56479],[16.09294,56.56758],[16.11166,56.57819],[16.11575,56.58138],[16.12758,56.5977],[16.13915,56.61015],[16.14529,56.61434],[16.15367,56.61799],[16.20444,56.63218],[16.21789,56.6395],[16.23311,56.64577],[16.24949,56.65726],[16.25966,56.66267],[16.27606,56.66564],[16.28824,56.66963],[16.29777,56.67024],[16.31037,56.66892],[16.32141,56.67222],[16.32765,56.67677],[16.32856,56.67901],[16.32836,56.68209],[16.32947,56.68287],[16.34155,56.68233],[16.35575,56.68473],[16.3648,56.68465],[16.45124,56.66826],[16.46357,56.66676],[16.49944,56.66701],[16.50684,56.66835],[16.51364,56.67122],[16.51725,56.67404],[16.5217,56.67935],[16.52189,56.6961],[16.52321,56.70155],[16.53545,56.71773],[16.53638,56.7233],[16.54491,56.73681],[16.54911,56.7498],[16.55076,56.7521],[16.55505,56.7553],[16.57048,56.77451],[16.57583,56.77846],[16.58046,56.78516],[16.5877,56.79849],[16.59397,56.80712],[16.61476,56.83115],[16.63917,56.84405],[16.64117,56.84658],[16.64362,56.85351],[16.64839,56.85748],[16.66091,56.87095],[16.66783,56.87351],[16.67361,56.87436],[16.67762,56.87684],[16.6846,56.87893],[16.68983,56.87913],[16.7004,56.87756],[16.71333,56.87796],[16.72233,56.88082],[16.72381,56.88246],[16.72983,56.88586],[16.73217,56.88943],[16.73263,56.89783],[16.73542,56.90835],[16.73858,56.91119],[16.75517,56.92023],[16.76439,56.92719],[16.77495,56.93868],[16.78064,56.95086],[16.79599,56.96035],[16.79998,56.96393],[16.8062,56.97686],[16.81608,56.99004],[16.82311,56.99608],[16.84144,57.00695],[16.8515,57.01696],[16.85697,57.02131],[16.8703,57.03998],[16.8766,57.05512],[16.87956,57.05961],[16.88539,57.06425],[16.88916,57.06619],[16.90941,57.07469],[16.9149,57.07784],[16.92022,57.08275],[16.92591,57.09299],[16.93094,57.09853],[16.93855,57.10414],[16.95059,57.11089],[16.96632,57.12253],[16.97357,57.13091],[16.97644,57.13314],[16.98059,57.13519],[16.99407,57.13952],[17.00598,57.14473],[17.00913,57.14855],[17.0106,57.16077],[17.01829,57.16862],[17.02563,57.17304],[17.0362,57.17351]]}}
