{"type":"Feature","properties":{"source":"OSRM (router.project-osrm.org), OpenStreetMap data (ODbL)","profile":"driving","tolerance":0.0005,"waypoints":[[47.85,12.12],[53.408508,10.595831],[55.5980171,13.0220953]],"fetched":"2026-10-06"},"geometry":{"type":"LineString","coordinates":[[12.12059,47.85071],[12.12337,47.8495],[12.12767,47.84936],[12.12235,47.84136],[12.12078,47.83592],[12.12334,47.82602],[12.11872,47.81344],[12.11919,47.81013],[12.11884,47.80848],[12.11798,47.80805],[12.10043,47.80946],[12.04851,47.81672],[12.02895,47.81806],[12.01591,47.82039],[11.9908,47.82202],[11.97119,47.82189],[11.96678,47.82284],[11.95966,47.82578],[11.94874,47.82729],[11.9428,47.82655],[11.93403,47.82243],[11.92861,47.82226],[11.92488,47.82332],[11.91358,47.82933],[11.91013,47.8304],[11.90469,47.83038],[11.8958,47.82804],[11.89092,47.82887],[11.87259,47.83904],[11.86869,47.84319],[11.86508,47.85014],[11.85977,47.8552],[11.84695,47.86116],[11.82174,47.86558],[11.80249,47.86478],[11.79376,47.86619],[11.73076,47.89152],[11.72544,47.89489],[11.7214,47.89952],[11.7092,47.92932],[11.69009,47.95978],[11.68034,47.99165],[11.6647,48.01517],[11.6607,48.02584],[11.66264,48.02875],[11.67289,48.03411],[11.67923,48.0388],[11.69384,48.05466],[11.72531,48.07188],[11.73493,48.07936],[11.74364,48.08852],[11.75221,48.10172],[11.75732,48.115],[11.75892,48.12321],[11.75937,48.13082],[11.75895,48.13787],[11.75761,48.14407],[11.75355,48.15222],[11.74594,48.16174],[11.73299,48.17508],[11.72327,48.18269],[11.7164,48.18639],[11.70783,48.18973],[11.67832,48.19667],[11.65957,48.20325],[11.65102,48.20768],[11.63751,48.21671],[11.63389,48.21948],[11.63236,48.22172],[11.63182,48.22389],[11.63234,48.22698],[11.64665,48.25571],[11.6471,48.26244],[11.63901,48.28519],[11.59588,48.36059],[11.5952,48.36466],[11.59737,48.38833],[11.5957,48.39284],[11.59097,48.3998],[11.58992,48.40366],[11.58936,48.44139],[11.59099,48.45729],[11.58528,48.47477],[11.58634,48.47905],[11.59399,48.49082],[11.59495,48.49566],[11.59306,48.50071],[11.58425,48.51114],[11.5829,48.51838],[11.58484,48.52394],[11.59366,48.53227],[11.59534,48.5358],[11.59375,48.54723],[11.58935,48.55462],[11.58858,48.55752],[11.58906,48.56056],[11.59241,48.56806],[11.59261,48.57691],[11.59135,48.57915],[11.58878,48.58116],[11.57798,48.58475],[11.57196,48.58782],[11.55775,48.59942],[11.54756,48.60646],[11.53998,48.61319],[11.53107,48.61821],[11.52749,48.62127],[11.52539,48.62505],[11.52338,48.63385],[11.51511,48.64829],[11.51105,48.66319],[11.50785,48.67044],[11.49169,48.69488],[11.48543,48.70957],[11.47922,48.72163],[11.45985,48.74732],[11.4576,48.75224],[11.45755,48.75632],[11.46104,48.77144],[11.46027,48.78726],[11.46554,48.80304],[11.46681,48.81434],[11.47209,48.82432],[11.47303,48.82765],[11.47261,48.83121],[11.46598,48.84655],[11.46487,48.85218],[11.46824,48.87425],[11.46622,48.88243],[11.46693,48.89263],[11.47039,48.90456],[11.47009,48.91517],[11.468,48.9223],[11.46507,48.92764],[11.4605,48.93212],[11.4495,48.94073],[11.43257,48.95051],[11.42938,48.95319],[11.42538,48.9584],[11.41731,48.96572],[11.40221,48.97589],[11.39608,48.97914],[11.38066,48.99388],[11.37403,48.99735],[11.36152,49.00086],[11.35766,49.00301],[11.35463,49.00851],[11.35492,49.01167],[11.35711,49.01427],[11.36588,49.01994],[11.3677,49.02375],[11.36674,49.02668],[11.36183,49.0319],[11.35805,49.03827],[11.35404,49.04086],[11.34286,49.04369],[11.33865,49.04564],[11.33036,49.05199],[11.32482,49.05936],[11.32206,49.06183],[11.29748,49.07438],[11.29367,49.07709],[11.29008,49.08136],[11.28363,49.1042],[11.27938,49.11197],[11.27654,49.12177],[11.27068,49.13293],[11.2605,49.17585],[11.22742,49.21616],[11.21814,49.24233],[11.20927,49.28076],[11.20757,49.31458],[11.20404,49.34021],[11.20385,49.35137],[11.20041,49.37854],[11.20209,49.39042],[11.19631,49.40284],[11.19555,49.40683],[11.19679,49.41188],[11.20013,49.41621],[11.23846,49.45196],[11.25252,49.46779],[11.26738,49.47994],[11.28537,49.49952],[11.29453,49.50659],[11.31267,49.52389],[11.31587,49.52911],[11.32437,49.55701],[11.32672,49.56206],[11.34417,49.579],[11.34873,49.58227],[11.35563,49.58985],[11.36115,49.59314],[11.36286,49.5991],[11.36997,49.60858],[11.37584,49.61201],[11.39195,49.61532],[11.4086,49.62108],[11.42127,49.63123],[11.42784,49.63855],[11.43257,49.64203],[11.43688,49.6478],[11.44114,49.64971],[11.44866,49.65059],[11.4525,49.65188],[11.46712,49.66379],[11.46862,49.66645],[11.46911,49.66953],[11.4652,49.69891],[11.46725,49.70537],[11.48138,49.71993],[11.48569,49.72173],[11.50771,49.72721],[11.51138,49.7299],[11.51537,49.73599],[11.51536,49.73894],[11.50947,49.75648],[11.50893,49.76098],[11.50583,49.76668],[11.50765,49.7739],[11.5124,49.7798],[11.51243,49.78411],[11.511,49.78639],[11.50826,49.78852],[11.49605,49.79288],[11.49372,49.79525],[11.49297,49.79768],[11.49384,49.8006],[11.49911,49.80524],[11.50059,49.8082],[11.50032,49.81092],[11.4971,49.81796],[11.4994,49.82501],[11.5,49.83062],[11.50524,49.84259],[11.51467,49.85043],[11.51719,49.85368],[11.51818,49.8574],[11.5186,49.86534],[11.51957,49.86771],[11.52237,49.87043],[11.52601,49.87218],[11.54174,49.87422],[11.54929,49.87932],[11.55372,49.88097],[11.56015,49.88188],[11.58433,49.88207],[11.58984,49.88293],[11.59588,49.88604],[11.59897,49.89073],[11.60545,49.90953],[11.60534,49.91416],[11.60248,49.92898],[11.60785,49.9512],[11.60538,49.96479],[11.60787,49.98579],[11.60684,49.99837],[11.61066,50.00587],[11.60725,50.01119],[11.60457,50.01801],[11.60431,50.02087],[11.60782,50.03418],[11.61393,50.04215],[11.61673,50.04775],[11.61805,50.05327],[11.61822,50.06097],[11.61936,50.0637],[11.62228,50.06674],[11.63052,50.07204],[11.64252,50.07527],[11.6559,50.07749],[11.68854,50.0916],[11.6989,50.09895],[11.70777,50.10958],[11.73518,50.12395],[11.73894,50.12698],[11.74115,50.13014],[11.74288,50.14157],[11.74957,50.15423],[11.74928,50.15681],[11.74575,50.16564],[11.74643,50.17052],[11.7498,50.175],[11.76015,50.18464],[11.77565,50.20275],[11.78143,50.21425],[11.78255,50.21865],[11.78185,50.22346],[11.77736,50.23221],[11.77803,50.23775],[11.78064,50.24141],[11.78914,50.24793],[11.79256,50.25149],[11.81031,50.27944],[11.81246,50.28565],[11.8111,50.29257],[11.79883,50.3161],[11.79166,50.32462],[11.78682,50.33872],[11.78785,50.34521],[11.78756,50.34789],[11.78258,50.35391],[11.78127,50.35666],[11.78142,50.35938],[11.78275,50.3618],[11.79164,50.3704],[11.79237,50.37278],[11.79191,50.3756],[11.78942,50.37885],[11.78054,50.38392],[11.77572,50.38882],[11.76586,50.39301],[11.76431,50.39491],[11.76342,50.39908],[11.76384,50.40106],[11.76546,50.40266],[11.7737,50.40527],[11.78021,50.41447],[11.78941,50.42047],[11.79355,50.42655],[11.79861,50.43166],[11.80351,50.44039],[11.80322,50.44335],[11.79983,50.45132],[11.79927,50.45501],[11.80397,50.46804],[11.80379,50.47218],[11.80182,50.47848],[11.80555,50.48703],[11.8058,50.48956],[11.80319,50.49346],[11.79456,50.49858],[11.79308,50.5008],[11.79258,50.50329],[11.79355,50.50649],[11.7979,50.5126],[11.7991,50.52348],[11.80437,50.5312],[11.80527,50.53386],[11.80523,50.53749],[11.80207,50.54331],[11.79296,50.55054],[11.78835,50.56078],[11.77629,50.56974],[11.77471,50.57261],[11.77453,50.57515],[11.79093,50.60608],[11.79331,50.62284],[11.80193,50.64592],[11.80479,50.64949],[11.81501,50.6583],[11.8236,50.67271],[11.84277,50.6991],[11.85244,50.70956],[11.85336,50.71276],[11.85307,50.71582],[11.84773,50.72707],[11.84779,50.73028],[11.84877,50.73288],[11.86193,50.74981],[11.87694,50.76177],[11.87855,50.76456],[11.88095,50.77549],[11.88365,50.7781],[11.8928,50.78376],[11.89531,50.78827],[11.8956,50.80882],[11.89482,50.81156],[11.88474,50.82062],[11.87818,50.83093],[11.86381,50.84338],[11.85477,50.85774],[11.84778,50.87533],[11.84022,50.92137],[11.83567,50.93783],[11.83399,50.94543],[11.83422,50.94738],[11.83816,50.95341],[11.84071,50.95587],[11.85843,50.96414],[11.86031,50.96642],[11.86373,50.9735],[11.86701,50.97641],[11.87151,50.9782],[11.90381,50.98655],[11.91025,50.98983],[11.91544,50.99478],[11.93944,51.03373],[11.94099,51.0379],[11.94237,51.04797],[11.95193,51.0631],[11.95435,51.06827],[11.9556,51.07492],[11.9561,51.11622],[11.95834,51.12385],[11.99909,51.17096],[12.0186,51.19891],[12.03681,51.21426],[12.07307,51.25055],[12.11173,51.27296],[12.13285,51.28752],[12.14768,51.29952],[12.15189,51.30338],[12.17564,51.33006],[12.1862,51.34572],[12.18953,51.36177],[12.18908,51.36614],[12.18098,51.39142],[12.18115,51.39719],[12.19937,51.42916],[12.2005,51.42953],[12.20152,51.42853],[12.20032,51.4279],[12.16337,51.43376],[12.15495,51.43572],[12.10775,51.45667],[12.0977,51.46218],[12.02287,51.52395],[12.01742,51.53117],[12.00647,51.55489],[12.00147,51.56],[11.99394,51.56461],[11.98487,51.5678],[11.97436,51.56948],[11.93479,51.56911],[11.91608,51.57052],[11.90131,51.57384],[11.8882,51.57964],[11.8798,51.58585],[11.87376,51.59321],[11.87083,51.60063],[11.87027,51.61337],[11.86853,51.61955],[11.86309,51.62789],[11.8555,51.63444],[11.83547,51.64542],[11.80105,51.66913],[11.79046,51.6754],[11.77522,51.682],[11.74801,51.68886],[11.739,51.69224],[11.73014,51.6981],[11.71805,51.71126],[11.71336,51.71486],[11.70702,51.71773],[11.67881,51.72655],[11.67358,51.72928],[11.66936,51.73292],[11.66659,51.73738],[11.66582,51.74178],[11.6665,51.7454],[11.67212,51.76034],[11.67166,51.7777],[11.67384,51.7834],[11.68338,51.80073],[11.68508,51.80724],[11.68338,51.81533],[11.67482,51.83035],[11.67416,51.83653],[11.67687,51.84241],[11.6896,51.85437],[11.69357,51.86083],[11.69354,51.86693],[11.68739,51.87865],[11.6862,51.88533],[11.68795,51.89248],[11.69533,51.90449],[11.69814,51.91138],[11.69962,51.92146],[11.69849,51.92985],[11.69581,51.93696],[11.69281,51.94211],[11.67799,51.96082],[11.67436,51.96651],[11.66425,51.99428],[11.65844,52.0058],[11.62841,52.04626],[11.62411,52.04945],[11.61801,52.05221],[11.57729,52.06267],[11.5614,52.06865],[11.55228,52.07365],[11.54439,52.07941],[11.53859,52.08503],[11.53378,52.09136],[11.53087,52.09675],[11.52884,52.1027],[11.5279,52.10904],[11.52822,52.11545],[11.53112,52.12508],[11.53935,52.13884],[11.54236,52.14581],[11.54573,52.16378],[11.5442,52.16575],[11.53657,52.16777],[11.52073,52.16497],[11.5081,52.16579],[11.4802,52.17641],[11.44288,52.18703],[11.43601,52.18829],[11.38946,52.18729],[11.35089,52.18745],[11.30221,52.19178],[11.23852,52.20014],[11.18936,52.20285],[11.16103,52.20834],[11.15165,52.20854],[11.13462,52.20729],[11.11696,52.20842],[11.10847,52.20996],[11.08798,52.21576],[11.06303,52.21798],[11.04271,52.22518],[11.025,52.23317],[11.01707,52.23917],[11.00529,52.24572],[10.99171,52.2589],[10.98292,52.26411],[10.97069,52.26794],[10.95352,52.27089],[10.92991,52.28023],[10.90668,52.28333],[10.89822,52.2852],[10.86257,52.29971],[10.83491,52.30834],[10.82528,52.31037],[10.77923,52.31392],[10.72826,52.3086],[10.70672,52.30808],[10.65692,52.30966],[10.60865,52.30997],[10.56948,52.31298],[10.52882,52.31348],[10.52243,52.31405],[10.52044,52.31499],[10.52024,52.31623],[10.52348,52.32062],[10.52492,52.32479],[10.52545,52.32956],[10.52496,52.33968],[10.53656,52.35068],[10.53876,52.35789],[10.53847,52.3683],[10.52595,52.40406],[10.52728,52.40782],[10.53441,52.41853],[10.534,52.43091],[10.53714,52.4352],[10.53865,52.44501],[10.52907,52.4565],[10.52494,52.46616],[10.52447,52.47407],[10.52678,52.48671],[10.52676,52.49988],[10.52566,52.50462],[10.52118,52.51267],[10.50808,52.52649],[10.50544,52.5318],[10.5059,52.53787],[10.51297,52.54749],[10.51359,52.54985],[10.51317,52.55234],[10.4649,52.64449],[10.46221,52.64833],[10.49394,52.76348],[10.49392,52.76721],[10.48681,52.81057],[10.48992,52.82329],[10.48658,52.83384],[10.49508,52.87337],[10.5006,52.87938],[10.51284,52.89729],[10.51742,52.91001],[10.51881,52.91186],[10.53324,52.91818],[10.54108,52.92599],[10.54574,52.92926],[10.56129,52.9357],[10.58278,52.94716],[10.58798,52.95169],[10.58976,52.95738],[10.58807,52.96249],[10.584,52.96902],[10.58129,52.97193],[10.57257,52.9765],[10.56739,52.98222],[10.56422,52.98437],[10.55958,52.98584],[10.55091,52.98667],[10.5476,52.98778],[10.54083,52.99557],[10.54072,52.99916],[10.54233,53.00419],[10.53901,53.00997],[10.53785,53.01691],[10.53992,53.02675],[10.53818,53.0309],[10.53771,53.0379],[10.53896,53.04457],[10.53511,53.05924],[10.53198,53.07534],[10.5227,53.10077],[10.50688,53.12326],[10.49581,53.13376],[10.49144,53.14215],[10.4911,53.14458],[10.4914,53.1466],[10.49482,53.14978],[10.49446,53.15462],[10.49794,53.16047],[10.50694,53.16132],[10.51434,53.16749],[10.52474,53.1803],[10.53306,53.18908],[10.5446,53.19518],[10.54598,53.19846],[10.54517,53.20507],[10.553,53.21371],[10.56008,53.21686],[10.56191,53.21897],[10.56714,53.22107],[10.57034,53.22576],[10.57148,53.23373],[10.57649,53.23465],[10.5817,53.23987],[10.58643,53.24165],[10.60371,53.25316],[10.60839,53.25503],[10.61386,53.25899],[10.6145,53.2622],[10.61786,53.26514],[10.62369,53.26518],[10.62486,53.26648],[10.6256,53.26897],[10.62194,53.27273],[10.61588,53.27498],[10.61372,53.27937],[10.6157,53.28071],[10.61707,53.28765],[10.61587,53.31536],[10.6146,53.3174],[10.60587,53.31902],[10.59884,53.32179],[10.59766,53.32299],[10.59769,53.32567],[10.59538,53.32738],[10.5946,53.33001],[10.59881,53.33156],[10.60001,53.3338],[10.60743,53.34023],[10.6076,53.34139],[10.59419,53.34458],[10.58776,53.34398],[10.58217,53.345],[10.57706,53.34476],[10.5735,53.3469],[10.56969,53.34785],[10.56719,53.34977],[10.56254,53.35469],[10.5614,53.36056],[10.55412,53.36325],[10.56607,53.36892],[10.56647,53.37],[10.56501,53.3717],[10.56536,53.37229],[10.57556,53.37264],[10.58009,53.37434],[10.58287,53.37681],[10.58677,53.37561],[10.59014,53.37626],[10.59601,53.37895],[10.59983,53.38328],[10.60347,53.38482],[10.60472,53.38717],[10.60667,53.38844],[10.60784,53.39239],[10.60558,53.39514],[10.60669,53.4096],[10.59755,53.41],[10.59651,53.40847],[10.59755,53.41],[10.60669,53.4096],[10.60558,53.39526],[10.60645,53.39352],[10.59395,53.39585],[10.59197,53.39206],[10.58966,53.3924],[10.58845,53.38933],[10.58469,53.38477],[10.57955,53.38459],[10.57264,53.38271],[10.56613,53.38593],[10.56084,53.38458],[10.55409,53.38477],[10.55645,53.38943],[10.5551,53.39464],[10.55797,53.39927],[10.56083,53.4064],[10.58084,53.42081],[10.56705,53.42419],[10.54867,53.43389],[10.55815,53.44122],[10.55863,53.44576],[10.52469,53.48539],[10.51636,53.49114],[10.50838,53.49518],[10.49642,53.49937],[10.48888,53.50084],[10.48968,53.50308],[10.48918,53.5037],[10.47776,53.50511],[10.47552,53.50601],[10.4744,53.5085],[10.4764,53.51128],[10.47664,53.51288],[10.47334,53.51608],[10.4695,53.51307],[10.46534,53.512],[10.46148,53.5124],[10.45571,53.51485],[10.44641,53.52354],[10.43438,53.53119],[10.42505,53.53844],[10.4025,53.57045],[10.39555,53.58473],[10.38177,53.60498],[10.37972,53.61004],[10.37869,53.61537],[10.3792,53.61897],[10.38064,53.62178],[10.3883,53.62876],[10.39018,53.6314],[10.39078,53.6395],[10.39602,53.64535],[10.39769,53.64861],[10.39793,53.6514],[10.39705,53.65429],[10.39439,53.65763],[10.38504,53.66424],[10.38096,53.6686],[10.37969,53.67254],[10.3807,53.68007],[10.37892,53.68625],[10.37655,53.69097],[10.36949,53.69912],[10.3511,53.71131],[10.34484,53.71372],[10.33216,53.7168],[10.32867,53.71876],[10.32658,53.72145],[10.32424,53.73395],[10.32098,53.73919],[10.32044,53.74139],[10.3209,53.74397],[10.32424,53.74923],[10.32477,53.75346],[10.3201,53.76184],[10.31961,53.76418],[10.32054,53.76747],[10.32652,53.77511],[10.32723,53.77952],[10.32518,53.78401],[10.31582,53.79335],[10.31443,53.79748],[10.3157,53.80143],[10.32475,53.81296],[10.32538,53.81753],[10.32014,53.8256],[10.31161,53.83201],[10.30984,53.83468],[10.30955,53.84066],[10.30602,53.85083],[10.30546,53.85901],[10.30613,53.86151],[10.31032,53.8675],[10.31055,53.87777],[10.30942,53.88173],[10.30605,53.88552],[10.30128,53.88828],[10.28304,53.8932],[10.27878,53.89664],[10.2766,53.90045],[10.2738,53.92058],[10.27691,53.92914],[10.27752,53.93405],[10.27605,53.94758],[10.2739,53.95158],[10.26427,53.95754],[10.2573,53.9639],[10.24881,53.96858],[10.23911,53.96995],[10.22678,53.97322],[10.19815,53.98298],[10.19121,53.98611],[10.18724,53.98897],[10.18405,53.99274],[10.17974,54.00412],[10.17699,54.00849],[10.17272,54.01188],[10.16714,54.01416],[10.12697,54.02097],[10.11525,54.01928],[10.10511,54.01427],[10.09855,54.01373],[10.07034,54.01877],[10.06002,54.02421],[10.04321,54.0294],[10.03383,54.03418],[10.0285,54.03819],[10.02478,54.0394],[10.00577,54.03795],[9.98608,54.04153],[9.96245,54.04181],[9.93377,54.04405],[9.92946,54.04524],[9.92508,54.05441],[9.92305,54.06095],[9.92271,54.0676],[9.92382,54.07491],[9.92647,54.08316],[9.93027,54.09076],[9.95351,54.12262],[9.95869,54.1312],[9.96176,54.13826],[9.96413,54.14804],[9.96435,54.15699],[9.96195,54.16594],[9.95796,54.17221],[9.94933,54.18004],[9.93565,54.18703],[9.92265,54.19073],[9.89674,54.19488],[9.88118,54.20044],[9.87222,54.20581],[9.85509,54.21911],[9.82495,54.23759],[9.80154,54.25791],[9.78575,54.26869],[9.77655,54.27617],[9.76894,54.28475],[9.75141,54.30937],[9.73615,54.32435],[9.71865,54.33685],[9.68835,54.35355],[9.67448,54.36234],[9.66343,54.37249],[9.65256,54.38923],[9.64572,54.39662],[9.63576,54.40325],[9.61372,54.41462],[9.6046,54.42096],[9.59893,54.42718],[9.58482,54.45003],[9.57661,54.45859],[9.56553,54.46609],[9.54531,54.47562],[9.53721,54.48033],[9.52198,54.49299],[9.50789,54.5025],[9.50125,54.50821],[9.49036,54.5222],[9.47556,54.53492],[9.46974,54.54287],[9.46734,54.55164],[9.4694,54.57097],[9.46732,54.58084],[9.4631,54.58841],[9.44972,54.60506],[9.44501,54.61247],[9.44299,54.6179],[9.43603,54.6496],[9.43225,54.66048],[9.42499,54.67315],[9.41012,54.69113],[9.40401,54.70023],[9.40176,54.70557],[9.39934,54.71798],[9.39726,54.72331],[9.39267,54.7299],[9.37248,54.75253],[9.36695,54.75708],[9.35272,54.7665],[9.34548,54.77407],[9.34058,54.78193],[9.32633,54.80983],[9.32466,54.8145],[9.32448,54.8197],[9.32583,54.82349],[9.32876,54.82722],[9.33595,54.8332],[9.34706,54.84475],[9.37318,54.86793],[9.37652,54.87275],[9.37809,54.87689],[9.37872,54.8845],[9.37739,54.899],[9.38165,54.91256],[9.38301,54.91978],[9.38359,54.94215],[9.38516,54.95228],[9.38493,54.95743],[9.38241,54.96654],[9.38142,54.97704],[9.37976,54.98314],[9.37592,54.99064],[9.36344,55.00818],[9.36258,55.01161],[9.36277,55.02118],[9.3548,55.03599],[9.35311,55.04159],[9.35249,55.04701],[9.3529,55.05096],[9.35464,55.05542],[9.36959,55.07497],[9.37171,55.07872],[9.3727,55.08243],[9.37233,55.08638],[9.36825,55.09661],[9.36693,55.10331],[9.36793,55.10924],[9.37379,55.12254],[9.37569,55.13323],[9.37521,55.14176],[9.37191,55.15654],[9.37377,55.17228],[9.37025,55.18494],[9.37077,55.18887],[9.37349,55.19529],[9.37408,55.19864],[9.37222,55.20734],[9.37221,55.21147],[9.37363,55.21572],[9.37852,55.22308],[9.38251,55.23104],[9.3863,55.23465],[9.39503,55.23962],[9.39916,55.24301],[9.40861,55.25516],[9.42204,55.26998],[9.42788,55.27959],[9.4301,55.28701],[9.43109,55.30426],[9.43277,55.31258],[9.43498,55.31808],[9.44218,55.33094],[9.44566,55.34972],[9.45083,55.36687],[9.45143,55.37659],[9.44881,55.39025],[9.44907,55.39505],[9.45432,55.40578],[9.45601,55.41456],[9.46035,55.42615],[9.46033,55.43075],[9.45896,55.43607],[9.44759,55.45737],[9.44121,55.46415],[9.42877,55.47232],[9.4239,55.47774],[9.42125,55.48897],[9.42075,55.49974],[9.42254,55.50324],[9.42497,55.5058],[9.44409,55.52164],[9.45032,55.52521],[9.46118,55.52848],[9.4958,55.5328],[9.50335,55.53551],[9.51601,55.54233],[9.525,55.54513],[9.53364,55.54611],[9.54924,55.54549],[9.57151,55.54639],[9.59292,55.54257],[9.60967,55.54229],[9.63363,55.53861],[9.66967,55.53938],[9.71076,55.53469],[9.71987,55.53118],[9.72845,55.52455],[9.73382,55.52192],[9.76944,55.51443],[9.77638,55.51206],[9.7809,55.50961],[9.7917,55.50059],[9.7992,55.49698],[9.85193,55.48587],[9.88225,55.47758],[9.88898,55.47475],[9.89906,55.46761],[9.90375,55.46528],[9.92531,55.45993],[9.95466,55.45063],[9.96185,55.44692],[9.9809,55.43492],[9.99448,55.42879],[10.03875,55.41417],[10.05014,55.41129],[10.06274,55.41019],[10.10034,55.41066],[10.12993,55.40733],[10.15892,55.40044],[10.18426,55.39544],[10.21842,55.38637],[10.23328,55.38483],[10.24761,55.3822],[10.26979,55.3818],[10.28222,55.37992],[10.28979,55.37763],[10.30737,55.36931],[10.31806,55.36565],[10.34754,55.3607],[10.36512,55.35489],[10.37851,55.35264],[10.4129,55.35121],[10.43455,55.34786],[10.4471,55.34808],[10.46114,55.35058],[10.50595,55.36364],[10.51577,55.36527],[10.52529,55.3655],[10.5388,55.3634],[10.56432,55.35424],[10.57546,55.35133],[10.60328,55.34854],[10.62721,55.34434],[10.63859,55.34346],[10.66194,55.34371],[10.67467,55.34288],[10.71455,55.33471],[10.73796,55.33183],[10.75065,55.33163],[10.79132,55.33358],[10.79757,55.33193],[10.80269,55.32848],[10.80439,55.32532],[10.80689,55.31403],[10.81217,55.30875],[10.83402,55.29968],[10.84329,55.29837],[10.86997,55.30279],[10.89787,55.30933],[10.92381,55.31711],[10.95934,55.33012],[10.9798,55.33461],[11.09348,55.34918],[11.10435,55.34974],[11.12454,55.34839],[11.13437,55.34908],[11.14313,55.35127],[11.16063,55.35892],[11.16891,55.36071],[11.18688,55.36234],[11.22452,55.36246],[11.28718,55.36757],[11.29472,55.36975],[11.31559,55.37828],[11.34389,55.38609],[11.36462,55.39012],[11.3684,55.39189],[11.37439,55.39664],[11.37826,55.39864],[11.4013,55.405],[11.40532,55.40698],[11.40914,55.41006],[11.4143,55.41857],[11.41699,55.42138],[11.4287,55.42711],[11.43766,55.42961],[11.44991,55.43168],[11.48185,55.43417],[11.496,55.43661],[11.51219,55.4421],[11.52813,55.45136],[11.53527,55.45454],[11.55481,55.45897],[11.56854,55.46033],[11.57835,55.45995],[11.6303,55.4496],[11.64285,55.44805],[11.65802,55.44738],[11.69059,55.44884],[11.71566,55.45288],[11.75924,55.45764],[11.80532,55.45469],[11.81825,55.45465],[11.83725,55.45587],[11.85468,55.45325],[11.86219,55.45289],[11.87023,55.45345],[11.88434,55.45625],[11.89345,55.45717],[11.91626,55.45585],[11.93979,55.45777],[11.97876,55.45708],[12.0009,55.45888],[12.05606,55.46672],[12.07025,55.46995],[12.09078,55.47684],[12.10113,55.47892],[12.1114,55.47966],[12.14412,55.4795],[12.1514,55.48055],[12.16208,55.48442],[12.16848,55.48938],[12.17885,55.5093],[12.18243,55.51266],[12.19086,55.51805],[12.19412,55.52146],[12.19602,55.52525],[12.19746,55.53183],[12.20107,55.5367],[12.2057,55.54005],[12.21629,55.54468],[12.22133,55.54797],[12.22455,55.55143],[12.22931,55.5593],[12.23585,55.56617],[12.2551,55.57878],[12.2659,55.58694],[12.27734,55.59305],[12.30006,55.60115],[12.33114,55.61581],[12.36098,55.62464],[12.37369,55.62726],[12.38656,55.62857],[12.4264,55.63038],[12.43121,55.62955],[12.43555,55.62775],[12.44491,55.6185],[12.45232,55.61552],[12.45785,55.61503],[12.47493,55.61627],[12.51339,55.61389],[12.51916,55.61444],[12.52429,55.61611],[12.5274,55.61824],[12.53455,55.62621],[12.53854,55.62819],[12.54369,55.62934],[12.58412,55.62791],[12.5991,55.62928],[12.64109,55.63048],[12.66211,55.63317],[12.67011,55.63301],[12.67725,55.63114],[12.73184,55.60886],[12.77147,55.59102],[12.79646,55.58255],[12.83716,55.57288],[12.86055,55.56861],[12.88675,55.56582],[12.91487,55.56538],[12.9238,55.56434],[12.93646,55.56002],[12.94705,55.55317],[12.95339,55.55013],[12.96226,55.54772],[12.9724,55.54658],[13.00328,55.54705],[13.00502,55.54621],[13.00309,55.54661],[12.99948,55.55705],[13.00021,55.56087],[13.00411,55.57018],[13.00661,55.58373],[13.01963,55.59244],[13.02528,55.59937],[13.02383,55.59974],[13.02241,55.59858]]}}
