{"type":"Feature","properties":{"source":"OSRM (router.project-osrm.org), OpenStreetMap data (ODbL)","profile":"driving","tolerance":0.0005,"waypoints":[[56.671736,16.367111],[59.302125,18.094136]],"fetched":"2026-10-06"},"geometry":{"type":"LineString","coordinates":[[16.36687,56.67172],[16.36558,56.67437],[16.35674,56.68229],[16.35543,56.6857],[16.35337,56.68549],[16.35263,56.68438],[16.34273,56.68242],[16.32888,56.68318],[16.32027,56.6895],[16.31612,56.69369],[16.31347,56.69821],[16.31243,56.70321],[16.31287,56.7071],[16.31616,56.71828],[16.3162,56.72311],[16.31442,56.72813],[16.30621,56.74285],[16.30501,56.7477],[16.30547,56.75191],[16.30974,56.75849],[16.31976,56.76529],[16.34162,56.78341],[16.34671,56.79013],[16.36179,56.80186],[16.36737,56.80892],[16.36909,56.81351],[16.36953,56.81808],[16.36654,56.83476],[16.36779,56.83748],[16.37607,56.84729],[16.37794,56.85092],[16.37896,56.85989],[16.38238,56.86962],[16.38269,56.88456],[16.37901,56.90208],[16.38538,56.91818],[16.38559,56.93182],[16.38975,56.94353],[16.39098,56.96087],[16.39186,56.96401],[16.41082,56.99106],[16.42846,57.01933],[16.4363,57.04343],[16.43948,57.05101],[16.44094,57.05705],[16.44312,57.05916],[16.44737,57.06126],[16.46903,57.06786],[16.47993,57.07626],[16.48285,57.07991],[16.48777,57.09142],[16.4972,57.10299],[16.49896,57.10729],[16.49917,57.1127],[16.49794,57.11564],[16.48899,57.1238],[16.4804,57.12806],[16.47505,57.1322],[16.47223,57.13615],[16.46899,57.14494],[16.46639,57.14897],[16.46136,57.15301],[16.44849,57.15979],[16.44487,57.16377],[16.44393,57.16701],[16.44433,57.18101],[16.43859,57.19333],[16.43758,57.20449],[16.43482,57.21335],[16.435,57.21802],[16.43745,57.22729],[16.43702,57.23263],[16.4328,57.24026],[16.4242,57.24847],[16.42207,57.25358],[16.42263,57.2578],[16.42635,57.26317],[16.44484,57.27599],[16.45002,57.28071],[16.45517,57.28686],[16.46005,57.29634],[16.46311,57.31256],[16.47368,57.32344],[16.47921,57.33285],[16.48605,57.34054],[16.49383,57.3567],[16.49462,57.36116],[16.49275,57.36825],[16.4909,57.37137],[16.48251,57.38089],[16.47821,57.39195],[16.47827,57.39587],[16.48211,57.40712],[16.48176,57.41682],[16.4829,57.42725],[16.48448,57.42997],[16.4901,57.43438],[16.49234,57.44012],[16.49818,57.44373],[16.5159,57.45888],[16.51664,57.46103],[16.51825,57.48767],[16.51773,57.49016],[16.51638,57.49205],[16.50403,57.50175],[16.50146,57.51066],[16.49808,57.5177],[16.48359,57.5345],[16.47539,57.55257],[16.47487,57.55675],[16.47592,57.56033],[16.48413,57.56968],[16.48315,57.57583],[16.48593,57.58481],[16.48634,57.58881],[16.47977,57.60236],[16.47413,57.60866],[16.46904,57.6174],[16.46071,57.62445],[16.45794,57.63053],[16.44608,57.64015],[16.44407,57.64273],[16.44323,57.64751],[16.441,57.65223],[16.44399,57.65722],[16.44467,57.65976],[16.44446,57.66182],[16.44153,57.66759],[16.44381,57.67838],[16.43999,57.68951],[16.43986,57.6927],[16.44494,57.70434],[16.4499,57.71305],[16.4509,57.71883],[16.45363,57.72173],[16.45619,57.72221],[16.46194,57.72136],[16.47989,57.72242],[16.48902,57.72159],[16.50526,57.72566],[16.51607,57.72617],[16.52436,57.73042],[16.53632,57.73299],[16.54397,57.73646],[16.55504,57.74307],[16.55732,57.74589],[16.55796,57.74856],[16.55638,57.75997],[16.55814,57.76616],[16.55575,57.77002],[16.53512,57.78027],[16.5176,57.79661],[16.50888,57.80288],[16.4976,57.80729],[16.47727,57.81797],[16.44896,57.82702],[16.44535,57.82885],[16.44331,57.83119],[16.44185,57.8359],[16.43556,57.84789],[16.43007,57.853],[16.42881,57.85808],[16.42612,57.8615],[16.40569,57.87339],[16.38819,57.88488],[16.38679,57.8878],[16.38667,57.89475],[16.38366,57.89961],[16.3831,57.90289],[16.38712,57.90988],[16.39636,57.91332],[16.39937,57.91576],[16.39962,57.92051],[16.39758,57.92756],[16.3989,57.92983],[16.42198,57.938],[16.43129,57.94396],[16.44038,57.94827],[16.44318,57.95168],[16.44352,57.95857],[16.44771,57.96222],[16.45962,57.96671],[16.47701,57.96977],[16.48245,57.97268],[16.4845,57.97662],[16.48268,57.98235],[16.48266,57.98472],[16.48497,57.9932],[16.48942,58.00468],[16.49347,58.00753],[16.50991,58.01306],[16.5161,58.01721],[16.51855,58.01981],[16.51907,58.02305],[16.51544,58.02926],[16.51532,58.03336],[16.51714,58.03663],[16.5231,58.04289],[16.52451,58.05007],[16.52844,58.05569],[16.52925,58.05851],[16.52778,58.06245],[16.52215,58.0678],[16.51955,58.07138],[16.51792,58.07548],[16.51797,58.07795],[16.52199,58.08393],[16.52267,58.08886],[16.52392,58.0914],[16.52652,58.09388],[16.53767,58.10065],[16.5421,58.10733],[16.54294,58.11001],[16.54198,58.11424],[16.53468,58.12303],[16.53257,58.12894],[16.53283,58.13264],[16.53458,58.13758],[16.53496,58.14373],[16.53716,58.14673],[16.54221,58.15097],[16.54378,58.15474],[16.54215,58.16307],[16.53844,58.16964],[16.53666,58.1748],[16.536,58.18787],[16.53737,58.19044],[16.54068,58.19308],[16.55519,58.20083],[16.5562,58.20256],[16.5579,58.2121],[16.55706,58.21492],[16.55328,58.22125],[16.55237,58.2293],[16.54982,58.2342],[16.52699,58.25716],[16.51922,58.2676],[16.51676,58.27322],[16.51389,58.27724],[16.49688,58.28997],[16.49379,58.29949],[16.48384,58.30939],[16.48027,58.31488],[16.47612,58.32486],[16.47031,58.32916],[16.45825,58.33356],[16.45321,58.33655],[16.44803,58.34638],[16.44691,58.35227],[16.44535,58.35504],[16.43153,58.36613],[16.42209,58.37886],[16.41584,58.38269],[16.41177,58.38648],[16.41049,58.38922],[16.41038,58.3948],[16.40296,58.40231],[16.40116,58.41178],[16.39838,58.41674],[16.39374,58.42146],[16.38402,58.42859],[16.37937,58.43521],[16.36938,58.44284],[16.36671,58.44574],[16.36526,58.44953],[16.36584,58.45626],[16.36396,58.45992],[16.35892,58.46354],[16.34126,58.47066],[16.33401,58.47653],[16.31404,58.48051],[16.30994,58.48766],[16.30917,58.49119],[16.30405,58.49492],[16.30042,58.50204],[16.29238,58.50899],[16.28978,58.51227],[16.28691,58.51964],[16.28732,58.52635],[16.28667,58.52965],[16.28191,58.53611],[16.2654,58.54556],[16.24192,58.55316],[16.2275,58.55979],[16.21619,58.56929],[16.21128,58.58139],[16.20774,58.58352],[16.20116,58.58563],[16.19722,58.59292],[16.19469,58.59391],[16.18594,58.60294],[16.1765,58.60627],[16.16085,58.60938],[16.15828,58.63015],[16.15876,58.63309],[16.16525,58.642],[16.1694,58.64597],[16.18781,58.65382],[16.20548,58.66582],[16.21379,58.67002],[16.22396,58.67186],[16.24364,58.67069],[16.26704,58.67728],[16.30425,58.67819],[16.31761,58.6806],[16.32634,58.68411],[16.3324,58.68754],[16.33501,58.69047],[16.33889,58.6996],[16.34421,58.70376],[16.3602,58.70917],[16.37619,58.7188],[16.39831,58.72534],[16.41943,58.73553],[16.43062,58.73837],[16.46369,58.74207],[16.49782,58.74388],[16.51412,58.74684],[16.5332,58.75161],[16.55736,58.75473],[16.59201,58.75433],[16.62081,58.75632],[16.6467,58.75458],[16.68695,58.75892],[16.71196,58.75812],[16.75252,58.75199],[16.76161,58.75276],[16.78141,58.75708],[16.79356,58.75822],[16.80469,58.75826],[16.82375,58.75687],[16.84906,58.75744],[16.86475,58.75562],[16.88012,58.75079],[16.88712,58.75038],[16.89815,58.75164],[16.90437,58.75149],[16.93814,58.74514],[16.9648,58.74803],[16.97366,58.75007],[16.98132,58.75412],[16.99301,58.76598],[16.99676,58.76814],[17.00189,58.76936],[17.02196,58.77112],[17.03865,58.77557],[17.06065,58.78336],[17.07258,58.78658],[17.08981,58.79459],[17.09854,58.79766],[17.10481,58.80139],[17.11996,58.80636],[17.12884,58.81395],[17.14585,58.81986],[17.15473,58.82537],[17.16346,58.82934],[17.17885,58.83912],[17.18812,58.8432],[17.20375,58.85161],[17.21035,58.85789],[17.22173,58.86431],[17.22472,58.86753],[17.22789,58.87278],[17.23074,58.87502],[17.24031,58.87869],[17.24974,58.88376],[17.25763,58.8866],[17.26888,58.89296],[17.27855,58.89539],[17.29634,58.89798],[17.31313,58.90394],[17.32885,58.90797],[17.34754,58.91048],[17.3664,58.91675],[17.38231,58.92077],[17.391,58.92426],[17.40137,58.92984],[17.41982,58.93459],[17.42583,58.93702],[17.43154,58.94182],[17.4369,58.95152],[17.44379,58.95586],[17.45547,58.95853],[17.48525,58.96159],[17.49549,58.96343],[17.52634,58.97564],[17.5308,58.98018],[17.53267,58.98697],[17.53593,58.99314],[17.53706,58.9988],[17.54066,59.00408],[17.54226,59.0087],[17.55329,59.02083],[17.55642,59.02862],[17.56319,59.03867],[17.5671,59.04888],[17.57002,59.05214],[17.57899,59.05916],[17.58443,59.06638],[17.59211,59.07306],[17.59764,59.086],[17.60911,59.10333],[17.61002,59.11058],[17.6112,59.11297],[17.61598,59.11639],[17.62849,59.12096],[17.63413,59.12604],[17.64236,59.13083],[17.64548,59.13418],[17.65018,59.14573],[17.64912,59.14845],[17.64524,59.1529],[17.64481,59.15534],[17.64915,59.16194],[17.64988,59.16533],[17.6474,59.17187],[17.64231,59.17866],[17.64227,59.18269],[17.64473,59.18747],[17.65712,59.19241],[17.66125,59.19787],[17.66396,59.19987],[17.68657,59.20622],[17.70113,59.20655],[17.72286,59.21082],[17.73657,59.2109],[17.76638,59.21272],[17.77495,59.21433],[17.78067,59.21737],[17.78617,59.22499],[17.79097,59.22789],[17.80257,59.23104],[17.81513,59.23687],[17.83396,59.23999],[17.83693,59.24158],[17.83932,59.24475],[17.84179,59.24654],[17.86184,59.25406],[17.86632,59.25475],[17.87741,59.25418],[17.88442,59.25584],[17.89286,59.26201],[17.90976,59.26867],[17.91254,59.27103],[17.91429,59.27479],[17.91655,59.27712],[17.9221,59.28078],[17.92754,59.28267],[17.95639,59.28892],[17.98871,59.28921],[17.99631,59.29114],[18.00786,59.29828],[18.02013,59.30083],[18.02338,59.30077],[18.03378,59.29653],[18.03828,59.29584],[18.08594,59.29624],[18.09374,59.29739],[18.10178,59.29978],[18.10163,59.30107],[18.09846,59.30092],[18.09737,59.30178],[18.09429,59.30209]]}}
